{
"type": "FeatureCollection",
"name": "18933E593907N_buildings",
"crs": { "type": "name", "properties": { "name": "urn:ogc:def:crs:EPSG::3776" } },
"features": [
{ "type": "Feature", "properties": { "value": 1.0, "building_id": 0, "area": 56.514374999400253 }, "geometry": { "type": "Polygon", "coordinates": [ [ [ 18933.0, 5939646.599999999627471 ], [ 18933.0, 5939635.799999999813735 ], [ 18936.3, 5939635.799999999813735 ], [ 18936.3, 5939635.875 ], [ 18936.825, 5939635.875 ], [ 18936.825, 5939635.950000000186265 ], [ 18937.5, 5939635.950000000186265 ], [ 18937.5, 5939636.025000000372529 ], [ 18937.95, 5939636.025000000372529 ], [ 18937.95, 5939636.099999999627471 ], [ 18938.025000000001455, 5939636.099999999627471 ], [ 18938.025000000001455, 5939636.174999999813735 ], [ 18938.175, 5939636.174999999813735 ], [ 18938.175, 5939636.25 ], [ 18938.25, 5939636.25 ], [ 18938.25, 5939636.325000000186265 ], [ 18938.400000000001455, 5939636.325000000186265 ], [ 18938.400000000001455, 5939636.400000000372529 ], [ 18938.474999999998545, 5939636.400000000372529 ], [ 18938.474999999998545, 5939636.474999999627471 ], [ 18938.55, 5939636.474999999627471 ], [ 18938.55, 5939636.549999999813735 ], [ 18938.625, 5939636.549999999813735 ], [ 18938.625, 5939636.700000000186265 ], [ 18938.7, 5939636.700000000186265 ], [ 18938.7, 5939636.924999999813735 ], [ 18938.775000000001455, 5939636.924999999813735 ], [ 18938.775000000001455, 5939637.224999999627471 ], [ 18938.849999999998545, 5939637.224999999627471 ], [ 18938.849999999998545, 5939637.375 ], [ 18938.925, 5939637.375 ], [ 18938.925, 5939637.599999999627471 ], [ 18939.0, 5939637.599999999627471 ], [ 18939.0, 5939637.75 ], [ 18939.075, 5939637.75 ], [ 18939.075, 5939637.900000000372529 ], [ 18939.150000000001455, 5939637.900000000372529 ], [ 18939.150000000001455, 5939638.049999999813735 ], [ 18939.224999999998545, 5939638.049999999813735 ], [ 18939.224999999998545, 5939638.125 ], [ 18939.3, 5939638.125 ], [ 18939.3, 5939638.275000000372529 ], [ 18939.375, 5939638.275000000372529 ], [ 18939.375, 5939638.349999999627471 ], [ 18939.45, 5939638.349999999627471 ], [ 18939.45, 5939638.5 ], [ 18939.525000000001455, 5939638.5 ], [ 18939.525000000001455, 5939638.650000000372529 ], [ 18939.45, 5939638.650000000372529 ], [ 18939.45, 5939638.799999999813735 ], [ 18939.375, 5939638.799999999813735 ], [ 18939.375, 5939638.950000000186265 ], [ 18939.3, 5939638.950000000186265 ], [ 18939.3, 5939639.025000000372529 ], [ 18939.224999999998545, 5939639.025000000372529 ], [ 18939.224999999998545, 5939639.174999999813735 ], [ 18939.150000000001455, 5939639.174999999813735 ], [ 18939.150000000001455, 5939639.400000000372529 ], [ 18939.075, 5939639.400000000372529 ], [ 18939.075, 5939639.549999999813735 ], [ 18939.0, 5939639.549999999813735 ], [ 18939.0, 5939639.700000000186265 ], [ 18938.925, 5939639.700000000186265 ], [ 18938.925, 5939639.924999999813735 ], [ 18938.849999999998545, 5939639.924999999813735 ], [ 18938.849999999998545, 5939640.150000000372529 ], [ 18938.775000000001455, 5939640.150000000372529 ], [ 18938.775000000001455, 5939640.450000000186265 ], [ 18938.7, 5939640.450000000186265 ], [ 18938.7, 5939640.674999999813735 ], [ 18938.625, 5939640.674999999813735 ], [ 18938.625, 5939641.049999999813735 ], [ 18938.55, 5939641.049999999813735 ], [ 18938.55, 5939641.424999999813735 ], [ 18938.474999999998545, 5939641.424999999813735 ], [ 18938.474999999998545, 5939641.799999999813735 ], [ 18938.400000000001455, 5939641.799999999813735 ], [ 18938.400000000001455, 5939642.25 ], [ 18938.325, 5939642.25 ], [ 18938.325, 5939642.625 ], [ 18938.25, 5939642.625 ], [ 18938.25, 5939643.0 ], [ 18938.175, 5939643.0 ], [ 18938.175, 5939643.375 ], [ 18938.099999999998545, 5939643.375 ], [ 18938.099999999998545, 5939643.75 ], [ 18938.025000000001455, 5939643.75 ], [ 18938.025000000001455, 5939644.125 ], [ 18937.95, 5939644.125 ], [ 18937.95, 5939644.424999999813735 ], [ 18937.875, 5939644.424999999813735 ], [ 18937.875, 5939644.5 ], [ 18937.8, 5939644.5 ], [ 18937.8, 5939644.575000000186265 ], [ 18937.724999999998545, 5939644.575000000186265 ], [ 18937.724999999998545, 5939644.650000000372529 ], [ 18937.575, 5939644.650000000372529 ], [ 18937.575, 5939644.724999999627471 ], [ 18937.425, 5939644.724999999627471 ], [ 18937.425, 5939644.799999999813735 ], [ 18937.349999999998545, 5939644.799999999813735 ], [ 18937.349999999998545, 5939644.875 ], [ 18937.2, 5939644.875 ], [ 18937.2, 5939644.950000000186265 ], [ 18937.125, 5939644.950000000186265 ], [ 18937.125, 5939645.025000000372529 ], [ 18937.05, 5939645.025000000372529 ], [ 18937.05, 5939645.099999999627471 ], [ 18936.974999999998545, 5939645.099999999627471 ], [ 18936.974999999998545, 5939645.174999999813735 ], [ 18936.900000000001455, 5939645.174999999813735 ], [ 18936.900000000001455, 5939645.25 ], [ 18936.825, 5939645.25 ], [ 18936.825, 5939645.325000000186265 ], [ 18936.75, 5939645.325000000186265 ], [ 18936.75, 5939645.400000000372529 ], [ 18936.675, 5939645.400000000372529 ], [ 18936.675, 5939645.549999999813735 ], [ 18936.599999999998545, 5939645.549999999813735 ], [ 18936.599999999998545, 5939645.625 ], [ 18936.525000000001455, 5939645.625 ], [ 18936.525000000001455, 5939645.775000000372529 ], [ 18936.45, 5939645.775000000372529 ], [ 18936.45, 5939645.849999999627471 ], [ 18936.375, 5939645.849999999627471 ], [ 18936.375, 5939646.0 ], [ 18936.3, 5939646.0 ], [ 18936.3, 5939646.150000000372529 ], [ 18936.224999999998545, 5939646.150000000372529 ], [ 18936.224999999998545, 5939646.299999999813735 ], [ 18936.150000000001455, 5939646.299999999813735 ], [ 18936.150000000001455, 5939646.450000000186265 ], [ 18936.075, 5939646.450000000186265 ], [ 18936.075, 5939646.525000000372529 ], [ 18936.0, 5939646.525000000372529 ], [ 18936.0, 5939646.599999999627471 ], [ 18933.0, 5939646.599999999627471 ] ] ] } },
{ "type": "Feature", "properties": { "value": 1.0, "building_id": 1, "area": 23.83312499891046 }, "geometry": { "type": "Polygon", "coordinates": [ [ [ 18933.0, 5939579.174999999813735 ], [ 18933.0, 5939573.325000000186265 ], [ 18935.925, 5939573.325000000186265 ], [ 18935.925, 5939573.400000000372529 ], [ 18936.075, 5939573.400000000372529 ], [ 18936.075, 5939573.474999999627471 ], [ 18936.224999999998545, 5939573.474999999627471 ], [ 18936.224999999998545, 5939573.549999999813735 ], [ 18936.375, 5939573.549999999813735 ], [ 18936.375, 5939573.625 ], [ 18936.525000000001455, 5939573.625 ], [ 18936.525000000001455, 5939573.700000000186265 ], [ 18936.675, 5939573.700000000186265 ], [ 18936.675, 5939573.775000000372529 ], [ 18936.75, 5939573.775000000372529 ], [ 18936.75, 5939573.849999999627471 ], [ 18936.900000000001455, 5939573.849999999627471 ], [ 18936.900000000001455, 5939573.924999999813735 ], [ 18936.974999999998545, 5939573.924999999813735 ], [ 18936.974999999998545, 5939574.0 ], [ 18937.125, 5939574.0 ], [ 18937.125, 5939574.075000000186265 ], [ 18937.2, 5939574.075000000186265 ], [ 18937.2, 5939574.150000000372529 ], [ 18937.275000000001455, 5939574.150000000372529 ], [ 18937.275000000001455, 5939574.375 ], [ 18937.349999999998545, 5939574.375 ], [ 18937.349999999998545, 5939574.599999999627471 ], [ 18937.425, 5939574.599999999627471 ], [ 18937.425, 5939574.75 ], [ 18937.5, 5939574.75 ], [ 18937.5, 5939574.974999999627471 ], [ 18937.575, 5939574.974999999627471 ], [ 18937.575, 5939575.125 ], [ 18937.650000000001455, 5939575.125 ], [ 18937.650000000001455, 5939575.349999999627471 ], [ 18937.724999999998545, 5939575.349999999627471 ], [ 18937.724999999998545, 5939575.5 ], [ 18937.8, 5939575.5 ], [ 18937.8, 5939575.724999999627471 ], [ 18937.875, 5939575.724999999627471 ], [ 18937.875, 5939575.950000000186265 ], [ 18937.95, 5939575.950000000186265 ], [ 18937.95, 5939576.174999999813735 ], [ 18937.875, 5939576.174999999813735 ], [ 18937.875, 5939576.25 ], [ 18937.8, 5939576.25 ], [ 18937.8, 5939576.325000000186265 ], [ 18937.724999999998545, 5939576.325000000186265 ], [ 18937.724999999998545, 5939576.400000000372529 ], [ 18937.650000000001455, 5939576.400000000372529 ], [ 18937.650000000001455, 5939576.474999999627471 ], [ 18937.575, 5939576.474999999627471 ], [ 18937.575, 5939576.625 ], [ 18937.5, 5939576.625 ], [ 18937.5, 5939576.700000000186265 ], [ 18937.425, 5939576.700000000186265 ], [ 18937.425, 5939576.775000000372529 ], [ 18937.349999999998545, 5939576.775000000372529 ], [ 18937.349999999998545, 5939576.924999999813735 ], [ 18937.275000000001455, 5939576.924999999813735 ], [ 18937.275000000001455, 5939577.0 ], [ 18937.2, 5939577.0 ], [ 18937.2, 5939577.075000000186265 ], [ 18937.125, 5939577.075000000186265 ], [ 18937.125, 5939577.224999999627471 ], [ 18937.05, 5939577.224999999627471 ], [ 18937.05, 5939577.299999999813735 ], [ 18936.974999999998545, 5939577.299999999813735 ], [ 18936.974999999998545, 5939577.450000000186265 ], [ 18936.900000000001455, 5939577.450000000186265 ], [ 18936.900000000001455, 5939577.599999999627471 ], [ 18936.825, 5939577.599999999627471 ], [ 18936.825, 5939577.674999999813735 ], [ 18936.75, 5939577.674999999813735 ], [ 18936.75, 5939577.825000000186265 ], [ 18936.675, 5939577.825000000186265 ], [ 18936.675, 5939577.974999999627471 ], [ 18936.599999999998545, 5939577.974999999627471 ], [ 18936.599999999998545, 5939578.049999999813735 ], [ 18936.525000000001455, 5939578.049999999813735 ], [ 18936.525000000001455, 5939578.200000000186265 ], [ 18936.45, 5939578.200000000186265 ], [ 18936.45, 5939578.349999999627471 ], [ 18936.375, 5939578.349999999627471 ], [ 18936.375, 5939578.5 ], [ 18936.3, 5939578.5 ], [ 18936.3, 5939578.575000000186265 ], [ 18936.224999999998545, 5939578.575000000186265 ], [ 18936.224999999998545, 5939578.724999999627471 ], [ 18936.150000000001455, 5939578.724999999627471 ], [ 18936.150000000001455, 5939578.875 ], [ 18936.075, 5939578.875 ], [ 18936.075, 5939578.950000000186265 ], [ 18936.0, 5939578.950000000186265 ], [ 18936.0, 5939579.099999999627471 ], [ 18935.925, 5939579.099999999627471 ], [ 18935.925, 5939579.174999999813735 ], [ 18933.0, 5939579.174999999813735 ] ] ] } },
{ "type": "Feature", "properties": { "value": 1.0, "building_id": 2, "area": 46.248749999398299 }, "geometry": { "type": "Polygon", "coordinates": [ [ [ 18933.0, 5939481.224999999627471 ], [ 18933.0, 5939472.299999999813735 ], [ 18936.224999999998545, 5939472.299999999813735 ], [ 18936.224999999998545, 5939472.375 ], [ 18936.675, 5939472.375 ], [ 18936.675, 5939472.450000000186265 ], [ 18937.05, 5939472.450000000186265 ], [ 18937.05, 5939472.525000000372529 ], [ 18937.349999999998545, 5939472.525000000372529 ], [ 18937.349999999998545, 5939472.599999999627471 ], [ 18937.425, 5939472.599999999627471 ], [ 18937.425, 5939472.674999999813735 ], [ 18937.575, 5939472.674999999813735 ], [ 18937.575, 5939472.75 ], [ 18937.650000000001455, 5939472.75 ], [ 18937.650000000001455, 5939472.825000000186265 ], [ 18937.724999999998545, 5939472.825000000186265 ], [ 18937.724999999998545, 5939472.900000000372529 ], [ 18937.875, 5939472.900000000372529 ], [ 18937.875, 5939473.049999999813735 ], [ 18937.95, 5939473.049999999813735 ], [ 18937.95, 5939473.200000000186265 ], [ 18938.025000000001455, 5939473.200000000186265 ], [ 18938.025000000001455, 5939473.424999999813735 ], [ 18938.099999999998545, 5939473.424999999813735 ], [ 18938.099999999998545, 5939473.575000000186265 ], [ 18938.175, 5939473.575000000186265 ], [ 18938.175, 5939473.724999999627471 ], [ 18938.25, 5939473.724999999627471 ], [ 18938.25, 5939473.950000000186265 ], [ 18938.325, 5939473.950000000186265 ], [ 18938.325, 5939474.099999999627471 ], [ 18938.400000000001455, 5939474.099999999627471 ], [ 18938.400000000001455, 5939474.25 ], [ 18938.474999999998545, 5939474.25 ], [ 18938.474999999998545, 5939474.400000000372529 ], [ 18938.55, 5939474.400000000372529 ], [ 18938.55, 5939475.674999999813735 ], [ 18938.474999999998545, 5939475.674999999813735 ], [ 18938.474999999998545, 5939477.325000000186265 ], [ 18938.400000000001455, 5939477.325000000186265 ], [ 18938.400000000001455, 5939478.599999999627471 ], [ 18938.325, 5939478.599999999627471 ], [ 18938.325, 5939479.424999999813735 ], [ 18938.25, 5939479.424999999813735 ], [ 18938.25, 5939480.174999999813735 ], [ 18938.175, 5939480.174999999813735 ], [ 18938.175, 5939480.400000000372529 ], [ 18938.099999999998545, 5939480.400000000372529 ], [ 18938.099999999998545, 5939480.474999999627471 ], [ 18938.025000000001455, 5939480.474999999627471 ], [ 18938.025000000001455, 5939480.549999999813735 ], [ 18937.95, 5939480.549999999813735 ], [ 18937.95, 5939480.625 ], [ 18937.875, 5939480.625 ], [ 18937.875, 5939480.700000000186265 ], [ 18937.575, 5939480.700000000186265 ], [ 18937.575, 5939480.775000000372529 ], [ 18937.275000000001455, 5939480.775000000372529 ], [ 18937.275000000001455, 5939480.849999999627471 ], [ 18937.05, 5939480.849999999627471 ], [ 18937.05, 5939480.924999999813735 ], [ 18936.75, 5939480.924999999813735 ], [ 18936.75, 5939481.0 ], [ 18936.525000000001455, 5939481.0 ], [ 18936.525000000001455, 5939481.075000000186265 ], [ 18936.224999999998545, 5939481.075000000186265 ], [ 18936.224999999998545, 5939481.150000000372529 ], [ 18936.0, 5939481.150000000372529 ], [ 18936.0, 5939481.224999999627471 ], [ 18933.0, 5939481.224999999627471 ] ] ] } },
{ "type": "Feature", "properties": { "value": 1.0, "building_id": 3, "area": 38.210625001019679 }, "geometry": { "type": "Polygon", "coordinates": [ [ [ 18933.0, 5939389.575000000186265 ], [ 18933.0, 5939380.799999999813735 ], [ 18935.925, 5939380.799999999813735 ], [ 18935.925, 5939380.875 ], [ 18936.0, 5939380.875 ], [ 18936.0, 5939381.025000000372529 ], [ 18936.075, 5939381.025000000372529 ], [ 18936.075, 5939381.25 ], [ 18936.150000000001455, 5939381.25 ], [ 18936.150000000001455, 5939381.400000000372529 ], [ 18936.224999999998545, 5939381.400000000372529 ], [ 18936.224999999998545, 5939381.625 ], [ 18936.3, 5939381.625 ], [ 18936.3, 5939381.775000000372529 ], [ 18936.375, 5939381.775000000372529 ], [ 18936.375, 5939381.924999999813735 ], [ 18936.45, 5939381.924999999813735 ], [ 18936.45, 5939382.150000000372529 ], [ 18936.525000000001455, 5939382.150000000372529 ], [ 18936.525000000001455, 5939382.299999999813735 ], [ 18936.599999999998545, 5939382.299999999813735 ], [ 18936.599999999998545, 5939382.450000000186265 ], [ 18936.675, 5939382.450000000186265 ], [ 18936.675, 5939382.599999999627471 ], [ 18936.75, 5939382.599999999627471 ], [ 18936.75, 5939382.825000000186265 ], [ 18936.825, 5939382.825000000186265 ], [ 18936.825, 5939382.974999999627471 ], [ 18936.900000000001455, 5939382.974999999627471 ], [ 18936.900000000001455, 5939383.200000000186265 ], [ 18936.974999999998545, 5939383.200000000186265 ], [ 18936.974999999998545, 5939383.349999999627471 ], [ 18937.05, 5939383.349999999627471 ], [ 18937.05, 5939383.5 ], [ 18937.125, 5939383.5 ], [ 18937.125, 5939383.650000000372529 ], [ 18937.2, 5939383.650000000372529 ], [ 18937.2, 5939383.799999999813735 ], [ 18937.275000000001455, 5939383.799999999813735 ], [ 18937.275000000001455, 5939383.950000000186265 ], [ 18937.349999999998545, 5939383.950000000186265 ], [ 18937.349999999998545, 5939384.099999999627471 ], [ 18937.425, 5939384.099999999627471 ], [ 18937.425, 5939384.25 ], [ 18937.5, 5939384.25 ], [ 18937.5, 5939384.400000000372529 ], [ 18937.575, 5939384.400000000372529 ], [ 18937.575, 5939384.549999999813735 ], [ 18937.650000000001455, 5939384.549999999813735 ], [ 18937.650000000001455, 5939384.700000000186265 ], [ 18937.724999999998545, 5939384.700000000186265 ], [ 18937.724999999998545, 5939384.849999999627471 ], [ 18937.8, 5939384.849999999627471 ], [ 18937.8, 5939384.924999999813735 ], [ 18937.875, 5939384.924999999813735 ], [ 18937.875, 5939385.150000000372529 ], [ 18937.95, 5939385.150000000372529 ], [ 18937.95, 5939385.375 ], [ 18938.025000000001455, 5939385.375 ], [ 18938.025000000001455, 5939385.599999999627471 ], [ 18938.099999999998545, 5939385.599999999627471 ], [ 18938.099999999998545, 5939385.900000000372529 ], [ 18938.175, 5939385.900000000372529 ], [ 18938.175, 5939386.200000000186265 ], [ 18938.25, 5939386.200000000186265 ], [ 18938.25, 5939386.5 ], [ 18938.325, 5939386.5 ], [ 18938.325, 5939386.724999999627471 ], [ 18938.25, 5939386.724999999627471 ], [ 18938.25, 5939387.025000000372529 ], [ 18938.175, 5939387.025000000372529 ], [ 18938.175, 5939387.325000000186265 ], [ 18938.099999999998545, 5939387.325000000186265 ], [ 18938.099999999998545, 5939387.625 ], [ 18938.025000000001455, 5939387.625 ], [ 18938.025000000001455, 5939387.924999999813735 ], [ 18937.95, 5939387.924999999813735 ], [ 18937.95, 5939388.150000000372529 ], [ 18937.875, 5939388.150000000372529 ], [ 18937.875, 5939388.299999999813735 ], [ 18937.8, 5939388.299999999813735 ], [ 18937.8, 5939388.450000000186265 ], [ 18937.724999999998545, 5939388.450000000186265 ], [ 18937.724999999998545, 5939388.599999999627471 ], [ 18937.575, 5939388.599999999627471 ], [ 18937.575, 5939388.674999999813735 ], [ 18937.5, 5939388.674999999813735 ], [ 18937.5, 5939388.75 ], [ 18937.425, 5939388.75 ], [ 18937.425, 5939388.825000000186265 ], [ 18937.275000000001455, 5939388.825000000186265 ], [ 18937.275000000001455, 5939388.900000000372529 ], [ 18937.125, 5939388.900000000372529 ], [ 18937.125, 5939388.974999999627471 ], [ 18937.05, 5939388.974999999627471 ], [ 18937.05, 5939389.049999999813735 ], [ 18936.900000000001455, 5939389.049999999813735 ], [ 18936.900000000001455, 5939389.125 ], [ 18936.75, 5939389.125 ], [ 18936.75, 5939389.200000000186265 ], [ 18936.675, 5939389.200000000186265 ], [ 18936.675, 5939389.275000000372529 ], [ 18936.525000000001455, 5939389.275000000372529 ], [ 18936.525000000001455, 5939389.349999999627471 ], [ 18936.375, 5939389.349999999627471 ], [ 18936.375, 5939389.424999999813735 ], [ 18936.224999999998545, 5939389.424999999813735 ], [ 18936.224999999998545, 5939389.5 ], [ 18936.075, 5939389.5 ], [ 18936.075, 5939389.575000000186265 ], [ 18933.0, 5939389.575000000186265 ] ] ] } },
{ "type": "Feature", "properties": { "value": 1.0, "building_id": 4, "area": 11.548125002207126 }, "geometry": { "type": "Polygon", "coordinates": [ [ [ 18933.0, 5939273.025000000372529 ], [ 18933.0, 5939269.349999999627471 ], [ 18936.0, 5939269.349999999627471 ], [ 18936.0, 5939269.650000000372529 ], [ 18936.075, 5939269.650000000372529 ], [ 18936.075, 5939270.099999999627471 ], [ 18936.150000000001455, 5939270.099999999627471 ], [ 18936.150000000001455, 5939270.549999999813735 ], [ 18936.224999999998545, 5939270.549999999813735 ], [ 18936.224999999998545, 5939271.075000000186265 ], [ 18936.3, 5939271.075000000186265 ], [ 18936.3, 5939271.599999999627471 ], [ 18936.224999999998545, 5939271.599999999627471 ], [ 18936.224999999998545, 5939271.974999999627471 ], [ 18936.150000000001455, 5939271.974999999627471 ], [ 18936.150000000001455, 5939272.275000000372529 ], [ 18936.075, 5939272.275000000372529 ], [ 18936.075, 5939272.575000000186265 ], [ 18936.0, 5939272.575000000186265 ], [ 18936.0, 5939272.950000000186265 ], [ 18935.925, 5939272.950000000186265 ], [ 18935.925, 5939273.025000000372529 ], [ 18933.0, 5939273.025000000372529 ] ] ] } },
{ "type": "Feature", "properties": { "value": 1.0, "building_id": 5, "area": 42.018749998461686 }, "geometry": { "type": "Polygon", "coordinates": [ [ [ 18933.0, 5939204.099999999627471 ], [ 18933.0, 5939194.575000000186265 ], [ 18935.925, 5939194.575000000186265 ], [ 18935.925, 5939194.650000000372529 ], [ 18936.0, 5939194.650000000372529 ], [ 18936.0, 5939194.724999999627471 ], [ 18936.150000000001455, 5939194.724999999627471 ], [ 18936.150000000001455, 5939194.799999999813735 ], [ 18936.224999999998545, 5939194.799999999813735 ], [ 18936.224999999998545, 5939194.875 ], [ 18936.3, 5939194.875 ], [ 18936.3, 5939194.950000000186265 ], [ 18936.375, 5939194.950000000186265 ], [ 18936.375, 5939195.025000000372529 ], [ 18936.45, 5939195.025000000372529 ], [ 18936.45, 5939195.099999999627471 ], [ 18936.525000000001455, 5939195.099999999627471 ], [ 18936.525000000001455, 5939195.174999999813735 ], [ 18936.599999999998545, 5939195.174999999813735 ], [ 18936.599999999998545, 5939195.25 ], [ 18936.675, 5939195.25 ], [ 18936.675, 5939195.400000000372529 ], [ 18936.75, 5939195.400000000372529 ], [ 18936.75, 5939195.474999999627471 ], [ 18936.825, 5939195.474999999627471 ], [ 18936.825, 5939195.625 ], [ 18936.900000000001455, 5939195.625 ], [ 18936.900000000001455, 5939195.700000000186265 ], [ 18936.974999999998545, 5939195.700000000186265 ], [ 18936.974999999998545, 5939195.849999999627471 ], [ 18937.05, 5939195.849999999627471 ], [ 18937.05, 5939196.0 ], [ 18937.125, 5939196.0 ], [ 18937.125, 5939196.075000000186265 ], [ 18937.2, 5939196.075000000186265 ], [ 18937.2, 5939196.224999999627471 ], [ 18937.275000000001455, 5939196.224999999627471 ], [ 18937.275000000001455, 5939196.375 ], [ 18937.349999999998545, 5939196.375 ], [ 18937.349999999998545, 5939196.599999999627471 ], [ 18937.425, 5939196.599999999627471 ], [ 18937.425, 5939196.75 ], [ 18937.5, 5939196.75 ], [ 18937.5, 5939196.900000000372529 ], [ 18937.575, 5939196.900000000372529 ], [ 18937.575, 5939197.125 ], [ 18937.650000000001455, 5939197.125 ], [ 18937.650000000001455, 5939197.349999999627471 ], [ 18937.724999999998545, 5939197.349999999627471 ], [ 18937.724999999998545, 5939197.650000000372529 ], [ 18937.8, 5939197.650000000372529 ], [ 18937.8, 5939197.950000000186265 ], [ 18937.875, 5939197.950000000186265 ], [ 18937.875, 5939198.099999999627471 ], [ 18937.95, 5939198.099999999627471 ], [ 18937.95, 5939198.174999999813735 ], [ 18938.099999999998545, 5939198.174999999813735 ], [ 18938.099999999998545, 5939198.25 ], [ 18938.175, 5939198.25 ], [ 18938.175, 5939198.400000000372529 ], [ 18938.25, 5939198.400000000372529 ], [ 18938.25, 5939198.549999999813735 ], [ 18938.325, 5939198.549999999813735 ], [ 18938.325, 5939198.700000000186265 ], [ 18938.400000000001455, 5939198.700000000186265 ], [ 18938.400000000001455, 5939198.924999999813735 ], [ 18938.474999999998545, 5939198.924999999813735 ], [ 18938.474999999998545, 5939199.075000000186265 ], [ 18938.55, 5939199.075000000186265 ], [ 18938.55, 5939199.150000000372529 ], [ 18938.474999999998545, 5939199.150000000372529 ], [ 18938.474999999998545, 5939199.825000000186265 ], [ 18938.325, 5939199.825000000186265 ], [ 18938.325, 5939199.900000000372529 ], [ 18938.099999999998545, 5939199.900000000372529 ], [ 18938.099999999998545, 5939199.974999999627471 ], [ 18937.875, 5939199.974999999627471 ], [ 18937.875, 5939200.125 ], [ 18937.8, 5939200.125 ], [ 18937.8, 5939200.349999999627471 ], [ 18937.724999999998545, 5939200.349999999627471 ], [ 18937.724999999998545, 5939200.575000000186265 ], [ 18937.650000000001455, 5939200.575000000186265 ], [ 18937.650000000001455, 5939200.799999999813735 ], [ 18937.575, 5939200.799999999813735 ], [ 18937.575, 5939201.099999999627471 ], [ 18937.5, 5939201.099999999627471 ], [ 18937.5, 5939201.325000000186265 ], [ 18937.425, 5939201.325000000186265 ], [ 18937.425, 5939201.549999999813735 ], [ 18937.349999999998545, 5939201.549999999813735 ], [ 18937.349999999998545, 5939201.775000000372529 ], [ 18937.275000000001455, 5939201.775000000372529 ], [ 18937.275000000001455, 5939202.0 ], [ 18937.2, 5939202.0 ], [ 18937.2, 5939202.224999999627471 ], [ 18937.125, 5939202.224999999627471 ], [ 18937.125, 5939202.525000000372529 ], [ 18937.05, 5939202.525000000372529 ], [ 18937.05, 5939202.825000000186265 ], [ 18936.974999999998545, 5939202.825000000186265 ], [ 18936.974999999998545, 5939203.049999999813735 ], [ 18936.900000000001455, 5939203.049999999813735 ], [ 18936.900000000001455, 5939203.200000000186265 ], [ 18936.825, 5939203.200000000186265 ], [ 18936.825, 5939203.349999999627471 ], [ 18936.75, 5939203.349999999627471 ], [ 18936.75, 5939203.5 ], [ 18936.675, 5939203.5 ], [ 18936.675, 5939203.575000000186265 ], [ 18936.599999999998545, 5939203.575000000186265 ], [ 18936.599999999998545, 5939203.650000000372529 ], [ 18936.525000000001455, 5939203.650000000372529 ], [ 18936.525000000001455, 5939203.724999999627471 ], [ 18936.45, 5939203.724999999627471 ], [ 18936.45, 5939203.799999999813735 ], [ 18936.375, 5939203.799999999813735 ], [ 18936.375, 5939203.875 ], [ 18936.3, 5939203.875 ], [ 18936.3, 5939203.950000000186265 ], [ 18936.150000000001455, 5939203.950000000186265 ], [ 18936.150000000001455, 5939204.025000000372529 ], [ 18936.075, 5939204.025000000372529 ], [ 18936.075, 5939204.099999999627471 ], [ 18933.0, 5939204.099999999627471 ] ] ] } },
{ "type": "Feature", "properties": { "value": 1.0, "building_id": 6, "area": 586.12499999797978 }, "geometry": { "type": "Polygon", "coordinates": [ [ [ 19023.675, 5939110.875 ], [ 19023.675, 5939110.799999999813735 ], [ 19021.724999999998545, 5939110.799999999813735 ], [ 19021.724999999998545, 5939110.724999999627471 ], [ 19021.125, 5939110.724999999627471 ], [ 19021.125, 5939110.650000000372529 ], [ 19020.675, 5939110.650000000372529 ], [ 19020.675, 5939110.575000000186265 ], [ 19020.224999999998545, 5939110.575000000186265 ], [ 19020.224999999998545, 5939110.5 ], [ 19019.849999999998545, 5939110.5 ], [ 19019.849999999998545, 5939110.424999999813735 ], [ 19019.7, 5939110.424999999813735 ], [ 19019.7, 5939110.349999999627471 ], [ 19019.55, 5939110.349999999627471 ], [ 19019.55, 5939110.275000000372529 ], [ 19019.400000000001455, 5939110.275000000372529 ], [ 19019.400000000001455, 5939110.200000000186265 ], [ 19019.25, 5939110.200000000186265 ], [ 19019.25, 5939110.125 ], [ 19019.175, 5939110.125 ], [ 19019.175, 5939110.049999999813735 ], [ 19019.025000000001455, 5939110.049999999813735 ], [ 19019.025000000001455, 5939109.974999999627471 ], [ 19018.95, 5939109.974999999627471 ], [ 19018.95, 5939109.900000000372529 ], [ 19018.875, 5939109.900000000372529 ], [ 19018.875, 5939109.825000000186265 ], [ 19018.8, 5939109.825000000186265 ], [ 19018.8, 5939109.75 ], [ 19018.724999999998545, 5939109.75 ], [ 19018.724999999998545, 5939109.674999999813735 ], [ 19018.650000000001455, 5939109.674999999813735 ], [ 19018.650000000001455, 5939109.599999999627471 ], [ 19018.575, 5939109.599999999627471 ], [ 19018.575, 5939109.525000000372529 ], [ 19018.5, 5939109.525000000372529 ], [ 19018.5, 5939109.375 ], [ 19018.425, 5939109.375 ], [ 19018.425, 5939109.299999999813735 ], [ 19018.349999999998545, 5939109.299999999813735 ], [ 19018.349999999998545, 5939109.224999999627471 ], [ 19018.275000000001455, 5939109.224999999627471 ], [ 19018.275000000001455, 5939109.150000000372529 ], [ 19018.2, 5939109.150000000372529 ], [ 19018.2, 5939109.075000000186265 ], [ 19018.05, 5939109.075000000186265 ], [ 19018.05, 5939109.0 ], [ 19017.974999999998545, 5939109.0 ], [ 19017.974999999998545, 5939108.924999999813735 ], [ 19017.825, 5939108.924999999813735 ], [ 19017.825, 5939108.849999999627471 ], [ 19017.599999999998545, 5939108.849999999627471 ], [ 19017.599999999998545, 5939108.775000000372529 ], [ 19017.45, 5939108.775000000372529 ], [ 19017.45, 5939108.700000000186265 ], [ 19017.3, 5939108.700000000186265 ], [ 19017.3, 5939108.625 ], [ 19017.075, 5939108.625 ], [ 19017.075, 5939108.549999999813735 ], [ 19016.925, 5939108.549999999813735 ], [ 19016.925, 5939108.474999999627471 ], [ 19016.775000000001455, 5939108.474999999627471 ], [ 19016.775000000001455, 5939108.400000000372529 ], [ 19016.625, 5939108.400000000372529 ], [ 19016.625, 5939108.325000000186265 ], [ 19016.474999999998545, 5939108.325000000186265 ], [ 19016.474999999998545, 5939108.25 ], [ 19016.325, 5939108.25 ], [ 19016.325, 5939108.174999999813735 ], [ 19016.175, 5939108.174999999813735 ], [ 19016.175, 5939108.099999999627471 ], [ 19016.025000000001455, 5939108.099999999627471 ], [ 19016.025000000001455, 5939108.025000000372529 ], [ 19015.95, 5939108.025000000372529 ], [ 19015.95, 5939107.950000000186265 ], [ 19015.875, 5939107.950000000186265 ], [ 19015.875, 5939107.875 ], [ 19015.8, 5939107.875 ], [ 19015.8, 5939107.799999999813735 ], [ 19015.724999999998545, 5939107.799999999813735 ], [ 19015.724999999998545, 5939107.724999999627471 ], [ 19015.650000000001455, 5939107.724999999627471 ], [ 19015.650000000001455, 5939107.575000000186265 ], [ 19015.575, 5939107.575000000186265 ], [ 19015.575, 5939107.5 ], [ 19015.5, 5939107.5 ], [ 19015.5, 5939107.349999999627471 ], [ 19015.425, 5939107.349999999627471 ], [ 19015.425, 5939107.200000000186265 ], [ 19015.349999999998545, 5939107.200000000186265 ], [ 19015.349999999998545, 5939106.900000000372529 ], [ 19015.275000000001455, 5939106.900000000372529 ], [ 19015.275000000001455, 5939106.674999999813735 ], [ 19015.2, 5939106.674999999813735 ], [ 19015.2, 5939106.450000000186265 ], [ 19015.125, 5939106.450000000186265 ], [ 19015.125, 5939106.224999999627471 ], [ 19015.05, 5939106.224999999627471 ], [ 19015.05, 5939106.0 ], [ 19014.974999999998545, 5939106.0 ], [ 19014.974999999998545, 5939105.775000000372529 ], [ 19014.900000000001455, 5939105.775000000372529 ], [ 19014.900000000001455, 5939105.549999999813735 ], [ 19014.825, 5939105.549999999813735 ], [ 19014.825, 5939105.25 ], [ 19014.75, 5939105.25 ], [ 19014.75, 5939104.724999999627471 ], [ 19014.675, 5939104.724999999627471 ], [ 19014.675, 5939104.200000000186265 ], [ 19014.599999999998545, 5939104.200000000186265 ], [ 19014.599999999998545, 5939103.674999999813735 ], [ 19014.525000000001455, 5939103.674999999813735 ], [ 19014.525000000001455, 5939103.224999999627471 ], [ 19014.45, 5939103.224999999627471 ], [ 19014.45, 5939102.849999999627471 ], [ 19014.375, 5939102.849999999627471 ], [ 19014.375, 5939102.400000000372529 ], [ 19014.3, 5939102.400000000372529 ], [ 19014.3, 5939102.025000000372529 ], [ 19014.224999999998545, 5939102.025000000372529 ], [ 19014.224999999998545, 5939101.650000000372529 ], [ 19014.150000000001455, 5939101.650000000372529 ], [ 19014.150000000001455, 5939101.349999999627471 ], [ 19014.075, 5939101.349999999627471 ], [ 19014.075, 5939100.974999999627471 ], [ 19014.0, 5939100.974999999627471 ], [ 19014.0, 5939100.525000000372529 ], [ 19013.925, 5939100.525000000372529 ], [ 19013.925, 5939100.075000000186265 ], [ 19013.849999999998545, 5939100.075000000186265 ], [ 19013.849999999998545, 5939099.625 ], [ 19013.775000000001455, 5939099.625 ], [ 19013.775000000001455, 5939099.25 ], [ 19013.7, 5939099.25 ], [ 19013.7, 5939098.875 ], [ 19013.625, 5939098.875 ], [ 19013.625, 5939098.575000000186265 ], [ 19013.55, 5939098.575000000186265 ], [ 19013.55, 5939098.200000000186265 ], [ 19013.474999999998545, 5939098.200000000186265 ], [ 19013.474999999998545, 5939097.825000000186265 ], [ 19013.400000000001455, 5939097.825000000186265 ], [ 19013.400000000001455, 5939097.450000000186265 ], [ 19013.325, 5939097.450000000186265 ], [ 19013.325, 5939097.224999999627471 ], [ 19013.25, 5939097.224999999627471 ], [ 19013.25, 5939097.0 ], [ 19013.175, 5939097.0 ], [ 19013.175, 5939096.700000000186265 ], [ 19013.099999999998545, 5939096.700000000186265 ], [ 19013.099999999998545, 5939096.474999999627471 ], [ 19013.025000000001455, 5939096.474999999627471 ], [ 19013.025000000001455, 5939096.25 ], [ 19012.95, 5939096.25 ], [ 19012.95, 5939095.950000000186265 ], [ 19012.875, 5939095.950000000186265 ], [ 19012.875, 5939095.724999999627471 ], [ 19012.8, 5939095.724999999627471 ], [ 19012.8, 5939095.5 ], [ 19012.724999999998545, 5939095.5 ], [ 19012.724999999998545, 5939095.200000000186265 ], [ 19012.650000000001455, 5939095.200000000186265 ], [ 19012.650000000001455, 5939094.974999999627471 ], [ 19012.575, 5939094.974999999627471 ], [ 19012.575, 5939094.75 ], [ 19012.5, 5939094.75 ], [ 19012.5, 5939094.525000000372529 ], [ 19012.425, 5939094.525000000372529 ], [ 19012.425, 5939094.299999999813735 ], [ 19012.349999999998545, 5939094.299999999813735 ], [ 19012.349999999998545, 5939094.075000000186265 ], [ 19012.275000000001455, 5939094.075000000186265 ], [ 19012.275000000001455, 5939093.849999999627471 ], [ 19012.2, 5939093.849999999627471 ], [ 19012.2, 5939093.700000000186265 ], [ 19012.125, 5939093.700000000186265 ], [ 19012.125, 5939093.474999999627471 ], [ 19012.2, 5939093.474999999627471 ], [ 19012.2, 5939093.400000000372529 ], [ 19012.275000000001455, 5939093.400000000372529 ], [ 19012.275000000001455, 5939093.325000000186265 ], [ 19012.349999999998545, 5939093.325000000186265 ], [ 19012.349999999998545, 5939093.174999999813735 ], [ 19012.425, 5939093.174999999813735 ], [ 19012.425, 5939093.099999999627471 ], [ 19012.5, 5939093.099999999627471 ], [ 19012.5, 5939093.025000000372529 ], [ 19012.575, 5939093.025000000372529 ], [ 19012.575, 5939092.950000000186265 ], [ 19012.650000000001455, 5939092.950000000186265 ], [ 19012.650000000001455, 5939092.875 ], [ 19012.724999999998545, 5939092.875 ], [ 19012.724999999998545, 5939092.724999999627471 ], [ 19012.8, 5939092.724999999627471 ], [ 19012.8, 5939092.650000000372529 ], [ 19012.875, 5939092.650000000372529 ], [ 19012.875, 5939092.575000000186265 ], [ 19012.95, 5939092.575000000186265 ], [ 19012.95, 5939092.5 ], [ 19013.025000000001455, 5939092.5 ], [ 19013.025000000001455, 5939092.424999999813735 ], [ 19013.099999999998545, 5939092.424999999813735 ], [ 19013.099999999998545, 5939092.349999999627471 ], [ 19013.175, 5939092.349999999627471 ], [ 19013.175, 5939092.200000000186265 ], [ 19013.25, 5939092.200000000186265 ], [ 19013.25, 5939092.125 ], [ 19013.325, 5939092.125 ], [ 19013.325, 5939092.049999999813735 ], [ 19013.400000000001455, 5939092.049999999813735 ], [ 19013.400000000001455, 5939091.974999999627471 ], [ 19013.474999999998545, 5939091.974999999627471 ], [ 19013.474999999998545, 5939091.900000000372529 ], [ 19013.55, 5939091.900000000372529 ], [ 19013.55, 5939091.825000000186265 ], [ 19013.625, 5939091.825000000186265 ], [ 19013.625, 5939091.75 ], [ 19013.7, 5939091.75 ], [ 19013.7, 5939091.674999999813735 ], [ 19013.775000000001455, 5939091.674999999813735 ], [ 19013.775000000001455, 5939091.599999999627471 ], [ 19013.849999999998545, 5939091.599999999627471 ], [ 19013.849999999998545, 5939091.525000000372529 ], [ 19013.925, 5939091.525000000372529 ], [ 19013.925, 5939091.450000000186265 ], [ 19014.0, 5939091.450000000186265 ], [ 19014.0, 5939091.375 ], [ 19014.075, 5939091.375 ], [ 19014.075, 5939091.299999999813735 ], [ 19014.150000000001455, 5939091.299999999813735 ], [ 19014.150000000001455, 5939091.224999999627471 ], [ 19014.224999999998545, 5939091.224999999627471 ], [ 19014.224999999998545, 5939091.150000000372529 ], [ 19014.375, 5939091.150000000372529 ], [ 19014.375, 5939091.075000000186265 ], [ 19014.45, 5939091.075000000186265 ], [ 19014.45, 5939091.0 ], [ 19014.525000000001455, 5939091.0 ], [ 19014.525000000001455, 5939090.924999999813735 ], [ 19014.599999999998545, 5939090.924999999813735 ], [ 19014.599999999998545, 5939090.775000000372529 ], [ 19014.675, 5939090.775000000372529 ], [ 19014.675, 5939090.700000000186265 ], [ 19014.75, 5939090.700000000186265 ], [ 19014.75, 5939090.625 ], [ 19014.825, 5939090.625 ], [ 19014.825, 5939090.474999999627471 ], [ 19014.900000000001455, 5939090.474999999627471 ], [ 19014.900000000001455, 5939090.400000000372529 ], [ 19014.974999999998545, 5939090.400000000372529 ], [ 19014.974999999998545, 5939090.25 ], [ 19015.05, 5939090.25 ], [ 19015.05, 5939090.099999999627471 ], [ 19015.125, 5939090.099999999627471 ], [ 19015.125, 5939089.950000000186265 ], [ 19015.2, 5939089.950000000186265 ], [ 19015.2, 5939089.650000000372529 ], [ 19015.275000000001455, 5939089.650000000372529 ], [ 19015.275000000001455, 5939088.974999999627471 ], [ 19015.5, 5939088.974999999627471 ], [ 19015.5, 5939088.900000000372529 ], [ 19015.8, 5939088.900000000372529 ], [ 19015.8, 5939088.825000000186265 ], [ 19016.175, 5939088.825000000186265 ], [ 19016.175, 5939088.75 ], [ 19016.55, 5939088.75 ], [ 19016.55, 5939088.674999999813735 ], [ 19017.075, 5939088.674999999813735 ], [ 19017.075, 5939088.599999999627471 ], [ 19017.599999999998545, 5939088.599999999627471 ], [ 19017.599999999998545, 5939088.525000000372529 ], [ 19018.125, 5939088.525000000372529 ], [ 19018.125, 5939088.450000000186265 ], [ 19018.650000000001455, 5939088.450000000186265 ], [ 19018.650000000001455, 5939088.375 ], [ 19019.099999999998545, 5939088.375 ], [ 19019.099999999998545, 5939088.299999999813735 ], [ 19019.55, 5939088.299999999813735 ], [ 19019.55, 5939088.224999999627471 ], [ 19019.925, 5939088.224999999627471 ], [ 19019.925, 5939088.150000000372529 ], [ 19020.075, 5939088.150000000372529 ], [ 19020.075, 5939088.075000000186265 ], [ 19020.224999999998545, 5939088.075000000186265 ], [ 19020.224999999998545, 5939088.0 ], [ 19020.375, 5939088.0 ], [ 19020.375, 5939087.924999999813735 ], [ 19020.45, 5939087.924999999813735 ], [ 19020.45, 5939087.849999999627471 ], [ 19020.599999999998545, 5939087.849999999627471 ], [ 19020.599999999998545, 5939087.775000000372529 ], [ 19020.675, 5939087.775000000372529 ], [ 19020.675, 5939087.700000000186265 ], [ 19020.825, 5939087.700000000186265 ], [ 19020.825, 5939087.625 ], [ 19020.900000000001455, 5939087.625 ], [ 19020.900000000001455, 5939087.549999999813735 ], [ 19021.05, 5939087.549999999813735 ], [ 19021.05, 5939087.474999999627471 ], [ 19021.2, 5939087.474999999627471 ], [ 19021.2, 5939087.400000000372529 ], [ 19021.349999999998545, 5939087.400000000372529 ], [ 19021.349999999998545, 5939087.325000000186265 ], [ 19021.5, 5939087.325000000186265 ], [ 19021.5, 5939087.25 ], [ 19021.650000000001455, 5939087.25 ], [ 19021.650000000001455, 5939087.174999999813735 ], [ 19021.875, 5939087.174999999813735 ], [ 19021.875, 5939087.099999999627471 ], [ 19022.474999999998545, 5939087.099999999627471 ], [ 19022.474999999998545, 5939087.025000000372529 ], [ 19023.075, 5939087.025000000372529 ], [ 19023.075, 5939086.950000000186265 ], [ 19023.75, 5939086.950000000186265 ], [ 19023.75, 5939086.875 ], [ 19025.025000000001455, 5939086.875 ], [ 19025.025000000001455, 5939086.799999999813735 ], [ 19026.3, 5939086.799999999813735 ], [ 19026.3, 5939086.724999999627471 ], [ 19027.650000000001455, 5939086.724999999627471 ], [ 19027.650000000001455, 5939086.650000000372529 ], [ 19028.849999999998545, 5939086.650000000372529 ], [ 19028.849999999998545, 5939086.575000000186265 ], [ 19031.025000000001455, 5939086.575000000186265 ], [ 19031.025000000001455, 5939086.5 ], [ 19031.925, 5939086.5 ], [ 19031.925, 5939086.575000000186265 ], [ 19033.724999999998545, 5939086.575000000186265 ], [ 19033.724999999998545, 5939086.650000000372529 ], [ 19034.625, 5939086.650000000372529 ], [ 19034.625, 5939086.724999999627471 ], [ 19035.3, 5939086.724999999627471 ], [ 19035.3, 5939086.799999999813735 ], [ 19035.75, 5939086.799999999813735 ], [ 19035.75, 5939086.875 ], [ 19035.974999999998545, 5939086.875 ], [ 19035.974999999998545, 5939086.950000000186265 ], [ 19036.275000000001455, 5939086.950000000186265 ], [ 19036.275000000001455, 5939087.025000000372529 ], [ 19036.425, 5939087.025000000372529 ], [ 19036.425, 5939087.099999999627471 ], [ 19036.650000000001455, 5939087.099999999627471 ], [ 19036.650000000001455, 5939087.174999999813735 ], [ 19036.8, 5939087.174999999813735 ], [ 19036.8, 5939087.25 ], [ 19036.95, 5939087.25 ], [ 19036.95, 5939087.325000000186265 ], [ 19037.099999999998545, 5939087.325000000186265 ], [ 19037.099999999998545, 5939087.400000000372529 ], [ 19037.175, 5939087.400000000372529 ], [ 19037.175, 5939087.474999999627471 ], [ 19037.325, 5939087.474999999627471 ], [ 19037.325, 5939087.549999999813735 ], [ 19037.400000000001455, 5939087.549999999813735 ], [ 19037.400000000001455, 5939087.625 ], [ 19037.55, 5939087.625 ], [ 19037.55, 5939087.700000000186265 ], [ 19037.625, 5939087.700000000186265 ], [ 19037.625, 5939087.775000000372529 ], [ 19037.7, 5939087.775000000372529 ], [ 19037.7, 5939087.849999999627471 ], [ 19037.775000000001455, 5939087.849999999627471 ], [ 19037.775000000001455, 5939087.924999999813735 ], [ 19037.925, 5939087.924999999813735 ], [ 19037.925, 5939088.0 ], [ 19038.0, 5939088.0 ], [ 19038.0, 5939088.075000000186265 ], [ 19038.150000000001455, 5939088.075000000186265 ], [ 19038.150000000001455, 5939088.150000000372529 ], [ 19038.3, 5939088.150000000372529 ], [ 19038.3, 5939088.224999999627471 ], [ 19038.45, 5939088.224999999627471 ], [ 19038.45, 5939088.299999999813735 ], [ 19038.599999999998545, 5939088.299999999813735 ], [ 19038.599999999998545, 5939088.375 ], [ 19038.75, 5939088.375 ], [ 19038.75, 5939088.450000000186265 ], [ 19038.900000000001455, 5939088.450000000186265 ], [ 19038.900000000001455, 5939088.525000000372529 ], [ 19039.05, 5939088.525000000372529 ], [ 19039.05, 5939088.599999999627471 ], [ 19039.2, 5939088.599999999627471 ], [ 19039.2, 5939088.674999999813735 ], [ 19039.425, 5939088.674999999813735 ], [ 19039.425, 5939088.75 ], [ 19039.575, 5939088.75 ], [ 19039.575, 5939088.825000000186265 ], [ 19039.650000000001455, 5939088.825000000186265 ], [ 19039.650000000001455, 5939088.900000000372529 ], [ 19039.724999999998545, 5939088.900000000372529 ], [ 19039.724999999998545, 5939088.974999999627471 ], [ 19039.8, 5939088.974999999627471 ], [ 19039.8, 5939089.049999999813735 ], [ 19039.875, 5939089.049999999813735 ], [ 19039.875, 5939089.125 ], [ 19039.95, 5939089.125 ], [ 19039.95, 5939089.200000000186265 ], [ 19040.025000000001455, 5939089.200000000186265 ], [ 19040.025000000001455, 5939089.349999999627471 ], [ 19040.099999999998545, 5939089.349999999627471 ], [ 19040.099999999998545, 5939089.424999999813735 ], [ 19040.175, 5939089.424999999813735 ], [ 19040.175, 5939089.575000000186265 ], [ 19040.25, 5939089.575000000186265 ], [ 19040.25, 5939089.724999999627471 ], [ 19040.325, 5939089.724999999627471 ], [ 19040.325, 5939090.849999999627471 ], [ 19040.400000000001455, 5939090.849999999627471 ], [ 19040.400000000001455, 5939093.25 ], [ 19040.325, 5939093.25 ], [ 19040.325, 5939097.900000000372529 ], [ 19040.25, 5939097.900000000372529 ], [ 19040.25, 5939100.375 ], [ 19040.175, 5939100.375 ], [ 19040.175, 5939102.25 ], [ 19040.099999999998545, 5939102.25 ], [ 19040.099999999998545, 5939104.049999999813735 ], [ 19040.025000000001455, 5939104.049999999813735 ], [ 19040.025000000001455, 5939105.400000000372529 ], [ 19039.95, 5939105.400000000372529 ], [ 19039.95, 5939105.700000000186265 ], [ 19039.875, 5939105.700000000186265 ], [ 19039.875, 5939105.924999999813735 ], [ 19039.8, 5939105.924999999813735 ], [ 19039.8, 5939106.150000000372529 ], [ 19039.724999999998545, 5939106.150000000372529 ], [ 19039.724999999998545, 5939106.299999999813735 ], [ 19039.650000000001455, 5939106.299999999813735 ], [ 19039.650000000001455, 5939106.525000000372529 ], [ 19039.575, 5939106.525000000372529 ], [ 19039.575, 5939106.674999999813735 ], [ 19039.5, 5939106.674999999813735 ], [ 19039.5, 5939106.825000000186265 ], [ 19039.425, 5939106.825000000186265 ], [ 19039.425, 5939106.974999999627471 ], [ 19039.349999999998545, 5939106.974999999627471 ], [ 19039.349999999998545, 5939107.049999999813735 ], [ 19039.275000000001455, 5939107.049999999813735 ], [ 19039.275000000001455, 5939107.125 ], [ 19039.2, 5939107.125 ], [ 19039.2, 5939107.275000000372529 ], [ 19039.125, 5939107.275000000372529 ], [ 19039.125, 5939107.349999999627471 ], [ 19039.05, 5939107.349999999627471 ], [ 19039.05, 5939107.424999999813735 ], [ 19038.974999999998545, 5939107.424999999813735 ], [ 19038.974999999998545, 5939107.5 ], [ 19038.900000000001455, 5939107.5 ], [ 19038.900000000001455, 5939107.575000000186265 ], [ 19038.75, 5939107.575000000186265 ], [ 19038.75, 5939107.650000000372529 ], [ 19038.675, 5939107.650000000372529 ], [ 19038.675, 5939107.724999999627471 ], [ 19038.599999999998545, 5939107.724999999627471 ], [ 19038.599999999998545, 5939107.799999999813735 ], [ 19038.45, 5939107.799999999813735 ], [ 19038.45, 5939107.875 ], [ 19038.375, 5939107.875 ], [ 19038.375, 5939107.950000000186265 ], [ 19038.3, 5939107.950000000186265 ], [ 19038.3, 5939108.025000000372529 ], [ 19038.224999999998545, 5939108.025000000372529 ], [ 19038.224999999998545, 5939108.099999999627471 ], [ 19038.075, 5939108.099999999627471 ], [ 19038.075, 5939108.174999999813735 ], [ 19038.0, 5939108.174999999813735 ], [ 19038.0, 5939108.25 ], [ 19037.925, 5939108.25 ], [ 19037.925, 5939108.325000000186265 ], [ 19037.775000000001455, 5939108.325000000186265 ], [ 19037.775000000001455, 5939108.400000000372529 ], [ 19037.7, 5939108.400000000372529 ], [ 19037.7, 5939108.474999999627471 ], [ 19037.55, 5939108.474999999627471 ], [ 19037.55, 5939108.549999999813735 ], [ 19037.474999999998545, 5939108.549999999813735 ], [ 19037.474999999998545, 5939108.625 ], [ 19037.325, 5939108.625 ], [ 19037.325, 5939108.700000000186265 ], [ 19037.25, 5939108.700000000186265 ], [ 19037.25, 5939108.775000000372529 ], [ 19037.099999999998545, 5939108.775000000372529 ], [ 19037.099999999998545, 5939108.849999999627471 ], [ 19037.025000000001455, 5939108.849999999627471 ], [ 19037.025000000001455, 5939108.924999999813735 ], [ 19036.875, 5939108.924999999813735 ], [ 19036.875, 5939109.0 ], [ 19036.8, 5939109.0 ], [ 19036.8, 5939109.075000000186265 ], [ 19036.724999999998545, 5939109.075000000186265 ], [ 19036.724999999998545, 5939109.150000000372529 ], [ 19036.650000000001455, 5939109.150000000372529 ], [ 19036.650000000001455, 5939109.224999999627471 ], [ 19036.5, 5939109.224999999627471 ], [ 19036.5, 5939109.299999999813735 ], [ 19036.425, 5939109.299999999813735 ], [ 19036.425, 5939109.375 ], [ 19036.349999999998545, 5939109.375 ], [ 19036.349999999998545, 5939109.450000000186265 ], [ 19036.2, 5939109.450000000186265 ], [ 19036.2, 5939109.525000000372529 ], [ 19036.05, 5939109.525000000372529 ], [ 19036.05, 5939109.599999999627471 ], [ 19035.900000000001455, 5939109.599999999627471 ], [ 19035.900000000001455, 5939109.674999999813735 ], [ 19035.75, 5939109.674999999813735 ], [ 19035.75, 5939109.75 ], [ 19035.599999999998545, 5939109.75 ], [ 19035.599999999998545, 5939109.825000000186265 ], [ 19035.375, 5939109.825000000186265 ], [ 19035.375, 5939109.900000000372529 ], [ 19035.075, 5939109.900000000372529 ], [ 19035.075, 5939109.974999999627471 ], [ 19034.775000000001455, 5939109.974999999627471 ], [ 19034.775000000001455, 5939110.049999999813735 ], [ 19034.474999999998545, 5939110.049999999813735 ], [ 19034.474999999998545, 5939110.125 ], [ 19034.175, 5939110.125 ], [ 19034.175, 5939110.200000000186265 ], [ 19033.8, 5939110.200000000186265 ], [ 19033.8, 5939110.275000000372529 ], [ 19033.349999999998545, 5939110.275000000372529 ], [ 19033.349999999998545, 5939110.349999999627471 ], [ 19032.825, 5939110.349999999627471 ], [ 19032.825, 5939110.424999999813735 ], [ 19032.375, 5939110.424999999813735 ], [ 19032.375, 5939110.5 ], [ 19031.849999999998545, 5939110.5 ], [ 19031.849999999998545, 5939110.575000000186265 ], [ 19031.25, 5939110.575000000186265 ], [ 19031.25, 5939110.650000000372529 ], [ 19030.425, 5939110.650000000372529 ], [ 19030.425, 5939110.724999999627471 ], [ 19028.925, 5939110.724999999627471 ], [ 19028.925, 5939110.799999999813735 ], [ 19024.05, 5939110.799999999813735 ], [ 19024.05, 5939110.875 ], [ 19023.675, 5939110.875 ] ] ] } }
]
}
