{
"type": "FeatureCollection",
"name": "20433E592332N_buildings",
"crs": { "type": "name", "properties": { "name": "urn:ogc:def:crs:EPSG::3776" } },
"features": [
{ "type": "Feature", "properties": { "value": 1.0, "building_id": 0, "area": 300.60000000139496 }, "geometry": { "type": "Polygon", "coordinates": [ [ [ 20528.775000000001455, 5923784.400000000372529 ], [ 20528.775000000001455, 5923784.325000000186265 ], [ 20527.8, 5923784.325000000186265 ], [ 20527.8, 5923784.25 ], [ 20527.05, 5923784.25 ], [ 20527.05, 5923784.174999999813735 ], [ 20526.3, 5923784.174999999813735 ], [ 20526.3, 5923784.099999999627471 ], [ 20525.7, 5923784.099999999627471 ], [ 20525.7, 5923784.025000000372529 ], [ 20525.55, 5923784.025000000372529 ], [ 20525.55, 5923783.950000000186265 ], [ 20525.400000000001455, 5923783.950000000186265 ], [ 20525.400000000001455, 5923783.875 ], [ 20525.25, 5923783.875 ], [ 20525.25, 5923783.799999999813735 ], [ 20525.099999999998545, 5923783.799999999813735 ], [ 20525.099999999998545, 5923783.724999999627471 ], [ 20524.95, 5923783.724999999627471 ], [ 20524.95, 5923783.650000000372529 ], [ 20524.875, 5923783.650000000372529 ], [ 20524.875, 5923783.575000000186265 ], [ 20524.724999999998545, 5923783.575000000186265 ], [ 20524.724999999998545, 5923783.5 ], [ 20524.650000000001455, 5923783.5 ], [ 20524.650000000001455, 5923783.424999999813735 ], [ 20524.575, 5923783.424999999813735 ], [ 20524.575, 5923783.349999999627471 ], [ 20524.5, 5923783.349999999627471 ], [ 20524.5, 5923783.275000000372529 ], [ 20524.425, 5923783.275000000372529 ], [ 20524.425, 5923783.200000000186265 ], [ 20524.349999999998545, 5923783.200000000186265 ], [ 20524.349999999998545, 5923783.125 ], [ 20524.275000000001455, 5923783.125 ], [ 20524.275000000001455, 5923783.049999999813735 ], [ 20524.2, 5923783.049999999813735 ], [ 20524.2, 5923782.974999999627471 ], [ 20524.125, 5923782.974999999627471 ], [ 20524.125, 5923782.900000000372529 ], [ 20524.05, 5923782.900000000372529 ], [ 20524.05, 5923782.825000000186265 ], [ 20523.974999999998545, 5923782.825000000186265 ], [ 20523.974999999998545, 5923782.75 ], [ 20523.900000000001455, 5923782.75 ], [ 20523.900000000001455, 5923782.674999999813735 ], [ 20523.75, 5923782.674999999813735 ], [ 20523.75, 5923782.599999999627471 ], [ 20523.525000000001455, 5923782.599999999627471 ], [ 20523.525000000001455, 5923782.525000000372529 ], [ 20523.375, 5923782.525000000372529 ], [ 20523.375, 5923782.450000000186265 ], [ 20523.3, 5923782.450000000186265 ], [ 20523.3, 5923782.375 ], [ 20523.150000000001455, 5923782.375 ], [ 20523.150000000001455, 5923782.299999999813735 ], [ 20523.0, 5923782.299999999813735 ], [ 20523.0, 5923782.224999999627471 ], [ 20522.925, 5923782.224999999627471 ], [ 20522.925, 5923782.150000000372529 ], [ 20522.849999999998545, 5923782.150000000372529 ], [ 20522.849999999998545, 5923782.075000000186265 ], [ 20522.775000000001455, 5923782.075000000186265 ], [ 20522.775000000001455, 5923782.0 ], [ 20522.7, 5923782.0 ], [ 20522.7, 5923781.924999999813735 ], [ 20522.625, 5923781.924999999813735 ], [ 20522.625, 5923781.849999999627471 ], [ 20522.55, 5923781.849999999627471 ], [ 20522.55, 5923781.775000000372529 ], [ 20522.474999999998545, 5923781.775000000372529 ], [ 20522.474999999998545, 5923781.700000000186265 ], [ 20522.400000000001455, 5923781.700000000186265 ], [ 20522.400000000001455, 5923781.549999999813735 ], [ 20522.325, 5923781.549999999813735 ], [ 20522.325, 5923781.474999999627471 ], [ 20522.25, 5923781.474999999627471 ], [ 20522.25, 5923781.325000000186265 ], [ 20522.175, 5923781.325000000186265 ], [ 20522.175, 5923781.174999999813735 ], [ 20522.099999999998545, 5923781.174999999813735 ], [ 20522.099999999998545, 5923781.025000000372529 ], [ 20522.025000000001455, 5923781.025000000372529 ], [ 20522.025000000001455, 5923780.875 ], [ 20521.95, 5923780.875 ], [ 20521.95, 5923780.799999999813735 ], [ 20521.875, 5923780.799999999813735 ], [ 20521.875, 5923780.724999999627471 ], [ 20521.8, 5923780.724999999627471 ], [ 20521.8, 5923780.650000000372529 ], [ 20521.575, 5923780.650000000372529 ], [ 20521.575, 5923780.575000000186265 ], [ 20521.425, 5923780.575000000186265 ], [ 20521.425, 5923780.5 ], [ 20521.275000000001455, 5923780.5 ], [ 20521.275000000001455, 5923780.424999999813735 ], [ 20521.125, 5923780.424999999813735 ], [ 20521.125, 5923780.349999999627471 ], [ 20521.05, 5923780.349999999627471 ], [ 20521.05, 5923780.275000000372529 ], [ 20520.974999999998545, 5923780.275000000372529 ], [ 20520.974999999998545, 5923780.200000000186265 ], [ 20520.825, 5923780.200000000186265 ], [ 20520.825, 5923780.125 ], [ 20520.75, 5923780.125 ], [ 20520.75, 5923779.974999999627471 ], [ 20520.675, 5923779.974999999627471 ], [ 20520.675, 5923779.900000000372529 ], [ 20520.599999999998545, 5923779.900000000372529 ], [ 20520.599999999998545, 5923779.825000000186265 ], [ 20520.525000000001455, 5923779.825000000186265 ], [ 20520.525000000001455, 5923779.674999999813735 ], [ 20520.45, 5923779.674999999813735 ], [ 20520.45, 5923779.525000000372529 ], [ 20520.375, 5923779.525000000372529 ], [ 20520.375, 5923779.375 ], [ 20520.3, 5923779.375 ], [ 20520.3, 5923779.150000000372529 ], [ 20520.224999999998545, 5923779.150000000372529 ], [ 20520.224999999998545, 5923778.924999999813735 ], [ 20520.150000000001455, 5923778.924999999813735 ], [ 20520.150000000001455, 5923778.775000000372529 ], [ 20520.075, 5923778.775000000372529 ], [ 20520.075, 5923778.549999999813735 ], [ 20520.0, 5923778.549999999813735 ], [ 20520.0, 5923778.400000000372529 ], [ 20519.925, 5923778.400000000372529 ], [ 20519.925, 5923778.174999999813735 ], [ 20519.849999999998545, 5923778.174999999813735 ], [ 20519.849999999998545, 5923778.025000000372529 ], [ 20519.775000000001455, 5923778.025000000372529 ], [ 20519.775000000001455, 5923777.799999999813735 ], [ 20519.7, 5923777.799999999813735 ], [ 20519.7, 5923777.650000000372529 ], [ 20519.625, 5923777.650000000372529 ], [ 20519.625, 5923777.424999999813735 ], [ 20519.55, 5923777.424999999813735 ], [ 20519.55, 5923776.974999999627471 ], [ 20519.625, 5923776.974999999627471 ], [ 20519.625, 5923776.75 ], [ 20519.7, 5923776.75 ], [ 20519.7, 5923776.599999999627471 ], [ 20519.775000000001455, 5923776.599999999627471 ], [ 20519.775000000001455, 5923776.450000000186265 ], [ 20519.849999999998545, 5923776.450000000186265 ], [ 20519.849999999998545, 5923776.299999999813735 ], [ 20519.925, 5923776.299999999813735 ], [ 20519.925, 5923776.150000000372529 ], [ 20520.0, 5923776.150000000372529 ], [ 20520.0, 5923775.924999999813735 ], [ 20520.075, 5923775.924999999813735 ], [ 20520.075, 5923775.700000000186265 ], [ 20520.150000000001455, 5923775.700000000186265 ], [ 20520.150000000001455, 5923775.549999999813735 ], [ 20520.224999999998545, 5923775.549999999813735 ], [ 20520.224999999998545, 5923775.474999999627471 ], [ 20520.3, 5923775.474999999627471 ], [ 20520.3, 5923775.325000000186265 ], [ 20520.375, 5923775.325000000186265 ], [ 20520.375, 5923775.174999999813735 ], [ 20520.45, 5923775.174999999813735 ], [ 20520.45, 5923774.950000000186265 ], [ 20520.525000000001455, 5923774.950000000186265 ], [ 20520.525000000001455, 5923774.724999999627471 ], [ 20520.599999999998545, 5923774.724999999627471 ], [ 20520.599999999998545, 5923774.5 ], [ 20520.675, 5923774.5 ], [ 20520.675, 5923774.275000000372529 ], [ 20520.75, 5923774.275000000372529 ], [ 20520.75, 5923774.125 ], [ 20520.825, 5923774.125 ], [ 20520.825, 5923773.900000000372529 ], [ 20520.900000000001455, 5923773.900000000372529 ], [ 20520.900000000001455, 5923773.75 ], [ 20520.974999999998545, 5923773.75 ], [ 20520.974999999998545, 5923773.525000000372529 ], [ 20521.05, 5923773.525000000372529 ], [ 20521.05, 5923773.375 ], [ 20521.125, 5923773.375 ], [ 20521.125, 5923773.224999999627471 ], [ 20521.2, 5923773.224999999627471 ], [ 20521.2, 5923773.075000000186265 ], [ 20521.275000000001455, 5923773.075000000186265 ], [ 20521.275000000001455, 5923772.924999999813735 ], [ 20521.349999999998545, 5923772.924999999813735 ], [ 20521.349999999998545, 5923772.775000000372529 ], [ 20521.425, 5923772.775000000372529 ], [ 20521.425, 5923772.625 ], [ 20521.5, 5923772.625 ], [ 20521.5, 5923772.474999999627471 ], [ 20521.575, 5923772.474999999627471 ], [ 20521.575, 5923772.400000000372529 ], [ 20521.650000000001455, 5923772.400000000372529 ], [ 20521.650000000001455, 5923772.25 ], [ 20521.724999999998545, 5923772.25 ], [ 20521.724999999998545, 5923772.174999999813735 ], [ 20521.8, 5923772.174999999813735 ], [ 20521.8, 5923772.025000000372529 ], [ 20521.875, 5923772.025000000372529 ], [ 20521.875, 5923771.875 ], [ 20521.95, 5923771.875 ], [ 20521.95, 5923771.724999999627471 ], [ 20522.025000000001455, 5923771.724999999627471 ], [ 20522.025000000001455, 5923771.575000000186265 ], [ 20522.099999999998545, 5923771.575000000186265 ], [ 20522.099999999998545, 5923771.349999999627471 ], [ 20522.175, 5923771.349999999627471 ], [ 20522.175, 5923771.049999999813735 ], [ 20522.25, 5923771.049999999813735 ], [ 20522.25, 5923770.674999999813735 ], [ 20522.325, 5923770.674999999813735 ], [ 20522.325, 5923770.299999999813735 ], [ 20522.400000000001455, 5923770.299999999813735 ], [ 20522.400000000001455, 5923769.849999999627471 ], [ 20522.474999999998545, 5923769.849999999627471 ], [ 20522.474999999998545, 5923769.400000000372529 ], [ 20522.55, 5923769.400000000372529 ], [ 20522.55, 5923768.575000000186265 ], [ 20522.625, 5923768.575000000186265 ], [ 20522.625, 5923767.75 ], [ 20522.7, 5923767.75 ], [ 20522.7, 5923767.224999999627471 ], [ 20522.775000000001455, 5923767.224999999627471 ], [ 20522.775000000001455, 5923766.775000000372529 ], [ 20522.849999999998545, 5923766.775000000372529 ], [ 20522.849999999998545, 5923766.400000000372529 ], [ 20522.925, 5923766.400000000372529 ], [ 20522.925, 5923766.099999999627471 ], [ 20523.0, 5923766.099999999627471 ], [ 20523.0, 5923765.799999999813735 ], [ 20523.075, 5923765.799999999813735 ], [ 20523.075, 5923765.5 ], [ 20523.150000000001455, 5923765.5 ], [ 20523.150000000001455, 5923765.349999999627471 ], [ 20523.224999999998545, 5923765.349999999627471 ], [ 20523.224999999998545, 5923765.275000000372529 ], [ 20523.3, 5923765.275000000372529 ], [ 20523.3, 5923765.125 ], [ 20523.375, 5923765.125 ], [ 20523.375, 5923765.049999999813735 ], [ 20523.45, 5923765.049999999813735 ], [ 20523.45, 5923764.900000000372529 ], [ 20523.525000000001455, 5923764.900000000372529 ], [ 20523.525000000001455, 5923764.825000000186265 ], [ 20523.599999999998545, 5923764.825000000186265 ], [ 20523.599999999998545, 5923764.75 ], [ 20523.675, 5923764.75 ], [ 20523.675, 5923764.674999999813735 ], [ 20523.75, 5923764.674999999813735 ], [ 20523.75, 5923764.599999999627471 ], [ 20523.900000000001455, 5923764.599999999627471 ], [ 20523.900000000001455, 5923764.525000000372529 ], [ 20524.125, 5923764.525000000372529 ], [ 20524.125, 5923764.450000000186265 ], [ 20524.425, 5923764.450000000186265 ], [ 20524.425, 5923764.375 ], [ 20524.724999999998545, 5923764.375 ], [ 20524.724999999998545, 5923764.299999999813735 ], [ 20525.025000000001455, 5923764.299999999813735 ], [ 20525.025000000001455, 5923764.224999999627471 ], [ 20525.474999999998545, 5923764.224999999627471 ], [ 20525.474999999998545, 5923764.150000000372529 ], [ 20526.150000000001455, 5923764.150000000372529 ], [ 20526.150000000001455, 5923764.075000000186265 ], [ 20527.275000000001455, 5923764.075000000186265 ], [ 20527.275000000001455, 5923764.0 ], [ 20528.7, 5923764.0 ], [ 20528.7, 5923763.924999999813735 ], [ 20530.724999999998545, 5923763.924999999813735 ], [ 20530.724999999998545, 5923764.0 ], [ 20531.849999999998545, 5923764.0 ], [ 20531.849999999998545, 5923764.075000000186265 ], [ 20532.375, 5923764.075000000186265 ], [ 20532.375, 5923764.150000000372529 ], [ 20532.900000000001455, 5923764.150000000372529 ], [ 20532.900000000001455, 5923764.224999999627471 ], [ 20533.425, 5923764.224999999627471 ], [ 20533.425, 5923764.299999999813735 ], [ 20533.724999999998545, 5923764.299999999813735 ], [ 20533.724999999998545, 5923764.375 ], [ 20533.875, 5923764.375 ], [ 20533.875, 5923764.450000000186265 ], [ 20534.025000000001455, 5923764.450000000186265 ], [ 20534.025000000001455, 5923764.525000000372529 ], [ 20534.099999999998545, 5923764.525000000372529 ], [ 20534.099999999998545, 5923764.599999999627471 ], [ 20534.25, 5923764.599999999627471 ], [ 20534.25, 5923764.674999999813735 ], [ 20534.325, 5923764.674999999813735 ], [ 20534.325, 5923764.75 ], [ 20534.400000000001455, 5923764.75 ], [ 20534.400000000001455, 5923764.825000000186265 ], [ 20534.55, 5923764.825000000186265 ], [ 20534.55, 5923764.900000000372529 ], [ 20534.625, 5923764.900000000372529 ], [ 20534.625, 5923765.049999999813735 ], [ 20534.7, 5923765.049999999813735 ], [ 20534.7, 5923765.125 ], [ 20534.775000000001455, 5923765.125 ], [ 20534.775000000001455, 5923765.200000000186265 ], [ 20534.849999999998545, 5923765.200000000186265 ], [ 20534.849999999998545, 5923765.275000000372529 ], [ 20534.925, 5923765.275000000372529 ], [ 20534.925, 5923765.424999999813735 ], [ 20535.0, 5923765.424999999813735 ], [ 20535.0, 5923765.5 ], [ 20535.075, 5923765.5 ], [ 20535.075, 5923765.650000000372529 ], [ 20535.150000000001455, 5923765.650000000372529 ], [ 20535.150000000001455, 5923765.724999999627471 ], [ 20535.224999999998545, 5923765.724999999627471 ], [ 20535.224999999998545, 5923765.799999999813735 ], [ 20535.3, 5923765.799999999813735 ], [ 20535.3, 5923765.875 ], [ 20535.375, 5923765.875 ], [ 20535.375, 5923765.950000000186265 ], [ 20535.45, 5923765.950000000186265 ], [ 20535.45, 5923766.025000000372529 ], [ 20535.599999999998545, 5923766.025000000372529 ], [ 20535.599999999998545, 5923766.099999999627471 ], [ 20535.675, 5923766.099999999627471 ], [ 20535.675, 5923766.174999999813735 ], [ 20535.825, 5923766.174999999813735 ], [ 20535.825, 5923766.25 ], [ 20535.900000000001455, 5923766.25 ], [ 20535.900000000001455, 5923766.325000000186265 ], [ 20535.974999999998545, 5923766.325000000186265 ], [ 20535.974999999998545, 5923766.400000000372529 ], [ 20536.05, 5923766.400000000372529 ], [ 20536.05, 5923766.474999999627471 ], [ 20536.125, 5923766.474999999627471 ], [ 20536.125, 5923766.549999999813735 ], [ 20536.2, 5923766.549999999813735 ], [ 20536.2, 5923766.700000000186265 ], [ 20536.275000000001455, 5923766.700000000186265 ], [ 20536.275000000001455, 5923766.775000000372529 ], [ 20536.349999999998545, 5923766.775000000372529 ], [ 20536.349999999998545, 5923766.924999999813735 ], [ 20536.425, 5923766.924999999813735 ], [ 20536.425, 5923767.075000000186265 ], [ 20536.5, 5923767.075000000186265 ], [ 20536.5, 5923767.224999999627471 ], [ 20536.575, 5923767.224999999627471 ], [ 20536.575, 5923767.375 ], [ 20536.650000000001455, 5923767.375 ], [ 20536.650000000001455, 5923767.75 ], [ 20536.724999999998545, 5923767.75 ], [ 20536.724999999998545, 5923768.275000000372529 ], [ 20536.8, 5923768.275000000372529 ], [ 20536.8, 5923768.724999999627471 ], [ 20536.875, 5923768.724999999627471 ], [ 20536.875, 5923769.174999999813735 ], [ 20536.95, 5923769.174999999813735 ], [ 20536.95, 5923769.549999999813735 ], [ 20537.025000000001455, 5923769.549999999813735 ], [ 20537.025000000001455, 5923769.849999999627471 ], [ 20537.099999999998545, 5923769.849999999627471 ], [ 20537.099999999998545, 5923770.150000000372529 ], [ 20537.175, 5923770.150000000372529 ], [ 20537.175, 5923770.375 ], [ 20537.25, 5923770.375 ], [ 20537.25, 5923770.599999999627471 ], [ 20537.325, 5923770.599999999627471 ], [ 20537.325, 5923770.825000000186265 ], [ 20537.400000000001455, 5923770.825000000186265 ], [ 20537.400000000001455, 5923770.974999999627471 ], [ 20537.474999999998545, 5923770.974999999627471 ], [ 20537.474999999998545, 5923771.125 ], [ 20537.55, 5923771.125 ], [ 20537.55, 5923771.349999999627471 ], [ 20537.625, 5923771.349999999627471 ], [ 20537.625, 5923771.950000000186265 ], [ 20537.7, 5923771.950000000186265 ], [ 20537.7, 5923772.924999999813735 ], [ 20537.775000000001455, 5923772.924999999813735 ], [ 20537.775000000001455, 5923774.200000000186265 ], [ 20537.849999999998545, 5923774.200000000186265 ], [ 20537.849999999998545, 5923775.775000000372529 ], [ 20537.925, 5923775.775000000372529 ], [ 20537.925, 5923777.424999999813735 ], [ 20537.849999999998545, 5923777.424999999813735 ], [ 20537.849999999998545, 5923777.724999999627471 ], [ 20537.775000000001455, 5923777.724999999627471 ], [ 20537.775000000001455, 5923777.950000000186265 ], [ 20537.7, 5923777.950000000186265 ], [ 20537.7, 5923778.174999999813735 ], [ 20537.625, 5923778.174999999813735 ], [ 20537.625, 5923778.400000000372529 ], [ 20537.55, 5923778.400000000372529 ], [ 20537.55, 5923778.625 ], [ 20537.474999999998545, 5923778.625 ], [ 20537.474999999998545, 5923778.775000000372529 ], [ 20537.400000000001455, 5923778.775000000372529 ], [ 20537.400000000001455, 5923779.0 ], [ 20537.325, 5923779.0 ], [ 20537.325, 5923779.224999999627471 ], [ 20537.25, 5923779.224999999627471 ], [ 20537.25, 5923779.450000000186265 ], [ 20537.175, 5923779.450000000186265 ], [ 20537.175, 5923779.599999999627471 ], [ 20537.099999999998545, 5923779.599999999627471 ], [ 20537.099999999998545, 5923779.825000000186265 ], [ 20537.025000000001455, 5923779.825000000186265 ], [ 20537.025000000001455, 5923780.125 ], [ 20536.95, 5923780.125 ], [ 20536.95, 5923780.349999999627471 ], [ 20536.875, 5923780.349999999627471 ], [ 20536.875, 5923780.650000000372529 ], [ 20536.8, 5923780.650000000372529 ], [ 20536.8, 5923780.950000000186265 ], [ 20536.724999999998545, 5923780.950000000186265 ], [ 20536.724999999998545, 5923781.25 ], [ 20536.650000000001455, 5923781.25 ], [ 20536.650000000001455, 5923781.474999999627471 ], [ 20536.575, 5923781.474999999627471 ], [ 20536.575, 5923781.625 ], [ 20536.5, 5923781.625 ], [ 20536.5, 5923781.775000000372529 ], [ 20536.425, 5923781.775000000372529 ], [ 20536.425, 5923781.924999999813735 ], [ 20536.349999999998545, 5923781.924999999813735 ], [ 20536.349999999998545, 5923782.0 ], [ 20536.275000000001455, 5923782.0 ], [ 20536.275000000001455, 5923782.150000000372529 ], [ 20536.2, 5923782.150000000372529 ], [ 20536.2, 5923782.224999999627471 ], [ 20536.125, 5923782.224999999627471 ], [ 20536.125, 5923782.299999999813735 ], [ 20536.05, 5923782.299999999813735 ], [ 20536.05, 5923782.375 ], [ 20535.974999999998545, 5923782.375 ], [ 20535.974999999998545, 5923782.450000000186265 ], [ 20535.825, 5923782.450000000186265 ], [ 20535.825, 5923782.525000000372529 ], [ 20535.75, 5923782.525000000372529 ], [ 20535.75, 5923782.599999999627471 ], [ 20535.599999999998545, 5923782.599999999627471 ], [ 20535.599999999998545, 5923782.674999999813735 ], [ 20535.525000000001455, 5923782.674999999813735 ], [ 20535.525000000001455, 5923782.75 ], [ 20535.45, 5923782.75 ], [ 20535.45, 5923782.825000000186265 ], [ 20535.375, 5923782.825000000186265 ], [ 20535.375, 5923782.900000000372529 ], [ 20535.3, 5923782.900000000372529 ], [ 20535.3, 5923782.974999999627471 ], [ 20535.224999999998545, 5923782.974999999627471 ], [ 20535.224999999998545, 5923783.049999999813735 ], [ 20535.150000000001455, 5923783.049999999813735 ], [ 20535.150000000001455, 5923783.125 ], [ 20535.075, 5923783.125 ], [ 20535.075, 5923783.275000000372529 ], [ 20535.0, 5923783.275000000372529 ], [ 20535.0, 5923783.349999999627471 ], [ 20534.925, 5923783.349999999627471 ], [ 20534.925, 5923783.424999999813735 ], [ 20534.849999999998545, 5923783.424999999813735 ], [ 20534.849999999998545, 5923783.575000000186265 ], [ 20534.775000000001455, 5923783.575000000186265 ], [ 20534.775000000001455, 5923783.650000000372529 ], [ 20534.7, 5923783.650000000372529 ], [ 20534.7, 5923783.724999999627471 ], [ 20534.55, 5923783.724999999627471 ], [ 20534.55, 5923783.799999999813735 ], [ 20534.474999999998545, 5923783.799999999813735 ], [ 20534.474999999998545, 5923783.875 ], [ 20534.400000000001455, 5923783.875 ], [ 20534.400000000001455, 5923783.950000000186265 ], [ 20534.25, 5923783.950000000186265 ], [ 20534.25, 5923784.025000000372529 ], [ 20534.099999999998545, 5923784.025000000372529 ], [ 20534.099999999998545, 5923784.099999999627471 ], [ 20533.95, 5923784.099999999627471 ], [ 20533.95, 5923784.174999999813735 ], [ 20533.724999999998545, 5923784.174999999813735 ], [ 20533.724999999998545, 5923784.25 ], [ 20533.275000000001455, 5923784.25 ], [ 20533.275000000001455, 5923784.325000000186265 ], [ 20532.150000000001455, 5923784.325000000186265 ], [ 20532.150000000001455, 5923784.400000000372529 ], [ 20528.775000000001455, 5923784.400000000372529 ] ] ] } },
{ "type": "Feature", "properties": { "value": 1.0, "building_id": 1, "area": 329.9624999995047 }, "geometry": { "type": "Polygon", "coordinates": [ [ [ 20529.675, 5923643.325000000186265 ], [ 20529.675, 5923643.25 ], [ 20529.45, 5923643.25 ], [ 20529.45, 5923643.174999999813735 ], [ 20529.150000000001455, 5923643.174999999813735 ], [ 20529.150000000001455, 5923643.099999999627471 ], [ 20529.0, 5923643.099999999627471 ], [ 20529.0, 5923643.025000000372529 ], [ 20528.775000000001455, 5923643.025000000372529 ], [ 20528.775000000001455, 5923642.950000000186265 ], [ 20528.625, 5923642.950000000186265 ], [ 20528.625, 5923642.875 ], [ 20528.474999999998545, 5923642.875 ], [ 20528.474999999998545, 5923642.799999999813735 ], [ 20528.325, 5923642.799999999813735 ], [ 20528.325, 5923642.724999999627471 ], [ 20528.175, 5923642.724999999627471 ], [ 20528.175, 5923642.650000000372529 ], [ 20528.099999999998545, 5923642.650000000372529 ], [ 20528.099999999998545, 5923642.575000000186265 ], [ 20527.95, 5923642.575000000186265 ], [ 20527.95, 5923642.5 ], [ 20527.875, 5923642.5 ], [ 20527.875, 5923642.424999999813735 ], [ 20527.8, 5923642.424999999813735 ], [ 20527.8, 5923642.349999999627471 ], [ 20527.650000000001455, 5923642.349999999627471 ], [ 20527.650000000001455, 5923642.275000000372529 ], [ 20527.5, 5923642.275000000372529 ], [ 20527.5, 5923642.200000000186265 ], [ 20527.275000000001455, 5923642.200000000186265 ], [ 20527.275000000001455, 5923642.125 ], [ 20527.125, 5923642.125 ], [ 20527.125, 5923642.049999999813735 ], [ 20526.900000000001455, 5923642.049999999813735 ], [ 20526.900000000001455, 5923641.974999999627471 ], [ 20526.675, 5923641.974999999627471 ], [ 20526.675, 5923641.900000000372529 ], [ 20526.45, 5923641.900000000372529 ], [ 20526.45, 5923641.825000000186265 ], [ 20526.224999999998545, 5923641.825000000186265 ], [ 20526.224999999998545, 5923641.75 ], [ 20525.925, 5923641.75 ], [ 20525.925, 5923641.674999999813735 ], [ 20525.625, 5923641.674999999813735 ], [ 20525.625, 5923641.599999999627471 ], [ 20525.25, 5923641.599999999627471 ], [ 20525.25, 5923641.525000000372529 ], [ 20524.95, 5923641.525000000372529 ], [ 20524.95, 5923641.450000000186265 ], [ 20524.575, 5923641.450000000186265 ], [ 20524.575, 5923641.375 ], [ 20524.275000000001455, 5923641.375 ], [ 20524.275000000001455, 5923641.299999999813735 ], [ 20523.974999999998545, 5923641.299999999813735 ], [ 20523.974999999998545, 5923641.224999999627471 ], [ 20523.75, 5923641.224999999627471 ], [ 20523.75, 5923641.150000000372529 ], [ 20523.675, 5923641.150000000372529 ], [ 20523.675, 5923641.075000000186265 ], [ 20523.599999999998545, 5923641.075000000186265 ], [ 20523.599999999998545, 5923641.0 ], [ 20523.525000000001455, 5923641.0 ], [ 20523.525000000001455, 5923640.924999999813735 ], [ 20523.45, 5923640.924999999813735 ], [ 20523.45, 5923640.849999999627471 ], [ 20523.375, 5923640.849999999627471 ], [ 20523.375, 5923640.775000000372529 ], [ 20523.3, 5923640.775000000372529 ], [ 20523.3, 5923640.700000000186265 ], [ 20523.224999999998545, 5923640.700000000186265 ], [ 20523.224999999998545, 5923640.625 ], [ 20523.150000000001455, 5923640.625 ], [ 20523.150000000001455, 5923640.474999999627471 ], [ 20523.075, 5923640.474999999627471 ], [ 20523.075, 5923640.325000000186265 ], [ 20523.0, 5923640.325000000186265 ], [ 20523.0, 5923640.174999999813735 ], [ 20522.925, 5923640.174999999813735 ], [ 20522.925, 5923640.099999999627471 ], [ 20522.849999999998545, 5923640.099999999627471 ], [ 20522.849999999998545, 5923639.950000000186265 ], [ 20522.775000000001455, 5923639.950000000186265 ], [ 20522.775000000001455, 5923639.799999999813735 ], [ 20522.7, 5923639.799999999813735 ], [ 20522.7, 5923639.724999999627471 ], [ 20522.625, 5923639.724999999627471 ], [ 20522.625, 5923639.650000000372529 ], [ 20522.55, 5923639.650000000372529 ], [ 20522.55, 5923639.5 ], [ 20522.474999999998545, 5923639.5 ], [ 20522.474999999998545, 5923639.424999999813735 ], [ 20522.400000000001455, 5923639.424999999813735 ], [ 20522.400000000001455, 5923639.349999999627471 ], [ 20522.325, 5923639.349999999627471 ], [ 20522.325, 5923639.275000000372529 ], [ 20522.25, 5923639.275000000372529 ], [ 20522.25, 5923639.200000000186265 ], [ 20522.175, 5923639.200000000186265 ], [ 20522.175, 5923639.125 ], [ 20522.099999999998545, 5923639.125 ], [ 20522.099999999998545, 5923639.049999999813735 ], [ 20522.025000000001455, 5923639.049999999813735 ], [ 20522.025000000001455, 5923638.974999999627471 ], [ 20521.95, 5923638.974999999627471 ], [ 20521.95, 5923638.900000000372529 ], [ 20521.875, 5923638.900000000372529 ], [ 20521.875, 5923638.825000000186265 ], [ 20521.8, 5923638.825000000186265 ], [ 20521.8, 5923638.75 ], [ 20521.724999999998545, 5923638.75 ], [ 20521.724999999998545, 5923638.674999999813735 ], [ 20521.650000000001455, 5923638.674999999813735 ], [ 20521.650000000001455, 5923638.599999999627471 ], [ 20521.575, 5923638.599999999627471 ], [ 20521.575, 5923638.450000000186265 ], [ 20521.5, 5923638.450000000186265 ], [ 20521.5, 5923638.150000000372529 ], [ 20521.425, 5923638.150000000372529 ], [ 20521.425, 5923637.849999999627471 ], [ 20521.349999999998545, 5923637.849999999627471 ], [ 20521.349999999998545, 5923637.549999999813735 ], [ 20521.275000000001455, 5923637.549999999813735 ], [ 20521.275000000001455, 5923637.25 ], [ 20521.2, 5923637.25 ], [ 20521.2, 5923636.875 ], [ 20521.125, 5923636.875 ], [ 20521.125, 5923635.974999999627471 ], [ 20521.05, 5923635.974999999627471 ], [ 20521.05, 5923634.25 ], [ 20520.974999999998545, 5923634.25 ], [ 20520.974999999998545, 5923632.525000000372529 ], [ 20520.900000000001455, 5923632.525000000372529 ], [ 20520.900000000001455, 5923629.075000000186265 ], [ 20520.974999999998545, 5923629.075000000186265 ], [ 20520.974999999998545, 5923628.549999999813735 ], [ 20521.05, 5923628.549999999813735 ], [ 20521.05, 5923628.174999999813735 ], [ 20521.125, 5923628.174999999813735 ], [ 20521.125, 5923627.875 ], [ 20521.2, 5923627.875 ], [ 20521.2, 5923627.650000000372529 ], [ 20521.275000000001455, 5923627.650000000372529 ], [ 20521.275000000001455, 5923627.349999999627471 ], [ 20521.349999999998545, 5923627.349999999627471 ], [ 20521.349999999998545, 5923627.125 ], [ 20521.425, 5923627.125 ], [ 20521.425, 5923626.900000000372529 ], [ 20521.5, 5923626.900000000372529 ], [ 20521.5, 5923626.825000000186265 ], [ 20521.575, 5923626.825000000186265 ], [ 20521.575, 5923626.674999999813735 ], [ 20521.650000000001455, 5923626.674999999813735 ], [ 20521.650000000001455, 5923626.599999999627471 ], [ 20521.724999999998545, 5923626.599999999627471 ], [ 20521.724999999998545, 5923626.525000000372529 ], [ 20521.8, 5923626.525000000372529 ], [ 20521.8, 5923626.450000000186265 ], [ 20521.875, 5923626.450000000186265 ], [ 20521.875, 5923626.375 ], [ 20521.95, 5923626.375 ], [ 20521.95, 5923626.299999999813735 ], [ 20522.099999999998545, 5923626.299999999813735 ], [ 20522.099999999998545, 5923626.224999999627471 ], [ 20522.175, 5923626.224999999627471 ], [ 20522.175, 5923626.150000000372529 ], [ 20522.25, 5923626.150000000372529 ], [ 20522.25, 5923626.075000000186265 ], [ 20522.325, 5923626.075000000186265 ], [ 20522.325, 5923626.0 ], [ 20522.400000000001455, 5923626.0 ], [ 20522.400000000001455, 5923625.924999999813735 ], [ 20522.474999999998545, 5923625.924999999813735 ], [ 20522.474999999998545, 5923625.775000000372529 ], [ 20522.55, 5923625.775000000372529 ], [ 20522.55, 5923625.700000000186265 ], [ 20522.625, 5923625.700000000186265 ], [ 20522.625, 5923625.625 ], [ 20522.7, 5923625.625 ], [ 20522.7, 5923625.474999999627471 ], [ 20522.775000000001455, 5923625.474999999627471 ], [ 20522.775000000001455, 5923625.400000000372529 ], [ 20522.849999999998545, 5923625.400000000372529 ], [ 20522.849999999998545, 5923625.25 ], [ 20522.925, 5923625.25 ], [ 20522.925, 5923625.099999999627471 ], [ 20523.0, 5923625.099999999627471 ], [ 20523.0, 5923624.950000000186265 ], [ 20523.075, 5923624.950000000186265 ], [ 20523.075, 5923624.875 ], [ 20523.150000000001455, 5923624.875 ], [ 20523.150000000001455, 5923624.724999999627471 ], [ 20523.224999999998545, 5923624.724999999627471 ], [ 20523.224999999998545, 5923624.650000000372529 ], [ 20523.3, 5923624.650000000372529 ], [ 20523.3, 5923624.575000000186265 ], [ 20523.375, 5923624.575000000186265 ], [ 20523.375, 5923624.5 ], [ 20523.45, 5923624.5 ], [ 20523.45, 5923624.424999999813735 ], [ 20523.525000000001455, 5923624.424999999813735 ], [ 20523.525000000001455, 5923624.349999999627471 ], [ 20523.599999999998545, 5923624.349999999627471 ], [ 20523.599999999998545, 5923624.275000000372529 ], [ 20523.675, 5923624.275000000372529 ], [ 20523.675, 5923624.200000000186265 ], [ 20523.825, 5923624.200000000186265 ], [ 20523.825, 5923624.125 ], [ 20524.05, 5923624.125 ], [ 20524.05, 5923624.049999999813735 ], [ 20524.425, 5923624.049999999813735 ], [ 20524.425, 5923623.974999999627471 ], [ 20524.724999999998545, 5923623.974999999627471 ], [ 20524.724999999998545, 5923623.900000000372529 ], [ 20525.099999999998545, 5923623.900000000372529 ], [ 20525.099999999998545, 5923623.825000000186265 ], [ 20525.400000000001455, 5923623.825000000186265 ], [ 20525.400000000001455, 5923623.75 ], [ 20525.775000000001455, 5923623.75 ], [ 20525.775000000001455, 5923623.674999999813735 ], [ 20526.075, 5923623.674999999813735 ], [ 20526.075, 5923623.599999999627471 ], [ 20526.375, 5923623.599999999627471 ], [ 20526.375, 5923623.525000000372529 ], [ 20526.675, 5923623.525000000372529 ], [ 20526.675, 5923623.450000000186265 ], [ 20526.974999999998545, 5923623.450000000186265 ], [ 20526.974999999998545, 5923623.375 ], [ 20527.2, 5923623.375 ], [ 20527.2, 5923623.299999999813735 ], [ 20527.425, 5923623.299999999813735 ], [ 20527.425, 5923623.224999999627471 ], [ 20527.724999999998545, 5923623.224999999627471 ], [ 20527.724999999998545, 5923623.150000000372529 ], [ 20527.95, 5923623.150000000372529 ], [ 20527.95, 5923623.075000000186265 ], [ 20528.099999999998545, 5923623.075000000186265 ], [ 20528.099999999998545, 5923623.0 ], [ 20528.325, 5923623.0 ], [ 20528.325, 5923622.924999999813735 ], [ 20528.55, 5923622.924999999813735 ], [ 20528.55, 5923622.849999999627471 ], [ 20528.7, 5923622.849999999627471 ], [ 20528.7, 5923622.775000000372529 ], [ 20528.925, 5923622.775000000372529 ], [ 20528.925, 5923622.700000000186265 ], [ 20529.224999999998545, 5923622.700000000186265 ], [ 20529.224999999998545, 5923622.625 ], [ 20529.45, 5923622.625 ], [ 20529.45, 5923622.549999999813735 ], [ 20530.2, 5923622.549999999813735 ], [ 20530.2, 5923622.625 ], [ 20530.8, 5923622.625 ], [ 20530.8, 5923622.700000000186265 ], [ 20531.400000000001455, 5923622.700000000186265 ], [ 20531.400000000001455, 5923622.775000000372529 ], [ 20531.7, 5923622.775000000372529 ], [ 20531.7, 5923622.849999999627471 ], [ 20531.849999999998545, 5923622.849999999627471 ], [ 20531.849999999998545, 5923622.924999999813735 ], [ 20531.925, 5923622.924999999813735 ], [ 20531.925, 5923623.0 ], [ 20532.075, 5923623.0 ], [ 20532.075, 5923623.075000000186265 ], [ 20532.150000000001455, 5923623.075000000186265 ], [ 20532.150000000001455, 5923623.150000000372529 ], [ 20532.3, 5923623.150000000372529 ], [ 20532.3, 5923623.224999999627471 ], [ 20532.45, 5923623.224999999627471 ], [ 20532.45, 5923623.299999999813735 ], [ 20532.599999999998545, 5923623.299999999813735 ], [ 20532.599999999998545, 5923623.375 ], [ 20532.75, 5923623.375 ], [ 20532.75, 5923623.450000000186265 ], [ 20532.974999999998545, 5923623.450000000186265 ], [ 20532.974999999998545, 5923623.525000000372529 ], [ 20533.125, 5923623.525000000372529 ], [ 20533.125, 5923623.599999999627471 ], [ 20533.349999999998545, 5923623.599999999627471 ], [ 20533.349999999998545, 5923623.674999999813735 ], [ 20533.650000000001455, 5923623.674999999813735 ], [ 20533.650000000001455, 5923623.75 ], [ 20534.025000000001455, 5923623.75 ], [ 20534.025000000001455, 5923623.825000000186265 ], [ 20534.474999999998545, 5923623.825000000186265 ], [ 20534.474999999998545, 5923623.900000000372529 ], [ 20534.925, 5923623.900000000372529 ], [ 20534.925, 5923623.974999999627471 ], [ 20535.375, 5923623.974999999627471 ], [ 20535.375, 5923624.049999999813735 ], [ 20535.675, 5923624.049999999813735 ], [ 20535.675, 5923624.125 ], [ 20535.825, 5923624.125 ], [ 20535.825, 5923624.200000000186265 ], [ 20536.05, 5923624.200000000186265 ], [ 20536.05, 5923624.275000000372529 ], [ 20536.2, 5923624.275000000372529 ], [ 20536.2, 5923624.349999999627471 ], [ 20536.349999999998545, 5923624.349999999627471 ], [ 20536.349999999998545, 5923624.424999999813735 ], [ 20536.425, 5923624.424999999813735 ], [ 20536.425, 5923624.5 ], [ 20536.575, 5923624.5 ], [ 20536.575, 5923624.575000000186265 ], [ 20536.650000000001455, 5923624.575000000186265 ], [ 20536.650000000001455, 5923624.650000000372529 ], [ 20536.8, 5923624.650000000372529 ], [ 20536.8, 5923624.724999999627471 ], [ 20536.875, 5923624.724999999627471 ], [ 20536.875, 5923624.799999999813735 ], [ 20536.95, 5923624.799999999813735 ], [ 20536.95, 5923624.875 ], [ 20537.025000000001455, 5923624.875 ], [ 20537.025000000001455, 5923624.950000000186265 ], [ 20537.099999999998545, 5923624.950000000186265 ], [ 20537.099999999998545, 5923625.025000000372529 ], [ 20537.175, 5923625.025000000372529 ], [ 20537.175, 5923625.099999999627471 ], [ 20537.25, 5923625.099999999627471 ], [ 20537.25, 5923625.174999999813735 ], [ 20537.325, 5923625.174999999813735 ], [ 20537.325, 5923625.25 ], [ 20537.400000000001455, 5923625.25 ], [ 20537.400000000001455, 5923625.325000000186265 ], [ 20537.474999999998545, 5923625.325000000186265 ], [ 20537.474999999998545, 5923625.400000000372529 ], [ 20537.55, 5923625.400000000372529 ], [ 20537.55, 5923625.474999999627471 ], [ 20537.625, 5923625.474999999627471 ], [ 20537.625, 5923625.549999999813735 ], [ 20537.7, 5923625.549999999813735 ], [ 20537.7, 5923625.625 ], [ 20537.775000000001455, 5923625.625 ], [ 20537.775000000001455, 5923625.700000000186265 ], [ 20537.849999999998545, 5923625.700000000186265 ], [ 20537.849999999998545, 5923625.775000000372529 ], [ 20537.925, 5923625.775000000372529 ], [ 20537.925, 5923625.924999999813735 ], [ 20538.0, 5923625.924999999813735 ], [ 20538.0, 5923626.0 ], [ 20538.075, 5923626.0 ], [ 20538.075, 5923626.075000000186265 ], [ 20538.150000000001455, 5923626.075000000186265 ], [ 20538.150000000001455, 5923626.224999999627471 ], [ 20538.224999999998545, 5923626.224999999627471 ], [ 20538.224999999998545, 5923626.299999999813735 ], [ 20538.3, 5923626.299999999813735 ], [ 20538.3, 5923626.450000000186265 ], [ 20538.375, 5923626.450000000186265 ], [ 20538.375, 5923626.599999999627471 ], [ 20538.45, 5923626.599999999627471 ], [ 20538.45, 5923626.75 ], [ 20538.525000000001455, 5923626.75 ], [ 20538.525000000001455, 5923626.900000000372529 ], [ 20538.599999999998545, 5923626.900000000372529 ], [ 20538.599999999998545, 5923626.974999999627471 ], [ 20538.675, 5923626.974999999627471 ], [ 20538.675, 5923627.125 ], [ 20538.75, 5923627.125 ], [ 20538.75, 5923627.200000000186265 ], [ 20538.825, 5923627.200000000186265 ], [ 20538.825, 5923627.349999999627471 ], [ 20538.900000000001455, 5923627.349999999627471 ], [ 20538.900000000001455, 5923627.424999999813735 ], [ 20538.974999999998545, 5923627.424999999813735 ], [ 20538.974999999998545, 5923627.5 ], [ 20539.05, 5923627.5 ], [ 20539.05, 5923627.575000000186265 ], [ 20539.125, 5923627.575000000186265 ], [ 20539.125, 5923627.650000000372529 ], [ 20539.2, 5923627.650000000372529 ], [ 20539.2, 5923627.724999999627471 ], [ 20539.275000000001455, 5923627.724999999627471 ], [ 20539.275000000001455, 5923627.799999999813735 ], [ 20539.349999999998545, 5923627.799999999813735 ], [ 20539.349999999998545, 5923627.875 ], [ 20539.425, 5923627.875 ], [ 20539.425, 5923627.950000000186265 ], [ 20539.575, 5923627.950000000186265 ], [ 20539.575, 5923628.025000000372529 ], [ 20539.650000000001455, 5923628.025000000372529 ], [ 20539.650000000001455, 5923628.099999999627471 ], [ 20539.724999999998545, 5923628.099999999627471 ], [ 20539.724999999998545, 5923628.174999999813735 ], [ 20539.8, 5923628.174999999813735 ], [ 20539.8, 5923628.325000000186265 ], [ 20539.875, 5923628.325000000186265 ], [ 20539.875, 5923628.400000000372529 ], [ 20539.95, 5923628.400000000372529 ], [ 20539.95, 5923628.474999999627471 ], [ 20540.025000000001455, 5923628.474999999627471 ], [ 20540.025000000001455, 5923628.625 ], [ 20540.099999999998545, 5923628.625 ], [ 20540.099999999998545, 5923628.700000000186265 ], [ 20540.175, 5923628.700000000186265 ], [ 20540.175, 5923629.075000000186265 ], [ 20540.25, 5923629.075000000186265 ], [ 20540.25, 5923629.674999999813735 ], [ 20540.325, 5923629.674999999813735 ], [ 20540.325, 5923630.200000000186265 ], [ 20540.400000000001455, 5923630.200000000186265 ], [ 20540.400000000001455, 5923630.724999999627471 ], [ 20540.474999999998545, 5923630.724999999627471 ], [ 20540.474999999998545, 5923634.775000000372529 ], [ 20540.55, 5923634.775000000372529 ], [ 20540.55, 5923636.799999999813735 ], [ 20540.474999999998545, 5923636.799999999813735 ], [ 20540.474999999998545, 5923637.099999999627471 ], [ 20540.400000000001455, 5923637.099999999627471 ], [ 20540.400000000001455, 5923637.325000000186265 ], [ 20540.325, 5923637.325000000186265 ], [ 20540.325, 5923637.625 ], [ 20540.25, 5923637.625 ], [ 20540.25, 5923637.924999999813735 ], [ 20540.175, 5923637.924999999813735 ], [ 20540.175, 5923638.224999999627471 ], [ 20540.099999999998545, 5923638.224999999627471 ], [ 20540.099999999998545, 5923638.599999999627471 ], [ 20540.025000000001455, 5923638.599999999627471 ], [ 20540.025000000001455, 5923638.674999999813735 ], [ 20539.95, 5923638.674999999813735 ], [ 20539.95, 5923638.75 ], [ 20539.875, 5923638.75 ], [ 20539.875, 5923638.825000000186265 ], [ 20539.8, 5923638.825000000186265 ], [ 20539.8, 5923638.900000000372529 ], [ 20539.724999999998545, 5923638.900000000372529 ], [ 20539.724999999998545, 5923638.974999999627471 ], [ 20539.650000000001455, 5923638.974999999627471 ], [ 20539.650000000001455, 5923639.049999999813735 ], [ 20539.575, 5923639.049999999813735 ], [ 20539.575, 5923639.125 ], [ 20539.425, 5923639.125 ], [ 20539.425, 5923639.200000000186265 ], [ 20539.349999999998545, 5923639.200000000186265 ], [ 20539.349999999998545, 5923639.275000000372529 ], [ 20539.2, 5923639.275000000372529 ], [ 20539.2, 5923639.349999999627471 ], [ 20539.05, 5923639.349999999627471 ], [ 20539.05, 5923639.424999999813735 ], [ 20538.974999999998545, 5923639.424999999813735 ], [ 20538.974999999998545, 5923639.5 ], [ 20538.900000000001455, 5923639.5 ], [ 20538.900000000001455, 5923639.575000000186265 ], [ 20538.75, 5923639.575000000186265 ], [ 20538.75, 5923639.650000000372529 ], [ 20538.675, 5923639.650000000372529 ], [ 20538.675, 5923639.724999999627471 ], [ 20538.599999999998545, 5923639.724999999627471 ], [ 20538.599999999998545, 5923639.799999999813735 ], [ 20538.525000000001455, 5923639.799999999813735 ], [ 20538.525000000001455, 5923639.875 ], [ 20538.45, 5923639.875 ], [ 20538.45, 5923639.950000000186265 ], [ 20538.375, 5923639.950000000186265 ], [ 20538.375, 5923640.025000000372529 ], [ 20538.3, 5923640.025000000372529 ], [ 20538.3, 5923640.099999999627471 ], [ 20538.224999999998545, 5923640.099999999627471 ], [ 20538.224999999998545, 5923640.174999999813735 ], [ 20538.150000000001455, 5923640.174999999813735 ], [ 20538.150000000001455, 5923640.25 ], [ 20538.075, 5923640.25 ], [ 20538.075, 5923640.400000000372529 ], [ 20538.0, 5923640.400000000372529 ], [ 20538.0, 5923640.474999999627471 ], [ 20537.925, 5923640.474999999627471 ], [ 20537.925, 5923640.549999999813735 ], [ 20537.849999999998545, 5923640.549999999813735 ], [ 20537.849999999998545, 5923640.625 ], [ 20537.775000000001455, 5923640.625 ], [ 20537.775000000001455, 5923640.700000000186265 ], [ 20537.7, 5923640.700000000186265 ], [ 20537.7, 5923640.775000000372529 ], [ 20537.625, 5923640.775000000372529 ], [ 20537.625, 5923640.849999999627471 ], [ 20537.55, 5923640.849999999627471 ], [ 20537.55, 5923640.924999999813735 ], [ 20537.474999999998545, 5923640.924999999813735 ], [ 20537.474999999998545, 5923641.0 ], [ 20537.25, 5923641.0 ], [ 20537.25, 5923641.075000000186265 ], [ 20537.099999999998545, 5923641.075000000186265 ], [ 20537.099999999998545, 5923641.150000000372529 ], [ 20536.875, 5923641.150000000372529 ], [ 20536.875, 5923641.224999999627471 ], [ 20536.724999999998545, 5923641.224999999627471 ], [ 20536.724999999998545, 5923641.299999999813735 ], [ 20536.5, 5923641.299999999813735 ], [ 20536.5, 5923641.375 ], [ 20536.275000000001455, 5923641.375 ], [ 20536.275000000001455, 5923641.450000000186265 ], [ 20535.974999999998545, 5923641.450000000186265 ], [ 20535.974999999998545, 5923641.525000000372529 ], [ 20535.75, 5923641.525000000372529 ], [ 20535.75, 5923641.599999999627471 ], [ 20535.375, 5923641.599999999627471 ], [ 20535.375, 5923641.674999999813735 ], [ 20535.075, 5923641.674999999813735 ], [ 20535.075, 5923641.75 ], [ 20534.7, 5923641.75 ], [ 20534.7, 5923641.825000000186265 ], [ 20534.400000000001455, 5923641.825000000186265 ], [ 20534.400000000001455, 5923641.900000000372529 ], [ 20534.099999999998545, 5923641.900000000372529 ], [ 20534.099999999998545, 5923641.974999999627471 ], [ 20533.875, 5923641.974999999627471 ], [ 20533.875, 5923642.049999999813735 ], [ 20533.650000000001455, 5923642.049999999813735 ], [ 20533.650000000001455, 5923642.125 ], [ 20533.5, 5923642.125 ], [ 20533.5, 5923642.200000000186265 ], [ 20533.349999999998545, 5923642.200000000186265 ], [ 20533.349999999998545, 5923642.275000000372529 ], [ 20533.275000000001455, 5923642.275000000372529 ], [ 20533.275000000001455, 5923642.349999999627471 ], [ 20533.125, 5923642.349999999627471 ], [ 20533.125, 5923642.424999999813735 ], [ 20533.05, 5923642.424999999813735 ], [ 20533.05, 5923642.5 ], [ 20532.974999999998545, 5923642.5 ], [ 20532.974999999998545, 5923642.575000000186265 ], [ 20532.900000000001455, 5923642.575000000186265 ], [ 20532.900000000001455, 5923642.650000000372529 ], [ 20532.825, 5923642.650000000372529 ], [ 20532.825, 5923642.724999999627471 ], [ 20532.675, 5923642.724999999627471 ], [ 20532.675, 5923642.799999999813735 ], [ 20532.599999999998545, 5923642.799999999813735 ], [ 20532.599999999998545, 5923642.875 ], [ 20532.45, 5923642.875 ], [ 20532.45, 5923642.950000000186265 ], [ 20532.3, 5923642.950000000186265 ], [ 20532.3, 5923643.025000000372529 ], [ 20532.150000000001455, 5923643.025000000372529 ], [ 20532.150000000001455, 5923643.099999999627471 ], [ 20531.925, 5923643.099999999627471 ], [ 20531.925, 5923643.174999999813735 ], [ 20531.775000000001455, 5923643.174999999813735 ], [ 20531.775000000001455, 5923643.25 ], [ 20529.825, 5923643.25 ], [ 20529.825, 5923643.325000000186265 ], [ 20529.675, 5923643.325000000186265 ] ] ] } }
]
}
