{
"type": "FeatureCollection",
"name": "20433E591582N_buildings",
"crs": { "type": "name", "properties": { "name": "urn:ogc:def:crs:EPSG::3776" } },
"features": [
{ "type": "Feature", "properties": { "value": 1.0, "building_id": 0, "area": 38.784374999091675 }, "geometry": { "type": "Polygon", "coordinates": [ [ [ 21117.375, 5916567.299999999813735 ], [ 21117.375, 5916567.224999999627471 ], [ 21117.224999999998545, 5916567.224999999627471 ], [ 21117.224999999998545, 5916567.150000000372529 ], [ 21117.075, 5916567.150000000372529 ], [ 21117.075, 5916567.075000000186265 ], [ 21116.925, 5916567.075000000186265 ], [ 21116.925, 5916567.0 ], [ 21116.849999999998545, 5916567.0 ], [ 21116.849999999998545, 5916566.924999999813735 ], [ 21116.7, 5916566.924999999813735 ], [ 21116.7, 5916566.849999999627471 ], [ 21116.625, 5916566.849999999627471 ], [ 21116.625, 5916566.775000000372529 ], [ 21116.55, 5916566.775000000372529 ], [ 21116.55, 5916566.700000000186265 ], [ 21116.474999999998545, 5916566.700000000186265 ], [ 21116.474999999998545, 5916566.625 ], [ 21116.400000000001455, 5916566.625 ], [ 21116.400000000001455, 5916566.549999999813735 ], [ 21116.325, 5916566.549999999813735 ], [ 21116.325, 5916566.474999999627471 ], [ 21116.25, 5916566.474999999627471 ], [ 21116.25, 5916566.400000000372529 ], [ 21116.175, 5916566.400000000372529 ], [ 21116.175, 5916566.325000000186265 ], [ 21116.099999999998545, 5916566.325000000186265 ], [ 21116.099999999998545, 5916566.25 ], [ 21116.025000000001455, 5916566.25 ], [ 21116.025000000001455, 5916566.174999999813735 ], [ 21115.95, 5916566.174999999813735 ], [ 21115.95, 5916566.099999999627471 ], [ 21115.875, 5916566.099999999627471 ], [ 21115.875, 5916566.025000000372529 ], [ 21115.8, 5916566.025000000372529 ], [ 21115.8, 5916565.950000000186265 ], [ 21115.724999999998545, 5916565.950000000186265 ], [ 21115.724999999998545, 5916565.875 ], [ 21115.650000000001455, 5916565.875 ], [ 21115.650000000001455, 5916565.799999999813735 ], [ 21115.575, 5916565.799999999813735 ], [ 21115.575, 5916565.724999999627471 ], [ 21115.5, 5916565.724999999627471 ], [ 21115.5, 5916565.650000000372529 ], [ 21115.425, 5916565.650000000372529 ], [ 21115.425, 5916565.5 ], [ 21115.349999999998545, 5916565.5 ], [ 21115.349999999998545, 5916565.424999999813735 ], [ 21115.275000000001455, 5916565.424999999813735 ], [ 21115.275000000001455, 5916565.349999999627471 ], [ 21115.2, 5916565.349999999627471 ], [ 21115.2, 5916565.200000000186265 ], [ 21115.125, 5916565.200000000186265 ], [ 21115.125, 5916565.049999999813735 ], [ 21115.05, 5916565.049999999813735 ], [ 21115.05, 5916564.900000000372529 ], [ 21114.974999999998545, 5916564.900000000372529 ], [ 21114.974999999998545, 5916564.75 ], [ 21114.900000000001455, 5916564.75 ], [ 21114.900000000001455, 5916564.525000000372529 ], [ 21114.825, 5916564.525000000372529 ], [ 21114.825, 5916564.375 ], [ 21114.75, 5916564.375 ], [ 21114.75, 5916563.549999999813735 ], [ 21114.675, 5916563.549999999813735 ], [ 21114.675, 5916563.174999999813735 ], [ 21114.75, 5916563.174999999813735 ], [ 21114.75, 5916562.950000000186265 ], [ 21114.825, 5916562.950000000186265 ], [ 21114.825, 5916562.650000000372529 ], [ 21114.900000000001455, 5916562.650000000372529 ], [ 21114.900000000001455, 5916562.349999999627471 ], [ 21114.974999999998545, 5916562.349999999627471 ], [ 21114.974999999998545, 5916561.525000000372529 ], [ 21115.05, 5916561.525000000372529 ], [ 21115.05, 5916560.775000000372529 ], [ 21115.125, 5916560.775000000372529 ], [ 21115.125, 5916559.875 ], [ 21115.2, 5916559.875 ], [ 21115.2, 5916558.75 ], [ 21115.275000000001455, 5916558.75 ], [ 21115.275000000001455, 5916558.450000000186265 ], [ 21115.349999999998545, 5916558.450000000186265 ], [ 21115.349999999998545, 5916558.375 ], [ 21115.425, 5916558.375 ], [ 21115.425, 5916558.299999999813735 ], [ 21115.5, 5916558.299999999813735 ], [ 21115.5, 5916558.224999999627471 ], [ 21115.575, 5916558.224999999627471 ], [ 21115.575, 5916558.150000000372529 ], [ 21117.825, 5916558.150000000372529 ], [ 21117.825, 5916558.224999999627471 ], [ 21118.125, 5916558.224999999627471 ], [ 21118.125, 5916558.299999999813735 ], [ 21118.425, 5916558.299999999813735 ], [ 21118.425, 5916558.375 ], [ 21118.650000000001455, 5916558.375 ], [ 21118.650000000001455, 5916558.450000000186265 ], [ 21118.875, 5916558.450000000186265 ], [ 21118.875, 5916558.525000000372529 ], [ 21118.95, 5916558.525000000372529 ], [ 21118.95, 5916558.599999999627471 ], [ 21119.025000000001455, 5916558.599999999627471 ], [ 21119.025000000001455, 5916558.75 ], [ 21119.099999999998545, 5916558.75 ], [ 21119.099999999998545, 5916558.825000000186265 ], [ 21119.175, 5916558.825000000186265 ], [ 21119.175, 5916558.900000000372529 ], [ 21119.325, 5916558.900000000372529 ], [ 21119.325, 5916558.974999999627471 ], [ 21119.400000000001455, 5916558.974999999627471 ], [ 21119.400000000001455, 5916559.049999999813735 ], [ 21119.474999999998545, 5916559.049999999813735 ], [ 21119.474999999998545, 5916559.125 ], [ 21119.55, 5916559.125 ], [ 21119.55, 5916559.275000000372529 ], [ 21119.625, 5916559.275000000372529 ], [ 21119.625, 5916559.5 ], [ 21119.7, 5916559.5 ], [ 21119.7, 5916559.650000000372529 ], [ 21119.775000000001455, 5916559.650000000372529 ], [ 21119.775000000001455, 5916559.875 ], [ 21119.849999999998545, 5916559.875 ], [ 21119.849999999998545, 5916560.025000000372529 ], [ 21119.925, 5916560.025000000372529 ], [ 21119.925, 5916560.25 ], [ 21120.0, 5916560.25 ], [ 21120.0, 5916562.424999999813735 ], [ 21119.925, 5916562.424999999813735 ], [ 21119.925, 5916563.099999999627471 ], [ 21119.849999999998545, 5916563.099999999627471 ], [ 21119.849999999998545, 5916563.700000000186265 ], [ 21119.775000000001455, 5916563.700000000186265 ], [ 21119.775000000001455, 5916564.224999999627471 ], [ 21119.7, 5916564.224999999627471 ], [ 21119.7, 5916564.525000000372529 ], [ 21119.625, 5916564.525000000372529 ], [ 21119.625, 5916564.75 ], [ 21119.55, 5916564.75 ], [ 21119.55, 5916564.900000000372529 ], [ 21119.474999999998545, 5916564.900000000372529 ], [ 21119.474999999998545, 5916565.049999999813735 ], [ 21119.400000000001455, 5916565.049999999813735 ], [ 21119.400000000001455, 5916565.200000000186265 ], [ 21119.325, 5916565.200000000186265 ], [ 21119.325, 5916565.424999999813735 ], [ 21119.25, 5916565.424999999813735 ], [ 21119.25, 5916565.575000000186265 ], [ 21119.175, 5916565.575000000186265 ], [ 21119.175, 5916565.799999999813735 ], [ 21119.099999999998545, 5916565.799999999813735 ], [ 21119.099999999998545, 5916566.099999999627471 ], [ 21119.025000000001455, 5916566.099999999627471 ], [ 21119.025000000001455, 5916566.174999999813735 ], [ 21118.95, 5916566.174999999813735 ], [ 21118.95, 5916566.325000000186265 ], [ 21118.875, 5916566.325000000186265 ], [ 21118.875, 5916566.400000000372529 ], [ 21118.8, 5916566.400000000372529 ], [ 21118.8, 5916566.549999999813735 ], [ 21118.724999999998545, 5916566.549999999813735 ], [ 21118.724999999998545, 5916566.625 ], [ 21118.650000000001455, 5916566.625 ], [ 21118.650000000001455, 5916566.700000000186265 ], [ 21118.575, 5916566.700000000186265 ], [ 21118.575, 5916566.775000000372529 ], [ 21118.425, 5916566.775000000372529 ], [ 21118.425, 5916566.849999999627471 ], [ 21118.349999999998545, 5916566.849999999627471 ], [ 21118.349999999998545, 5916566.924999999813735 ], [ 21118.275000000001455, 5916566.924999999813735 ], [ 21118.275000000001455, 5916567.0 ], [ 21118.125, 5916567.0 ], [ 21118.125, 5916567.075000000186265 ], [ 21118.05, 5916567.075000000186265 ], [ 21118.05, 5916567.150000000372529 ], [ 21117.900000000001455, 5916567.150000000372529 ], [ 21117.900000000001455, 5916567.224999999627471 ], [ 21117.75, 5916567.224999999627471 ], [ 21117.75, 5916567.299999999813735 ], [ 21117.375, 5916567.299999999813735 ] ] ] } },
{ "type": "Feature", "properties": { "value": 1.0, "building_id": 1, "area": 9.2643749998185001 }, "geometry": { "type": "Polygon", "coordinates": [ [ [ 21130.875, 5916194.174999999813735 ], [ 21130.875, 5916194.099999999627471 ], [ 21130.125, 5916194.099999999627471 ], [ 21130.125, 5916194.025000000372529 ], [ 21129.525000000001455, 5916194.025000000372529 ], [ 21129.525000000001455, 5916193.950000000186265 ], [ 21129.150000000001455, 5916193.950000000186265 ], [ 21129.150000000001455, 5916193.875 ], [ 21129.0, 5916193.875 ], [ 21129.0, 5916193.799999999813735 ], [ 21128.849999999998545, 5916193.799999999813735 ], [ 21128.849999999998545, 5916193.724999999627471 ], [ 21128.775000000001455, 5916193.724999999627471 ], [ 21128.775000000001455, 5916193.650000000372529 ], [ 21128.7, 5916193.650000000372529 ], [ 21128.7, 5916193.5 ], [ 21128.625, 5916193.5 ], [ 21128.625, 5916193.349999999627471 ], [ 21128.55, 5916193.349999999627471 ], [ 21128.55, 5916193.125 ], [ 21128.625, 5916193.125 ], [ 21128.625, 5916192.900000000372529 ], [ 21128.7, 5916192.900000000372529 ], [ 21128.7, 5916192.75 ], [ 21128.849999999998545, 5916192.75 ], [ 21128.849999999998545, 5916192.674999999813735 ], [ 21128.925, 5916192.674999999813735 ], [ 21128.925, 5916192.599999999627471 ], [ 21129.075, 5916192.599999999627471 ], [ 21129.075, 5916192.525000000372529 ], [ 21129.224999999998545, 5916192.525000000372529 ], [ 21129.224999999998545, 5916192.450000000186265 ], [ 21129.375, 5916192.450000000186265 ], [ 21129.375, 5916192.375 ], [ 21129.599999999998545, 5916192.375 ], [ 21129.599999999998545, 5916192.299999999813735 ], [ 21129.75, 5916192.299999999813735 ], [ 21129.75, 5916192.224999999627471 ], [ 21129.900000000001455, 5916192.224999999627471 ], [ 21129.900000000001455, 5916192.150000000372529 ], [ 21130.05, 5916192.150000000372529 ], [ 21130.05, 5916192.075000000186265 ], [ 21130.2, 5916192.075000000186265 ], [ 21130.2, 5916192.0 ], [ 21130.349999999998545, 5916192.0 ], [ 21130.349999999998545, 5916191.924999999813735 ], [ 21130.425, 5916191.924999999813735 ], [ 21130.425, 5916191.849999999627471 ], [ 21130.575, 5916191.849999999627471 ], [ 21130.575, 5916191.775000000372529 ], [ 21130.650000000001455, 5916191.775000000372529 ], [ 21130.650000000001455, 5916191.700000000186265 ], [ 21130.8, 5916191.700000000186265 ], [ 21130.8, 5916191.625 ], [ 21130.875, 5916191.625 ], [ 21130.875, 5916191.549999999813735 ], [ 21130.95, 5916191.549999999813735 ], [ 21130.95, 5916191.474999999627471 ], [ 21131.099999999998545, 5916191.474999999627471 ], [ 21131.099999999998545, 5916191.400000000372529 ], [ 21131.175, 5916191.400000000372529 ], [ 21131.175, 5916191.325000000186265 ], [ 21131.325, 5916191.325000000186265 ], [ 21131.325, 5916191.400000000372529 ], [ 21131.400000000001455, 5916191.400000000372529 ], [ 21131.400000000001455, 5916191.474999999627471 ], [ 21131.474999999998545, 5916191.474999999627471 ], [ 21131.474999999998545, 5916191.549999999813735 ], [ 21131.55, 5916191.549999999813735 ], [ 21131.55, 5916191.625 ], [ 21131.625, 5916191.625 ], [ 21131.625, 5916191.700000000186265 ], [ 21131.7, 5916191.700000000186265 ], [ 21131.7, 5916191.775000000372529 ], [ 21131.849999999998545, 5916191.775000000372529 ], [ 21131.849999999998545, 5916191.849999999627471 ], [ 21131.925, 5916191.849999999627471 ], [ 21131.925, 5916191.924999999813735 ], [ 21132.075, 5916191.924999999813735 ], [ 21132.075, 5916192.0 ], [ 21132.150000000001455, 5916192.0 ], [ 21132.150000000001455, 5916192.075000000186265 ], [ 21132.3, 5916192.075000000186265 ], [ 21132.3, 5916192.150000000372529 ], [ 21132.45, 5916192.150000000372529 ], [ 21132.45, 5916192.224999999627471 ], [ 21132.599999999998545, 5916192.224999999627471 ], [ 21132.599999999998545, 5916192.299999999813735 ], [ 21132.75, 5916192.299999999813735 ], [ 21132.75, 5916192.375 ], [ 21132.900000000001455, 5916192.375 ], [ 21132.900000000001455, 5916192.450000000186265 ], [ 21133.125, 5916192.450000000186265 ], [ 21133.125, 5916192.525000000372529 ], [ 21133.275000000001455, 5916192.525000000372529 ], [ 21133.275000000001455, 5916192.599999999627471 ], [ 21133.349999999998545, 5916192.599999999627471 ], [ 21133.349999999998545, 5916192.674999999813735 ], [ 21133.425, 5916192.674999999813735 ], [ 21133.425, 5916192.825000000186265 ], [ 21133.5, 5916192.825000000186265 ], [ 21133.5, 5916192.900000000372529 ], [ 21133.575, 5916192.900000000372529 ], [ 21133.575, 5916192.974999999627471 ], [ 21133.650000000001455, 5916192.974999999627471 ], [ 21133.650000000001455, 5916193.125 ], [ 21133.724999999998545, 5916193.125 ], [ 21133.724999999998545, 5916193.200000000186265 ], [ 21133.8, 5916193.200000000186265 ], [ 21133.8, 5916193.275000000372529 ], [ 21133.724999999998545, 5916193.275000000372529 ], [ 21133.724999999998545, 5916193.349999999627471 ], [ 21133.650000000001455, 5916193.349999999627471 ], [ 21133.650000000001455, 5916193.5 ], [ 21133.575, 5916193.5 ], [ 21133.575, 5916193.575000000186265 ], [ 21133.5, 5916193.575000000186265 ], [ 21133.5, 5916193.650000000372529 ], [ 21133.425, 5916193.650000000372529 ], [ 21133.425, 5916193.724999999627471 ], [ 21133.349999999998545, 5916193.724999999627471 ], [ 21133.349999999998545, 5916193.799999999813735 ], [ 21133.2, 5916193.799999999813735 ], [ 21133.2, 5916193.875 ], [ 21132.825, 5916193.875 ], [ 21132.825, 5916193.950000000186265 ], [ 21132.375, 5916193.950000000186265 ], [ 21132.375, 5916194.025000000372529 ], [ 21131.925, 5916194.025000000372529 ], [ 21131.925, 5916194.099999999627471 ], [ 21131.474999999998545, 5916194.099999999627471 ], [ 21131.474999999998545, 5916194.174999999813735 ], [ 21130.875, 5916194.174999999813735 ] ] ] } },
{ "type": "Feature", "properties": { "value": 1.0, "building_id": 2, "area": 151.49249999953705 }, "geometry": { "type": "Polygon", "coordinates": [ [ [ 21148.8, 5916147.375 ], [ 21148.8, 5916147.299999999813735 ], [ 21148.724999999998545, 5916147.299999999813735 ], [ 21148.724999999998545, 5916147.224999999627471 ], [ 21148.650000000001455, 5916147.224999999627471 ], [ 21148.650000000001455, 5916147.150000000372529 ], [ 21148.575, 5916147.150000000372529 ], [ 21148.575, 5916147.075000000186265 ], [ 21148.5, 5916147.075000000186265 ], [ 21148.5, 5916147.0 ], [ 21148.425, 5916147.0 ], [ 21148.425, 5916146.849999999627471 ], [ 21148.349999999998545, 5916146.849999999627471 ], [ 21148.349999999998545, 5916146.775000000372529 ], [ 21148.275000000001455, 5916146.775000000372529 ], [ 21148.275000000001455, 5916146.700000000186265 ], [ 21148.2, 5916146.700000000186265 ], [ 21148.2, 5916146.549999999813735 ], [ 21148.125, 5916146.549999999813735 ], [ 21148.125, 5916146.400000000372529 ], [ 21148.05, 5916146.400000000372529 ], [ 21148.05, 5916146.325000000186265 ], [ 21147.974999999998545, 5916146.325000000186265 ], [ 21147.974999999998545, 5916146.25 ], [ 21147.900000000001455, 5916146.25 ], [ 21147.900000000001455, 5916146.174999999813735 ], [ 21147.75, 5916146.174999999813735 ], [ 21147.75, 5916146.099999999627471 ], [ 21147.675, 5916146.099999999627471 ], [ 21147.675, 5916146.025000000372529 ], [ 21147.525000000001455, 5916146.025000000372529 ], [ 21147.525000000001455, 5916145.950000000186265 ], [ 21147.45, 5916145.950000000186265 ], [ 21147.45, 5916145.875 ], [ 21147.3, 5916145.875 ], [ 21147.3, 5916145.799999999813735 ], [ 21147.150000000001455, 5916145.799999999813735 ], [ 21147.150000000001455, 5916145.724999999627471 ], [ 21147.0, 5916145.724999999627471 ], [ 21147.0, 5916145.650000000372529 ], [ 21146.849999999998545, 5916145.650000000372529 ], [ 21146.849999999998545, 5916145.575000000186265 ], [ 21146.775000000001455, 5916145.575000000186265 ], [ 21146.775000000001455, 5916145.5 ], [ 21146.7, 5916145.5 ], [ 21146.7, 5916145.424999999813735 ], [ 21146.625, 5916145.424999999813735 ], [ 21146.625, 5916145.349999999627471 ], [ 21146.55, 5916145.349999999627471 ], [ 21146.55, 5916145.275000000372529 ], [ 21146.474999999998545, 5916145.275000000372529 ], [ 21146.474999999998545, 5916145.200000000186265 ], [ 21146.400000000001455, 5916145.200000000186265 ], [ 21146.400000000001455, 5916145.125 ], [ 21146.325, 5916145.125 ], [ 21146.325, 5916145.049999999813735 ], [ 21146.25, 5916145.049999999813735 ], [ 21146.25, 5916144.900000000372529 ], [ 21146.175, 5916144.900000000372529 ], [ 21146.175, 5916144.825000000186265 ], [ 21146.099999999998545, 5916144.825000000186265 ], [ 21146.099999999998545, 5916144.674999999813735 ], [ 21146.025000000001455, 5916144.674999999813735 ], [ 21146.025000000001455, 5916144.525000000372529 ], [ 21145.95, 5916144.525000000372529 ], [ 21145.95, 5916144.375 ], [ 21145.875, 5916144.375 ], [ 21145.875, 5916144.299999999813735 ], [ 21145.8, 5916144.299999999813735 ], [ 21145.8, 5916144.150000000372529 ], [ 21145.724999999998545, 5916144.150000000372529 ], [ 21145.724999999998545, 5916144.075000000186265 ], [ 21145.650000000001455, 5916144.075000000186265 ], [ 21145.650000000001455, 5916144.0 ], [ 21145.575, 5916144.0 ], [ 21145.575, 5916143.924999999813735 ], [ 21145.5, 5916143.924999999813735 ], [ 21145.5, 5916143.849999999627471 ], [ 21145.425, 5916143.849999999627471 ], [ 21145.425, 5916143.775000000372529 ], [ 21145.349999999998545, 5916143.775000000372529 ], [ 21145.349999999998545, 5916143.700000000186265 ], [ 21145.275000000001455, 5916143.700000000186265 ], [ 21145.275000000001455, 5916143.625 ], [ 21145.125, 5916143.625 ], [ 21145.125, 5916143.549999999813735 ], [ 21145.05, 5916143.549999999813735 ], [ 21145.05, 5916143.474999999627471 ], [ 21144.900000000001455, 5916143.474999999627471 ], [ 21144.900000000001455, 5916143.400000000372529 ], [ 21144.825, 5916143.400000000372529 ], [ 21144.825, 5916143.325000000186265 ], [ 21144.675, 5916143.325000000186265 ], [ 21144.675, 5916143.25 ], [ 21144.599999999998545, 5916143.25 ], [ 21144.599999999998545, 5916143.174999999813735 ], [ 21144.525000000001455, 5916143.174999999813735 ], [ 21144.525000000001455, 5916143.099999999627471 ], [ 21144.45, 5916143.099999999627471 ], [ 21144.45, 5916143.025000000372529 ], [ 21144.375, 5916143.025000000372529 ], [ 21144.375, 5916142.950000000186265 ], [ 21144.3, 5916142.950000000186265 ], [ 21144.3, 5916142.875 ], [ 21144.224999999998545, 5916142.875 ], [ 21144.224999999998545, 5916142.799999999813735 ], [ 21144.150000000001455, 5916142.799999999813735 ], [ 21144.150000000001455, 5916142.650000000372529 ], [ 21144.075, 5916142.650000000372529 ], [ 21144.075, 5916142.575000000186265 ], [ 21144.0, 5916142.575000000186265 ], [ 21144.0, 5916142.349999999627471 ], [ 21143.925, 5916142.349999999627471 ], [ 21143.925, 5916142.125 ], [ 21143.849999999998545, 5916142.125 ], [ 21143.849999999998545, 5916141.825000000186265 ], [ 21143.775000000001455, 5916141.825000000186265 ], [ 21143.775000000001455, 5916141.599999999627471 ], [ 21143.7, 5916141.599999999627471 ], [ 21143.7, 5916141.375 ], [ 21143.625, 5916141.375 ], [ 21143.625, 5916141.150000000372529 ], [ 21143.55, 5916141.150000000372529 ], [ 21143.55, 5916140.924999999813735 ], [ 21143.474999999998545, 5916140.924999999813735 ], [ 21143.474999999998545, 5916140.775000000372529 ], [ 21143.400000000001455, 5916140.775000000372529 ], [ 21143.400000000001455, 5916140.549999999813735 ], [ 21143.325, 5916140.549999999813735 ], [ 21143.325, 5916140.474999999627471 ], [ 21143.25, 5916140.474999999627471 ], [ 21143.25, 5916140.325000000186265 ], [ 21143.175, 5916140.325000000186265 ], [ 21143.175, 5916140.25 ], [ 21143.099999999998545, 5916140.25 ], [ 21143.099999999998545, 5916140.174999999813735 ], [ 21143.025000000001455, 5916140.174999999813735 ], [ 21143.025000000001455, 5916140.099999999627471 ], [ 21142.875, 5916140.099999999627471 ], [ 21142.875, 5916140.025000000372529 ], [ 21142.8, 5916140.025000000372529 ], [ 21142.8, 5916139.950000000186265 ], [ 21142.724999999998545, 5916139.950000000186265 ], [ 21142.724999999998545, 5916139.875 ], [ 21142.650000000001455, 5916139.875 ], [ 21142.650000000001455, 5916139.724999999627471 ], [ 21142.575, 5916139.724999999627471 ], [ 21142.575, 5916139.650000000372529 ], [ 21142.5, 5916139.650000000372529 ], [ 21142.5, 5916139.575000000186265 ], [ 21142.425, 5916139.575000000186265 ], [ 21142.425, 5916139.5 ], [ 21142.349999999998545, 5916139.5 ], [ 21142.349999999998545, 5916139.349999999627471 ], [ 21142.275000000001455, 5916139.349999999627471 ], [ 21142.275000000001455, 5916139.200000000186265 ], [ 21142.2, 5916139.200000000186265 ], [ 21142.2, 5916139.049999999813735 ], [ 21142.125, 5916139.049999999813735 ], [ 21142.125, 5916138.900000000372529 ], [ 21142.05, 5916138.900000000372529 ], [ 21142.05, 5916138.75 ], [ 21141.974999999998545, 5916138.75 ], [ 21141.974999999998545, 5916137.924999999813735 ], [ 21141.900000000001455, 5916137.924999999813735 ], [ 21141.900000000001455, 5916136.275000000372529 ], [ 21141.974999999998545, 5916136.275000000372529 ], [ 21141.974999999998545, 5916135.674999999813735 ], [ 21142.05, 5916135.674999999813735 ], [ 21142.05, 5916135.075000000186265 ], [ 21142.125, 5916135.075000000186265 ], [ 21142.125, 5916134.625 ], [ 21142.2, 5916134.625 ], [ 21142.2, 5916134.474999999627471 ], [ 21142.275000000001455, 5916134.474999999627471 ], [ 21142.275000000001455, 5916134.325000000186265 ], [ 21142.349999999998545, 5916134.325000000186265 ], [ 21142.349999999998545, 5916134.25 ], [ 21142.425, 5916134.25 ], [ 21142.425, 5916134.099999999627471 ], [ 21142.5, 5916134.099999999627471 ], [ 21142.5, 5916134.025000000372529 ], [ 21142.575, 5916134.025000000372529 ], [ 21142.575, 5916133.950000000186265 ], [ 21142.650000000001455, 5916133.950000000186265 ], [ 21142.650000000001455, 5916133.875 ], [ 21142.724999999998545, 5916133.875 ], [ 21142.724999999998545, 5916133.799999999813735 ], [ 21142.8, 5916133.799999999813735 ], [ 21142.8, 5916133.724999999627471 ], [ 21142.875, 5916133.724999999627471 ], [ 21142.875, 5916133.650000000372529 ], [ 21142.95, 5916133.650000000372529 ], [ 21142.95, 5916133.575000000186265 ], [ 21143.025000000001455, 5916133.575000000186265 ], [ 21143.025000000001455, 5916133.5 ], [ 21143.175, 5916133.5 ], [ 21143.175, 5916133.424999999813735 ], [ 21143.25, 5916133.424999999813735 ], [ 21143.25, 5916133.349999999627471 ], [ 21143.325, 5916133.349999999627471 ], [ 21143.325, 5916133.275000000372529 ], [ 21143.400000000001455, 5916133.275000000372529 ], [ 21143.400000000001455, 5916133.125 ], [ 21143.474999999998545, 5916133.125 ], [ 21143.474999999998545, 5916133.049999999813735 ], [ 21143.55, 5916133.049999999813735 ], [ 21143.55, 5916132.974999999627471 ], [ 21143.625, 5916132.974999999627471 ], [ 21143.625, 5916132.825000000186265 ], [ 21143.7, 5916132.825000000186265 ], [ 21143.7, 5916132.75 ], [ 21143.775000000001455, 5916132.75 ], [ 21143.775000000001455, 5916132.599999999627471 ], [ 21143.849999999998545, 5916132.599999999627471 ], [ 21143.849999999998545, 5916132.525000000372529 ], [ 21143.925, 5916132.525000000372529 ], [ 21143.925, 5916132.450000000186265 ], [ 21144.0, 5916132.450000000186265 ], [ 21144.0, 5916132.299999999813735 ], [ 21144.075, 5916132.299999999813735 ], [ 21144.075, 5916132.224999999627471 ], [ 21144.150000000001455, 5916132.224999999627471 ], [ 21144.150000000001455, 5916132.150000000372529 ], [ 21144.224999999998545, 5916132.150000000372529 ], [ 21144.224999999998545, 5916132.075000000186265 ], [ 21144.375, 5916132.075000000186265 ], [ 21144.375, 5916132.0 ], [ 21144.45, 5916132.0 ], [ 21144.45, 5916131.924999999813735 ], [ 21144.525000000001455, 5916131.924999999813735 ], [ 21144.525000000001455, 5916131.849999999627471 ], [ 21144.675, 5916131.849999999627471 ], [ 21144.675, 5916131.775000000372529 ], [ 21144.825, 5916131.775000000372529 ], [ 21144.825, 5916131.700000000186265 ], [ 21145.05, 5916131.700000000186265 ], [ 21145.05, 5916131.625 ], [ 21145.575, 5916131.625 ], [ 21145.575, 5916131.549999999813735 ], [ 21146.099999999998545, 5916131.549999999813735 ], [ 21146.099999999998545, 5916131.474999999627471 ], [ 21146.55, 5916131.474999999627471 ], [ 21146.55, 5916131.400000000372529 ], [ 21149.025000000001455, 5916131.400000000372529 ], [ 21149.025000000001455, 5916131.474999999627471 ], [ 21149.625, 5916131.474999999627471 ], [ 21149.625, 5916131.549999999813735 ], [ 21150.224999999998545, 5916131.549999999813735 ], [ 21150.224999999998545, 5916131.625 ], [ 21150.75, 5916131.625 ], [ 21150.75, 5916131.700000000186265 ], [ 21150.974999999998545, 5916131.700000000186265 ], [ 21150.974999999998545, 5916131.775000000372529 ], [ 21151.125, 5916131.775000000372529 ], [ 21151.125, 5916131.849999999627471 ], [ 21151.275000000001455, 5916131.849999999627471 ], [ 21151.275000000001455, 5916131.924999999813735 ], [ 21151.425, 5916131.924999999813735 ], [ 21151.425, 5916132.0 ], [ 21151.5, 5916132.0 ], [ 21151.5, 5916132.075000000186265 ], [ 21151.650000000001455, 5916132.075000000186265 ], [ 21151.650000000001455, 5916132.150000000372529 ], [ 21151.724999999998545, 5916132.150000000372529 ], [ 21151.724999999998545, 5916132.224999999627471 ], [ 21151.8, 5916132.224999999627471 ], [ 21151.8, 5916132.299999999813735 ], [ 21151.875, 5916132.299999999813735 ], [ 21151.875, 5916132.375 ], [ 21151.95, 5916132.375 ], [ 21151.95, 5916132.450000000186265 ], [ 21152.025000000001455, 5916132.450000000186265 ], [ 21152.025000000001455, 5916132.525000000372529 ], [ 21152.099999999998545, 5916132.525000000372529 ], [ 21152.099999999998545, 5916132.599999999627471 ], [ 21152.175, 5916132.599999999627471 ], [ 21152.175, 5916132.674999999813735 ], [ 21152.25, 5916132.674999999813735 ], [ 21152.25, 5916132.75 ], [ 21152.325, 5916132.75 ], [ 21152.325, 5916132.825000000186265 ], [ 21152.400000000001455, 5916132.825000000186265 ], [ 21152.400000000001455, 5916132.900000000372529 ], [ 21152.474999999998545, 5916132.900000000372529 ], [ 21152.474999999998545, 5916132.974999999627471 ], [ 21152.55, 5916132.974999999627471 ], [ 21152.55, 5916133.049999999813735 ], [ 21152.625, 5916133.049999999813735 ], [ 21152.625, 5916133.125 ], [ 21152.7, 5916133.125 ], [ 21152.7, 5916133.200000000186265 ], [ 21152.775000000001455, 5916133.200000000186265 ], [ 21152.775000000001455, 5916133.275000000372529 ], [ 21152.925, 5916133.275000000372529 ], [ 21152.925, 5916133.349999999627471 ], [ 21153.075, 5916133.349999999627471 ], [ 21153.075, 5916133.424999999813735 ], [ 21153.150000000001455, 5916133.424999999813735 ], [ 21153.150000000001455, 5916133.5 ], [ 21153.224999999998545, 5916133.5 ], [ 21153.224999999998545, 5916133.575000000186265 ], [ 21153.375, 5916133.575000000186265 ], [ 21153.375, 5916133.650000000372529 ], [ 21153.45, 5916133.650000000372529 ], [ 21153.45, 5916133.724999999627471 ], [ 21153.525000000001455, 5916133.724999999627471 ], [ 21153.525000000001455, 5916133.799999999813735 ], [ 21153.599999999998545, 5916133.799999999813735 ], [ 21153.599999999998545, 5916133.875 ], [ 21153.675, 5916133.875 ], [ 21153.675, 5916133.950000000186265 ], [ 21153.825, 5916133.950000000186265 ], [ 21153.825, 5916134.025000000372529 ], [ 21153.900000000001455, 5916134.025000000372529 ], [ 21153.900000000001455, 5916134.099999999627471 ], [ 21153.974999999998545, 5916134.099999999627471 ], [ 21153.974999999998545, 5916134.174999999813735 ], [ 21154.05, 5916134.174999999813735 ], [ 21154.05, 5916134.325000000186265 ], [ 21154.125, 5916134.325000000186265 ], [ 21154.125, 5916134.400000000372529 ], [ 21154.2, 5916134.400000000372529 ], [ 21154.2, 5916134.474999999627471 ], [ 21154.275000000001455, 5916134.474999999627471 ], [ 21154.275000000001455, 5916134.549999999813735 ], [ 21154.349999999998545, 5916134.549999999813735 ], [ 21154.349999999998545, 5916134.625 ], [ 21154.425, 5916134.625 ], [ 21154.425, 5916134.775000000372529 ], [ 21154.5, 5916134.775000000372529 ], [ 21154.5, 5916134.849999999627471 ], [ 21154.575, 5916134.849999999627471 ], [ 21154.575, 5916134.924999999813735 ], [ 21154.650000000001455, 5916134.924999999813735 ], [ 21154.650000000001455, 5916135.075000000186265 ], [ 21154.724999999998545, 5916135.075000000186265 ], [ 21154.724999999998545, 5916135.150000000372529 ], [ 21154.8, 5916135.150000000372529 ], [ 21154.8, 5916135.224999999627471 ], [ 21154.875, 5916135.224999999627471 ], [ 21154.875, 5916135.375 ], [ 21154.95, 5916135.375 ], [ 21154.95, 5916135.525000000372529 ], [ 21155.025000000001455, 5916135.525000000372529 ], [ 21155.025000000001455, 5916135.674999999813735 ], [ 21155.099999999998545, 5916135.674999999813735 ], [ 21155.099999999998545, 5916135.825000000186265 ], [ 21155.175, 5916135.825000000186265 ], [ 21155.175, 5916135.974999999627471 ], [ 21155.25, 5916135.974999999627471 ], [ 21155.25, 5916136.125 ], [ 21155.325, 5916136.125 ], [ 21155.325, 5916136.349999999627471 ], [ 21155.400000000001455, 5916136.349999999627471 ], [ 21155.400000000001455, 5916136.575000000186265 ], [ 21155.474999999998545, 5916136.575000000186265 ], [ 21155.474999999998545, 5916138.825000000186265 ], [ 21155.400000000001455, 5916138.825000000186265 ], [ 21155.400000000001455, 5916139.5 ], [ 21155.325, 5916139.5 ], [ 21155.325, 5916140.099999999627471 ], [ 21155.25, 5916140.099999999627471 ], [ 21155.25, 5916140.549999999813735 ], [ 21155.175, 5916140.549999999813735 ], [ 21155.175, 5916140.700000000186265 ], [ 21155.099999999998545, 5916140.700000000186265 ], [ 21155.099999999998545, 5916140.849999999627471 ], [ 21155.025000000001455, 5916140.849999999627471 ], [ 21155.025000000001455, 5916141.0 ], [ 21154.95, 5916141.0 ], [ 21154.95, 5916141.150000000372529 ], [ 21154.875, 5916141.150000000372529 ], [ 21154.875, 5916141.224999999627471 ], [ 21154.8, 5916141.224999999627471 ], [ 21154.8, 5916141.375 ], [ 21154.724999999998545, 5916141.375 ], [ 21154.724999999998545, 5916141.450000000186265 ], [ 21154.650000000001455, 5916141.450000000186265 ], [ 21154.650000000001455, 5916141.525000000372529 ], [ 21154.575, 5916141.525000000372529 ], [ 21154.575, 5916141.599999999627471 ], [ 21154.5, 5916141.599999999627471 ], [ 21154.5, 5916141.674999999813735 ], [ 21154.425, 5916141.674999999813735 ], [ 21154.425, 5916141.75 ], [ 21154.349999999998545, 5916141.75 ], [ 21154.349999999998545, 5916141.825000000186265 ], [ 21154.275000000001455, 5916141.825000000186265 ], [ 21154.275000000001455, 5916141.974999999627471 ], [ 21154.2, 5916141.974999999627471 ], [ 21154.2, 5916142.049999999813735 ], [ 21154.125, 5916142.049999999813735 ], [ 21154.125, 5916142.125 ], [ 21154.05, 5916142.125 ], [ 21154.05, 5916142.275000000372529 ], [ 21153.974999999998545, 5916142.275000000372529 ], [ 21153.974999999998545, 5916142.424999999813735 ], [ 21153.900000000001455, 5916142.424999999813735 ], [ 21153.900000000001455, 5916142.5 ], [ 21153.825, 5916142.5 ], [ 21153.825, 5916142.650000000372529 ], [ 21153.75, 5916142.650000000372529 ], [ 21153.75, 5916142.724999999627471 ], [ 21153.675, 5916142.724999999627471 ], [ 21153.675, 5916142.799999999813735 ], [ 21153.599999999998545, 5916142.799999999813735 ], [ 21153.599999999998545, 5916142.950000000186265 ], [ 21153.525000000001455, 5916142.950000000186265 ], [ 21153.525000000001455, 5916143.025000000372529 ], [ 21153.45, 5916143.025000000372529 ], [ 21153.45, 5916143.099999999627471 ], [ 21153.375, 5916143.099999999627471 ], [ 21153.375, 5916143.174999999813735 ], [ 21153.3, 5916143.174999999813735 ], [ 21153.3, 5916143.25 ], [ 21153.224999999998545, 5916143.25 ], [ 21153.224999999998545, 5916143.325000000186265 ], [ 21153.150000000001455, 5916143.325000000186265 ], [ 21153.150000000001455, 5916143.400000000372529 ], [ 21153.075, 5916143.400000000372529 ], [ 21153.075, 5916143.474999999627471 ], [ 21153.0, 5916143.474999999627471 ], [ 21153.0, 5916143.549999999813735 ], [ 21152.849999999998545, 5916143.549999999813735 ], [ 21152.849999999998545, 5916143.625 ], [ 21152.775000000001455, 5916143.625 ], [ 21152.775000000001455, 5916143.700000000186265 ], [ 21152.7, 5916143.700000000186265 ], [ 21152.7, 5916143.775000000372529 ], [ 21152.625, 5916143.775000000372529 ], [ 21152.625, 5916143.849999999627471 ], [ 21152.474999999998545, 5916143.849999999627471 ], [ 21152.474999999998545, 5916143.924999999813735 ], [ 21152.400000000001455, 5916143.924999999813735 ], [ 21152.400000000001455, 5916144.0 ], [ 21152.325, 5916144.0 ], [ 21152.325, 5916144.075000000186265 ], [ 21152.25, 5916144.075000000186265 ], [ 21152.25, 5916144.150000000372529 ], [ 21152.175, 5916144.150000000372529 ], [ 21152.175, 5916144.224999999627471 ], [ 21152.099999999998545, 5916144.224999999627471 ], [ 21152.099999999998545, 5916144.299999999813735 ], [ 21152.025000000001455, 5916144.299999999813735 ], [ 21152.025000000001455, 5916144.375 ], [ 21151.95, 5916144.375 ], [ 21151.95, 5916144.450000000186265 ], [ 21151.875, 5916144.450000000186265 ], [ 21151.875, 5916144.525000000372529 ], [ 21151.8, 5916144.525000000372529 ], [ 21151.8, 5916144.599999999627471 ], [ 21151.724999999998545, 5916144.599999999627471 ], [ 21151.724999999998545, 5916144.674999999813735 ], [ 21151.650000000001455, 5916144.674999999813735 ], [ 21151.650000000001455, 5916144.75 ], [ 21151.575, 5916144.75 ], [ 21151.575, 5916144.825000000186265 ], [ 21151.5, 5916144.825000000186265 ], [ 21151.5, 5916144.900000000372529 ], [ 21151.425, 5916144.900000000372529 ], [ 21151.425, 5916144.974999999627471 ], [ 21151.349999999998545, 5916144.974999999627471 ], [ 21151.349999999998545, 5916145.049999999813735 ], [ 21151.2, 5916145.049999999813735 ], [ 21151.2, 5916145.125 ], [ 21151.125, 5916145.125 ], [ 21151.125, 5916145.200000000186265 ], [ 21150.974999999998545, 5916145.200000000186265 ], [ 21150.974999999998545, 5916145.275000000372529 ], [ 21150.900000000001455, 5916145.275000000372529 ], [ 21150.900000000001455, 5916145.349999999627471 ], [ 21150.75, 5916145.349999999627471 ], [ 21150.75, 5916145.424999999813735 ], [ 21150.599999999998545, 5916145.424999999813735 ], [ 21150.599999999998545, 5916145.5 ], [ 21150.45, 5916145.5 ], [ 21150.45, 5916145.575000000186265 ], [ 21150.375, 5916145.575000000186265 ], [ 21150.375, 5916145.650000000372529 ], [ 21150.224999999998545, 5916145.650000000372529 ], [ 21150.224999999998545, 5916145.724999999627471 ], [ 21150.150000000001455, 5916145.724999999627471 ], [ 21150.150000000001455, 5916145.799999999813735 ], [ 21150.075, 5916145.799999999813735 ], [ 21150.075, 5916145.875 ], [ 21149.925, 5916145.875 ], [ 21149.925, 5916145.950000000186265 ], [ 21149.849999999998545, 5916145.950000000186265 ], [ 21149.849999999998545, 5916146.025000000372529 ], [ 21149.775000000001455, 5916146.025000000372529 ], [ 21149.775000000001455, 5916146.099999999627471 ], [ 21149.7, 5916146.099999999627471 ], [ 21149.7, 5916146.174999999813735 ], [ 21149.625, 5916146.174999999813735 ], [ 21149.625, 5916146.25 ], [ 21149.55, 5916146.25 ], [ 21149.55, 5916146.325000000186265 ], [ 21149.474999999998545, 5916146.325000000186265 ], [ 21149.474999999998545, 5916146.474999999627471 ], [ 21149.400000000001455, 5916146.474999999627471 ], [ 21149.400000000001455, 5916146.625 ], [ 21149.325, 5916146.625 ], [ 21149.325, 5916146.700000000186265 ], [ 21149.25, 5916146.700000000186265 ], [ 21149.25, 5916146.849999999627471 ], [ 21149.175, 5916146.849999999627471 ], [ 21149.175, 5916147.0 ], [ 21149.099999999998545, 5916147.0 ], [ 21149.099999999998545, 5916147.075000000186265 ], [ 21149.025000000001455, 5916147.075000000186265 ], [ 21149.025000000001455, 5916147.150000000372529 ], [ 21148.95, 5916147.150000000372529 ], [ 21148.95, 5916147.299999999813735 ], [ 21148.875, 5916147.299999999813735 ], [ 21148.875, 5916147.375 ], [ 21148.8, 5916147.375 ] ] ] } },
{ "type": "Feature", "properties": { "value": 1.0, "building_id": 3, "area": 214.53187500124298 }, "geometry": { "type": "Polygon", "coordinates": [ [ [ 21138.974999999998545, 5916127.575000000186265 ], [ 21138.974999999998545, 5916127.5 ], [ 21138.825, 5916127.5 ], [ 21138.825, 5916127.424999999813735 ], [ 21138.599999999998545, 5916127.424999999813735 ], [ 21138.599999999998545, 5916127.349999999627471 ], [ 21138.45, 5916127.349999999627471 ], [ 21138.45, 5916127.275000000372529 ], [ 21138.375, 5916127.275000000372529 ], [ 21138.375, 5916127.200000000186265 ], [ 21138.224999999998545, 5916127.200000000186265 ], [ 21138.224999999998545, 5916127.125 ], [ 21138.075, 5916127.125 ], [ 21138.075, 5916127.049999999813735 ], [ 21138.0, 5916127.049999999813735 ], [ 21138.0, 5916126.974999999627471 ], [ 21137.925, 5916126.974999999627471 ], [ 21137.925, 5916126.900000000372529 ], [ 21137.849999999998545, 5916126.900000000372529 ], [ 21137.849999999998545, 5916126.825000000186265 ], [ 21137.775000000001455, 5916126.825000000186265 ], [ 21137.775000000001455, 5916126.75 ], [ 21137.625, 5916126.75 ], [ 21137.625, 5916126.674999999813735 ], [ 21137.55, 5916126.674999999813735 ], [ 21137.55, 5916126.599999999627471 ], [ 21137.474999999998545, 5916126.599999999627471 ], [ 21137.474999999998545, 5916126.525000000372529 ], [ 21137.400000000001455, 5916126.525000000372529 ], [ 21137.400000000001455, 5916126.450000000186265 ], [ 21137.25, 5916126.450000000186265 ], [ 21137.25, 5916126.375 ], [ 21137.099999999998545, 5916126.375 ], [ 21137.099999999998545, 5916126.299999999813735 ], [ 21136.95, 5916126.299999999813735 ], [ 21136.95, 5916126.224999999627471 ], [ 21136.8, 5916126.224999999627471 ], [ 21136.8, 5916126.150000000372529 ], [ 21136.650000000001455, 5916126.150000000372529 ], [ 21136.650000000001455, 5916126.075000000186265 ], [ 21136.5, 5916126.075000000186265 ], [ 21136.5, 5916126.0 ], [ 21136.425, 5916126.0 ], [ 21136.425, 5916125.924999999813735 ], [ 21136.275000000001455, 5916125.924999999813735 ], [ 21136.275000000001455, 5916125.849999999627471 ], [ 21136.125, 5916125.849999999627471 ], [ 21136.125, 5916125.775000000372529 ], [ 21136.05, 5916125.775000000372529 ], [ 21136.05, 5916125.700000000186265 ], [ 21135.900000000001455, 5916125.700000000186265 ], [ 21135.900000000001455, 5916125.625 ], [ 21135.825, 5916125.625 ], [ 21135.825, 5916125.549999999813735 ], [ 21135.75, 5916125.549999999813735 ], [ 21135.75, 5916125.474999999627471 ], [ 21135.675, 5916125.474999999627471 ], [ 21135.675, 5916125.400000000372529 ], [ 21135.525000000001455, 5916125.400000000372529 ], [ 21135.525000000001455, 5916125.325000000186265 ], [ 21135.45, 5916125.325000000186265 ], [ 21135.45, 5916125.25 ], [ 21135.375, 5916125.25 ], [ 21135.375, 5916125.174999999813735 ], [ 21135.3, 5916125.174999999813735 ], [ 21135.3, 5916125.099999999627471 ], [ 21135.224999999998545, 5916125.099999999627471 ], [ 21135.224999999998545, 5916125.025000000372529 ], [ 21135.150000000001455, 5916125.025000000372529 ], [ 21135.150000000001455, 5916124.950000000186265 ], [ 21135.075, 5916124.950000000186265 ], [ 21135.075, 5916124.875 ], [ 21135.0, 5916124.875 ], [ 21135.0, 5916124.724999999627471 ], [ 21134.925, 5916124.724999999627471 ], [ 21134.925, 5916124.650000000372529 ], [ 21134.849999999998545, 5916124.650000000372529 ], [ 21134.849999999998545, 5916124.575000000186265 ], [ 21134.775000000001455, 5916124.575000000186265 ], [ 21134.775000000001455, 5916124.424999999813735 ], [ 21134.7, 5916124.424999999813735 ], [ 21134.7, 5916124.349999999627471 ], [ 21134.625, 5916124.349999999627471 ], [ 21134.625, 5916124.200000000186265 ], [ 21134.55, 5916124.200000000186265 ], [ 21134.55, 5916124.049999999813735 ], [ 21134.474999999998545, 5916124.049999999813735 ], [ 21134.474999999998545, 5916123.900000000372529 ], [ 21134.400000000001455, 5916123.900000000372529 ], [ 21134.400000000001455, 5916123.674999999813735 ], [ 21134.325, 5916123.674999999813735 ], [ 21134.325, 5916123.525000000372529 ], [ 21134.25, 5916123.525000000372529 ], [ 21134.25, 5916123.299999999813735 ], [ 21134.175, 5916123.299999999813735 ], [ 21134.175, 5916123.0 ], [ 21134.099999999998545, 5916123.0 ], [ 21134.099999999998545, 5916122.849999999627471 ], [ 21134.025000000001455, 5916122.849999999627471 ], [ 21134.025000000001455, 5916122.700000000186265 ], [ 21133.95, 5916122.700000000186265 ], [ 21133.95, 5916122.549999999813735 ], [ 21133.875, 5916122.549999999813735 ], [ 21133.875, 5916122.474999999627471 ], [ 21133.8, 5916122.474999999627471 ], [ 21133.8, 5916122.400000000372529 ], [ 21133.724999999998545, 5916122.400000000372529 ], [ 21133.724999999998545, 5916122.25 ], [ 21133.650000000001455, 5916122.25 ], [ 21133.650000000001455, 5916122.174999999813735 ], [ 21133.575, 5916122.174999999813735 ], [ 21133.575, 5916122.099999999627471 ], [ 21133.5, 5916122.099999999627471 ], [ 21133.5, 5916122.025000000372529 ], [ 21133.425, 5916122.025000000372529 ], [ 21133.425, 5916121.950000000186265 ], [ 21133.275000000001455, 5916121.950000000186265 ], [ 21133.275000000001455, 5916121.875 ], [ 21133.2, 5916121.875 ], [ 21133.2, 5916121.799999999813735 ], [ 21133.125, 5916121.799999999813735 ], [ 21133.125, 5916121.724999999627471 ], [ 21132.974999999998545, 5916121.724999999627471 ], [ 21132.974999999998545, 5916121.650000000372529 ], [ 21132.900000000001455, 5916121.650000000372529 ], [ 21132.900000000001455, 5916121.575000000186265 ], [ 21132.825, 5916121.575000000186265 ], [ 21132.825, 5916121.5 ], [ 21132.75, 5916121.5 ], [ 21132.75, 5916121.424999999813735 ], [ 21132.675, 5916121.424999999813735 ], [ 21132.675, 5916121.349999999627471 ], [ 21132.599999999998545, 5916121.349999999627471 ], [ 21132.599999999998545, 5916121.275000000372529 ], [ 21132.525000000001455, 5916121.275000000372529 ], [ 21132.525000000001455, 5916121.200000000186265 ], [ 21132.45, 5916121.200000000186265 ], [ 21132.45, 5916121.125 ], [ 21132.375, 5916121.125 ], [ 21132.375, 5916120.974999999627471 ], [ 21132.3, 5916120.974999999627471 ], [ 21132.3, 5916120.900000000372529 ], [ 21132.224999999998545, 5916120.900000000372529 ], [ 21132.224999999998545, 5916120.825000000186265 ], [ 21132.150000000001455, 5916120.825000000186265 ], [ 21132.150000000001455, 5916120.75 ], [ 21132.075, 5916120.75 ], [ 21132.075, 5916120.674999999813735 ], [ 21132.0, 5916120.674999999813735 ], [ 21132.0, 5916120.599999999627471 ], [ 21131.925, 5916120.599999999627471 ], [ 21131.925, 5916120.525000000372529 ], [ 21131.849999999998545, 5916120.525000000372529 ], [ 21131.849999999998545, 5916120.450000000186265 ], [ 21131.7, 5916120.450000000186265 ], [ 21131.7, 5916120.375 ], [ 21131.625, 5916120.375 ], [ 21131.625, 5916120.299999999813735 ], [ 21131.474999999998545, 5916120.299999999813735 ], [ 21131.474999999998545, 5916120.224999999627471 ], [ 21131.325, 5916120.224999999627471 ], [ 21131.325, 5916120.150000000372529 ], [ 21131.175, 5916120.150000000372529 ], [ 21131.175, 5916120.075000000186265 ], [ 21130.8, 5916120.075000000186265 ], [ 21130.8, 5916120.0 ], [ 21130.5, 5916120.0 ], [ 21130.5, 5916119.924999999813735 ], [ 21130.2, 5916119.924999999813735 ], [ 21130.2, 5916119.849999999627471 ], [ 21129.974999999998545, 5916119.849999999627471 ], [ 21129.974999999998545, 5916119.775000000372529 ], [ 21129.75, 5916119.775000000372529 ], [ 21129.75, 5916119.700000000186265 ], [ 21129.45, 5916119.700000000186265 ], [ 21129.45, 5916119.625 ], [ 21129.3, 5916119.625 ], [ 21129.3, 5916119.549999999813735 ], [ 21129.150000000001455, 5916119.549999999813735 ], [ 21129.150000000001455, 5916119.474999999627471 ], [ 21129.075, 5916119.474999999627471 ], [ 21129.075, 5916119.400000000372529 ], [ 21129.0, 5916119.400000000372529 ], [ 21129.0, 5916119.325000000186265 ], [ 21128.925, 5916119.325000000186265 ], [ 21128.925, 5916119.25 ], [ 21128.849999999998545, 5916119.25 ], [ 21128.849999999998545, 5916119.174999999813735 ], [ 21128.775000000001455, 5916119.174999999813735 ], [ 21128.775000000001455, 5916119.099999999627471 ], [ 21128.7, 5916119.099999999627471 ], [ 21128.7, 5916118.950000000186265 ], [ 21128.625, 5916118.950000000186265 ], [ 21128.625, 5916118.724999999627471 ], [ 21128.55, 5916118.724999999627471 ], [ 21128.55, 5916118.575000000186265 ], [ 21128.474999999998545, 5916118.575000000186265 ], [ 21128.474999999998545, 5916118.349999999627471 ], [ 21128.400000000001455, 5916118.349999999627471 ], [ 21128.400000000001455, 5916118.125 ], [ 21128.325, 5916118.125 ], [ 21128.325, 5916117.900000000372529 ], [ 21128.25, 5916117.900000000372529 ], [ 21128.25, 5916117.674999999813735 ], [ 21128.175, 5916117.674999999813735 ], [ 21128.175, 5916117.450000000186265 ], [ 21128.099999999998545, 5916117.450000000186265 ], [ 21128.099999999998545, 5916117.299999999813735 ], [ 21128.025000000001455, 5916117.299999999813735 ], [ 21128.025000000001455, 5916117.075000000186265 ], [ 21127.95, 5916117.075000000186265 ], [ 21127.95, 5916116.924999999813735 ], [ 21127.875, 5916116.924999999813735 ], [ 21127.875, 5916116.775000000372529 ], [ 21127.8, 5916116.775000000372529 ], [ 21127.8, 5916116.700000000186265 ], [ 21127.724999999998545, 5916116.700000000186265 ], [ 21127.724999999998545, 5916116.549999999813735 ], [ 21127.650000000001455, 5916116.549999999813735 ], [ 21127.650000000001455, 5916116.474999999627471 ], [ 21127.575, 5916116.474999999627471 ], [ 21127.575, 5916116.325000000186265 ], [ 21127.5, 5916116.325000000186265 ], [ 21127.5, 5916116.25 ], [ 21127.425, 5916116.25 ], [ 21127.425, 5916116.174999999813735 ], [ 21127.349999999998545, 5916116.174999999813735 ], [ 21127.349999999998545, 5916116.099999999627471 ], [ 21127.275000000001455, 5916116.099999999627471 ], [ 21127.275000000001455, 5916116.025000000372529 ], [ 21127.2, 5916116.025000000372529 ], [ 21127.2, 5916115.875 ], [ 21127.125, 5916115.875 ], [ 21127.125, 5916115.799999999813735 ], [ 21127.05, 5916115.799999999813735 ], [ 21127.05, 5916115.650000000372529 ], [ 21126.974999999998545, 5916115.650000000372529 ], [ 21126.974999999998545, 5916115.5 ], [ 21126.900000000001455, 5916115.5 ], [ 21126.900000000001455, 5916115.349999999627471 ], [ 21126.825, 5916115.349999999627471 ], [ 21126.825, 5916115.200000000186265 ], [ 21126.75, 5916115.200000000186265 ], [ 21126.75, 5916113.174999999813735 ], [ 21126.825, 5916113.174999999813735 ], [ 21126.825, 5916113.025000000372529 ], [ 21126.900000000001455, 5916113.025000000372529 ], [ 21126.900000000001455, 5916112.875 ], [ 21126.974999999998545, 5916112.875 ], [ 21126.974999999998545, 5916112.724999999627471 ], [ 21127.05, 5916112.724999999627471 ], [ 21127.05, 5916112.650000000372529 ], [ 21127.125, 5916112.650000000372529 ], [ 21127.125, 5916112.5 ], [ 21127.2, 5916112.5 ], [ 21127.2, 5916112.424999999813735 ], [ 21127.275000000001455, 5916112.424999999813735 ], [ 21127.275000000001455, 5916112.349999999627471 ], [ 21127.349999999998545, 5916112.349999999627471 ], [ 21127.349999999998545, 5916112.275000000372529 ], [ 21127.425, 5916112.275000000372529 ], [ 21127.425, 5916112.200000000186265 ], [ 21127.5, 5916112.200000000186265 ], [ 21127.5, 5916112.125 ], [ 21127.575, 5916112.125 ], [ 21127.575, 5916112.049999999813735 ], [ 21127.650000000001455, 5916112.049999999813735 ], [ 21127.650000000001455, 5916111.900000000372529 ], [ 21127.724999999998545, 5916111.900000000372529 ], [ 21127.724999999998545, 5916111.825000000186265 ], [ 21127.8, 5916111.825000000186265 ], [ 21127.8, 5916111.674999999813735 ], [ 21127.875, 5916111.674999999813735 ], [ 21127.875, 5916111.599999999627471 ], [ 21127.95, 5916111.599999999627471 ], [ 21127.95, 5916111.450000000186265 ], [ 21128.025000000001455, 5916111.450000000186265 ], [ 21128.025000000001455, 5916111.224999999627471 ], [ 21128.099999999998545, 5916111.224999999627471 ], [ 21128.099999999998545, 5916111.075000000186265 ], [ 21128.175, 5916111.075000000186265 ], [ 21128.175, 5916110.849999999627471 ], [ 21128.25, 5916110.849999999627471 ], [ 21128.25, 5916110.625 ], [ 21128.325, 5916110.625 ], [ 21128.325, 5916110.474999999627471 ], [ 21128.400000000001455, 5916110.474999999627471 ], [ 21128.400000000001455, 5916110.325000000186265 ], [ 21128.474999999998545, 5916110.325000000186265 ], [ 21128.474999999998545, 5916110.174999999813735 ], [ 21128.55, 5916110.174999999813735 ], [ 21128.55, 5916110.025000000372529 ], [ 21128.625, 5916110.025000000372529 ], [ 21128.625, 5916109.950000000186265 ], [ 21128.7, 5916109.950000000186265 ], [ 21128.7, 5916109.875 ], [ 21128.775000000001455, 5916109.875 ], [ 21128.775000000001455, 5916109.799999999813735 ], [ 21128.849999999998545, 5916109.799999999813735 ], [ 21128.849999999998545, 5916109.724999999627471 ], [ 21128.925, 5916109.724999999627471 ], [ 21128.925, 5916109.650000000372529 ], [ 21129.0, 5916109.650000000372529 ], [ 21129.0, 5916109.575000000186265 ], [ 21129.075, 5916109.575000000186265 ], [ 21129.075, 5916109.5 ], [ 21129.150000000001455, 5916109.5 ], [ 21129.150000000001455, 5916109.424999999813735 ], [ 21129.224999999998545, 5916109.424999999813735 ], [ 21129.224999999998545, 5916109.349999999627471 ], [ 21129.375, 5916109.349999999627471 ], [ 21129.375, 5916109.275000000372529 ], [ 21129.45, 5916109.275000000372529 ], [ 21129.45, 5916109.200000000186265 ], [ 21129.525000000001455, 5916109.200000000186265 ], [ 21129.525000000001455, 5916109.125 ], [ 21129.599999999998545, 5916109.125 ], [ 21129.599999999998545, 5916109.049999999813735 ], [ 21129.675, 5916109.049999999813735 ], [ 21129.675, 5916108.974999999627471 ], [ 21129.75, 5916108.974999999627471 ], [ 21129.75, 5916108.900000000372529 ], [ 21129.825, 5916108.900000000372529 ], [ 21129.825, 5916108.825000000186265 ], [ 21129.974999999998545, 5916108.825000000186265 ], [ 21129.974999999998545, 5916108.75 ], [ 21130.05, 5916108.75 ], [ 21130.05, 5916108.674999999813735 ], [ 21130.2, 5916108.674999999813735 ], [ 21130.2, 5916108.599999999627471 ], [ 21130.349999999998545, 5916108.599999999627471 ], [ 21130.349999999998545, 5916108.525000000372529 ], [ 21130.5, 5916108.525000000372529 ], [ 21130.5, 5916108.450000000186265 ], [ 21130.650000000001455, 5916108.450000000186265 ], [ 21130.650000000001455, 5916108.375 ], [ 21130.875, 5916108.375 ], [ 21130.875, 5916108.299999999813735 ], [ 21131.099999999998545, 5916108.299999999813735 ], [ 21131.099999999998545, 5916108.224999999627471 ], [ 21133.05, 5916108.224999999627471 ], [ 21133.05, 5916108.150000000372529 ], [ 21133.2, 5916108.150000000372529 ], [ 21133.2, 5916108.224999999627471 ], [ 21133.425, 5916108.224999999627471 ], [ 21133.425, 5916108.299999999813735 ], [ 21133.575, 5916108.299999999813735 ], [ 21133.575, 5916108.375 ], [ 21133.724999999998545, 5916108.375 ], [ 21133.724999999998545, 5916108.450000000186265 ], [ 21133.875, 5916108.450000000186265 ], [ 21133.875, 5916108.525000000372529 ], [ 21134.025000000001455, 5916108.525000000372529 ], [ 21134.025000000001455, 5916108.599999999627471 ], [ 21134.099999999998545, 5916108.599999999627471 ], [ 21134.099999999998545, 5916108.674999999813735 ], [ 21134.175, 5916108.674999999813735 ], [ 21134.175, 5916108.75 ], [ 21134.25, 5916108.75 ], [ 21134.25, 5916108.825000000186265 ], [ 21134.325, 5916108.825000000186265 ], [ 21134.325, 5916108.900000000372529 ], [ 21134.400000000001455, 5916108.900000000372529 ], [ 21134.400000000001455, 5916108.974999999627471 ], [ 21134.474999999998545, 5916108.974999999627471 ], [ 21134.474999999998545, 5916109.049999999813735 ], [ 21134.55, 5916109.049999999813735 ], [ 21134.55, 5916109.125 ], [ 21134.625, 5916109.125 ], [ 21134.625, 5916109.275000000372529 ], [ 21134.7, 5916109.275000000372529 ], [ 21134.7, 5916109.349999999627471 ], [ 21134.775000000001455, 5916109.349999999627471 ], [ 21134.775000000001455, 5916109.424999999813735 ], [ 21134.849999999998545, 5916109.424999999813735 ], [ 21134.849999999998545, 5916109.5 ], [ 21134.925, 5916109.5 ], [ 21134.925, 5916109.575000000186265 ], [ 21135.0, 5916109.575000000186265 ], [ 21135.0, 5916109.650000000372529 ], [ 21135.150000000001455, 5916109.650000000372529 ], [ 21135.150000000001455, 5916109.724999999627471 ], [ 21135.45, 5916109.724999999627471 ], [ 21135.45, 5916109.799999999813735 ], [ 21135.75, 5916109.799999999813735 ], [ 21135.75, 5916109.875 ], [ 21136.05, 5916109.875 ], [ 21136.05, 5916109.950000000186265 ], [ 21136.349999999998545, 5916109.950000000186265 ], [ 21136.349999999998545, 5916110.025000000372529 ], [ 21136.575, 5916110.025000000372529 ], [ 21136.575, 5916110.099999999627471 ], [ 21136.8, 5916110.099999999627471 ], [ 21136.8, 5916110.174999999813735 ], [ 21137.025000000001455, 5916110.174999999813735 ], [ 21137.025000000001455, 5916110.25 ], [ 21137.175, 5916110.25 ], [ 21137.175, 5916110.325000000186265 ], [ 21137.325, 5916110.325000000186265 ], [ 21137.325, 5916110.400000000372529 ], [ 21137.400000000001455, 5916110.400000000372529 ], [ 21137.400000000001455, 5916110.474999999627471 ], [ 21137.55, 5916110.474999999627471 ], [ 21137.55, 5916110.549999999813735 ], [ 21137.625, 5916110.549999999813735 ], [ 21137.625, 5916110.625 ], [ 21137.7, 5916110.625 ], [ 21137.7, 5916110.700000000186265 ], [ 21137.775000000001455, 5916110.700000000186265 ], [ 21137.775000000001455, 5916110.849999999627471 ], [ 21137.849999999998545, 5916110.849999999627471 ], [ 21137.849999999998545, 5916110.924999999813735 ], [ 21137.925, 5916110.924999999813735 ], [ 21137.925, 5916111.0 ], [ 21138.0, 5916111.0 ], [ 21138.0, 5916111.150000000372529 ], [ 21138.075, 5916111.150000000372529 ], [ 21138.075, 5916111.299999999813735 ], [ 21138.150000000001455, 5916111.299999999813735 ], [ 21138.150000000001455, 5916111.375 ], [ 21138.224999999998545, 5916111.375 ], [ 21138.224999999998545, 5916111.450000000186265 ], [ 21138.3, 5916111.450000000186265 ], [ 21138.3, 5916111.525000000372529 ], [ 21138.375, 5916111.525000000372529 ], [ 21138.375, 5916111.599999999627471 ], [ 21138.45, 5916111.599999999627471 ], [ 21138.45, 5916111.674999999813735 ], [ 21138.599999999998545, 5916111.674999999813735 ], [ 21138.599999999998545, 5916111.75 ], [ 21138.675, 5916111.75 ], [ 21138.675, 5916111.825000000186265 ], [ 21138.75, 5916111.825000000186265 ], [ 21138.75, 5916111.900000000372529 ], [ 21138.900000000001455, 5916111.900000000372529 ], [ 21138.900000000001455, 5916111.974999999627471 ], [ 21138.974999999998545, 5916111.974999999627471 ], [ 21138.974999999998545, 5916112.049999999813735 ], [ 21139.125, 5916112.049999999813735 ], [ 21139.125, 5916112.125 ], [ 21139.2, 5916112.125 ], [ 21139.2, 5916112.200000000186265 ], [ 21139.349999999998545, 5916112.200000000186265 ], [ 21139.349999999998545, 5916112.275000000372529 ], [ 21139.425, 5916112.275000000372529 ], [ 21139.425, 5916112.349999999627471 ], [ 21139.5, 5916112.349999999627471 ], [ 21139.5, 5916112.424999999813735 ], [ 21139.575, 5916112.424999999813735 ], [ 21139.575, 5916112.5 ], [ 21139.650000000001455, 5916112.5 ], [ 21139.650000000001455, 5916112.650000000372529 ], [ 21139.724999999998545, 5916112.650000000372529 ], [ 21139.724999999998545, 5916112.724999999627471 ], [ 21139.8, 5916112.724999999627471 ], [ 21139.8, 5916112.875 ], [ 21139.875, 5916112.875 ], [ 21139.875, 5916112.950000000186265 ], [ 21139.95, 5916112.950000000186265 ], [ 21139.95, 5916113.099999999627471 ], [ 21140.025000000001455, 5916113.099999999627471 ], [ 21140.025000000001455, 5916113.25 ], [ 21140.099999999998545, 5916113.25 ], [ 21140.099999999998545, 5916113.400000000372529 ], [ 21140.175, 5916113.400000000372529 ], [ 21140.175, 5916113.549999999813735 ], [ 21140.25, 5916113.549999999813735 ], [ 21140.25, 5916113.625 ], [ 21140.325, 5916113.625 ], [ 21140.325, 5916113.775000000372529 ], [ 21140.400000000001455, 5916113.775000000372529 ], [ 21140.400000000001455, 5916113.849999999627471 ], [ 21140.474999999998545, 5916113.849999999627471 ], [ 21140.474999999998545, 5916113.924999999813735 ], [ 21140.55, 5916113.924999999813735 ], [ 21140.55, 5916114.0 ], [ 21140.625, 5916114.0 ], [ 21140.625, 5916114.075000000186265 ], [ 21140.7, 5916114.075000000186265 ], [ 21140.7, 5916114.150000000372529 ], [ 21140.849999999998545, 5916114.150000000372529 ], [ 21140.849999999998545, 5916114.224999999627471 ], [ 21140.925, 5916114.224999999627471 ], [ 21140.925, 5916114.299999999813735 ], [ 21141.0, 5916114.299999999813735 ], [ 21141.0, 5916114.375 ], [ 21141.150000000001455, 5916114.375 ], [ 21141.150000000001455, 5916114.450000000186265 ], [ 21141.224999999998545, 5916114.450000000186265 ], [ 21141.224999999998545, 5916114.525000000372529 ], [ 21141.3, 5916114.525000000372529 ], [ 21141.3, 5916114.599999999627471 ], [ 21141.375, 5916114.599999999627471 ], [ 21141.375, 5916114.674999999813735 ], [ 21141.45, 5916114.674999999813735 ], [ 21141.45, 5916114.75 ], [ 21141.525000000001455, 5916114.75 ], [ 21141.525000000001455, 5916114.900000000372529 ], [ 21141.599999999998545, 5916114.900000000372529 ], [ 21141.599999999998545, 5916114.974999999627471 ], [ 21141.675, 5916114.974999999627471 ], [ 21141.675, 5916115.125 ], [ 21141.75, 5916115.125 ], [ 21141.75, 5916115.275000000372529 ], [ 21141.825, 5916115.275000000372529 ], [ 21141.825, 5916115.575000000186265 ], [ 21141.900000000001455, 5916115.575000000186265 ], [ 21141.900000000001455, 5916115.724999999627471 ], [ 21141.974999999998545, 5916115.724999999627471 ], [ 21141.974999999998545, 5916115.950000000186265 ], [ 21142.05, 5916115.950000000186265 ], [ 21142.05, 5916116.174999999813735 ], [ 21142.125, 5916116.174999999813735 ], [ 21142.125, 5916116.400000000372529 ], [ 21142.2, 5916116.400000000372529 ], [ 21142.2, 5916116.625 ], [ 21142.275000000001455, 5916116.625 ], [ 21142.275000000001455, 5916116.775000000372529 ], [ 21142.349999999998545, 5916116.775000000372529 ], [ 21142.349999999998545, 5916117.0 ], [ 21142.425, 5916117.0 ], [ 21142.425, 5916117.150000000372529 ], [ 21142.5, 5916117.150000000372529 ], [ 21142.5, 5916117.224999999627471 ], [ 21142.575, 5916117.224999999627471 ], [ 21142.575, 5916117.299999999813735 ], [ 21142.650000000001455, 5916117.299999999813735 ], [ 21142.650000000001455, 5916117.375 ], [ 21142.724999999998545, 5916117.375 ], [ 21142.724999999998545, 5916117.450000000186265 ], [ 21142.8, 5916117.450000000186265 ], [ 21142.8, 5916117.525000000372529 ], [ 21142.875, 5916117.525000000372529 ], [ 21142.875, 5916117.599999999627471 ], [ 21142.95, 5916117.599999999627471 ], [ 21142.95, 5916117.674999999813735 ], [ 21143.099999999998545, 5916117.674999999813735 ], [ 21143.099999999998545, 5916117.75 ], [ 21143.175, 5916117.75 ], [ 21143.175, 5916117.825000000186265 ], [ 21143.25, 5916117.825000000186265 ], [ 21143.25, 5916117.900000000372529 ], [ 21143.325, 5916117.900000000372529 ], [ 21143.325, 5916117.974999999627471 ], [ 21143.474999999998545, 5916117.974999999627471 ], [ 21143.474999999998545, 5916118.125 ], [ 21143.55, 5916118.125 ], [ 21143.55, 5916118.200000000186265 ], [ 21143.625, 5916118.200000000186265 ], [ 21143.625, 5916118.275000000372529 ], [ 21143.7, 5916118.275000000372529 ], [ 21143.7, 5916118.349999999627471 ], [ 21143.775000000001455, 5916118.349999999627471 ], [ 21143.775000000001455, 5916118.424999999813735 ], [ 21143.849999999998545, 5916118.424999999813735 ], [ 21143.849999999998545, 5916118.575000000186265 ], [ 21143.925, 5916118.575000000186265 ], [ 21143.925, 5916118.724999999627471 ], [ 21144.0, 5916118.724999999627471 ], [ 21144.0, 5916118.875 ], [ 21144.075, 5916118.875 ], [ 21144.075, 5916119.025000000372529 ], [ 21144.150000000001455, 5916119.025000000372529 ], [ 21144.150000000001455, 5916119.25 ], [ 21144.224999999998545, 5916119.25 ], [ 21144.224999999998545, 5916119.549999999813735 ], [ 21144.3, 5916119.549999999813735 ], [ 21144.3, 5916119.775000000372529 ], [ 21144.375, 5916119.775000000372529 ], [ 21144.375, 5916120.0 ], [ 21144.45, 5916120.0 ], [ 21144.45, 5916120.224999999627471 ], [ 21144.525000000001455, 5916120.224999999627471 ], [ 21144.525000000001455, 5916120.450000000186265 ], [ 21144.599999999998545, 5916120.450000000186265 ], [ 21144.599999999998545, 5916120.674999999813735 ], [ 21144.675, 5916120.674999999813735 ], [ 21144.675, 5916120.900000000372529 ], [ 21144.75, 5916120.900000000372529 ], [ 21144.75, 5916121.125 ], [ 21144.825, 5916121.125 ], [ 21144.825, 5916121.5 ], [ 21144.900000000001455, 5916121.5 ], [ 21144.900000000001455, 5916121.724999999627471 ], [ 21144.974999999998545, 5916121.724999999627471 ], [ 21144.974999999998545, 5916121.875 ], [ 21145.05, 5916121.875 ], [ 21145.05, 5916122.174999999813735 ], [ 21145.125, 5916122.174999999813735 ], [ 21145.125, 5916122.625 ], [ 21145.2, 5916122.625 ], [ 21145.2, 5916123.075000000186265 ], [ 21145.125, 5916123.075000000186265 ], [ 21145.125, 5916123.299999999813735 ], [ 21145.05, 5916123.299999999813735 ], [ 21145.05, 5916123.450000000186265 ], [ 21144.974999999998545, 5916123.450000000186265 ], [ 21144.974999999998545, 5916123.525000000372529 ], [ 21144.900000000001455, 5916123.525000000372529 ], [ 21144.900000000001455, 5916123.599999999627471 ], [ 21144.825, 5916123.599999999627471 ], [ 21144.825, 5916123.75 ], [ 21144.75, 5916123.75 ], [ 21144.75, 5916123.900000000372529 ], [ 21144.675, 5916123.900000000372529 ], [ 21144.675, 5916124.049999999813735 ], [ 21144.599999999998545, 5916124.049999999813735 ], [ 21144.599999999998545, 5916124.200000000186265 ], [ 21144.525000000001455, 5916124.200000000186265 ], [ 21144.525000000001455, 5916124.349999999627471 ], [ 21144.45, 5916124.349999999627471 ], [ 21144.45, 5916124.5 ], [ 21144.375, 5916124.5 ], [ 21144.375, 5916124.724999999627471 ], [ 21144.3, 5916124.724999999627471 ], [ 21144.3, 5916124.875 ], [ 21144.224999999998545, 5916124.875 ], [ 21144.224999999998545, 5916125.025000000372529 ], [ 21144.150000000001455, 5916125.025000000372529 ], [ 21144.150000000001455, 5916125.174999999813735 ], [ 21144.075, 5916125.174999999813735 ], [ 21144.075, 5916125.325000000186265 ], [ 21144.0, 5916125.325000000186265 ], [ 21144.0, 5916125.400000000372529 ], [ 21143.925, 5916125.400000000372529 ], [ 21143.925, 5916125.474999999627471 ], [ 21143.849999999998545, 5916125.474999999627471 ], [ 21143.849999999998545, 5916125.625 ], [ 21143.775000000001455, 5916125.625 ], [ 21143.775000000001455, 5916125.700000000186265 ], [ 21143.7, 5916125.700000000186265 ], [ 21143.7, 5916125.775000000372529 ], [ 21143.55, 5916125.775000000372529 ], [ 21143.55, 5916125.849999999627471 ], [ 21143.474999999998545, 5916125.849999999627471 ], [ 21143.474999999998545, 5916125.924999999813735 ], [ 21143.400000000001455, 5916125.924999999813735 ], [ 21143.400000000001455, 5916126.0 ], [ 21143.325, 5916126.0 ], [ 21143.325, 5916126.075000000186265 ], [ 21143.175, 5916126.075000000186265 ], [ 21143.175, 5916126.150000000372529 ], [ 21143.025000000001455, 5916126.150000000372529 ], [ 21143.025000000001455, 5916126.224999999627471 ], [ 21142.875, 5916126.224999999627471 ], [ 21142.875, 5916126.299999999813735 ], [ 21142.8, 5916126.299999999813735 ], [ 21142.8, 5916126.375 ], [ 21142.650000000001455, 5916126.375 ], [ 21142.650000000001455, 5916126.450000000186265 ], [ 21142.575, 5916126.450000000186265 ], [ 21142.575, 5916126.525000000372529 ], [ 21142.425, 5916126.525000000372529 ], [ 21142.425, 5916126.599999999627471 ], [ 21142.349999999998545, 5916126.599999999627471 ], [ 21142.349999999998545, 5916126.674999999813735 ], [ 21142.275000000001455, 5916126.674999999813735 ], [ 21142.275000000001455, 5916126.75 ], [ 21142.2, 5916126.75 ], [ 21142.2, 5916126.825000000186265 ], [ 21142.125, 5916126.825000000186265 ], [ 21142.125, 5916126.900000000372529 ], [ 21142.05, 5916126.900000000372529 ], [ 21142.05, 5916126.974999999627471 ], [ 21141.974999999998545, 5916126.974999999627471 ], [ 21141.974999999998545, 5916127.049999999813735 ], [ 21141.825, 5916127.049999999813735 ], [ 21141.825, 5916127.125 ], [ 21141.75, 5916127.125 ], [ 21141.75, 5916127.200000000186265 ], [ 21141.599999999998545, 5916127.200000000186265 ], [ 21141.599999999998545, 5916127.275000000372529 ], [ 21141.525000000001455, 5916127.275000000372529 ], [ 21141.525000000001455, 5916127.349999999627471 ], [ 21141.375, 5916127.349999999627471 ], [ 21141.375, 5916127.424999999813735 ], [ 21141.224999999998545, 5916127.424999999813735 ], [ 21141.224999999998545, 5916127.5 ], [ 21141.0, 5916127.5 ], [ 21141.0, 5916127.575000000186265 ], [ 21138.974999999998545, 5916127.575000000186265 ] ] ] } }
]
}
