{
"type": "FeatureCollection",
"name": "20433E591657N_buildings",
"crs": { "type": "name", "properties": { "name": "urn:ogc:def:crs:EPSG::3776" } },
"features": [
{ "type": "Feature", "properties": { "value": 1.0, "building_id": 0, "area": 594.3543750001827 }, "geometry": { "type": "Polygon", "coordinates": [ [ [ 20726.474999999998545, 5917101.224999999627471 ], [ 20726.474999999998545, 5917101.150000000372529 ], [ 20725.875, 5917101.150000000372529 ], [ 20725.875, 5917101.075000000186265 ], [ 20725.125, 5917101.075000000186265 ], [ 20725.125, 5917101.0 ], [ 20724.825, 5917101.0 ], [ 20724.825, 5917100.924999999813735 ], [ 20724.599999999998545, 5917100.924999999813735 ], [ 20724.599999999998545, 5917100.849999999627471 ], [ 20724.3, 5917100.849999999627471 ], [ 20724.3, 5917100.775000000372529 ], [ 20724.075, 5917100.775000000372529 ], [ 20724.075, 5917100.700000000186265 ], [ 20723.849999999998545, 5917100.700000000186265 ], [ 20723.849999999998545, 5917100.625 ], [ 20723.625, 5917100.625 ], [ 20723.625, 5917100.549999999813735 ], [ 20723.325, 5917100.549999999813735 ], [ 20723.325, 5917100.474999999627471 ], [ 20723.099999999998545, 5917100.474999999627471 ], [ 20723.099999999998545, 5917100.400000000372529 ], [ 20722.95, 5917100.400000000372529 ], [ 20722.95, 5917100.325000000186265 ], [ 20722.8, 5917100.325000000186265 ], [ 20722.8, 5917100.25 ], [ 20722.650000000001455, 5917100.25 ], [ 20722.650000000001455, 5917100.174999999813735 ], [ 20722.575, 5917100.174999999813735 ], [ 20722.575, 5917100.099999999627471 ], [ 20722.425, 5917100.099999999627471 ], [ 20722.425, 5917100.025000000372529 ], [ 20722.349999999998545, 5917100.025000000372529 ], [ 20722.349999999998545, 5917099.950000000186265 ], [ 20722.275000000001455, 5917099.950000000186265 ], [ 20722.275000000001455, 5917099.875 ], [ 20722.2, 5917099.875 ], [ 20722.2, 5917099.799999999813735 ], [ 20722.125, 5917099.799999999813735 ], [ 20722.125, 5917099.724999999627471 ], [ 20722.05, 5917099.724999999627471 ], [ 20722.05, 5917099.650000000372529 ], [ 20721.974999999998545, 5917099.650000000372529 ], [ 20721.974999999998545, 5917099.575000000186265 ], [ 20721.900000000001455, 5917099.575000000186265 ], [ 20721.900000000001455, 5917099.5 ], [ 20721.825, 5917099.5 ], [ 20721.825, 5917099.349999999627471 ], [ 20721.75, 5917099.349999999627471 ], [ 20721.75, 5917099.275000000372529 ], [ 20721.675, 5917099.275000000372529 ], [ 20721.675, 5917099.200000000186265 ], [ 20721.599999999998545, 5917099.200000000186265 ], [ 20721.599999999998545, 5917099.125 ], [ 20721.525000000001455, 5917099.125 ], [ 20721.525000000001455, 5917099.049999999813735 ], [ 20721.45, 5917099.049999999813735 ], [ 20721.45, 5917098.900000000372529 ], [ 20721.375, 5917098.900000000372529 ], [ 20721.375, 5917098.825000000186265 ], [ 20721.224999999998545, 5917098.825000000186265 ], [ 20721.224999999998545, 5917098.75 ], [ 20721.150000000001455, 5917098.75 ], [ 20721.150000000001455, 5917098.674999999813735 ], [ 20721.075, 5917098.674999999813735 ], [ 20721.075, 5917098.599999999627471 ], [ 20721.0, 5917098.599999999627471 ], [ 20721.0, 5917098.525000000372529 ], [ 20720.925, 5917098.525000000372529 ], [ 20720.925, 5917098.450000000186265 ], [ 20720.849999999998545, 5917098.450000000186265 ], [ 20720.849999999998545, 5917098.375 ], [ 20720.775000000001455, 5917098.375 ], [ 20720.775000000001455, 5917098.299999999813735 ], [ 20720.7, 5917098.299999999813735 ], [ 20720.7, 5917098.150000000372529 ], [ 20720.625, 5917098.150000000372529 ], [ 20720.625, 5917098.075000000186265 ], [ 20720.55, 5917098.075000000186265 ], [ 20720.55, 5917098.0 ], [ 20720.474999999998545, 5917098.0 ], [ 20720.474999999998545, 5917097.849999999627471 ], [ 20720.400000000001455, 5917097.849999999627471 ], [ 20720.400000000001455, 5917097.700000000186265 ], [ 20720.325, 5917097.700000000186265 ], [ 20720.325, 5917097.625 ], [ 20720.25, 5917097.625 ], [ 20720.25, 5917097.400000000372529 ], [ 20720.175, 5917097.400000000372529 ], [ 20720.175, 5917097.174999999813735 ], [ 20720.099999999998545, 5917097.174999999813735 ], [ 20720.099999999998545, 5917096.950000000186265 ], [ 20720.025000000001455, 5917096.950000000186265 ], [ 20720.025000000001455, 5917096.724999999627471 ], [ 20719.95, 5917096.724999999627471 ], [ 20719.95, 5917096.5 ], [ 20719.875, 5917096.5 ], [ 20719.875, 5917096.349999999627471 ], [ 20719.8, 5917096.349999999627471 ], [ 20719.8, 5917096.125 ], [ 20719.724999999998545, 5917096.125 ], [ 20719.724999999998545, 5917095.974999999627471 ], [ 20719.650000000001455, 5917095.974999999627471 ], [ 20719.650000000001455, 5917095.75 ], [ 20719.575, 5917095.75 ], [ 20719.575, 5917095.599999999627471 ], [ 20719.5, 5917095.599999999627471 ], [ 20719.5, 5917095.375 ], [ 20719.425, 5917095.375 ], [ 20719.425, 5917095.224999999627471 ], [ 20719.349999999998545, 5917095.224999999627471 ], [ 20719.349999999998545, 5917095.075000000186265 ], [ 20719.275000000001455, 5917095.075000000186265 ], [ 20719.275000000001455, 5917094.924999999813735 ], [ 20719.2, 5917094.924999999813735 ], [ 20719.2, 5917094.775000000372529 ], [ 20719.125, 5917094.775000000372529 ], [ 20719.125, 5917094.549999999813735 ], [ 20719.05, 5917094.549999999813735 ], [ 20719.05, 5917094.400000000372529 ], [ 20718.974999999998545, 5917094.400000000372529 ], [ 20718.974999999998545, 5917094.174999999813735 ], [ 20718.900000000001455, 5917094.174999999813735 ], [ 20718.900000000001455, 5917094.025000000372529 ], [ 20718.825, 5917094.025000000372529 ], [ 20718.825, 5917093.799999999813735 ], [ 20718.75, 5917093.799999999813735 ], [ 20718.75, 5917093.5 ], [ 20718.675, 5917093.5 ], [ 20718.675, 5917093.125 ], [ 20718.599999999998545, 5917093.125 ], [ 20718.599999999998545, 5917092.75 ], [ 20718.525000000001455, 5917092.75 ], [ 20718.525000000001455, 5917092.375 ], [ 20718.45, 5917092.375 ], [ 20718.45, 5917092.0 ], [ 20718.375, 5917092.0 ], [ 20718.375, 5917091.625 ], [ 20718.3, 5917091.625 ], [ 20718.3, 5917091.474999999627471 ], [ 20718.224999999998545, 5917091.474999999627471 ], [ 20718.224999999998545, 5917091.325000000186265 ], [ 20718.150000000001455, 5917091.325000000186265 ], [ 20718.150000000001455, 5917091.25 ], [ 20718.075, 5917091.25 ], [ 20718.075, 5917091.099999999627471 ], [ 20718.0, 5917091.099999999627471 ], [ 20718.0, 5917090.950000000186265 ], [ 20717.925, 5917090.950000000186265 ], [ 20717.925, 5917090.875 ], [ 20717.849999999998545, 5917090.875 ], [ 20717.849999999998545, 5917090.799999999813735 ], [ 20717.775000000001455, 5917090.799999999813735 ], [ 20717.775000000001455, 5917090.650000000372529 ], [ 20717.7, 5917090.650000000372529 ], [ 20717.7, 5917090.575000000186265 ], [ 20717.625, 5917090.575000000186265 ], [ 20717.625, 5917090.5 ], [ 20717.55, 5917090.5 ], [ 20717.55, 5917090.424999999813735 ], [ 20717.474999999998545, 5917090.424999999813735 ], [ 20717.474999999998545, 5917090.349999999627471 ], [ 20717.400000000001455, 5917090.349999999627471 ], [ 20717.400000000001455, 5917090.275000000372529 ], [ 20717.325, 5917090.275000000372529 ], [ 20717.325, 5917090.200000000186265 ], [ 20717.25, 5917090.200000000186265 ], [ 20717.25, 5917090.125 ], [ 20717.175, 5917090.125 ], [ 20717.175, 5917090.049999999813735 ], [ 20717.025000000001455, 5917090.049999999813735 ], [ 20717.025000000001455, 5917089.974999999627471 ], [ 20716.95, 5917089.974999999627471 ], [ 20716.95, 5917089.900000000372529 ], [ 20716.875, 5917089.900000000372529 ], [ 20716.875, 5917089.825000000186265 ], [ 20716.8, 5917089.825000000186265 ], [ 20716.8, 5917089.75 ], [ 20716.724999999998545, 5917089.75 ], [ 20716.724999999998545, 5917089.599999999627471 ], [ 20716.650000000001455, 5917089.599999999627471 ], [ 20716.650000000001455, 5917089.525000000372529 ], [ 20716.575, 5917089.525000000372529 ], [ 20716.575, 5917089.450000000186265 ], [ 20716.5, 5917089.450000000186265 ], [ 20716.5, 5917089.375 ], [ 20716.425, 5917089.375 ], [ 20716.425, 5917089.299999999813735 ], [ 20716.349999999998545, 5917089.299999999813735 ], [ 20716.349999999998545, 5917089.224999999627471 ], [ 20716.275000000001455, 5917089.224999999627471 ], [ 20716.275000000001455, 5917089.150000000372529 ], [ 20716.125, 5917089.150000000372529 ], [ 20716.125, 5917089.075000000186265 ], [ 20716.05, 5917089.075000000186265 ], [ 20716.05, 5917089.0 ], [ 20715.974999999998545, 5917089.0 ], [ 20715.974999999998545, 5917088.924999999813735 ], [ 20715.900000000001455, 5917088.924999999813735 ], [ 20715.900000000001455, 5917088.849999999627471 ], [ 20715.75, 5917088.849999999627471 ], [ 20715.75, 5917088.775000000372529 ], [ 20715.675, 5917088.775000000372529 ], [ 20715.675, 5917088.700000000186265 ], [ 20715.525000000001455, 5917088.700000000186265 ], [ 20715.525000000001455, 5917088.625 ], [ 20715.45, 5917088.625 ], [ 20715.45, 5917088.549999999813735 ], [ 20715.3, 5917088.549999999813735 ], [ 20715.3, 5917088.474999999627471 ], [ 20715.224999999998545, 5917088.474999999627471 ], [ 20715.224999999998545, 5917088.400000000372529 ], [ 20715.075, 5917088.400000000372529 ], [ 20715.075, 5917088.325000000186265 ], [ 20715.0, 5917088.325000000186265 ], [ 20715.0, 5917088.25 ], [ 20714.925, 5917088.25 ], [ 20714.925, 5917088.174999999813735 ], [ 20714.849999999998545, 5917088.174999999813735 ], [ 20714.849999999998545, 5917088.099999999627471 ], [ 20714.775000000001455, 5917088.099999999627471 ], [ 20714.775000000001455, 5917088.025000000372529 ], [ 20714.7, 5917088.025000000372529 ], [ 20714.7, 5917087.875 ], [ 20714.625, 5917087.875 ], [ 20714.625, 5917087.799999999813735 ], [ 20714.55, 5917087.799999999813735 ], [ 20714.55, 5917087.724999999627471 ], [ 20714.474999999998545, 5917087.724999999627471 ], [ 20714.474999999998545, 5917087.575000000186265 ], [ 20714.400000000001455, 5917087.575000000186265 ], [ 20714.400000000001455, 5917087.424999999813735 ], [ 20714.325, 5917087.424999999813735 ], [ 20714.325, 5917087.275000000372529 ], [ 20714.25, 5917087.275000000372529 ], [ 20714.25, 5917087.200000000186265 ], [ 20714.175, 5917087.200000000186265 ], [ 20714.175, 5917087.049999999813735 ], [ 20714.099999999998545, 5917087.049999999813735 ], [ 20714.099999999998545, 5917086.974999999627471 ], [ 20714.025000000001455, 5917086.974999999627471 ], [ 20714.025000000001455, 5917086.900000000372529 ], [ 20713.95, 5917086.900000000372529 ], [ 20713.95, 5917086.75 ], [ 20713.875, 5917086.75 ], [ 20713.875, 5917086.674999999813735 ], [ 20713.8, 5917086.674999999813735 ], [ 20713.8, 5917086.599999999627471 ], [ 20713.724999999998545, 5917086.599999999627471 ], [ 20713.724999999998545, 5917086.525000000372529 ], [ 20713.650000000001455, 5917086.525000000372529 ], [ 20713.650000000001455, 5917086.450000000186265 ], [ 20713.575, 5917086.450000000186265 ], [ 20713.575, 5917086.375 ], [ 20713.5, 5917086.375 ], [ 20713.5, 5917086.299999999813735 ], [ 20713.425, 5917086.299999999813735 ], [ 20713.425, 5917086.224999999627471 ], [ 20713.349999999998545, 5917086.224999999627471 ], [ 20713.349999999998545, 5917086.150000000372529 ], [ 20713.275000000001455, 5917086.150000000372529 ], [ 20713.275000000001455, 5917086.075000000186265 ], [ 20713.2, 5917086.075000000186265 ], [ 20713.2, 5917085.924999999813735 ], [ 20713.125, 5917085.924999999813735 ], [ 20713.125, 5917085.849999999627471 ], [ 20713.05, 5917085.849999999627471 ], [ 20713.05, 5917085.625 ], [ 20712.974999999998545, 5917085.625 ], [ 20712.974999999998545, 5917085.325000000186265 ], [ 20712.900000000001455, 5917085.325000000186265 ], [ 20712.900000000001455, 5917085.099999999627471 ], [ 20712.825, 5917085.099999999627471 ], [ 20712.825, 5917084.875 ], [ 20712.75, 5917084.875 ], [ 20712.75, 5917084.575000000186265 ], [ 20712.675, 5917084.575000000186265 ], [ 20712.675, 5917084.275000000372529 ], [ 20712.599999999998545, 5917084.275000000372529 ], [ 20712.599999999998545, 5917083.974999999627471 ], [ 20712.525000000001455, 5917083.974999999627471 ], [ 20712.525000000001455, 5917083.75 ], [ 20712.45, 5917083.75 ], [ 20712.45, 5917083.525000000372529 ], [ 20712.375, 5917083.525000000372529 ], [ 20712.375, 5917083.299999999813735 ], [ 20712.3, 5917083.299999999813735 ], [ 20712.3, 5917083.150000000372529 ], [ 20712.224999999998545, 5917083.150000000372529 ], [ 20712.224999999998545, 5917082.924999999813735 ], [ 20712.150000000001455, 5917082.924999999813735 ], [ 20712.150000000001455, 5917082.775000000372529 ], [ 20712.075, 5917082.775000000372529 ], [ 20712.075, 5917082.625 ], [ 20712.0, 5917082.625 ], [ 20712.0, 5917082.549999999813735 ], [ 20711.925, 5917082.549999999813735 ], [ 20711.925, 5917082.400000000372529 ], [ 20711.849999999998545, 5917082.400000000372529 ], [ 20711.849999999998545, 5917082.25 ], [ 20711.775000000001455, 5917082.25 ], [ 20711.775000000001455, 5917082.174999999813735 ], [ 20711.7, 5917082.174999999813735 ], [ 20711.7, 5917082.099999999627471 ], [ 20711.625, 5917082.099999999627471 ], [ 20711.625, 5917081.950000000186265 ], [ 20711.55, 5917081.950000000186265 ], [ 20711.55, 5917081.799999999813735 ], [ 20711.474999999998545, 5917081.799999999813735 ], [ 20711.474999999998545, 5917081.650000000372529 ], [ 20711.400000000001455, 5917081.650000000372529 ], [ 20711.400000000001455, 5917081.5 ], [ 20711.325, 5917081.5 ], [ 20711.325, 5917081.349999999627471 ], [ 20711.25, 5917081.349999999627471 ], [ 20711.25, 5917081.200000000186265 ], [ 20711.175, 5917081.200000000186265 ], [ 20711.175, 5917081.125 ], [ 20711.099999999998545, 5917081.125 ], [ 20711.099999999998545, 5917080.974999999627471 ], [ 20711.025000000001455, 5917080.974999999627471 ], [ 20711.025000000001455, 5917080.900000000372529 ], [ 20710.95, 5917080.900000000372529 ], [ 20710.95, 5917080.825000000186265 ], [ 20710.875, 5917080.825000000186265 ], [ 20710.875, 5917080.75 ], [ 20710.8, 5917080.75 ], [ 20710.8, 5917080.674999999813735 ], [ 20710.724999999998545, 5917080.674999999813735 ], [ 20710.724999999998545, 5917080.599999999627471 ], [ 20710.650000000001455, 5917080.599999999627471 ], [ 20710.650000000001455, 5917080.525000000372529 ], [ 20710.5, 5917080.525000000372529 ], [ 20710.5, 5917080.450000000186265 ], [ 20710.425, 5917080.450000000186265 ], [ 20710.425, 5917080.375 ], [ 20710.275000000001455, 5917080.375 ], [ 20710.275000000001455, 5917080.299999999813735 ], [ 20710.125, 5917080.299999999813735 ], [ 20710.125, 5917080.224999999627471 ], [ 20709.974999999998545, 5917080.224999999627471 ], [ 20709.974999999998545, 5917080.150000000372529 ], [ 20709.75, 5917080.150000000372529 ], [ 20709.75, 5917080.075000000186265 ], [ 20709.525000000001455, 5917080.075000000186265 ], [ 20709.525000000001455, 5917080.0 ], [ 20709.375, 5917080.0 ], [ 20709.375, 5917079.924999999813735 ], [ 20709.3, 5917079.924999999813735 ], [ 20709.3, 5917079.849999999627471 ], [ 20709.224999999998545, 5917079.849999999627471 ], [ 20709.224999999998545, 5917079.775000000372529 ], [ 20709.150000000001455, 5917079.775000000372529 ], [ 20709.150000000001455, 5917079.700000000186265 ], [ 20709.075, 5917079.700000000186265 ], [ 20709.075, 5917079.625 ], [ 20709.0, 5917079.625 ], [ 20709.0, 5917079.549999999813735 ], [ 20708.925, 5917079.549999999813735 ], [ 20708.925, 5917079.474999999627471 ], [ 20708.849999999998545, 5917079.474999999627471 ], [ 20708.849999999998545, 5917079.400000000372529 ], [ 20708.775000000001455, 5917079.400000000372529 ], [ 20708.775000000001455, 5917079.325000000186265 ], [ 20708.7, 5917079.325000000186265 ], [ 20708.7, 5917079.25 ], [ 20708.625, 5917079.25 ], [ 20708.625, 5917079.174999999813735 ], [ 20708.474999999998545, 5917079.174999999813735 ], [ 20708.474999999998545, 5917079.099999999627471 ], [ 20708.400000000001455, 5917079.099999999627471 ], [ 20708.400000000001455, 5917079.025000000372529 ], [ 20708.25, 5917079.025000000372529 ], [ 20708.25, 5917078.950000000186265 ], [ 20708.175, 5917078.950000000186265 ], [ 20708.175, 5917078.875 ], [ 20708.025000000001455, 5917078.875 ], [ 20708.025000000001455, 5917078.799999999813735 ], [ 20707.875, 5917078.799999999813735 ], [ 20707.875, 5917078.724999999627471 ], [ 20707.650000000001455, 5917078.724999999627471 ], [ 20707.650000000001455, 5917078.650000000372529 ], [ 20707.5, 5917078.650000000372529 ], [ 20707.5, 5917078.575000000186265 ], [ 20707.349999999998545, 5917078.575000000186265 ], [ 20707.349999999998545, 5917078.5 ], [ 20707.275000000001455, 5917078.5 ], [ 20707.275000000001455, 5917078.424999999813735 ], [ 20707.125, 5917078.424999999813735 ], [ 20707.125, 5917078.349999999627471 ], [ 20707.05, 5917078.349999999627471 ], [ 20707.05, 5917078.275000000372529 ], [ 20706.900000000001455, 5917078.275000000372529 ], [ 20706.900000000001455, 5917078.200000000186265 ], [ 20706.825, 5917078.200000000186265 ], [ 20706.825, 5917078.125 ], [ 20706.675, 5917078.125 ], [ 20706.675, 5917078.049999999813735 ], [ 20706.525000000001455, 5917078.049999999813735 ], [ 20706.525000000001455, 5917077.974999999627471 ], [ 20706.45, 5917077.974999999627471 ], [ 20706.45, 5917077.825000000186265 ], [ 20706.375, 5917077.825000000186265 ], [ 20706.375, 5917077.75 ], [ 20706.3, 5917077.75 ], [ 20706.3, 5917077.674999999813735 ], [ 20706.224999999998545, 5917077.674999999813735 ], [ 20706.224999999998545, 5917077.599999999627471 ], [ 20706.150000000001455, 5917077.599999999627471 ], [ 20706.150000000001455, 5917077.525000000372529 ], [ 20706.075, 5917077.525000000372529 ], [ 20706.075, 5917077.450000000186265 ], [ 20706.0, 5917077.450000000186265 ], [ 20706.0, 5917077.375 ], [ 20705.925, 5917077.375 ], [ 20705.925, 5917077.299999999813735 ], [ 20705.849999999998545, 5917077.299999999813735 ], [ 20705.849999999998545, 5917077.224999999627471 ], [ 20705.775000000001455, 5917077.224999999627471 ], [ 20705.775000000001455, 5917077.150000000372529 ], [ 20705.7, 5917077.150000000372529 ], [ 20705.7, 5917077.075000000186265 ], [ 20705.625, 5917077.075000000186265 ], [ 20705.625, 5917077.0 ], [ 20705.55, 5917077.0 ], [ 20705.55, 5917076.924999999813735 ], [ 20705.474999999998545, 5917076.924999999813735 ], [ 20705.474999999998545, 5917076.849999999627471 ], [ 20705.400000000001455, 5917076.849999999627471 ], [ 20705.400000000001455, 5917076.700000000186265 ], [ 20705.325, 5917076.700000000186265 ], [ 20705.325, 5917076.549999999813735 ], [ 20705.25, 5917076.549999999813735 ], [ 20705.25, 5917076.400000000372529 ], [ 20705.175, 5917076.400000000372529 ], [ 20705.175, 5917076.25 ], [ 20705.099999999998545, 5917076.25 ], [ 20705.099999999998545, 5917076.099999999627471 ], [ 20705.025000000001455, 5917076.099999999627471 ], [ 20705.025000000001455, 5917075.950000000186265 ], [ 20705.099999999998545, 5917075.950000000186265 ], [ 20705.099999999998545, 5917075.5 ], [ 20705.175, 5917075.5 ], [ 20705.175, 5917074.900000000372529 ], [ 20705.25, 5917074.900000000372529 ], [ 20705.25, 5917074.150000000372529 ], [ 20705.325, 5917074.150000000372529 ], [ 20705.325, 5917074.075000000186265 ], [ 20705.400000000001455, 5917074.075000000186265 ], [ 20705.400000000001455, 5917074.0 ], [ 20705.474999999998545, 5917074.0 ], [ 20705.474999999998545, 5917073.924999999813735 ], [ 20705.625, 5917073.924999999813735 ], [ 20705.625, 5917073.849999999627471 ], [ 20705.775000000001455, 5917073.849999999627471 ], [ 20705.775000000001455, 5917073.775000000372529 ], [ 20705.925, 5917073.775000000372529 ], [ 20705.925, 5917073.700000000186265 ], [ 20706.075, 5917073.700000000186265 ], [ 20706.075, 5917073.625 ], [ 20706.150000000001455, 5917073.625 ], [ 20706.150000000001455, 5917073.549999999813735 ], [ 20706.224999999998545, 5917073.549999999813735 ], [ 20706.224999999998545, 5917073.474999999627471 ], [ 20706.375, 5917073.474999999627471 ], [ 20706.375, 5917073.400000000372529 ], [ 20706.45, 5917073.400000000372529 ], [ 20706.45, 5917073.325000000186265 ], [ 20706.525000000001455, 5917073.325000000186265 ], [ 20706.525000000001455, 5917073.174999999813735 ], [ 20706.599999999998545, 5917073.174999999813735 ], [ 20706.599999999998545, 5917073.099999999627471 ], [ 20706.675, 5917073.099999999627471 ], [ 20706.675, 5917073.025000000372529 ], [ 20706.75, 5917073.025000000372529 ], [ 20706.75, 5917072.875 ], [ 20706.825, 5917072.875 ], [ 20706.825, 5917072.724999999627471 ], [ 20706.900000000001455, 5917072.724999999627471 ], [ 20706.900000000001455, 5917072.575000000186265 ], [ 20706.974999999998545, 5917072.575000000186265 ], [ 20706.974999999998545, 5917072.349999999627471 ], [ 20707.05, 5917072.349999999627471 ], [ 20707.05, 5917072.125 ], [ 20707.125, 5917072.125 ], [ 20707.125, 5917072.049999999813735 ], [ 20707.2, 5917072.049999999813735 ], [ 20707.2, 5917071.974999999627471 ], [ 20707.275000000001455, 5917071.974999999627471 ], [ 20707.275000000001455, 5917071.900000000372529 ], [ 20707.349999999998545, 5917071.900000000372529 ], [ 20707.349999999998545, 5917071.825000000186265 ], [ 20707.425, 5917071.825000000186265 ], [ 20707.425, 5917071.75 ], [ 20707.5, 5917071.75 ], [ 20707.5, 5917071.674999999813735 ], [ 20707.650000000001455, 5917071.674999999813735 ], [ 20707.650000000001455, 5917071.599999999627471 ], [ 20707.724999999998545, 5917071.599999999627471 ], [ 20707.724999999998545, 5917071.525000000372529 ], [ 20707.8, 5917071.525000000372529 ], [ 20707.8, 5917071.450000000186265 ], [ 20707.875, 5917071.450000000186265 ], [ 20707.875, 5917071.375 ], [ 20707.95, 5917071.375 ], [ 20707.95, 5917071.299999999813735 ], [ 20708.025000000001455, 5917071.299999999813735 ], [ 20708.025000000001455, 5917071.224999999627471 ], [ 20708.099999999998545, 5917071.224999999627471 ], [ 20708.099999999998545, 5917071.150000000372529 ], [ 20708.175, 5917071.150000000372529 ], [ 20708.175, 5917071.075000000186265 ], [ 20708.25, 5917071.075000000186265 ], [ 20708.25, 5917070.924999999813735 ], [ 20708.325, 5917070.924999999813735 ], [ 20708.325, 5917070.849999999627471 ], [ 20708.400000000001455, 5917070.849999999627471 ], [ 20708.400000000001455, 5917070.700000000186265 ], [ 20708.474999999998545, 5917070.700000000186265 ], [ 20708.474999999998545, 5917070.549999999813735 ], [ 20708.55, 5917070.549999999813735 ], [ 20708.55, 5917070.400000000372529 ], [ 20708.625, 5917070.400000000372529 ], [ 20708.625, 5917070.25 ], [ 20708.7, 5917070.25 ], [ 20708.7, 5917070.099999999627471 ], [ 20708.775000000001455, 5917070.099999999627471 ], [ 20708.775000000001455, 5917069.950000000186265 ], [ 20708.849999999998545, 5917069.950000000186265 ], [ 20708.849999999998545, 5917069.799999999813735 ], [ 20708.925, 5917069.799999999813735 ], [ 20708.925, 5917069.724999999627471 ], [ 20709.0, 5917069.724999999627471 ], [ 20709.0, 5917069.650000000372529 ], [ 20709.075, 5917069.650000000372529 ], [ 20709.075, 5917069.5 ], [ 20709.150000000001455, 5917069.5 ], [ 20709.150000000001455, 5917069.424999999813735 ], [ 20709.224999999998545, 5917069.424999999813735 ], [ 20709.224999999998545, 5917069.349999999627471 ], [ 20709.3, 5917069.349999999627471 ], [ 20709.3, 5917069.275000000372529 ], [ 20709.375, 5917069.275000000372529 ], [ 20709.375, 5917069.200000000186265 ], [ 20709.525000000001455, 5917069.200000000186265 ], [ 20709.525000000001455, 5917069.125 ], [ 20709.675, 5917069.125 ], [ 20709.675, 5917069.049999999813735 ], [ 20709.825, 5917069.049999999813735 ], [ 20709.825, 5917068.974999999627471 ], [ 20709.974999999998545, 5917068.974999999627471 ], [ 20709.974999999998545, 5917068.900000000372529 ], [ 20710.05, 5917068.900000000372529 ], [ 20710.05, 5917068.825000000186265 ], [ 20710.2, 5917068.825000000186265 ], [ 20710.2, 5917068.75 ], [ 20710.275000000001455, 5917068.75 ], [ 20710.275000000001455, 5917068.674999999813735 ], [ 20710.425, 5917068.674999999813735 ], [ 20710.425, 5917068.599999999627471 ], [ 20710.5, 5917068.599999999627471 ], [ 20710.5, 5917068.525000000372529 ], [ 20710.650000000001455, 5917068.525000000372529 ], [ 20710.650000000001455, 5917068.450000000186265 ], [ 20710.724999999998545, 5917068.450000000186265 ], [ 20710.724999999998545, 5917068.375 ], [ 20710.8, 5917068.375 ], [ 20710.8, 5917068.299999999813735 ], [ 20710.95, 5917068.299999999813735 ], [ 20710.95, 5917068.224999999627471 ], [ 20711.025000000001455, 5917068.224999999627471 ], [ 20711.025000000001455, 5917068.150000000372529 ], [ 20711.099999999998545, 5917068.150000000372529 ], [ 20711.099999999998545, 5917068.075000000186265 ], [ 20711.175, 5917068.075000000186265 ], [ 20711.175, 5917068.0 ], [ 20711.25, 5917068.0 ], [ 20711.25, 5917067.924999999813735 ], [ 20711.400000000001455, 5917067.924999999813735 ], [ 20711.400000000001455, 5917067.849999999627471 ], [ 20711.849999999998545, 5917067.849999999627471 ], [ 20711.849999999998545, 5917067.775000000372529 ], [ 20712.45, 5917067.775000000372529 ], [ 20712.45, 5917067.700000000186265 ], [ 20713.125, 5917067.700000000186265 ], [ 20713.125, 5917067.625 ], [ 20715.974999999998545, 5917067.625 ], [ 20715.974999999998545, 5917067.549999999813735 ], [ 20717.474999999998545, 5917067.549999999813735 ], [ 20717.474999999998545, 5917067.625 ], [ 20717.775000000001455, 5917067.625 ], [ 20717.775000000001455, 5917067.700000000186265 ], [ 20718.075, 5917067.700000000186265 ], [ 20718.075, 5917067.775000000372529 ], [ 20718.375, 5917067.775000000372529 ], [ 20718.375, 5917067.849999999627471 ], [ 20718.75, 5917067.849999999627471 ], [ 20718.75, 5917067.924999999813735 ], [ 20719.125, 5917067.924999999813735 ], [ 20719.125, 5917068.0 ], [ 20719.2, 5917068.0 ], [ 20719.2, 5917068.075000000186265 ], [ 20719.275000000001455, 5917068.075000000186265 ], [ 20719.275000000001455, 5917068.150000000372529 ], [ 20719.425, 5917068.150000000372529 ], [ 20719.425, 5917068.224999999627471 ], [ 20719.5, 5917068.224999999627471 ], [ 20719.5, 5917068.299999999813735 ], [ 20719.575, 5917068.299999999813735 ], [ 20719.575, 5917068.450000000186265 ], [ 20719.650000000001455, 5917068.450000000186265 ], [ 20719.650000000001455, 5917068.525000000372529 ], [ 20719.724999999998545, 5917068.525000000372529 ], [ 20719.724999999998545, 5917068.599999999627471 ], [ 20719.8, 5917068.599999999627471 ], [ 20719.8, 5917068.674999999813735 ], [ 20719.875, 5917068.674999999813735 ], [ 20719.875, 5917068.75 ], [ 20719.95, 5917068.75 ], [ 20719.95, 5917068.825000000186265 ], [ 20720.025000000001455, 5917068.825000000186265 ], [ 20720.025000000001455, 5917068.900000000372529 ], [ 20720.099999999998545, 5917068.900000000372529 ], [ 20720.099999999998545, 5917068.974999999627471 ], [ 20720.175, 5917068.974999999627471 ], [ 20720.175, 5917069.049999999813735 ], [ 20720.25, 5917069.049999999813735 ], [ 20720.25, 5917069.125 ], [ 20720.400000000001455, 5917069.125 ], [ 20720.400000000001455, 5917069.200000000186265 ], [ 20720.474999999998545, 5917069.200000000186265 ], [ 20720.474999999998545, 5917069.275000000372529 ], [ 20720.625, 5917069.275000000372529 ], [ 20720.625, 5917069.349999999627471 ], [ 20720.775000000001455, 5917069.349999999627471 ], [ 20720.775000000001455, 5917069.424999999813735 ], [ 20720.849999999998545, 5917069.424999999813735 ], [ 20720.849999999998545, 5917069.5 ], [ 20721.075, 5917069.5 ], [ 20721.075, 5917069.575000000186265 ], [ 20721.150000000001455, 5917069.575000000186265 ], [ 20721.150000000001455, 5917069.650000000372529 ], [ 20721.224999999998545, 5917069.650000000372529 ], [ 20721.224999999998545, 5917069.724999999627471 ], [ 20721.375, 5917069.724999999627471 ], [ 20721.375, 5917069.799999999813735 ], [ 20721.45, 5917069.799999999813735 ], [ 20721.45, 5917069.875 ], [ 20721.525000000001455, 5917069.875 ], [ 20721.525000000001455, 5917069.950000000186265 ], [ 20721.675, 5917069.950000000186265 ], [ 20721.675, 5917070.025000000372529 ], [ 20721.75, 5917070.025000000372529 ], [ 20721.75, 5917070.099999999627471 ], [ 20721.825, 5917070.099999999627471 ], [ 20721.825, 5917070.174999999813735 ], [ 20721.900000000001455, 5917070.174999999813735 ], [ 20721.900000000001455, 5917070.25 ], [ 20721.974999999998545, 5917070.25 ], [ 20721.974999999998545, 5917070.325000000186265 ], [ 20722.125, 5917070.325000000186265 ], [ 20722.125, 5917070.400000000372529 ], [ 20722.2, 5917070.400000000372529 ], [ 20722.2, 5917070.474999999627471 ], [ 20722.275000000001455, 5917070.474999999627471 ], [ 20722.275000000001455, 5917070.549999999813735 ], [ 20722.425, 5917070.549999999813735 ], [ 20722.425, 5917070.625 ], [ 20722.5, 5917070.625 ], [ 20722.5, 5917070.700000000186265 ], [ 20722.650000000001455, 5917070.700000000186265 ], [ 20722.650000000001455, 5917070.775000000372529 ], [ 20722.8, 5917070.775000000372529 ], [ 20722.8, 5917070.849999999627471 ], [ 20722.875, 5917070.849999999627471 ], [ 20722.875, 5917070.924999999813735 ], [ 20723.025000000001455, 5917070.924999999813735 ], [ 20723.025000000001455, 5917071.0 ], [ 20723.175, 5917071.0 ], [ 20723.175, 5917071.075000000186265 ], [ 20723.325, 5917071.075000000186265 ], [ 20723.325, 5917071.150000000372529 ], [ 20723.474999999998545, 5917071.150000000372529 ], [ 20723.474999999998545, 5917071.224999999627471 ], [ 20723.7, 5917071.224999999627471 ], [ 20723.7, 5917071.299999999813735 ], [ 20723.849999999998545, 5917071.299999999813735 ], [ 20723.849999999998545, 5917071.375 ], [ 20724.0, 5917071.375 ], [ 20724.0, 5917071.450000000186265 ], [ 20724.224999999998545, 5917071.450000000186265 ], [ 20724.224999999998545, 5917071.525000000372529 ], [ 20724.375, 5917071.525000000372529 ], [ 20724.375, 5917071.599999999627471 ], [ 20724.599999999998545, 5917071.599999999627471 ], [ 20724.599999999998545, 5917071.674999999813735 ], [ 20724.75, 5917071.674999999813735 ], [ 20724.75, 5917071.75 ], [ 20724.974999999998545, 5917071.75 ], [ 20724.974999999998545, 5917071.825000000186265 ], [ 20725.05, 5917071.825000000186265 ], [ 20725.05, 5917071.900000000372529 ], [ 20725.2, 5917071.900000000372529 ], [ 20725.2, 5917071.974999999627471 ], [ 20725.275000000001455, 5917071.974999999627471 ], [ 20725.275000000001455, 5917072.049999999813735 ], [ 20725.349999999998545, 5917072.049999999813735 ], [ 20725.349999999998545, 5917072.125 ], [ 20725.425, 5917072.125 ], [ 20725.425, 5917072.275000000372529 ], [ 20725.5, 5917072.275000000372529 ], [ 20725.5, 5917072.349999999627471 ], [ 20725.575, 5917072.349999999627471 ], [ 20725.575, 5917072.424999999813735 ], [ 20725.650000000001455, 5917072.424999999813735 ], [ 20725.650000000001455, 5917072.5 ], [ 20725.724999999998545, 5917072.5 ], [ 20725.724999999998545, 5917072.575000000186265 ], [ 20725.8, 5917072.575000000186265 ], [ 20725.8, 5917072.650000000372529 ], [ 20725.875, 5917072.650000000372529 ], [ 20725.875, 5917072.724999999627471 ], [ 20725.95, 5917072.724999999627471 ], [ 20725.95, 5917072.799999999813735 ], [ 20726.025000000001455, 5917072.799999999813735 ], [ 20726.025000000001455, 5917072.875 ], [ 20726.099999999998545, 5917072.875 ], [ 20726.099999999998545, 5917072.950000000186265 ], [ 20726.175, 5917072.950000000186265 ], [ 20726.175, 5917073.025000000372529 ], [ 20726.25, 5917073.025000000372529 ], [ 20726.25, 5917073.099999999627471 ], [ 20726.400000000001455, 5917073.099999999627471 ], [ 20726.400000000001455, 5917073.174999999813735 ], [ 20726.474999999998545, 5917073.174999999813735 ], [ 20726.474999999998545, 5917073.25 ], [ 20726.55, 5917073.25 ], [ 20726.55, 5917073.325000000186265 ], [ 20726.7, 5917073.325000000186265 ], [ 20726.7, 5917073.400000000372529 ], [ 20726.775000000001455, 5917073.400000000372529 ], [ 20726.775000000001455, 5917073.474999999627471 ], [ 20726.925, 5917073.474999999627471 ], [ 20726.925, 5917073.549999999813735 ], [ 20727.0, 5917073.549999999813735 ], [ 20727.0, 5917073.625 ], [ 20727.075, 5917073.625 ], [ 20727.075, 5917073.700000000186265 ], [ 20727.150000000001455, 5917073.700000000186265 ], [ 20727.150000000001455, 5917073.775000000372529 ], [ 20727.224999999998545, 5917073.775000000372529 ], [ 20727.224999999998545, 5917073.849999999627471 ], [ 20727.3, 5917073.849999999627471 ], [ 20727.3, 5917073.924999999813735 ], [ 20727.375, 5917073.924999999813735 ], [ 20727.375, 5917074.0 ], [ 20727.45, 5917074.0 ], [ 20727.45, 5917074.150000000372529 ], [ 20727.525000000001455, 5917074.150000000372529 ], [ 20727.525000000001455, 5917074.299999999813735 ], [ 20727.599999999998545, 5917074.299999999813735 ], [ 20727.599999999998545, 5917074.525000000372529 ], [ 20727.675, 5917074.525000000372529 ], [ 20727.675, 5917074.674999999813735 ], [ 20727.75, 5917074.674999999813735 ], [ 20727.75, 5917074.825000000186265 ], [ 20727.825, 5917074.825000000186265 ], [ 20727.825, 5917075.049999999813735 ], [ 20727.900000000001455, 5917075.049999999813735 ], [ 20727.900000000001455, 5917075.200000000186265 ], [ 20727.974999999998545, 5917075.200000000186265 ], [ 20727.974999999998545, 5917075.424999999813735 ], [ 20728.05, 5917075.424999999813735 ], [ 20728.05, 5917075.575000000186265 ], [ 20728.125, 5917075.575000000186265 ], [ 20728.125, 5917075.799999999813735 ], [ 20728.2, 5917075.799999999813735 ], [ 20728.2, 5917075.950000000186265 ], [ 20728.275000000001455, 5917075.950000000186265 ], [ 20728.275000000001455, 5917076.099999999627471 ], [ 20728.349999999998545, 5917076.099999999627471 ], [ 20728.349999999998545, 5917076.25 ], [ 20728.425, 5917076.25 ], [ 20728.425, 5917076.325000000186265 ], [ 20728.5, 5917076.325000000186265 ], [ 20728.5, 5917076.400000000372529 ], [ 20728.575, 5917076.400000000372529 ], [ 20728.575, 5917076.549999999813735 ], [ 20728.650000000001455, 5917076.549999999813735 ], [ 20728.650000000001455, 5917076.625 ], [ 20728.724999999998545, 5917076.625 ], [ 20728.724999999998545, 5917076.700000000186265 ], [ 20728.8, 5917076.700000000186265 ], [ 20728.8, 5917076.775000000372529 ], [ 20728.875, 5917076.775000000372529 ], [ 20728.875, 5917076.849999999627471 ], [ 20728.95, 5917076.849999999627471 ], [ 20728.95, 5917076.924999999813735 ], [ 20729.025000000001455, 5917076.924999999813735 ], [ 20729.025000000001455, 5917077.0 ], [ 20729.099999999998545, 5917077.0 ], [ 20729.099999999998545, 5917077.075000000186265 ], [ 20729.175, 5917077.075000000186265 ], [ 20729.175, 5917077.150000000372529 ], [ 20729.25, 5917077.150000000372529 ], [ 20729.25, 5917077.224999999627471 ], [ 20729.325, 5917077.224999999627471 ], [ 20729.325, 5917077.299999999813735 ], [ 20729.400000000001455, 5917077.299999999813735 ], [ 20729.400000000001455, 5917077.450000000186265 ], [ 20729.474999999998545, 5917077.450000000186265 ], [ 20729.474999999998545, 5917077.525000000372529 ], [ 20729.55, 5917077.525000000372529 ], [ 20729.55, 5917077.674999999813735 ], [ 20729.625, 5917077.674999999813735 ], [ 20729.625, 5917077.825000000186265 ], [ 20729.7, 5917077.825000000186265 ], [ 20729.7, 5917077.974999999627471 ], [ 20729.775000000001455, 5917077.974999999627471 ], [ 20729.775000000001455, 5917078.200000000186265 ], [ 20729.849999999998545, 5917078.200000000186265 ], [ 20729.849999999998545, 5917078.424999999813735 ], [ 20729.925, 5917078.424999999813735 ], [ 20729.925, 5917078.650000000372529 ], [ 20730.0, 5917078.650000000372529 ], [ 20730.0, 5917078.875 ], [ 20730.075, 5917078.875 ], [ 20730.075, 5917079.025000000372529 ], [ 20730.150000000001455, 5917079.025000000372529 ], [ 20730.150000000001455, 5917079.174999999813735 ], [ 20730.224999999998545, 5917079.174999999813735 ], [ 20730.224999999998545, 5917079.325000000186265 ], [ 20730.3, 5917079.325000000186265 ], [ 20730.3, 5917079.549999999813735 ], [ 20730.375, 5917079.549999999813735 ], [ 20730.375, 5917079.625 ], [ 20730.45, 5917079.625 ], [ 20730.45, 5917079.775000000372529 ], [ 20730.525000000001455, 5917079.775000000372529 ], [ 20730.525000000001455, 5917079.924999999813735 ], [ 20730.599999999998545, 5917079.924999999813735 ], [ 20730.599999999998545, 5917080.075000000186265 ], [ 20730.675, 5917080.075000000186265 ], [ 20730.675, 5917080.150000000372529 ], [ 20730.75, 5917080.150000000372529 ], [ 20730.75, 5917080.224999999627471 ], [ 20730.825, 5917080.224999999627471 ], [ 20730.825, 5917080.375 ], [ 20730.900000000001455, 5917080.375 ], [ 20730.900000000001455, 5917080.450000000186265 ], [ 20730.974999999998545, 5917080.450000000186265 ], [ 20730.974999999998545, 5917080.525000000372529 ], [ 20731.05, 5917080.525000000372529 ], [ 20731.05, 5917080.674999999813735 ], [ 20731.125, 5917080.674999999813735 ], [ 20731.125, 5917080.75 ], [ 20731.2, 5917080.75 ], [ 20731.2, 5917080.900000000372529 ], [ 20731.275000000001455, 5917080.900000000372529 ], [ 20731.275000000001455, 5917081.049999999813735 ], [ 20731.349999999998545, 5917081.049999999813735 ], [ 20731.349999999998545, 5917081.200000000186265 ], [ 20731.425, 5917081.200000000186265 ], [ 20731.425, 5917081.349999999627471 ], [ 20731.5, 5917081.349999999627471 ], [ 20731.5, 5917081.575000000186265 ], [ 20731.575, 5917081.575000000186265 ], [ 20731.575, 5917081.799999999813735 ], [ 20731.650000000001455, 5917081.799999999813735 ], [ 20731.650000000001455, 5917082.025000000372529 ], [ 20731.724999999998545, 5917082.025000000372529 ], [ 20731.724999999998545, 5917082.325000000186265 ], [ 20731.8, 5917082.325000000186265 ], [ 20731.8, 5917082.549999999813735 ], [ 20731.875, 5917082.549999999813735 ], [ 20731.875, 5917082.849999999627471 ], [ 20731.95, 5917082.849999999627471 ], [ 20731.95, 5917083.075000000186265 ], [ 20732.025000000001455, 5917083.075000000186265 ], [ 20732.025000000001455, 5917083.299999999813735 ], [ 20732.099999999998545, 5917083.299999999813735 ], [ 20732.099999999998545, 5917083.525000000372529 ], [ 20732.175, 5917083.525000000372529 ], [ 20732.175, 5917083.674999999813735 ], [ 20732.25, 5917083.674999999813735 ], [ 20732.25, 5917083.900000000372529 ], [ 20732.325, 5917083.900000000372529 ], [ 20732.325, 5917084.049999999813735 ], [ 20732.400000000001455, 5917084.049999999813735 ], [ 20732.400000000001455, 5917084.200000000186265 ], [ 20732.474999999998545, 5917084.200000000186265 ], [ 20732.474999999998545, 5917084.275000000372529 ], [ 20732.55, 5917084.275000000372529 ], [ 20732.55, 5917084.424999999813735 ], [ 20732.625, 5917084.424999999813735 ], [ 20732.625, 5917084.5 ], [ 20732.7, 5917084.5 ], [ 20732.7, 5917084.575000000186265 ], [ 20732.775000000001455, 5917084.575000000186265 ], [ 20732.775000000001455, 5917084.724999999627471 ], [ 20732.849999999998545, 5917084.724999999627471 ], [ 20732.849999999998545, 5917084.799999999813735 ], [ 20732.925, 5917084.799999999813735 ], [ 20732.925, 5917084.875 ], [ 20733.0, 5917084.875 ], [ 20733.0, 5917084.950000000186265 ], [ 20733.075, 5917084.950000000186265 ], [ 20733.075, 5917085.099999999627471 ], [ 20733.150000000001455, 5917085.099999999627471 ], [ 20733.150000000001455, 5917085.174999999813735 ], [ 20733.224999999998545, 5917085.174999999813735 ], [ 20733.224999999998545, 5917085.325000000186265 ], [ 20733.3, 5917085.325000000186265 ], [ 20733.3, 5917085.474999999627471 ], [ 20733.375, 5917085.474999999627471 ], [ 20733.375, 5917085.549999999813735 ], [ 20733.45, 5917085.549999999813735 ], [ 20733.45, 5917085.700000000186265 ], [ 20733.525000000001455, 5917085.700000000186265 ], [ 20733.525000000001455, 5917085.924999999813735 ], [ 20733.599999999998545, 5917085.924999999813735 ], [ 20733.599999999998545, 5917086.075000000186265 ], [ 20733.675, 5917086.075000000186265 ], [ 20733.675, 5917086.224999999627471 ], [ 20733.75, 5917086.224999999627471 ], [ 20733.75, 5917086.375 ], [ 20733.825, 5917086.375 ], [ 20733.825, 5917086.525000000372529 ], [ 20733.900000000001455, 5917086.525000000372529 ], [ 20733.900000000001455, 5917086.674999999813735 ], [ 20733.974999999998545, 5917086.674999999813735 ], [ 20733.974999999998545, 5917086.825000000186265 ], [ 20734.05, 5917086.825000000186265 ], [ 20734.05, 5917086.900000000372529 ], [ 20734.125, 5917086.900000000372529 ], [ 20734.125, 5917087.049999999813735 ], [ 20734.2, 5917087.049999999813735 ], [ 20734.2, 5917087.200000000186265 ], [ 20734.275000000001455, 5917087.200000000186265 ], [ 20734.275000000001455, 5917087.275000000372529 ], [ 20734.349999999998545, 5917087.275000000372529 ], [ 20734.349999999998545, 5917087.349999999627471 ], [ 20734.425, 5917087.349999999627471 ], [ 20734.425, 5917087.5 ], [ 20734.5, 5917087.5 ], [ 20734.5, 5917087.575000000186265 ], [ 20734.575, 5917087.575000000186265 ], [ 20734.575, 5917087.650000000372529 ], [ 20734.650000000001455, 5917087.650000000372529 ], [ 20734.650000000001455, 5917087.724999999627471 ], [ 20734.724999999998545, 5917087.724999999627471 ], [ 20734.724999999998545, 5917087.799999999813735 ], [ 20734.8, 5917087.799999999813735 ], [ 20734.8, 5917087.875 ], [ 20734.875, 5917087.875 ], [ 20734.875, 5917087.950000000186265 ], [ 20735.025000000001455, 5917087.950000000186265 ], [ 20735.025000000001455, 5917088.025000000372529 ], [ 20735.099999999998545, 5917088.025000000372529 ], [ 20735.099999999998545, 5917088.099999999627471 ], [ 20735.175, 5917088.099999999627471 ], [ 20735.175, 5917088.174999999813735 ], [ 20735.25, 5917088.174999999813735 ], [ 20735.25, 5917088.325000000186265 ], [ 20735.325, 5917088.325000000186265 ], [ 20735.325, 5917088.400000000372529 ], [ 20735.400000000001455, 5917088.400000000372529 ], [ 20735.400000000001455, 5917088.474999999627471 ], [ 20735.474999999998545, 5917088.474999999627471 ], [ 20735.474999999998545, 5917088.549999999813735 ], [ 20735.55, 5917088.549999999813735 ], [ 20735.55, 5917088.700000000186265 ], [ 20735.625, 5917088.700000000186265 ], [ 20735.625, 5917088.775000000372529 ], [ 20735.7, 5917088.775000000372529 ], [ 20735.7, 5917088.924999999813735 ], [ 20735.775000000001455, 5917088.924999999813735 ], [ 20735.775000000001455, 5917089.0 ], [ 20735.849999999998545, 5917089.0 ], [ 20735.849999999998545, 5917089.150000000372529 ], [ 20735.925, 5917089.150000000372529 ], [ 20735.925, 5917089.299999999813735 ], [ 20736.0, 5917089.299999999813735 ], [ 20736.0, 5917089.450000000186265 ], [ 20736.075, 5917089.450000000186265 ], [ 20736.075, 5917089.674999999813735 ], [ 20736.150000000001455, 5917089.674999999813735 ], [ 20736.150000000001455, 5917090.275000000372529 ], [ 20736.224999999998545, 5917090.275000000372529 ], [ 20736.224999999998545, 5917091.474999999627471 ], [ 20736.3, 5917091.474999999627471 ], [ 20736.3, 5917091.700000000186265 ], [ 20736.224999999998545, 5917091.700000000186265 ], [ 20736.224999999998545, 5917092.0 ], [ 20736.150000000001455, 5917092.0 ], [ 20736.150000000001455, 5917092.299999999813735 ], [ 20736.075, 5917092.299999999813735 ], [ 20736.075, 5917092.599999999627471 ], [ 20736.0, 5917092.599999999627471 ], [ 20736.0, 5917092.825000000186265 ], [ 20735.925, 5917092.825000000186265 ], [ 20735.925, 5917093.125 ], [ 20735.849999999998545, 5917093.125 ], [ 20735.849999999998545, 5917093.5 ], [ 20735.775000000001455, 5917093.5 ], [ 20735.775000000001455, 5917093.799999999813735 ], [ 20735.7, 5917093.799999999813735 ], [ 20735.7, 5917094.099999999627471 ], [ 20735.625, 5917094.099999999627471 ], [ 20735.625, 5917094.474999999627471 ], [ 20735.55, 5917094.474999999627471 ], [ 20735.55, 5917094.775000000372529 ], [ 20735.474999999998545, 5917094.775000000372529 ], [ 20735.474999999998545, 5917095.150000000372529 ], [ 20735.400000000001455, 5917095.150000000372529 ], [ 20735.400000000001455, 5917095.450000000186265 ], [ 20735.325, 5917095.450000000186265 ], [ 20735.325, 5917095.825000000186265 ], [ 20735.25, 5917095.825000000186265 ], [ 20735.25, 5917096.275000000372529 ], [ 20735.175, 5917096.275000000372529 ], [ 20735.175, 5917096.650000000372529 ], [ 20735.099999999998545, 5917096.650000000372529 ], [ 20735.099999999998545, 5917097.099999999627471 ], [ 20735.025000000001455, 5917097.099999999627471 ], [ 20735.025000000001455, 5917097.474999999627471 ], [ 20734.95, 5917097.474999999627471 ], [ 20734.95, 5917097.700000000186265 ], [ 20734.875, 5917097.700000000186265 ], [ 20734.875, 5917097.775000000372529 ], [ 20734.8, 5917097.775000000372529 ], [ 20734.8, 5917097.924999999813735 ], [ 20734.724999999998545, 5917097.924999999813735 ], [ 20734.724999999998545, 5917098.0 ], [ 20734.650000000001455, 5917098.0 ], [ 20734.650000000001455, 5917098.075000000186265 ], [ 20734.575, 5917098.075000000186265 ], [ 20734.575, 5917098.150000000372529 ], [ 20734.425, 5917098.150000000372529 ], [ 20734.425, 5917098.224999999627471 ], [ 20734.349999999998545, 5917098.224999999627471 ], [ 20734.349999999998545, 5917098.299999999813735 ], [ 20734.275000000001455, 5917098.299999999813735 ], [ 20734.275000000001455, 5917098.375 ], [ 20734.2, 5917098.375 ], [ 20734.2, 5917098.450000000186265 ], [ 20734.125, 5917098.450000000186265 ], [ 20734.125, 5917098.525000000372529 ], [ 20734.05, 5917098.525000000372529 ], [ 20734.05, 5917098.599999999627471 ], [ 20733.974999999998545, 5917098.599999999627471 ], [ 20733.974999999998545, 5917098.674999999813735 ], [ 20733.900000000001455, 5917098.674999999813735 ], [ 20733.900000000001455, 5917098.75 ], [ 20733.825, 5917098.75 ], [ 20733.825, 5917098.825000000186265 ], [ 20733.75, 5917098.825000000186265 ], [ 20733.75, 5917098.974999999627471 ], [ 20733.675, 5917098.974999999627471 ], [ 20733.675, 5917099.049999999813735 ], [ 20733.599999999998545, 5917099.049999999813735 ], [ 20733.599999999998545, 5917099.125 ], [ 20733.525000000001455, 5917099.125 ], [ 20733.525000000001455, 5917099.275000000372529 ], [ 20733.45, 5917099.275000000372529 ], [ 20733.45, 5917099.424999999813735 ], [ 20733.375, 5917099.424999999813735 ], [ 20733.375, 5917099.5 ], [ 20733.3, 5917099.5 ], [ 20733.3, 5917099.575000000186265 ], [ 20733.150000000001455, 5917099.575000000186265 ], [ 20733.150000000001455, 5917099.650000000372529 ], [ 20733.075, 5917099.650000000372529 ], [ 20733.075, 5917099.724999999627471 ], [ 20732.925, 5917099.724999999627471 ], [ 20732.925, 5917099.799999999813735 ], [ 20732.775000000001455, 5917099.799999999813735 ], [ 20732.775000000001455, 5917099.875 ], [ 20732.474999999998545, 5917099.875 ], [ 20732.474999999998545, 5917099.950000000186265 ], [ 20732.099999999998545, 5917099.950000000186265 ], [ 20732.099999999998545, 5917100.025000000372529 ], [ 20731.8, 5917100.025000000372529 ], [ 20731.8, 5917100.099999999627471 ], [ 20731.425, 5917100.099999999627471 ], [ 20731.425, 5917100.174999999813735 ], [ 20731.05, 5917100.174999999813735 ], [ 20731.05, 5917100.25 ], [ 20730.75, 5917100.25 ], [ 20730.75, 5917100.325000000186265 ], [ 20730.375, 5917100.325000000186265 ], [ 20730.375, 5917100.400000000372529 ], [ 20730.075, 5917100.400000000372529 ], [ 20730.075, 5917100.474999999627471 ], [ 20729.775000000001455, 5917100.474999999627471 ], [ 20729.775000000001455, 5917100.549999999813735 ], [ 20729.474999999998545, 5917100.549999999813735 ], [ 20729.474999999998545, 5917100.625 ], [ 20729.099999999998545, 5917100.625 ], [ 20729.099999999998545, 5917100.700000000186265 ], [ 20728.8, 5917100.700000000186265 ], [ 20728.8, 5917100.775000000372529 ], [ 20728.5, 5917100.775000000372529 ], [ 20728.5, 5917100.849999999627471 ], [ 20728.2, 5917100.849999999627471 ], [ 20728.2, 5917100.924999999813735 ], [ 20727.900000000001455, 5917100.924999999813735 ], [ 20727.900000000001455, 5917101.0 ], [ 20727.675, 5917101.0 ], [ 20727.675, 5917101.075000000186265 ], [ 20727.375, 5917101.075000000186265 ], [ 20727.375, 5917101.150000000372529 ], [ 20727.150000000001455, 5917101.150000000372529 ], [ 20727.150000000001455, 5917101.224999999627471 ], [ 20726.474999999998545, 5917101.224999999627471 ] ] ] } },
{ "type": "Feature", "properties": { "value": 1.0, "building_id": 1, "area": 23.754374999828975 }, "geometry": { "type": "Polygon", "coordinates": [ [ [ 21154.5, 5917038.0 ], [ 21154.5, 5917037.924999999813735 ], [ 21154.349999999998545, 5917037.924999999813735 ], [ 21154.349999999998545, 5917037.849999999627471 ], [ 21154.275000000001455, 5917037.849999999627471 ], [ 21154.275000000001455, 5917037.700000000186265 ], [ 21154.2, 5917037.700000000186265 ], [ 21154.2, 5917037.474999999627471 ], [ 21154.125, 5917037.474999999627471 ], [ 21154.125, 5917037.25 ], [ 21154.05, 5917037.25 ], [ 21154.05, 5917036.950000000186265 ], [ 21153.974999999998545, 5917036.950000000186265 ], [ 21153.974999999998545, 5917036.424999999813735 ], [ 21153.900000000001455, 5917036.424999999813735 ], [ 21153.900000000001455, 5917035.825000000186265 ], [ 21153.825, 5917035.825000000186265 ], [ 21153.825, 5917035.075000000186265 ], [ 21153.75, 5917035.075000000186265 ], [ 21153.75, 5917035.0 ], [ 21153.825, 5917035.0 ], [ 21153.825, 5917034.549999999813735 ], [ 21153.900000000001455, 5917034.549999999813735 ], [ 21153.900000000001455, 5917034.099999999627471 ], [ 21153.974999999998545, 5917034.099999999627471 ], [ 21153.974999999998545, 5917033.650000000372529 ], [ 21154.05, 5917033.650000000372529 ], [ 21154.05, 5917033.349999999627471 ], [ 21154.125, 5917033.349999999627471 ], [ 21154.125, 5917032.974999999627471 ], [ 21154.2, 5917032.974999999627471 ], [ 21154.2, 5917032.599999999627471 ], [ 21154.275000000001455, 5917032.599999999627471 ], [ 21154.275000000001455, 5917032.299999999813735 ], [ 21154.349999999998545, 5917032.299999999813735 ], [ 21154.349999999998545, 5917032.0 ], [ 21154.425, 5917032.0 ], [ 21154.425, 5917031.700000000186265 ], [ 21154.5, 5917031.700000000186265 ], [ 21154.5, 5917031.474999999627471 ], [ 21154.575, 5917031.474999999627471 ], [ 21154.575, 5917031.25 ], [ 21154.650000000001455, 5917031.25 ], [ 21154.650000000001455, 5917031.025000000372529 ], [ 21154.8, 5917031.025000000372529 ], [ 21154.8, 5917030.950000000186265 ], [ 21155.474999999998545, 5917030.950000000186265 ], [ 21155.474999999998545, 5917031.025000000372529 ], [ 21155.849999999998545, 5917031.025000000372529 ], [ 21155.849999999998545, 5917031.099999999627471 ], [ 21156.224999999998545, 5917031.099999999627471 ], [ 21156.224999999998545, 5917031.174999999813735 ], [ 21156.599999999998545, 5917031.174999999813735 ], [ 21156.599999999998545, 5917031.25 ], [ 21156.75, 5917031.25 ], [ 21156.75, 5917031.325000000186265 ], [ 21156.825, 5917031.325000000186265 ], [ 21156.825, 5917031.400000000372529 ], [ 21156.900000000001455, 5917031.400000000372529 ], [ 21156.900000000001455, 5917031.474999999627471 ], [ 21156.974999999998545, 5917031.474999999627471 ], [ 21156.974999999998545, 5917031.625 ], [ 21157.05, 5917031.625 ], [ 21157.05, 5917031.849999999627471 ], [ 21157.125, 5917031.849999999627471 ], [ 21157.125, 5917032.075000000186265 ], [ 21157.2, 5917032.075000000186265 ], [ 21157.2, 5917032.299999999813735 ], [ 21157.275000000001455, 5917032.299999999813735 ], [ 21157.275000000001455, 5917032.525000000372529 ], [ 21157.349999999998545, 5917032.525000000372529 ], [ 21157.349999999998545, 5917032.825000000186265 ], [ 21157.425, 5917032.825000000186265 ], [ 21157.425, 5917033.125 ], [ 21157.5, 5917033.125 ], [ 21157.5, 5917033.349999999627471 ], [ 21157.575, 5917033.349999999627471 ], [ 21157.575, 5917033.650000000372529 ], [ 21157.650000000001455, 5917033.650000000372529 ], [ 21157.650000000001455, 5917034.025000000372529 ], [ 21157.724999999998545, 5917034.025000000372529 ], [ 21157.724999999998545, 5917034.325000000186265 ], [ 21157.8, 5917034.325000000186265 ], [ 21157.8, 5917034.775000000372529 ], [ 21157.875, 5917034.775000000372529 ], [ 21157.875, 5917035.825000000186265 ], [ 21157.8, 5917035.825000000186265 ], [ 21157.8, 5917036.724999999627471 ], [ 21157.724999999998545, 5917036.724999999627471 ], [ 21157.724999999998545, 5917037.174999999813735 ], [ 21157.650000000001455, 5917037.174999999813735 ], [ 21157.650000000001455, 5917037.325000000186265 ], [ 21157.575, 5917037.325000000186265 ], [ 21157.575, 5917037.400000000372529 ], [ 21157.5, 5917037.400000000372529 ], [ 21157.5, 5917037.474999999627471 ], [ 21157.425, 5917037.474999999627471 ], [ 21157.425, 5917037.549999999813735 ], [ 21157.349999999998545, 5917037.549999999813735 ], [ 21157.349999999998545, 5917037.625 ], [ 21157.2, 5917037.625 ], [ 21157.2, 5917037.700000000186265 ], [ 21157.125, 5917037.700000000186265 ], [ 21157.125, 5917037.775000000372529 ], [ 21156.974999999998545, 5917037.775000000372529 ], [ 21156.974999999998545, 5917037.849999999627471 ], [ 21156.825, 5917037.849999999627471 ], [ 21156.825, 5917037.924999999813735 ], [ 21156.675, 5917037.924999999813735 ], [ 21156.675, 5917038.0 ], [ 21154.5, 5917038.0 ] ] ] } },
{ "type": "Feature", "properties": { "value": 1.0, "building_id": 2, "area": 623.63250000024573 }, "geometry": { "type": "Polygon", "coordinates": [ [ [ 20523.75, 5916881.174999999813735 ], [ 20523.75, 5916881.099999999627471 ], [ 20523.675, 5916881.099999999627471 ], [ 20523.675, 5916881.025000000372529 ], [ 20523.599999999998545, 5916881.025000000372529 ], [ 20523.599999999998545, 5916880.950000000186265 ], [ 20523.525000000001455, 5916880.950000000186265 ], [ 20523.525000000001455, 5916880.799999999813735 ], [ 20523.45, 5916880.799999999813735 ], [ 20523.45, 5916880.724999999627471 ], [ 20523.224999999998545, 5916880.724999999627471 ], [ 20523.224999999998545, 5916880.650000000372529 ], [ 20523.0, 5916880.650000000372529 ], [ 20523.0, 5916880.575000000186265 ], [ 20522.775000000001455, 5916880.575000000186265 ], [ 20522.775000000001455, 5916880.5 ], [ 20522.55, 5916880.5 ], [ 20522.55, 5916880.424999999813735 ], [ 20522.325, 5916880.424999999813735 ], [ 20522.325, 5916880.349999999627471 ], [ 20522.175, 5916880.349999999627471 ], [ 20522.175, 5916880.275000000372529 ], [ 20521.95, 5916880.275000000372529 ], [ 20521.95, 5916880.200000000186265 ], [ 20521.724999999998545, 5916880.200000000186265 ], [ 20521.724999999998545, 5916880.125 ], [ 20521.349999999998545, 5916880.125 ], [ 20521.349999999998545, 5916880.049999999813735 ], [ 20521.125, 5916880.049999999813735 ], [ 20521.125, 5916879.974999999627471 ], [ 20521.05, 5916879.974999999627471 ], [ 20521.05, 5916879.900000000372529 ], [ 20520.974999999998545, 5916879.900000000372529 ], [ 20520.974999999998545, 5916879.825000000186265 ], [ 20520.900000000001455, 5916879.825000000186265 ], [ 20520.900000000001455, 5916879.674999999813735 ], [ 20520.825, 5916879.674999999813735 ], [ 20520.825, 5916879.525000000372529 ], [ 20520.75, 5916879.525000000372529 ], [ 20520.75, 5916879.375 ], [ 20520.675, 5916879.375 ], [ 20520.675, 5916879.224999999627471 ], [ 20520.599999999998545, 5916879.224999999627471 ], [ 20520.599999999998545, 5916879.0 ], [ 20520.525000000001455, 5916879.0 ], [ 20520.525000000001455, 5916878.775000000372529 ], [ 20520.45, 5916878.775000000372529 ], [ 20520.45, 5916878.25 ], [ 20520.375, 5916878.25 ], [ 20520.375, 5916877.575000000186265 ], [ 20520.3, 5916877.575000000186265 ], [ 20520.3, 5916876.674999999813735 ], [ 20520.224999999998545, 5916876.674999999813735 ], [ 20520.224999999998545, 5916875.924999999813735 ], [ 20520.150000000001455, 5916875.924999999813735 ], [ 20520.150000000001455, 5916875.174999999813735 ], [ 20520.075, 5916875.174999999813735 ], [ 20520.075, 5916874.799999999813735 ], [ 20520.0, 5916874.799999999813735 ], [ 20520.0, 5916874.575000000186265 ], [ 20519.925, 5916874.575000000186265 ], [ 20519.925, 5916874.424999999813735 ], [ 20519.849999999998545, 5916874.424999999813735 ], [ 20519.849999999998545, 5916874.349999999627471 ], [ 20519.775000000001455, 5916874.349999999627471 ], [ 20519.775000000001455, 5916874.200000000186265 ], [ 20519.7, 5916874.200000000186265 ], [ 20519.7, 5916874.049999999813735 ], [ 20519.625, 5916874.049999999813735 ], [ 20519.625, 5916873.825000000186265 ], [ 20519.55, 5916873.825000000186265 ], [ 20519.55, 5916873.674999999813735 ], [ 20519.474999999998545, 5916873.674999999813735 ], [ 20519.474999999998545, 5916873.450000000186265 ], [ 20519.400000000001455, 5916873.450000000186265 ], [ 20519.400000000001455, 5916873.224999999627471 ], [ 20519.325, 5916873.224999999627471 ], [ 20519.325, 5916872.924999999813735 ], [ 20519.25, 5916872.924999999813735 ], [ 20519.25, 5916872.325000000186265 ], [ 20519.175, 5916872.325000000186265 ], [ 20519.175, 5916871.724999999627471 ], [ 20519.099999999998545, 5916871.724999999627471 ], [ 20519.099999999998545, 5916870.974999999627471 ], [ 20519.025000000001455, 5916870.974999999627471 ], [ 20519.025000000001455, 5916868.724999999627471 ], [ 20518.95, 5916868.724999999627471 ], [ 20518.95, 5916865.200000000186265 ], [ 20519.025000000001455, 5916865.200000000186265 ], [ 20519.025000000001455, 5916864.825000000186265 ], [ 20519.099999999998545, 5916864.825000000186265 ], [ 20519.099999999998545, 5916864.525000000372529 ], [ 20519.175, 5916864.525000000372529 ], [ 20519.175, 5916864.299999999813735 ], [ 20519.25, 5916864.299999999813735 ], [ 20519.25, 5916864.075000000186265 ], [ 20519.325, 5916864.075000000186265 ], [ 20519.325, 5916863.924999999813735 ], [ 20519.400000000001455, 5916863.924999999813735 ], [ 20519.400000000001455, 5916863.700000000186265 ], [ 20519.474999999998545, 5916863.700000000186265 ], [ 20519.474999999998545, 5916863.549999999813735 ], [ 20519.55, 5916863.549999999813735 ], [ 20519.55, 5916863.400000000372529 ], [ 20519.625, 5916863.400000000372529 ], [ 20519.625, 5916863.325000000186265 ], [ 20519.7, 5916863.325000000186265 ], [ 20519.7, 5916863.174999999813735 ], [ 20519.775000000001455, 5916863.174999999813735 ], [ 20519.775000000001455, 5916863.025000000372529 ], [ 20519.849999999998545, 5916863.025000000372529 ], [ 20519.849999999998545, 5916862.950000000186265 ], [ 20519.925, 5916862.950000000186265 ], [ 20519.925, 5916862.575000000186265 ], [ 20520.0, 5916862.575000000186265 ], [ 20520.0, 5916862.125 ], [ 20520.075, 5916862.125 ], [ 20520.075, 5916861.674999999813735 ], [ 20520.150000000001455, 5916861.674999999813735 ], [ 20520.150000000001455, 5916861.224999999627471 ], [ 20520.224999999998545, 5916861.224999999627471 ], [ 20520.224999999998545, 5916861.0 ], [ 20520.3, 5916861.0 ], [ 20520.3, 5916860.775000000372529 ], [ 20520.375, 5916860.775000000372529 ], [ 20520.375, 5916860.549999999813735 ], [ 20520.45, 5916860.549999999813735 ], [ 20520.45, 5916860.400000000372529 ], [ 20520.525000000001455, 5916860.400000000372529 ], [ 20520.525000000001455, 5916860.25 ], [ 20520.599999999998545, 5916860.25 ], [ 20520.599999999998545, 5916860.099999999627471 ], [ 20520.675, 5916860.099999999627471 ], [ 20520.675, 5916859.950000000186265 ], [ 20520.75, 5916859.950000000186265 ], [ 20520.75, 5916859.799999999813735 ], [ 20520.825, 5916859.799999999813735 ], [ 20520.825, 5916859.724999999627471 ], [ 20520.900000000001455, 5916859.724999999627471 ], [ 20520.900000000001455, 5916859.650000000372529 ], [ 20520.974999999998545, 5916859.650000000372529 ], [ 20520.974999999998545, 5916859.5 ], [ 20521.05, 5916859.5 ], [ 20521.05, 5916859.424999999813735 ], [ 20521.125, 5916859.424999999813735 ], [ 20521.125, 5916859.349999999627471 ], [ 20521.2, 5916859.349999999627471 ], [ 20521.2, 5916859.275000000372529 ], [ 20521.275000000001455, 5916859.275000000372529 ], [ 20521.275000000001455, 5916859.200000000186265 ], [ 20521.349999999998545, 5916859.200000000186265 ], [ 20521.349999999998545, 5916859.125 ], [ 20521.425, 5916859.125 ], [ 20521.425, 5916859.049999999813735 ], [ 20521.5, 5916859.049999999813735 ], [ 20521.5, 5916858.974999999627471 ], [ 20521.575, 5916858.974999999627471 ], [ 20521.575, 5916858.900000000372529 ], [ 20521.650000000001455, 5916858.900000000372529 ], [ 20521.650000000001455, 5916858.825000000186265 ], [ 20521.724999999998545, 5916858.825000000186265 ], [ 20521.724999999998545, 5916858.75 ], [ 20521.875, 5916858.75 ], [ 20521.875, 5916858.599999999627471 ], [ 20521.95, 5916858.599999999627471 ], [ 20521.95, 5916858.525000000372529 ], [ 20522.025000000001455, 5916858.525000000372529 ], [ 20522.025000000001455, 5916858.450000000186265 ], [ 20522.099999999998545, 5916858.450000000186265 ], [ 20522.099999999998545, 5916858.375 ], [ 20522.175, 5916858.375 ], [ 20522.175, 5916858.299999999813735 ], [ 20522.25, 5916858.299999999813735 ], [ 20522.25, 5916858.150000000372529 ], [ 20522.325, 5916858.150000000372529 ], [ 20522.325, 5916858.075000000186265 ], [ 20522.400000000001455, 5916858.075000000186265 ], [ 20522.400000000001455, 5916858.0 ], [ 20522.474999999998545, 5916858.0 ], [ 20522.474999999998545, 5916857.924999999813735 ], [ 20522.55, 5916857.924999999813735 ], [ 20522.55, 5916857.849999999627471 ], [ 20522.625, 5916857.849999999627471 ], [ 20522.625, 5916857.775000000372529 ], [ 20522.7, 5916857.775000000372529 ], [ 20522.7, 5916857.700000000186265 ], [ 20522.775000000001455, 5916857.700000000186265 ], [ 20522.775000000001455, 5916857.625 ], [ 20522.925, 5916857.625 ], [ 20522.925, 5916857.549999999813735 ], [ 20523.0, 5916857.549999999813735 ], [ 20523.0, 5916857.474999999627471 ], [ 20523.075, 5916857.474999999627471 ], [ 20523.075, 5916857.400000000372529 ], [ 20523.150000000001455, 5916857.400000000372529 ], [ 20523.150000000001455, 5916857.325000000186265 ], [ 20523.224999999998545, 5916857.325000000186265 ], [ 20523.224999999998545, 5916857.25 ], [ 20523.3, 5916857.25 ], [ 20523.3, 5916857.174999999813735 ], [ 20523.375, 5916857.174999999813735 ], [ 20523.375, 5916857.025000000372529 ], [ 20523.45, 5916857.025000000372529 ], [ 20523.45, 5916856.950000000186265 ], [ 20523.525000000001455, 5916856.950000000186265 ], [ 20523.525000000001455, 5916856.875 ], [ 20523.599999999998545, 5916856.875 ], [ 20523.599999999998545, 5916856.799999999813735 ], [ 20523.675, 5916856.799999999813735 ], [ 20523.675, 5916856.724999999627471 ], [ 20523.75, 5916856.724999999627471 ], [ 20523.75, 5916856.650000000372529 ], [ 20523.825, 5916856.650000000372529 ], [ 20523.825, 5916856.5 ], [ 20523.900000000001455, 5916856.5 ], [ 20523.900000000001455, 5916856.424999999813735 ], [ 20523.974999999998545, 5916856.424999999813735 ], [ 20523.974999999998545, 5916856.275000000372529 ], [ 20524.05, 5916856.275000000372529 ], [ 20524.05, 5916856.200000000186265 ], [ 20524.125, 5916856.200000000186265 ], [ 20524.125, 5916856.049999999813735 ], [ 20524.2, 5916856.049999999813735 ], [ 20524.2, 5916855.974999999627471 ], [ 20524.275000000001455, 5916855.974999999627471 ], [ 20524.275000000001455, 5916855.825000000186265 ], [ 20524.349999999998545, 5916855.825000000186265 ], [ 20524.349999999998545, 5916855.75 ], [ 20524.425, 5916855.75 ], [ 20524.425, 5916855.599999999627471 ], [ 20524.5, 5916855.599999999627471 ], [ 20524.5, 5916855.525000000372529 ], [ 20524.575, 5916855.525000000372529 ], [ 20524.575, 5916855.375 ], [ 20524.650000000001455, 5916855.375 ], [ 20524.650000000001455, 5916855.224999999627471 ], [ 20524.724999999998545, 5916855.224999999627471 ], [ 20524.724999999998545, 5916855.0 ], [ 20524.8, 5916855.0 ], [ 20524.8, 5916854.849999999627471 ], [ 20524.875, 5916854.849999999627471 ], [ 20524.875, 5916854.700000000186265 ], [ 20524.95, 5916854.700000000186265 ], [ 20524.95, 5916854.549999999813735 ], [ 20525.025000000001455, 5916854.549999999813735 ], [ 20525.025000000001455, 5916854.400000000372529 ], [ 20525.099999999998545, 5916854.400000000372529 ], [ 20525.099999999998545, 5916854.25 ], [ 20525.175, 5916854.25 ], [ 20525.175, 5916854.174999999813735 ], [ 20525.325, 5916854.174999999813735 ], [ 20525.325, 5916854.099999999627471 ], [ 20525.400000000001455, 5916854.099999999627471 ], [ 20525.400000000001455, 5916854.025000000372529 ], [ 20525.55, 5916854.025000000372529 ], [ 20525.55, 5916853.950000000186265 ], [ 20525.775000000001455, 5916853.950000000186265 ], [ 20525.775000000001455, 5916853.875 ], [ 20525.849999999998545, 5916853.875 ], [ 20525.849999999998545, 5916853.799999999813735 ], [ 20525.925, 5916853.799999999813735 ], [ 20525.925, 5916853.724999999627471 ], [ 20526.075, 5916853.724999999627471 ], [ 20526.075, 5916853.650000000372529 ], [ 20526.150000000001455, 5916853.650000000372529 ], [ 20526.150000000001455, 5916853.575000000186265 ], [ 20526.3, 5916853.575000000186265 ], [ 20526.3, 5916853.5 ], [ 20526.375, 5916853.5 ], [ 20526.375, 5916853.424999999813735 ], [ 20526.45, 5916853.424999999813735 ], [ 20526.45, 5916853.349999999627471 ], [ 20526.599999999998545, 5916853.349999999627471 ], [ 20526.599999999998545, 5916853.275000000372529 ], [ 20526.675, 5916853.275000000372529 ], [ 20526.675, 5916853.200000000186265 ], [ 20526.825, 5916853.200000000186265 ], [ 20526.825, 5916853.125 ], [ 20526.900000000001455, 5916853.125 ], [ 20526.900000000001455, 5916853.049999999813735 ], [ 20527.05, 5916853.049999999813735 ], [ 20527.05, 5916852.974999999627471 ], [ 20527.275000000001455, 5916852.974999999627471 ], [ 20527.275000000001455, 5916852.900000000372529 ], [ 20527.425, 5916852.900000000372529 ], [ 20527.425, 5916852.825000000186265 ], [ 20527.650000000001455, 5916852.825000000186265 ], [ 20527.650000000001455, 5916852.75 ], [ 20527.95, 5916852.75 ], [ 20527.95, 5916852.674999999813735 ], [ 20528.25, 5916852.674999999813735 ], [ 20528.25, 5916852.599999999627471 ], [ 20528.625, 5916852.599999999627471 ], [ 20528.625, 5916852.525000000372529 ], [ 20529.0, 5916852.525000000372529 ], [ 20529.0, 5916852.450000000186265 ], [ 20529.45, 5916852.450000000186265 ], [ 20529.45, 5916852.375 ], [ 20530.05, 5916852.375 ], [ 20530.05, 5916852.299999999813735 ], [ 20530.8, 5916852.299999999813735 ], [ 20530.8, 5916852.224999999627471 ], [ 20531.55, 5916852.224999999627471 ], [ 20531.55, 5916852.150000000372529 ], [ 20532.150000000001455, 5916852.150000000372529 ], [ 20532.150000000001455, 5916852.075000000186265 ], [ 20532.675, 5916852.075000000186265 ], [ 20532.675, 5916852.0 ], [ 20533.2, 5916852.0 ], [ 20533.2, 5916851.924999999813735 ], [ 20533.8, 5916851.924999999813735 ], [ 20533.8, 5916851.849999999627471 ], [ 20534.400000000001455, 5916851.849999999627471 ], [ 20534.400000000001455, 5916851.775000000372529 ], [ 20535.0, 5916851.775000000372529 ], [ 20535.0, 5916851.700000000186265 ], [ 20535.45, 5916851.700000000186265 ], [ 20535.45, 5916851.775000000372529 ], [ 20535.900000000001455, 5916851.775000000372529 ], [ 20535.900000000001455, 5916851.849999999627471 ], [ 20536.275000000001455, 5916851.849999999627471 ], [ 20536.275000000001455, 5916851.924999999813735 ], [ 20536.724999999998545, 5916851.924999999813735 ], [ 20536.724999999998545, 5916852.0 ], [ 20537.099999999998545, 5916852.0 ], [ 20537.099999999998545, 5916852.075000000186265 ], [ 20537.55, 5916852.075000000186265 ], [ 20537.55, 5916852.150000000372529 ], [ 20537.849999999998545, 5916852.150000000372529 ], [ 20537.849999999998545, 5916852.224999999627471 ], [ 20538.075, 5916852.224999999627471 ], [ 20538.075, 5916852.299999999813735 ], [ 20538.375, 5916852.299999999813735 ], [ 20538.375, 5916852.375 ], [ 20538.675, 5916852.375 ], [ 20538.675, 5916852.450000000186265 ], [ 20538.900000000001455, 5916852.450000000186265 ], [ 20538.900000000001455, 5916852.525000000372529 ], [ 20539.125, 5916852.525000000372529 ], [ 20539.125, 5916852.599999999627471 ], [ 20539.349999999998545, 5916852.599999999627471 ], [ 20539.349999999998545, 5916852.674999999813735 ], [ 20539.575, 5916852.674999999813735 ], [ 20539.575, 5916852.75 ], [ 20539.8, 5916852.75 ], [ 20539.8, 5916852.825000000186265 ], [ 20539.95, 5916852.825000000186265 ], [ 20539.95, 5916852.900000000372529 ], [ 20540.175, 5916852.900000000372529 ], [ 20540.175, 5916852.974999999627471 ], [ 20540.325, 5916852.974999999627471 ], [ 20540.325, 5916853.049999999813735 ], [ 20540.474999999998545, 5916853.049999999813735 ], [ 20540.474999999998545, 5916853.125 ], [ 20540.625, 5916853.125 ], [ 20540.625, 5916853.200000000186265 ], [ 20540.775000000001455, 5916853.200000000186265 ], [ 20540.775000000001455, 5916853.275000000372529 ], [ 20540.849999999998545, 5916853.275000000372529 ], [ 20540.849999999998545, 5916853.349999999627471 ], [ 20541.0, 5916853.349999999627471 ], [ 20541.0, 5916853.424999999813735 ], [ 20541.150000000001455, 5916853.424999999813735 ], [ 20541.150000000001455, 5916853.5 ], [ 20541.375, 5916853.5 ], [ 20541.375, 5916853.575000000186265 ], [ 20541.75, 5916853.575000000186265 ], [ 20541.75, 5916853.650000000372529 ], [ 20542.125, 5916853.650000000372529 ], [ 20542.125, 5916853.724999999627471 ], [ 20542.575, 5916853.724999999627471 ], [ 20542.575, 5916853.799999999813735 ], [ 20543.025000000001455, 5916853.799999999813735 ], [ 20543.025000000001455, 5916853.875 ], [ 20543.625, 5916853.875 ], [ 20543.625, 5916853.950000000186265 ], [ 20544.224999999998545, 5916853.950000000186265 ], [ 20544.224999999998545, 5916854.025000000372529 ], [ 20544.974999999998545, 5916854.025000000372529 ], [ 20544.974999999998545, 5916854.099999999627471 ], [ 20545.5, 5916854.099999999627471 ], [ 20545.5, 5916854.174999999813735 ], [ 20545.95, 5916854.174999999813735 ], [ 20545.95, 5916854.25 ], [ 20546.325, 5916854.25 ], [ 20546.325, 5916854.325000000186265 ], [ 20546.7, 5916854.325000000186265 ], [ 20546.7, 5916854.400000000372529 ], [ 20547.075, 5916854.400000000372529 ], [ 20547.075, 5916854.474999999627471 ], [ 20547.3, 5916854.474999999627471 ], [ 20547.3, 5916854.549999999813735 ], [ 20547.45, 5916854.549999999813735 ], [ 20547.45, 5916854.625 ], [ 20547.599999999998545, 5916854.625 ], [ 20547.599999999998545, 5916854.700000000186265 ], [ 20547.75, 5916854.700000000186265 ], [ 20547.75, 5916854.775000000372529 ], [ 20547.825, 5916854.775000000372529 ], [ 20547.825, 5916854.849999999627471 ], [ 20547.974999999998545, 5916854.849999999627471 ], [ 20547.974999999998545, 5916854.924999999813735 ], [ 20548.05, 5916854.924999999813735 ], [ 20548.05, 5916855.0 ], [ 20548.125, 5916855.0 ], [ 20548.125, 5916855.075000000186265 ], [ 20548.2, 5916855.075000000186265 ], [ 20548.2, 5916855.150000000372529 ], [ 20548.275000000001455, 5916855.150000000372529 ], [ 20548.275000000001455, 5916855.224999999627471 ], [ 20548.349999999998545, 5916855.224999999627471 ], [ 20548.349999999998545, 5916855.299999999813735 ], [ 20548.425, 5916855.299999999813735 ], [ 20548.425, 5916855.375 ], [ 20548.5, 5916855.375 ], [ 20548.5, 5916855.450000000186265 ], [ 20548.575, 5916855.450000000186265 ], [ 20548.575, 5916855.525000000372529 ], [ 20548.650000000001455, 5916855.525000000372529 ], [ 20548.650000000001455, 5916855.599999999627471 ], [ 20548.8, 5916855.599999999627471 ], [ 20548.8, 5916855.674999999813735 ], [ 20548.875, 5916855.674999999813735 ], [ 20548.875, 5916855.75 ], [ 20548.95, 5916855.75 ], [ 20548.95, 5916855.825000000186265 ], [ 20549.099999999998545, 5916855.825000000186265 ], [ 20549.099999999998545, 5916855.900000000372529 ], [ 20549.175, 5916855.900000000372529 ], [ 20549.175, 5916855.974999999627471 ], [ 20549.325, 5916855.974999999627471 ], [ 20549.325, 5916856.049999999813735 ], [ 20549.474999999998545, 5916856.049999999813735 ], [ 20549.474999999998545, 5916856.125 ], [ 20549.625, 5916856.125 ], [ 20549.625, 5916856.200000000186265 ], [ 20549.7, 5916856.200000000186265 ], [ 20549.7, 5916856.275000000372529 ], [ 20549.849999999998545, 5916856.275000000372529 ], [ 20549.849999999998545, 5916856.349999999627471 ], [ 20549.925, 5916856.349999999627471 ], [ 20549.925, 5916856.424999999813735 ], [ 20550.0, 5916856.424999999813735 ], [ 20550.0, 5916856.5 ], [ 20550.075, 5916856.5 ], [ 20550.075, 5916856.575000000186265 ], [ 20550.224999999998545, 5916856.575000000186265 ], [ 20550.224999999998545, 5916856.650000000372529 ], [ 20550.3, 5916856.650000000372529 ], [ 20550.3, 5916856.799999999813735 ], [ 20550.375, 5916856.799999999813735 ], [ 20550.375, 5916856.875 ], [ 20550.45, 5916856.875 ], [ 20550.45, 5916856.950000000186265 ], [ 20550.525000000001455, 5916856.950000000186265 ], [ 20550.525000000001455, 5916857.025000000372529 ], [ 20550.599999999998545, 5916857.025000000372529 ], [ 20550.599999999998545, 5916857.174999999813735 ], [ 20550.675, 5916857.174999999813735 ], [ 20550.675, 5916857.25 ], [ 20550.75, 5916857.25 ], [ 20550.75, 5916857.400000000372529 ], [ 20550.825, 5916857.400000000372529 ], [ 20550.825, 5916857.625 ], [ 20550.900000000001455, 5916857.625 ], [ 20550.900000000001455, 5916857.849999999627471 ], [ 20550.974999999998545, 5916857.849999999627471 ], [ 20550.974999999998545, 5916858.0 ], [ 20551.05, 5916858.0 ], [ 20551.05, 5916858.150000000372529 ], [ 20551.125, 5916858.150000000372529 ], [ 20551.125, 5916858.299999999813735 ], [ 20551.2, 5916858.299999999813735 ], [ 20551.2, 5916858.450000000186265 ], [ 20551.275000000001455, 5916858.450000000186265 ], [ 20551.275000000001455, 5916858.599999999627471 ], [ 20551.349999999998545, 5916858.599999999627471 ], [ 20551.349999999998545, 5916858.75 ], [ 20551.425, 5916858.75 ], [ 20551.425, 5916858.900000000372529 ], [ 20551.5, 5916858.900000000372529 ], [ 20551.5, 5916859.049999999813735 ], [ 20551.575, 5916859.049999999813735 ], [ 20551.575, 5916859.275000000372529 ], [ 20551.650000000001455, 5916859.275000000372529 ], [ 20551.650000000001455, 5916859.424999999813735 ], [ 20551.724999999998545, 5916859.424999999813735 ], [ 20551.724999999998545, 5916859.650000000372529 ], [ 20551.8, 5916859.650000000372529 ], [ 20551.8, 5916859.875 ], [ 20551.875, 5916859.875 ], [ 20551.875, 5916860.099999999627471 ], [ 20551.95, 5916860.099999999627471 ], [ 20551.95, 5916860.400000000372529 ], [ 20552.025000000001455, 5916860.400000000372529 ], [ 20552.025000000001455, 5916860.625 ], [ 20552.099999999998545, 5916860.625 ], [ 20552.099999999998545, 5916860.924999999813735 ], [ 20552.175, 5916860.924999999813735 ], [ 20552.175, 5916861.299999999813735 ], [ 20552.25, 5916861.299999999813735 ], [ 20552.25, 5916861.75 ], [ 20552.325, 5916861.75 ], [ 20552.325, 5916862.200000000186265 ], [ 20552.400000000001455, 5916862.200000000186265 ], [ 20552.400000000001455, 5916862.650000000372529 ], [ 20552.474999999998545, 5916862.650000000372529 ], [ 20552.474999999998545, 5916863.099999999627471 ], [ 20552.55, 5916863.099999999627471 ], [ 20552.55, 5916863.25 ], [ 20552.474999999998545, 5916863.25 ], [ 20552.474999999998545, 5916864.150000000372529 ], [ 20552.400000000001455, 5916864.150000000372529 ], [ 20552.400000000001455, 5916864.900000000372529 ], [ 20552.325, 5916864.900000000372529 ], [ 20552.325, 5916865.275000000372529 ], [ 20552.25, 5916865.275000000372529 ], [ 20552.25, 5916865.424999999813735 ], [ 20552.175, 5916865.424999999813735 ], [ 20552.175, 5916865.575000000186265 ], [ 20552.099999999998545, 5916865.575000000186265 ], [ 20552.099999999998545, 5916865.724999999627471 ], [ 20552.025000000001455, 5916865.724999999627471 ], [ 20552.025000000001455, 5916865.875 ], [ 20551.95, 5916865.875 ], [ 20551.95, 5916865.950000000186265 ], [ 20551.875, 5916865.950000000186265 ], [ 20551.875, 5916866.025000000372529 ], [ 20551.8, 5916866.025000000372529 ], [ 20551.8, 5916866.099999999627471 ], [ 20551.724999999998545, 5916866.099999999627471 ], [ 20551.724999999998545, 5916866.25 ], [ 20551.650000000001455, 5916866.25 ], [ 20551.650000000001455, 5916866.325000000186265 ], [ 20551.5, 5916866.325000000186265 ], [ 20551.5, 5916866.400000000372529 ], [ 20551.425, 5916866.400000000372529 ], [ 20551.425, 5916866.474999999627471 ], [ 20551.349999999998545, 5916866.474999999627471 ], [ 20551.349999999998545, 5916866.549999999813735 ], [ 20551.275000000001455, 5916866.549999999813735 ], [ 20551.275000000001455, 5916866.625 ], [ 20551.125, 5916866.625 ], [ 20551.125, 5916866.700000000186265 ], [ 20550.974999999998545, 5916866.700000000186265 ], [ 20550.974999999998545, 5916866.775000000372529 ], [ 20550.900000000001455, 5916866.775000000372529 ], [ 20550.900000000001455, 5916866.849999999627471 ], [ 20550.75, 5916866.849999999627471 ], [ 20550.75, 5916866.924999999813735 ], [ 20550.675, 5916866.924999999813735 ], [ 20550.675, 5916867.0 ], [ 20550.525000000001455, 5916867.0 ], [ 20550.525000000001455, 5916867.075000000186265 ], [ 20550.45, 5916867.075000000186265 ], [ 20550.45, 5916867.150000000372529 ], [ 20550.375, 5916867.150000000372529 ], [ 20550.375, 5916867.224999999627471 ], [ 20550.3, 5916867.224999999627471 ], [ 20550.3, 5916867.299999999813735 ], [ 20550.224999999998545, 5916867.299999999813735 ], [ 20550.224999999998545, 5916867.450000000186265 ], [ 20550.150000000001455, 5916867.450000000186265 ], [ 20550.150000000001455, 5916867.525000000372529 ], [ 20550.075, 5916867.525000000372529 ], [ 20550.075, 5916867.599999999627471 ], [ 20550.0, 5916867.599999999627471 ], [ 20550.0, 5916867.674999999813735 ], [ 20549.925, 5916867.674999999813735 ], [ 20549.925, 5916867.75 ], [ 20549.775000000001455, 5916867.75 ], [ 20549.775000000001455, 5916867.825000000186265 ], [ 20549.7, 5916867.825000000186265 ], [ 20549.7, 5916867.900000000372529 ], [ 20549.625, 5916867.900000000372529 ], [ 20549.625, 5916867.974999999627471 ], [ 20549.474999999998545, 5916867.974999999627471 ], [ 20549.474999999998545, 5916868.049999999813735 ], [ 20549.400000000001455, 5916868.049999999813735 ], [ 20549.400000000001455, 5916868.125 ], [ 20549.25, 5916868.125 ], [ 20549.25, 5916868.200000000186265 ], [ 20549.099999999998545, 5916868.200000000186265 ], [ 20549.099999999998545, 5916868.275000000372529 ], [ 20548.95, 5916868.275000000372529 ], [ 20548.95, 5916868.349999999627471 ], [ 20548.8, 5916868.349999999627471 ], [ 20548.8, 5916868.424999999813735 ], [ 20548.650000000001455, 5916868.424999999813735 ], [ 20548.650000000001455, 5916868.5 ], [ 20548.425, 5916868.5 ], [ 20548.425, 5916868.575000000186265 ], [ 20548.2, 5916868.575000000186265 ], [ 20548.2, 5916868.650000000372529 ], [ 20547.825, 5916868.650000000372529 ], [ 20547.825, 5916868.724999999627471 ], [ 20547.3, 5916868.724999999627471 ], [ 20547.3, 5916868.799999999813735 ], [ 20546.25, 5916868.799999999813735 ], [ 20546.25, 5916868.875 ], [ 20545.05, 5916868.875 ], [ 20545.05, 5916868.950000000186265 ], [ 20542.05, 5916868.950000000186265 ], [ 20542.05, 5916869.025000000372529 ], [ 20541.075, 5916869.025000000372529 ], [ 20541.075, 5916869.099999999627471 ], [ 20540.775000000001455, 5916869.099999999627471 ], [ 20540.775000000001455, 5916869.174999999813735 ], [ 20540.400000000001455, 5916869.174999999813735 ], [ 20540.400000000001455, 5916869.25 ], [ 20539.95, 5916869.25 ], [ 20539.95, 5916869.325000000186265 ], [ 20539.425, 5916869.325000000186265 ], [ 20539.425, 5916869.400000000372529 ], [ 20539.275000000001455, 5916869.400000000372529 ], [ 20539.275000000001455, 5916869.474999999627471 ], [ 20539.05, 5916869.474999999627471 ], [ 20539.05, 5916869.549999999813735 ], [ 20538.900000000001455, 5916869.549999999813735 ], [ 20538.900000000001455, 5916869.625 ], [ 20538.675, 5916869.625 ], [ 20538.675, 5916869.700000000186265 ], [ 20538.525000000001455, 5916869.700000000186265 ], [ 20538.525000000001455, 5916869.775000000372529 ], [ 20538.3, 5916869.775000000372529 ], [ 20538.3, 5916869.849999999627471 ], [ 20538.075, 5916869.849999999627471 ], [ 20538.075, 5916869.924999999813735 ], [ 20537.775000000001455, 5916869.924999999813735 ], [ 20537.775000000001455, 5916870.0 ], [ 20537.474999999998545, 5916870.0 ], [ 20537.474999999998545, 5916870.075000000186265 ], [ 20537.325, 5916870.075000000186265 ], [ 20537.325, 5916870.150000000372529 ], [ 20537.25, 5916870.150000000372529 ], [ 20537.25, 5916870.224999999627471 ], [ 20537.099999999998545, 5916870.224999999627471 ], [ 20537.099999999998545, 5916870.299999999813735 ], [ 20536.95, 5916870.299999999813735 ], [ 20536.95, 5916870.375 ], [ 20536.875, 5916870.375 ], [ 20536.875, 5916870.450000000186265 ], [ 20536.724999999998545, 5916870.450000000186265 ], [ 20536.724999999998545, 5916870.525000000372529 ], [ 20536.650000000001455, 5916870.525000000372529 ], [ 20536.650000000001455, 5916870.599999999627471 ], [ 20536.5, 5916870.599999999627471 ], [ 20536.5, 5916870.674999999813735 ], [ 20536.425, 5916870.674999999813735 ], [ 20536.425, 5916870.75 ], [ 20536.349999999998545, 5916870.75 ], [ 20536.349999999998545, 5916870.825000000186265 ], [ 20536.275000000001455, 5916870.825000000186265 ], [ 20536.275000000001455, 5916870.900000000372529 ], [ 20536.125, 5916870.900000000372529 ], [ 20536.125, 5916870.974999999627471 ], [ 20536.05, 5916870.974999999627471 ], [ 20536.05, 5916871.125 ], [ 20535.974999999998545, 5916871.125 ], [ 20535.974999999998545, 5916871.275000000372529 ], [ 20535.900000000001455, 5916871.275000000372529 ], [ 20535.900000000001455, 5916871.424999999813735 ], [ 20535.825, 5916871.424999999813735 ], [ 20535.825, 5916871.5 ], [ 20535.75, 5916871.5 ], [ 20535.75, 5916871.575000000186265 ], [ 20535.675, 5916871.575000000186265 ], [ 20535.675, 5916871.650000000372529 ], [ 20535.599999999998545, 5916871.650000000372529 ], [ 20535.599999999998545, 5916871.799999999813735 ], [ 20535.525000000001455, 5916871.799999999813735 ], [ 20535.525000000001455, 5916871.875 ], [ 20535.45, 5916871.875 ], [ 20535.45, 5916871.950000000186265 ], [ 20535.375, 5916871.950000000186265 ], [ 20535.375, 5916872.025000000372529 ], [ 20535.3, 5916872.025000000372529 ], [ 20535.3, 5916872.099999999627471 ], [ 20535.224999999998545, 5916872.099999999627471 ], [ 20535.224999999998545, 5916872.174999999813735 ], [ 20535.150000000001455, 5916872.174999999813735 ], [ 20535.150000000001455, 5916872.25 ], [ 20535.075, 5916872.25 ], [ 20535.075, 5916872.400000000372529 ], [ 20535.0, 5916872.400000000372529 ], [ 20535.0, 5916872.474999999627471 ], [ 20534.925, 5916872.474999999627471 ], [ 20534.925, 5916872.549999999813735 ], [ 20534.849999999998545, 5916872.549999999813735 ], [ 20534.849999999998545, 5916872.625 ], [ 20534.775000000001455, 5916872.625 ], [ 20534.775000000001455, 5916872.700000000186265 ], [ 20534.7, 5916872.700000000186265 ], [ 20534.7, 5916872.775000000372529 ], [ 20534.55, 5916872.775000000372529 ], [ 20534.55, 5916872.849999999627471 ], [ 20534.474999999998545, 5916872.849999999627471 ], [ 20534.474999999998545, 5916872.924999999813735 ], [ 20534.400000000001455, 5916872.924999999813735 ], [ 20534.400000000001455, 5916873.375 ], [ 20534.325, 5916873.375 ], [ 20534.325, 5916873.450000000186265 ], [ 20534.175, 5916873.450000000186265 ], [ 20534.175, 5916873.525000000372529 ], [ 20534.025000000001455, 5916873.525000000372529 ], [ 20534.025000000001455, 5916873.599999999627471 ], [ 20533.875, 5916873.599999999627471 ], [ 20533.875, 5916873.674999999813735 ], [ 20533.724999999998545, 5916873.674999999813735 ], [ 20533.724999999998545, 5916873.75 ], [ 20533.575, 5916873.75 ], [ 20533.575, 5916873.825000000186265 ], [ 20533.5, 5916873.825000000186265 ], [ 20533.5, 5916873.900000000372529 ], [ 20533.425, 5916873.900000000372529 ], [ 20533.425, 5916873.974999999627471 ], [ 20533.349999999998545, 5916873.974999999627471 ], [ 20533.349999999998545, 5916874.049999999813735 ], [ 20533.275000000001455, 5916874.049999999813735 ], [ 20533.275000000001455, 5916874.125 ], [ 20533.2, 5916874.125 ], [ 20533.2, 5916874.200000000186265 ], [ 20533.125, 5916874.200000000186265 ], [ 20533.125, 5916874.349999999627471 ], [ 20533.05, 5916874.349999999627471 ], [ 20533.05, 5916874.424999999813735 ], [ 20532.974999999998545, 5916874.424999999813735 ], [ 20532.974999999998545, 5916874.5 ], [ 20532.900000000001455, 5916874.5 ], [ 20532.900000000001455, 5916874.575000000186265 ], [ 20532.825, 5916874.575000000186265 ], [ 20532.825, 5916874.650000000372529 ], [ 20532.75, 5916874.650000000372529 ], [ 20532.75, 5916874.724999999627471 ], [ 20532.675, 5916874.724999999627471 ], [ 20532.675, 5916874.799999999813735 ], [ 20532.599999999998545, 5916874.799999999813735 ], [ 20532.599999999998545, 5916874.875 ], [ 20532.525000000001455, 5916874.875 ], [ 20532.525000000001455, 5916874.950000000186265 ], [ 20532.45, 5916874.950000000186265 ], [ 20532.45, 5916875.099999999627471 ], [ 20532.375, 5916875.099999999627471 ], [ 20532.375, 5916875.174999999813735 ], [ 20532.3, 5916875.174999999813735 ], [ 20532.3, 5916875.25 ], [ 20532.224999999998545, 5916875.25 ], [ 20532.224999999998545, 5916875.325000000186265 ], [ 20532.150000000001455, 5916875.325000000186265 ], [ 20532.150000000001455, 5916875.400000000372529 ], [ 20532.075, 5916875.400000000372529 ], [ 20532.075, 5916875.474999999627471 ], [ 20532.0, 5916875.474999999627471 ], [ 20532.0, 5916875.549999999813735 ], [ 20531.925, 5916875.549999999813735 ], [ 20531.925, 5916875.625 ], [ 20531.849999999998545, 5916875.625 ], [ 20531.849999999998545, 5916875.700000000186265 ], [ 20531.7, 5916875.700000000186265 ], [ 20531.7, 5916875.775000000372529 ], [ 20531.625, 5916875.775000000372529 ], [ 20531.625, 5916875.849999999627471 ], [ 20531.55, 5916875.849999999627471 ], [ 20531.55, 5916875.924999999813735 ], [ 20531.474999999998545, 5916875.924999999813735 ], [ 20531.474999999998545, 5916876.075000000186265 ], [ 20531.400000000001455, 5916876.075000000186265 ], [ 20531.400000000001455, 5916876.150000000372529 ], [ 20531.325, 5916876.150000000372529 ], [ 20531.325, 5916876.224999999627471 ], [ 20531.25, 5916876.224999999627471 ], [ 20531.25, 5916876.299999999813735 ], [ 20531.175, 5916876.299999999813735 ], [ 20531.175, 5916876.375 ], [ 20531.099999999998545, 5916876.375 ], [ 20531.099999999998545, 5916876.525000000372529 ], [ 20531.025000000001455, 5916876.525000000372529 ], [ 20531.025000000001455, 5916876.599999999627471 ], [ 20530.95, 5916876.599999999627471 ], [ 20530.95, 5916876.75 ], [ 20530.875, 5916876.75 ], [ 20530.875, 5916876.825000000186265 ], [ 20530.8, 5916876.825000000186265 ], [ 20530.8, 5916876.974999999627471 ], [ 20530.724999999998545, 5916876.974999999627471 ], [ 20530.724999999998545, 5916877.125 ], [ 20530.650000000001455, 5916877.125 ], [ 20530.650000000001455, 5916877.200000000186265 ], [ 20530.575, 5916877.200000000186265 ], [ 20530.575, 5916877.349999999627471 ], [ 20530.5, 5916877.349999999627471 ], [ 20530.5, 5916877.5 ], [ 20530.425, 5916877.5 ], [ 20530.425, 5916877.575000000186265 ], [ 20530.349999999998545, 5916877.575000000186265 ], [ 20530.349999999998545, 5916877.650000000372529 ], [ 20530.275000000001455, 5916877.650000000372529 ], [ 20530.275000000001455, 5916877.799999999813735 ], [ 20530.2, 5916877.799999999813735 ], [ 20530.2, 5916877.875 ], [ 20530.125, 5916877.875 ], [ 20530.125, 5916877.950000000186265 ], [ 20530.05, 5916877.950000000186265 ], [ 20530.05, 5916878.099999999627471 ], [ 20529.974999999998545, 5916878.099999999627471 ], [ 20529.974999999998545, 5916878.174999999813735 ], [ 20529.900000000001455, 5916878.174999999813735 ], [ 20529.900000000001455, 5916878.25 ], [ 20529.825, 5916878.25 ], [ 20529.825, 5916878.325000000186265 ], [ 20529.75, 5916878.325000000186265 ], [ 20529.75, 5916878.400000000372529 ], [ 20529.675, 5916878.400000000372529 ], [ 20529.675, 5916878.474999999627471 ], [ 20529.599999999998545, 5916878.474999999627471 ], [ 20529.599999999998545, 5916878.549999999813735 ], [ 20529.525000000001455, 5916878.549999999813735 ], [ 20529.525000000001455, 5916878.625 ], [ 20529.375, 5916878.625 ], [ 20529.375, 5916878.700000000186265 ], [ 20529.3, 5916878.700000000186265 ], [ 20529.3, 5916878.775000000372529 ], [ 20529.224999999998545, 5916878.775000000372529 ], [ 20529.224999999998545, 5916878.849999999627471 ], [ 20529.150000000001455, 5916878.849999999627471 ], [ 20529.150000000001455, 5916878.924999999813735 ], [ 20529.0, 5916878.924999999813735 ], [ 20529.0, 5916879.0 ], [ 20528.925, 5916879.0 ], [ 20528.925, 5916879.075000000186265 ], [ 20528.849999999998545, 5916879.075000000186265 ], [ 20528.849999999998545, 5916879.150000000372529 ], [ 20528.775000000001455, 5916879.150000000372529 ], [ 20528.775000000001455, 5916879.224999999627471 ], [ 20528.625, 5916879.224999999627471 ], [ 20528.625, 5916879.299999999813735 ], [ 20528.55, 5916879.299999999813735 ], [ 20528.55, 5916879.375 ], [ 20528.474999999998545, 5916879.375 ], [ 20528.474999999998545, 5916879.450000000186265 ], [ 20528.325, 5916879.450000000186265 ], [ 20528.325, 5916879.525000000372529 ], [ 20528.175, 5916879.525000000372529 ], [ 20528.175, 5916879.599999999627471 ], [ 20528.099999999998545, 5916879.599999999627471 ], [ 20528.099999999998545, 5916879.674999999813735 ], [ 20527.95, 5916879.674999999813735 ], [ 20527.95, 5916879.75 ], [ 20527.8, 5916879.75 ], [ 20527.8, 5916879.825000000186265 ], [ 20527.650000000001455, 5916879.825000000186265 ], [ 20527.650000000001455, 5916879.900000000372529 ], [ 20527.5, 5916879.900000000372529 ], [ 20527.5, 5916879.974999999627471 ], [ 20527.349999999998545, 5916879.974999999627471 ], [ 20527.349999999998545, 5916880.049999999813735 ], [ 20527.125, 5916880.049999999813735 ], [ 20527.125, 5916880.125 ], [ 20526.974999999998545, 5916880.125 ], [ 20526.974999999998545, 5916880.200000000186265 ], [ 20526.75, 5916880.200000000186265 ], [ 20526.75, 5916880.275000000372529 ], [ 20526.525000000001455, 5916880.275000000372529 ], [ 20526.525000000001455, 5916880.349999999627471 ], [ 20526.3, 5916880.349999999627471 ], [ 20526.3, 5916880.424999999813735 ], [ 20526.075, 5916880.424999999813735 ], [ 20526.075, 5916880.5 ], [ 20525.849999999998545, 5916880.5 ], [ 20525.849999999998545, 5916880.575000000186265 ], [ 20525.325, 5916880.575000000186265 ], [ 20525.325, 5916880.650000000372529 ], [ 20524.875, 5916880.650000000372529 ], [ 20524.875, 5916880.724999999627471 ], [ 20524.425, 5916880.724999999627471 ], [ 20524.425, 5916880.799999999813735 ], [ 20524.349999999998545, 5916880.799999999813735 ], [ 20524.349999999998545, 5916880.875 ], [ 20524.275000000001455, 5916880.875 ], [ 20524.275000000001455, 5916880.950000000186265 ], [ 20524.2, 5916880.950000000186265 ], [ 20524.2, 5916881.025000000372529 ], [ 20524.05, 5916881.025000000372529 ], [ 20524.05, 5916881.099999999627471 ], [ 20523.974999999998545, 5916881.099999999627471 ], [ 20523.974999999998545, 5916881.174999999813735 ], [ 20523.75, 5916881.174999999813735 ] ] ] } }
]
}
