{
"type": "FeatureCollection",
"name": "20433E592407N_buildings",
"crs": { "type": "name", "properties": { "name": "urn:ogc:def:crs:EPSG::3776" } },
"features": [
{ "type": "Feature", "properties": { "value": 1.0, "building_id": 0, "area": 48.813749999971421 }, "geometry": { "type": "Polygon", "coordinates": [ [ [ 20500.05, 5924803.950000000186265 ], [ 20500.05, 5924803.875 ], [ 20499.75, 5924803.875 ], [ 20499.75, 5924803.799999999813735 ], [ 20499.375, 5924803.799999999813735 ], [ 20499.375, 5924803.724999999627471 ], [ 20499.075, 5924803.724999999627471 ], [ 20499.075, 5924803.650000000372529 ], [ 20498.775000000001455, 5924803.650000000372529 ], [ 20498.775000000001455, 5924803.575000000186265 ], [ 20498.474999999998545, 5924803.575000000186265 ], [ 20498.474999999998545, 5924803.5 ], [ 20498.325, 5924803.5 ], [ 20498.325, 5924803.424999999813735 ], [ 20498.25, 5924803.424999999813735 ], [ 20498.25, 5924803.349999999627471 ], [ 20498.175, 5924803.349999999627471 ], [ 20498.175, 5924803.275000000372529 ], [ 20498.099999999998545, 5924803.275000000372529 ], [ 20498.099999999998545, 5924803.200000000186265 ], [ 20498.025000000001455, 5924803.200000000186265 ], [ 20498.025000000001455, 5924803.125 ], [ 20497.95, 5924803.125 ], [ 20497.95, 5924802.974999999627471 ], [ 20497.875, 5924802.974999999627471 ], [ 20497.875, 5924802.900000000372529 ], [ 20497.8, 5924802.900000000372529 ], [ 20497.8, 5924802.75 ], [ 20497.724999999998545, 5924802.75 ], [ 20497.724999999998545, 5924802.599999999627471 ], [ 20497.650000000001455, 5924802.599999999627471 ], [ 20497.650000000001455, 5924801.400000000372529 ], [ 20497.575, 5924801.400000000372529 ], [ 20497.575, 5924800.575000000186265 ], [ 20497.650000000001455, 5924800.575000000186265 ], [ 20497.650000000001455, 5924800.424999999813735 ], [ 20497.724999999998545, 5924800.424999999813735 ], [ 20497.724999999998545, 5924800.200000000186265 ], [ 20497.8, 5924800.200000000186265 ], [ 20497.8, 5924800.049999999813735 ], [ 20497.875, 5924800.049999999813735 ], [ 20497.875, 5924799.900000000372529 ], [ 20497.95, 5924799.900000000372529 ], [ 20497.95, 5924799.825000000186265 ], [ 20498.025000000001455, 5924799.825000000186265 ], [ 20498.025000000001455, 5924799.674999999813735 ], [ 20498.099999999998545, 5924799.674999999813735 ], [ 20498.099999999998545, 5924799.599999999627471 ], [ 20498.175, 5924799.599999999627471 ], [ 20498.175, 5924799.450000000186265 ], [ 20498.25, 5924799.450000000186265 ], [ 20498.25, 5924799.375 ], [ 20498.325, 5924799.375 ], [ 20498.325, 5924799.299999999813735 ], [ 20498.400000000001455, 5924799.299999999813735 ], [ 20498.400000000001455, 5924799.224999999627471 ], [ 20498.474999999998545, 5924799.224999999627471 ], [ 20498.474999999998545, 5924799.150000000372529 ], [ 20498.55, 5924799.150000000372529 ], [ 20498.55, 5924799.075000000186265 ], [ 20498.7, 5924799.075000000186265 ], [ 20498.7, 5924799.0 ], [ 20498.775000000001455, 5924799.0 ], [ 20498.775000000001455, 5924798.924999999813735 ], [ 20498.849999999998545, 5924798.924999999813735 ], [ 20498.849999999998545, 5924798.849999999627471 ], [ 20498.925, 5924798.849999999627471 ], [ 20498.925, 5924798.775000000372529 ], [ 20499.0, 5924798.775000000372529 ], [ 20499.0, 5924798.700000000186265 ], [ 20499.075, 5924798.700000000186265 ], [ 20499.075, 5924798.625 ], [ 20499.150000000001455, 5924798.625 ], [ 20499.150000000001455, 5924798.549999999813735 ], [ 20499.224999999998545, 5924798.549999999813735 ], [ 20499.224999999998545, 5924798.474999999627471 ], [ 20499.375, 5924798.474999999627471 ], [ 20499.375, 5924798.400000000372529 ], [ 20499.45, 5924798.400000000372529 ], [ 20499.45, 5924798.325000000186265 ], [ 20499.525000000001455, 5924798.325000000186265 ], [ 20499.525000000001455, 5924798.25 ], [ 20499.675, 5924798.25 ], [ 20499.675, 5924798.174999999813735 ], [ 20499.75, 5924798.174999999813735 ], [ 20499.75, 5924798.099999999627471 ], [ 20499.900000000001455, 5924798.099999999627471 ], [ 20499.900000000001455, 5924798.025000000372529 ], [ 20500.05, 5924798.025000000372529 ], [ 20500.05, 5924797.950000000186265 ], [ 20500.2, 5924797.950000000186265 ], [ 20500.2, 5924797.875 ], [ 20500.349999999998545, 5924797.875 ], [ 20500.349999999998545, 5924797.799999999813735 ], [ 20500.575, 5924797.799999999813735 ], [ 20500.575, 5924797.875 ], [ 20501.099999999998545, 5924797.875 ], [ 20501.099999999998545, 5924797.950000000186265 ], [ 20501.7, 5924797.950000000186265 ], [ 20501.7, 5924798.025000000372529 ], [ 20502.224999999998545, 5924798.025000000372529 ], [ 20502.224999999998545, 5924798.099999999627471 ], [ 20502.675, 5924798.099999999627471 ], [ 20502.675, 5924798.174999999813735 ], [ 20503.125, 5924798.174999999813735 ], [ 20503.125, 5924798.25 ], [ 20503.575, 5924798.25 ], [ 20503.575, 5924798.325000000186265 ], [ 20504.025000000001455, 5924798.325000000186265 ], [ 20504.025000000001455, 5924798.400000000372529 ], [ 20504.400000000001455, 5924798.400000000372529 ], [ 20504.400000000001455, 5924798.474999999627471 ], [ 20504.7, 5924798.474999999627471 ], [ 20504.7, 5924798.549999999813735 ], [ 20504.925, 5924798.549999999813735 ], [ 20504.925, 5924798.625 ], [ 20505.224999999998545, 5924798.625 ], [ 20505.224999999998545, 5924798.700000000186265 ], [ 20505.45, 5924798.700000000186265 ], [ 20505.45, 5924798.775000000372529 ], [ 20505.599999999998545, 5924798.775000000372529 ], [ 20505.599999999998545, 5924798.849999999627471 ], [ 20505.825, 5924798.849999999627471 ], [ 20505.825, 5924798.924999999813735 ], [ 20506.05, 5924798.924999999813735 ], [ 20506.05, 5924799.0 ], [ 20506.275000000001455, 5924799.0 ], [ 20506.275000000001455, 5924799.150000000372529 ], [ 20506.349999999998545, 5924799.150000000372529 ], [ 20506.349999999998545, 5924799.224999999627471 ], [ 20506.425, 5924799.224999999627471 ], [ 20506.425, 5924799.299999999813735 ], [ 20506.5, 5924799.299999999813735 ], [ 20506.5, 5924799.375 ], [ 20506.575, 5924799.375 ], [ 20506.575, 5924799.525000000372529 ], [ 20506.650000000001455, 5924799.525000000372529 ], [ 20506.650000000001455, 5924799.599999999627471 ], [ 20506.724999999998545, 5924799.599999999627471 ], [ 20506.724999999998545, 5924799.674999999813735 ], [ 20506.8, 5924799.674999999813735 ], [ 20506.8, 5924799.75 ], [ 20506.875, 5924799.75 ], [ 20506.875, 5924799.900000000372529 ], [ 20506.95, 5924799.900000000372529 ], [ 20506.95, 5924799.974999999627471 ], [ 20507.025000000001455, 5924799.974999999627471 ], [ 20507.025000000001455, 5924800.125 ], [ 20507.099999999998545, 5924800.125 ], [ 20507.099999999998545, 5924800.200000000186265 ], [ 20507.175, 5924800.200000000186265 ], [ 20507.175, 5924800.349999999627471 ], [ 20507.25, 5924800.349999999627471 ], [ 20507.25, 5924800.424999999813735 ], [ 20507.325, 5924800.424999999813735 ], [ 20507.325, 5924800.575000000186265 ], [ 20507.400000000001455, 5924800.575000000186265 ], [ 20507.400000000001455, 5924800.650000000372529 ], [ 20507.474999999998545, 5924800.650000000372529 ], [ 20507.474999999998545, 5924800.724999999627471 ], [ 20507.400000000001455, 5924800.724999999627471 ], [ 20507.400000000001455, 5924801.25 ], [ 20507.325, 5924801.25 ], [ 20507.325, 5924801.849999999627471 ], [ 20507.25, 5924801.849999999627471 ], [ 20507.25, 5924802.450000000186265 ], [ 20507.175, 5924802.450000000186265 ], [ 20507.175, 5924802.75 ], [ 20507.099999999998545, 5924802.75 ], [ 20507.099999999998545, 5924802.825000000186265 ], [ 20507.025000000001455, 5924802.825000000186265 ], [ 20507.025000000001455, 5924802.900000000372529 ], [ 20506.95, 5924802.900000000372529 ], [ 20506.95, 5924802.974999999627471 ], [ 20506.875, 5924802.974999999627471 ], [ 20506.875, 5924803.049999999813735 ], [ 20506.8, 5924803.049999999813735 ], [ 20506.8, 5924803.125 ], [ 20506.724999999998545, 5924803.125 ], [ 20506.724999999998545, 5924803.200000000186265 ], [ 20506.650000000001455, 5924803.200000000186265 ], [ 20506.650000000001455, 5924803.275000000372529 ], [ 20506.575, 5924803.275000000372529 ], [ 20506.575, 5924803.349999999627471 ], [ 20506.5, 5924803.349999999627471 ], [ 20506.5, 5924803.424999999813735 ], [ 20506.349999999998545, 5924803.424999999813735 ], [ 20506.349999999998545, 5924803.5 ], [ 20506.275000000001455, 5924803.5 ], [ 20506.275000000001455, 5924803.575000000186265 ], [ 20505.525000000001455, 5924803.575000000186265 ], [ 20505.525000000001455, 5924803.650000000372529 ], [ 20504.7, 5924803.650000000372529 ], [ 20504.7, 5924803.724999999627471 ], [ 20503.724999999998545, 5924803.724999999627471 ], [ 20503.724999999998545, 5924803.799999999813735 ], [ 20502.525000000001455, 5924803.799999999813735 ], [ 20502.525000000001455, 5924803.875 ], [ 20501.325, 5924803.875 ], [ 20501.325, 5924803.950000000186265 ], [ 20500.05, 5924803.950000000186265 ] ] ] } },
{ "type": "Feature", "properties": { "value": 1.0, "building_id": 1, "area": 137.08125000013754 }, "geometry": { "type": "Polygon", "coordinates": [ [ [ 20459.099999999998545, 5924665.575000000186265 ], [ 20459.099999999998545, 5924665.5 ], [ 20458.650000000001455, 5924665.5 ], [ 20458.650000000001455, 5924665.424999999813735 ], [ 20458.275000000001455, 5924665.424999999813735 ], [ 20458.275000000001455, 5924665.349999999627471 ], [ 20457.825, 5924665.349999999627471 ], [ 20457.825, 5924665.275000000372529 ], [ 20457.375, 5924665.275000000372529 ], [ 20457.375, 5924665.200000000186265 ], [ 20456.775000000001455, 5924665.200000000186265 ], [ 20456.775000000001455, 5924665.125 ], [ 20456.099999999998545, 5924665.125 ], [ 20456.099999999998545, 5924665.049999999813735 ], [ 20455.5, 5924665.049999999813735 ], [ 20455.5, 5924664.974999999627471 ], [ 20454.900000000001455, 5924664.974999999627471 ], [ 20454.900000000001455, 5924664.900000000372529 ], [ 20454.375, 5924664.900000000372529 ], [ 20454.375, 5924664.825000000186265 ], [ 20453.849999999998545, 5924664.825000000186265 ], [ 20453.849999999998545, 5924664.75 ], [ 20453.474999999998545, 5924664.75 ], [ 20453.474999999998545, 5924664.674999999813735 ], [ 20453.325, 5924664.674999999813735 ], [ 20453.325, 5924664.599999999627471 ], [ 20453.175, 5924664.599999999627471 ], [ 20453.175, 5924664.525000000372529 ], [ 20453.025000000001455, 5924664.525000000372529 ], [ 20453.025000000001455, 5924664.450000000186265 ], [ 20452.95, 5924664.450000000186265 ], [ 20452.95, 5924664.375 ], [ 20452.8, 5924664.375 ], [ 20452.8, 5924664.299999999813735 ], [ 20452.724999999998545, 5924664.299999999813735 ], [ 20452.724999999998545, 5924664.224999999627471 ], [ 20452.650000000001455, 5924664.224999999627471 ], [ 20452.650000000001455, 5924664.150000000372529 ], [ 20452.575, 5924664.150000000372529 ], [ 20452.575, 5924664.075000000186265 ], [ 20452.425, 5924664.075000000186265 ], [ 20452.425, 5924663.924999999813735 ], [ 20452.349999999998545, 5924663.924999999813735 ], [ 20452.349999999998545, 5924663.849999999627471 ], [ 20452.275000000001455, 5924663.849999999627471 ], [ 20452.275000000001455, 5924663.775000000372529 ], [ 20452.2, 5924663.775000000372529 ], [ 20452.2, 5924663.700000000186265 ], [ 20452.125, 5924663.700000000186265 ], [ 20452.125, 5924663.625 ], [ 20452.05, 5924663.625 ], [ 20452.05, 5924663.549999999813735 ], [ 20451.974999999998545, 5924663.549999999813735 ], [ 20451.974999999998545, 5924663.474999999627471 ], [ 20451.900000000001455, 5924663.474999999627471 ], [ 20451.900000000001455, 5924663.400000000372529 ], [ 20451.825, 5924663.400000000372529 ], [ 20451.825, 5924663.325000000186265 ], [ 20451.675, 5924663.325000000186265 ], [ 20451.675, 5924663.25 ], [ 20451.599999999998545, 5924663.25 ], [ 20451.599999999998545, 5924663.174999999813735 ], [ 20451.525000000001455, 5924663.174999999813735 ], [ 20451.525000000001455, 5924663.099999999627471 ], [ 20451.45, 5924663.099999999627471 ], [ 20451.45, 5924663.025000000372529 ], [ 20451.375, 5924663.025000000372529 ], [ 20451.375, 5924662.950000000186265 ], [ 20451.3, 5924662.950000000186265 ], [ 20451.3, 5924662.875 ], [ 20451.224999999998545, 5924662.875 ], [ 20451.224999999998545, 5924662.799999999813735 ], [ 20451.150000000001455, 5924662.799999999813735 ], [ 20451.150000000001455, 5924662.724999999627471 ], [ 20451.075, 5924662.724999999627471 ], [ 20451.075, 5924662.650000000372529 ], [ 20451.0, 5924662.650000000372529 ], [ 20451.0, 5924662.5 ], [ 20450.925, 5924662.5 ], [ 20450.925, 5924662.349999999627471 ], [ 20450.849999999998545, 5924662.349999999627471 ], [ 20450.849999999998545, 5924662.275000000372529 ], [ 20450.775000000001455, 5924662.275000000372529 ], [ 20450.775000000001455, 5924662.125 ], [ 20450.7, 5924662.125 ], [ 20450.7, 5924660.700000000186265 ], [ 20450.625, 5924660.700000000186265 ], [ 20450.625, 5924660.025000000372529 ], [ 20450.7, 5924660.025000000372529 ], [ 20450.7, 5924659.799999999813735 ], [ 20450.775000000001455, 5924659.799999999813735 ], [ 20450.775000000001455, 5924659.575000000186265 ], [ 20450.849999999998545, 5924659.575000000186265 ], [ 20450.849999999998545, 5924659.424999999813735 ], [ 20450.925, 5924659.424999999813735 ], [ 20450.925, 5924659.200000000186265 ], [ 20451.0, 5924659.200000000186265 ], [ 20451.0, 5924659.049999999813735 ], [ 20451.075, 5924659.049999999813735 ], [ 20451.075, 5924658.900000000372529 ], [ 20451.150000000001455, 5924658.900000000372529 ], [ 20451.150000000001455, 5924658.674999999813735 ], [ 20451.224999999998545, 5924658.674999999813735 ], [ 20451.224999999998545, 5924658.525000000372529 ], [ 20451.3, 5924658.525000000372529 ], [ 20451.3, 5924658.450000000186265 ], [ 20451.375, 5924658.450000000186265 ], [ 20451.375, 5924658.299999999813735 ], [ 20451.45, 5924658.299999999813735 ], [ 20451.45, 5924658.150000000372529 ], [ 20451.525000000001455, 5924658.150000000372529 ], [ 20451.525000000001455, 5924658.075000000186265 ], [ 20451.599999999998545, 5924658.075000000186265 ], [ 20451.599999999998545, 5924658.0 ], [ 20451.675, 5924658.0 ], [ 20451.675, 5924657.924999999813735 ], [ 20451.75, 5924657.924999999813735 ], [ 20451.75, 5924657.849999999627471 ], [ 20451.900000000001455, 5924657.849999999627471 ], [ 20451.900000000001455, 5924657.775000000372529 ], [ 20451.974999999998545, 5924657.775000000372529 ], [ 20451.974999999998545, 5924657.700000000186265 ], [ 20452.05, 5924657.700000000186265 ], [ 20452.05, 5924657.625 ], [ 20452.2, 5924657.625 ], [ 20452.2, 5924657.549999999813735 ], [ 20452.275000000001455, 5924657.549999999813735 ], [ 20452.275000000001455, 5924657.474999999627471 ], [ 20452.349999999998545, 5924657.474999999627471 ], [ 20452.349999999998545, 5924657.400000000372529 ], [ 20452.5, 5924657.400000000372529 ], [ 20452.5, 5924657.325000000186265 ], [ 20452.575, 5924657.325000000186265 ], [ 20452.575, 5924657.25 ], [ 20452.650000000001455, 5924657.25 ], [ 20452.650000000001455, 5924657.174999999813735 ], [ 20452.8, 5924657.174999999813735 ], [ 20452.8, 5924657.099999999627471 ], [ 20452.875, 5924657.099999999627471 ], [ 20452.875, 5924657.025000000372529 ], [ 20452.95, 5924657.025000000372529 ], [ 20452.95, 5924656.950000000186265 ], [ 20453.099999999998545, 5924656.950000000186265 ], [ 20453.099999999998545, 5924656.875 ], [ 20453.175, 5924656.875 ], [ 20453.175, 5924656.799999999813735 ], [ 20453.25, 5924656.799999999813735 ], [ 20453.25, 5924656.724999999627471 ], [ 20453.400000000001455, 5924656.724999999627471 ], [ 20453.400000000001455, 5924656.650000000372529 ], [ 20453.474999999998545, 5924656.650000000372529 ], [ 20453.474999999998545, 5924656.575000000186265 ], [ 20453.55, 5924656.575000000186265 ], [ 20453.55, 5924656.5 ], [ 20453.7, 5924656.5 ], [ 20453.7, 5924656.424999999813735 ], [ 20453.775000000001455, 5924656.424999999813735 ], [ 20453.775000000001455, 5924656.349999999627471 ], [ 20453.849999999998545, 5924656.349999999627471 ], [ 20453.849999999998545, 5924656.275000000372529 ], [ 20453.925, 5924656.275000000372529 ], [ 20453.925, 5924656.200000000186265 ], [ 20454.0, 5924656.200000000186265 ], [ 20454.0, 5924656.125 ], [ 20454.075, 5924656.125 ], [ 20454.075, 5924656.049999999813735 ], [ 20454.150000000001455, 5924656.049999999813735 ], [ 20454.150000000001455, 5924655.974999999627471 ], [ 20454.3, 5924655.974999999627471 ], [ 20454.3, 5924655.900000000372529 ], [ 20454.375, 5924655.900000000372529 ], [ 20454.375, 5924655.825000000186265 ], [ 20454.45, 5924655.825000000186265 ], [ 20454.45, 5924655.75 ], [ 20454.599999999998545, 5924655.75 ], [ 20454.599999999998545, 5924655.674999999813735 ], [ 20454.675, 5924655.674999999813735 ], [ 20454.675, 5924655.599999999627471 ], [ 20454.825, 5924655.599999999627471 ], [ 20454.825, 5924655.525000000372529 ], [ 20454.974999999998545, 5924655.525000000372529 ], [ 20454.974999999998545, 5924655.450000000186265 ], [ 20455.125, 5924655.450000000186265 ], [ 20455.125, 5924655.375 ], [ 20455.275000000001455, 5924655.375 ], [ 20455.275000000001455, 5924655.299999999813735 ], [ 20455.425, 5924655.299999999813735 ], [ 20455.425, 5924655.224999999627471 ], [ 20455.575, 5924655.224999999627471 ], [ 20455.575, 5924655.150000000372529 ], [ 20455.8, 5924655.150000000372529 ], [ 20455.8, 5924655.075000000186265 ], [ 20456.025000000001455, 5924655.075000000186265 ], [ 20456.025000000001455, 5924655.0 ], [ 20456.25, 5924655.0 ], [ 20456.25, 5924654.924999999813735 ], [ 20456.400000000001455, 5924654.924999999813735 ], [ 20456.400000000001455, 5924654.849999999627471 ], [ 20456.625, 5924654.849999999627471 ], [ 20456.625, 5924654.775000000372529 ], [ 20456.775000000001455, 5924654.775000000372529 ], [ 20456.775000000001455, 5924654.700000000186265 ], [ 20457.0, 5924654.700000000186265 ], [ 20457.0, 5924654.625 ], [ 20457.150000000001455, 5924654.625 ], [ 20457.150000000001455, 5924654.549999999813735 ], [ 20457.3, 5924654.549999999813735 ], [ 20457.3, 5924654.474999999627471 ], [ 20457.525000000001455, 5924654.474999999627471 ], [ 20457.525000000001455, 5924654.400000000372529 ], [ 20457.675, 5924654.400000000372529 ], [ 20457.675, 5924654.325000000186265 ], [ 20457.825, 5924654.325000000186265 ], [ 20457.825, 5924654.25 ], [ 20457.974999999998545, 5924654.25 ], [ 20457.974999999998545, 5924654.174999999813735 ], [ 20458.8, 5924654.174999999813735 ], [ 20458.8, 5924654.25 ], [ 20459.7, 5924654.25 ], [ 20459.7, 5924654.325000000186265 ], [ 20460.150000000001455, 5924654.325000000186265 ], [ 20460.150000000001455, 5924654.400000000372529 ], [ 20460.599999999998545, 5924654.400000000372529 ], [ 20460.599999999998545, 5924654.474999999627471 ], [ 20461.125, 5924654.474999999627471 ], [ 20461.125, 5924654.549999999813735 ], [ 20461.650000000001455, 5924654.549999999813735 ], [ 20461.650000000001455, 5924654.625 ], [ 20462.25, 5924654.625 ], [ 20462.25, 5924654.700000000186265 ], [ 20462.775000000001455, 5924654.700000000186265 ], [ 20462.775000000001455, 5924654.775000000372529 ], [ 20463.3, 5924654.775000000372529 ], [ 20463.3, 5924654.849999999627471 ], [ 20463.75, 5924654.849999999627471 ], [ 20463.75, 5924654.924999999813735 ], [ 20464.05, 5924654.924999999813735 ], [ 20464.05, 5924655.0 ], [ 20464.2, 5924655.0 ], [ 20464.2, 5924655.075000000186265 ], [ 20464.275000000001455, 5924655.075000000186265 ], [ 20464.275000000001455, 5924655.150000000372529 ], [ 20464.349999999998545, 5924655.150000000372529 ], [ 20464.349999999998545, 5924655.224999999627471 ], [ 20464.425, 5924655.224999999627471 ], [ 20464.425, 5924655.375 ], [ 20464.5, 5924655.375 ], [ 20464.5, 5924655.450000000186265 ], [ 20464.575, 5924655.450000000186265 ], [ 20464.575, 5924655.599999999627471 ], [ 20464.650000000001455, 5924655.599999999627471 ], [ 20464.650000000001455, 5924655.75 ], [ 20464.724999999998545, 5924655.75 ], [ 20464.724999999998545, 5924655.974999999627471 ], [ 20464.8, 5924655.974999999627471 ], [ 20464.8, 5924656.200000000186265 ], [ 20464.875, 5924656.200000000186265 ], [ 20464.875, 5924656.349999999627471 ], [ 20464.95, 5924656.349999999627471 ], [ 20464.95, 5924656.424999999813735 ], [ 20465.025000000001455, 5924656.424999999813735 ], [ 20465.025000000001455, 5924656.575000000186265 ], [ 20465.099999999998545, 5924656.575000000186265 ], [ 20465.099999999998545, 5924656.724999999627471 ], [ 20465.175, 5924656.724999999627471 ], [ 20465.175, 5924656.799999999813735 ], [ 20465.25, 5924656.799999999813735 ], [ 20465.25, 5924656.950000000186265 ], [ 20465.325, 5924656.950000000186265 ], [ 20465.325, 5924657.025000000372529 ], [ 20465.400000000001455, 5924657.025000000372529 ], [ 20465.400000000001455, 5924657.174999999813735 ], [ 20465.474999999998545, 5924657.174999999813735 ], [ 20465.474999999998545, 5924657.325000000186265 ], [ 20465.55, 5924657.325000000186265 ], [ 20465.55, 5924657.474999999627471 ], [ 20465.625, 5924657.474999999627471 ], [ 20465.625, 5924657.625 ], [ 20465.7, 5924657.625 ], [ 20465.7, 5924657.849999999627471 ], [ 20465.775000000001455, 5924657.849999999627471 ], [ 20465.775000000001455, 5924658.075000000186265 ], [ 20465.849999999998545, 5924658.075000000186265 ], [ 20465.849999999998545, 5924658.450000000186265 ], [ 20465.925, 5924658.450000000186265 ], [ 20465.925, 5924658.900000000372529 ], [ 20466.0, 5924658.900000000372529 ], [ 20466.0, 5924659.349999999627471 ], [ 20466.075, 5924659.349999999627471 ], [ 20466.075, 5924659.950000000186265 ], [ 20466.150000000001455, 5924659.950000000186265 ], [ 20466.150000000001455, 5924660.099999999627471 ], [ 20466.075, 5924660.099999999627471 ], [ 20466.075, 5924660.625 ], [ 20466.0, 5924660.625 ], [ 20466.0, 5924661.150000000372529 ], [ 20465.925, 5924661.150000000372529 ], [ 20465.925, 5924661.599999999627471 ], [ 20465.849999999998545, 5924661.599999999627471 ], [ 20465.849999999998545, 5924662.049999999813735 ], [ 20465.775000000001455, 5924662.049999999813735 ], [ 20465.775000000001455, 5924662.125 ], [ 20465.7, 5924662.125 ], [ 20465.7, 5924662.200000000186265 ], [ 20465.625, 5924662.200000000186265 ], [ 20465.625, 5924662.349999999627471 ], [ 20465.55, 5924662.349999999627471 ], [ 20465.55, 5924662.424999999813735 ], [ 20465.474999999998545, 5924662.424999999813735 ], [ 20465.474999999998545, 5924662.5 ], [ 20465.400000000001455, 5924662.5 ], [ 20465.400000000001455, 5924662.575000000186265 ], [ 20465.325, 5924662.575000000186265 ], [ 20465.325, 5924662.650000000372529 ], [ 20465.175, 5924662.650000000372529 ], [ 20465.175, 5924662.724999999627471 ], [ 20465.099999999998545, 5924662.724999999627471 ], [ 20465.099999999998545, 5924662.799999999813735 ], [ 20464.95, 5924662.799999999813735 ], [ 20464.95, 5924662.875 ], [ 20464.875, 5924662.875 ], [ 20464.875, 5924662.950000000186265 ], [ 20464.8, 5924662.950000000186265 ], [ 20464.8, 5924663.025000000372529 ], [ 20464.724999999998545, 5924663.025000000372529 ], [ 20464.724999999998545, 5924663.099999999627471 ], [ 20464.650000000001455, 5924663.099999999627471 ], [ 20464.650000000001455, 5924663.174999999813735 ], [ 20464.575, 5924663.174999999813735 ], [ 20464.575, 5924663.25 ], [ 20464.5, 5924663.25 ], [ 20464.5, 5924663.325000000186265 ], [ 20464.425, 5924663.325000000186265 ], [ 20464.425, 5924663.400000000372529 ], [ 20464.349999999998545, 5924663.400000000372529 ], [ 20464.349999999998545, 5924663.474999999627471 ], [ 20464.275000000001455, 5924663.474999999627471 ], [ 20464.275000000001455, 5924663.549999999813735 ], [ 20464.2, 5924663.549999999813735 ], [ 20464.2, 5924663.625 ], [ 20464.125, 5924663.625 ], [ 20464.125, 5924663.775000000372529 ], [ 20464.05, 5924663.775000000372529 ], [ 20464.05, 5924663.849999999627471 ], [ 20463.974999999998545, 5924663.849999999627471 ], [ 20463.974999999998545, 5924664.0 ], [ 20463.900000000001455, 5924664.0 ], [ 20463.900000000001455, 5924664.075000000186265 ], [ 20463.825, 5924664.075000000186265 ], [ 20463.825, 5924664.150000000372529 ], [ 20463.75, 5924664.150000000372529 ], [ 20463.75, 5924664.224999999627471 ], [ 20463.675, 5924664.224999999627471 ], [ 20463.675, 5924664.299999999813735 ], [ 20463.599999999998545, 5924664.299999999813735 ], [ 20463.599999999998545, 5924664.375 ], [ 20463.525000000001455, 5924664.375 ], [ 20463.525000000001455, 5924664.450000000186265 ], [ 20463.45, 5924664.450000000186265 ], [ 20463.45, 5924664.525000000372529 ], [ 20463.3, 5924664.525000000372529 ], [ 20463.3, 5924664.599999999627471 ], [ 20463.150000000001455, 5924664.599999999627471 ], [ 20463.150000000001455, 5924664.674999999813735 ], [ 20463.0, 5924664.674999999813735 ], [ 20463.0, 5924664.75 ], [ 20462.775000000001455, 5924664.75 ], [ 20462.775000000001455, 5924664.825000000186265 ], [ 20462.55, 5924664.825000000186265 ], [ 20462.55, 5924664.900000000372529 ], [ 20462.325, 5924664.900000000372529 ], [ 20462.325, 5924664.974999999627471 ], [ 20462.099999999998545, 5924664.974999999627471 ], [ 20462.099999999998545, 5924665.049999999813735 ], [ 20461.875, 5924665.049999999813735 ], [ 20461.875, 5924665.125 ], [ 20461.650000000001455, 5924665.125 ], [ 20461.650000000001455, 5924665.200000000186265 ], [ 20461.425, 5924665.200000000186265 ], [ 20461.425, 5924665.275000000372529 ], [ 20460.974999999998545, 5924665.275000000372529 ], [ 20460.974999999998545, 5924665.349999999627471 ], [ 20460.525000000001455, 5924665.349999999627471 ], [ 20460.525000000001455, 5924665.424999999813735 ], [ 20460.075, 5924665.424999999813735 ], [ 20460.075, 5924665.5 ], [ 20459.7, 5924665.5 ], [ 20459.7, 5924665.575000000186265 ], [ 20459.099999999998545, 5924665.575000000186265 ] ] ] } },
{ "type": "Feature", "properties": { "value": 1.0, "building_id": 2, "area": 1800.7256249918194 }, "geometry": { "type": "Polygon", "coordinates": [ [ [ 20505.150000000001455, 5924496.674999999813735 ], [ 20505.150000000001455, 5924496.599999999627471 ], [ 20503.05, 5924496.599999999627471 ], [ 20503.05, 5924496.525000000372529 ], [ 20501.55, 5924496.525000000372529 ], [ 20501.55, 5924496.450000000186265 ], [ 20501.325, 5924496.450000000186265 ], [ 20501.325, 5924496.375 ], [ 20501.175, 5924496.375 ], [ 20501.175, 5924496.299999999813735 ], [ 20500.95, 5924496.299999999813735 ], [ 20500.95, 5924496.224999999627471 ], [ 20500.8, 5924496.224999999627471 ], [ 20500.8, 5924496.150000000372529 ], [ 20500.650000000001455, 5924496.150000000372529 ], [ 20500.650000000001455, 5924496.075000000186265 ], [ 20500.5, 5924496.075000000186265 ], [ 20500.5, 5924496.0 ], [ 20500.275000000001455, 5924496.0 ], [ 20500.275000000001455, 5924495.924999999813735 ], [ 20499.900000000001455, 5924495.924999999813735 ], [ 20499.900000000001455, 5924495.849999999627471 ], [ 20499.45, 5924495.849999999627471 ], [ 20499.45, 5924495.775000000372529 ], [ 20499.0, 5924495.775000000372529 ], [ 20499.0, 5924495.700000000186265 ], [ 20498.55, 5924495.700000000186265 ], [ 20498.55, 5924495.625 ], [ 20497.95, 5924495.625 ], [ 20497.95, 5924495.549999999813735 ], [ 20497.275000000001455, 5924495.549999999813735 ], [ 20497.275000000001455, 5924495.474999999627471 ], [ 20496.525000000001455, 5924495.474999999627471 ], [ 20496.525000000001455, 5924495.400000000372529 ], [ 20495.474999999998545, 5924495.400000000372529 ], [ 20495.474999999998545, 5924495.325000000186265 ], [ 20494.425, 5924495.325000000186265 ], [ 20494.425, 5924495.25 ], [ 20493.375, 5924495.25 ], [ 20493.375, 5924495.174999999813735 ], [ 20492.325, 5924495.174999999813735 ], [ 20492.325, 5924495.099999999627471 ], [ 20490.675, 5924495.099999999627471 ], [ 20490.675, 5924495.025000000372529 ], [ 20490.375, 5924495.025000000372529 ], [ 20490.375, 5924495.099999999627471 ], [ 20484.45, 5924495.099999999627471 ], [ 20484.45, 5924495.174999999813735 ], [ 20477.925, 5924495.174999999813735 ], [ 20477.925, 5924495.25 ], [ 20476.425, 5924495.25 ], [ 20476.425, 5924495.174999999813735 ], [ 20474.25, 5924495.174999999813735 ], [ 20474.25, 5924495.099999999627471 ], [ 20472.825, 5924495.099999999627471 ], [ 20472.825, 5924495.025000000372529 ], [ 20471.474999999998545, 5924495.025000000372529 ], [ 20471.474999999998545, 5924494.950000000186265 ], [ 20470.125, 5924494.950000000186265 ], [ 20470.125, 5924494.875 ], [ 20469.075, 5924494.875 ], [ 20469.075, 5924494.799999999813735 ], [ 20468.925, 5924494.799999999813735 ], [ 20468.925, 5924494.724999999627471 ], [ 20468.775000000001455, 5924494.724999999627471 ], [ 20468.775000000001455, 5924494.650000000372529 ], [ 20468.625, 5924494.650000000372529 ], [ 20468.625, 5924494.575000000186265 ], [ 20468.474999999998545, 5924494.575000000186265 ], [ 20468.474999999998545, 5924494.5 ], [ 20468.325, 5924494.5 ], [ 20468.325, 5924494.424999999813735 ], [ 20468.175, 5924494.424999999813735 ], [ 20468.175, 5924494.349999999627471 ], [ 20468.099999999998545, 5924494.349999999627471 ], [ 20468.099999999998545, 5924494.275000000372529 ], [ 20468.025000000001455, 5924494.275000000372529 ], [ 20468.025000000001455, 5924494.200000000186265 ], [ 20467.875, 5924494.200000000186265 ], [ 20467.875, 5924494.125 ], [ 20467.8, 5924494.125 ], [ 20467.8, 5924494.049999999813735 ], [ 20467.724999999998545, 5924494.049999999813735 ], [ 20467.724999999998545, 5924493.974999999627471 ], [ 20467.650000000001455, 5924493.974999999627471 ], [ 20467.650000000001455, 5924493.900000000372529 ], [ 20467.5, 5924493.900000000372529 ], [ 20467.5, 5924493.825000000186265 ], [ 20467.425, 5924493.825000000186265 ], [ 20467.425, 5924493.75 ], [ 20467.275000000001455, 5924493.75 ], [ 20467.275000000001455, 5924493.674999999813735 ], [ 20467.2, 5924493.674999999813735 ], [ 20467.2, 5924493.599999999627471 ], [ 20467.05, 5924493.599999999627471 ], [ 20467.05, 5924493.525000000372529 ], [ 20466.974999999998545, 5924493.525000000372529 ], [ 20466.974999999998545, 5924493.450000000186265 ], [ 20466.825, 5924493.450000000186265 ], [ 20466.825, 5924493.375 ], [ 20466.75, 5924493.375 ], [ 20466.75, 5924493.299999999813735 ], [ 20466.675, 5924493.299999999813735 ], [ 20466.675, 5924493.224999999627471 ], [ 20466.599999999998545, 5924493.224999999627471 ], [ 20466.599999999998545, 5924493.150000000372529 ], [ 20466.525000000001455, 5924493.150000000372529 ], [ 20466.525000000001455, 5924493.075000000186265 ], [ 20466.45, 5924493.075000000186265 ], [ 20466.45, 5924493.0 ], [ 20466.375, 5924493.0 ], [ 20466.375, 5924492.924999999813735 ], [ 20466.3, 5924492.924999999813735 ], [ 20466.3, 5924492.849999999627471 ], [ 20466.224999999998545, 5924492.849999999627471 ], [ 20466.224999999998545, 5924492.700000000186265 ], [ 20466.150000000001455, 5924492.700000000186265 ], [ 20466.150000000001455, 5924492.625 ], [ 20466.075, 5924492.625 ], [ 20466.075, 5924492.474999999627471 ], [ 20466.0, 5924492.474999999627471 ], [ 20466.0, 5924492.400000000372529 ], [ 20465.925, 5924492.400000000372529 ], [ 20465.925, 5924492.25 ], [ 20465.849999999998545, 5924492.25 ], [ 20465.849999999998545, 5924492.099999999627471 ], [ 20465.775000000001455, 5924492.099999999627471 ], [ 20465.775000000001455, 5924491.875 ], [ 20465.7, 5924491.875 ], [ 20465.7, 5924491.650000000372529 ], [ 20465.625, 5924491.650000000372529 ], [ 20465.625, 5924491.5 ], [ 20465.55, 5924491.5 ], [ 20465.55, 5924491.275000000372529 ], [ 20465.474999999998545, 5924491.275000000372529 ], [ 20465.474999999998545, 5924491.125 ], [ 20465.400000000001455, 5924491.125 ], [ 20465.400000000001455, 5924490.900000000372529 ], [ 20465.325, 5924490.900000000372529 ], [ 20465.325, 5924490.75 ], [ 20465.25, 5924490.75 ], [ 20465.25, 5924490.599999999627471 ], [ 20465.175, 5924490.599999999627471 ], [ 20465.175, 5924490.525000000372529 ], [ 20465.099999999998545, 5924490.525000000372529 ], [ 20465.099999999998545, 5924490.375 ], [ 20465.025000000001455, 5924490.375 ], [ 20465.025000000001455, 5924490.299999999813735 ], [ 20464.95, 5924490.299999999813735 ], [ 20464.95, 5924490.150000000372529 ], [ 20464.875, 5924490.150000000372529 ], [ 20464.875, 5924490.075000000186265 ], [ 20464.8, 5924490.075000000186265 ], [ 20464.8, 5924489.924999999813735 ], [ 20464.724999999998545, 5924489.924999999813735 ], [ 20464.724999999998545, 5924489.775000000372529 ], [ 20464.650000000001455, 5924489.775000000372529 ], [ 20464.650000000001455, 5924489.625 ], [ 20464.575, 5924489.625 ], [ 20464.575, 5924489.474999999627471 ], [ 20464.5, 5924489.474999999627471 ], [ 20464.5, 5924489.325000000186265 ], [ 20464.425, 5924489.325000000186265 ], [ 20464.425, 5924489.174999999813735 ], [ 20464.349999999998545, 5924489.174999999813735 ], [ 20464.349999999998545, 5924488.950000000186265 ], [ 20464.275000000001455, 5924488.950000000186265 ], [ 20464.275000000001455, 5924488.799999999813735 ], [ 20464.2, 5924488.799999999813735 ], [ 20464.2, 5924488.575000000186265 ], [ 20464.125, 5924488.575000000186265 ], [ 20464.125, 5924488.349999999627471 ], [ 20464.05, 5924488.349999999627471 ], [ 20464.05, 5924488.125 ], [ 20463.974999999998545, 5924488.125 ], [ 20463.974999999998545, 5924487.674999999813735 ], [ 20463.900000000001455, 5924487.674999999813735 ], [ 20463.900000000001455, 5924487.224999999627471 ], [ 20463.825, 5924487.224999999627471 ], [ 20463.825, 5924486.700000000186265 ], [ 20463.75, 5924486.700000000186265 ], [ 20463.75, 5924486.25 ], [ 20463.675, 5924486.25 ], [ 20463.675, 5924485.5 ], [ 20463.599999999998545, 5924485.5 ], [ 20463.599999999998545, 5924484.75 ], [ 20463.525000000001455, 5924484.75 ], [ 20463.525000000001455, 5924483.849999999627471 ], [ 20463.45, 5924483.849999999627471 ], [ 20463.45, 5924482.724999999627471 ], [ 20463.375, 5924482.724999999627471 ], [ 20463.375, 5924479.875 ], [ 20463.45, 5924479.875 ], [ 20463.45, 5924478.900000000372529 ], [ 20463.525000000001455, 5924478.900000000372529 ], [ 20463.525000000001455, 5924478.075000000186265 ], [ 20463.599999999998545, 5924478.075000000186265 ], [ 20463.599999999998545, 5924477.325000000186265 ], [ 20463.675, 5924477.325000000186265 ], [ 20463.675, 5924476.575000000186265 ], [ 20463.75, 5924476.575000000186265 ], [ 20463.75, 5924475.900000000372529 ], [ 20463.825, 5924475.900000000372529 ], [ 20463.825, 5924475.224999999627471 ], [ 20463.900000000001455, 5924475.224999999627471 ], [ 20463.900000000001455, 5924474.474999999627471 ], [ 20463.974999999998545, 5924474.474999999627471 ], [ 20463.974999999998545, 5924473.575000000186265 ], [ 20464.05, 5924473.575000000186265 ], [ 20464.05, 5924472.599999999627471 ], [ 20464.125, 5924472.599999999627471 ], [ 20464.125, 5924471.924999999813735 ], [ 20464.2, 5924471.924999999813735 ], [ 20464.2, 5924471.25 ], [ 20464.275000000001455, 5924471.25 ], [ 20464.275000000001455, 5924470.724999999627471 ], [ 20464.349999999998545, 5924470.724999999627471 ], [ 20464.349999999998545, 5924470.275000000372529 ], [ 20464.425, 5924470.275000000372529 ], [ 20464.425, 5924469.974999999627471 ], [ 20464.5, 5924469.974999999627471 ], [ 20464.5, 5924469.674999999813735 ], [ 20464.575, 5924469.674999999813735 ], [ 20464.575, 5924469.450000000186265 ], [ 20464.650000000001455, 5924469.450000000186265 ], [ 20464.650000000001455, 5924469.150000000372529 ], [ 20464.724999999998545, 5924469.150000000372529 ], [ 20464.724999999998545, 5924468.924999999813735 ], [ 20464.8, 5924468.924999999813735 ], [ 20464.8, 5924468.775000000372529 ], [ 20464.875, 5924468.775000000372529 ], [ 20464.875, 5924468.549999999813735 ], [ 20464.95, 5924468.549999999813735 ], [ 20464.95, 5924468.400000000372529 ], [ 20465.025000000001455, 5924468.400000000372529 ], [ 20465.025000000001455, 5924468.174999999813735 ], [ 20465.099999999998545, 5924468.174999999813735 ], [ 20465.099999999998545, 5924468.025000000372529 ], [ 20465.175, 5924468.025000000372529 ], [ 20465.175, 5924467.875 ], [ 20465.25, 5924467.875 ], [ 20465.25, 5924467.724999999627471 ], [ 20465.325, 5924467.724999999627471 ], [ 20465.325, 5924467.5 ], [ 20465.400000000001455, 5924467.5 ], [ 20465.400000000001455, 5924467.275000000372529 ], [ 20465.474999999998545, 5924467.275000000372529 ], [ 20465.474999999998545, 5924467.049999999813735 ], [ 20465.55, 5924467.049999999813735 ], [ 20465.55, 5924466.825000000186265 ], [ 20465.625, 5924466.825000000186265 ], [ 20465.625, 5924466.525000000372529 ], [ 20465.7, 5924466.525000000372529 ], [ 20465.7, 5924466.299999999813735 ], [ 20465.775000000001455, 5924466.299999999813735 ], [ 20465.775000000001455, 5924466.0 ], [ 20465.849999999998545, 5924466.0 ], [ 20465.849999999998545, 5924465.700000000186265 ], [ 20465.925, 5924465.700000000186265 ], [ 20465.925, 5924465.400000000372529 ], [ 20466.0, 5924465.400000000372529 ], [ 20466.0, 5924465.099999999627471 ], [ 20466.075, 5924465.099999999627471 ], [ 20466.075, 5924464.799999999813735 ], [ 20466.150000000001455, 5924464.799999999813735 ], [ 20466.150000000001455, 5924464.650000000372529 ], [ 20466.224999999998545, 5924464.650000000372529 ], [ 20466.224999999998545, 5924464.5 ], [ 20466.3, 5924464.5 ], [ 20466.3, 5924464.424999999813735 ], [ 20466.375, 5924464.424999999813735 ], [ 20466.375, 5924464.349999999627471 ], [ 20466.45, 5924464.349999999627471 ], [ 20466.45, 5924464.200000000186265 ], [ 20466.525000000001455, 5924464.200000000186265 ], [ 20466.525000000001455, 5924464.125 ], [ 20466.599999999998545, 5924464.125 ], [ 20466.599999999998545, 5924464.049999999813735 ], [ 20466.675, 5924464.049999999813735 ], [ 20466.675, 5924463.974999999627471 ], [ 20466.825, 5924463.974999999627471 ], [ 20466.825, 5924463.900000000372529 ], [ 20466.900000000001455, 5924463.900000000372529 ], [ 20466.900000000001455, 5924463.825000000186265 ], [ 20466.974999999998545, 5924463.825000000186265 ], [ 20466.974999999998545, 5924463.75 ], [ 20467.125, 5924463.75 ], [ 20467.125, 5924463.674999999813735 ], [ 20467.349999999998545, 5924463.674999999813735 ], [ 20467.349999999998545, 5924463.599999999627471 ], [ 20467.650000000001455, 5924463.599999999627471 ], [ 20467.650000000001455, 5924463.525000000372529 ], [ 20467.95, 5924463.525000000372529 ], [ 20467.95, 5924463.450000000186265 ], [ 20468.25, 5924463.450000000186265 ], [ 20468.25, 5924463.375 ], [ 20468.474999999998545, 5924463.375 ], [ 20468.474999999998545, 5924463.299999999813735 ], [ 20468.775000000001455, 5924463.299999999813735 ], [ 20468.775000000001455, 5924463.224999999627471 ], [ 20469.0, 5924463.224999999627471 ], [ 20469.0, 5924463.150000000372529 ], [ 20469.599999999998545, 5924463.150000000372529 ], [ 20469.599999999998545, 5924463.075000000186265 ], [ 20470.349999999998545, 5924463.075000000186265 ], [ 20470.349999999998545, 5924463.0 ], [ 20471.099999999998545, 5924463.0 ], [ 20471.099999999998545, 5924462.924999999813735 ], [ 20471.775000000001455, 5924462.924999999813735 ], [ 20471.775000000001455, 5924462.849999999627471 ], [ 20472.375, 5924462.849999999627471 ], [ 20472.375, 5924462.775000000372529 ], [ 20472.974999999998545, 5924462.775000000372529 ], [ 20472.974999999998545, 5924462.700000000186265 ], [ 20473.575, 5924462.700000000186265 ], [ 20473.575, 5924462.625 ], [ 20474.25, 5924462.625 ], [ 20474.25, 5924462.549999999813735 ], [ 20475.0, 5924462.549999999813735 ], [ 20475.0, 5924462.474999999627471 ], [ 20476.125, 5924462.474999999627471 ], [ 20476.125, 5924462.400000000372529 ], [ 20477.400000000001455, 5924462.400000000372529 ], [ 20477.400000000001455, 5924462.325000000186265 ], [ 20479.05, 5924462.325000000186265 ], [ 20479.05, 5924462.25 ], [ 20480.625, 5924462.25 ], [ 20480.625, 5924462.174999999813735 ], [ 20482.05, 5924462.174999999813735 ], [ 20482.05, 5924462.099999999627471 ], [ 20483.175, 5924462.099999999627471 ], [ 20483.175, 5924462.025000000372529 ], [ 20484.0, 5924462.025000000372529 ], [ 20484.0, 5924461.950000000186265 ], [ 20484.75, 5924461.950000000186265 ], [ 20484.75, 5924461.875 ], [ 20485.275000000001455, 5924461.875 ], [ 20485.275000000001455, 5924461.799999999813735 ], [ 20485.724999999998545, 5924461.799999999813735 ], [ 20485.724999999998545, 5924461.724999999627471 ], [ 20486.175, 5924461.724999999627471 ], [ 20486.175, 5924461.650000000372529 ], [ 20486.625, 5924461.650000000372529 ], [ 20486.625, 5924461.575000000186265 ], [ 20487.150000000001455, 5924461.575000000186265 ], [ 20487.150000000001455, 5924461.5 ], [ 20487.599999999998545, 5924461.5 ], [ 20487.599999999998545, 5924461.424999999813735 ], [ 20488.05, 5924461.424999999813735 ], [ 20488.05, 5924461.349999999627471 ], [ 20488.125, 5924461.349999999627471 ], [ 20488.125, 5924461.424999999813735 ], [ 20488.95, 5924461.424999999813735 ], [ 20488.95, 5924461.5 ], [ 20489.625, 5924461.5 ], [ 20489.625, 5924461.575000000186265 ], [ 20490.45, 5924461.575000000186265 ], [ 20490.45, 5924461.650000000372529 ], [ 20492.474999999998545, 5924461.650000000372529 ], [ 20492.474999999998545, 5924461.724999999627471 ], [ 20492.7, 5924461.724999999627471 ], [ 20492.7, 5924461.650000000372529 ], [ 20494.8, 5924461.650000000372529 ], [ 20494.8, 5924461.575000000186265 ], [ 20496.75, 5924461.575000000186265 ], [ 20496.75, 5924461.650000000372529 ], [ 20497.125, 5924461.650000000372529 ], [ 20497.125, 5924461.724999999627471 ], [ 20497.575, 5924461.724999999627471 ], [ 20497.575, 5924461.799999999813735 ], [ 20498.025000000001455, 5924461.799999999813735 ], [ 20498.025000000001455, 5924461.875 ], [ 20498.474999999998545, 5924461.875 ], [ 20498.474999999998545, 5924461.950000000186265 ], [ 20498.775000000001455, 5924461.950000000186265 ], [ 20498.775000000001455, 5924462.025000000372529 ], [ 20499.150000000001455, 5924462.025000000372529 ], [ 20499.150000000001455, 5924462.099999999627471 ], [ 20499.45, 5924462.099999999627471 ], [ 20499.45, 5924462.174999999813735 ], [ 20499.825, 5924462.174999999813735 ], [ 20499.825, 5924462.25 ], [ 20500.125, 5924462.25 ], [ 20500.125, 5924462.325000000186265 ], [ 20500.425, 5924462.325000000186265 ], [ 20500.425, 5924462.400000000372529 ], [ 20500.724999999998545, 5924462.400000000372529 ], [ 20500.724999999998545, 5924462.474999999627471 ], [ 20500.95, 5924462.474999999627471 ], [ 20500.95, 5924462.549999999813735 ], [ 20501.175, 5924462.549999999813735 ], [ 20501.175, 5924462.625 ], [ 20501.400000000001455, 5924462.625 ], [ 20501.400000000001455, 5924462.700000000186265 ], [ 20501.625, 5924462.700000000186265 ], [ 20501.625, 5924462.775000000372529 ], [ 20501.849999999998545, 5924462.775000000372529 ], [ 20501.849999999998545, 5924462.849999999627471 ], [ 20502.150000000001455, 5924462.849999999627471 ], [ 20502.150000000001455, 5924462.924999999813735 ], [ 20502.525000000001455, 5924462.924999999813735 ], [ 20502.525000000001455, 5924463.0 ], [ 20503.05, 5924463.0 ], [ 20503.05, 5924463.075000000186265 ], [ 20503.575, 5924463.075000000186265 ], [ 20503.575, 5924463.150000000372529 ], [ 20504.175, 5924463.150000000372529 ], [ 20504.175, 5924463.224999999627471 ], [ 20505.0, 5924463.224999999627471 ], [ 20505.0, 5924463.299999999813735 ], [ 20505.974999999998545, 5924463.299999999813735 ], [ 20505.974999999998545, 5924463.375 ], [ 20508.525000000001455, 5924463.375 ], [ 20508.525000000001455, 5924463.299999999813735 ], [ 20509.125, 5924463.299999999813735 ], [ 20509.125, 5924463.224999999627471 ], [ 20509.650000000001455, 5924463.224999999627471 ], [ 20509.650000000001455, 5924463.150000000372529 ], [ 20510.175, 5924463.150000000372529 ], [ 20510.175, 5924463.075000000186265 ], [ 20510.400000000001455, 5924463.075000000186265 ], [ 20510.400000000001455, 5924463.0 ], [ 20510.55, 5924463.0 ], [ 20510.55, 5924462.924999999813735 ], [ 20510.775000000001455, 5924462.924999999813735 ], [ 20510.775000000001455, 5924462.849999999627471 ], [ 20510.925, 5924462.849999999627471 ], [ 20510.925, 5924462.775000000372529 ], [ 20511.0, 5924462.775000000372529 ], [ 20511.0, 5924462.700000000186265 ], [ 20511.150000000001455, 5924462.700000000186265 ], [ 20511.150000000001455, 5924462.625 ], [ 20511.3, 5924462.625 ], [ 20511.3, 5924462.549999999813735 ], [ 20511.375, 5924462.549999999813735 ], [ 20511.375, 5924462.474999999627471 ], [ 20511.525000000001455, 5924462.474999999627471 ], [ 20511.525000000001455, 5924462.400000000372529 ], [ 20511.675, 5924462.400000000372529 ], [ 20511.675, 5924462.325000000186265 ], [ 20511.825, 5924462.325000000186265 ], [ 20511.825, 5924462.25 ], [ 20511.974999999998545, 5924462.25 ], [ 20511.974999999998545, 5924462.174999999813735 ], [ 20512.2, 5924462.174999999813735 ], [ 20512.2, 5924462.099999999627471 ], [ 20512.349999999998545, 5924462.099999999627471 ], [ 20512.349999999998545, 5924462.025000000372529 ], [ 20512.575, 5924462.025000000372529 ], [ 20512.575, 5924461.950000000186265 ], [ 20512.8, 5924461.950000000186265 ], [ 20512.8, 5924461.875 ], [ 20513.025000000001455, 5924461.875 ], [ 20513.025000000001455, 5924461.799999999813735 ], [ 20513.325, 5924461.799999999813735 ], [ 20513.325, 5924461.724999999627471 ], [ 20513.55, 5924461.724999999627471 ], [ 20513.55, 5924461.650000000372529 ], [ 20513.849999999998545, 5924461.650000000372529 ], [ 20513.849999999998545, 5924461.575000000186265 ], [ 20515.425, 5924461.575000000186265 ], [ 20515.425, 5924461.650000000372529 ], [ 20515.650000000001455, 5924461.650000000372529 ], [ 20515.650000000001455, 5924461.724999999627471 ], [ 20515.95, 5924461.724999999627471 ], [ 20515.95, 5924461.799999999813735 ], [ 20516.099999999998545, 5924461.799999999813735 ], [ 20516.099999999998545, 5924461.875 ], [ 20516.175, 5924461.875 ], [ 20516.175, 5924461.950000000186265 ], [ 20516.25, 5924461.950000000186265 ], [ 20516.25, 5924462.025000000372529 ], [ 20516.325, 5924462.025000000372529 ], [ 20516.325, 5924462.099999999627471 ], [ 20516.400000000001455, 5924462.099999999627471 ], [ 20516.400000000001455, 5924462.174999999813735 ], [ 20516.474999999998545, 5924462.174999999813735 ], [ 20516.474999999998545, 5924462.25 ], [ 20516.55, 5924462.25 ], [ 20516.55, 5924462.325000000186265 ], [ 20516.625, 5924462.325000000186265 ], [ 20516.625, 5924462.400000000372529 ], [ 20516.7, 5924462.400000000372529 ], [ 20516.7, 5924462.474999999627471 ], [ 20516.775000000001455, 5924462.474999999627471 ], [ 20516.775000000001455, 5924462.625 ], [ 20516.849999999998545, 5924462.625 ], [ 20516.849999999998545, 5924462.700000000186265 ], [ 20516.925, 5924462.700000000186265 ], [ 20516.925, 5924462.849999999627471 ], [ 20517.0, 5924462.849999999627471 ], [ 20517.0, 5924462.924999999813735 ], [ 20517.075, 5924462.924999999813735 ], [ 20517.075, 5924463.0 ], [ 20517.150000000001455, 5924463.0 ], [ 20517.150000000001455, 5924463.150000000372529 ], [ 20517.224999999998545, 5924463.150000000372529 ], [ 20517.224999999998545, 5924463.224999999627471 ], [ 20517.3, 5924463.224999999627471 ], [ 20517.3, 5924463.299999999813735 ], [ 20517.375, 5924463.299999999813735 ], [ 20517.375, 5924463.375 ], [ 20517.45, 5924463.375 ], [ 20517.45, 5924463.450000000186265 ], [ 20517.525000000001455, 5924463.450000000186265 ], [ 20517.525000000001455, 5924463.525000000372529 ], [ 20517.599999999998545, 5924463.525000000372529 ], [ 20517.599999999998545, 5924463.599999999627471 ], [ 20517.675, 5924463.599999999627471 ], [ 20517.675, 5924463.674999999813735 ], [ 20517.75, 5924463.674999999813735 ], [ 20517.75, 5924463.75 ], [ 20517.825, 5924463.75 ], [ 20517.825, 5924463.825000000186265 ], [ 20517.974999999998545, 5924463.825000000186265 ], [ 20517.974999999998545, 5924463.900000000372529 ], [ 20518.05, 5924463.900000000372529 ], [ 20518.05, 5924463.974999999627471 ], [ 20518.125, 5924463.974999999627471 ], [ 20518.125, 5924464.049999999813735 ], [ 20518.2, 5924464.049999999813735 ], [ 20518.2, 5924464.200000000186265 ], [ 20518.275000000001455, 5924464.200000000186265 ], [ 20518.275000000001455, 5924464.275000000372529 ], [ 20518.349999999998545, 5924464.275000000372529 ], [ 20518.349999999998545, 5924464.349999999627471 ], [ 20518.425, 5924464.349999999627471 ], [ 20518.425, 5924464.5 ], [ 20518.5, 5924464.5 ], [ 20518.5, 5924464.575000000186265 ], [ 20518.575, 5924464.575000000186265 ], [ 20518.575, 5924464.724999999627471 ], [ 20518.650000000001455, 5924464.724999999627471 ], [ 20518.650000000001455, 5924465.025000000372529 ], [ 20518.724999999998545, 5924465.025000000372529 ], [ 20518.724999999998545, 5924465.325000000186265 ], [ 20518.8, 5924465.325000000186265 ], [ 20518.8, 5924465.700000000186265 ], [ 20518.875, 5924465.700000000186265 ], [ 20518.875, 5924466.075000000186265 ], [ 20518.95, 5924466.075000000186265 ], [ 20518.95, 5924466.450000000186265 ], [ 20519.025000000001455, 5924466.450000000186265 ], [ 20519.025000000001455, 5924471.700000000186265 ], [ 20518.95, 5924471.700000000186265 ], [ 20518.95, 5924475.75 ], [ 20518.875, 5924475.75 ], [ 20518.875, 5924477.924999999813735 ], [ 20518.8, 5924477.924999999813735 ], [ 20518.8, 5924479.724999999627471 ], [ 20518.724999999998545, 5924479.724999999627471 ], [ 20518.724999999998545, 5924481.450000000186265 ], [ 20518.8, 5924481.450000000186265 ], [ 20518.8, 5924482.875 ], [ 20518.875, 5924482.875 ], [ 20518.875, 5924483.625 ], [ 20518.95, 5924483.625 ], [ 20518.95, 5924484.450000000186265 ], [ 20519.025000000001455, 5924484.450000000186265 ], [ 20519.025000000001455, 5924485.275000000372529 ], [ 20519.099999999998545, 5924485.275000000372529 ], [ 20519.099999999998545, 5924486.025000000372529 ], [ 20519.175, 5924486.025000000372529 ], [ 20519.175, 5924486.849999999627471 ], [ 20519.25, 5924486.849999999627471 ], [ 20519.25, 5924487.525000000372529 ], [ 20519.325, 5924487.525000000372529 ], [ 20519.325, 5924490.525000000372529 ], [ 20519.25, 5924490.525000000372529 ], [ 20519.25, 5924490.974999999627471 ], [ 20519.175, 5924490.974999999627471 ], [ 20519.175, 5924491.349999999627471 ], [ 20519.099999999998545, 5924491.349999999627471 ], [ 20519.099999999998545, 5924491.724999999627471 ], [ 20519.025000000001455, 5924491.724999999627471 ], [ 20519.025000000001455, 5924492.025000000372529 ], [ 20518.95, 5924492.025000000372529 ], [ 20518.95, 5924492.25 ], [ 20518.875, 5924492.25 ], [ 20518.875, 5924492.474999999627471 ], [ 20518.8, 5924492.474999999627471 ], [ 20518.8, 5924492.625 ], [ 20518.724999999998545, 5924492.625 ], [ 20518.724999999998545, 5924492.849999999627471 ], [ 20518.650000000001455, 5924492.849999999627471 ], [ 20518.650000000001455, 5924493.0 ], [ 20518.575, 5924493.0 ], [ 20518.575, 5924493.150000000372529 ], [ 20518.5, 5924493.150000000372529 ], [ 20518.5, 5924493.224999999627471 ], [ 20518.425, 5924493.224999999627471 ], [ 20518.425, 5924493.375 ], [ 20518.349999999998545, 5924493.375 ], [ 20518.349999999998545, 5924493.525000000372529 ], [ 20518.275000000001455, 5924493.525000000372529 ], [ 20518.275000000001455, 5924493.599999999627471 ], [ 20518.2, 5924493.599999999627471 ], [ 20518.2, 5924493.674999999813735 ], [ 20518.125, 5924493.674999999813735 ], [ 20518.125, 5924493.825000000186265 ], [ 20518.05, 5924493.825000000186265 ], [ 20518.05, 5924493.900000000372529 ], [ 20517.974999999998545, 5924493.900000000372529 ], [ 20517.974999999998545, 5924493.974999999627471 ], [ 20517.900000000001455, 5924493.974999999627471 ], [ 20517.900000000001455, 5924494.125 ], [ 20517.825, 5924494.125 ], [ 20517.825, 5924494.275000000372529 ], [ 20517.75, 5924494.275000000372529 ], [ 20517.75, 5924494.349999999627471 ], [ 20517.675, 5924494.349999999627471 ], [ 20517.675, 5924494.5 ], [ 20517.599999999998545, 5924494.5 ], [ 20517.599999999998545, 5924494.575000000186265 ], [ 20517.525000000001455, 5924494.575000000186265 ], [ 20517.525000000001455, 5924494.724999999627471 ], [ 20517.45, 5924494.724999999627471 ], [ 20517.45, 5924494.799999999813735 ], [ 20517.375, 5924494.799999999813735 ], [ 20517.375, 5924494.950000000186265 ], [ 20517.3, 5924494.950000000186265 ], [ 20517.3, 5924495.025000000372529 ], [ 20517.224999999998545, 5924495.025000000372529 ], [ 20517.224999999998545, 5924495.099999999627471 ], [ 20517.150000000001455, 5924495.099999999627471 ], [ 20517.150000000001455, 5924495.174999999813735 ], [ 20517.075, 5924495.174999999813735 ], [ 20517.075, 5924495.25 ], [ 20517.0, 5924495.25 ], [ 20517.0, 5924495.325000000186265 ], [ 20516.925, 5924495.325000000186265 ], [ 20516.925, 5924495.400000000372529 ], [ 20516.849999999998545, 5924495.400000000372529 ], [ 20516.849999999998545, 5924495.474999999627471 ], [ 20516.775000000001455, 5924495.474999999627471 ], [ 20516.775000000001455, 5924495.549999999813735 ], [ 20516.7, 5924495.549999999813735 ], [ 20516.7, 5924495.625 ], [ 20516.625, 5924495.625 ], [ 20516.625, 5924495.700000000186265 ], [ 20516.55, 5924495.700000000186265 ], [ 20516.55, 5924495.775000000372529 ], [ 20516.474999999998545, 5924495.775000000372529 ], [ 20516.474999999998545, 5924495.849999999627471 ], [ 20516.400000000001455, 5924495.849999999627471 ], [ 20516.400000000001455, 5924495.924999999813735 ], [ 20516.25, 5924495.924999999813735 ], [ 20516.25, 5924496.0 ], [ 20516.175, 5924496.0 ], [ 20516.175, 5924496.075000000186265 ], [ 20516.025000000001455, 5924496.075000000186265 ], [ 20516.025000000001455, 5924496.150000000372529 ], [ 20515.875, 5924496.150000000372529 ], [ 20515.875, 5924496.224999999627471 ], [ 20515.650000000001455, 5924496.224999999627471 ], [ 20515.650000000001455, 5924496.299999999813735 ], [ 20515.5, 5924496.299999999813735 ], [ 20515.5, 5924496.375 ], [ 20515.2, 5924496.375 ], [ 20515.2, 5924496.450000000186265 ], [ 20514.974999999998545, 5924496.450000000186265 ], [ 20514.974999999998545, 5924496.525000000372529 ], [ 20514.675, 5924496.525000000372529 ], [ 20514.675, 5924496.599999999627471 ], [ 20514.375, 5924496.599999999627471 ], [ 20514.375, 5924496.674999999813735 ], [ 20505.150000000001455, 5924496.674999999813735 ] ] ] } },
{ "type": "Feature", "properties": { "value": 1.0, "building_id": 3, "area": 39.881250000698763 }, "geometry": { "type": "Polygon", "coordinates": [ [ [ 20443.5, 5924452.275000000372529 ], [ 20443.5, 5924452.200000000186265 ], [ 20443.2, 5924452.200000000186265 ], [ 20443.2, 5924452.125 ], [ 20442.974999999998545, 5924452.125 ], [ 20442.974999999998545, 5924452.049999999813735 ], [ 20442.75, 5924452.049999999813735 ], [ 20442.75, 5924451.974999999627471 ], [ 20442.525000000001455, 5924451.974999999627471 ], [ 20442.525000000001455, 5924451.900000000372529 ], [ 20442.375, 5924451.900000000372529 ], [ 20442.375, 5924451.825000000186265 ], [ 20442.150000000001455, 5924451.825000000186265 ], [ 20442.150000000001455, 5924451.75 ], [ 20442.0, 5924451.75 ], [ 20442.0, 5924451.674999999813735 ], [ 20441.849999999998545, 5924451.674999999813735 ], [ 20441.849999999998545, 5924451.599999999627471 ], [ 20441.625, 5924451.599999999627471 ], [ 20441.625, 5924451.525000000372529 ], [ 20441.474999999998545, 5924451.525000000372529 ], [ 20441.474999999998545, 5924451.450000000186265 ], [ 20441.325, 5924451.450000000186265 ], [ 20441.325, 5924451.375 ], [ 20441.175, 5924451.375 ], [ 20441.175, 5924451.299999999813735 ], [ 20441.099999999998545, 5924451.299999999813735 ], [ 20441.099999999998545, 5924451.224999999627471 ], [ 20440.95, 5924451.224999999627471 ], [ 20440.95, 5924451.150000000372529 ], [ 20440.875, 5924451.150000000372529 ], [ 20440.875, 5924451.075000000186265 ], [ 20440.724999999998545, 5924451.075000000186265 ], [ 20440.724999999998545, 5924450.924999999813735 ], [ 20440.650000000001455, 5924450.924999999813735 ], [ 20440.650000000001455, 5924450.700000000186265 ], [ 20440.575, 5924450.700000000186265 ], [ 20440.575, 5924450.549999999813735 ], [ 20440.5, 5924450.549999999813735 ], [ 20440.5, 5924450.400000000372529 ], [ 20440.425, 5924450.400000000372529 ], [ 20440.425, 5924450.25 ], [ 20440.349999999998545, 5924450.25 ], [ 20440.349999999998545, 5924450.099999999627471 ], [ 20440.275000000001455, 5924450.099999999627471 ], [ 20440.275000000001455, 5924449.950000000186265 ], [ 20440.2, 5924449.950000000186265 ], [ 20440.2, 5924449.724999999627471 ], [ 20440.125, 5924449.724999999627471 ], [ 20440.125, 5924449.575000000186265 ], [ 20440.05, 5924449.575000000186265 ], [ 20440.05, 5924449.424999999813735 ], [ 20439.974999999998545, 5924449.424999999813735 ], [ 20439.974999999998545, 5924449.200000000186265 ], [ 20439.900000000001455, 5924449.200000000186265 ], [ 20439.900000000001455, 5924448.974999999627471 ], [ 20439.974999999998545, 5924448.974999999627471 ], [ 20439.974999999998545, 5924448.825000000186265 ], [ 20440.05, 5924448.825000000186265 ], [ 20440.05, 5924448.674999999813735 ], [ 20440.125, 5924448.674999999813735 ], [ 20440.125, 5924448.525000000372529 ], [ 20440.2, 5924448.525000000372529 ], [ 20440.2, 5924448.375 ], [ 20440.275000000001455, 5924448.375 ], [ 20440.275000000001455, 5924448.224999999627471 ], [ 20440.349999999998545, 5924448.224999999627471 ], [ 20440.349999999998545, 5924448.150000000372529 ], [ 20440.425, 5924448.150000000372529 ], [ 20440.425, 5924448.0 ], [ 20440.5, 5924448.0 ], [ 20440.5, 5924447.924999999813735 ], [ 20440.575, 5924447.924999999813735 ], [ 20440.575, 5924447.849999999627471 ], [ 20440.650000000001455, 5924447.849999999627471 ], [ 20440.650000000001455, 5924447.700000000186265 ], [ 20440.724999999998545, 5924447.700000000186265 ], [ 20440.724999999998545, 5924447.625 ], [ 20440.8, 5924447.625 ], [ 20440.8, 5924447.549999999813735 ], [ 20440.875, 5924447.549999999813735 ], [ 20440.875, 5924447.474999999627471 ], [ 20440.95, 5924447.474999999627471 ], [ 20440.95, 5924447.400000000372529 ], [ 20441.025000000001455, 5924447.400000000372529 ], [ 20441.025000000001455, 5924447.325000000186265 ], [ 20441.099999999998545, 5924447.325000000186265 ], [ 20441.099999999998545, 5924447.25 ], [ 20441.175, 5924447.25 ], [ 20441.175, 5924447.174999999813735 ], [ 20441.325, 5924447.174999999813735 ], [ 20441.325, 5924447.099999999627471 ], [ 20441.400000000001455, 5924447.099999999627471 ], [ 20441.400000000001455, 5924447.025000000372529 ], [ 20441.474999999998545, 5924447.025000000372529 ], [ 20441.474999999998545, 5924446.950000000186265 ], [ 20441.55, 5924446.950000000186265 ], [ 20441.55, 5924446.875 ], [ 20441.625, 5924446.875 ], [ 20441.625, 5924446.799999999813735 ], [ 20441.7, 5924446.799999999813735 ], [ 20441.7, 5924446.724999999627471 ], [ 20441.849999999998545, 5924446.724999999627471 ], [ 20441.849999999998545, 5924446.650000000372529 ], [ 20441.925, 5924446.650000000372529 ], [ 20441.925, 5924446.575000000186265 ], [ 20442.0, 5924446.575000000186265 ], [ 20442.0, 5924446.5 ], [ 20442.075, 5924446.5 ], [ 20442.075, 5924446.424999999813735 ], [ 20442.150000000001455, 5924446.424999999813735 ], [ 20442.150000000001455, 5924446.349999999627471 ], [ 20442.3, 5924446.349999999627471 ], [ 20442.3, 5924446.275000000372529 ], [ 20442.375, 5924446.275000000372529 ], [ 20442.375, 5924446.200000000186265 ], [ 20442.525000000001455, 5924446.200000000186265 ], [ 20442.525000000001455, 5924446.125 ], [ 20442.675, 5924446.125 ], [ 20442.675, 5924446.049999999813735 ], [ 20442.825, 5924446.049999999813735 ], [ 20442.825, 5924445.974999999627471 ], [ 20442.974999999998545, 5924445.974999999627471 ], [ 20442.974999999998545, 5924445.900000000372529 ], [ 20443.125, 5924445.900000000372529 ], [ 20443.125, 5924445.825000000186265 ], [ 20443.349999999998545, 5924445.825000000186265 ], [ 20443.349999999998545, 5924445.75 ], [ 20443.5, 5924445.75 ], [ 20443.5, 5924445.674999999813735 ], [ 20444.099999999998545, 5924445.674999999813735 ], [ 20444.099999999998545, 5924445.75 ], [ 20444.474999999998545, 5924445.75 ], [ 20444.474999999998545, 5924445.825000000186265 ], [ 20444.775000000001455, 5924445.825000000186265 ], [ 20444.775000000001455, 5924445.900000000372529 ], [ 20445.150000000001455, 5924445.900000000372529 ], [ 20445.150000000001455, 5924445.974999999627471 ], [ 20445.45, 5924445.974999999627471 ], [ 20445.45, 5924446.049999999813735 ], [ 20445.75, 5924446.049999999813735 ], [ 20445.75, 5924446.125 ], [ 20445.825, 5924446.125 ], [ 20445.825, 5924446.200000000186265 ], [ 20445.900000000001455, 5924446.200000000186265 ], [ 20445.900000000001455, 5924446.275000000372529 ], [ 20446.05, 5924446.275000000372529 ], [ 20446.05, 5924446.349999999627471 ], [ 20446.125, 5924446.349999999627471 ], [ 20446.125, 5924446.424999999813735 ], [ 20446.2, 5924446.424999999813735 ], [ 20446.2, 5924446.5 ], [ 20446.275000000001455, 5924446.5 ], [ 20446.275000000001455, 5924446.575000000186265 ], [ 20446.349999999998545, 5924446.575000000186265 ], [ 20446.349999999998545, 5924446.650000000372529 ], [ 20446.425, 5924446.650000000372529 ], [ 20446.425, 5924446.724999999627471 ], [ 20446.5, 5924446.724999999627471 ], [ 20446.5, 5924446.875 ], [ 20446.575, 5924446.875 ], [ 20446.575, 5924446.950000000186265 ], [ 20446.650000000001455, 5924446.950000000186265 ], [ 20446.650000000001455, 5924447.025000000372529 ], [ 20446.724999999998545, 5924447.025000000372529 ], [ 20446.724999999998545, 5924447.099999999627471 ], [ 20446.8, 5924447.099999999627471 ], [ 20446.8, 5924447.25 ], [ 20446.875, 5924447.25 ], [ 20446.875, 5924447.325000000186265 ], [ 20446.95, 5924447.325000000186265 ], [ 20446.95, 5924447.400000000372529 ], [ 20447.025000000001455, 5924447.400000000372529 ], [ 20447.025000000001455, 5924447.474999999627471 ], [ 20447.099999999998545, 5924447.474999999627471 ], [ 20447.099999999998545, 5924447.625 ], [ 20447.175, 5924447.625 ], [ 20447.175, 5924447.700000000186265 ], [ 20447.25, 5924447.700000000186265 ], [ 20447.25, 5924447.775000000372529 ], [ 20447.325, 5924447.775000000372529 ], [ 20447.325, 5924447.924999999813735 ], [ 20447.400000000001455, 5924447.924999999813735 ], [ 20447.400000000001455, 5924448.0 ], [ 20447.474999999998545, 5924448.0 ], [ 20447.474999999998545, 5924448.075000000186265 ], [ 20447.55, 5924448.075000000186265 ], [ 20447.55, 5924448.224999999627471 ], [ 20447.625, 5924448.224999999627471 ], [ 20447.625, 5924448.299999999813735 ], [ 20447.7, 5924448.299999999813735 ], [ 20447.7, 5924448.450000000186265 ], [ 20447.775000000001455, 5924448.450000000186265 ], [ 20447.775000000001455, 5924448.525000000372529 ], [ 20447.849999999998545, 5924448.525000000372529 ], [ 20447.849999999998545, 5924448.599999999627471 ], [ 20447.925, 5924448.599999999627471 ], [ 20447.925, 5924448.674999999813735 ], [ 20448.0, 5924448.674999999813735 ], [ 20448.0, 5924448.825000000186265 ], [ 20448.075, 5924448.825000000186265 ], [ 20448.075, 5924448.900000000372529 ], [ 20448.150000000001455, 5924448.900000000372529 ], [ 20448.150000000001455, 5924449.049999999813735 ], [ 20448.224999999998545, 5924449.049999999813735 ], [ 20448.224999999998545, 5924449.275000000372529 ], [ 20448.150000000001455, 5924449.275000000372529 ], [ 20448.150000000001455, 5924449.5 ], [ 20448.075, 5924449.5 ], [ 20448.075, 5924449.724999999627471 ], [ 20448.0, 5924449.724999999627471 ], [ 20448.0, 5924450.025000000372529 ], [ 20447.925, 5924450.025000000372529 ], [ 20447.925, 5924450.25 ], [ 20447.849999999998545, 5924450.25 ], [ 20447.849999999998545, 5924450.474999999627471 ], [ 20447.775000000001455, 5924450.474999999627471 ], [ 20447.775000000001455, 5924450.625 ], [ 20447.7, 5924450.625 ], [ 20447.7, 5924450.849999999627471 ], [ 20447.625, 5924450.849999999627471 ], [ 20447.625, 5924451.075000000186265 ], [ 20447.55, 5924451.075000000186265 ], [ 20447.55, 5924451.150000000372529 ], [ 20447.474999999998545, 5924451.150000000372529 ], [ 20447.474999999998545, 5924451.224999999627471 ], [ 20447.400000000001455, 5924451.224999999627471 ], [ 20447.400000000001455, 5924451.299999999813735 ], [ 20447.325, 5924451.299999999813735 ], [ 20447.325, 5924451.375 ], [ 20447.175, 5924451.375 ], [ 20447.175, 5924451.450000000186265 ], [ 20447.099999999998545, 5924451.450000000186265 ], [ 20447.099999999998545, 5924451.525000000372529 ], [ 20447.025000000001455, 5924451.525000000372529 ], [ 20447.025000000001455, 5924451.599999999627471 ], [ 20446.875, 5924451.599999999627471 ], [ 20446.875, 5924451.674999999813735 ], [ 20446.724999999998545, 5924451.674999999813735 ], [ 20446.724999999998545, 5924451.75 ], [ 20446.650000000001455, 5924451.75 ], [ 20446.650000000001455, 5924451.825000000186265 ], [ 20446.5, 5924451.825000000186265 ], [ 20446.5, 5924451.900000000372529 ], [ 20446.349999999998545, 5924451.900000000372529 ], [ 20446.349999999998545, 5924451.974999999627471 ], [ 20446.2, 5924451.974999999627471 ], [ 20446.2, 5924452.049999999813735 ], [ 20445.974999999998545, 5924452.049999999813735 ], [ 20445.974999999998545, 5924452.125 ], [ 20445.825, 5924452.125 ], [ 20445.825, 5924452.200000000186265 ], [ 20445.224999999998545, 5924452.200000000186265 ], [ 20445.224999999998545, 5924452.275000000372529 ], [ 20443.5, 5924452.275000000372529 ] ] ] } }
]
}
