{
"type": "FeatureCollection",
"name": "21183E591357N_buildings",
"crs": { "type": "name", "properties": { "name": "urn:ogc:def:crs:EPSG::3776" } },
"features": [
{ "type": "Feature", "properties": { "value": 1.0, "building_id": 0, "area": 6.3843749995828158 }, "geometry": { "type": "Polygon", "coordinates": [ [ [ 21234.375, 5913897.375 ], [ 21234.375, 5913897.299999999813735 ], [ 21233.25, 5913897.299999999813735 ], [ 21233.25, 5913897.224999999627471 ], [ 21232.8, 5913897.224999999627471 ], [ 21232.8, 5913897.075000000186265 ], [ 21232.724999999998545, 5913897.075000000186265 ], [ 21232.724999999998545, 5913896.775000000372529 ], [ 21232.650000000001455, 5913896.775000000372529 ], [ 21232.650000000001455, 5913896.474999999627471 ], [ 21232.575, 5913896.474999999627471 ], [ 21232.575, 5913896.174999999813735 ], [ 21232.650000000001455, 5913896.174999999813735 ], [ 21232.650000000001455, 5913895.125 ], [ 21232.724999999998545, 5913895.125 ], [ 21232.724999999998545, 5913894.375 ], [ 21234.75, 5913894.375 ], [ 21234.75, 5913894.450000000186265 ], [ 21234.825, 5913894.450000000186265 ], [ 21234.825, 5913895.349999999627471 ], [ 21234.900000000001455, 5913895.349999999627471 ], [ 21234.900000000001455, 5913896.25 ], [ 21234.974999999998545, 5913896.25 ], [ 21234.974999999998545, 5913896.474999999627471 ], [ 21234.900000000001455, 5913896.474999999627471 ], [ 21234.900000000001455, 5913896.849999999627471 ], [ 21234.825, 5913896.849999999627471 ], [ 21234.825, 5913897.224999999627471 ], [ 21234.75, 5913897.224999999627471 ], [ 21234.75, 5913897.375 ], [ 21234.375, 5913897.375 ] ] ] } }
]
}
