{
"type": "FeatureCollection",
"name": "21183E594057N_buildings",
"crs": { "type": "name", "properties": { "name": "urn:ogc:def:crs:EPSG::3776" } },
"features": [
{ "type": "Feature", "properties": { "value": 1.0, "building_id": 0, "area": 37.130624999874001 }, "geometry": { "type": "Polygon", "coordinates": [ [ [ 21279.599999999998545, 5941309.875 ], [ 21279.599999999998545, 5941309.799999999813735 ], [ 21279.45, 5941309.799999999813735 ], [ 21279.45, 5941309.724999999627471 ], [ 21279.3, 5941309.724999999627471 ], [ 21279.3, 5941309.650000000372529 ], [ 21279.150000000001455, 5941309.650000000372529 ], [ 21279.150000000001455, 5941309.575000000186265 ], [ 21279.0, 5941309.575000000186265 ], [ 21279.0, 5941309.5 ], [ 21278.775000000001455, 5941309.5 ], [ 21278.775000000001455, 5941309.424999999813735 ], [ 21278.55, 5941309.424999999813735 ], [ 21278.55, 5941309.349999999627471 ], [ 21278.325, 5941309.349999999627471 ], [ 21278.325, 5941309.275000000372529 ], [ 21278.099999999998545, 5941309.275000000372529 ], [ 21278.099999999998545, 5941309.200000000186265 ], [ 21277.8, 5941309.200000000186265 ], [ 21277.8, 5941309.125 ], [ 21277.5, 5941309.125 ], [ 21277.5, 5941309.049999999813735 ], [ 21277.275000000001455, 5941309.049999999813735 ], [ 21277.275000000001455, 5941308.974999999627471 ], [ 21276.974999999998545, 5941308.974999999627471 ], [ 21276.974999999998545, 5941308.900000000372529 ], [ 21276.675, 5941308.900000000372529 ], [ 21276.675, 5941308.825000000186265 ], [ 21276.3, 5941308.825000000186265 ], [ 21276.3, 5941308.75 ], [ 21275.925, 5941308.75 ], [ 21275.925, 5941308.674999999813735 ], [ 21275.55, 5941308.674999999813735 ], [ 21275.55, 5941308.599999999627471 ], [ 21275.25, 5941308.599999999627471 ], [ 21275.25, 5941308.525000000372529 ], [ 21274.95, 5941308.525000000372529 ], [ 21274.95, 5941308.450000000186265 ], [ 21274.875, 5941308.450000000186265 ], [ 21274.875, 5941308.299999999813735 ], [ 21274.8, 5941308.299999999813735 ], [ 21274.8, 5941308.150000000372529 ], [ 21274.724999999998545, 5941308.150000000372529 ], [ 21274.724999999998545, 5941308.075000000186265 ], [ 21274.650000000001455, 5941308.075000000186265 ], [ 21274.650000000001455, 5941308.0 ], [ 21274.575, 5941308.0 ], [ 21274.575, 5941307.924999999813735 ], [ 21274.5, 5941307.924999999813735 ], [ 21274.5, 5941307.849999999627471 ], [ 21274.425, 5941307.849999999627471 ], [ 21274.425, 5941307.775000000372529 ], [ 21274.349999999998545, 5941307.775000000372529 ], [ 21274.349999999998545, 5941307.700000000186265 ], [ 21274.2, 5941307.700000000186265 ], [ 21274.2, 5941307.625 ], [ 21274.05, 5941307.625 ], [ 21274.05, 5941307.549999999813735 ], [ 21273.825, 5941307.549999999813735 ], [ 21273.825, 5941307.400000000372529 ], [ 21273.75, 5941307.400000000372529 ], [ 21273.75, 5941307.174999999813735 ], [ 21273.675, 5941307.174999999813735 ], [ 21273.675, 5941307.025000000372529 ], [ 21273.599999999998545, 5941307.025000000372529 ], [ 21273.599999999998545, 5941306.799999999813735 ], [ 21273.525000000001455, 5941306.799999999813735 ], [ 21273.525000000001455, 5941306.650000000372529 ], [ 21273.45, 5941306.650000000372529 ], [ 21273.45, 5941306.5 ], [ 21273.375, 5941306.5 ], [ 21273.375, 5941306.275000000372529 ], [ 21273.3, 5941306.275000000372529 ], [ 21273.3, 5941306.125 ], [ 21273.224999999998545, 5941306.125 ], [ 21273.224999999998545, 5941305.974999999627471 ], [ 21273.150000000001455, 5941305.974999999627471 ], [ 21273.150000000001455, 5941305.900000000372529 ], [ 21273.075, 5941305.900000000372529 ], [ 21273.075, 5941305.75 ], [ 21273.0, 5941305.75 ], [ 21273.0, 5941305.599999999627471 ], [ 21272.925, 5941305.599999999627471 ], [ 21272.925, 5941305.525000000372529 ], [ 21272.849999999998545, 5941305.525000000372529 ], [ 21272.849999999998545, 5941305.375 ], [ 21272.775000000001455, 5941305.375 ], [ 21272.775000000001455, 5941305.299999999813735 ], [ 21272.7, 5941305.299999999813735 ], [ 21272.7, 5941305.224999999627471 ], [ 21272.625, 5941305.224999999627471 ], [ 21272.625, 5941305.150000000372529 ], [ 21272.55, 5941305.150000000372529 ], [ 21272.55, 5941305.0 ], [ 21272.474999999998545, 5941305.0 ], [ 21272.474999999998545, 5941304.924999999813735 ], [ 21272.400000000001455, 5941304.924999999813735 ], [ 21272.400000000001455, 5941304.849999999627471 ], [ 21272.325, 5941304.849999999627471 ], [ 21272.325, 5941304.775000000372529 ], [ 21272.25, 5941304.775000000372529 ], [ 21272.25, 5941304.700000000186265 ], [ 21272.099999999998545, 5941304.700000000186265 ], [ 21272.099999999998545, 5941304.625 ], [ 21272.025000000001455, 5941304.625 ], [ 21272.025000000001455, 5941304.549999999813735 ], [ 21271.95, 5941304.549999999813735 ], [ 21271.95, 5941304.474999999627471 ], [ 21271.875, 5941304.474999999627471 ], [ 21271.875, 5941304.400000000372529 ], [ 21271.8, 5941304.400000000372529 ], [ 21271.8, 5941304.174999999813735 ], [ 21271.724999999998545, 5941304.174999999813735 ], [ 21271.724999999998545, 5941304.025000000372529 ], [ 21271.650000000001455, 5941304.025000000372529 ], [ 21271.650000000001455, 5941303.875 ], [ 21271.575, 5941303.875 ], [ 21271.575, 5941303.724999999627471 ], [ 21271.5, 5941303.724999999627471 ], [ 21271.5, 5941303.575000000186265 ], [ 21271.425, 5941303.575000000186265 ], [ 21271.425, 5941303.349999999627471 ], [ 21271.349999999998545, 5941303.349999999627471 ], [ 21271.349999999998545, 5941303.200000000186265 ], [ 21271.275000000001455, 5941303.200000000186265 ], [ 21271.275000000001455, 5941303.049999999813735 ], [ 21271.2, 5941303.049999999813735 ], [ 21271.2, 5941302.825000000186265 ], [ 21271.125, 5941302.825000000186265 ], [ 21271.125, 5941302.674999999813735 ], [ 21271.05, 5941302.674999999813735 ], [ 21271.05, 5941302.599999999627471 ], [ 21271.125, 5941302.599999999627471 ], [ 21271.125, 5941302.525000000372529 ], [ 21271.2, 5941302.525000000372529 ], [ 21271.2, 5941302.375 ], [ 21271.275000000001455, 5941302.375 ], [ 21271.275000000001455, 5941302.299999999813735 ], [ 21271.349999999998545, 5941302.299999999813735 ], [ 21271.349999999998545, 5941302.150000000372529 ], [ 21271.425, 5941302.150000000372529 ], [ 21271.425, 5941302.075000000186265 ], [ 21271.5, 5941302.075000000186265 ], [ 21271.5, 5941302.0 ], [ 21271.575, 5941302.0 ], [ 21271.575, 5941301.924999999813735 ], [ 21271.650000000001455, 5941301.924999999813735 ], [ 21271.650000000001455, 5941301.849999999627471 ], [ 21271.724999999998545, 5941301.849999999627471 ], [ 21271.724999999998545, 5941301.775000000372529 ], [ 21271.8, 5941301.775000000372529 ], [ 21271.8, 5941301.700000000186265 ], [ 21271.95, 5941301.700000000186265 ], [ 21271.95, 5941301.625 ], [ 21273.150000000001455, 5941301.625 ], [ 21273.150000000001455, 5941301.549999999813735 ], [ 21273.900000000001455, 5941301.549999999813735 ], [ 21273.900000000001455, 5941301.625 ], [ 21274.05, 5941301.625 ], [ 21274.05, 5941301.700000000186265 ], [ 21274.2, 5941301.700000000186265 ], [ 21274.2, 5941301.775000000372529 ], [ 21274.349999999998545, 5941301.775000000372529 ], [ 21274.349999999998545, 5941301.849999999627471 ], [ 21274.5, 5941301.849999999627471 ], [ 21274.5, 5941301.924999999813735 ], [ 21274.650000000001455, 5941301.924999999813735 ], [ 21274.650000000001455, 5941302.0 ], [ 21274.724999999998545, 5941302.0 ], [ 21274.724999999998545, 5941302.075000000186265 ], [ 21274.875, 5941302.075000000186265 ], [ 21274.875, 5941302.150000000372529 ], [ 21275.025000000001455, 5941302.150000000372529 ], [ 21275.025000000001455, 5941302.224999999627471 ], [ 21275.175, 5941302.224999999627471 ], [ 21275.175, 5941302.299999999813735 ], [ 21275.325, 5941302.299999999813735 ], [ 21275.325, 5941302.375 ], [ 21275.400000000001455, 5941302.375 ], [ 21275.400000000001455, 5941302.450000000186265 ], [ 21275.55, 5941302.450000000186265 ], [ 21275.55, 5941302.525000000372529 ], [ 21275.7, 5941302.525000000372529 ], [ 21275.7, 5941302.599999999627471 ], [ 21275.775000000001455, 5941302.599999999627471 ], [ 21275.775000000001455, 5941302.75 ], [ 21275.849999999998545, 5941302.75 ], [ 21275.849999999998545, 5941303.650000000372529 ], [ 21275.925, 5941303.650000000372529 ], [ 21275.925, 5941304.174999999813735 ], [ 21276.0, 5941304.174999999813735 ], [ 21276.0, 5941304.625 ], [ 21276.075, 5941304.625 ], [ 21276.075, 5941304.924999999813735 ], [ 21276.150000000001455, 5941304.924999999813735 ], [ 21276.150000000001455, 5941305.150000000372529 ], [ 21276.224999999998545, 5941305.150000000372529 ], [ 21276.224999999998545, 5941305.375 ], [ 21276.3, 5941305.375 ], [ 21276.3, 5941305.525000000372529 ], [ 21276.375, 5941305.525000000372529 ], [ 21276.375, 5941305.674999999813735 ], [ 21276.45, 5941305.674999999813735 ], [ 21276.45, 5941305.75 ], [ 21276.525000000001455, 5941305.75 ], [ 21276.525000000001455, 5941305.825000000186265 ], [ 21276.599999999998545, 5941305.825000000186265 ], [ 21276.599999999998545, 5941305.900000000372529 ], [ 21276.675, 5941305.900000000372529 ], [ 21276.675, 5941305.974999999627471 ], [ 21276.75, 5941305.974999999627471 ], [ 21276.75, 5941306.049999999813735 ], [ 21276.900000000001455, 5941306.049999999813735 ], [ 21276.900000000001455, 5941306.125 ], [ 21276.974999999998545, 5941306.125 ], [ 21276.974999999998545, 5941306.200000000186265 ], [ 21277.2, 5941306.200000000186265 ], [ 21277.2, 5941306.275000000372529 ], [ 21277.425, 5941306.275000000372529 ], [ 21277.425, 5941306.349999999627471 ], [ 21277.650000000001455, 5941306.349999999627471 ], [ 21277.650000000001455, 5941306.424999999813735 ], [ 21278.025000000001455, 5941306.424999999813735 ], [ 21278.025000000001455, 5941306.5 ], [ 21278.55, 5941306.5 ], [ 21278.55, 5941306.575000000186265 ], [ 21279.075, 5941306.575000000186265 ], [ 21279.075, 5941306.650000000372529 ], [ 21279.599999999998545, 5941306.650000000372529 ], [ 21279.599999999998545, 5941306.724999999627471 ], [ 21279.75, 5941306.724999999627471 ], [ 21279.75, 5941306.875 ], [ 21279.825, 5941306.875 ], [ 21279.825, 5941306.950000000186265 ], [ 21279.900000000001455, 5941306.950000000186265 ], [ 21279.900000000001455, 5941307.025000000372529 ], [ 21279.974999999998545, 5941307.025000000372529 ], [ 21279.974999999998545, 5941307.099999999627471 ], [ 21280.05, 5941307.099999999627471 ], [ 21280.05, 5941307.174999999813735 ], [ 21280.125, 5941307.174999999813735 ], [ 21280.125, 5941307.25 ], [ 21280.2, 5941307.25 ], [ 21280.2, 5941307.325000000186265 ], [ 21280.275000000001455, 5941307.325000000186265 ], [ 21280.275000000001455, 5941307.400000000372529 ], [ 21280.349999999998545, 5941307.400000000372529 ], [ 21280.349999999998545, 5941307.474999999627471 ], [ 21280.425, 5941307.474999999627471 ], [ 21280.425, 5941307.549999999813735 ], [ 21280.575, 5941307.549999999813735 ], [ 21280.575, 5941307.625 ], [ 21280.724999999998545, 5941307.625 ], [ 21280.724999999998545, 5941307.700000000186265 ], [ 21280.8, 5941307.700000000186265 ], [ 21280.8, 5941307.775000000372529 ], [ 21280.95, 5941307.775000000372529 ], [ 21280.95, 5941307.849999999627471 ], [ 21281.175, 5941307.849999999627471 ], [ 21281.175, 5941307.924999999813735 ], [ 21281.325, 5941307.924999999813735 ], [ 21281.325, 5941308.0 ], [ 21281.55, 5941308.0 ], [ 21281.55, 5941308.075000000186265 ], [ 21281.7, 5941308.075000000186265 ], [ 21281.7, 5941308.150000000372529 ], [ 21281.775000000001455, 5941308.150000000372529 ], [ 21281.775000000001455, 5941308.224999999627471 ], [ 21281.849999999998545, 5941308.224999999627471 ], [ 21281.849999999998545, 5941308.299999999813735 ], [ 21281.925, 5941308.299999999813735 ], [ 21281.925, 5941308.375 ], [ 21282.0, 5941308.375 ], [ 21282.0, 5941308.450000000186265 ], [ 21282.075, 5941308.450000000186265 ], [ 21282.075, 5941308.525000000372529 ], [ 21282.0, 5941308.525000000372529 ], [ 21282.0, 5941308.674999999813735 ], [ 21281.925, 5941308.674999999813735 ], [ 21281.925, 5941308.825000000186265 ], [ 21281.849999999998545, 5941308.825000000186265 ], [ 21281.849999999998545, 5941308.900000000372529 ], [ 21281.775000000001455, 5941308.900000000372529 ], [ 21281.775000000001455, 5941309.049999999813735 ], [ 21281.7, 5941309.049999999813735 ], [ 21281.7, 5941309.200000000186265 ], [ 21281.625, 5941309.200000000186265 ], [ 21281.625, 5941309.275000000372529 ], [ 21281.400000000001455, 5941309.275000000372529 ], [ 21281.400000000001455, 5941309.349999999627471 ], [ 21281.175, 5941309.349999999627471 ], [ 21281.175, 5941309.424999999813735 ], [ 21280.95, 5941309.424999999813735 ], [ 21280.95, 5941309.5 ], [ 21280.724999999998545, 5941309.5 ], [ 21280.724999999998545, 5941309.575000000186265 ], [ 21280.5, 5941309.575000000186265 ], [ 21280.5, 5941309.650000000372529 ], [ 21280.275000000001455, 5941309.650000000372529 ], [ 21280.275000000001455, 5941309.724999999627471 ], [ 21280.05, 5941309.724999999627471 ], [ 21280.05, 5941309.799999999813735 ], [ 21279.825, 5941309.799999999813735 ], [ 21279.825, 5941309.875 ], [ 21279.599999999998545, 5941309.875 ] ] ] } }
]
}
