{
"type": "FeatureCollection",
"name": "21933E591132N_buildings",
"crs": { "type": "name", "properties": { "name": "urn:ogc:def:crs:EPSG::3776" } },
"features": [
{ "type": "Feature", "properties": { "value": 1.0, "building_id": 0, "area": 16.931250000350882 }, "geometry": { "type": "Polygon", "coordinates": [ [ [ 22513.875, 5911428.674999999813735 ], [ 22513.875, 5911428.599999999627471 ], [ 22513.5, 5911428.599999999627471 ], [ 22513.5, 5911428.525000000372529 ], [ 22513.125, 5911428.525000000372529 ], [ 22513.125, 5911428.450000000186265 ], [ 22512.825, 5911428.450000000186265 ], [ 22512.825, 5911428.375 ], [ 22512.525000000001455, 5911428.375 ], [ 22512.525000000001455, 5911428.299999999813735 ], [ 22512.224999999998545, 5911428.299999999813735 ], [ 22512.224999999998545, 5911428.224999999627471 ], [ 22512.0, 5911428.224999999627471 ], [ 22512.0, 5911428.150000000372529 ], [ 22511.849999999998545, 5911428.150000000372529 ], [ 22511.849999999998545, 5911428.075000000186265 ], [ 22511.7, 5911428.075000000186265 ], [ 22511.7, 5911428.0 ], [ 22511.55, 5911428.0 ], [ 22511.55, 5911427.924999999813735 ], [ 22511.474999999998545, 5911427.924999999813735 ], [ 22511.474999999998545, 5911427.849999999627471 ], [ 22511.325, 5911427.849999999627471 ], [ 22511.325, 5911427.775000000372529 ], [ 22511.25, 5911427.775000000372529 ], [ 22511.25, 5911427.700000000186265 ], [ 22511.099999999998545, 5911427.700000000186265 ], [ 22511.099999999998545, 5911427.549999999813735 ], [ 22511.175, 5911427.549999999813735 ], [ 22511.175, 5911427.474999999627471 ], [ 22511.25, 5911427.474999999627471 ], [ 22511.25, 5911427.400000000372529 ], [ 22511.325, 5911427.400000000372529 ], [ 22511.325, 5911427.325000000186265 ], [ 22511.400000000001455, 5911427.325000000186265 ], [ 22511.400000000001455, 5911427.25 ], [ 22511.474999999998545, 5911427.25 ], [ 22511.474999999998545, 5911427.099999999627471 ], [ 22511.55, 5911427.099999999627471 ], [ 22511.55, 5911427.025000000372529 ], [ 22511.625, 5911427.025000000372529 ], [ 22511.625, 5911426.875 ], [ 22511.7, 5911426.875 ], [ 22511.7, 5911426.799999999813735 ], [ 22511.775000000001455, 5911426.799999999813735 ], [ 22511.775000000001455, 5911426.650000000372529 ], [ 22511.849999999998545, 5911426.650000000372529 ], [ 22511.849999999998545, 5911426.575000000186265 ], [ 22511.925, 5911426.575000000186265 ], [ 22511.925, 5911426.424999999813735 ], [ 22512.0, 5911426.424999999813735 ], [ 22512.0, 5911426.275000000372529 ], [ 22512.075, 5911426.275000000372529 ], [ 22512.075, 5911426.125 ], [ 22512.150000000001455, 5911426.125 ], [ 22512.150000000001455, 5911425.974999999627471 ], [ 22512.224999999998545, 5911425.974999999627471 ], [ 22512.224999999998545, 5911425.825000000186265 ], [ 22512.3, 5911425.825000000186265 ], [ 22512.3, 5911425.674999999813735 ], [ 22512.375, 5911425.674999999813735 ], [ 22512.375, 5911425.599999999627471 ], [ 22512.525000000001455, 5911425.599999999627471 ], [ 22512.525000000001455, 5911425.525000000372529 ], [ 22512.599999999998545, 5911425.525000000372529 ], [ 22512.599999999998545, 5911425.450000000186265 ], [ 22512.675, 5911425.450000000186265 ], [ 22512.675, 5911425.375 ], [ 22512.75, 5911425.375 ], [ 22512.75, 5911425.299999999813735 ], [ 22512.900000000001455, 5911425.299999999813735 ], [ 22512.900000000001455, 5911425.224999999627471 ], [ 22512.974999999998545, 5911425.224999999627471 ], [ 22512.974999999998545, 5911425.150000000372529 ], [ 22513.05, 5911425.150000000372529 ], [ 22513.05, 5911425.075000000186265 ], [ 22513.2, 5911425.075000000186265 ], [ 22513.2, 5911425.0 ], [ 22513.275000000001455, 5911425.0 ], [ 22513.275000000001455, 5911424.924999999813735 ], [ 22513.349999999998545, 5911424.924999999813735 ], [ 22513.349999999998545, 5911424.849999999627471 ], [ 22513.5, 5911424.849999999627471 ], [ 22513.5, 5911424.775000000372529 ], [ 22513.575, 5911424.775000000372529 ], [ 22513.575, 5911424.700000000186265 ], [ 22513.724999999998545, 5911424.700000000186265 ], [ 22513.724999999998545, 5911424.625 ], [ 22513.8, 5911424.625 ], [ 22513.8, 5911424.549999999813735 ], [ 22513.875, 5911424.549999999813735 ], [ 22513.875, 5911424.474999999627471 ], [ 22514.025000000001455, 5911424.474999999627471 ], [ 22514.025000000001455, 5911424.400000000372529 ], [ 22514.625, 5911424.400000000372529 ], [ 22514.625, 5911424.474999999627471 ], [ 22515.974999999998545, 5911424.474999999627471 ], [ 22515.974999999998545, 5911424.549999999813735 ], [ 22516.05, 5911424.549999999813735 ], [ 22516.05, 5911424.625 ], [ 22516.125, 5911424.625 ], [ 22516.125, 5911424.700000000186265 ], [ 22516.2, 5911424.700000000186265 ], [ 22516.2, 5911424.775000000372529 ], [ 22516.275000000001455, 5911424.775000000372529 ], [ 22516.275000000001455, 5911424.924999999813735 ], [ 22516.349999999998545, 5911424.924999999813735 ], [ 22516.349999999998545, 5911425.0 ], [ 22516.425, 5911425.0 ], [ 22516.425, 5911425.150000000372529 ], [ 22516.5, 5911425.150000000372529 ], [ 22516.5, 5911425.299999999813735 ], [ 22516.575, 5911425.299999999813735 ], [ 22516.575, 5911425.450000000186265 ], [ 22516.650000000001455, 5911425.450000000186265 ], [ 22516.650000000001455, 5911425.599999999627471 ], [ 22516.724999999998545, 5911425.599999999627471 ], [ 22516.724999999998545, 5911425.900000000372529 ], [ 22516.650000000001455, 5911425.900000000372529 ], [ 22516.650000000001455, 5911426.575000000186265 ], [ 22516.575, 5911426.575000000186265 ], [ 22516.575, 5911427.174999999813735 ], [ 22516.5, 5911427.174999999813735 ], [ 22516.5, 5911427.625 ], [ 22516.425, 5911427.625 ], [ 22516.425, 5911427.775000000372529 ], [ 22516.349999999998545, 5911427.775000000372529 ], [ 22516.349999999998545, 5911427.849999999627471 ], [ 22516.275000000001455, 5911427.849999999627471 ], [ 22516.275000000001455, 5911427.924999999813735 ], [ 22516.2, 5911427.924999999813735 ], [ 22516.2, 5911428.0 ], [ 22516.125, 5911428.0 ], [ 22516.125, 5911428.075000000186265 ], [ 22515.974999999998545, 5911428.075000000186265 ], [ 22515.974999999998545, 5911428.150000000372529 ], [ 22515.675, 5911428.150000000372529 ], [ 22515.675, 5911428.224999999627471 ], [ 22515.45, 5911428.224999999627471 ], [ 22515.45, 5911428.299999999813735 ], [ 22515.150000000001455, 5911428.299999999813735 ], [ 22515.150000000001455, 5911428.375 ], [ 22514.925, 5911428.375 ], [ 22514.925, 5911428.450000000186265 ], [ 22514.625, 5911428.450000000186265 ], [ 22514.625, 5911428.525000000372529 ], [ 22514.400000000001455, 5911428.525000000372529 ], [ 22514.400000000001455, 5911428.599999999627471 ], [ 22514.175, 5911428.599999999627471 ], [ 22514.175, 5911428.674999999813735 ], [ 22513.875, 5911428.674999999813735 ] ] ] } }
]
}
