{
"type": "FeatureCollection",
"name": "21933E592107N_buildings",
"crs": { "type": "name", "properties": { "name": "urn:ogc:def:crs:EPSG::3776" } },
"features": [
{ "type": "Feature", "properties": { "value": 1.0, "building_id": 0, "area": 137.49187499948744 }, "geometry": { "type": "Polygon", "coordinates": [ [ [ 22013.775000000001455, 5921770.200000000186265 ], [ 22013.775000000001455, 5921770.125 ], [ 22013.325, 5921770.125 ], [ 22013.325, 5921770.049999999813735 ], [ 22012.875, 5921770.049999999813735 ], [ 22012.875, 5921769.974999999627471 ], [ 22012.425, 5921769.974999999627471 ], [ 22012.425, 5921769.900000000372529 ], [ 22012.05, 5921769.900000000372529 ], [ 22012.05, 5921769.825000000186265 ], [ 22011.825, 5921769.825000000186265 ], [ 22011.825, 5921769.75 ], [ 22011.525000000001455, 5921769.75 ], [ 22011.525000000001455, 5921769.674999999813735 ], [ 22011.375, 5921769.674999999813735 ], [ 22011.375, 5921769.599999999627471 ], [ 22011.150000000001455, 5921769.599999999627471 ], [ 22011.150000000001455, 5921769.525000000372529 ], [ 22010.925, 5921769.525000000372529 ], [ 22010.925, 5921769.450000000186265 ], [ 22010.775000000001455, 5921769.450000000186265 ], [ 22010.775000000001455, 5921769.375 ], [ 22010.7, 5921769.375 ], [ 22010.7, 5921769.299999999813735 ], [ 22010.625, 5921769.299999999813735 ], [ 22010.625, 5921769.224999999627471 ], [ 22010.55, 5921769.224999999627471 ], [ 22010.55, 5921769.150000000372529 ], [ 22010.474999999998545, 5921769.150000000372529 ], [ 22010.474999999998545, 5921769.075000000186265 ], [ 22010.400000000001455, 5921769.075000000186265 ], [ 22010.400000000001455, 5921769.0 ], [ 22010.25, 5921769.0 ], [ 22010.25, 5921768.924999999813735 ], [ 22010.175, 5921768.924999999813735 ], [ 22010.175, 5921768.849999999627471 ], [ 22010.099999999998545, 5921768.849999999627471 ], [ 22010.099999999998545, 5921768.775000000372529 ], [ 22010.025000000001455, 5921768.775000000372529 ], [ 22010.025000000001455, 5921768.700000000186265 ], [ 22009.95, 5921768.700000000186265 ], [ 22009.95, 5921768.625 ], [ 22009.875, 5921768.625 ], [ 22009.875, 5921768.549999999813735 ], [ 22009.8, 5921768.549999999813735 ], [ 22009.8, 5921768.400000000372529 ], [ 22009.724999999998545, 5921768.400000000372529 ], [ 22009.724999999998545, 5921768.325000000186265 ], [ 22009.650000000001455, 5921768.325000000186265 ], [ 22009.650000000001455, 5921768.25 ], [ 22009.575, 5921768.25 ], [ 22009.575, 5921767.650000000372529 ], [ 22009.5, 5921767.650000000372529 ], [ 22009.5, 5921766.599999999627471 ], [ 22009.425, 5921766.599999999627471 ], [ 22009.425, 5921765.400000000372529 ], [ 22009.349999999998545, 5921765.400000000372529 ], [ 22009.349999999998545, 5921763.0 ], [ 22009.425, 5921763.0 ], [ 22009.425, 5921762.325000000186265 ], [ 22009.5, 5921762.325000000186265 ], [ 22009.5, 5921761.650000000372529 ], [ 22009.575, 5921761.650000000372529 ], [ 22009.575, 5921761.349999999627471 ], [ 22009.650000000001455, 5921761.349999999627471 ], [ 22009.650000000001455, 5921761.049999999813735 ], [ 22009.724999999998545, 5921761.049999999813735 ], [ 22009.724999999998545, 5921760.75 ], [ 22009.8, 5921760.75 ], [ 22009.8, 5921760.450000000186265 ], [ 22009.875, 5921760.450000000186265 ], [ 22009.875, 5921760.150000000372529 ], [ 22009.95, 5921760.150000000372529 ], [ 22009.95, 5921759.849999999627471 ], [ 22010.025000000001455, 5921759.849999999627471 ], [ 22010.025000000001455, 5921759.625 ], [ 22010.099999999998545, 5921759.625 ], [ 22010.099999999998545, 5921759.400000000372529 ], [ 22010.175, 5921759.400000000372529 ], [ 22010.175, 5921759.174999999813735 ], [ 22010.25, 5921759.174999999813735 ], [ 22010.25, 5921759.025000000372529 ], [ 22010.325, 5921759.025000000372529 ], [ 22010.325, 5921758.875 ], [ 22010.400000000001455, 5921758.875 ], [ 22010.400000000001455, 5921758.724999999627471 ], [ 22010.474999999998545, 5921758.724999999627471 ], [ 22010.474999999998545, 5921758.575000000186265 ], [ 22010.55, 5921758.575000000186265 ], [ 22010.55, 5921758.424999999813735 ], [ 22010.625, 5921758.424999999813735 ], [ 22010.625, 5921758.200000000186265 ], [ 22010.7, 5921758.200000000186265 ], [ 22010.7, 5921758.049999999813735 ], [ 22010.775000000001455, 5921758.049999999813735 ], [ 22010.775000000001455, 5921757.825000000186265 ], [ 22010.849999999998545, 5921757.825000000186265 ], [ 22010.849999999998545, 5921757.674999999813735 ], [ 22010.925, 5921757.674999999813735 ], [ 22010.925, 5921757.525000000372529 ], [ 22011.0, 5921757.525000000372529 ], [ 22011.0, 5921757.375 ], [ 22011.075, 5921757.375 ], [ 22011.075, 5921757.224999999627471 ], [ 22011.150000000001455, 5921757.224999999627471 ], [ 22011.150000000001455, 5921757.0 ], [ 22011.224999999998545, 5921757.0 ], [ 22011.224999999998545, 5921756.849999999627471 ], [ 22011.3, 5921756.849999999627471 ], [ 22011.3, 5921756.700000000186265 ], [ 22011.375, 5921756.700000000186265 ], [ 22011.375, 5921756.549999999813735 ], [ 22011.45, 5921756.549999999813735 ], [ 22011.45, 5921756.400000000372529 ], [ 22011.525000000001455, 5921756.400000000372529 ], [ 22011.525000000001455, 5921756.174999999813735 ], [ 22011.599999999998545, 5921756.174999999813735 ], [ 22011.599999999998545, 5921756.025000000372529 ], [ 22011.675, 5921756.025000000372529 ], [ 22011.675, 5921755.875 ], [ 22011.75, 5921755.875 ], [ 22011.75, 5921755.724999999627471 ], [ 22011.825, 5921755.724999999627471 ], [ 22011.825, 5921755.650000000372529 ], [ 22011.974999999998545, 5921755.650000000372529 ], [ 22011.974999999998545, 5921755.575000000186265 ], [ 22012.05, 5921755.575000000186265 ], [ 22012.05, 5921755.5 ], [ 22012.2, 5921755.5 ], [ 22012.2, 5921755.424999999813735 ], [ 22012.349999999998545, 5921755.424999999813735 ], [ 22012.349999999998545, 5921755.349999999627471 ], [ 22012.5, 5921755.349999999627471 ], [ 22012.5, 5921755.275000000372529 ], [ 22012.650000000001455, 5921755.275000000372529 ], [ 22012.650000000001455, 5921755.200000000186265 ], [ 22012.8, 5921755.200000000186265 ], [ 22012.8, 5921755.125 ], [ 22012.95, 5921755.125 ], [ 22012.95, 5921755.049999999813735 ], [ 22013.099999999998545, 5921755.049999999813735 ], [ 22013.099999999998545, 5921754.974999999627471 ], [ 22013.25, 5921754.974999999627471 ], [ 22013.25, 5921754.900000000372529 ], [ 22013.400000000001455, 5921754.900000000372529 ], [ 22013.400000000001455, 5921754.825000000186265 ], [ 22013.55, 5921754.825000000186265 ], [ 22013.55, 5921754.75 ], [ 22013.7, 5921754.75 ], [ 22013.7, 5921754.674999999813735 ], [ 22013.925, 5921754.674999999813735 ], [ 22013.925, 5921754.599999999627471 ], [ 22014.224999999998545, 5921754.599999999627471 ], [ 22014.224999999998545, 5921754.525000000372529 ], [ 22015.125, 5921754.525000000372529 ], [ 22015.125, 5921754.450000000186265 ], [ 22016.400000000001455, 5921754.450000000186265 ], [ 22016.400000000001455, 5921754.525000000372529 ], [ 22016.775000000001455, 5921754.525000000372529 ], [ 22016.775000000001455, 5921754.599999999627471 ], [ 22017.075, 5921754.599999999627471 ], [ 22017.075, 5921754.674999999813735 ], [ 22017.375, 5921754.674999999813735 ], [ 22017.375, 5921754.75 ], [ 22017.599999999998545, 5921754.75 ], [ 22017.599999999998545, 5921754.825000000186265 ], [ 22017.900000000001455, 5921754.825000000186265 ], [ 22017.900000000001455, 5921754.900000000372529 ], [ 22018.05, 5921754.900000000372529 ], [ 22018.05, 5921754.974999999627471 ], [ 22018.2, 5921754.974999999627471 ], [ 22018.2, 5921755.049999999813735 ], [ 22018.349999999998545, 5921755.049999999813735 ], [ 22018.349999999998545, 5921755.125 ], [ 22018.5, 5921755.125 ], [ 22018.5, 5921755.200000000186265 ], [ 22018.575, 5921755.200000000186265 ], [ 22018.575, 5921755.275000000372529 ], [ 22018.724999999998545, 5921755.275000000372529 ], [ 22018.724999999998545, 5921755.349999999627471 ], [ 22018.8, 5921755.349999999627471 ], [ 22018.8, 5921755.424999999813735 ], [ 22018.875, 5921755.424999999813735 ], [ 22018.875, 5921755.5 ], [ 22018.95, 5921755.5 ], [ 22018.95, 5921755.575000000186265 ], [ 22019.025000000001455, 5921755.575000000186265 ], [ 22019.025000000001455, 5921755.650000000372529 ], [ 22019.099999999998545, 5921755.650000000372529 ], [ 22019.099999999998545, 5921755.724999999627471 ], [ 22019.175, 5921755.724999999627471 ], [ 22019.175, 5921755.875 ], [ 22019.25, 5921755.875 ], [ 22019.25, 5921756.099999999627471 ], [ 22019.325, 5921756.099999999627471 ], [ 22019.325, 5921756.25 ], [ 22019.400000000001455, 5921756.25 ], [ 22019.400000000001455, 5921756.400000000372529 ], [ 22019.474999999998545, 5921756.400000000372529 ], [ 22019.474999999998545, 5921756.625 ], [ 22019.55, 5921756.625 ], [ 22019.55, 5921756.775000000372529 ], [ 22019.625, 5921756.775000000372529 ], [ 22019.625, 5921756.924999999813735 ], [ 22019.7, 5921756.924999999813735 ], [ 22019.7, 5921757.075000000186265 ], [ 22019.775000000001455, 5921757.075000000186265 ], [ 22019.775000000001455, 5921757.299999999813735 ], [ 22019.849999999998545, 5921757.299999999813735 ], [ 22019.849999999998545, 5921757.450000000186265 ], [ 22019.925, 5921757.450000000186265 ], [ 22019.925, 5921757.599999999627471 ], [ 22020.0, 5921757.599999999627471 ], [ 22020.0, 5921757.900000000372529 ], [ 22020.075, 5921757.900000000372529 ], [ 22020.075, 5921758.125 ], [ 22020.150000000001455, 5921758.125 ], [ 22020.150000000001455, 5921758.424999999813735 ], [ 22020.224999999998545, 5921758.424999999813735 ], [ 22020.224999999998545, 5921758.724999999627471 ], [ 22020.3, 5921758.724999999627471 ], [ 22020.3, 5921759.025000000372529 ], [ 22020.375, 5921759.025000000372529 ], [ 22020.375, 5921759.325000000186265 ], [ 22020.45, 5921759.325000000186265 ], [ 22020.45, 5921759.625 ], [ 22020.525000000001455, 5921759.625 ], [ 22020.525000000001455, 5921760.075000000186265 ], [ 22020.599999999998545, 5921760.075000000186265 ], [ 22020.599999999998545, 5921760.599999999627471 ], [ 22020.675, 5921760.599999999627471 ], [ 22020.675, 5921760.974999999627471 ], [ 22020.75, 5921760.974999999627471 ], [ 22020.75, 5921761.349999999627471 ], [ 22020.825, 5921761.349999999627471 ], [ 22020.825, 5921761.724999999627471 ], [ 22020.75, 5921761.724999999627471 ], [ 22020.75, 5921761.950000000186265 ], [ 22020.675, 5921761.950000000186265 ], [ 22020.675, 5921762.099999999627471 ], [ 22020.599999999998545, 5921762.099999999627471 ], [ 22020.599999999998545, 5921762.400000000372529 ], [ 22020.525000000001455, 5921762.400000000372529 ], [ 22020.525000000001455, 5921762.625 ], [ 22020.45, 5921762.625 ], [ 22020.45, 5921763.0 ], [ 22020.375, 5921763.0 ], [ 22020.375, 5921763.375 ], [ 22020.3, 5921763.375 ], [ 22020.3, 5921763.674999999813735 ], [ 22020.224999999998545, 5921763.674999999813735 ], [ 22020.224999999998545, 5921763.825000000186265 ], [ 22020.150000000001455, 5921763.825000000186265 ], [ 22020.150000000001455, 5921763.974999999627471 ], [ 22020.075, 5921763.974999999627471 ], [ 22020.075, 5921764.049999999813735 ], [ 22020.0, 5921764.049999999813735 ], [ 22020.0, 5921764.200000000186265 ], [ 22019.925, 5921764.200000000186265 ], [ 22019.925, 5921764.275000000372529 ], [ 22019.849999999998545, 5921764.275000000372529 ], [ 22019.849999999998545, 5921764.349999999627471 ], [ 22019.775000000001455, 5921764.349999999627471 ], [ 22019.775000000001455, 5921764.5 ], [ 22019.7, 5921764.5 ], [ 22019.7, 5921764.575000000186265 ], [ 22019.625, 5921764.575000000186265 ], [ 22019.625, 5921764.724999999627471 ], [ 22019.55, 5921764.724999999627471 ], [ 22019.55, 5921764.875 ], [ 22019.474999999998545, 5921764.875 ], [ 22019.474999999998545, 5921765.025000000372529 ], [ 22019.400000000001455, 5921765.025000000372529 ], [ 22019.400000000001455, 5921765.174999999813735 ], [ 22019.325, 5921765.174999999813735 ], [ 22019.325, 5921765.325000000186265 ], [ 22019.25, 5921765.325000000186265 ], [ 22019.25, 5921765.549999999813735 ], [ 22019.175, 5921765.549999999813735 ], [ 22019.175, 5921765.625 ], [ 22019.099999999998545, 5921765.625 ], [ 22019.099999999998545, 5921765.700000000186265 ], [ 22019.025000000001455, 5921765.700000000186265 ], [ 22019.025000000001455, 5921765.849999999627471 ], [ 22018.95, 5921765.849999999627471 ], [ 22018.95, 5921765.924999999813735 ], [ 22018.875, 5921765.924999999813735 ], [ 22018.875, 5921766.0 ], [ 22018.8, 5921766.0 ], [ 22018.8, 5921766.075000000186265 ], [ 22018.650000000001455, 5921766.075000000186265 ], [ 22018.650000000001455, 5921766.150000000372529 ], [ 22018.575, 5921766.150000000372529 ], [ 22018.575, 5921766.224999999627471 ], [ 22018.5, 5921766.224999999627471 ], [ 22018.5, 5921766.299999999813735 ], [ 22018.425, 5921766.299999999813735 ], [ 22018.425, 5921766.375 ], [ 22018.349999999998545, 5921766.375 ], [ 22018.349999999998545, 5921766.450000000186265 ], [ 22018.2, 5921766.450000000186265 ], [ 22018.2, 5921766.525000000372529 ], [ 22018.125, 5921766.525000000372529 ], [ 22018.125, 5921766.599999999627471 ], [ 22017.974999999998545, 5921766.599999999627471 ], [ 22017.974999999998545, 5921766.674999999813735 ], [ 22017.900000000001455, 5921766.674999999813735 ], [ 22017.900000000001455, 5921766.75 ], [ 22017.825, 5921766.75 ], [ 22017.825, 5921766.825000000186265 ], [ 22017.75, 5921766.825000000186265 ], [ 22017.75, 5921766.900000000372529 ], [ 22017.675, 5921766.900000000372529 ], [ 22017.675, 5921766.974999999627471 ], [ 22017.599999999998545, 5921766.974999999627471 ], [ 22017.599999999998545, 5921767.049999999813735 ], [ 22017.525000000001455, 5921767.049999999813735 ], [ 22017.525000000001455, 5921767.125 ], [ 22017.45, 5921767.125 ], [ 22017.45, 5921767.275000000372529 ], [ 22017.375, 5921767.275000000372529 ], [ 22017.375, 5921767.349999999627471 ], [ 22017.3, 5921767.349999999627471 ], [ 22017.3, 5921767.424999999813735 ], [ 22017.224999999998545, 5921767.424999999813735 ], [ 22017.224999999998545, 5921767.575000000186265 ], [ 22017.150000000001455, 5921767.575000000186265 ], [ 22017.150000000001455, 5921767.724999999627471 ], [ 22017.075, 5921767.724999999627471 ], [ 22017.075, 5921767.799999999813735 ], [ 22017.0, 5921767.799999999813735 ], [ 22017.0, 5921767.950000000186265 ], [ 22016.925, 5921767.950000000186265 ], [ 22016.925, 5921768.025000000372529 ], [ 22016.849999999998545, 5921768.025000000372529 ], [ 22016.849999999998545, 5921768.174999999813735 ], [ 22016.775000000001455, 5921768.174999999813735 ], [ 22016.775000000001455, 5921768.25 ], [ 22016.7, 5921768.25 ], [ 22016.7, 5921768.400000000372529 ], [ 22016.625, 5921768.400000000372529 ], [ 22016.625, 5921768.474999999627471 ], [ 22016.55, 5921768.474999999627471 ], [ 22016.55, 5921768.625 ], [ 22016.474999999998545, 5921768.625 ], [ 22016.474999999998545, 5921768.700000000186265 ], [ 22016.400000000001455, 5921768.700000000186265 ], [ 22016.400000000001455, 5921768.775000000372529 ], [ 22016.325, 5921768.775000000372529 ], [ 22016.325, 5921768.924999999813735 ], [ 22016.25, 5921768.924999999813735 ], [ 22016.25, 5921769.0 ], [ 22016.175, 5921769.0 ], [ 22016.175, 5921769.075000000186265 ], [ 22016.099999999998545, 5921769.075000000186265 ], [ 22016.099999999998545, 5921769.224999999627471 ], [ 22016.025000000001455, 5921769.224999999627471 ], [ 22016.025000000001455, 5921769.299999999813735 ], [ 22015.875, 5921769.299999999813735 ], [ 22015.875, 5921769.375 ], [ 22015.8, 5921769.375 ], [ 22015.8, 5921769.450000000186265 ], [ 22015.650000000001455, 5921769.450000000186265 ], [ 22015.650000000001455, 5921769.525000000372529 ], [ 22015.5, 5921769.525000000372529 ], [ 22015.5, 5921769.599999999627471 ], [ 22015.349999999998545, 5921769.599999999627471 ], [ 22015.349999999998545, 5921769.674999999813735 ], [ 22015.2, 5921769.674999999813735 ], [ 22015.2, 5921769.75 ], [ 22015.05, 5921769.75 ], [ 22015.05, 5921769.825000000186265 ], [ 22014.900000000001455, 5921769.825000000186265 ], [ 22014.900000000001455, 5921769.900000000372529 ], [ 22014.675, 5921769.900000000372529 ], [ 22014.675, 5921769.974999999627471 ], [ 22014.525000000001455, 5921769.974999999627471 ], [ 22014.525000000001455, 5921770.049999999813735 ], [ 22014.375, 5921770.049999999813735 ], [ 22014.375, 5921770.125 ], [ 22014.150000000001455, 5921770.125 ], [ 22014.150000000001455, 5921770.200000000186265 ], [ 22013.775000000001455, 5921770.200000000186265 ] ] ] } },
{ "type": "Feature", "properties": { "value": 1.0, "building_id": 1, "area": 31.280624999456592 }, "geometry": { "type": "Polygon", "coordinates": [ [ [ 21933.0, 5921726.474999999627471 ], [ 21933.0, 5921718.299999999813735 ], [ 21935.925, 5921718.299999999813735 ], [ 21935.925, 5921718.375 ], [ 21936.0, 5921718.375 ], [ 21936.0, 5921718.525000000372529 ], [ 21936.075, 5921718.525000000372529 ], [ 21936.075, 5921718.75 ], [ 21936.150000000001455, 5921718.75 ], [ 21936.150000000001455, 5921718.900000000372529 ], [ 21936.224999999998545, 5921718.900000000372529 ], [ 21936.224999999998545, 5921719.125 ], [ 21936.3, 5921719.125 ], [ 21936.3, 5921719.349999999627471 ], [ 21936.375, 5921719.349999999627471 ], [ 21936.375, 5921719.5 ], [ 21936.45, 5921719.5 ], [ 21936.45, 5921719.724999999627471 ], [ 21936.525000000001455, 5921719.724999999627471 ], [ 21936.525000000001455, 5921719.950000000186265 ], [ 21936.599999999998545, 5921719.950000000186265 ], [ 21936.599999999998545, 5921720.174999999813735 ], [ 21936.675, 5921720.174999999813735 ], [ 21936.675, 5921720.400000000372529 ], [ 21936.75, 5921720.400000000372529 ], [ 21936.75, 5921720.625 ], [ 21936.825, 5921720.625 ], [ 21936.825, 5921720.849999999627471 ], [ 21936.900000000001455, 5921720.849999999627471 ], [ 21936.900000000001455, 5921721.150000000372529 ], [ 21936.974999999998545, 5921721.150000000372529 ], [ 21936.974999999998545, 5921721.375 ], [ 21937.05, 5921721.375 ], [ 21937.05, 5921721.674999999813735 ], [ 21937.125, 5921721.674999999813735 ], [ 21937.125, 5921721.900000000372529 ], [ 21937.2, 5921721.900000000372529 ], [ 21937.2, 5921722.200000000186265 ], [ 21937.275000000001455, 5921722.200000000186265 ], [ 21937.275000000001455, 5921722.424999999813735 ], [ 21937.349999999998545, 5921722.424999999813735 ], [ 21937.349999999998545, 5921723.025000000372529 ], [ 21937.275000000001455, 5921723.025000000372529 ], [ 21937.275000000001455, 5921724.0 ], [ 21937.2, 5921724.0 ], [ 21937.2, 5921724.599999999627471 ], [ 21937.125, 5921724.599999999627471 ], [ 21937.125, 5921724.75 ], [ 21937.05, 5921724.75 ], [ 21937.05, 5921724.900000000372529 ], [ 21936.974999999998545, 5921724.900000000372529 ], [ 21936.974999999998545, 5921725.125 ], [ 21936.900000000001455, 5921725.125 ], [ 21936.900000000001455, 5921725.275000000372529 ], [ 21936.825, 5921725.275000000372529 ], [ 21936.825, 5921725.349999999627471 ], [ 21936.75, 5921725.349999999627471 ], [ 21936.75, 5921725.5 ], [ 21936.675, 5921725.5 ], [ 21936.675, 5921725.650000000372529 ], [ 21936.599999999998545, 5921725.650000000372529 ], [ 21936.599999999998545, 5921725.724999999627471 ], [ 21936.525000000001455, 5921725.724999999627471 ], [ 21936.525000000001455, 5921725.875 ], [ 21936.45, 5921725.875 ], [ 21936.45, 5921725.950000000186265 ], [ 21936.375, 5921725.950000000186265 ], [ 21936.375, 5921726.025000000372529 ], [ 21936.3, 5921726.025000000372529 ], [ 21936.3, 5921726.099999999627471 ], [ 21936.224999999998545, 5921726.099999999627471 ], [ 21936.224999999998545, 5921726.174999999813735 ], [ 21936.150000000001455, 5921726.174999999813735 ], [ 21936.150000000001455, 5921726.325000000186265 ], [ 21936.075, 5921726.325000000186265 ], [ 21936.075, 5921726.400000000372529 ], [ 21936.0, 5921726.400000000372529 ], [ 21936.0, 5921726.474999999627471 ], [ 21933.0, 5921726.474999999627471 ] ] ] } },
{ "type": "Feature", "properties": { "value": 1.0, "building_id": 2, "area": 544.44937500225535 }, "geometry": { "type": "Polygon", "coordinates": [ [ [ 22015.724999999998545, 5921687.325000000186265 ], [ 22015.724999999998545, 5921687.25 ], [ 22015.5, 5921687.25 ], [ 22015.5, 5921687.174999999813735 ], [ 22015.275000000001455, 5921687.174999999813735 ], [ 22015.275000000001455, 5921687.099999999627471 ], [ 22014.974999999998545, 5921687.099999999627471 ], [ 22014.974999999998545, 5921687.025000000372529 ], [ 22014.75, 5921687.025000000372529 ], [ 22014.75, 5921686.950000000186265 ], [ 22014.45, 5921686.950000000186265 ], [ 22014.45, 5921686.875 ], [ 22014.224999999998545, 5921686.875 ], [ 22014.224999999998545, 5921686.799999999813735 ], [ 22014.075, 5921686.799999999813735 ], [ 22014.075, 5921686.724999999627471 ], [ 22014.0, 5921686.724999999627471 ], [ 22014.0, 5921686.650000000372529 ], [ 22013.925, 5921686.650000000372529 ], [ 22013.925, 5921686.575000000186265 ], [ 22013.849999999998545, 5921686.575000000186265 ], [ 22013.849999999998545, 5921686.424999999813735 ], [ 22013.775000000001455, 5921686.424999999813735 ], [ 22013.775000000001455, 5921686.349999999627471 ], [ 22013.7, 5921686.349999999627471 ], [ 22013.7, 5921686.200000000186265 ], [ 22013.625, 5921686.200000000186265 ], [ 22013.625, 5921686.125 ], [ 22013.55, 5921686.125 ], [ 22013.55, 5921685.974999999627471 ], [ 22013.474999999998545, 5921685.974999999627471 ], [ 22013.474999999998545, 5921685.900000000372529 ], [ 22013.400000000001455, 5921685.900000000372529 ], [ 22013.400000000001455, 5921685.75 ], [ 22013.325, 5921685.75 ], [ 22013.325, 5921685.599999999627471 ], [ 22013.25, 5921685.599999999627471 ], [ 22013.25, 5921685.450000000186265 ], [ 22013.175, 5921685.450000000186265 ], [ 22013.175, 5921685.299999999813735 ], [ 22013.099999999998545, 5921685.299999999813735 ], [ 22013.099999999998545, 5921685.224999999627471 ], [ 22013.025000000001455, 5921685.224999999627471 ], [ 22013.025000000001455, 5921685.150000000372529 ], [ 22012.95, 5921685.150000000372529 ], [ 22012.95, 5921685.0 ], [ 22012.875, 5921685.0 ], [ 22012.875, 5921684.924999999813735 ], [ 22012.8, 5921684.924999999813735 ], [ 22012.8, 5921684.775000000372529 ], [ 22012.724999999998545, 5921684.775000000372529 ], [ 22012.724999999998545, 5921684.700000000186265 ], [ 22012.650000000001455, 5921684.700000000186265 ], [ 22012.650000000001455, 5921684.625 ], [ 22012.575, 5921684.625 ], [ 22012.575, 5921684.474999999627471 ], [ 22012.5, 5921684.474999999627471 ], [ 22012.5, 5921684.400000000372529 ], [ 22012.425, 5921684.400000000372529 ], [ 22012.425, 5921684.325000000186265 ], [ 22012.349999999998545, 5921684.325000000186265 ], [ 22012.349999999998545, 5921684.174999999813735 ], [ 22012.275000000001455, 5921684.174999999813735 ], [ 22012.275000000001455, 5921684.099999999627471 ], [ 22012.2, 5921684.099999999627471 ], [ 22012.2, 5921684.025000000372529 ], [ 22012.125, 5921684.025000000372529 ], [ 22012.125, 5921683.875 ], [ 22012.05, 5921683.875 ], [ 22012.05, 5921683.799999999813735 ], [ 22011.974999999998545, 5921683.799999999813735 ], [ 22011.974999999998545, 5921683.724999999627471 ], [ 22011.900000000001455, 5921683.724999999627471 ], [ 22011.900000000001455, 5921683.575000000186265 ], [ 22011.825, 5921683.575000000186265 ], [ 22011.825, 5921683.424999999813735 ], [ 22011.75, 5921683.424999999813735 ], [ 22011.75, 5921683.349999999627471 ], [ 22011.675, 5921683.349999999627471 ], [ 22011.675, 5921683.275000000372529 ], [ 22011.599999999998545, 5921683.275000000372529 ], [ 22011.599999999998545, 5921683.125 ], [ 22011.525000000001455, 5921683.125 ], [ 22011.525000000001455, 5921683.049999999813735 ], [ 22011.45, 5921683.049999999813735 ], [ 22011.45, 5921682.900000000372529 ], [ 22011.375, 5921682.900000000372529 ], [ 22011.375, 5921682.825000000186265 ], [ 22011.3, 5921682.825000000186265 ], [ 22011.3, 5921682.674999999813735 ], [ 22011.224999999998545, 5921682.674999999813735 ], [ 22011.224999999998545, 5921682.599999999627471 ], [ 22011.150000000001455, 5921682.599999999627471 ], [ 22011.150000000001455, 5921682.525000000372529 ], [ 22011.075, 5921682.525000000372529 ], [ 22011.075, 5921682.375 ], [ 22011.0, 5921682.375 ], [ 22011.0, 5921682.299999999813735 ], [ 22010.925, 5921682.299999999813735 ], [ 22010.925, 5921682.150000000372529 ], [ 22010.849999999998545, 5921682.150000000372529 ], [ 22010.849999999998545, 5921682.075000000186265 ], [ 22010.775000000001455, 5921682.075000000186265 ], [ 22010.775000000001455, 5921681.924999999813735 ], [ 22010.7, 5921681.924999999813735 ], [ 22010.7, 5921681.849999999627471 ], [ 22010.625, 5921681.849999999627471 ], [ 22010.625, 5921681.700000000186265 ], [ 22010.55, 5921681.700000000186265 ], [ 22010.55, 5921681.625 ], [ 22010.474999999998545, 5921681.625 ], [ 22010.474999999998545, 5921681.474999999627471 ], [ 22010.400000000001455, 5921681.474999999627471 ], [ 22010.400000000001455, 5921681.400000000372529 ], [ 22010.325, 5921681.400000000372529 ], [ 22010.325, 5921681.25 ], [ 22010.25, 5921681.25 ], [ 22010.25, 5921681.174999999813735 ], [ 22010.175, 5921681.174999999813735 ], [ 22010.175, 5921681.099999999627471 ], [ 22010.099999999998545, 5921681.099999999627471 ], [ 22010.099999999998545, 5921680.950000000186265 ], [ 22010.025000000001455, 5921680.950000000186265 ], [ 22010.025000000001455, 5921680.875 ], [ 22009.95, 5921680.875 ], [ 22009.95, 5921680.799999999813735 ], [ 22009.875, 5921680.799999999813735 ], [ 22009.875, 5921680.650000000372529 ], [ 22009.8, 5921680.650000000372529 ], [ 22009.8, 5921680.5 ], [ 22009.724999999998545, 5921680.5 ], [ 22009.724999999998545, 5921680.424999999813735 ], [ 22009.650000000001455, 5921680.424999999813735 ], [ 22009.650000000001455, 5921680.275000000372529 ], [ 22009.575, 5921680.275000000372529 ], [ 22009.575, 5921680.125 ], [ 22009.5, 5921680.125 ], [ 22009.5, 5921679.974999999627471 ], [ 22009.425, 5921679.974999999627471 ], [ 22009.425, 5921679.825000000186265 ], [ 22009.349999999998545, 5921679.825000000186265 ], [ 22009.349999999998545, 5921679.674999999813735 ], [ 22009.275000000001455, 5921679.674999999813735 ], [ 22009.275000000001455, 5921679.525000000372529 ], [ 22009.2, 5921679.525000000372529 ], [ 22009.2, 5921679.299999999813735 ], [ 22009.125, 5921679.299999999813735 ], [ 22009.125, 5921679.150000000372529 ], [ 22009.05, 5921679.150000000372529 ], [ 22009.05, 5921678.924999999813735 ], [ 22008.974999999998545, 5921678.924999999813735 ], [ 22008.974999999998545, 5921678.775000000372529 ], [ 22008.900000000001455, 5921678.775000000372529 ], [ 22008.900000000001455, 5921678.549999999813735 ], [ 22008.825, 5921678.549999999813735 ], [ 22008.825, 5921678.400000000372529 ], [ 22008.75, 5921678.400000000372529 ], [ 22008.75, 5921678.25 ], [ 22008.675, 5921678.25 ], [ 22008.675, 5921678.025000000372529 ], [ 22008.599999999998545, 5921678.025000000372529 ], [ 22008.599999999998545, 5921677.875 ], [ 22008.525000000001455, 5921677.875 ], [ 22008.525000000001455, 5921677.724999999627471 ], [ 22008.45, 5921677.724999999627471 ], [ 22008.45, 5921677.049999999813735 ], [ 22008.375, 5921677.049999999813735 ], [ 22008.375, 5921676.0 ], [ 22008.3, 5921676.0 ], [ 22008.3, 5921675.625 ], [ 22008.375, 5921675.625 ], [ 22008.375, 5921675.400000000372529 ], [ 22008.45, 5921675.400000000372529 ], [ 22008.45, 5921675.174999999813735 ], [ 22008.525000000001455, 5921675.174999999813735 ], [ 22008.525000000001455, 5921674.950000000186265 ], [ 22008.599999999998545, 5921674.950000000186265 ], [ 22008.599999999998545, 5921674.724999999627471 ], [ 22008.675, 5921674.724999999627471 ], [ 22008.675, 5921674.424999999813735 ], [ 22008.75, 5921674.424999999813735 ], [ 22008.75, 5921674.125 ], [ 22008.825, 5921674.125 ], [ 22008.825, 5921673.825000000186265 ], [ 22008.900000000001455, 5921673.825000000186265 ], [ 22008.900000000001455, 5921673.450000000186265 ], [ 22008.974999999998545, 5921673.450000000186265 ], [ 22008.974999999998545, 5921673.0 ], [ 22009.05, 5921673.0 ], [ 22009.05, 5921672.625 ], [ 22009.125, 5921672.625 ], [ 22009.125, 5921672.174999999813735 ], [ 22009.2, 5921672.174999999813735 ], [ 22009.2, 5921671.650000000372529 ], [ 22009.275000000001455, 5921671.650000000372529 ], [ 22009.275000000001455, 5921671.125 ], [ 22009.349999999998545, 5921671.125 ], [ 22009.349999999998545, 5921670.599999999627471 ], [ 22009.425, 5921670.599999999627471 ], [ 22009.425, 5921670.150000000372529 ], [ 22009.5, 5921670.150000000372529 ], [ 22009.5, 5921669.700000000186265 ], [ 22009.575, 5921669.700000000186265 ], [ 22009.575, 5921669.325000000186265 ], [ 22009.650000000001455, 5921669.325000000186265 ], [ 22009.650000000001455, 5921668.950000000186265 ], [ 22009.724999999998545, 5921668.950000000186265 ], [ 22009.724999999998545, 5921668.650000000372529 ], [ 22009.8, 5921668.650000000372529 ], [ 22009.8, 5921668.349999999627471 ], [ 22009.875, 5921668.349999999627471 ], [ 22009.875, 5921668.049999999813735 ], [ 22009.95, 5921668.049999999813735 ], [ 22009.95, 5921667.825000000186265 ], [ 22010.025000000001455, 5921667.825000000186265 ], [ 22010.025000000001455, 5921667.599999999627471 ], [ 22010.099999999998545, 5921667.599999999627471 ], [ 22010.099999999998545, 5921667.450000000186265 ], [ 22010.175, 5921667.450000000186265 ], [ 22010.175, 5921667.299999999813735 ], [ 22010.25, 5921667.299999999813735 ], [ 22010.25, 5921667.075000000186265 ], [ 22010.325, 5921667.075000000186265 ], [ 22010.325, 5921666.924999999813735 ], [ 22010.400000000001455, 5921666.924999999813735 ], [ 22010.400000000001455, 5921666.700000000186265 ], [ 22010.474999999998545, 5921666.700000000186265 ], [ 22010.474999999998545, 5921666.474999999627471 ], [ 22010.55, 5921666.474999999627471 ], [ 22010.55, 5921666.25 ], [ 22010.625, 5921666.25 ], [ 22010.625, 5921666.025000000372529 ], [ 22010.7, 5921666.025000000372529 ], [ 22010.7, 5921665.724999999627471 ], [ 22010.775000000001455, 5921665.724999999627471 ], [ 22010.775000000001455, 5921665.424999999813735 ], [ 22010.849999999998545, 5921665.424999999813735 ], [ 22010.849999999998545, 5921665.125 ], [ 22010.925, 5921665.125 ], [ 22010.925, 5921664.825000000186265 ], [ 22011.0, 5921664.825000000186265 ], [ 22011.0, 5921664.525000000372529 ], [ 22011.075, 5921664.525000000372529 ], [ 22011.075, 5921664.224999999627471 ], [ 22011.150000000001455, 5921664.224999999627471 ], [ 22011.150000000001455, 5921664.0 ], [ 22011.224999999998545, 5921664.0 ], [ 22011.224999999998545, 5921663.775000000372529 ], [ 22011.3, 5921663.775000000372529 ], [ 22011.3, 5921663.625 ], [ 22011.375, 5921663.625 ], [ 22011.375, 5921663.400000000372529 ], [ 22011.45, 5921663.400000000372529 ], [ 22011.45, 5921663.25 ], [ 22011.525000000001455, 5921663.25 ], [ 22011.525000000001455, 5921663.099999999627471 ], [ 22011.599999999998545, 5921663.099999999627471 ], [ 22011.599999999998545, 5921663.025000000372529 ], [ 22011.675, 5921663.025000000372529 ], [ 22011.675, 5921662.875 ], [ 22011.75, 5921662.875 ], [ 22011.75, 5921662.724999999627471 ], [ 22011.825, 5921662.724999999627471 ], [ 22011.825, 5921662.650000000372529 ], [ 22011.900000000001455, 5921662.650000000372529 ], [ 22011.900000000001455, 5921662.575000000186265 ], [ 22011.974999999998545, 5921662.575000000186265 ], [ 22011.974999999998545, 5921662.424999999813735 ], [ 22012.05, 5921662.424999999813735 ], [ 22012.05, 5921662.349999999627471 ], [ 22012.125, 5921662.349999999627471 ], [ 22012.125, 5921662.275000000372529 ], [ 22012.2, 5921662.275000000372529 ], [ 22012.2, 5921662.200000000186265 ], [ 22012.275000000001455, 5921662.200000000186265 ], [ 22012.275000000001455, 5921662.049999999813735 ], [ 22012.349999999998545, 5921662.049999999813735 ], [ 22012.349999999998545, 5921661.900000000372529 ], [ 22012.425, 5921661.900000000372529 ], [ 22012.425, 5921661.674999999813735 ], [ 22012.5, 5921661.674999999813735 ], [ 22012.5, 5921661.525000000372529 ], [ 22012.575, 5921661.525000000372529 ], [ 22012.575, 5921661.450000000186265 ], [ 22012.650000000001455, 5921661.450000000186265 ], [ 22012.650000000001455, 5921661.299999999813735 ], [ 22012.724999999998545, 5921661.299999999813735 ], [ 22012.724999999998545, 5921661.224999999627471 ], [ 22012.8, 5921661.224999999627471 ], [ 22012.8, 5921661.150000000372529 ], [ 22012.875, 5921661.150000000372529 ], [ 22012.875, 5921661.075000000186265 ], [ 22012.95, 5921661.075000000186265 ], [ 22012.95, 5921661.0 ], [ 22013.025000000001455, 5921661.0 ], [ 22013.025000000001455, 5921660.924999999813735 ], [ 22013.099999999998545, 5921660.924999999813735 ], [ 22013.099999999998545, 5921660.849999999627471 ], [ 22013.175, 5921660.849999999627471 ], [ 22013.175, 5921660.775000000372529 ], [ 22013.25, 5921660.775000000372529 ], [ 22013.25, 5921660.700000000186265 ], [ 22013.400000000001455, 5921660.700000000186265 ], [ 22013.400000000001455, 5921660.625 ], [ 22013.474999999998545, 5921660.625 ], [ 22013.474999999998545, 5921660.549999999813735 ], [ 22013.55, 5921660.549999999813735 ], [ 22013.55, 5921660.474999999627471 ], [ 22013.625, 5921660.474999999627471 ], [ 22013.625, 5921660.400000000372529 ], [ 22013.775000000001455, 5921660.400000000372529 ], [ 22013.775000000001455, 5921660.325000000186265 ], [ 22013.849999999998545, 5921660.325000000186265 ], [ 22013.849999999998545, 5921660.25 ], [ 22014.0, 5921660.25 ], [ 22014.0, 5921660.174999999813735 ], [ 22014.075, 5921660.174999999813735 ], [ 22014.075, 5921660.099999999627471 ], [ 22014.224999999998545, 5921660.099999999627471 ], [ 22014.224999999998545, 5921660.025000000372529 ], [ 22014.375, 5921660.025000000372529 ], [ 22014.375, 5921659.950000000186265 ], [ 22014.525000000001455, 5921659.950000000186265 ], [ 22014.525000000001455, 5921659.875 ], [ 22014.675, 5921659.875 ], [ 22014.675, 5921659.799999999813735 ], [ 22014.825, 5921659.799999999813735 ], [ 22014.825, 5921659.724999999627471 ], [ 22015.05, 5921659.724999999627471 ], [ 22015.05, 5921659.650000000372529 ], [ 22015.2, 5921659.650000000372529 ], [ 22015.2, 5921659.575000000186265 ], [ 22015.425, 5921659.575000000186265 ], [ 22015.425, 5921659.5 ], [ 22015.724999999998545, 5921659.5 ], [ 22015.724999999998545, 5921659.424999999813735 ], [ 22015.95, 5921659.424999999813735 ], [ 22015.95, 5921659.349999999627471 ], [ 22021.8, 5921659.349999999627471 ], [ 22021.8, 5921659.275000000372529 ], [ 22021.875, 5921659.275000000372529 ], [ 22021.875, 5921659.349999999627471 ], [ 22022.025000000001455, 5921659.349999999627471 ], [ 22022.025000000001455, 5921659.424999999813735 ], [ 22022.175, 5921659.424999999813735 ], [ 22022.175, 5921659.5 ], [ 22022.325, 5921659.5 ], [ 22022.325, 5921659.575000000186265 ], [ 22022.400000000001455, 5921659.575000000186265 ], [ 22022.400000000001455, 5921659.650000000372529 ], [ 22022.55, 5921659.650000000372529 ], [ 22022.55, 5921659.724999999627471 ], [ 22022.625, 5921659.724999999627471 ], [ 22022.625, 5921659.799999999813735 ], [ 22022.775000000001455, 5921659.799999999813735 ], [ 22022.775000000001455, 5921659.875 ], [ 22022.849999999998545, 5921659.875 ], [ 22022.849999999998545, 5921659.950000000186265 ], [ 22022.925, 5921659.950000000186265 ], [ 22022.925, 5921660.025000000372529 ], [ 22023.0, 5921660.025000000372529 ], [ 22023.0, 5921660.099999999627471 ], [ 22023.075, 5921660.099999999627471 ], [ 22023.075, 5921660.174999999813735 ], [ 22023.150000000001455, 5921660.174999999813735 ], [ 22023.150000000001455, 5921660.25 ], [ 22023.224999999998545, 5921660.25 ], [ 22023.224999999998545, 5921660.325000000186265 ], [ 22023.3, 5921660.325000000186265 ], [ 22023.3, 5921660.400000000372529 ], [ 22023.45, 5921660.400000000372529 ], [ 22023.45, 5921660.474999999627471 ], [ 22023.525000000001455, 5921660.474999999627471 ], [ 22023.525000000001455, 5921660.549999999813735 ], [ 22023.599999999998545, 5921660.549999999813735 ], [ 22023.599999999998545, 5921660.625 ], [ 22023.75, 5921660.625 ], [ 22023.75, 5921660.700000000186265 ], [ 22023.825, 5921660.700000000186265 ], [ 22023.825, 5921660.775000000372529 ], [ 22023.900000000001455, 5921660.775000000372529 ], [ 22023.900000000001455, 5921660.849999999627471 ], [ 22023.974999999998545, 5921660.849999999627471 ], [ 22023.974999999998545, 5921660.924999999813735 ], [ 22024.05, 5921660.924999999813735 ], [ 22024.05, 5921661.0 ], [ 22024.125, 5921661.0 ], [ 22024.125, 5921661.075000000186265 ], [ 22024.2, 5921661.075000000186265 ], [ 22024.2, 5921661.150000000372529 ], [ 22024.275000000001455, 5921661.150000000372529 ], [ 22024.275000000001455, 5921661.224999999627471 ], [ 22024.349999999998545, 5921661.224999999627471 ], [ 22024.349999999998545, 5921661.299999999813735 ], [ 22024.425, 5921661.299999999813735 ], [ 22024.425, 5921661.450000000186265 ], [ 22024.5, 5921661.450000000186265 ], [ 22024.5, 5921661.525000000372529 ], [ 22024.575, 5921661.525000000372529 ], [ 22024.575, 5921661.674999999813735 ], [ 22024.650000000001455, 5921661.674999999813735 ], [ 22024.650000000001455, 5921661.75 ], [ 22024.724999999998545, 5921661.75 ], [ 22024.724999999998545, 5921661.900000000372529 ], [ 22024.8, 5921661.900000000372529 ], [ 22024.8, 5921662.049999999813735 ], [ 22024.875, 5921662.049999999813735 ], [ 22024.875, 5921662.200000000186265 ], [ 22024.95, 5921662.200000000186265 ], [ 22024.95, 5921662.349999999627471 ], [ 22025.025000000001455, 5921662.349999999627471 ], [ 22025.025000000001455, 5921662.424999999813735 ], [ 22025.099999999998545, 5921662.424999999813735 ], [ 22025.099999999998545, 5921662.575000000186265 ], [ 22025.175, 5921662.575000000186265 ], [ 22025.175, 5921662.650000000372529 ], [ 22025.25, 5921662.650000000372529 ], [ 22025.25, 5921662.799999999813735 ], [ 22025.325, 5921662.799999999813735 ], [ 22025.325, 5921662.875 ], [ 22025.400000000001455, 5921662.875 ], [ 22025.400000000001455, 5921662.950000000186265 ], [ 22025.474999999998545, 5921662.950000000186265 ], [ 22025.474999999998545, 5921663.025000000372529 ], [ 22025.55, 5921663.025000000372529 ], [ 22025.55, 5921663.099999999627471 ], [ 22025.625, 5921663.099999999627471 ], [ 22025.625, 5921663.174999999813735 ], [ 22025.7, 5921663.174999999813735 ], [ 22025.7, 5921663.25 ], [ 22025.775000000001455, 5921663.25 ], [ 22025.775000000001455, 5921663.325000000186265 ], [ 22025.849999999998545, 5921663.325000000186265 ], [ 22025.849999999998545, 5921663.400000000372529 ], [ 22025.925, 5921663.400000000372529 ], [ 22025.925, 5921663.474999999627471 ], [ 22026.0, 5921663.474999999627471 ], [ 22026.0, 5921663.549999999813735 ], [ 22026.150000000001455, 5921663.549999999813735 ], [ 22026.150000000001455, 5921663.625 ], [ 22026.224999999998545, 5921663.625 ], [ 22026.224999999998545, 5921663.700000000186265 ], [ 22026.3, 5921663.700000000186265 ], [ 22026.3, 5921663.775000000372529 ], [ 22026.375, 5921663.775000000372529 ], [ 22026.375, 5921663.849999999627471 ], [ 22026.45, 5921663.849999999627471 ], [ 22026.45, 5921663.924999999813735 ], [ 22026.525000000001455, 5921663.924999999813735 ], [ 22026.525000000001455, 5921664.0 ], [ 22026.599999999998545, 5921664.0 ], [ 22026.599999999998545, 5921664.075000000186265 ], [ 22026.675, 5921664.075000000186265 ], [ 22026.675, 5921664.150000000372529 ], [ 22026.825, 5921664.150000000372529 ], [ 22026.825, 5921664.224999999627471 ], [ 22026.900000000001455, 5921664.224999999627471 ], [ 22026.900000000001455, 5921664.299999999813735 ], [ 22026.974999999998545, 5921664.299999999813735 ], [ 22026.974999999998545, 5921664.375 ], [ 22027.125, 5921664.375 ], [ 22027.125, 5921664.450000000186265 ], [ 22027.2, 5921664.450000000186265 ], [ 22027.2, 5921664.525000000372529 ], [ 22027.349999999998545, 5921664.525000000372529 ], [ 22027.349999999998545, 5921664.599999999627471 ], [ 22027.425, 5921664.599999999627471 ], [ 22027.425, 5921664.674999999813735 ], [ 22027.575, 5921664.674999999813735 ], [ 22027.575, 5921664.75 ], [ 22027.724999999998545, 5921664.75 ], [ 22027.724999999998545, 5921664.825000000186265 ], [ 22027.875, 5921664.825000000186265 ], [ 22027.875, 5921664.900000000372529 ], [ 22028.025000000001455, 5921664.900000000372529 ], [ 22028.025000000001455, 5921664.974999999627471 ], [ 22028.175, 5921664.974999999627471 ], [ 22028.175, 5921665.049999999813735 ], [ 22028.325, 5921665.049999999813735 ], [ 22028.325, 5921665.125 ], [ 22028.474999999998545, 5921665.125 ], [ 22028.474999999998545, 5921665.200000000186265 ], [ 22028.55, 5921665.200000000186265 ], [ 22028.55, 5921665.275000000372529 ], [ 22028.7, 5921665.275000000372529 ], [ 22028.7, 5921665.349999999627471 ], [ 22028.775000000001455, 5921665.349999999627471 ], [ 22028.775000000001455, 5921665.424999999813735 ], [ 22028.849999999998545, 5921665.424999999813735 ], [ 22028.849999999998545, 5921665.5 ], [ 22028.925, 5921665.5 ], [ 22028.925, 5921665.650000000372529 ], [ 22029.0, 5921665.650000000372529 ], [ 22029.0, 5921665.799999999813735 ], [ 22029.075, 5921665.799999999813735 ], [ 22029.075, 5921665.875 ], [ 22029.150000000001455, 5921665.875 ], [ 22029.150000000001455, 5921665.950000000186265 ], [ 22029.224999999998545, 5921665.950000000186265 ], [ 22029.224999999998545, 5921666.025000000372529 ], [ 22029.3, 5921666.025000000372529 ], [ 22029.3, 5921666.099999999627471 ], [ 22029.375, 5921666.099999999627471 ], [ 22029.375, 5921666.174999999813735 ], [ 22029.45, 5921666.174999999813735 ], [ 22029.45, 5921666.25 ], [ 22029.525000000001455, 5921666.25 ], [ 22029.525000000001455, 5921666.325000000186265 ], [ 22029.675, 5921666.325000000186265 ], [ 22029.675, 5921666.400000000372529 ], [ 22029.900000000001455, 5921666.400000000372529 ], [ 22029.900000000001455, 5921666.474999999627471 ], [ 22030.2, 5921666.474999999627471 ], [ 22030.2, 5921666.549999999813735 ], [ 22030.425, 5921666.549999999813735 ], [ 22030.425, 5921666.625 ], [ 22030.724999999998545, 5921666.625 ], [ 22030.724999999998545, 5921666.700000000186265 ], [ 22030.95, 5921666.700000000186265 ], [ 22030.95, 5921666.775000000372529 ], [ 22031.175, 5921666.775000000372529 ], [ 22031.175, 5921666.849999999627471 ], [ 22031.400000000001455, 5921666.849999999627471 ], [ 22031.400000000001455, 5921666.924999999813735 ], [ 22031.7, 5921666.924999999813735 ], [ 22031.7, 5921667.0 ], [ 22031.849999999998545, 5921667.0 ], [ 22031.849999999998545, 5921667.075000000186265 ], [ 22032.0, 5921667.075000000186265 ], [ 22032.0, 5921667.150000000372529 ], [ 22032.150000000001455, 5921667.150000000372529 ], [ 22032.150000000001455, 5921667.224999999627471 ], [ 22032.3, 5921667.224999999627471 ], [ 22032.3, 5921667.299999999813735 ], [ 22032.375, 5921667.299999999813735 ], [ 22032.375, 5921667.375 ], [ 22032.45, 5921667.375 ], [ 22032.45, 5921667.450000000186265 ], [ 22032.525000000001455, 5921667.450000000186265 ], [ 22032.525000000001455, 5921667.525000000372529 ], [ 22032.599999999998545, 5921667.525000000372529 ], [ 22032.599999999998545, 5921667.599999999627471 ], [ 22032.675, 5921667.599999999627471 ], [ 22032.675, 5921667.674999999813735 ], [ 22032.75, 5921667.674999999813735 ], [ 22032.75, 5921667.75 ], [ 22032.825, 5921667.75 ], [ 22032.825, 5921667.900000000372529 ], [ 22032.900000000001455, 5921667.900000000372529 ], [ 22032.900000000001455, 5921667.974999999627471 ], [ 22032.974999999998545, 5921667.974999999627471 ], [ 22032.974999999998545, 5921668.125 ], [ 22033.05, 5921668.125 ], [ 22033.05, 5921668.200000000186265 ], [ 22033.125, 5921668.200000000186265 ], [ 22033.125, 5921668.275000000372529 ], [ 22033.2, 5921668.275000000372529 ], [ 22033.2, 5921668.349999999627471 ], [ 22033.275000000001455, 5921668.349999999627471 ], [ 22033.275000000001455, 5921668.424999999813735 ], [ 22033.349999999998545, 5921668.424999999813735 ], [ 22033.349999999998545, 5921668.5 ], [ 22033.425, 5921668.5 ], [ 22033.425, 5921668.575000000186265 ], [ 22033.5, 5921668.575000000186265 ], [ 22033.5, 5921668.650000000372529 ], [ 22033.575, 5921668.650000000372529 ], [ 22033.575, 5921668.724999999627471 ], [ 22033.650000000001455, 5921668.724999999627471 ], [ 22033.650000000001455, 5921668.799999999813735 ], [ 22033.8, 5921668.799999999813735 ], [ 22033.8, 5921668.875 ], [ 22033.95, 5921668.875 ], [ 22033.95, 5921668.950000000186265 ], [ 22034.099999999998545, 5921668.950000000186265 ], [ 22034.099999999998545, 5921669.025000000372529 ], [ 22034.175, 5921669.025000000372529 ], [ 22034.175, 5921669.099999999627471 ], [ 22034.25, 5921669.099999999627471 ], [ 22034.25, 5921669.174999999813735 ], [ 22034.325, 5921669.174999999813735 ], [ 22034.325, 5921669.25 ], [ 22034.400000000001455, 5921669.25 ], [ 22034.400000000001455, 5921669.325000000186265 ], [ 22034.474999999998545, 5921669.325000000186265 ], [ 22034.474999999998545, 5921669.474999999627471 ], [ 22034.55, 5921669.474999999627471 ], [ 22034.55, 5921669.625 ], [ 22034.625, 5921669.625 ], [ 22034.625, 5921669.700000000186265 ], [ 22034.7, 5921669.700000000186265 ], [ 22034.7, 5921670.0 ], [ 22034.775000000001455, 5921670.0 ], [ 22034.775000000001455, 5921670.450000000186265 ], [ 22034.849999999998545, 5921670.450000000186265 ], [ 22034.849999999998545, 5921671.049999999813735 ], [ 22034.925, 5921671.049999999813735 ], [ 22034.925, 5921671.799999999813735 ], [ 22035.0, 5921671.799999999813735 ], [ 22035.0, 5921673.375 ], [ 22035.075, 5921673.375 ], [ 22035.075, 5921674.799999999813735 ], [ 22035.150000000001455, 5921674.799999999813735 ], [ 22035.150000000001455, 5921678.099999999627471 ], [ 22035.075, 5921678.099999999627471 ], [ 22035.075, 5921679.299999999813735 ], [ 22035.0, 5921679.299999999813735 ], [ 22035.0, 5921679.900000000372529 ], [ 22034.925, 5921679.900000000372529 ], [ 22034.925, 5921680.275000000372529 ], [ 22034.849999999998545, 5921680.275000000372529 ], [ 22034.849999999998545, 5921680.5 ], [ 22034.775000000001455, 5921680.5 ], [ 22034.775000000001455, 5921680.650000000372529 ], [ 22034.7, 5921680.650000000372529 ], [ 22034.7, 5921680.799999999813735 ], [ 22034.625, 5921680.799999999813735 ], [ 22034.625, 5921680.950000000186265 ], [ 22034.55, 5921680.950000000186265 ], [ 22034.55, 5921681.025000000372529 ], [ 22034.474999999998545, 5921681.025000000372529 ], [ 22034.474999999998545, 5921681.099999999627471 ], [ 22034.400000000001455, 5921681.099999999627471 ], [ 22034.400000000001455, 5921681.174999999813735 ], [ 22034.25, 5921681.174999999813735 ], [ 22034.25, 5921681.25 ], [ 22034.175, 5921681.25 ], [ 22034.175, 5921681.325000000186265 ], [ 22034.025000000001455, 5921681.325000000186265 ], [ 22034.025000000001455, 5921681.400000000372529 ], [ 22033.8, 5921681.400000000372529 ], [ 22033.8, 5921681.474999999627471 ], [ 22033.575, 5921681.474999999627471 ], [ 22033.575, 5921681.700000000186265 ], [ 22033.5, 5921681.700000000186265 ], [ 22033.5, 5921681.849999999627471 ], [ 22033.425, 5921681.849999999627471 ], [ 22033.425, 5921682.0 ], [ 22033.349999999998545, 5921682.0 ], [ 22033.349999999998545, 5921682.075000000186265 ], [ 22033.275000000001455, 5921682.075000000186265 ], [ 22033.275000000001455, 5921682.224999999627471 ], [ 22033.2, 5921682.224999999627471 ], [ 22033.2, 5921682.299999999813735 ], [ 22033.125, 5921682.299999999813735 ], [ 22033.125, 5921682.375 ], [ 22033.05, 5921682.375 ], [ 22033.05, 5921682.450000000186265 ], [ 22032.974999999998545, 5921682.450000000186265 ], [ 22032.974999999998545, 5921682.525000000372529 ], [ 22032.900000000001455, 5921682.525000000372529 ], [ 22032.900000000001455, 5921682.599999999627471 ], [ 22032.825, 5921682.599999999627471 ], [ 22032.825, 5921682.674999999813735 ], [ 22032.75, 5921682.674999999813735 ], [ 22032.75, 5921682.75 ], [ 22032.599999999998545, 5921682.75 ], [ 22032.599999999998545, 5921682.825000000186265 ], [ 22032.525000000001455, 5921682.825000000186265 ], [ 22032.525000000001455, 5921682.900000000372529 ], [ 22032.375, 5921682.900000000372529 ], [ 22032.375, 5921682.974999999627471 ], [ 22032.3, 5921682.974999999627471 ], [ 22032.3, 5921683.049999999813735 ], [ 22032.150000000001455, 5921683.049999999813735 ], [ 22032.150000000001455, 5921683.125 ], [ 22032.0, 5921683.125 ], [ 22032.0, 5921683.200000000186265 ], [ 22031.849999999998545, 5921683.200000000186265 ], [ 22031.849999999998545, 5921683.275000000372529 ], [ 22031.625, 5921683.275000000372529 ], [ 22031.625, 5921683.349999999627471 ], [ 22031.474999999998545, 5921683.349999999627471 ], [ 22031.474999999998545, 5921683.424999999813735 ], [ 22031.325, 5921683.424999999813735 ], [ 22031.325, 5921683.5 ], [ 22031.25, 5921683.5 ], [ 22031.25, 5921683.575000000186265 ], [ 22031.175, 5921683.575000000186265 ], [ 22031.175, 5921683.650000000372529 ], [ 22031.099999999998545, 5921683.650000000372529 ], [ 22031.099999999998545, 5921683.724999999627471 ], [ 22030.95, 5921683.724999999627471 ], [ 22030.95, 5921683.799999999813735 ], [ 22030.875, 5921683.799999999813735 ], [ 22030.875, 5921683.875 ], [ 22030.724999999998545, 5921683.875 ], [ 22030.724999999998545, 5921683.950000000186265 ], [ 22030.650000000001455, 5921683.950000000186265 ], [ 22030.650000000001455, 5921684.025000000372529 ], [ 22030.5, 5921684.025000000372529 ], [ 22030.5, 5921684.099999999627471 ], [ 22030.425, 5921684.099999999627471 ], [ 22030.425, 5921684.174999999813735 ], [ 22030.275000000001455, 5921684.174999999813735 ], [ 22030.275000000001455, 5921684.25 ], [ 22030.125, 5921684.25 ], [ 22030.125, 5921684.325000000186265 ], [ 22029.974999999998545, 5921684.325000000186265 ], [ 22029.974999999998545, 5921684.400000000372529 ], [ 22029.825, 5921684.400000000372529 ], [ 22029.825, 5921684.474999999627471 ], [ 22029.599999999998545, 5921684.474999999627471 ], [ 22029.599999999998545, 5921684.549999999813735 ], [ 22028.925, 5921684.549999999813735 ], [ 22028.925, 5921684.474999999627471 ], [ 22028.625, 5921684.474999999627471 ], [ 22028.625, 5921684.400000000372529 ], [ 22028.325, 5921684.400000000372529 ], [ 22028.325, 5921684.325000000186265 ], [ 22028.025000000001455, 5921684.325000000186265 ], [ 22028.025000000001455, 5921684.25 ], [ 22027.724999999998545, 5921684.25 ], [ 22027.724999999998545, 5921684.174999999813735 ], [ 22027.5, 5921684.174999999813735 ], [ 22027.5, 5921684.099999999627471 ], [ 22027.2, 5921684.099999999627471 ], [ 22027.2, 5921684.025000000372529 ], [ 22026.974999999998545, 5921684.025000000372529 ], [ 22026.974999999998545, 5921683.950000000186265 ], [ 22026.75, 5921683.950000000186265 ], [ 22026.75, 5921683.875 ], [ 22026.525000000001455, 5921683.875 ], [ 22026.525000000001455, 5921683.799999999813735 ], [ 22026.224999999998545, 5921683.799999999813735 ], [ 22026.224999999998545, 5921683.724999999627471 ], [ 22026.0, 5921683.724999999627471 ], [ 22026.0, 5921683.650000000372529 ], [ 22025.775000000001455, 5921683.650000000372529 ], [ 22025.775000000001455, 5921683.575000000186265 ], [ 22025.55, 5921683.575000000186265 ], [ 22025.55, 5921683.5 ], [ 22025.325, 5921683.5 ], [ 22025.325, 5921683.424999999813735 ], [ 22025.025000000001455, 5921683.424999999813735 ], [ 22025.025000000001455, 5921683.349999999627471 ], [ 22024.724999999998545, 5921683.349999999627471 ], [ 22024.724999999998545, 5921683.275000000372529 ], [ 22024.349999999998545, 5921683.275000000372529 ], [ 22024.349999999998545, 5921683.200000000186265 ], [ 22023.974999999998545, 5921683.200000000186265 ], [ 22023.974999999998545, 5921683.125 ], [ 22023.375, 5921683.125 ], [ 22023.375, 5921683.200000000186265 ], [ 22022.474999999998545, 5921683.200000000186265 ], [ 22022.474999999998545, 5921683.275000000372529 ], [ 22021.8, 5921683.275000000372529 ], [ 22021.8, 5921683.349999999627471 ], [ 22021.650000000001455, 5921683.349999999627471 ], [ 22021.650000000001455, 5921683.424999999813735 ], [ 22021.5, 5921683.424999999813735 ], [ 22021.5, 5921683.5 ], [ 22021.349999999998545, 5921683.5 ], [ 22021.349999999998545, 5921683.575000000186265 ], [ 22021.2, 5921683.575000000186265 ], [ 22021.2, 5921683.650000000372529 ], [ 22021.125, 5921683.650000000372529 ], [ 22021.125, 5921683.724999999627471 ], [ 22020.974999999998545, 5921683.724999999627471 ], [ 22020.974999999998545, 5921683.799999999813735 ], [ 22020.825, 5921683.799999999813735 ], [ 22020.825, 5921683.875 ], [ 22020.75, 5921683.875 ], [ 22020.75, 5921683.950000000186265 ], [ 22020.599999999998545, 5921683.950000000186265 ], [ 22020.599999999998545, 5921684.025000000372529 ], [ 22020.45, 5921684.025000000372529 ], [ 22020.45, 5921684.099999999627471 ], [ 22020.3, 5921684.099999999627471 ], [ 22020.3, 5921684.174999999813735 ], [ 22020.224999999998545, 5921684.174999999813735 ], [ 22020.224999999998545, 5921684.25 ], [ 22020.075, 5921684.25 ], [ 22020.075, 5921684.325000000186265 ], [ 22019.925, 5921684.325000000186265 ], [ 22019.925, 5921684.400000000372529 ], [ 22019.775000000001455, 5921684.400000000372529 ], [ 22019.775000000001455, 5921684.474999999627471 ], [ 22019.625, 5921684.474999999627471 ], [ 22019.625, 5921684.549999999813735 ], [ 22019.55, 5921684.549999999813735 ], [ 22019.55, 5921684.625 ], [ 22019.400000000001455, 5921684.625 ], [ 22019.400000000001455, 5921684.700000000186265 ], [ 22019.25, 5921684.700000000186265 ], [ 22019.25, 5921684.775000000372529 ], [ 22019.175, 5921684.775000000372529 ], [ 22019.175, 5921684.849999999627471 ], [ 22019.025000000001455, 5921684.849999999627471 ], [ 22019.025000000001455, 5921684.924999999813735 ], [ 22018.95, 5921684.924999999813735 ], [ 22018.95, 5921685.0 ], [ 22018.8, 5921685.0 ], [ 22018.8, 5921685.075000000186265 ], [ 22018.724999999998545, 5921685.075000000186265 ], [ 22018.724999999998545, 5921685.150000000372529 ], [ 22018.650000000001455, 5921685.150000000372529 ], [ 22018.650000000001455, 5921685.224999999627471 ], [ 22018.575, 5921685.224999999627471 ], [ 22018.575, 5921685.299999999813735 ], [ 22018.425, 5921685.299999999813735 ], [ 22018.425, 5921685.375 ], [ 22018.349999999998545, 5921685.375 ], [ 22018.349999999998545, 5921685.450000000186265 ], [ 22018.275000000001455, 5921685.450000000186265 ], [ 22018.275000000001455, 5921685.599999999627471 ], [ 22018.2, 5921685.599999999627471 ], [ 22018.2, 5921685.75 ], [ 22018.125, 5921685.75 ], [ 22018.125, 5921685.825000000186265 ], [ 22018.05, 5921685.825000000186265 ], [ 22018.05, 5921685.974999999627471 ], [ 22017.974999999998545, 5921685.974999999627471 ], [ 22017.974999999998545, 5921686.049999999813735 ], [ 22017.825, 5921686.049999999813735 ], [ 22017.825, 5921686.125 ], [ 22017.75, 5921686.125 ], [ 22017.75, 5921686.200000000186265 ], [ 22017.675, 5921686.200000000186265 ], [ 22017.675, 5921686.275000000372529 ], [ 22017.525000000001455, 5921686.275000000372529 ], [ 22017.525000000001455, 5921686.349999999627471 ], [ 22017.45, 5921686.349999999627471 ], [ 22017.45, 5921686.424999999813735 ], [ 22017.375, 5921686.424999999813735 ], [ 22017.375, 5921686.5 ], [ 22017.224999999998545, 5921686.5 ], [ 22017.224999999998545, 5921686.575000000186265 ], [ 22017.150000000001455, 5921686.575000000186265 ], [ 22017.150000000001455, 5921686.650000000372529 ], [ 22017.075, 5921686.650000000372529 ], [ 22017.075, 5921686.724999999627471 ], [ 22016.925, 5921686.724999999627471 ], [ 22016.925, 5921686.799999999813735 ], [ 22016.849999999998545, 5921686.799999999813735 ], [ 22016.849999999998545, 5921686.875 ], [ 22016.7, 5921686.875 ], [ 22016.7, 5921686.950000000186265 ], [ 22016.625, 5921686.950000000186265 ], [ 22016.625, 5921687.025000000372529 ], [ 22016.474999999998545, 5921687.025000000372529 ], [ 22016.474999999998545, 5921687.099999999627471 ], [ 22016.400000000001455, 5921687.099999999627471 ], [ 22016.400000000001455, 5921687.174999999813735 ], [ 22016.25, 5921687.174999999813735 ], [ 22016.25, 5921687.25 ], [ 22016.099999999998545, 5921687.25 ], [ 22016.099999999998545, 5921687.325000000186265 ], [ 22015.724999999998545, 5921687.325000000186265 ] ] ] } },
{ "type": "Feature", "properties": { "value": 1.0, "building_id": 3, "area": 3.9712500002238427 }, "geometry": { "type": "Polygon", "coordinates": [ [ [ 22021.650000000001455, 5921264.400000000372529 ], [ 22021.650000000001455, 5921264.325000000186265 ], [ 22021.425, 5921264.325000000186265 ], [ 22021.425, 5921264.25 ], [ 22021.275000000001455, 5921264.25 ], [ 22021.275000000001455, 5921264.174999999813735 ], [ 22021.125, 5921264.174999999813735 ], [ 22021.125, 5921264.099999999627471 ], [ 22020.974999999998545, 5921264.099999999627471 ], [ 22020.974999999998545, 5921264.025000000372529 ], [ 22020.900000000001455, 5921264.025000000372529 ], [ 22020.900000000001455, 5921263.950000000186265 ], [ 22020.825, 5921263.950000000186265 ], [ 22020.825, 5921263.875 ], [ 22020.75, 5921263.875 ], [ 22020.75, 5921263.799999999813735 ], [ 22020.675, 5921263.799999999813735 ], [ 22020.675, 5921263.724999999627471 ], [ 22020.599999999998545, 5921263.724999999627471 ], [ 22020.599999999998545, 5921263.650000000372529 ], [ 22020.525000000001455, 5921263.650000000372529 ], [ 22020.525000000001455, 5921263.5 ], [ 22020.599999999998545, 5921263.5 ], [ 22020.599999999998545, 5921263.349999999627471 ], [ 22020.675, 5921263.349999999627471 ], [ 22020.675, 5921263.275000000372529 ], [ 22020.75, 5921263.275000000372529 ], [ 22020.75, 5921263.125 ], [ 22020.825, 5921263.125 ], [ 22020.825, 5921263.049999999813735 ], [ 22020.900000000001455, 5921263.049999999813735 ], [ 22020.900000000001455, 5921262.974999999627471 ], [ 22020.974999999998545, 5921262.974999999627471 ], [ 22020.974999999998545, 5921262.825000000186265 ], [ 22021.05, 5921262.825000000186265 ], [ 22021.05, 5921262.75 ], [ 22021.125, 5921262.75 ], [ 22021.125, 5921262.674999999813735 ], [ 22021.2, 5921262.674999999813735 ], [ 22021.2, 5921262.599999999627471 ], [ 22021.275000000001455, 5921262.599999999627471 ], [ 22021.275000000001455, 5921262.525000000372529 ], [ 22021.349999999998545, 5921262.525000000372529 ], [ 22021.349999999998545, 5921262.450000000186265 ], [ 22021.425, 5921262.450000000186265 ], [ 22021.425, 5921262.375 ], [ 22021.5, 5921262.375 ], [ 22021.5, 5921262.299999999813735 ], [ 22021.575, 5921262.299999999813735 ], [ 22021.575, 5921262.224999999627471 ], [ 22021.650000000001455, 5921262.224999999627471 ], [ 22021.650000000001455, 5921262.150000000372529 ], [ 22021.724999999998545, 5921262.150000000372529 ], [ 22021.724999999998545, 5921262.075000000186265 ], [ 22021.8, 5921262.075000000186265 ], [ 22021.8, 5921262.0 ], [ 22021.95, 5921262.0 ], [ 22021.95, 5921262.075000000186265 ], [ 22022.025000000001455, 5921262.075000000186265 ], [ 22022.025000000001455, 5921262.150000000372529 ], [ 22022.099999999998545, 5921262.150000000372529 ], [ 22022.099999999998545, 5921262.224999999627471 ], [ 22022.175, 5921262.224999999627471 ], [ 22022.175, 5921262.299999999813735 ], [ 22022.25, 5921262.299999999813735 ], [ 22022.25, 5921262.375 ], [ 22022.325, 5921262.375 ], [ 22022.325, 5921262.450000000186265 ], [ 22022.400000000001455, 5921262.450000000186265 ], [ 22022.400000000001455, 5921262.525000000372529 ], [ 22022.474999999998545, 5921262.525000000372529 ], [ 22022.474999999998545, 5921262.599999999627471 ], [ 22022.55, 5921262.599999999627471 ], [ 22022.55, 5921262.674999999813735 ], [ 22022.625, 5921262.674999999813735 ], [ 22022.625, 5921262.75 ], [ 22022.7, 5921262.75 ], [ 22022.7, 5921262.825000000186265 ], [ 22022.775000000001455, 5921262.825000000186265 ], [ 22022.775000000001455, 5921262.900000000372529 ], [ 22022.849999999998545, 5921262.900000000372529 ], [ 22022.849999999998545, 5921262.974999999627471 ], [ 22022.925, 5921262.974999999627471 ], [ 22022.925, 5921263.049999999813735 ], [ 22023.0, 5921263.049999999813735 ], [ 22023.0, 5921263.125 ], [ 22023.075, 5921263.125 ], [ 22023.075, 5921263.200000000186265 ], [ 22023.150000000001455, 5921263.200000000186265 ], [ 22023.150000000001455, 5921263.349999999627471 ], [ 22023.224999999998545, 5921263.349999999627471 ], [ 22023.224999999998545, 5921263.424999999813735 ], [ 22023.3, 5921263.424999999813735 ], [ 22023.3, 5921263.5 ], [ 22023.375, 5921263.5 ], [ 22023.375, 5921263.650000000372529 ], [ 22023.224999999998545, 5921263.650000000372529 ], [ 22023.224999999998545, 5921263.724999999627471 ], [ 22023.150000000001455, 5921263.724999999627471 ], [ 22023.150000000001455, 5921263.799999999813735 ], [ 22023.075, 5921263.799999999813735 ], [ 22023.075, 5921263.875 ], [ 22022.925, 5921263.875 ], [ 22022.925, 5921263.950000000186265 ], [ 22022.849999999998545, 5921263.950000000186265 ], [ 22022.849999999998545, 5921264.025000000372529 ], [ 22022.7, 5921264.025000000372529 ], [ 22022.7, 5921264.099999999627471 ], [ 22022.55, 5921264.099999999627471 ], [ 22022.55, 5921264.174999999813735 ], [ 22022.400000000001455, 5921264.174999999813735 ], [ 22022.400000000001455, 5921264.25 ], [ 22022.25, 5921264.25 ], [ 22022.25, 5921264.325000000186265 ], [ 22022.025000000001455, 5921264.325000000186265 ], [ 22022.025000000001455, 5921264.400000000372529 ], [ 22021.650000000001455, 5921264.400000000372529 ] ] ] } },
{ "type": "Feature", "properties": { "value": 1.0, "building_id": 4, "area": 11.137499999931517 }, "geometry": { "type": "Polygon", "coordinates": [ [ [ 21974.925, 5921201.924999999813735 ], [ 21974.925, 5921201.849999999627471 ], [ 21974.849999999998545, 5921201.849999999627471 ], [ 21974.849999999998545, 5921201.775000000372529 ], [ 21974.775000000001455, 5921201.775000000372529 ], [ 21974.775000000001455, 5921201.700000000186265 ], [ 21974.7, 5921201.700000000186265 ], [ 21974.7, 5921201.625 ], [ 21974.625, 5921201.625 ], [ 21974.625, 5921201.549999999813735 ], [ 21974.55, 5921201.549999999813735 ], [ 21974.55, 5921201.400000000372529 ], [ 21974.474999999998545, 5921201.400000000372529 ], [ 21974.474999999998545, 5921201.325000000186265 ], [ 21974.400000000001455, 5921201.325000000186265 ], [ 21974.400000000001455, 5921201.25 ], [ 21974.325, 5921201.25 ], [ 21974.325, 5921201.174999999813735 ], [ 21974.25, 5921201.174999999813735 ], [ 21974.25, 5921201.099999999627471 ], [ 21974.175, 5921201.099999999627471 ], [ 21974.175, 5921199.900000000372529 ], [ 21974.099999999998545, 5921199.900000000372529 ], [ 21974.099999999998545, 5921199.0 ], [ 21974.175, 5921199.0 ], [ 21974.175, 5921198.924999999813735 ], [ 21974.25, 5921198.924999999813735 ], [ 21974.25, 5921198.775000000372529 ], [ 21974.325, 5921198.775000000372529 ], [ 21974.325, 5921198.625 ], [ 21974.400000000001455, 5921198.625 ], [ 21974.400000000001455, 5921198.400000000372529 ], [ 21974.474999999998545, 5921198.400000000372529 ], [ 21974.474999999998545, 5921198.25 ], [ 21974.55, 5921198.25 ], [ 21974.55, 5921198.099999999627471 ], [ 21974.625, 5921198.099999999627471 ], [ 21974.625, 5921197.875 ], [ 21974.7, 5921197.875 ], [ 21974.7, 5921197.650000000372529 ], [ 21974.775000000001455, 5921197.650000000372529 ], [ 21974.775000000001455, 5921197.424999999813735 ], [ 21974.849999999998545, 5921197.424999999813735 ], [ 21974.849999999998545, 5921197.200000000186265 ], [ 21974.925, 5921197.200000000186265 ], [ 21974.925, 5921197.125 ], [ 21975.0, 5921197.125 ], [ 21975.0, 5921197.049999999813735 ], [ 21975.075, 5921197.049999999813735 ], [ 21975.075, 5921197.125 ], [ 21975.224999999998545, 5921197.125 ], [ 21975.224999999998545, 5921197.200000000186265 ], [ 21975.3, 5921197.200000000186265 ], [ 21975.3, 5921197.275000000372529 ], [ 21975.375, 5921197.275000000372529 ], [ 21975.375, 5921197.349999999627471 ], [ 21975.45, 5921197.349999999627471 ], [ 21975.45, 5921197.424999999813735 ], [ 21975.525000000001455, 5921197.424999999813735 ], [ 21975.525000000001455, 5921197.5 ], [ 21975.599999999998545, 5921197.5 ], [ 21975.599999999998545, 5921197.575000000186265 ], [ 21975.675, 5921197.575000000186265 ], [ 21975.675, 5921197.650000000372529 ], [ 21975.75, 5921197.650000000372529 ], [ 21975.75, 5921197.724999999627471 ], [ 21975.900000000001455, 5921197.724999999627471 ], [ 21975.900000000001455, 5921197.799999999813735 ], [ 21975.974999999998545, 5921197.799999999813735 ], [ 21975.974999999998545, 5921197.875 ], [ 21976.125, 5921197.875 ], [ 21976.125, 5921197.950000000186265 ], [ 21976.2, 5921197.950000000186265 ], [ 21976.2, 5921198.025000000372529 ], [ 21976.349999999998545, 5921198.025000000372529 ], [ 21976.349999999998545, 5921198.099999999627471 ], [ 21976.5, 5921198.099999999627471 ], [ 21976.5, 5921198.174999999813735 ], [ 21976.650000000001455, 5921198.174999999813735 ], [ 21976.650000000001455, 5921198.25 ], [ 21976.8, 5921198.25 ], [ 21976.8, 5921198.325000000186265 ], [ 21976.95, 5921198.325000000186265 ], [ 21976.95, 5921198.400000000372529 ], [ 21977.025000000001455, 5921198.400000000372529 ], [ 21977.025000000001455, 5921198.549999999813735 ], [ 21977.099999999998545, 5921198.549999999813735 ], [ 21977.099999999998545, 5921198.775000000372529 ], [ 21977.175, 5921198.775000000372529 ], [ 21977.175, 5921198.924999999813735 ], [ 21977.25, 5921198.924999999813735 ], [ 21977.25, 5921200.349999999627471 ], [ 21977.175, 5921200.349999999627471 ], [ 21977.175, 5921201.099999999627471 ], [ 21977.099999999998545, 5921201.099999999627471 ], [ 21977.099999999998545, 5921201.25 ], [ 21977.025000000001455, 5921201.25 ], [ 21977.025000000001455, 5921201.325000000186265 ], [ 21976.95, 5921201.325000000186265 ], [ 21976.95, 5921201.400000000372529 ], [ 21976.575, 5921201.400000000372529 ], [ 21976.575, 5921201.474999999627471 ], [ 21976.275000000001455, 5921201.474999999627471 ], [ 21976.275000000001455, 5921201.549999999813735 ], [ 21975.974999999998545, 5921201.549999999813735 ], [ 21975.974999999998545, 5921201.625 ], [ 21975.75, 5921201.625 ], [ 21975.75, 5921201.700000000186265 ], [ 21975.525000000001455, 5921201.700000000186265 ], [ 21975.525000000001455, 5921201.775000000372529 ], [ 21975.3, 5921201.775000000372529 ], [ 21975.3, 5921201.849999999627471 ], [ 21975.075, 5921201.849999999627471 ], [ 21975.075, 5921201.924999999813735 ], [ 21974.925, 5921201.924999999813735 ] ] ] } },
{ "type": "Feature", "properties": { "value": 1.0, "building_id": 5, "area": 416.22187499972006 }, "geometry": { "type": "Polygon", "coordinates": [ [ [ 21992.25, 5921153.174999999813735 ], [ 21992.25, 5921153.099999999627471 ], [ 21991.275000000001455, 5921153.099999999627471 ], [ 21991.275000000001455, 5921153.025000000372529 ], [ 21990.525000000001455, 5921153.025000000372529 ], [ 21990.525000000001455, 5921152.950000000186265 ], [ 21990.150000000001455, 5921152.950000000186265 ], [ 21990.150000000001455, 5921152.875 ], [ 21989.849999999998545, 5921152.875 ], [ 21989.849999999998545, 5921152.799999999813735 ], [ 21989.55, 5921152.799999999813735 ], [ 21989.55, 5921152.724999999627471 ], [ 21989.25, 5921152.724999999627471 ], [ 21989.25, 5921152.650000000372529 ], [ 21989.025000000001455, 5921152.650000000372529 ], [ 21989.025000000001455, 5921152.575000000186265 ], [ 21988.724999999998545, 5921152.575000000186265 ], [ 21988.724999999998545, 5921152.5 ], [ 21988.575, 5921152.5 ], [ 21988.575, 5921152.424999999813735 ], [ 21988.425, 5921152.424999999813735 ], [ 21988.425, 5921152.349999999627471 ], [ 21988.275000000001455, 5921152.349999999627471 ], [ 21988.275000000001455, 5921152.275000000372529 ], [ 21988.125, 5921152.275000000372529 ], [ 21988.125, 5921152.200000000186265 ], [ 21988.05, 5921152.200000000186265 ], [ 21988.05, 5921152.125 ], [ 21987.900000000001455, 5921152.125 ], [ 21987.900000000001455, 5921152.049999999813735 ], [ 21987.75, 5921152.049999999813735 ], [ 21987.75, 5921151.974999999627471 ], [ 21987.599999999998545, 5921151.974999999627471 ], [ 21987.599999999998545, 5921151.900000000372529 ], [ 21987.375, 5921151.900000000372529 ], [ 21987.375, 5921151.825000000186265 ], [ 21987.150000000001455, 5921151.825000000186265 ], [ 21987.150000000001455, 5921151.75 ], [ 21987.0, 5921151.75 ], [ 21987.0, 5921151.674999999813735 ], [ 21986.7, 5921151.674999999813735 ], [ 21986.7, 5921151.599999999627471 ], [ 21986.325, 5921151.599999999627471 ], [ 21986.325, 5921151.525000000372529 ], [ 21985.8, 5921151.525000000372529 ], [ 21985.8, 5921151.450000000186265 ], [ 21985.2, 5921151.450000000186265 ], [ 21985.2, 5921151.375 ], [ 21984.45, 5921151.375 ], [ 21984.45, 5921151.299999999813735 ], [ 21983.099999999998545, 5921151.299999999813735 ], [ 21983.099999999998545, 5921151.224999999627471 ], [ 21982.2, 5921151.224999999627471 ], [ 21982.2, 5921151.150000000372529 ], [ 21981.525000000001455, 5921151.150000000372529 ], [ 21981.525000000001455, 5921151.075000000186265 ], [ 21980.925, 5921151.075000000186265 ], [ 21980.925, 5921151.0 ], [ 21980.625, 5921151.0 ], [ 21980.625, 5921150.924999999813735 ], [ 21980.474999999998545, 5921150.924999999813735 ], [ 21980.474999999998545, 5921150.849999999627471 ], [ 21980.325, 5921150.849999999627471 ], [ 21980.325, 5921150.775000000372529 ], [ 21980.175, 5921150.775000000372529 ], [ 21980.175, 5921150.700000000186265 ], [ 21980.025000000001455, 5921150.700000000186265 ], [ 21980.025000000001455, 5921150.625 ], [ 21979.875, 5921150.625 ], [ 21979.875, 5921150.549999999813735 ], [ 21979.8, 5921150.549999999813735 ], [ 21979.8, 5921150.474999999627471 ], [ 21979.650000000001455, 5921150.474999999627471 ], [ 21979.650000000001455, 5921150.400000000372529 ], [ 21979.575, 5921150.400000000372529 ], [ 21979.575, 5921150.325000000186265 ], [ 21979.5, 5921150.325000000186265 ], [ 21979.5, 5921150.25 ], [ 21979.425, 5921150.25 ], [ 21979.425, 5921150.174999999813735 ], [ 21979.349999999998545, 5921150.174999999813735 ], [ 21979.349999999998545, 5921150.099999999627471 ], [ 21979.2, 5921150.099999999627471 ], [ 21979.2, 5921150.025000000372529 ], [ 21979.125, 5921150.025000000372529 ], [ 21979.125, 5921149.950000000186265 ], [ 21979.05, 5921149.950000000186265 ], [ 21979.05, 5921149.875 ], [ 21978.974999999998545, 5921149.875 ], [ 21978.974999999998545, 5921149.799999999813735 ], [ 21978.900000000001455, 5921149.799999999813735 ], [ 21978.900000000001455, 5921149.724999999627471 ], [ 21978.825, 5921149.724999999627471 ], [ 21978.825, 5921149.650000000372529 ], [ 21978.75, 5921149.650000000372529 ], [ 21978.75, 5921149.575000000186265 ], [ 21978.675, 5921149.575000000186265 ], [ 21978.675, 5921149.5 ], [ 21978.599999999998545, 5921149.5 ], [ 21978.599999999998545, 5921149.424999999813735 ], [ 21978.525000000001455, 5921149.424999999813735 ], [ 21978.525000000001455, 5921149.349999999627471 ], [ 21978.45, 5921149.349999999627471 ], [ 21978.45, 5921149.275000000372529 ], [ 21978.375, 5921149.275000000372529 ], [ 21978.375, 5921149.200000000186265 ], [ 21978.3, 5921149.200000000186265 ], [ 21978.3, 5921149.049999999813735 ], [ 21978.224999999998545, 5921149.049999999813735 ], [ 21978.224999999998545, 5921148.974999999627471 ], [ 21978.150000000001455, 5921148.974999999627471 ], [ 21978.150000000001455, 5921148.900000000372529 ], [ 21978.075, 5921148.900000000372529 ], [ 21978.075, 5921148.75 ], [ 21978.0, 5921148.75 ], [ 21978.0, 5921148.599999999627471 ], [ 21977.925, 5921148.599999999627471 ], [ 21977.925, 5921148.450000000186265 ], [ 21977.849999999998545, 5921148.450000000186265 ], [ 21977.849999999998545, 5921148.375 ], [ 21977.775000000001455, 5921148.375 ], [ 21977.775000000001455, 5921148.150000000372529 ], [ 21977.7, 5921148.150000000372529 ], [ 21977.7, 5921147.924999999813735 ], [ 21977.625, 5921147.924999999813735 ], [ 21977.625, 5921147.775000000372529 ], [ 21977.55, 5921147.775000000372529 ], [ 21977.55, 5921147.625 ], [ 21977.474999999998545, 5921147.625 ], [ 21977.474999999998545, 5921147.474999999627471 ], [ 21977.400000000001455, 5921147.474999999627471 ], [ 21977.400000000001455, 5921147.325000000186265 ], [ 21977.325, 5921147.325000000186265 ], [ 21977.325, 5921147.174999999813735 ], [ 21977.25, 5921147.174999999813735 ], [ 21977.25, 5921147.025000000372529 ], [ 21977.175, 5921147.025000000372529 ], [ 21977.175, 5921146.875 ], [ 21977.099999999998545, 5921146.875 ], [ 21977.099999999998545, 5921146.799999999813735 ], [ 21977.025000000001455, 5921146.799999999813735 ], [ 21977.025000000001455, 5921146.650000000372529 ], [ 21976.95, 5921146.650000000372529 ], [ 21976.95, 5921146.575000000186265 ], [ 21976.875, 5921146.575000000186265 ], [ 21976.875, 5921146.424999999813735 ], [ 21976.8, 5921146.424999999813735 ], [ 21976.8, 5921144.775000000372529 ], [ 21976.875, 5921144.775000000372529 ], [ 21976.875, 5921144.325000000186265 ], [ 21976.95, 5921144.325000000186265 ], [ 21976.95, 5921144.174999999813735 ], [ 21977.025000000001455, 5921144.174999999813735 ], [ 21977.025000000001455, 5921144.099999999627471 ], [ 21977.099999999998545, 5921144.099999999627471 ], [ 21977.099999999998545, 5921143.950000000186265 ], [ 21977.175, 5921143.950000000186265 ], [ 21977.175, 5921143.799999999813735 ], [ 21977.25, 5921143.799999999813735 ], [ 21977.25, 5921143.650000000372529 ], [ 21977.325, 5921143.650000000372529 ], [ 21977.325, 5921143.5 ], [ 21977.400000000001455, 5921143.5 ], [ 21977.400000000001455, 5921143.349999999627471 ], [ 21977.474999999998545, 5921143.349999999627471 ], [ 21977.474999999998545, 5921143.200000000186265 ], [ 21977.55, 5921143.200000000186265 ], [ 21977.55, 5921142.974999999627471 ], [ 21977.625, 5921142.974999999627471 ], [ 21977.625, 5921142.75 ], [ 21977.7, 5921142.75 ], [ 21977.7, 5921142.525000000372529 ], [ 21977.775000000001455, 5921142.525000000372529 ], [ 21977.775000000001455, 5921142.224999999627471 ], [ 21977.849999999998545, 5921142.224999999627471 ], [ 21977.849999999998545, 5921141.849999999627471 ], [ 21977.925, 5921141.849999999627471 ], [ 21977.925, 5921141.549999999813735 ], [ 21978.0, 5921141.549999999813735 ], [ 21978.0, 5921141.325000000186265 ], [ 21978.075, 5921141.325000000186265 ], [ 21978.075, 5921141.099999999627471 ], [ 21978.150000000001455, 5921141.099999999627471 ], [ 21978.150000000001455, 5921140.875 ], [ 21978.224999999998545, 5921140.875 ], [ 21978.224999999998545, 5921140.650000000372529 ], [ 21978.3, 5921140.650000000372529 ], [ 21978.3, 5921140.5 ], [ 21978.375, 5921140.5 ], [ 21978.375, 5921140.349999999627471 ], [ 21978.45, 5921140.349999999627471 ], [ 21978.45, 5921140.275000000372529 ], [ 21978.525000000001455, 5921140.275000000372529 ], [ 21978.525000000001455, 5921140.125 ], [ 21978.599999999998545, 5921140.125 ], [ 21978.599999999998545, 5921140.049999999813735 ], [ 21978.675, 5921140.049999999813735 ], [ 21978.675, 5921139.974999999627471 ], [ 21978.75, 5921139.974999999627471 ], [ 21978.75, 5921139.900000000372529 ], [ 21978.825, 5921139.900000000372529 ], [ 21978.825, 5921139.825000000186265 ], [ 21978.900000000001455, 5921139.825000000186265 ], [ 21978.900000000001455, 5921139.75 ], [ 21978.974999999998545, 5921139.75 ], [ 21978.974999999998545, 5921139.674999999813735 ], [ 21979.125, 5921139.674999999813735 ], [ 21979.125, 5921139.599999999627471 ], [ 21979.2, 5921139.599999999627471 ], [ 21979.2, 5921139.525000000372529 ], [ 21979.275000000001455, 5921139.525000000372529 ], [ 21979.275000000001455, 5921139.450000000186265 ], [ 21979.349999999998545, 5921139.450000000186265 ], [ 21979.349999999998545, 5921139.375 ], [ 21979.5, 5921139.375 ], [ 21979.5, 5921139.299999999813735 ], [ 21979.575, 5921139.299999999813735 ], [ 21979.575, 5921139.224999999627471 ], [ 21979.650000000001455, 5921139.224999999627471 ], [ 21979.650000000001455, 5921139.150000000372529 ], [ 21979.724999999998545, 5921139.150000000372529 ], [ 21979.724999999998545, 5921139.075000000186265 ], [ 21979.875, 5921139.075000000186265 ], [ 21979.875, 5921139.0 ], [ 21979.95, 5921139.0 ], [ 21979.95, 5921138.924999999813735 ], [ 21980.025000000001455, 5921138.924999999813735 ], [ 21980.025000000001455, 5921138.849999999627471 ], [ 21980.099999999998545, 5921138.849999999627471 ], [ 21980.099999999998545, 5921138.775000000372529 ], [ 21980.25, 5921138.775000000372529 ], [ 21980.25, 5921138.700000000186265 ], [ 21980.325, 5921138.700000000186265 ], [ 21980.325, 5921138.625 ], [ 21980.400000000001455, 5921138.625 ], [ 21980.400000000001455, 5921138.549999999813735 ], [ 21980.474999999998545, 5921138.549999999813735 ], [ 21980.474999999998545, 5921138.474999999627471 ], [ 21980.55, 5921138.474999999627471 ], [ 21980.55, 5921138.400000000372529 ], [ 21980.625, 5921138.400000000372529 ], [ 21980.625, 5921138.325000000186265 ], [ 21980.7, 5921138.325000000186265 ], [ 21980.7, 5921138.25 ], [ 21980.775000000001455, 5921138.25 ], [ 21980.775000000001455, 5921138.174999999813735 ], [ 21980.925, 5921138.174999999813735 ], [ 21980.925, 5921138.099999999627471 ], [ 21981.0, 5921138.099999999627471 ], [ 21981.0, 5921138.025000000372529 ], [ 21981.150000000001455, 5921138.025000000372529 ], [ 21981.150000000001455, 5921137.950000000186265 ], [ 21981.3, 5921137.950000000186265 ], [ 21981.3, 5921137.875 ], [ 21981.45, 5921137.875 ], [ 21981.45, 5921137.799999999813735 ], [ 21981.599999999998545, 5921137.799999999813735 ], [ 21981.599999999998545, 5921137.724999999627471 ], [ 21981.75, 5921137.724999999627471 ], [ 21981.75, 5921137.650000000372529 ], [ 21981.974999999998545, 5921137.650000000372529 ], [ 21981.974999999998545, 5921137.575000000186265 ], [ 21982.125, 5921137.575000000186265 ], [ 21982.125, 5921137.5 ], [ 21982.425, 5921137.5 ], [ 21982.425, 5921137.424999999813735 ], [ 21982.650000000001455, 5921137.424999999813735 ], [ 21982.650000000001455, 5921137.349999999627471 ], [ 21982.95, 5921137.349999999627471 ], [ 21982.95, 5921137.275000000372529 ], [ 21983.175, 5921137.275000000372529 ], [ 21983.175, 5921137.200000000186265 ], [ 21983.325, 5921137.200000000186265 ], [ 21983.325, 5921137.125 ], [ 21983.474999999998545, 5921137.125 ], [ 21983.474999999998545, 5921137.049999999813735 ], [ 21983.7, 5921137.049999999813735 ], [ 21983.7, 5921136.974999999627471 ], [ 21983.849999999998545, 5921136.974999999627471 ], [ 21983.849999999998545, 5921136.900000000372529 ], [ 21983.925, 5921136.900000000372529 ], [ 21983.925, 5921136.825000000186265 ], [ 21984.075, 5921136.825000000186265 ], [ 21984.075, 5921136.75 ], [ 21984.224999999998545, 5921136.75 ], [ 21984.224999999998545, 5921136.674999999813735 ], [ 21984.3, 5921136.674999999813735 ], [ 21984.3, 5921136.599999999627471 ], [ 21984.45, 5921136.599999999627471 ], [ 21984.45, 5921136.525000000372529 ], [ 21984.525000000001455, 5921136.525000000372529 ], [ 21984.525000000001455, 5921136.450000000186265 ], [ 21984.599999999998545, 5921136.450000000186265 ], [ 21984.599999999998545, 5921136.375 ], [ 21984.675, 5921136.375 ], [ 21984.675, 5921136.299999999813735 ], [ 21984.825, 5921136.299999999813735 ], [ 21984.825, 5921136.224999999627471 ], [ 21984.900000000001455, 5921136.224999999627471 ], [ 21984.900000000001455, 5921136.150000000372529 ], [ 21985.05, 5921136.150000000372529 ], [ 21985.05, 5921136.075000000186265 ], [ 21985.2, 5921136.075000000186265 ], [ 21985.2, 5921136.0 ], [ 21985.349999999998545, 5921136.0 ], [ 21985.349999999998545, 5921135.924999999813735 ], [ 21985.5, 5921135.924999999813735 ], [ 21985.5, 5921135.849999999627471 ], [ 21985.650000000001455, 5921135.849999999627471 ], [ 21985.650000000001455, 5921135.775000000372529 ], [ 21985.875, 5921135.775000000372529 ], [ 21985.875, 5921135.700000000186265 ], [ 21986.099999999998545, 5921135.700000000186265 ], [ 21986.099999999998545, 5921135.625 ], [ 21986.25, 5921135.625 ], [ 21986.25, 5921135.549999999813735 ], [ 21986.55, 5921135.549999999813735 ], [ 21986.55, 5921135.474999999627471 ], [ 21986.849999999998545, 5921135.474999999627471 ], [ 21986.849999999998545, 5921135.400000000372529 ], [ 21987.3, 5921135.400000000372529 ], [ 21987.3, 5921135.325000000186265 ], [ 21987.675, 5921135.325000000186265 ], [ 21987.675, 5921135.25 ], [ 21988.125, 5921135.25 ], [ 21988.125, 5921135.174999999813735 ], [ 21988.5, 5921135.174999999813735 ], [ 21988.5, 5921135.099999999627471 ], [ 21988.8, 5921135.099999999627471 ], [ 21988.8, 5921135.025000000372529 ], [ 21989.025000000001455, 5921135.025000000372529 ], [ 21989.025000000001455, 5921134.950000000186265 ], [ 21989.25, 5921134.950000000186265 ], [ 21989.25, 5921134.875 ], [ 21989.474999999998545, 5921134.875 ], [ 21989.474999999998545, 5921134.799999999813735 ], [ 21989.625, 5921134.799999999813735 ], [ 21989.625, 5921134.724999999627471 ], [ 21989.775000000001455, 5921134.724999999627471 ], [ 21989.775000000001455, 5921134.650000000372529 ], [ 21989.925, 5921134.650000000372529 ], [ 21989.925, 5921134.575000000186265 ], [ 21990.075, 5921134.575000000186265 ], [ 21990.075, 5921134.5 ], [ 21990.150000000001455, 5921134.5 ], [ 21990.150000000001455, 5921134.424999999813735 ], [ 21990.3, 5921134.424999999813735 ], [ 21990.3, 5921134.349999999627471 ], [ 21990.525000000001455, 5921134.349999999627471 ], [ 21990.525000000001455, 5921134.275000000372529 ], [ 21990.75, 5921134.275000000372529 ], [ 21990.75, 5921134.200000000186265 ], [ 21991.2, 5921134.200000000186265 ], [ 21991.2, 5921134.125 ], [ 21991.650000000001455, 5921134.125 ], [ 21991.650000000001455, 5921134.049999999813735 ], [ 21992.25, 5921134.049999999813735 ], [ 21992.25, 5921133.974999999627471 ], [ 21992.925, 5921133.974999999627471 ], [ 21992.925, 5921134.049999999813735 ], [ 21993.525000000001455, 5921134.049999999813735 ], [ 21993.525000000001455, 5921134.125 ], [ 21994.125, 5921134.125 ], [ 21994.125, 5921134.200000000186265 ], [ 21994.650000000001455, 5921134.200000000186265 ], [ 21994.650000000001455, 5921134.275000000372529 ], [ 21995.099999999998545, 5921134.275000000372529 ], [ 21995.099999999998545, 5921134.349999999627471 ], [ 21995.55, 5921134.349999999627471 ], [ 21995.55, 5921134.424999999813735 ], [ 21995.925, 5921134.424999999813735 ], [ 21995.925, 5921134.5 ], [ 21996.3, 5921134.5 ], [ 21996.3, 5921134.575000000186265 ], [ 21996.75, 5921134.575000000186265 ], [ 21996.75, 5921134.650000000372529 ], [ 21997.125, 5921134.650000000372529 ], [ 21997.125, 5921134.724999999627471 ], [ 21997.575, 5921134.724999999627471 ], [ 21997.575, 5921134.799999999813735 ], [ 21998.099999999998545, 5921134.799999999813735 ], [ 21998.099999999998545, 5921134.875 ], [ 21998.55, 5921134.875 ], [ 21998.55, 5921134.950000000186265 ], [ 21999.0, 5921134.950000000186265 ], [ 21999.0, 5921135.025000000372529 ], [ 21999.375, 5921135.025000000372529 ], [ 21999.375, 5921135.099999999627471 ], [ 21999.900000000001455, 5921135.099999999627471 ], [ 21999.900000000001455, 5921135.174999999813735 ], [ 22000.349999999998545, 5921135.174999999813735 ], [ 22000.349999999998545, 5921135.25 ], [ 22000.875, 5921135.25 ], [ 22000.875, 5921135.325000000186265 ], [ 22001.400000000001455, 5921135.325000000186265 ], [ 22001.400000000001455, 5921135.400000000372529 ], [ 22001.849999999998545, 5921135.400000000372529 ], [ 22001.849999999998545, 5921135.474999999627471 ], [ 22002.375, 5921135.474999999627471 ], [ 22002.375, 5921135.549999999813735 ], [ 22002.525000000001455, 5921135.549999999813735 ], [ 22002.525000000001455, 5921135.625 ], [ 22002.75, 5921135.625 ], [ 22002.75, 5921135.700000000186265 ], [ 22002.900000000001455, 5921135.700000000186265 ], [ 22002.900000000001455, 5921135.775000000372529 ], [ 22003.05, 5921135.775000000372529 ], [ 22003.05, 5921135.849999999627471 ], [ 22003.2, 5921135.849999999627471 ], [ 22003.2, 5921135.924999999813735 ], [ 22003.275000000001455, 5921135.924999999813735 ], [ 22003.275000000001455, 5921136.0 ], [ 22003.425, 5921136.0 ], [ 22003.425, 5921136.075000000186265 ], [ 22003.5, 5921136.075000000186265 ], [ 22003.5, 5921136.150000000372529 ], [ 22003.575, 5921136.150000000372529 ], [ 22003.575, 5921136.224999999627471 ], [ 22003.724999999998545, 5921136.224999999627471 ], [ 22003.724999999998545, 5921136.299999999813735 ], [ 22003.8, 5921136.299999999813735 ], [ 22003.8, 5921136.375 ], [ 22003.875, 5921136.375 ], [ 22003.875, 5921136.525000000372529 ], [ 22003.95, 5921136.525000000372529 ], [ 22003.95, 5921136.599999999627471 ], [ 22004.025000000001455, 5921136.599999999627471 ], [ 22004.025000000001455, 5921136.674999999813735 ], [ 22004.099999999998545, 5921136.674999999813735 ], [ 22004.099999999998545, 5921136.825000000186265 ], [ 22004.175, 5921136.825000000186265 ], [ 22004.175, 5921136.900000000372529 ], [ 22004.25, 5921136.900000000372529 ], [ 22004.25, 5921136.974999999627471 ], [ 22004.325, 5921136.974999999627471 ], [ 22004.325, 5921137.049999999813735 ], [ 22004.400000000001455, 5921137.049999999813735 ], [ 22004.400000000001455, 5921137.125 ], [ 22004.474999999998545, 5921137.125 ], [ 22004.474999999998545, 5921137.200000000186265 ], [ 22004.55, 5921137.200000000186265 ], [ 22004.55, 5921137.275000000372529 ], [ 22004.625, 5921137.275000000372529 ], [ 22004.625, 5921137.424999999813735 ], [ 22004.7, 5921137.424999999813735 ], [ 22004.7, 5921137.5 ], [ 22004.775000000001455, 5921137.5 ], [ 22004.775000000001455, 5921137.575000000186265 ], [ 22004.849999999998545, 5921137.575000000186265 ], [ 22004.849999999998545, 5921137.724999999627471 ], [ 22004.925, 5921137.724999999627471 ], [ 22004.925, 5921137.875 ], [ 22005.0, 5921137.875 ], [ 22005.0, 5921138.025000000372529 ], [ 22005.075, 5921138.025000000372529 ], [ 22005.075, 5921138.174999999813735 ], [ 22005.150000000001455, 5921138.174999999813735 ], [ 22005.150000000001455, 5921138.325000000186265 ], [ 22005.224999999998545, 5921138.325000000186265 ], [ 22005.224999999998545, 5921138.549999999813735 ], [ 22005.3, 5921138.549999999813735 ], [ 22005.3, 5921138.625 ], [ 22005.224999999998545, 5921138.625 ], [ 22005.224999999998545, 5921139.075000000186265 ], [ 22005.150000000001455, 5921139.075000000186265 ], [ 22005.150000000001455, 5921139.525000000372529 ], [ 22005.075, 5921139.525000000372529 ], [ 22005.075, 5921139.900000000372529 ], [ 22005.0, 5921139.900000000372529 ], [ 22005.0, 5921140.349999999627471 ], [ 22004.925, 5921140.349999999627471 ], [ 22004.925, 5921140.724999999627471 ], [ 22004.849999999998545, 5921140.724999999627471 ], [ 22004.849999999998545, 5921141.099999999627471 ], [ 22004.775000000001455, 5921141.099999999627471 ], [ 22004.775000000001455, 5921141.474999999627471 ], [ 22004.7, 5921141.474999999627471 ], [ 22004.7, 5921141.775000000372529 ], [ 22004.625, 5921141.775000000372529 ], [ 22004.625, 5921142.075000000186265 ], [ 22004.55, 5921142.075000000186265 ], [ 22004.55, 5921142.375 ], [ 22004.474999999998545, 5921142.375 ], [ 22004.474999999998545, 5921142.75 ], [ 22004.400000000001455, 5921142.75 ], [ 22004.400000000001455, 5921143.049999999813735 ], [ 22004.325, 5921143.049999999813735 ], [ 22004.325, 5921143.349999999627471 ], [ 22004.25, 5921143.349999999627471 ], [ 22004.25, 5921143.724999999627471 ], [ 22004.175, 5921143.724999999627471 ], [ 22004.175, 5921144.099999999627471 ], [ 22004.099999999998545, 5921144.099999999627471 ], [ 22004.099999999998545, 5921144.400000000372529 ], [ 22004.025000000001455, 5921144.400000000372529 ], [ 22004.025000000001455, 5921144.625 ], [ 22003.95, 5921144.625 ], [ 22003.95, 5921144.849999999627471 ], [ 22003.875, 5921144.849999999627471 ], [ 22003.875, 5921145.075000000186265 ], [ 22003.8, 5921145.075000000186265 ], [ 22003.8, 5921145.299999999813735 ], [ 22003.724999999998545, 5921145.299999999813735 ], [ 22003.724999999998545, 5921145.525000000372529 ], [ 22003.650000000001455, 5921145.525000000372529 ], [ 22003.650000000001455, 5921145.75 ], [ 22003.575, 5921145.75 ], [ 22003.575, 5921146.049999999813735 ], [ 22003.5, 5921146.049999999813735 ], [ 22003.5, 5921146.349999999627471 ], [ 22003.425, 5921146.349999999627471 ], [ 22003.425, 5921146.5 ], [ 22003.349999999998545, 5921146.5 ], [ 22003.349999999998545, 5921146.650000000372529 ], [ 22003.275000000001455, 5921146.650000000372529 ], [ 22003.275000000001455, 5921146.799999999813735 ], [ 22003.2, 5921146.799999999813735 ], [ 22003.2, 5921146.950000000186265 ], [ 22003.125, 5921146.950000000186265 ], [ 22003.125, 5921147.099999999627471 ], [ 22003.05, 5921147.099999999627471 ], [ 22003.05, 5921147.25 ], [ 22002.974999999998545, 5921147.25 ], [ 22002.974999999998545, 5921147.325000000186265 ], [ 22002.900000000001455, 5921147.325000000186265 ], [ 22002.900000000001455, 5921147.474999999627471 ], [ 22002.825, 5921147.474999999627471 ], [ 22002.825, 5921147.549999999813735 ], [ 22002.75, 5921147.549999999813735 ], [ 22002.75, 5921147.625 ], [ 22002.675, 5921147.625 ], [ 22002.675, 5921147.700000000186265 ], [ 22002.599999999998545, 5921147.700000000186265 ], [ 22002.599999999998545, 5921147.849999999627471 ], [ 22002.525000000001455, 5921147.849999999627471 ], [ 22002.525000000001455, 5921147.924999999813735 ], [ 22002.45, 5921147.924999999813735 ], [ 22002.45, 5921148.0 ], [ 22002.375, 5921148.0 ], [ 22002.375, 5921148.075000000186265 ], [ 22002.3, 5921148.075000000186265 ], [ 22002.3, 5921148.150000000372529 ], [ 22002.224999999998545, 5921148.150000000372529 ], [ 22002.224999999998545, 5921148.224999999627471 ], [ 22002.150000000001455, 5921148.224999999627471 ], [ 22002.150000000001455, 5921148.299999999813735 ], [ 22002.075, 5921148.299999999813735 ], [ 22002.075, 5921148.450000000186265 ], [ 22002.0, 5921148.450000000186265 ], [ 22002.0, 5921148.525000000372529 ], [ 22001.925, 5921148.525000000372529 ], [ 22001.925, 5921148.599999999627471 ], [ 22001.849999999998545, 5921148.599999999627471 ], [ 22001.849999999998545, 5921148.75 ], [ 22001.775000000001455, 5921148.75 ], [ 22001.775000000001455, 5921148.825000000186265 ], [ 22001.7, 5921148.825000000186265 ], [ 22001.7, 5921148.900000000372529 ], [ 22001.625, 5921148.900000000372529 ], [ 22001.625, 5921149.049999999813735 ], [ 22001.55, 5921149.049999999813735 ], [ 22001.55, 5921149.125 ], [ 22001.474999999998545, 5921149.125 ], [ 22001.474999999998545, 5921149.200000000186265 ], [ 22001.400000000001455, 5921149.200000000186265 ], [ 22001.400000000001455, 5921149.349999999627471 ], [ 22001.325, 5921149.349999999627471 ], [ 22001.325, 5921149.424999999813735 ], [ 22001.25, 5921149.424999999813735 ], [ 22001.25, 5921149.5 ], [ 22001.175, 5921149.5 ], [ 22001.175, 5921149.650000000372529 ], [ 22001.099999999998545, 5921149.650000000372529 ], [ 22001.099999999998545, 5921149.724999999627471 ], [ 22001.025000000001455, 5921149.724999999627471 ], [ 22001.025000000001455, 5921149.799999999813735 ], [ 22000.95, 5921149.799999999813735 ], [ 22000.95, 5921149.875 ], [ 22000.875, 5921149.875 ], [ 22000.875, 5921150.025000000372529 ], [ 22000.8, 5921150.025000000372529 ], [ 22000.8, 5921150.099999999627471 ], [ 22000.724999999998545, 5921150.099999999627471 ], [ 22000.724999999998545, 5921150.174999999813735 ], [ 22000.650000000001455, 5921150.174999999813735 ], [ 22000.650000000001455, 5921150.25 ], [ 22000.575, 5921150.25 ], [ 22000.575, 5921150.325000000186265 ], [ 22000.5, 5921150.325000000186265 ], [ 22000.5, 5921150.400000000372529 ], [ 22000.425, 5921150.400000000372529 ], [ 22000.425, 5921150.474999999627471 ], [ 22000.349999999998545, 5921150.474999999627471 ], [ 22000.349999999998545, 5921150.549999999813735 ], [ 22000.275000000001455, 5921150.549999999813735 ], [ 22000.275000000001455, 5921150.625 ], [ 22000.2, 5921150.625 ], [ 22000.2, 5921150.700000000186265 ], [ 22000.125, 5921150.700000000186265 ], [ 22000.125, 5921150.775000000372529 ], [ 21999.974999999998545, 5921150.775000000372529 ], [ 21999.974999999998545, 5921150.849999999627471 ], [ 21999.900000000001455, 5921150.849999999627471 ], [ 21999.900000000001455, 5921150.924999999813735 ], [ 21999.825, 5921150.924999999813735 ], [ 21999.825, 5921151.0 ], [ 21999.75, 5921151.0 ], [ 21999.75, 5921151.075000000186265 ], [ 21999.599999999998545, 5921151.075000000186265 ], [ 21999.599999999998545, 5921151.150000000372529 ], [ 21999.525000000001455, 5921151.150000000372529 ], [ 21999.525000000001455, 5921151.224999999627471 ], [ 21999.45, 5921151.224999999627471 ], [ 21999.45, 5921151.299999999813735 ], [ 21999.375, 5921151.299999999813735 ], [ 21999.375, 5921151.375 ], [ 21999.224999999998545, 5921151.375 ], [ 21999.224999999998545, 5921151.450000000186265 ], [ 21999.150000000001455, 5921151.450000000186265 ], [ 21999.150000000001455, 5921151.525000000372529 ], [ 21999.075, 5921151.525000000372529 ], [ 21999.075, 5921151.599999999627471 ], [ 21998.925, 5921151.599999999627471 ], [ 21998.925, 5921151.674999999813735 ], [ 21998.849999999998545, 5921151.674999999813735 ], [ 21998.849999999998545, 5921151.75 ], [ 21998.7, 5921151.75 ], [ 21998.7, 5921151.825000000186265 ], [ 21998.625, 5921151.825000000186265 ], [ 21998.625, 5921151.900000000372529 ], [ 21998.474999999998545, 5921151.900000000372529 ], [ 21998.474999999998545, 5921151.974999999627471 ], [ 21998.400000000001455, 5921151.974999999627471 ], [ 21998.400000000001455, 5921152.049999999813735 ], [ 21998.325, 5921152.049999999813735 ], [ 21998.325, 5921152.125 ], [ 21998.175, 5921152.125 ], [ 21998.175, 5921152.200000000186265 ], [ 21998.099999999998545, 5921152.200000000186265 ], [ 21998.099999999998545, 5921152.275000000372529 ], [ 21998.025000000001455, 5921152.275000000372529 ], [ 21998.025000000001455, 5921152.349999999627471 ], [ 21997.95, 5921152.349999999627471 ], [ 21997.95, 5921152.5 ], [ 21997.875, 5921152.5 ], [ 21997.875, 5921152.575000000186265 ], [ 21997.650000000001455, 5921152.575000000186265 ], [ 21997.650000000001455, 5921152.650000000372529 ], [ 21997.425, 5921152.650000000372529 ], [ 21997.425, 5921152.724999999627471 ], [ 21997.125, 5921152.724999999627471 ], [ 21997.125, 5921152.799999999813735 ], [ 21996.75, 5921152.799999999813735 ], [ 21996.75, 5921152.875 ], [ 21996.3, 5921152.875 ], [ 21996.3, 5921152.950000000186265 ], [ 21995.625, 5921152.950000000186265 ], [ 21995.625, 5921153.025000000372529 ], [ 21994.875, 5921153.025000000372529 ], [ 21994.875, 5921153.099999999627471 ], [ 21993.3, 5921153.099999999627471 ], [ 21993.3, 5921153.174999999813735 ], [ 21992.25, 5921153.174999999813735 ] ] ] } }
]
}
