{
"type": "FeatureCollection",
"name": "21933E593307N_buildings",
"crs": { "type": "name", "properties": { "name": "urn:ogc:def:crs:EPSG::3776" } },
"features": [
{ "type": "Feature", "properties": { "value": 1.0, "building_id": 0, "area": 212.45624999930087 }, "geometry": { "type": "Polygon", "coordinates": [ [ [ 22342.125, 5933697.674999999813735 ], [ 22342.125, 5933697.599999999627471 ], [ 22341.900000000001455, 5933697.599999999627471 ], [ 22341.900000000001455, 5933697.525000000372529 ], [ 22341.75, 5933697.525000000372529 ], [ 22341.75, 5933697.450000000186265 ], [ 22341.599999999998545, 5933697.450000000186265 ], [ 22341.599999999998545, 5933697.375 ], [ 22341.375, 5933697.375 ], [ 22341.375, 5933697.299999999813735 ], [ 22341.224999999998545, 5933697.299999999813735 ], [ 22341.224999999998545, 5933697.224999999627471 ], [ 22341.075, 5933697.224999999627471 ], [ 22341.075, 5933697.150000000372529 ], [ 22340.925, 5933697.150000000372529 ], [ 22340.925, 5933697.075000000186265 ], [ 22340.775000000001455, 5933697.075000000186265 ], [ 22340.775000000001455, 5933697.0 ], [ 22340.7, 5933697.0 ], [ 22340.7, 5933696.924999999813735 ], [ 22340.55, 5933696.924999999813735 ], [ 22340.55, 5933696.849999999627471 ], [ 22340.474999999998545, 5933696.849999999627471 ], [ 22340.474999999998545, 5933696.775000000372529 ], [ 22340.325, 5933696.775000000372529 ], [ 22340.325, 5933696.700000000186265 ], [ 22340.25, 5933696.700000000186265 ], [ 22340.25, 5933696.625 ], [ 22340.099999999998545, 5933696.625 ], [ 22340.099999999998545, 5933696.549999999813735 ], [ 22340.025000000001455, 5933696.549999999813735 ], [ 22340.025000000001455, 5933696.474999999627471 ], [ 22339.95, 5933696.474999999627471 ], [ 22339.95, 5933696.400000000372529 ], [ 22339.8, 5933696.400000000372529 ], [ 22339.8, 5933696.325000000186265 ], [ 22339.724999999998545, 5933696.325000000186265 ], [ 22339.724999999998545, 5933696.25 ], [ 22339.650000000001455, 5933696.25 ], [ 22339.650000000001455, 5933696.174999999813735 ], [ 22339.5, 5933696.174999999813735 ], [ 22339.5, 5933696.099999999627471 ], [ 22339.425, 5933696.099999999627471 ], [ 22339.425, 5933696.025000000372529 ], [ 22339.349999999998545, 5933696.025000000372529 ], [ 22339.349999999998545, 5933695.950000000186265 ], [ 22339.275000000001455, 5933695.950000000186265 ], [ 22339.275000000001455, 5933695.875 ], [ 22339.2, 5933695.875 ], [ 22339.2, 5933695.799999999813735 ], [ 22339.05, 5933695.799999999813735 ], [ 22339.05, 5933695.724999999627471 ], [ 22338.974999999998545, 5933695.724999999627471 ], [ 22338.974999999998545, 5933695.650000000372529 ], [ 22338.900000000001455, 5933695.650000000372529 ], [ 22338.900000000001455, 5933695.575000000186265 ], [ 22338.825, 5933695.575000000186265 ], [ 22338.825, 5933695.5 ], [ 22338.75, 5933695.5 ], [ 22338.75, 5933695.424999999813735 ], [ 22338.675, 5933695.424999999813735 ], [ 22338.675, 5933695.349999999627471 ], [ 22338.525000000001455, 5933695.349999999627471 ], [ 22338.525000000001455, 5933695.275000000372529 ], [ 22338.45, 5933695.275000000372529 ], [ 22338.45, 5933695.125 ], [ 22338.375, 5933695.125 ], [ 22338.375, 5933694.900000000372529 ], [ 22338.3, 5933694.900000000372529 ], [ 22338.3, 5933694.599999999627471 ], [ 22338.224999999998545, 5933694.599999999627471 ], [ 22338.224999999998545, 5933694.299999999813735 ], [ 22338.150000000001455, 5933694.299999999813735 ], [ 22338.150000000001455, 5933694.0 ], [ 22338.075, 5933694.0 ], [ 22338.075, 5933693.849999999627471 ], [ 22338.150000000001455, 5933693.849999999627471 ], [ 22338.150000000001455, 5933693.775000000372529 ], [ 22338.224999999998545, 5933693.775000000372529 ], [ 22338.224999999998545, 5933693.625 ], [ 22338.3, 5933693.625 ], [ 22338.3, 5933693.549999999813735 ], [ 22338.375, 5933693.549999999813735 ], [ 22338.375, 5933693.400000000372529 ], [ 22338.45, 5933693.400000000372529 ], [ 22338.45, 5933693.325000000186265 ], [ 22338.525000000001455, 5933693.325000000186265 ], [ 22338.525000000001455, 5933693.174999999813735 ], [ 22338.599999999998545, 5933693.174999999813735 ], [ 22338.599999999998545, 5933693.099999999627471 ], [ 22338.675, 5933693.099999999627471 ], [ 22338.675, 5933693.025000000372529 ], [ 22338.75, 5933693.025000000372529 ], [ 22338.75, 5933692.875 ], [ 22338.825, 5933692.875 ], [ 22338.825, 5933692.799999999813735 ], [ 22338.900000000001455, 5933692.799999999813735 ], [ 22338.900000000001455, 5933692.724999999627471 ], [ 22338.974999999998545, 5933692.724999999627471 ], [ 22338.974999999998545, 5933692.575000000186265 ], [ 22339.05, 5933692.575000000186265 ], [ 22339.05, 5933692.424999999813735 ], [ 22339.125, 5933692.424999999813735 ], [ 22339.125, 5933692.349999999627471 ], [ 22339.2, 5933692.349999999627471 ], [ 22339.2, 5933692.200000000186265 ], [ 22339.275000000001455, 5933692.200000000186265 ], [ 22339.275000000001455, 5933692.049999999813735 ], [ 22339.349999999998545, 5933692.049999999813735 ], [ 22339.349999999998545, 5933691.900000000372529 ], [ 22339.425, 5933691.900000000372529 ], [ 22339.425, 5933691.825000000186265 ], [ 22339.5, 5933691.825000000186265 ], [ 22339.5, 5933691.674999999813735 ], [ 22339.575, 5933691.674999999813735 ], [ 22339.575, 5933691.450000000186265 ], [ 22339.650000000001455, 5933691.450000000186265 ], [ 22339.650000000001455, 5933691.299999999813735 ], [ 22339.724999999998545, 5933691.299999999813735 ], [ 22339.724999999998545, 5933691.224999999627471 ], [ 22339.8, 5933691.224999999627471 ], [ 22339.8, 5933691.075000000186265 ], [ 22339.875, 5933691.075000000186265 ], [ 22339.875, 5933691.0 ], [ 22339.95, 5933691.0 ], [ 22339.95, 5933690.924999999813735 ], [ 22340.025000000001455, 5933690.924999999813735 ], [ 22340.025000000001455, 5933690.849999999627471 ], [ 22340.099999999998545, 5933690.849999999627471 ], [ 22340.099999999998545, 5933690.775000000372529 ], [ 22340.175, 5933690.775000000372529 ], [ 22340.175, 5933690.700000000186265 ], [ 22340.25, 5933690.700000000186265 ], [ 22340.25, 5933690.625 ], [ 22340.325, 5933690.625 ], [ 22340.325, 5933690.549999999813735 ], [ 22340.400000000001455, 5933690.549999999813735 ], [ 22340.400000000001455, 5933690.474999999627471 ], [ 22340.474999999998545, 5933690.474999999627471 ], [ 22340.474999999998545, 5933690.400000000372529 ], [ 22340.55, 5933690.400000000372529 ], [ 22340.55, 5933690.325000000186265 ], [ 22340.625, 5933690.325000000186265 ], [ 22340.625, 5933690.25 ], [ 22340.7, 5933690.25 ], [ 22340.7, 5933690.099999999627471 ], [ 22340.775000000001455, 5933690.099999999627471 ], [ 22340.775000000001455, 5933690.025000000372529 ], [ 22340.849999999998545, 5933690.025000000372529 ], [ 22340.849999999998545, 5933689.950000000186265 ], [ 22340.925, 5933689.950000000186265 ], [ 22340.925, 5933689.875 ], [ 22341.0, 5933689.875 ], [ 22341.0, 5933689.724999999627471 ], [ 22341.075, 5933689.724999999627471 ], [ 22341.075, 5933689.650000000372529 ], [ 22341.150000000001455, 5933689.650000000372529 ], [ 22341.150000000001455, 5933689.5 ], [ 22341.224999999998545, 5933689.5 ], [ 22341.224999999998545, 5933689.424999999813735 ], [ 22341.3, 5933689.424999999813735 ], [ 22341.3, 5933689.275000000372529 ], [ 22341.375, 5933689.275000000372529 ], [ 22341.375, 5933689.200000000186265 ], [ 22341.45, 5933689.200000000186265 ], [ 22341.45, 5933689.049999999813735 ], [ 22341.525000000001455, 5933689.049999999813735 ], [ 22341.525000000001455, 5933688.974999999627471 ], [ 22341.599999999998545, 5933688.974999999627471 ], [ 22341.599999999998545, 5933688.900000000372529 ], [ 22341.675, 5933688.900000000372529 ], [ 22341.675, 5933688.75 ], [ 22341.75, 5933688.75 ], [ 22341.75, 5933688.674999999813735 ], [ 22341.825, 5933688.674999999813735 ], [ 22341.825, 5933688.599999999627471 ], [ 22341.900000000001455, 5933688.599999999627471 ], [ 22341.900000000001455, 5933688.525000000372529 ], [ 22341.974999999998545, 5933688.525000000372529 ], [ 22341.974999999998545, 5933688.450000000186265 ], [ 22342.05, 5933688.450000000186265 ], [ 22342.05, 5933688.375 ], [ 22342.125, 5933688.375 ], [ 22342.125, 5933688.224999999627471 ], [ 22342.275000000001455, 5933688.224999999627471 ], [ 22342.275000000001455, 5933688.150000000372529 ], [ 22342.349999999998545, 5933688.150000000372529 ], [ 22342.349999999998545, 5933688.075000000186265 ], [ 22342.5, 5933688.075000000186265 ], [ 22342.5, 5933688.0 ], [ 22342.575, 5933688.0 ], [ 22342.575, 5933687.924999999813735 ], [ 22342.650000000001455, 5933687.924999999813735 ], [ 22342.650000000001455, 5933687.849999999627471 ], [ 22342.724999999998545, 5933687.849999999627471 ], [ 22342.724999999998545, 5933687.775000000372529 ], [ 22342.8, 5933687.775000000372529 ], [ 22342.8, 5933687.700000000186265 ], [ 22342.875, 5933687.700000000186265 ], [ 22342.875, 5933687.625 ], [ 22342.95, 5933687.625 ], [ 22342.95, 5933687.549999999813735 ], [ 22343.025000000001455, 5933687.549999999813735 ], [ 22343.025000000001455, 5933687.474999999627471 ], [ 22343.099999999998545, 5933687.474999999627471 ], [ 22343.099999999998545, 5933687.400000000372529 ], [ 22343.175, 5933687.400000000372529 ], [ 22343.175, 5933687.325000000186265 ], [ 22343.25, 5933687.325000000186265 ], [ 22343.25, 5933687.25 ], [ 22343.325, 5933687.25 ], [ 22343.325, 5933687.099999999627471 ], [ 22343.400000000001455, 5933687.099999999627471 ], [ 22343.400000000001455, 5933687.025000000372529 ], [ 22343.474999999998545, 5933687.025000000372529 ], [ 22343.474999999998545, 5933686.950000000186265 ], [ 22343.55, 5933686.950000000186265 ], [ 22343.55, 5933686.799999999813735 ], [ 22343.625, 5933686.799999999813735 ], [ 22343.625, 5933686.724999999627471 ], [ 22343.7, 5933686.724999999627471 ], [ 22343.7, 5933686.575000000186265 ], [ 22343.775000000001455, 5933686.575000000186265 ], [ 22343.775000000001455, 5933686.5 ], [ 22343.849999999998545, 5933686.5 ], [ 22343.849999999998545, 5933686.424999999813735 ], [ 22343.925, 5933686.424999999813735 ], [ 22343.925, 5933686.275000000372529 ], [ 22344.0, 5933686.275000000372529 ], [ 22344.0, 5933686.200000000186265 ], [ 22344.075, 5933686.200000000186265 ], [ 22344.075, 5933686.049999999813735 ], [ 22344.150000000001455, 5933686.049999999813735 ], [ 22344.150000000001455, 5933685.974999999627471 ], [ 22344.224999999998545, 5933685.974999999627471 ], [ 22344.224999999998545, 5933685.825000000186265 ], [ 22344.3, 5933685.825000000186265 ], [ 22344.3, 5933685.75 ], [ 22344.375, 5933685.75 ], [ 22344.375, 5933685.599999999627471 ], [ 22344.45, 5933685.599999999627471 ], [ 22344.45, 5933685.450000000186265 ], [ 22344.525000000001455, 5933685.450000000186265 ], [ 22344.525000000001455, 5933685.075000000186265 ], [ 22344.599999999998545, 5933685.075000000186265 ], [ 22344.599999999998545, 5933684.625 ], [ 22344.675, 5933684.625 ], [ 22344.675, 5933684.099999999627471 ], [ 22344.75, 5933684.099999999627471 ], [ 22344.75, 5933682.674999999813735 ], [ 22344.675, 5933682.674999999813735 ], [ 22344.675, 5933682.0 ], [ 22344.599999999998545, 5933682.0 ], [ 22344.599999999998545, 5933681.474999999627471 ], [ 22344.525000000001455, 5933681.474999999627471 ], [ 22344.525000000001455, 5933680.950000000186265 ], [ 22344.45, 5933680.950000000186265 ], [ 22344.45, 5933680.5 ], [ 22344.375, 5933680.5 ], [ 22344.375, 5933680.049999999813735 ], [ 22344.3, 5933680.049999999813735 ], [ 22344.3, 5933679.75 ], [ 22344.224999999998545, 5933679.75 ], [ 22344.224999999998545, 5933679.375 ], [ 22344.150000000001455, 5933679.375 ], [ 22344.150000000001455, 5933678.849999999627471 ], [ 22344.075, 5933678.849999999627471 ], [ 22344.075, 5933678.400000000372529 ], [ 22344.0, 5933678.400000000372529 ], [ 22344.0, 5933678.025000000372529 ], [ 22343.925, 5933678.025000000372529 ], [ 22343.925, 5933677.724999999627471 ], [ 22343.849999999998545, 5933677.724999999627471 ], [ 22343.849999999998545, 5933677.650000000372529 ], [ 22343.925, 5933677.650000000372529 ], [ 22343.925, 5933677.575000000186265 ], [ 22344.0, 5933677.575000000186265 ], [ 22344.0, 5933677.5 ], [ 22344.150000000001455, 5933677.5 ], [ 22344.150000000001455, 5933677.424999999813735 ], [ 22344.3, 5933677.424999999813735 ], [ 22344.3, 5933677.349999999627471 ], [ 22344.525000000001455, 5933677.349999999627471 ], [ 22344.525000000001455, 5933677.275000000372529 ], [ 22344.675, 5933677.275000000372529 ], [ 22344.675, 5933677.200000000186265 ], [ 22344.900000000001455, 5933677.200000000186265 ], [ 22344.900000000001455, 5933677.125 ], [ 22345.05, 5933677.125 ], [ 22345.05, 5933677.049999999813735 ], [ 22345.2, 5933677.049999999813735 ], [ 22345.2, 5933676.974999999627471 ], [ 22345.425, 5933676.974999999627471 ], [ 22345.425, 5933676.900000000372529 ], [ 22345.650000000001455, 5933676.900000000372529 ], [ 22345.650000000001455, 5933676.825000000186265 ], [ 22345.8, 5933676.825000000186265 ], [ 22345.8, 5933676.75 ], [ 22346.025000000001455, 5933676.75 ], [ 22346.025000000001455, 5933676.674999999813735 ], [ 22346.25, 5933676.674999999813735 ], [ 22346.25, 5933676.599999999627471 ], [ 22346.474999999998545, 5933676.599999999627471 ], [ 22346.474999999998545, 5933676.525000000372529 ], [ 22346.7, 5933676.525000000372529 ], [ 22346.7, 5933676.450000000186265 ], [ 22346.925, 5933676.450000000186265 ], [ 22346.925, 5933676.375 ], [ 22347.150000000001455, 5933676.375 ], [ 22347.150000000001455, 5933676.299999999813735 ], [ 22347.45, 5933676.299999999813735 ], [ 22347.45, 5933676.224999999627471 ], [ 22347.675, 5933676.224999999627471 ], [ 22347.675, 5933676.150000000372529 ], [ 22347.900000000001455, 5933676.150000000372529 ], [ 22347.900000000001455, 5933676.075000000186265 ], [ 22348.125, 5933676.075000000186265 ], [ 22348.125, 5933676.0 ], [ 22348.425, 5933676.0 ], [ 22348.425, 5933675.924999999813735 ], [ 22348.650000000001455, 5933675.924999999813735 ], [ 22348.650000000001455, 5933675.849999999627471 ], [ 22348.875, 5933675.849999999627471 ], [ 22348.875, 5933675.775000000372529 ], [ 22349.175, 5933675.775000000372529 ], [ 22349.175, 5933675.700000000186265 ], [ 22349.474999999998545, 5933675.700000000186265 ], [ 22349.474999999998545, 5933675.625 ], [ 22349.925, 5933675.625 ], [ 22349.925, 5933675.549999999813735 ], [ 22350.900000000001455, 5933675.549999999813735 ], [ 22350.900000000001455, 5933675.474999999627471 ], [ 22353.3, 5933675.474999999627471 ], [ 22353.3, 5933675.400000000372529 ], [ 22357.8, 5933675.400000000372529 ], [ 22357.8, 5933675.474999999627471 ], [ 22357.95, 5933675.474999999627471 ], [ 22357.95, 5933675.549999999813735 ], [ 22358.099999999998545, 5933675.549999999813735 ], [ 22358.099999999998545, 5933675.625 ], [ 22358.175, 5933675.625 ], [ 22358.175, 5933675.700000000186265 ], [ 22358.25, 5933675.700000000186265 ], [ 22358.25, 5933675.775000000372529 ], [ 22358.325, 5933675.775000000372529 ], [ 22358.325, 5933675.924999999813735 ], [ 22358.400000000001455, 5933675.924999999813735 ], [ 22358.400000000001455, 5933676.075000000186265 ], [ 22358.474999999998545, 5933676.075000000186265 ], [ 22358.474999999998545, 5933676.224999999627471 ], [ 22358.55, 5933676.224999999627471 ], [ 22358.55, 5933676.299999999813735 ], [ 22358.625, 5933676.299999999813735 ], [ 22358.625, 5933676.450000000186265 ], [ 22358.7, 5933676.450000000186265 ], [ 22358.7, 5933676.599999999627471 ], [ 22358.775000000001455, 5933676.599999999627471 ], [ 22358.775000000001455, 5933676.674999999813735 ], [ 22358.849999999998545, 5933676.674999999813735 ], [ 22358.849999999998545, 5933676.825000000186265 ], [ 22358.925, 5933676.825000000186265 ], [ 22358.925, 5933676.900000000372529 ], [ 22359.0, 5933676.900000000372529 ], [ 22359.0, 5933677.049999999813735 ], [ 22359.075, 5933677.049999999813735 ], [ 22359.075, 5933677.125 ], [ 22359.150000000001455, 5933677.125 ], [ 22359.150000000001455, 5933677.200000000186265 ], [ 22359.224999999998545, 5933677.200000000186265 ], [ 22359.224999999998545, 5933677.349999999627471 ], [ 22359.3, 5933677.349999999627471 ], [ 22359.3, 5933677.424999999813735 ], [ 22359.375, 5933677.424999999813735 ], [ 22359.375, 5933677.5 ], [ 22359.45, 5933677.5 ], [ 22359.45, 5933677.575000000186265 ], [ 22359.525000000001455, 5933677.575000000186265 ], [ 22359.525000000001455, 5933677.650000000372529 ], [ 22359.45, 5933677.650000000372529 ], [ 22359.45, 5933677.724999999627471 ], [ 22359.375, 5933677.724999999627471 ], [ 22359.375, 5933677.875 ], [ 22359.3, 5933677.875 ], [ 22359.3, 5933677.950000000186265 ], [ 22359.224999999998545, 5933677.950000000186265 ], [ 22359.224999999998545, 5933678.025000000372529 ], [ 22359.150000000001455, 5933678.025000000372529 ], [ 22359.150000000001455, 5933678.174999999813735 ], [ 22359.075, 5933678.174999999813735 ], [ 22359.075, 5933678.25 ], [ 22359.0, 5933678.25 ], [ 22359.0, 5933678.400000000372529 ], [ 22358.925, 5933678.400000000372529 ], [ 22358.925, 5933678.549999999813735 ], [ 22358.849999999998545, 5933678.549999999813735 ], [ 22358.849999999998545, 5933678.700000000186265 ], [ 22358.775000000001455, 5933678.700000000186265 ], [ 22358.775000000001455, 5933678.775000000372529 ], [ 22358.7, 5933678.775000000372529 ], [ 22358.7, 5933678.924999999813735 ], [ 22358.625, 5933678.924999999813735 ], [ 22358.625, 5933679.075000000186265 ], [ 22358.55, 5933679.075000000186265 ], [ 22358.55, 5933679.299999999813735 ], [ 22358.474999999998545, 5933679.299999999813735 ], [ 22358.474999999998545, 5933679.450000000186265 ], [ 22358.400000000001455, 5933679.450000000186265 ], [ 22358.400000000001455, 5933679.599999999627471 ], [ 22358.325, 5933679.599999999627471 ], [ 22358.325, 5933679.75 ], [ 22358.25, 5933679.75 ], [ 22358.25, 5933679.900000000372529 ], [ 22358.175, 5933679.900000000372529 ], [ 22358.175, 5933680.049999999813735 ], [ 22358.099999999998545, 5933680.049999999813735 ], [ 22358.099999999998545, 5933680.125 ], [ 22358.025000000001455, 5933680.125 ], [ 22358.025000000001455, 5933680.275000000372529 ], [ 22357.95, 5933680.275000000372529 ], [ 22357.95, 5933680.424999999813735 ], [ 22357.875, 5933680.424999999813735 ], [ 22357.875, 5933680.5 ], [ 22357.8, 5933680.5 ], [ 22357.8, 5933680.650000000372529 ], [ 22357.724999999998545, 5933680.650000000372529 ], [ 22357.724999999998545, 5933680.724999999627471 ], [ 22357.650000000001455, 5933680.724999999627471 ], [ 22357.650000000001455, 5933680.799999999813735 ], [ 22357.575, 5933680.799999999813735 ], [ 22357.575, 5933680.875 ], [ 22357.5, 5933680.875 ], [ 22357.5, 5933680.950000000186265 ], [ 22357.425, 5933680.950000000186265 ], [ 22357.425, 5933681.025000000372529 ], [ 22357.349999999998545, 5933681.025000000372529 ], [ 22357.349999999998545, 5933681.174999999813735 ], [ 22357.275000000001455, 5933681.174999999813735 ], [ 22357.275000000001455, 5933681.25 ], [ 22357.2, 5933681.25 ], [ 22357.2, 5933681.400000000372529 ], [ 22357.125, 5933681.400000000372529 ], [ 22357.125, 5933681.474999999627471 ], [ 22357.05, 5933681.474999999627471 ], [ 22357.05, 5933681.625 ], [ 22356.974999999998545, 5933681.625 ], [ 22356.974999999998545, 5933681.775000000372529 ], [ 22356.900000000001455, 5933681.775000000372529 ], [ 22356.900000000001455, 5933681.924999999813735 ], [ 22356.825, 5933681.924999999813735 ], [ 22356.825, 5933682.075000000186265 ], [ 22356.75, 5933682.075000000186265 ], [ 22356.75, 5933682.224999999627471 ], [ 22356.675, 5933682.224999999627471 ], [ 22356.675, 5933682.375 ], [ 22356.599999999998545, 5933682.375 ], [ 22356.599999999998545, 5933682.599999999627471 ], [ 22356.525000000001455, 5933682.599999999627471 ], [ 22356.525000000001455, 5933682.825000000186265 ], [ 22356.45, 5933682.825000000186265 ], [ 22356.45, 5933683.049999999813735 ], [ 22356.375, 5933683.049999999813735 ], [ 22356.375, 5933683.349999999627471 ], [ 22356.3, 5933683.349999999627471 ], [ 22356.3, 5933683.575000000186265 ], [ 22356.224999999998545, 5933683.575000000186265 ], [ 22356.224999999998545, 5933683.650000000372529 ], [ 22356.150000000001455, 5933683.650000000372529 ], [ 22356.150000000001455, 5933683.724999999627471 ], [ 22356.075, 5933683.724999999627471 ], [ 22356.075, 5933683.799999999813735 ], [ 22356.0, 5933683.799999999813735 ], [ 22356.0, 5933683.875 ], [ 22355.925, 5933683.875 ], [ 22355.925, 5933683.950000000186265 ], [ 22355.849999999998545, 5933683.950000000186265 ], [ 22355.849999999998545, 5933684.025000000372529 ], [ 22355.775000000001455, 5933684.025000000372529 ], [ 22355.775000000001455, 5933684.099999999627471 ], [ 22355.7, 5933684.099999999627471 ], [ 22355.7, 5933684.174999999813735 ], [ 22355.625, 5933684.174999999813735 ], [ 22355.625, 5933684.25 ], [ 22355.55, 5933684.25 ], [ 22355.55, 5933684.325000000186265 ], [ 22355.474999999998545, 5933684.325000000186265 ], [ 22355.474999999998545, 5933684.400000000372529 ], [ 22355.400000000001455, 5933684.400000000372529 ], [ 22355.400000000001455, 5933684.474999999627471 ], [ 22355.325, 5933684.474999999627471 ], [ 22355.325, 5933684.549999999813735 ], [ 22355.25, 5933684.549999999813735 ], [ 22355.25, 5933684.625 ], [ 22355.175, 5933684.625 ], [ 22355.175, 5933684.775000000372529 ], [ 22355.099999999998545, 5933684.775000000372529 ], [ 22355.099999999998545, 5933684.849999999627471 ], [ 22355.025000000001455, 5933684.849999999627471 ], [ 22355.025000000001455, 5933685.0 ], [ 22354.95, 5933685.0 ], [ 22354.95, 5933685.075000000186265 ], [ 22354.875, 5933685.075000000186265 ], [ 22354.875, 5933685.224999999627471 ], [ 22354.8, 5933685.224999999627471 ], [ 22354.8, 5933685.375 ], [ 22354.724999999998545, 5933685.375 ], [ 22354.724999999998545, 5933685.525000000372529 ], [ 22354.650000000001455, 5933685.525000000372529 ], [ 22354.650000000001455, 5933685.599999999627471 ], [ 22354.575, 5933685.599999999627471 ], [ 22354.575, 5933685.674999999813735 ], [ 22354.5, 5933685.674999999813735 ], [ 22354.5, 5933685.75 ], [ 22354.425, 5933685.75 ], [ 22354.425, 5933685.825000000186265 ], [ 22354.349999999998545, 5933685.825000000186265 ], [ 22354.349999999998545, 5933685.900000000372529 ], [ 22354.275000000001455, 5933685.900000000372529 ], [ 22354.275000000001455, 5933685.974999999627471 ], [ 22354.2, 5933685.974999999627471 ], [ 22354.2, 5933686.049999999813735 ], [ 22354.05, 5933686.049999999813735 ], [ 22354.05, 5933686.125 ], [ 22353.974999999998545, 5933686.125 ], [ 22353.974999999998545, 5933686.200000000186265 ], [ 22353.900000000001455, 5933686.200000000186265 ], [ 22353.900000000001455, 5933686.275000000372529 ], [ 22353.75, 5933686.275000000372529 ], [ 22353.75, 5933686.349999999627471 ], [ 22353.599999999998545, 5933686.349999999627471 ], [ 22353.599999999998545, 5933686.424999999813735 ], [ 22353.525000000001455, 5933686.424999999813735 ], [ 22353.525000000001455, 5933686.5 ], [ 22353.45, 5933686.5 ], [ 22353.45, 5933686.575000000186265 ], [ 22353.3, 5933686.575000000186265 ], [ 22353.3, 5933686.650000000372529 ], [ 22353.224999999998545, 5933686.650000000372529 ], [ 22353.224999999998545, 5933686.724999999627471 ], [ 22353.150000000001455, 5933686.724999999627471 ], [ 22353.150000000001455, 5933686.799999999813735 ], [ 22353.075, 5933686.799999999813735 ], [ 22353.075, 5933686.875 ], [ 22353.0, 5933686.875 ], [ 22353.0, 5933686.950000000186265 ], [ 22352.925, 5933686.950000000186265 ], [ 22352.925, 5933687.025000000372529 ], [ 22352.849999999998545, 5933687.025000000372529 ], [ 22352.849999999998545, 5933687.099999999627471 ], [ 22352.775000000001455, 5933687.099999999627471 ], [ 22352.775000000001455, 5933687.174999999813735 ], [ 22352.7, 5933687.174999999813735 ], [ 22352.7, 5933687.325000000186265 ], [ 22352.625, 5933687.325000000186265 ], [ 22352.625, 5933687.400000000372529 ], [ 22352.55, 5933687.400000000372529 ], [ 22352.55, 5933687.474999999627471 ], [ 22352.474999999998545, 5933687.474999999627471 ], [ 22352.474999999998545, 5933687.549999999813735 ], [ 22352.400000000001455, 5933687.549999999813735 ], [ 22352.400000000001455, 5933687.625 ], [ 22352.325, 5933687.625 ], [ 22352.325, 5933687.700000000186265 ], [ 22352.25, 5933687.700000000186265 ], [ 22352.25, 5933687.775000000372529 ], [ 22352.175, 5933687.775000000372529 ], [ 22352.175, 5933687.849999999627471 ], [ 22352.099999999998545, 5933687.849999999627471 ], [ 22352.099999999998545, 5933687.924999999813735 ], [ 22352.025000000001455, 5933687.924999999813735 ], [ 22352.025000000001455, 5933688.0 ], [ 22351.875, 5933688.0 ], [ 22351.875, 5933688.075000000186265 ], [ 22351.650000000001455, 5933688.075000000186265 ], [ 22351.650000000001455, 5933688.150000000372529 ], [ 22351.5, 5933688.150000000372529 ], [ 22351.5, 5933688.224999999627471 ], [ 22351.349999999998545, 5933688.224999999627471 ], [ 22351.349999999998545, 5933688.299999999813735 ], [ 22351.2, 5933688.299999999813735 ], [ 22351.2, 5933688.375 ], [ 22351.05, 5933688.375 ], [ 22351.05, 5933688.450000000186265 ], [ 22350.900000000001455, 5933688.450000000186265 ], [ 22350.900000000001455, 5933688.525000000372529 ], [ 22350.75, 5933688.525000000372529 ], [ 22350.75, 5933688.599999999627471 ], [ 22350.675, 5933688.599999999627471 ], [ 22350.675, 5933688.674999999813735 ], [ 22350.525000000001455, 5933688.674999999813735 ], [ 22350.525000000001455, 5933688.75 ], [ 22350.45, 5933688.75 ], [ 22350.45, 5933688.825000000186265 ], [ 22350.3, 5933688.825000000186265 ], [ 22350.3, 5933688.900000000372529 ], [ 22350.224999999998545, 5933688.900000000372529 ], [ 22350.224999999998545, 5933688.974999999627471 ], [ 22350.075, 5933688.974999999627471 ], [ 22350.075, 5933689.049999999813735 ], [ 22350.0, 5933689.049999999813735 ], [ 22350.0, 5933689.125 ], [ 22349.775000000001455, 5933689.125 ], [ 22349.775000000001455, 5933689.200000000186265 ], [ 22349.55, 5933689.200000000186265 ], [ 22349.55, 5933689.275000000372529 ], [ 22349.400000000001455, 5933689.275000000372529 ], [ 22349.400000000001455, 5933689.349999999627471 ], [ 22349.175, 5933689.349999999627471 ], [ 22349.175, 5933689.424999999813735 ], [ 22348.95, 5933689.424999999813735 ], [ 22348.95, 5933689.5 ], [ 22348.8, 5933689.5 ], [ 22348.8, 5933689.575000000186265 ], [ 22348.650000000001455, 5933689.575000000186265 ], [ 22348.650000000001455, 5933689.650000000372529 ], [ 22348.425, 5933689.650000000372529 ], [ 22348.425, 5933689.724999999627471 ], [ 22348.349999999998545, 5933689.724999999627471 ], [ 22348.349999999998545, 5933689.799999999813735 ], [ 22348.2, 5933689.799999999813735 ], [ 22348.2, 5933689.875 ], [ 22348.05, 5933689.875 ], [ 22348.05, 5933689.950000000186265 ], [ 22347.974999999998545, 5933689.950000000186265 ], [ 22347.974999999998545, 5933690.025000000372529 ], [ 22347.825, 5933690.025000000372529 ], [ 22347.825, 5933690.099999999627471 ], [ 22347.75, 5933690.099999999627471 ], [ 22347.75, 5933690.174999999813735 ], [ 22347.675, 5933690.174999999813735 ], [ 22347.675, 5933690.25 ], [ 22347.599999999998545, 5933690.25 ], [ 22347.599999999998545, 5933690.325000000186265 ], [ 22347.525000000001455, 5933690.325000000186265 ], [ 22347.525000000001455, 5933690.400000000372529 ], [ 22347.45, 5933690.400000000372529 ], [ 22347.45, 5933690.474999999627471 ], [ 22347.375, 5933690.474999999627471 ], [ 22347.375, 5933690.625 ], [ 22347.3, 5933690.625 ], [ 22347.3, 5933690.700000000186265 ], [ 22347.224999999998545, 5933690.700000000186265 ], [ 22347.224999999998545, 5933690.849999999627471 ], [ 22347.150000000001455, 5933690.849999999627471 ], [ 22347.150000000001455, 5933691.0 ], [ 22347.075, 5933691.0 ], [ 22347.075, 5933691.150000000372529 ], [ 22347.0, 5933691.150000000372529 ], [ 22347.0, 5933691.299999999813735 ], [ 22346.925, 5933691.299999999813735 ], [ 22346.925, 5933691.450000000186265 ], [ 22346.849999999998545, 5933691.450000000186265 ], [ 22346.849999999998545, 5933691.525000000372529 ], [ 22346.775000000001455, 5933691.525000000372529 ], [ 22346.775000000001455, 5933691.599999999627471 ], [ 22346.7, 5933691.599999999627471 ], [ 22346.7, 5933691.75 ], [ 22346.625, 5933691.75 ], [ 22346.625, 5933691.825000000186265 ], [ 22346.55, 5933691.825000000186265 ], [ 22346.55, 5933691.974999999627471 ], [ 22346.474999999998545, 5933691.974999999627471 ], [ 22346.474999999998545, 5933692.125 ], [ 22346.400000000001455, 5933692.125 ], [ 22346.400000000001455, 5933692.200000000186265 ], [ 22346.325, 5933692.200000000186265 ], [ 22346.325, 5933692.349999999627471 ], [ 22346.25, 5933692.349999999627471 ], [ 22346.25, 5933692.424999999813735 ], [ 22346.175, 5933692.424999999813735 ], [ 22346.175, 5933692.575000000186265 ], [ 22346.099999999998545, 5933692.575000000186265 ], [ 22346.099999999998545, 5933692.724999999627471 ], [ 22346.025000000001455, 5933692.724999999627471 ], [ 22346.025000000001455, 5933692.799999999813735 ], [ 22345.95, 5933692.799999999813735 ], [ 22345.95, 5933692.950000000186265 ], [ 22345.875, 5933692.950000000186265 ], [ 22345.875, 5933693.099999999627471 ], [ 22345.8, 5933693.099999999627471 ], [ 22345.8, 5933693.174999999813735 ], [ 22345.724999999998545, 5933693.174999999813735 ], [ 22345.724999999998545, 5933693.325000000186265 ], [ 22345.650000000001455, 5933693.325000000186265 ], [ 22345.650000000001455, 5933693.400000000372529 ], [ 22345.575, 5933693.400000000372529 ], [ 22345.575, 5933693.549999999813735 ], [ 22345.5, 5933693.549999999813735 ], [ 22345.5, 5933693.625 ], [ 22345.425, 5933693.625 ], [ 22345.425, 5933693.700000000186265 ], [ 22345.349999999998545, 5933693.700000000186265 ], [ 22345.349999999998545, 5933693.849999999627471 ], [ 22345.275000000001455, 5933693.849999999627471 ], [ 22345.275000000001455, 5933693.924999999813735 ], [ 22345.2, 5933693.924999999813735 ], [ 22345.2, 5933694.075000000186265 ], [ 22345.125, 5933694.075000000186265 ], [ 22345.125, 5933694.224999999627471 ], [ 22345.05, 5933694.224999999627471 ], [ 22345.05, 5933694.299999999813735 ], [ 22344.974999999998545, 5933694.299999999813735 ], [ 22344.974999999998545, 5933694.450000000186265 ], [ 22344.900000000001455, 5933694.450000000186265 ], [ 22344.900000000001455, 5933694.599999999627471 ], [ 22344.825, 5933694.599999999627471 ], [ 22344.825, 5933694.75 ], [ 22344.75, 5933694.75 ], [ 22344.75, 5933694.900000000372529 ], [ 22344.675, 5933694.900000000372529 ], [ 22344.675, 5933695.049999999813735 ], [ 22344.599999999998545, 5933695.049999999813735 ], [ 22344.599999999998545, 5933695.200000000186265 ], [ 22344.525000000001455, 5933695.200000000186265 ], [ 22344.525000000001455, 5933695.349999999627471 ], [ 22344.45, 5933695.349999999627471 ], [ 22344.45, 5933695.5 ], [ 22344.375, 5933695.5 ], [ 22344.375, 5933695.575000000186265 ], [ 22344.3, 5933695.575000000186265 ], [ 22344.3, 5933695.724999999627471 ], [ 22344.224999999998545, 5933695.724999999627471 ], [ 22344.224999999998545, 5933695.799999999813735 ], [ 22344.150000000001455, 5933695.799999999813735 ], [ 22344.150000000001455, 5933695.875 ], [ 22344.075, 5933695.875 ], [ 22344.075, 5933695.950000000186265 ], [ 22344.0, 5933695.950000000186265 ], [ 22344.0, 5933696.025000000372529 ], [ 22343.925, 5933696.025000000372529 ], [ 22343.925, 5933696.099999999627471 ], [ 22343.849999999998545, 5933696.099999999627471 ], [ 22343.849999999998545, 5933696.174999999813735 ], [ 22343.7, 5933696.174999999813735 ], [ 22343.7, 5933696.25 ], [ 22343.625, 5933696.25 ], [ 22343.625, 5933696.325000000186265 ], [ 22343.55, 5933696.325000000186265 ], [ 22343.55, 5933696.400000000372529 ], [ 22343.474999999998545, 5933696.400000000372529 ], [ 22343.474999999998545, 5933696.549999999813735 ], [ 22343.400000000001455, 5933696.549999999813735 ], [ 22343.400000000001455, 5933696.625 ], [ 22343.325, 5933696.625 ], [ 22343.325, 5933696.700000000186265 ], [ 22343.25, 5933696.700000000186265 ], [ 22343.25, 5933696.775000000372529 ], [ 22343.175, 5933696.775000000372529 ], [ 22343.175, 5933696.924999999813735 ], [ 22343.099999999998545, 5933696.924999999813735 ], [ 22343.099999999998545, 5933697.0 ], [ 22343.025000000001455, 5933697.0 ], [ 22343.025000000001455, 5933697.150000000372529 ], [ 22342.95, 5933697.150000000372529 ], [ 22342.95, 5933697.299999999813735 ], [ 22342.875, 5933697.299999999813735 ], [ 22342.875, 5933697.450000000186265 ], [ 22342.8, 5933697.450000000186265 ], [ 22342.8, 5933697.599999999627471 ], [ 22342.724999999998545, 5933697.599999999627471 ], [ 22342.724999999998545, 5933697.674999999813735 ], [ 22342.125, 5933697.674999999813735 ] ] ] } },
{ "type": "Feature", "properties": { "value": 1.0, "building_id": 1, "area": 597.87562499971148 }, "geometry": { "type": "Polygon", "coordinates": [ [ [ 22302.974999999998545, 5933593.875 ], [ 22302.974999999998545, 5933593.799999999813735 ], [ 22302.675, 5933593.799999999813735 ], [ 22302.675, 5933593.724999999627471 ], [ 22302.3, 5933593.724999999627471 ], [ 22302.3, 5933593.650000000372529 ], [ 22302.075, 5933593.650000000372529 ], [ 22302.075, 5933593.575000000186265 ], [ 22301.925, 5933593.575000000186265 ], [ 22301.925, 5933593.5 ], [ 22301.775000000001455, 5933593.5 ], [ 22301.775000000001455, 5933593.424999999813735 ], [ 22301.625, 5933593.424999999813735 ], [ 22301.625, 5933593.349999999627471 ], [ 22301.474999999998545, 5933593.349999999627471 ], [ 22301.474999999998545, 5933593.275000000372529 ], [ 22301.25, 5933593.275000000372529 ], [ 22301.25, 5933593.200000000186265 ], [ 22301.099999999998545, 5933593.200000000186265 ], [ 22301.099999999998545, 5933593.125 ], [ 22300.95, 5933593.125 ], [ 22300.95, 5933593.049999999813735 ], [ 22300.8, 5933593.049999999813735 ], [ 22300.8, 5933592.974999999627471 ], [ 22300.575, 5933592.974999999627471 ], [ 22300.575, 5933592.900000000372529 ], [ 22300.425, 5933592.900000000372529 ], [ 22300.425, 5933592.825000000186265 ], [ 22300.2, 5933592.825000000186265 ], [ 22300.2, 5933592.75 ], [ 22299.900000000001455, 5933592.75 ], [ 22299.900000000001455, 5933592.674999999813735 ], [ 22299.599999999998545, 5933592.674999999813735 ], [ 22299.599999999998545, 5933592.599999999627471 ], [ 22299.3, 5933592.599999999627471 ], [ 22299.3, 5933592.525000000372529 ], [ 22298.849999999998545, 5933592.525000000372529 ], [ 22298.849999999998545, 5933592.450000000186265 ], [ 22298.400000000001455, 5933592.450000000186265 ], [ 22298.400000000001455, 5933592.375 ], [ 22297.875, 5933592.375 ], [ 22297.875, 5933592.299999999813735 ], [ 22294.650000000001455, 5933592.299999999813735 ], [ 22294.650000000001455, 5933592.375 ], [ 22294.05, 5933592.375 ], [ 22294.05, 5933592.450000000186265 ], [ 22293.525000000001455, 5933592.450000000186265 ], [ 22293.525000000001455, 5933592.525000000372529 ], [ 22292.925, 5933592.525000000372529 ], [ 22292.925, 5933592.599999999627471 ], [ 22292.400000000001455, 5933592.599999999627471 ], [ 22292.400000000001455, 5933592.674999999813735 ], [ 22291.875, 5933592.674999999813735 ], [ 22291.875, 5933592.75 ], [ 22291.5, 5933592.75 ], [ 22291.5, 5933592.825000000186265 ], [ 22290.900000000001455, 5933592.825000000186265 ], [ 22290.900000000001455, 5933592.900000000372529 ], [ 22290.45, 5933592.900000000372529 ], [ 22290.45, 5933592.974999999627471 ], [ 22290.0, 5933592.974999999627471 ], [ 22290.0, 5933593.049999999813735 ], [ 22289.55, 5933593.049999999813735 ], [ 22289.55, 5933593.125 ], [ 22289.325, 5933593.125 ], [ 22289.325, 5933593.049999999813735 ], [ 22289.175, 5933593.049999999813735 ], [ 22289.175, 5933592.974999999627471 ], [ 22289.025000000001455, 5933592.974999999627471 ], [ 22289.025000000001455, 5933592.900000000372529 ], [ 22288.875, 5933592.900000000372529 ], [ 22288.875, 5933592.825000000186265 ], [ 22288.724999999998545, 5933592.825000000186265 ], [ 22288.724999999998545, 5933592.75 ], [ 22288.650000000001455, 5933592.75 ], [ 22288.650000000001455, 5933592.674999999813735 ], [ 22288.5, 5933592.674999999813735 ], [ 22288.5, 5933592.599999999627471 ], [ 22288.349999999998545, 5933592.599999999627471 ], [ 22288.349999999998545, 5933592.525000000372529 ], [ 22288.275000000001455, 5933592.525000000372529 ], [ 22288.275000000001455, 5933592.450000000186265 ], [ 22288.125, 5933592.450000000186265 ], [ 22288.125, 5933592.375 ], [ 22288.05, 5933592.375 ], [ 22288.05, 5933592.299999999813735 ], [ 22287.974999999998545, 5933592.299999999813735 ], [ 22287.974999999998545, 5933592.224999999627471 ], [ 22287.825, 5933592.224999999627471 ], [ 22287.825, 5933592.150000000372529 ], [ 22287.75, 5933592.150000000372529 ], [ 22287.75, 5933592.075000000186265 ], [ 22287.675, 5933592.075000000186265 ], [ 22287.675, 5933592.0 ], [ 22287.599999999998545, 5933592.0 ], [ 22287.599999999998545, 5933591.924999999813735 ], [ 22287.525000000001455, 5933591.924999999813735 ], [ 22287.525000000001455, 5933591.849999999627471 ], [ 22287.45, 5933591.849999999627471 ], [ 22287.45, 5933591.700000000186265 ], [ 22287.375, 5933591.700000000186265 ], [ 22287.375, 5933591.625 ], [ 22287.3, 5933591.625 ], [ 22287.3, 5933591.474999999627471 ], [ 22287.224999999998545, 5933591.474999999627471 ], [ 22287.224999999998545, 5933591.400000000372529 ], [ 22287.150000000001455, 5933591.400000000372529 ], [ 22287.150000000001455, 5933591.325000000186265 ], [ 22287.075, 5933591.325000000186265 ], [ 22287.075, 5933591.174999999813735 ], [ 22287.0, 5933591.174999999813735 ], [ 22287.0, 5933591.099999999627471 ], [ 22286.925, 5933591.099999999627471 ], [ 22286.925, 5933591.025000000372529 ], [ 22286.849999999998545, 5933591.025000000372529 ], [ 22286.849999999998545, 5933590.950000000186265 ], [ 22286.775000000001455, 5933590.950000000186265 ], [ 22286.775000000001455, 5933590.875 ], [ 22286.7, 5933590.875 ], [ 22286.7, 5933590.799999999813735 ], [ 22286.625, 5933590.799999999813735 ], [ 22286.625, 5933590.724999999627471 ], [ 22286.55, 5933590.724999999627471 ], [ 22286.55, 5933590.650000000372529 ], [ 22286.474999999998545, 5933590.650000000372529 ], [ 22286.474999999998545, 5933590.575000000186265 ], [ 22286.325, 5933590.575000000186265 ], [ 22286.325, 5933590.5 ], [ 22286.25, 5933590.5 ], [ 22286.25, 5933590.424999999813735 ], [ 22286.175, 5933590.424999999813735 ], [ 22286.175, 5933590.349999999627471 ], [ 22286.025000000001455, 5933590.349999999627471 ], [ 22286.025000000001455, 5933590.275000000372529 ], [ 22285.95, 5933590.275000000372529 ], [ 22285.95, 5933590.200000000186265 ], [ 22285.8, 5933590.200000000186265 ], [ 22285.8, 5933590.125 ], [ 22285.724999999998545, 5933590.125 ], [ 22285.724999999998545, 5933590.049999999813735 ], [ 22285.575, 5933590.049999999813735 ], [ 22285.575, 5933589.974999999627471 ], [ 22285.5, 5933589.974999999627471 ], [ 22285.5, 5933589.900000000372529 ], [ 22285.425, 5933589.900000000372529 ], [ 22285.425, 5933589.825000000186265 ], [ 22285.349999999998545, 5933589.825000000186265 ], [ 22285.349999999998545, 5933589.75 ], [ 22285.275000000001455, 5933589.75 ], [ 22285.275000000001455, 5933589.599999999627471 ], [ 22285.2, 5933589.599999999627471 ], [ 22285.2, 5933589.450000000186265 ], [ 22285.125, 5933589.450000000186265 ], [ 22285.125, 5933589.375 ], [ 22285.05, 5933589.375 ], [ 22285.05, 5933589.299999999813735 ], [ 22284.974999999998545, 5933589.299999999813735 ], [ 22284.974999999998545, 5933589.150000000372529 ], [ 22284.900000000001455, 5933589.150000000372529 ], [ 22284.900000000001455, 5933589.075000000186265 ], [ 22284.825, 5933589.075000000186265 ], [ 22284.825, 5933589.0 ], [ 22284.75, 5933589.0 ], [ 22284.75, 5933588.924999999813735 ], [ 22284.675, 5933588.924999999813735 ], [ 22284.675, 5933588.849999999627471 ], [ 22284.599999999998545, 5933588.849999999627471 ], [ 22284.599999999998545, 5933588.775000000372529 ], [ 22284.525000000001455, 5933588.775000000372529 ], [ 22284.525000000001455, 5933588.700000000186265 ], [ 22284.45, 5933588.700000000186265 ], [ 22284.45, 5933588.625 ], [ 22284.375, 5933588.625 ], [ 22284.375, 5933588.549999999813735 ], [ 22284.3, 5933588.549999999813735 ], [ 22284.3, 5933588.474999999627471 ], [ 22284.224999999998545, 5933588.474999999627471 ], [ 22284.224999999998545, 5933588.400000000372529 ], [ 22284.075, 5933588.400000000372529 ], [ 22284.075, 5933588.325000000186265 ], [ 22284.0, 5933588.325000000186265 ], [ 22284.0, 5933588.25 ], [ 22283.849999999998545, 5933588.25 ], [ 22283.849999999998545, 5933588.174999999813735 ], [ 22283.775000000001455, 5933588.174999999813735 ], [ 22283.775000000001455, 5933588.099999999627471 ], [ 22283.625, 5933588.099999999627471 ], [ 22283.625, 5933588.025000000372529 ], [ 22283.55, 5933588.025000000372529 ], [ 22283.55, 5933587.950000000186265 ], [ 22283.474999999998545, 5933587.950000000186265 ], [ 22283.474999999998545, 5933587.875 ], [ 22283.400000000001455, 5933587.875 ], [ 22283.400000000001455, 5933587.724999999627471 ], [ 22283.325, 5933587.724999999627471 ], [ 22283.325, 5933587.575000000186265 ], [ 22283.25, 5933587.575000000186265 ], [ 22283.25, 5933587.349999999627471 ], [ 22283.175, 5933587.349999999627471 ], [ 22283.175, 5933587.125 ], [ 22283.099999999998545, 5933587.125 ], [ 22283.099999999998545, 5933586.900000000372529 ], [ 22283.025000000001455, 5933586.900000000372529 ], [ 22283.025000000001455, 5933586.674999999813735 ], [ 22282.95, 5933586.674999999813735 ], [ 22282.95, 5933586.450000000186265 ], [ 22282.875, 5933586.450000000186265 ], [ 22282.875, 5933586.224999999627471 ], [ 22282.8, 5933586.224999999627471 ], [ 22282.8, 5933586.0 ], [ 22282.724999999998545, 5933586.0 ], [ 22282.724999999998545, 5933585.775000000372529 ], [ 22282.650000000001455, 5933585.775000000372529 ], [ 22282.650000000001455, 5933585.549999999813735 ], [ 22282.575, 5933585.549999999813735 ], [ 22282.575, 5933585.325000000186265 ], [ 22282.5, 5933585.325000000186265 ], [ 22282.5, 5933585.174999999813735 ], [ 22282.425, 5933585.174999999813735 ], [ 22282.425, 5933585.025000000372529 ], [ 22282.349999999998545, 5933585.025000000372529 ], [ 22282.349999999998545, 5933584.875 ], [ 22282.275000000001455, 5933584.875 ], [ 22282.275000000001455, 5933584.799999999813735 ], [ 22282.2, 5933584.799999999813735 ], [ 22282.2, 5933584.650000000372529 ], [ 22282.125, 5933584.650000000372529 ], [ 22282.125, 5933584.575000000186265 ], [ 22282.05, 5933584.575000000186265 ], [ 22282.05, 5933584.424999999813735 ], [ 22281.974999999998545, 5933584.424999999813735 ], [ 22281.974999999998545, 5933584.349999999627471 ], [ 22281.900000000001455, 5933584.349999999627471 ], [ 22281.900000000001455, 5933584.275000000372529 ], [ 22281.825, 5933584.275000000372529 ], [ 22281.825, 5933584.200000000186265 ], [ 22281.75, 5933584.200000000186265 ], [ 22281.75, 5933584.125 ], [ 22281.675, 5933584.125 ], [ 22281.675, 5933584.049999999813735 ], [ 22281.599999999998545, 5933584.049999999813735 ], [ 22281.599999999998545, 5933583.974999999627471 ], [ 22281.525000000001455, 5933583.974999999627471 ], [ 22281.525000000001455, 5933583.599999999627471 ], [ 22281.45, 5933583.599999999627471 ], [ 22281.45, 5933583.0 ], [ 22281.375, 5933583.0 ], [ 22281.375, 5933582.325000000186265 ], [ 22281.3, 5933582.325000000186265 ], [ 22281.3, 5933581.575000000186265 ], [ 22281.375, 5933581.575000000186265 ], [ 22281.375, 5933581.049999999813735 ], [ 22281.45, 5933581.049999999813735 ], [ 22281.45, 5933580.599999999627471 ], [ 22281.525000000001455, 5933580.599999999627471 ], [ 22281.525000000001455, 5933580.224999999627471 ], [ 22281.599999999998545, 5933580.224999999627471 ], [ 22281.599999999998545, 5933579.924999999813735 ], [ 22281.675, 5933579.924999999813735 ], [ 22281.675, 5933579.775000000372529 ], [ 22281.75, 5933579.775000000372529 ], [ 22281.75, 5933579.625 ], [ 22281.825, 5933579.625 ], [ 22281.825, 5933579.549999999813735 ], [ 22281.900000000001455, 5933579.549999999813735 ], [ 22281.900000000001455, 5933579.400000000372529 ], [ 22281.974999999998545, 5933579.400000000372529 ], [ 22281.974999999998545, 5933579.174999999813735 ], [ 22282.05, 5933579.174999999813735 ], [ 22282.05, 5933579.025000000372529 ], [ 22282.125, 5933579.025000000372529 ], [ 22282.125, 5933578.875 ], [ 22282.2, 5933578.875 ], [ 22282.2, 5933578.650000000372529 ], [ 22282.275000000001455, 5933578.650000000372529 ], [ 22282.275000000001455, 5933578.424999999813735 ], [ 22282.349999999998545, 5933578.424999999813735 ], [ 22282.349999999998545, 5933578.200000000186265 ], [ 22282.425, 5933578.200000000186265 ], [ 22282.425, 5933577.825000000186265 ], [ 22282.5, 5933577.825000000186265 ], [ 22282.5, 5933577.450000000186265 ], [ 22282.575, 5933577.450000000186265 ], [ 22282.575, 5933577.075000000186265 ], [ 22282.650000000001455, 5933577.075000000186265 ], [ 22282.650000000001455, 5933576.775000000372529 ], [ 22282.724999999998545, 5933576.775000000372529 ], [ 22282.724999999998545, 5933576.474999999627471 ], [ 22282.8, 5933576.474999999627471 ], [ 22282.8, 5933576.174999999813735 ], [ 22282.875, 5933576.174999999813735 ], [ 22282.875, 5933575.950000000186265 ], [ 22282.95, 5933575.950000000186265 ], [ 22282.95, 5933575.799999999813735 ], [ 22283.025000000001455, 5933575.799999999813735 ], [ 22283.025000000001455, 5933575.724999999627471 ], [ 22283.099999999998545, 5933575.724999999627471 ], [ 22283.099999999998545, 5933575.650000000372529 ], [ 22283.175, 5933575.650000000372529 ], [ 22283.175, 5933575.575000000186265 ], [ 22283.25, 5933575.575000000186265 ], [ 22283.25, 5933575.5 ], [ 22283.325, 5933575.5 ], [ 22283.325, 5933575.424999999813735 ], [ 22283.474999999998545, 5933575.424999999813735 ], [ 22283.474999999998545, 5933575.349999999627471 ], [ 22283.55, 5933575.349999999627471 ], [ 22283.55, 5933575.275000000372529 ], [ 22283.625, 5933575.275000000372529 ], [ 22283.625, 5933575.200000000186265 ], [ 22283.775000000001455, 5933575.200000000186265 ], [ 22283.775000000001455, 5933575.125 ], [ 22283.849999999998545, 5933575.125 ], [ 22283.849999999998545, 5933575.049999999813735 ], [ 22283.925, 5933575.049999999813735 ], [ 22283.925, 5933574.974999999627471 ], [ 22284.0, 5933574.974999999627471 ], [ 22284.0, 5933574.900000000372529 ], [ 22284.075, 5933574.900000000372529 ], [ 22284.075, 5933574.825000000186265 ], [ 22284.224999999998545, 5933574.825000000186265 ], [ 22284.224999999998545, 5933574.674999999813735 ], [ 22284.3, 5933574.674999999813735 ], [ 22284.3, 5933574.599999999627471 ], [ 22284.375, 5933574.599999999627471 ], [ 22284.375, 5933574.525000000372529 ], [ 22284.45, 5933574.525000000372529 ], [ 22284.45, 5933574.450000000186265 ], [ 22284.525000000001455, 5933574.450000000186265 ], [ 22284.525000000001455, 5933574.375 ], [ 22284.599999999998545, 5933574.375 ], [ 22284.599999999998545, 5933574.224999999627471 ], [ 22284.675, 5933574.224999999627471 ], [ 22284.675, 5933574.150000000372529 ], [ 22284.75, 5933574.150000000372529 ], [ 22284.75, 5933574.0 ], [ 22284.825, 5933574.0 ], [ 22284.825, 5933573.924999999813735 ], [ 22284.900000000001455, 5933573.924999999813735 ], [ 22284.900000000001455, 5933573.775000000372529 ], [ 22284.974999999998545, 5933573.775000000372529 ], [ 22284.974999999998545, 5933573.700000000186265 ], [ 22285.05, 5933573.700000000186265 ], [ 22285.05, 5933573.625 ], [ 22285.125, 5933573.625 ], [ 22285.125, 5933573.549999999813735 ], [ 22285.2, 5933573.549999999813735 ], [ 22285.2, 5933573.474999999627471 ], [ 22285.275000000001455, 5933573.474999999627471 ], [ 22285.275000000001455, 5933573.400000000372529 ], [ 22285.349999999998545, 5933573.400000000372529 ], [ 22285.349999999998545, 5933573.325000000186265 ], [ 22285.5, 5933573.325000000186265 ], [ 22285.5, 5933573.25 ], [ 22285.575, 5933573.25 ], [ 22285.575, 5933573.174999999813735 ], [ 22285.724999999998545, 5933573.174999999813735 ], [ 22285.724999999998545, 5933573.099999999627471 ], [ 22285.8, 5933573.099999999627471 ], [ 22285.8, 5933573.025000000372529 ], [ 22285.875, 5933573.025000000372529 ], [ 22285.875, 5933572.950000000186265 ], [ 22285.95, 5933572.950000000186265 ], [ 22285.95, 5933572.875 ], [ 22286.025000000001455, 5933572.875 ], [ 22286.025000000001455, 5933572.799999999813735 ], [ 22286.099999999998545, 5933572.799999999813735 ], [ 22286.099999999998545, 5933572.724999999627471 ], [ 22286.175, 5933572.724999999627471 ], [ 22286.175, 5933572.650000000372529 ], [ 22286.25, 5933572.650000000372529 ], [ 22286.25, 5933572.575000000186265 ], [ 22286.325, 5933572.575000000186265 ], [ 22286.325, 5933572.424999999813735 ], [ 22286.400000000001455, 5933572.424999999813735 ], [ 22286.400000000001455, 5933572.349999999627471 ], [ 22286.474999999998545, 5933572.349999999627471 ], [ 22286.474999999998545, 5933572.200000000186265 ], [ 22286.55, 5933572.200000000186265 ], [ 22286.55, 5933572.125 ], [ 22286.625, 5933572.125 ], [ 22286.625, 5933571.974999999627471 ], [ 22286.7, 5933571.974999999627471 ], [ 22286.7, 5933571.900000000372529 ], [ 22286.775000000001455, 5933571.900000000372529 ], [ 22286.775000000001455, 5933571.75 ], [ 22286.849999999998545, 5933571.75 ], [ 22286.849999999998545, 5933571.674999999813735 ], [ 22286.925, 5933571.674999999813735 ], [ 22286.925, 5933571.599999999627471 ], [ 22287.0, 5933571.599999999627471 ], [ 22287.0, 5933571.525000000372529 ], [ 22287.150000000001455, 5933571.525000000372529 ], [ 22287.150000000001455, 5933571.450000000186265 ], [ 22287.224999999998545, 5933571.450000000186265 ], [ 22287.224999999998545, 5933571.375 ], [ 22287.45, 5933571.375 ], [ 22287.45, 5933571.299999999813735 ], [ 22288.575, 5933571.299999999813735 ], [ 22288.575, 5933571.224999999627471 ], [ 22289.775000000001455, 5933571.224999999627471 ], [ 22289.775000000001455, 5933571.299999999813735 ], [ 22290.525000000001455, 5933571.299999999813735 ], [ 22290.525000000001455, 5933571.375 ], [ 22291.425, 5933571.375 ], [ 22291.425, 5933571.450000000186265 ], [ 22292.625, 5933571.450000000186265 ], [ 22292.625, 5933571.525000000372529 ], [ 22293.75, 5933571.525000000372529 ], [ 22293.75, 5933571.599999999627471 ], [ 22294.8, 5933571.599999999627471 ], [ 22294.8, 5933571.674999999813735 ], [ 22295.474999999998545, 5933571.674999999813735 ], [ 22295.474999999998545, 5933571.75 ], [ 22295.849999999998545, 5933571.75 ], [ 22295.849999999998545, 5933571.825000000186265 ], [ 22296.150000000001455, 5933571.825000000186265 ], [ 22296.150000000001455, 5933571.900000000372529 ], [ 22296.525000000001455, 5933571.900000000372529 ], [ 22296.525000000001455, 5933571.974999999627471 ], [ 22296.75, 5933571.974999999627471 ], [ 22296.75, 5933572.049999999813735 ], [ 22297.05, 5933572.049999999813735 ], [ 22297.05, 5933572.125 ], [ 22297.275000000001455, 5933572.125 ], [ 22297.275000000001455, 5933572.200000000186265 ], [ 22297.425, 5933572.200000000186265 ], [ 22297.425, 5933572.275000000372529 ], [ 22297.575, 5933572.275000000372529 ], [ 22297.575, 5933572.349999999627471 ], [ 22297.650000000001455, 5933572.349999999627471 ], [ 22297.650000000001455, 5933572.424999999813735 ], [ 22297.8, 5933572.424999999813735 ], [ 22297.8, 5933572.5 ], [ 22297.95, 5933572.5 ], [ 22297.95, 5933572.575000000186265 ], [ 22298.099999999998545, 5933572.575000000186265 ], [ 22298.099999999998545, 5933572.650000000372529 ], [ 22298.325, 5933572.650000000372529 ], [ 22298.325, 5933572.724999999627471 ], [ 22298.474999999998545, 5933572.724999999627471 ], [ 22298.474999999998545, 5933572.799999999813735 ], [ 22298.7, 5933572.799999999813735 ], [ 22298.7, 5933572.875 ], [ 22298.849999999998545, 5933572.875 ], [ 22298.849999999998545, 5933572.950000000186265 ], [ 22299.075, 5933572.950000000186265 ], [ 22299.075, 5933573.025000000372529 ], [ 22299.375, 5933573.025000000372529 ], [ 22299.375, 5933573.099999999627471 ], [ 22299.75, 5933573.099999999627471 ], [ 22299.75, 5933573.174999999813735 ], [ 22300.05, 5933573.174999999813735 ], [ 22300.05, 5933573.25 ], [ 22300.425, 5933573.25 ], [ 22300.425, 5933573.325000000186265 ], [ 22300.8, 5933573.325000000186265 ], [ 22300.8, 5933573.400000000372529 ], [ 22301.175, 5933573.400000000372529 ], [ 22301.175, 5933573.474999999627471 ], [ 22301.474999999998545, 5933573.474999999627471 ], [ 22301.474999999998545, 5933573.549999999813735 ], [ 22301.775000000001455, 5933573.549999999813735 ], [ 22301.775000000001455, 5933573.625 ], [ 22302.0, 5933573.625 ], [ 22302.0, 5933573.700000000186265 ], [ 22302.3, 5933573.700000000186265 ], [ 22302.3, 5933573.775000000372529 ], [ 22302.525000000001455, 5933573.775000000372529 ], [ 22302.525000000001455, 5933573.849999999627471 ], [ 22302.75, 5933573.849999999627471 ], [ 22302.75, 5933573.924999999813735 ], [ 22302.974999999998545, 5933573.924999999813735 ], [ 22302.974999999998545, 5933574.0 ], [ 22303.2, 5933574.0 ], [ 22303.2, 5933574.075000000186265 ], [ 22303.275000000001455, 5933574.075000000186265 ], [ 22303.275000000001455, 5933574.150000000372529 ], [ 22303.349999999998545, 5933574.150000000372529 ], [ 22303.349999999998545, 5933574.224999999627471 ], [ 22303.425, 5933574.224999999627471 ], [ 22303.425, 5933574.299999999813735 ], [ 22303.5, 5933574.299999999813735 ], [ 22303.5, 5933574.375 ], [ 22303.650000000001455, 5933574.375 ], [ 22303.650000000001455, 5933574.450000000186265 ], [ 22303.724999999998545, 5933574.450000000186265 ], [ 22303.724999999998545, 5933574.525000000372529 ], [ 22303.8, 5933574.525000000372529 ], [ 22303.8, 5933574.599999999627471 ], [ 22303.95, 5933574.599999999627471 ], [ 22303.95, 5933574.674999999813735 ], [ 22304.099999999998545, 5933574.674999999813735 ], [ 22304.099999999998545, 5933574.75 ], [ 22304.25, 5933574.75 ], [ 22304.25, 5933574.825000000186265 ], [ 22304.400000000001455, 5933574.825000000186265 ], [ 22304.400000000001455, 5933574.900000000372529 ], [ 22304.55, 5933574.900000000372529 ], [ 22304.55, 5933574.974999999627471 ], [ 22304.775000000001455, 5933574.974999999627471 ], [ 22304.775000000001455, 5933575.049999999813735 ], [ 22304.925, 5933575.049999999813735 ], [ 22304.925, 5933575.125 ], [ 22305.3, 5933575.125 ], [ 22305.3, 5933575.200000000186265 ], [ 22305.75, 5933575.200000000186265 ], [ 22305.75, 5933575.275000000372529 ], [ 22306.125, 5933575.275000000372529 ], [ 22306.125, 5933575.349999999627471 ], [ 22306.5, 5933575.349999999627471 ], [ 22306.5, 5933575.424999999813735 ], [ 22306.875, 5933575.424999999813735 ], [ 22306.875, 5933575.5 ], [ 22307.099999999998545, 5933575.5 ], [ 22307.099999999998545, 5933575.575000000186265 ], [ 22307.325, 5933575.575000000186265 ], [ 22307.325, 5933575.650000000372529 ], [ 22307.474999999998545, 5933575.650000000372529 ], [ 22307.474999999998545, 5933575.724999999627471 ], [ 22307.625, 5933575.724999999627471 ], [ 22307.625, 5933575.799999999813735 ], [ 22307.7, 5933575.799999999813735 ], [ 22307.7, 5933575.875 ], [ 22307.775000000001455, 5933575.875 ], [ 22307.775000000001455, 5933575.950000000186265 ], [ 22307.849999999998545, 5933575.950000000186265 ], [ 22307.849999999998545, 5933576.099999999627471 ], [ 22307.925, 5933576.099999999627471 ], [ 22307.925, 5933576.174999999813735 ], [ 22308.0, 5933576.174999999813735 ], [ 22308.0, 5933576.25 ], [ 22308.075, 5933576.25 ], [ 22308.075, 5933576.325000000186265 ], [ 22308.224999999998545, 5933576.325000000186265 ], [ 22308.224999999998545, 5933576.400000000372529 ], [ 22308.3, 5933576.400000000372529 ], [ 22308.3, 5933576.474999999627471 ], [ 22308.375, 5933576.474999999627471 ], [ 22308.375, 5933576.549999999813735 ], [ 22308.525000000001455, 5933576.549999999813735 ], [ 22308.525000000001455, 5933576.625 ], [ 22308.599999999998545, 5933576.625 ], [ 22308.599999999998545, 5933576.700000000186265 ], [ 22308.75, 5933576.700000000186265 ], [ 22308.75, 5933576.775000000372529 ], [ 22308.900000000001455, 5933576.775000000372529 ], [ 22308.900000000001455, 5933576.849999999627471 ], [ 22309.05, 5933576.849999999627471 ], [ 22309.05, 5933576.924999999813735 ], [ 22309.2, 5933576.924999999813735 ], [ 22309.2, 5933577.0 ], [ 22309.349999999998545, 5933577.0 ], [ 22309.349999999998545, 5933577.075000000186265 ], [ 22309.5, 5933577.075000000186265 ], [ 22309.5, 5933577.150000000372529 ], [ 22309.650000000001455, 5933577.150000000372529 ], [ 22309.650000000001455, 5933577.224999999627471 ], [ 22309.8, 5933577.224999999627471 ], [ 22309.8, 5933577.299999999813735 ], [ 22309.95, 5933577.299999999813735 ], [ 22309.95, 5933577.375 ], [ 22310.025000000001455, 5933577.375 ], [ 22310.025000000001455, 5933577.450000000186265 ], [ 22310.175, 5933577.450000000186265 ], [ 22310.175, 5933577.525000000372529 ], [ 22310.25, 5933577.525000000372529 ], [ 22310.25, 5933577.599999999627471 ], [ 22310.325, 5933577.599999999627471 ], [ 22310.325, 5933577.674999999813735 ], [ 22310.474999999998545, 5933577.674999999813735 ], [ 22310.474999999998545, 5933577.75 ], [ 22310.55, 5933577.75 ], [ 22310.55, 5933577.825000000186265 ], [ 22310.625, 5933577.825000000186265 ], [ 22310.625, 5933577.900000000372529 ], [ 22310.7, 5933577.900000000372529 ], [ 22310.7, 5933577.974999999627471 ], [ 22310.775000000001455, 5933577.974999999627471 ], [ 22310.775000000001455, 5933578.049999999813735 ], [ 22310.849999999998545, 5933578.049999999813735 ], [ 22310.849999999998545, 5933578.125 ], [ 22311.0, 5933578.125 ], [ 22311.0, 5933578.200000000186265 ], [ 22311.150000000001455, 5933578.200000000186265 ], [ 22311.150000000001455, 5933578.275000000372529 ], [ 22311.3, 5933578.275000000372529 ], [ 22311.3, 5933578.349999999627471 ], [ 22311.45, 5933578.349999999627471 ], [ 22311.45, 5933578.424999999813735 ], [ 22311.599999999998545, 5933578.424999999813735 ], [ 22311.599999999998545, 5933578.5 ], [ 22311.75, 5933578.5 ], [ 22311.75, 5933578.575000000186265 ], [ 22311.974999999998545, 5933578.575000000186265 ], [ 22311.974999999998545, 5933578.650000000372529 ], [ 22312.125, 5933578.650000000372529 ], [ 22312.125, 5933578.724999999627471 ], [ 22312.275000000001455, 5933578.724999999627471 ], [ 22312.275000000001455, 5933578.799999999813735 ], [ 22312.5, 5933578.799999999813735 ], [ 22312.5, 5933578.875 ], [ 22312.724999999998545, 5933578.875 ], [ 22312.724999999998545, 5933578.950000000186265 ], [ 22312.95, 5933578.950000000186265 ], [ 22312.95, 5933579.025000000372529 ], [ 22313.175, 5933579.025000000372529 ], [ 22313.175, 5933579.099999999627471 ], [ 22313.325, 5933579.099999999627471 ], [ 22313.325, 5933579.174999999813735 ], [ 22313.474999999998545, 5933579.174999999813735 ], [ 22313.474999999998545, 5933579.25 ], [ 22313.625, 5933579.25 ], [ 22313.625, 5933579.325000000186265 ], [ 22313.775000000001455, 5933579.325000000186265 ], [ 22313.775000000001455, 5933579.400000000372529 ], [ 22313.849999999998545, 5933579.400000000372529 ], [ 22313.849999999998545, 5933579.474999999627471 ], [ 22314.0, 5933579.474999999627471 ], [ 22314.0, 5933579.549999999813735 ], [ 22314.075, 5933579.549999999813735 ], [ 22314.075, 5933579.625 ], [ 22314.150000000001455, 5933579.625 ], [ 22314.150000000001455, 5933579.700000000186265 ], [ 22314.224999999998545, 5933579.700000000186265 ], [ 22314.224999999998545, 5933579.775000000372529 ], [ 22314.3, 5933579.775000000372529 ], [ 22314.3, 5933579.849999999627471 ], [ 22314.375, 5933579.849999999627471 ], [ 22314.375, 5933580.075000000186265 ], [ 22314.45, 5933580.075000000186265 ], [ 22314.45, 5933580.224999999627471 ], [ 22314.525000000001455, 5933580.224999999627471 ], [ 22314.525000000001455, 5933580.375 ], [ 22314.599999999998545, 5933580.375 ], [ 22314.599999999998545, 5933580.525000000372529 ], [ 22314.675, 5933580.525000000372529 ], [ 22314.675, 5933580.674999999813735 ], [ 22314.75, 5933580.674999999813735 ], [ 22314.75, 5933580.825000000186265 ], [ 22314.825, 5933580.825000000186265 ], [ 22314.825, 5933580.900000000372529 ], [ 22314.900000000001455, 5933580.900000000372529 ], [ 22314.900000000001455, 5933581.049999999813735 ], [ 22314.974999999998545, 5933581.049999999813735 ], [ 22314.974999999998545, 5933581.125 ], [ 22315.05, 5933581.125 ], [ 22315.05, 5933581.275000000372529 ], [ 22315.125, 5933581.275000000372529 ], [ 22315.125, 5933581.424999999813735 ], [ 22315.2, 5933581.424999999813735 ], [ 22315.2, 5933581.575000000186265 ], [ 22315.275000000001455, 5933581.575000000186265 ], [ 22315.275000000001455, 5933581.724999999627471 ], [ 22315.349999999998545, 5933581.724999999627471 ], [ 22315.349999999998545, 5933581.875 ], [ 22315.425, 5933581.875 ], [ 22315.425, 5933582.099999999627471 ], [ 22315.5, 5933582.099999999627471 ], [ 22315.5, 5933582.400000000372529 ], [ 22315.575, 5933582.400000000372529 ], [ 22315.575, 5933582.625 ], [ 22315.650000000001455, 5933582.625 ], [ 22315.650000000001455, 5933582.924999999813735 ], [ 22315.724999999998545, 5933582.924999999813735 ], [ 22315.724999999998545, 5933583.299999999813735 ], [ 22315.8, 5933583.299999999813735 ], [ 22315.8, 5933583.674999999813735 ], [ 22315.875, 5933583.674999999813735 ], [ 22315.875, 5933585.25 ], [ 22315.95, 5933585.25 ], [ 22315.95, 5933587.349999999627471 ], [ 22316.025000000001455, 5933587.349999999627471 ], [ 22316.025000000001455, 5933588.400000000372529 ], [ 22315.95, 5933588.400000000372529 ], [ 22315.95, 5933588.549999999813735 ], [ 22315.875, 5933588.549999999813735 ], [ 22315.875, 5933588.700000000186265 ], [ 22315.8, 5933588.700000000186265 ], [ 22315.8, 5933588.849999999627471 ], [ 22315.724999999998545, 5933588.849999999627471 ], [ 22315.724999999998545, 5933589.0 ], [ 22315.650000000001455, 5933589.0 ], [ 22315.650000000001455, 5933589.150000000372529 ], [ 22315.575, 5933589.150000000372529 ], [ 22315.575, 5933589.375 ], [ 22315.5, 5933589.375 ], [ 22315.5, 5933589.599999999627471 ], [ 22315.425, 5933589.599999999627471 ], [ 22315.425, 5933589.75 ], [ 22315.349999999998545, 5933589.75 ], [ 22315.349999999998545, 5933589.825000000186265 ], [ 22315.275000000001455, 5933589.825000000186265 ], [ 22315.275000000001455, 5933589.974999999627471 ], [ 22315.2, 5933589.974999999627471 ], [ 22315.2, 5933590.049999999813735 ], [ 22315.125, 5933590.049999999813735 ], [ 22315.125, 5933590.125 ], [ 22315.05, 5933590.125 ], [ 22315.05, 5933590.200000000186265 ], [ 22314.974999999998545, 5933590.200000000186265 ], [ 22314.974999999998545, 5933590.275000000372529 ], [ 22314.900000000001455, 5933590.275000000372529 ], [ 22314.900000000001455, 5933590.424999999813735 ], [ 22314.75, 5933590.424999999813735 ], [ 22314.75, 5933590.5 ], [ 22314.675, 5933590.5 ], [ 22314.675, 5933590.575000000186265 ], [ 22314.525000000001455, 5933590.575000000186265 ], [ 22314.525000000001455, 5933590.650000000372529 ], [ 22314.45, 5933590.650000000372529 ], [ 22314.45, 5933590.724999999627471 ], [ 22314.375, 5933590.724999999627471 ], [ 22314.375, 5933590.799999999813735 ], [ 22314.224999999998545, 5933590.799999999813735 ], [ 22314.224999999998545, 5933590.875 ], [ 22314.150000000001455, 5933590.875 ], [ 22314.150000000001455, 5933590.950000000186265 ], [ 22314.075, 5933590.950000000186265 ], [ 22314.075, 5933591.025000000372529 ], [ 22314.0, 5933591.025000000372529 ], [ 22314.0, 5933591.099999999627471 ], [ 22313.925, 5933591.099999999627471 ], [ 22313.925, 5933591.174999999813735 ], [ 22313.849999999998545, 5933591.174999999813735 ], [ 22313.849999999998545, 5933591.325000000186265 ], [ 22313.775000000001455, 5933591.325000000186265 ], [ 22313.775000000001455, 5933591.400000000372529 ], [ 22313.7, 5933591.400000000372529 ], [ 22313.7, 5933591.474999999627471 ], [ 22313.625, 5933591.474999999627471 ], [ 22313.625, 5933591.625 ], [ 22313.55, 5933591.625 ], [ 22313.55, 5933591.700000000186265 ], [ 22313.474999999998545, 5933591.700000000186265 ], [ 22313.474999999998545, 5933591.775000000372529 ], [ 22313.325, 5933591.775000000372529 ], [ 22313.325, 5933591.849999999627471 ], [ 22313.175, 5933591.849999999627471 ], [ 22313.175, 5933591.924999999813735 ], [ 22313.025000000001455, 5933591.924999999813735 ], [ 22313.025000000001455, 5933592.0 ], [ 22312.875, 5933592.0 ], [ 22312.875, 5933592.075000000186265 ], [ 22312.575, 5933592.075000000186265 ], [ 22312.575, 5933592.150000000372529 ], [ 22312.2, 5933592.150000000372529 ], [ 22312.2, 5933592.224999999627471 ], [ 22311.900000000001455, 5933592.224999999627471 ], [ 22311.900000000001455, 5933592.299999999813735 ], [ 22311.525000000001455, 5933592.299999999813735 ], [ 22311.525000000001455, 5933592.375 ], [ 22311.224999999998545, 5933592.375 ], [ 22311.224999999998545, 5933592.450000000186265 ], [ 22310.925, 5933592.450000000186265 ], [ 22310.925, 5933592.525000000372529 ], [ 22310.55, 5933592.525000000372529 ], [ 22310.55, 5933592.599999999627471 ], [ 22310.175, 5933592.599999999627471 ], [ 22310.175, 5933592.674999999813735 ], [ 22309.8, 5933592.674999999813735 ], [ 22309.8, 5933592.75 ], [ 22309.5, 5933592.75 ], [ 22309.5, 5933592.825000000186265 ], [ 22309.2, 5933592.825000000186265 ], [ 22309.2, 5933592.900000000372529 ], [ 22308.974999999998545, 5933592.900000000372529 ], [ 22308.974999999998545, 5933592.974999999627471 ], [ 22308.675, 5933592.974999999627471 ], [ 22308.675, 5933593.049999999813735 ], [ 22308.375, 5933593.049999999813735 ], [ 22308.375, 5933593.125 ], [ 22308.150000000001455, 5933593.125 ], [ 22308.150000000001455, 5933593.200000000186265 ], [ 22307.925, 5933593.200000000186265 ], [ 22307.925, 5933593.275000000372529 ], [ 22307.7, 5933593.275000000372529 ], [ 22307.7, 5933593.349999999627471 ], [ 22307.55, 5933593.349999999627471 ], [ 22307.55, 5933593.424999999813735 ], [ 22307.325, 5933593.424999999813735 ], [ 22307.325, 5933593.5 ], [ 22307.175, 5933593.5 ], [ 22307.175, 5933593.575000000186265 ], [ 22307.025000000001455, 5933593.575000000186265 ], [ 22307.025000000001455, 5933593.650000000372529 ], [ 22306.650000000001455, 5933593.650000000372529 ], [ 22306.650000000001455, 5933593.724999999627471 ], [ 22306.05, 5933593.724999999627471 ], [ 22306.05, 5933593.799999999813735 ], [ 22305.45, 5933593.799999999813735 ], [ 22305.45, 5933593.875 ], [ 22302.974999999998545, 5933593.875 ] ] ] } },
{ "type": "Feature", "properties": { "value": 1.0, "building_id": 2, "area": 0.17999999974865202 }, "geometry": { "type": "Polygon", "coordinates": [ [ [ 22295.025000000001455, 5933136.75 ], [ 22295.025000000001455, 5933136.674999999813735 ], [ 22294.724999999998545, 5933136.674999999813735 ], [ 22294.724999999998545, 5933136.599999999627471 ], [ 22294.875, 5933136.599999999627471 ], [ 22294.875, 5933136.525000000372529 ], [ 22295.175, 5933136.525000000372529 ], [ 22295.175, 5933136.450000000186265 ], [ 22295.400000000001455, 5933136.450000000186265 ], [ 22295.400000000001455, 5933136.525000000372529 ], [ 22295.625, 5933136.525000000372529 ], [ 22295.625, 5933136.599999999627471 ], [ 22295.7, 5933136.599999999627471 ], [ 22295.7, 5933136.674999999813735 ], [ 22295.474999999998545, 5933136.674999999813735 ], [ 22295.474999999998545, 5933136.75 ], [ 22295.025000000001455, 5933136.75 ] ] ] } },
{ "type": "Feature", "properties": { "value": 1.0, "building_id": 3, "area": 431.30249999827282 }, "geometry": { "type": "Polygon", "coordinates": [ [ [ 21933.0, 5933095.349999999627471 ], [ 21933.0, 5933079.0 ], [ 21963.525000000001455, 5933079.0 ], [ 21963.525000000001455, 5933082.224999999627471 ], [ 21963.45, 5933082.224999999627471 ], [ 21963.45, 5933083.200000000186265 ], [ 21963.375, 5933083.200000000186265 ], [ 21963.375, 5933084.025000000372529 ], [ 21963.3, 5933084.025000000372529 ], [ 21963.3, 5933084.474999999627471 ], [ 21963.224999999998545, 5933084.474999999627471 ], [ 21963.224999999998545, 5933085.150000000372529 ], [ 21963.150000000001455, 5933085.150000000372529 ], [ 21963.150000000001455, 5933085.825000000186265 ], [ 21963.075, 5933085.825000000186265 ], [ 21963.075, 5933086.349999999627471 ], [ 21963.0, 5933086.349999999627471 ], [ 21963.0, 5933086.875 ], [ 21962.925, 5933086.875 ], [ 21962.925, 5933087.474999999627471 ], [ 21962.849999999998545, 5933087.474999999627471 ], [ 21962.849999999998545, 5933088.0 ], [ 21962.775000000001455, 5933088.0 ], [ 21962.775000000001455, 5933088.375 ], [ 21962.7, 5933088.375 ], [ 21962.7, 5933088.825000000186265 ], [ 21962.625, 5933088.825000000186265 ], [ 21962.625, 5933089.200000000186265 ], [ 21962.55, 5933089.200000000186265 ], [ 21962.55, 5933089.650000000372529 ], [ 21962.474999999998545, 5933089.650000000372529 ], [ 21962.474999999998545, 5933089.875 ], [ 21962.400000000001455, 5933089.875 ], [ 21962.400000000001455, 5933090.099999999627471 ], [ 21962.325, 5933090.099999999627471 ], [ 21962.325, 5933090.325000000186265 ], [ 21962.25, 5933090.325000000186265 ], [ 21962.25, 5933090.474999999627471 ], [ 21962.175, 5933090.474999999627471 ], [ 21962.175, 5933090.625 ], [ 21962.099999999998545, 5933090.625 ], [ 21962.099999999998545, 5933090.849999999627471 ], [ 21962.025000000001455, 5933090.849999999627471 ], [ 21962.025000000001455, 5933090.924999999813735 ], [ 21961.95, 5933090.924999999813735 ], [ 21961.95, 5933091.075000000186265 ], [ 21961.875, 5933091.075000000186265 ], [ 21961.875, 5933091.224999999627471 ], [ 21961.8, 5933091.224999999627471 ], [ 21961.8, 5933091.299999999813735 ], [ 21961.724999999998545, 5933091.299999999813735 ], [ 21961.724999999998545, 5933091.375 ], [ 21961.650000000001455, 5933091.375 ], [ 21961.650000000001455, 5933091.525000000372529 ], [ 21961.575, 5933091.525000000372529 ], [ 21961.575, 5933091.599999999627471 ], [ 21961.5, 5933091.599999999627471 ], [ 21961.5, 5933091.674999999813735 ], [ 21961.425, 5933091.674999999813735 ], [ 21961.425, 5933091.75 ], [ 21961.349999999998545, 5933091.75 ], [ 21961.349999999998545, 5933091.900000000372529 ], [ 21961.275000000001455, 5933091.900000000372529 ], [ 21961.275000000001455, 5933091.974999999627471 ], [ 21961.125, 5933091.974999999627471 ], [ 21961.125, 5933092.049999999813735 ], [ 21961.05, 5933092.049999999813735 ], [ 21961.05, 5933092.125 ], [ 21960.974999999998545, 5933092.125 ], [ 21960.974999999998545, 5933092.200000000186265 ], [ 21960.825, 5933092.200000000186265 ], [ 21960.825, 5933092.275000000372529 ], [ 21960.675, 5933092.275000000372529 ], [ 21960.675, 5933092.349999999627471 ], [ 21960.525000000001455, 5933092.349999999627471 ], [ 21960.525000000001455, 5933092.424999999813735 ], [ 21960.375, 5933092.424999999813735 ], [ 21960.375, 5933092.5 ], [ 21960.224999999998545, 5933092.5 ], [ 21960.224999999998545, 5933092.575000000186265 ], [ 21960.075, 5933092.575000000186265 ], [ 21960.075, 5933092.650000000372529 ], [ 21959.925, 5933092.650000000372529 ], [ 21959.925, 5933092.724999999627471 ], [ 21959.7, 5933092.724999999627471 ], [ 21959.7, 5933092.799999999813735 ], [ 21959.55, 5933092.799999999813735 ], [ 21959.55, 5933092.875 ], [ 21959.325, 5933092.875 ], [ 21959.325, 5933092.950000000186265 ], [ 21958.875, 5933092.950000000186265 ], [ 21958.875, 5933093.025000000372529 ], [ 21958.5, 5933093.025000000372529 ], [ 21958.5, 5933093.099999999627471 ], [ 21958.125, 5933093.099999999627471 ], [ 21958.125, 5933093.174999999813735 ], [ 21957.825, 5933093.174999999813735 ], [ 21957.825, 5933093.25 ], [ 21957.45, 5933093.25 ], [ 21957.45, 5933093.325000000186265 ], [ 21957.150000000001455, 5933093.325000000186265 ], [ 21957.150000000001455, 5933093.400000000372529 ], [ 21956.849999999998545, 5933093.400000000372529 ], [ 21956.849999999998545, 5933093.474999999627471 ], [ 21956.55, 5933093.474999999627471 ], [ 21956.55, 5933093.549999999813735 ], [ 21956.25, 5933093.549999999813735 ], [ 21956.25, 5933093.625 ], [ 21955.95, 5933093.625 ], [ 21955.95, 5933093.700000000186265 ], [ 21955.724999999998545, 5933093.700000000186265 ], [ 21955.724999999998545, 5933093.775000000372529 ], [ 21955.5, 5933093.775000000372529 ], [ 21955.5, 5933093.849999999627471 ], [ 21955.275000000001455, 5933093.849999999627471 ], [ 21955.275000000001455, 5933093.924999999813735 ], [ 21954.974999999998545, 5933093.924999999813735 ], [ 21954.974999999998545, 5933094.0 ], [ 21954.75, 5933094.0 ], [ 21954.75, 5933094.075000000186265 ], [ 21954.45, 5933094.075000000186265 ], [ 21954.45, 5933094.150000000372529 ], [ 21954.075, 5933094.150000000372529 ], [ 21954.075, 5933094.224999999627471 ], [ 21953.775000000001455, 5933094.224999999627471 ], [ 21953.775000000001455, 5933094.299999999813735 ], [ 21952.8, 5933094.299999999813735 ], [ 21952.8, 5933094.224999999627471 ], [ 21952.05, 5933094.224999999627471 ], [ 21952.05, 5933094.150000000372529 ], [ 21951.525000000001455, 5933094.150000000372529 ], [ 21951.525000000001455, 5933094.075000000186265 ], [ 21951.375, 5933094.075000000186265 ], [ 21951.375, 5933094.0 ], [ 21951.224999999998545, 5933094.0 ], [ 21951.224999999998545, 5933093.924999999813735 ], [ 21951.075, 5933093.924999999813735 ], [ 21951.075, 5933093.849999999627471 ], [ 21950.925, 5933093.849999999627471 ], [ 21950.925, 5933093.775000000372529 ], [ 21950.849999999998545, 5933093.775000000372529 ], [ 21950.849999999998545, 5933093.700000000186265 ], [ 21950.7, 5933093.700000000186265 ], [ 21950.7, 5933093.625 ], [ 21950.625, 5933093.625 ], [ 21950.625, 5933093.549999999813735 ], [ 21950.474999999998545, 5933093.549999999813735 ], [ 21950.474999999998545, 5933093.474999999627471 ], [ 21950.25, 5933093.474999999627471 ], [ 21950.25, 5933093.400000000372529 ], [ 21950.099999999998545, 5933093.400000000372529 ], [ 21950.099999999998545, 5933093.325000000186265 ], [ 21949.95, 5933093.325000000186265 ], [ 21949.95, 5933093.25 ], [ 21949.724999999998545, 5933093.25 ], [ 21949.724999999998545, 5933093.174999999813735 ], [ 21949.575, 5933093.174999999813735 ], [ 21949.575, 5933093.099999999627471 ], [ 21949.349999999998545, 5933093.099999999627471 ], [ 21949.349999999998545, 5933093.025000000372529 ], [ 21949.2, 5933093.025000000372529 ], [ 21949.2, 5933092.950000000186265 ], [ 21949.05, 5933092.950000000186265 ], [ 21949.05, 5933092.875 ], [ 21948.900000000001455, 5933092.875 ], [ 21948.900000000001455, 5933092.799999999813735 ], [ 21948.75, 5933092.799999999813735 ], [ 21948.75, 5933092.724999999627471 ], [ 21948.599999999998545, 5933092.724999999627471 ], [ 21948.599999999998545, 5933092.650000000372529 ], [ 21948.45, 5933092.650000000372529 ], [ 21948.45, 5933092.575000000186265 ], [ 21948.3, 5933092.575000000186265 ], [ 21948.3, 5933092.5 ], [ 21948.224999999998545, 5933092.5 ], [ 21948.224999999998545, 5933092.424999999813735 ], [ 21948.075, 5933092.424999999813735 ], [ 21948.075, 5933092.349999999627471 ], [ 21947.925, 5933092.349999999627471 ], [ 21947.925, 5933092.275000000372529 ], [ 21947.775000000001455, 5933092.275000000372529 ], [ 21947.775000000001455, 5933092.200000000186265 ], [ 21947.625, 5933092.200000000186265 ], [ 21947.625, 5933092.125 ], [ 21947.55, 5933092.125 ], [ 21947.55, 5933092.049999999813735 ], [ 21947.474999999998545, 5933092.049999999813735 ], [ 21947.474999999998545, 5933091.974999999627471 ], [ 21947.400000000001455, 5933091.974999999627471 ], [ 21947.400000000001455, 5933091.900000000372529 ], [ 21947.325, 5933091.900000000372529 ], [ 21947.325, 5933091.825000000186265 ], [ 21947.25, 5933091.825000000186265 ], [ 21947.25, 5933091.674999999813735 ], [ 21947.175, 5933091.674999999813735 ], [ 21947.175, 5933091.599999999627471 ], [ 21947.099999999998545, 5933091.599999999627471 ], [ 21947.099999999998545, 5933091.525000000372529 ], [ 21947.025000000001455, 5933091.525000000372529 ], [ 21947.025000000001455, 5933091.375 ], [ 21946.95, 5933091.375 ], [ 21946.95, 5933091.299999999813735 ], [ 21946.875, 5933091.299999999813735 ], [ 21946.875, 5933091.150000000372529 ], [ 21946.8, 5933091.150000000372529 ], [ 21946.8, 5933091.075000000186265 ], [ 21946.724999999998545, 5933091.075000000186265 ], [ 21946.724999999998545, 5933091.0 ], [ 21946.650000000001455, 5933091.0 ], [ 21946.650000000001455, 5933090.924999999813735 ], [ 21946.575, 5933090.924999999813735 ], [ 21946.575, 5933090.849999999627471 ], [ 21946.5, 5933090.849999999627471 ], [ 21946.5, 5933090.775000000372529 ], [ 21946.425, 5933090.775000000372529 ], [ 21946.425, 5933090.625 ], [ 21946.349999999998545, 5933090.625 ], [ 21946.349999999998545, 5933090.549999999813735 ], [ 21946.275000000001455, 5933090.549999999813735 ], [ 21946.275000000001455, 5933090.474999999627471 ], [ 21946.2, 5933090.474999999627471 ], [ 21946.2, 5933090.400000000372529 ], [ 21946.125, 5933090.400000000372529 ], [ 21946.125, 5933090.325000000186265 ], [ 21946.05, 5933090.325000000186265 ], [ 21946.05, 5933090.25 ], [ 21945.974999999998545, 5933090.25 ], [ 21945.974999999998545, 5933090.174999999813735 ], [ 21945.900000000001455, 5933090.174999999813735 ], [ 21945.900000000001455, 5933090.099999999627471 ], [ 21945.75, 5933090.099999999627471 ], [ 21945.75, 5933090.025000000372529 ], [ 21945.525000000001455, 5933090.025000000372529 ], [ 21945.525000000001455, 5933090.099999999627471 ], [ 21945.375, 5933090.099999999627471 ], [ 21945.375, 5933090.174999999813735 ], [ 21945.224999999998545, 5933090.174999999813735 ], [ 21945.224999999998545, 5933090.25 ], [ 21945.075, 5933090.25 ], [ 21945.075, 5933090.325000000186265 ], [ 21944.925, 5933090.325000000186265 ], [ 21944.925, 5933090.400000000372529 ], [ 21944.849999999998545, 5933090.400000000372529 ], [ 21944.849999999998545, 5933090.474999999627471 ], [ 21944.7, 5933090.474999999627471 ], [ 21944.7, 5933090.549999999813735 ], [ 21944.55, 5933090.549999999813735 ], [ 21944.55, 5933090.625 ], [ 21944.400000000001455, 5933090.625 ], [ 21944.400000000001455, 5933090.700000000186265 ], [ 21944.25, 5933090.700000000186265 ], [ 21944.25, 5933090.775000000372529 ], [ 21944.175, 5933090.775000000372529 ], [ 21944.175, 5933090.849999999627471 ], [ 21944.025000000001455, 5933090.849999999627471 ], [ 21944.025000000001455, 5933090.924999999813735 ], [ 21943.875, 5933090.924999999813735 ], [ 21943.875, 5933091.0 ], [ 21943.724999999998545, 5933091.0 ], [ 21943.724999999998545, 5933091.150000000372529 ], [ 21943.650000000001455, 5933091.150000000372529 ], [ 21943.650000000001455, 5933091.224999999627471 ], [ 21943.575, 5933091.224999999627471 ], [ 21943.575, 5933091.375 ], [ 21943.5, 5933091.375 ], [ 21943.5, 5933091.450000000186265 ], [ 21943.425, 5933091.450000000186265 ], [ 21943.425, 5933091.599999999627471 ], [ 21943.349999999998545, 5933091.599999999627471 ], [ 21943.349999999998545, 5933091.75 ], [ 21943.275000000001455, 5933091.75 ], [ 21943.275000000001455, 5933091.825000000186265 ], [ 21943.2, 5933091.825000000186265 ], [ 21943.2, 5933091.974999999627471 ], [ 21943.125, 5933091.974999999627471 ], [ 21943.125, 5933092.049999999813735 ], [ 21943.05, 5933092.049999999813735 ], [ 21943.05, 5933092.200000000186265 ], [ 21942.974999999998545, 5933092.200000000186265 ], [ 21942.974999999998545, 5933092.275000000372529 ], [ 21942.900000000001455, 5933092.275000000372529 ], [ 21942.900000000001455, 5933092.349999999627471 ], [ 21942.825, 5933092.349999999627471 ], [ 21942.825, 5933092.424999999813735 ], [ 21942.75, 5933092.424999999813735 ], [ 21942.75, 5933092.575000000186265 ], [ 21942.675, 5933092.575000000186265 ], [ 21942.675, 5933092.650000000372529 ], [ 21942.599999999998545, 5933092.650000000372529 ], [ 21942.599999999998545, 5933092.724999999627471 ], [ 21942.525000000001455, 5933092.724999999627471 ], [ 21942.525000000001455, 5933092.799999999813735 ], [ 21942.45, 5933092.799999999813735 ], [ 21942.45, 5933092.875 ], [ 21942.375, 5933092.875 ], [ 21942.375, 5933092.950000000186265 ], [ 21942.3, 5933092.950000000186265 ], [ 21942.3, 5933093.025000000372529 ], [ 21942.224999999998545, 5933093.025000000372529 ], [ 21942.224999999998545, 5933093.099999999627471 ], [ 21942.075, 5933093.099999999627471 ], [ 21942.075, 5933093.174999999813735 ], [ 21942.0, 5933093.174999999813735 ], [ 21942.0, 5933093.25 ], [ 21941.925, 5933093.25 ], [ 21941.925, 5933093.325000000186265 ], [ 21941.849999999998545, 5933093.325000000186265 ], [ 21941.849999999998545, 5933093.400000000372529 ], [ 21941.7, 5933093.400000000372529 ], [ 21941.7, 5933093.474999999627471 ], [ 21941.625, 5933093.474999999627471 ], [ 21941.625, 5933093.549999999813735 ], [ 21941.474999999998545, 5933093.549999999813735 ], [ 21941.474999999998545, 5933093.625 ], [ 21941.400000000001455, 5933093.625 ], [ 21941.400000000001455, 5933093.700000000186265 ], [ 21941.325, 5933093.700000000186265 ], [ 21941.325, 5933093.775000000372529 ], [ 21941.25, 5933093.775000000372529 ], [ 21941.25, 5933093.849999999627471 ], [ 21941.175, 5933093.849999999627471 ], [ 21941.175, 5933093.924999999813735 ], [ 21941.099999999998545, 5933093.924999999813735 ], [ 21941.099999999998545, 5933094.0 ], [ 21941.025000000001455, 5933094.0 ], [ 21941.025000000001455, 5933094.075000000186265 ], [ 21940.95, 5933094.075000000186265 ], [ 21940.95, 5933094.150000000372529 ], [ 21940.875, 5933094.150000000372529 ], [ 21940.875, 5933094.224999999627471 ], [ 21940.8, 5933094.224999999627471 ], [ 21940.8, 5933094.299999999813735 ], [ 21940.724999999998545, 5933094.299999999813735 ], [ 21940.724999999998545, 5933094.375 ], [ 21940.575, 5933094.375 ], [ 21940.575, 5933094.450000000186265 ], [ 21940.5, 5933094.450000000186265 ], [ 21940.5, 5933094.525000000372529 ], [ 21940.349999999998545, 5933094.525000000372529 ], [ 21940.349999999998545, 5933094.599999999627471 ], [ 21940.275000000001455, 5933094.599999999627471 ], [ 21940.275000000001455, 5933094.674999999813735 ], [ 21940.125, 5933094.674999999813735 ], [ 21940.125, 5933094.75 ], [ 21939.974999999998545, 5933094.75 ], [ 21939.974999999998545, 5933094.825000000186265 ], [ 21939.75, 5933094.825000000186265 ], [ 21939.75, 5933094.900000000372529 ], [ 21939.525000000001455, 5933094.900000000372529 ], [ 21939.525000000001455, 5933094.974999999627471 ], [ 21939.224999999998545, 5933094.974999999627471 ], [ 21939.224999999998545, 5933095.049999999813735 ], [ 21938.925, 5933095.049999999813735 ], [ 21938.925, 5933095.125 ], [ 21938.55, 5933095.125 ], [ 21938.55, 5933095.200000000186265 ], [ 21938.175, 5933095.200000000186265 ], [ 21938.175, 5933095.275000000372529 ], [ 21937.2, 5933095.275000000372529 ], [ 21937.2, 5933095.349999999627471 ], [ 21933.0, 5933095.349999999627471 ] ] ] } }
]
}
