{
"type": "FeatureCollection",
"name": "21933E591957N_buildings",
"crs": { "type": "name", "properties": { "name": "urn:ogc:def:crs:EPSG::3776" } },
"features": [
{ "type": "Feature", "properties": { "value": 1.0, "building_id": 0, "area": 20.654999999956846 }, "geometry": { "type": "Polygon", "coordinates": [ [ [ 22148.775000000001455, 5919642.900000000372529 ], [ 22148.775000000001455, 5919642.825000000186265 ], [ 22148.7, 5919642.825000000186265 ], [ 22148.7, 5919642.75 ], [ 22148.625, 5919642.75 ], [ 22148.625, 5919642.674999999813735 ], [ 22148.55, 5919642.674999999813735 ], [ 22148.55, 5919642.599999999627471 ], [ 22148.474999999998545, 5919642.599999999627471 ], [ 22148.474999999998545, 5919642.525000000372529 ], [ 22148.400000000001455, 5919642.525000000372529 ], [ 22148.400000000001455, 5919642.450000000186265 ], [ 22148.325, 5919642.450000000186265 ], [ 22148.325, 5919642.299999999813735 ], [ 22148.25, 5919642.299999999813735 ], [ 22148.25, 5919642.224999999627471 ], [ 22148.175, 5919642.224999999627471 ], [ 22148.175, 5919642.075000000186265 ], [ 22148.099999999998545, 5919642.075000000186265 ], [ 22148.099999999998545, 5919642.0 ], [ 22148.025000000001455, 5919642.0 ], [ 22148.025000000001455, 5919641.924999999813735 ], [ 22147.95, 5919641.924999999813735 ], [ 22147.95, 5919641.775000000372529 ], [ 22147.875, 5919641.775000000372529 ], [ 22147.875, 5919641.700000000186265 ], [ 22147.8, 5919641.700000000186265 ], [ 22147.8, 5919641.625 ], [ 22147.724999999998545, 5919641.625 ], [ 22147.724999999998545, 5919641.549999999813735 ], [ 22147.650000000001455, 5919641.549999999813735 ], [ 22147.650000000001455, 5919641.474999999627471 ], [ 22147.575, 5919641.474999999627471 ], [ 22147.575, 5919641.400000000372529 ], [ 22147.5, 5919641.400000000372529 ], [ 22147.5, 5919641.325000000186265 ], [ 22147.425, 5919641.325000000186265 ], [ 22147.425, 5919641.25 ], [ 22147.349999999998545, 5919641.25 ], [ 22147.349999999998545, 5919641.174999999813735 ], [ 22147.275000000001455, 5919641.174999999813735 ], [ 22147.275000000001455, 5919641.099999999627471 ], [ 22147.2, 5919641.099999999627471 ], [ 22147.2, 5919641.025000000372529 ], [ 22147.125, 5919641.025000000372529 ], [ 22147.125, 5919640.950000000186265 ], [ 22147.05, 5919640.950000000186265 ], [ 22147.05, 5919640.875 ], [ 22146.974999999998545, 5919640.875 ], [ 22146.974999999998545, 5919640.799999999813735 ], [ 22146.900000000001455, 5919640.799999999813735 ], [ 22146.900000000001455, 5919640.724999999627471 ], [ 22146.825, 5919640.724999999627471 ], [ 22146.825, 5919640.650000000372529 ], [ 22146.75, 5919640.650000000372529 ], [ 22146.75, 5919640.5 ], [ 22146.675, 5919640.5 ], [ 22146.675, 5919640.349999999627471 ], [ 22146.599999999998545, 5919640.349999999627471 ], [ 22146.599999999998545, 5919640.275000000372529 ], [ 22146.525000000001455, 5919640.275000000372529 ], [ 22146.525000000001455, 5919640.125 ], [ 22146.45, 5919640.125 ], [ 22146.45, 5919639.900000000372529 ], [ 22146.375, 5919639.900000000372529 ], [ 22146.375, 5919639.75 ], [ 22146.3, 5919639.75 ], [ 22146.3, 5919639.525000000372529 ], [ 22146.224999999998545, 5919639.525000000372529 ], [ 22146.224999999998545, 5919639.375 ], [ 22146.150000000001455, 5919639.375 ], [ 22146.150000000001455, 5919639.150000000372529 ], [ 22146.075, 5919639.150000000372529 ], [ 22146.075, 5919638.849999999627471 ], [ 22146.0, 5919638.849999999627471 ], [ 22146.0, 5919638.625 ], [ 22145.925, 5919638.625 ], [ 22145.925, 5919638.549999999813735 ], [ 22146.0, 5919638.549999999813735 ], [ 22146.0, 5919638.400000000372529 ], [ 22146.075, 5919638.400000000372529 ], [ 22146.075, 5919638.25 ], [ 22146.150000000001455, 5919638.25 ], [ 22146.150000000001455, 5919638.099999999627471 ], [ 22146.224999999998545, 5919638.099999999627471 ], [ 22146.224999999998545, 5919637.950000000186265 ], [ 22146.3, 5919637.950000000186265 ], [ 22146.3, 5919637.875 ], [ 22146.375, 5919637.875 ], [ 22146.375, 5919637.724999999627471 ], [ 22146.45, 5919637.724999999627471 ], [ 22146.45, 5919637.650000000372529 ], [ 22146.525000000001455, 5919637.650000000372529 ], [ 22146.525000000001455, 5919637.575000000186265 ], [ 22146.599999999998545, 5919637.575000000186265 ], [ 22146.599999999998545, 5919637.5 ], [ 22146.675, 5919637.5 ], [ 22146.675, 5919637.424999999813735 ], [ 22146.75, 5919637.424999999813735 ], [ 22146.75, 5919637.349999999627471 ], [ 22146.825, 5919637.349999999627471 ], [ 22146.825, 5919637.275000000372529 ], [ 22146.974999999998545, 5919637.275000000372529 ], [ 22146.974999999998545, 5919637.200000000186265 ], [ 22147.2, 5919637.200000000186265 ], [ 22147.2, 5919637.125 ], [ 22147.349999999998545, 5919637.125 ], [ 22147.349999999998545, 5919637.049999999813735 ], [ 22147.5, 5919637.049999999813735 ], [ 22147.5, 5919636.974999999627471 ], [ 22147.650000000001455, 5919636.974999999627471 ], [ 22147.650000000001455, 5919636.900000000372529 ], [ 22147.8, 5919636.900000000372529 ], [ 22147.8, 5919636.825000000186265 ], [ 22147.95, 5919636.825000000186265 ], [ 22147.95, 5919636.75 ], [ 22148.025000000001455, 5919636.75 ], [ 22148.025000000001455, 5919636.674999999813735 ], [ 22148.175, 5919636.674999999813735 ], [ 22148.175, 5919636.599999999627471 ], [ 22148.325, 5919636.599999999627471 ], [ 22148.325, 5919636.525000000372529 ], [ 22148.400000000001455, 5919636.525000000372529 ], [ 22148.400000000001455, 5919636.450000000186265 ], [ 22148.625, 5919636.450000000186265 ], [ 22148.625, 5919636.375 ], [ 22148.775000000001455, 5919636.375 ], [ 22148.775000000001455, 5919636.299999999813735 ], [ 22148.849999999998545, 5919636.299999999813735 ], [ 22148.849999999998545, 5919636.375 ], [ 22149.0, 5919636.375 ], [ 22149.0, 5919636.450000000186265 ], [ 22149.075, 5919636.450000000186265 ], [ 22149.075, 5919636.525000000372529 ], [ 22149.150000000001455, 5919636.525000000372529 ], [ 22149.150000000001455, 5919636.599999999627471 ], [ 22149.224999999998545, 5919636.599999999627471 ], [ 22149.224999999998545, 5919636.674999999813735 ], [ 22149.3, 5919636.674999999813735 ], [ 22149.3, 5919636.75 ], [ 22149.375, 5919636.75 ], [ 22149.375, 5919636.825000000186265 ], [ 22149.45, 5919636.825000000186265 ], [ 22149.45, 5919636.900000000372529 ], [ 22149.525000000001455, 5919636.900000000372529 ], [ 22149.525000000001455, 5919636.974999999627471 ], [ 22149.599999999998545, 5919636.974999999627471 ], [ 22149.599999999998545, 5919637.049999999813735 ], [ 22149.675, 5919637.049999999813735 ], [ 22149.675, 5919637.125 ], [ 22149.75, 5919637.125 ], [ 22149.75, 5919637.200000000186265 ], [ 22149.900000000001455, 5919637.200000000186265 ], [ 22149.900000000001455, 5919637.275000000372529 ], [ 22149.974999999998545, 5919637.275000000372529 ], [ 22149.974999999998545, 5919637.349999999627471 ], [ 22150.05, 5919637.349999999627471 ], [ 22150.05, 5919637.424999999813735 ], [ 22150.2, 5919637.424999999813735 ], [ 22150.2, 5919637.5 ], [ 22150.275000000001455, 5919637.5 ], [ 22150.275000000001455, 5919637.575000000186265 ], [ 22150.425, 5919637.575000000186265 ], [ 22150.425, 5919637.650000000372529 ], [ 22150.575, 5919637.650000000372529 ], [ 22150.575, 5919637.724999999627471 ], [ 22150.724999999998545, 5919637.724999999627471 ], [ 22150.724999999998545, 5919637.799999999813735 ], [ 22150.8, 5919637.799999999813735 ], [ 22150.8, 5919637.875 ], [ 22150.95, 5919637.875 ], [ 22150.95, 5919637.950000000186265 ], [ 22151.025000000001455, 5919637.950000000186265 ], [ 22151.025000000001455, 5919638.025000000372529 ], [ 22151.099999999998545, 5919638.025000000372529 ], [ 22151.099999999998545, 5919638.099999999627471 ], [ 22151.175, 5919638.099999999627471 ], [ 22151.175, 5919638.174999999813735 ], [ 22151.25, 5919638.174999999813735 ], [ 22151.25, 5919638.25 ], [ 22151.325, 5919638.25 ], [ 22151.325, 5919638.325000000186265 ], [ 22151.400000000001455, 5919638.325000000186265 ], [ 22151.400000000001455, 5919638.400000000372529 ], [ 22151.474999999998545, 5919638.400000000372529 ], [ 22151.474999999998545, 5919638.549999999813735 ], [ 22151.55, 5919638.549999999813735 ], [ 22151.55, 5919638.625 ], [ 22151.474999999998545, 5919638.625 ], [ 22151.474999999998545, 5919638.775000000372529 ], [ 22151.400000000001455, 5919638.775000000372529 ], [ 22151.400000000001455, 5919638.924999999813735 ], [ 22151.325, 5919638.924999999813735 ], [ 22151.325, 5919639.075000000186265 ], [ 22151.25, 5919639.075000000186265 ], [ 22151.25, 5919639.224999999627471 ], [ 22151.175, 5919639.224999999627471 ], [ 22151.175, 5919639.299999999813735 ], [ 22151.099999999998545, 5919639.299999999813735 ], [ 22151.099999999998545, 5919639.450000000186265 ], [ 22151.025000000001455, 5919639.450000000186265 ], [ 22151.025000000001455, 5919639.525000000372529 ], [ 22150.95, 5919639.525000000372529 ], [ 22150.95, 5919639.599999999627471 ], [ 22150.875, 5919639.599999999627471 ], [ 22150.875, 5919639.674999999813735 ], [ 22150.8, 5919639.674999999813735 ], [ 22150.8, 5919639.75 ], [ 22150.724999999998545, 5919639.75 ], [ 22150.724999999998545, 5919639.825000000186265 ], [ 22150.650000000001455, 5919639.825000000186265 ], [ 22150.650000000001455, 5919639.974999999627471 ], [ 22150.575, 5919639.974999999627471 ], [ 22150.575, 5919640.049999999813735 ], [ 22150.5, 5919640.049999999813735 ], [ 22150.5, 5919640.125 ], [ 22150.425, 5919640.125 ], [ 22150.425, 5919640.200000000186265 ], [ 22150.349999999998545, 5919640.200000000186265 ], [ 22150.349999999998545, 5919640.349999999627471 ], [ 22150.275000000001455, 5919640.349999999627471 ], [ 22150.275000000001455, 5919640.5 ], [ 22150.2, 5919640.5 ], [ 22150.2, 5919640.575000000186265 ], [ 22150.125, 5919640.575000000186265 ], [ 22150.125, 5919640.799999999813735 ], [ 22150.05, 5919640.799999999813735 ], [ 22150.05, 5919640.950000000186265 ], [ 22149.974999999998545, 5919640.950000000186265 ], [ 22149.974999999998545, 5919641.099999999627471 ], [ 22149.900000000001455, 5919641.099999999627471 ], [ 22149.900000000001455, 5919641.25 ], [ 22149.825, 5919641.25 ], [ 22149.825, 5919641.400000000372529 ], [ 22149.75, 5919641.400000000372529 ], [ 22149.75, 5919641.549999999813735 ], [ 22149.675, 5919641.549999999813735 ], [ 22149.675, 5919641.700000000186265 ], [ 22149.599999999998545, 5919641.700000000186265 ], [ 22149.599999999998545, 5919641.775000000372529 ], [ 22149.525000000001455, 5919641.775000000372529 ], [ 22149.525000000001455, 5919641.924999999813735 ], [ 22149.45, 5919641.924999999813735 ], [ 22149.45, 5919642.075000000186265 ], [ 22149.375, 5919642.075000000186265 ], [ 22149.375, 5919642.224999999627471 ], [ 22149.3, 5919642.224999999627471 ], [ 22149.3, 5919642.375 ], [ 22149.224999999998545, 5919642.375 ], [ 22149.224999999998545, 5919642.525000000372529 ], [ 22149.150000000001455, 5919642.525000000372529 ], [ 22149.150000000001455, 5919642.599999999627471 ], [ 22149.075, 5919642.599999999627471 ], [ 22149.075, 5919642.674999999813735 ], [ 22149.0, 5919642.674999999813735 ], [ 22149.0, 5919642.75 ], [ 22148.925, 5919642.75 ], [ 22148.925, 5919642.825000000186265 ], [ 22148.849999999998545, 5919642.825000000186265 ], [ 22148.849999999998545, 5919642.900000000372529 ], [ 22148.775000000001455, 5919642.900000000372529 ] ] ] } },
{ "type": "Feature", "properties": { "value": 1.0, "building_id": 1, "area": 377.12249999914025 }, "geometry": { "type": "Polygon", "coordinates": [ [ [ 22086.150000000001455, 5919649.875 ], [ 22086.150000000001455, 5919649.799999999813735 ], [ 22084.275000000001455, 5919649.799999999813735 ], [ 22084.275000000001455, 5919649.724999999627471 ], [ 22084.05, 5919649.724999999627471 ], [ 22084.05, 5919649.650000000372529 ], [ 22083.900000000001455, 5919649.650000000372529 ], [ 22083.900000000001455, 5919649.575000000186265 ], [ 22083.75, 5919649.575000000186265 ], [ 22083.75, 5919649.5 ], [ 22083.599999999998545, 5919649.5 ], [ 22083.599999999998545, 5919649.424999999813735 ], [ 22083.525000000001455, 5919649.424999999813735 ], [ 22083.525000000001455, 5919649.349999999627471 ], [ 22083.375, 5919649.349999999627471 ], [ 22083.375, 5919649.275000000372529 ], [ 22083.3, 5919649.275000000372529 ], [ 22083.3, 5919649.200000000186265 ], [ 22083.224999999998545, 5919649.200000000186265 ], [ 22083.224999999998545, 5919649.125 ], [ 22083.150000000001455, 5919649.125 ], [ 22083.150000000001455, 5919649.049999999813735 ], [ 22083.075, 5919649.049999999813735 ], [ 22083.075, 5919648.974999999627471 ], [ 22083.0, 5919648.974999999627471 ], [ 22083.0, 5919648.825000000186265 ], [ 22082.925, 5919648.825000000186265 ], [ 22082.925, 5919648.75 ], [ 22082.849999999998545, 5919648.75 ], [ 22082.849999999998545, 5919648.599999999627471 ], [ 22082.775000000001455, 5919648.599999999627471 ], [ 22082.775000000001455, 5919648.450000000186265 ], [ 22082.7, 5919648.450000000186265 ], [ 22082.7, 5919648.299999999813735 ], [ 22082.625, 5919648.299999999813735 ], [ 22082.625, 5919648.224999999627471 ], [ 22082.55, 5919648.224999999627471 ], [ 22082.55, 5919648.150000000372529 ], [ 22082.474999999998545, 5919648.150000000372529 ], [ 22082.474999999998545, 5919648.075000000186265 ], [ 22082.25, 5919648.075000000186265 ], [ 22082.25, 5919648.0 ], [ 22081.95, 5919648.0 ], [ 22081.95, 5919647.924999999813735 ], [ 22081.650000000001455, 5919647.924999999813735 ], [ 22081.650000000001455, 5919647.849999999627471 ], [ 22081.425, 5919647.849999999627471 ], [ 22081.425, 5919647.775000000372529 ], [ 22081.2, 5919647.775000000372529 ], [ 22081.2, 5919647.700000000186265 ], [ 22080.974999999998545, 5919647.700000000186265 ], [ 22080.974999999998545, 5919647.625 ], [ 22080.75, 5919647.625 ], [ 22080.75, 5919647.549999999813735 ], [ 22080.525000000001455, 5919647.549999999813735 ], [ 22080.525000000001455, 5919647.474999999627471 ], [ 22080.375, 5919647.474999999627471 ], [ 22080.375, 5919647.400000000372529 ], [ 22080.3, 5919647.400000000372529 ], [ 22080.3, 5919647.325000000186265 ], [ 22080.224999999998545, 5919647.325000000186265 ], [ 22080.224999999998545, 5919647.25 ], [ 22080.075, 5919647.25 ], [ 22080.075, 5919647.174999999813735 ], [ 22080.0, 5919647.174999999813735 ], [ 22080.0, 5919647.099999999627471 ], [ 22079.925, 5919647.099999999627471 ], [ 22079.925, 5919647.025000000372529 ], [ 22079.849999999998545, 5919647.025000000372529 ], [ 22079.849999999998545, 5919646.950000000186265 ], [ 22079.775000000001455, 5919646.950000000186265 ], [ 22079.775000000001455, 5919646.799999999813735 ], [ 22079.7, 5919646.799999999813735 ], [ 22079.7, 5919646.724999999627471 ], [ 22079.625, 5919646.724999999627471 ], [ 22079.625, 5919646.650000000372529 ], [ 22079.55, 5919646.650000000372529 ], [ 22079.55, 5919646.5 ], [ 22079.474999999998545, 5919646.5 ], [ 22079.474999999998545, 5919646.349999999627471 ], [ 22079.400000000001455, 5919646.349999999627471 ], [ 22079.400000000001455, 5919646.200000000186265 ], [ 22079.325, 5919646.200000000186265 ], [ 22079.325, 5919646.049999999813735 ], [ 22079.25, 5919646.049999999813735 ], [ 22079.25, 5919645.900000000372529 ], [ 22079.175, 5919645.900000000372529 ], [ 22079.175, 5919645.75 ], [ 22079.099999999998545, 5919645.75 ], [ 22079.099999999998545, 5919645.599999999627471 ], [ 22079.025000000001455, 5919645.599999999627471 ], [ 22079.025000000001455, 5919645.450000000186265 ], [ 22078.95, 5919645.450000000186265 ], [ 22078.95, 5919645.299999999813735 ], [ 22078.875, 5919645.299999999813735 ], [ 22078.875, 5919645.150000000372529 ], [ 22078.8, 5919645.150000000372529 ], [ 22078.8, 5919645.0 ], [ 22078.724999999998545, 5919645.0 ], [ 22078.724999999998545, 5919644.849999999627471 ], [ 22078.650000000001455, 5919644.849999999627471 ], [ 22078.650000000001455, 5919644.700000000186265 ], [ 22078.575, 5919644.700000000186265 ], [ 22078.575, 5919644.549999999813735 ], [ 22078.5, 5919644.549999999813735 ], [ 22078.5, 5919644.400000000372529 ], [ 22078.425, 5919644.400000000372529 ], [ 22078.425, 5919644.325000000186265 ], [ 22078.349999999998545, 5919644.325000000186265 ], [ 22078.349999999998545, 5919644.25 ], [ 22078.275000000001455, 5919644.25 ], [ 22078.275000000001455, 5919644.174999999813735 ], [ 22078.2, 5919644.174999999813735 ], [ 22078.2, 5919644.025000000372529 ], [ 22078.125, 5919644.025000000372529 ], [ 22078.125, 5919643.950000000186265 ], [ 22078.05, 5919643.950000000186265 ], [ 22078.05, 5919643.799999999813735 ], [ 22077.974999999998545, 5919643.799999999813735 ], [ 22077.974999999998545, 5919643.650000000372529 ], [ 22077.900000000001455, 5919643.650000000372529 ], [ 22077.900000000001455, 5919643.5 ], [ 22077.825, 5919643.5 ], [ 22077.825, 5919643.349999999627471 ], [ 22077.75, 5919643.349999999627471 ], [ 22077.75, 5919643.125 ], [ 22077.675, 5919643.125 ], [ 22077.675, 5919642.900000000372529 ], [ 22077.599999999998545, 5919642.900000000372529 ], [ 22077.599999999998545, 5919642.599999999627471 ], [ 22077.525000000001455, 5919642.599999999627471 ], [ 22077.525000000001455, 5919641.400000000372529 ], [ 22077.45, 5919641.400000000372529 ], [ 22077.45, 5919637.875 ], [ 22077.525000000001455, 5919637.875 ], [ 22077.525000000001455, 5919637.200000000186265 ], [ 22077.599999999998545, 5919637.200000000186265 ], [ 22077.599999999998545, 5919636.599999999627471 ], [ 22077.675, 5919636.599999999627471 ], [ 22077.675, 5919636.450000000186265 ], [ 22077.75, 5919636.450000000186265 ], [ 22077.75, 5919636.375 ], [ 22077.825, 5919636.375 ], [ 22077.825, 5919636.299999999813735 ], [ 22077.900000000001455, 5919636.299999999813735 ], [ 22077.900000000001455, 5919636.150000000372529 ], [ 22077.974999999998545, 5919636.150000000372529 ], [ 22077.974999999998545, 5919636.075000000186265 ], [ 22078.05, 5919636.075000000186265 ], [ 22078.05, 5919636.0 ], [ 22078.125, 5919636.0 ], [ 22078.125, 5919635.924999999813735 ], [ 22078.275000000001455, 5919635.924999999813735 ], [ 22078.275000000001455, 5919635.849999999627471 ], [ 22078.349999999998545, 5919635.849999999627471 ], [ 22078.349999999998545, 5919635.775000000372529 ], [ 22078.425, 5919635.775000000372529 ], [ 22078.425, 5919635.700000000186265 ], [ 22078.575, 5919635.700000000186265 ], [ 22078.575, 5919635.625 ], [ 22078.650000000001455, 5919635.625 ], [ 22078.650000000001455, 5919635.549999999813735 ], [ 22078.724999999998545, 5919635.549999999813735 ], [ 22078.724999999998545, 5919635.474999999627471 ], [ 22078.875, 5919635.474999999627471 ], [ 22078.875, 5919635.400000000372529 ], [ 22078.95, 5919635.400000000372529 ], [ 22078.95, 5919635.325000000186265 ], [ 22079.025000000001455, 5919635.325000000186265 ], [ 22079.025000000001455, 5919635.174999999813735 ], [ 22079.099999999998545, 5919635.174999999813735 ], [ 22079.099999999998545, 5919635.099999999627471 ], [ 22079.175, 5919635.099999999627471 ], [ 22079.175, 5919635.025000000372529 ], [ 22079.25, 5919635.025000000372529 ], [ 22079.25, 5919634.875 ], [ 22079.325, 5919634.875 ], [ 22079.325, 5919634.724999999627471 ], [ 22079.400000000001455, 5919634.724999999627471 ], [ 22079.400000000001455, 5919634.575000000186265 ], [ 22079.474999999998545, 5919634.575000000186265 ], [ 22079.474999999998545, 5919634.424999999813735 ], [ 22079.55, 5919634.424999999813735 ], [ 22079.55, 5919634.349999999627471 ], [ 22079.625, 5919634.349999999627471 ], [ 22079.625, 5919634.200000000186265 ], [ 22079.7, 5919634.200000000186265 ], [ 22079.7, 5919634.125 ], [ 22079.775000000001455, 5919634.125 ], [ 22079.775000000001455, 5919633.974999999627471 ], [ 22079.849999999998545, 5919633.974999999627471 ], [ 22079.849999999998545, 5919633.900000000372529 ], [ 22079.925, 5919633.900000000372529 ], [ 22079.925, 5919633.825000000186265 ], [ 22080.0, 5919633.825000000186265 ], [ 22080.0, 5919633.75 ], [ 22080.075, 5919633.75 ], [ 22080.075, 5919633.674999999813735 ], [ 22080.224999999998545, 5919633.674999999813735 ], [ 22080.224999999998545, 5919633.599999999627471 ], [ 22080.3, 5919633.599999999627471 ], [ 22080.3, 5919633.525000000372529 ], [ 22080.375, 5919633.525000000372529 ], [ 22080.375, 5919633.450000000186265 ], [ 22080.525000000001455, 5919633.450000000186265 ], [ 22080.525000000001455, 5919633.375 ], [ 22080.599999999998545, 5919633.375 ], [ 22080.599999999998545, 5919633.299999999813735 ], [ 22080.75, 5919633.299999999813735 ], [ 22080.75, 5919633.224999999627471 ], [ 22080.825, 5919633.224999999627471 ], [ 22080.825, 5919633.150000000372529 ], [ 22080.900000000001455, 5919633.150000000372529 ], [ 22080.900000000001455, 5919633.075000000186265 ], [ 22080.974999999998545, 5919633.075000000186265 ], [ 22080.974999999998545, 5919632.924999999813735 ], [ 22081.05, 5919632.924999999813735 ], [ 22081.05, 5919632.849999999627471 ], [ 22081.125, 5919632.849999999627471 ], [ 22081.125, 5919632.775000000372529 ], [ 22081.2, 5919632.775000000372529 ], [ 22081.2, 5919632.625 ], [ 22081.275000000001455, 5919632.625 ], [ 22081.275000000001455, 5919632.474999999627471 ], [ 22081.349999999998545, 5919632.474999999627471 ], [ 22081.349999999998545, 5919632.400000000372529 ], [ 22081.425, 5919632.400000000372529 ], [ 22081.425, 5919632.25 ], [ 22081.5, 5919632.25 ], [ 22081.5, 5919632.174999999813735 ], [ 22081.575, 5919632.174999999813735 ], [ 22081.575, 5919632.099999999627471 ], [ 22081.650000000001455, 5919632.099999999627471 ], [ 22081.650000000001455, 5919632.025000000372529 ], [ 22081.724999999998545, 5919632.025000000372529 ], [ 22081.724999999998545, 5919631.950000000186265 ], [ 22081.8, 5919631.950000000186265 ], [ 22081.8, 5919631.875 ], [ 22081.875, 5919631.875 ], [ 22081.875, 5919631.799999999813735 ], [ 22082.025000000001455, 5919631.799999999813735 ], [ 22082.025000000001455, 5919631.724999999627471 ], [ 22082.099999999998545, 5919631.724999999627471 ], [ 22082.099999999998545, 5919631.650000000372529 ], [ 22082.25, 5919631.650000000372529 ], [ 22082.25, 5919631.575000000186265 ], [ 22082.400000000001455, 5919631.575000000186265 ], [ 22082.400000000001455, 5919631.5 ], [ 22082.474999999998545, 5919631.5 ], [ 22082.474999999998545, 5919631.424999999813735 ], [ 22082.625, 5919631.424999999813735 ], [ 22082.625, 5919631.349999999627471 ], [ 22082.7, 5919631.349999999627471 ], [ 22082.7, 5919631.275000000372529 ], [ 22082.775000000001455, 5919631.275000000372529 ], [ 22082.775000000001455, 5919631.200000000186265 ], [ 22082.849999999998545, 5919631.200000000186265 ], [ 22082.849999999998545, 5919631.125 ], [ 22082.925, 5919631.125 ], [ 22082.925, 5919631.049999999813735 ], [ 22083.0, 5919631.049999999813735 ], [ 22083.0, 5919630.974999999627471 ], [ 22083.075, 5919630.974999999627471 ], [ 22083.075, 5919630.900000000372529 ], [ 22083.150000000001455, 5919630.900000000372529 ], [ 22083.150000000001455, 5919630.75 ], [ 22083.224999999998545, 5919630.75 ], [ 22083.224999999998545, 5919630.525000000372529 ], [ 22083.3, 5919630.525000000372529 ], [ 22083.3, 5919630.299999999813735 ], [ 22083.375, 5919630.299999999813735 ], [ 22083.375, 5919630.075000000186265 ], [ 22083.45, 5919630.075000000186265 ], [ 22083.45, 5919629.924999999813735 ], [ 22083.525000000001455, 5919629.924999999813735 ], [ 22083.525000000001455, 5919629.700000000186265 ], [ 22083.599999999998545, 5919629.700000000186265 ], [ 22083.599999999998545, 5919629.549999999813735 ], [ 22083.675, 5919629.549999999813735 ], [ 22083.675, 5919629.325000000186265 ], [ 22083.75, 5919629.325000000186265 ], [ 22083.75, 5919629.174999999813735 ], [ 22083.825, 5919629.174999999813735 ], [ 22083.825, 5919629.025000000372529 ], [ 22083.900000000001455, 5919629.025000000372529 ], [ 22083.900000000001455, 5919628.875 ], [ 22083.974999999998545, 5919628.875 ], [ 22083.974999999998545, 5919628.724999999627471 ], [ 22084.05, 5919628.724999999627471 ], [ 22084.05, 5919628.650000000372529 ], [ 22084.125, 5919628.650000000372529 ], [ 22084.125, 5919628.575000000186265 ], [ 22084.2, 5919628.575000000186265 ], [ 22084.2, 5919628.5 ], [ 22084.275000000001455, 5919628.5 ], [ 22084.275000000001455, 5919628.424999999813735 ], [ 22084.349999999998545, 5919628.424999999813735 ], [ 22084.349999999998545, 5919628.349999999627471 ], [ 22084.5, 5919628.349999999627471 ], [ 22084.5, 5919628.275000000372529 ], [ 22084.8, 5919628.275000000372529 ], [ 22084.8, 5919628.200000000186265 ], [ 22085.025000000001455, 5919628.200000000186265 ], [ 22085.025000000001455, 5919628.125 ], [ 22085.325, 5919628.125 ], [ 22085.325, 5919628.049999999813735 ], [ 22085.625, 5919628.049999999813735 ], [ 22085.625, 5919627.974999999627471 ], [ 22085.925, 5919627.974999999627471 ], [ 22085.925, 5919627.900000000372529 ], [ 22086.3, 5919627.900000000372529 ], [ 22086.3, 5919627.825000000186265 ], [ 22086.375, 5919627.825000000186265 ], [ 22086.375, 5919627.900000000372529 ], [ 22089.224999999998545, 5919627.900000000372529 ], [ 22089.224999999998545, 5919627.974999999627471 ], [ 22091.325, 5919627.974999999627471 ], [ 22091.325, 5919628.049999999813735 ], [ 22092.224999999998545, 5919628.049999999813735 ], [ 22092.224999999998545, 5919628.125 ], [ 22092.375, 5919628.125 ], [ 22092.375, 5919628.200000000186265 ], [ 22092.525000000001455, 5919628.200000000186265 ], [ 22092.525000000001455, 5919628.275000000372529 ], [ 22092.599999999998545, 5919628.275000000372529 ], [ 22092.599999999998545, 5919628.349999999627471 ], [ 22092.75, 5919628.349999999627471 ], [ 22092.75, 5919628.424999999813735 ], [ 22092.825, 5919628.424999999813735 ], [ 22092.825, 5919628.5 ], [ 22092.900000000001455, 5919628.5 ], [ 22092.900000000001455, 5919628.575000000186265 ], [ 22092.974999999998545, 5919628.575000000186265 ], [ 22092.974999999998545, 5919628.650000000372529 ], [ 22093.05, 5919628.650000000372529 ], [ 22093.05, 5919628.724999999627471 ], [ 22093.125, 5919628.724999999627471 ], [ 22093.125, 5919628.799999999813735 ], [ 22093.2, 5919628.799999999813735 ], [ 22093.2, 5919628.875 ], [ 22093.275000000001455, 5919628.875 ], [ 22093.275000000001455, 5919628.950000000186265 ], [ 22093.349999999998545, 5919628.950000000186265 ], [ 22093.349999999998545, 5919629.025000000372529 ], [ 22093.425, 5919629.025000000372529 ], [ 22093.425, 5919629.099999999627471 ], [ 22093.5, 5919629.099999999627471 ], [ 22093.5, 5919629.174999999813735 ], [ 22093.650000000001455, 5919629.174999999813735 ], [ 22093.650000000001455, 5919629.25 ], [ 22093.724999999998545, 5919629.25 ], [ 22093.724999999998545, 5919629.325000000186265 ], [ 22093.875, 5919629.325000000186265 ], [ 22093.875, 5919629.400000000372529 ], [ 22094.025000000001455, 5919629.400000000372529 ], [ 22094.025000000001455, 5919629.474999999627471 ], [ 22094.175, 5919629.474999999627471 ], [ 22094.175, 5919629.549999999813735 ], [ 22094.325, 5919629.549999999813735 ], [ 22094.325, 5919629.625 ], [ 22094.474999999998545, 5919629.625 ], [ 22094.474999999998545, 5919629.700000000186265 ], [ 22094.55, 5919629.700000000186265 ], [ 22094.55, 5919629.775000000372529 ], [ 22094.7, 5919629.775000000372529 ], [ 22094.7, 5919629.849999999627471 ], [ 22094.775000000001455, 5919629.849999999627471 ], [ 22094.775000000001455, 5919629.924999999813735 ], [ 22094.925, 5919629.924999999813735 ], [ 22094.925, 5919630.0 ], [ 22095.0, 5919630.0 ], [ 22095.0, 5919630.075000000186265 ], [ 22095.075, 5919630.075000000186265 ], [ 22095.075, 5919630.150000000372529 ], [ 22095.150000000001455, 5919630.150000000372529 ], [ 22095.150000000001455, 5919630.224999999627471 ], [ 22095.224999999998545, 5919630.224999999627471 ], [ 22095.224999999998545, 5919630.299999999813735 ], [ 22095.3, 5919630.299999999813735 ], [ 22095.3, 5919630.375 ], [ 22095.375, 5919630.375 ], [ 22095.375, 5919630.525000000372529 ], [ 22095.45, 5919630.525000000372529 ], [ 22095.45, 5919630.599999999627471 ], [ 22095.525000000001455, 5919630.599999999627471 ], [ 22095.525000000001455, 5919630.75 ], [ 22095.599999999998545, 5919630.75 ], [ 22095.599999999998545, 5919630.825000000186265 ], [ 22095.675, 5919630.825000000186265 ], [ 22095.675, 5919630.900000000372529 ], [ 22095.75, 5919630.900000000372529 ], [ 22095.75, 5919630.974999999627471 ], [ 22095.825, 5919630.974999999627471 ], [ 22095.825, 5919631.049999999813735 ], [ 22095.900000000001455, 5919631.049999999813735 ], [ 22095.900000000001455, 5919631.125 ], [ 22095.974999999998545, 5919631.125 ], [ 22095.974999999998545, 5919631.200000000186265 ], [ 22096.05, 5919631.200000000186265 ], [ 22096.05, 5919631.275000000372529 ], [ 22096.2, 5919631.275000000372529 ], [ 22096.2, 5919631.349999999627471 ], [ 22096.349999999998545, 5919631.349999999627471 ], [ 22096.349999999998545, 5919631.424999999813735 ], [ 22096.425, 5919631.424999999813735 ], [ 22096.425, 5919631.5 ], [ 22096.575, 5919631.5 ], [ 22096.575, 5919631.575000000186265 ], [ 22096.650000000001455, 5919631.575000000186265 ], [ 22096.650000000001455, 5919631.650000000372529 ], [ 22096.724999999998545, 5919631.650000000372529 ], [ 22096.724999999998545, 5919631.724999999627471 ], [ 22096.875, 5919631.724999999627471 ], [ 22096.875, 5919631.799999999813735 ], [ 22096.95, 5919631.799999999813735 ], [ 22096.95, 5919631.875 ], [ 22097.025000000001455, 5919631.875 ], [ 22097.025000000001455, 5919632.025000000372529 ], [ 22097.099999999998545, 5919632.025000000372529 ], [ 22097.099999999998545, 5919632.099999999627471 ], [ 22097.175, 5919632.099999999627471 ], [ 22097.175, 5919632.174999999813735 ], [ 22097.25, 5919632.174999999813735 ], [ 22097.25, 5919632.25 ], [ 22097.325, 5919632.25 ], [ 22097.325, 5919632.400000000372529 ], [ 22097.400000000001455, 5919632.400000000372529 ], [ 22097.400000000001455, 5919632.474999999627471 ], [ 22097.474999999998545, 5919632.474999999627471 ], [ 22097.474999999998545, 5919632.625 ], [ 22097.55, 5919632.625 ], [ 22097.55, 5919632.775000000372529 ], [ 22097.625, 5919632.775000000372529 ], [ 22097.625, 5919632.849999999627471 ], [ 22097.7, 5919632.849999999627471 ], [ 22097.7, 5919632.924999999813735 ], [ 22097.775000000001455, 5919632.924999999813735 ], [ 22097.775000000001455, 5919633.0 ], [ 22097.849999999998545, 5919633.0 ], [ 22097.849999999998545, 5919633.075000000186265 ], [ 22097.925, 5919633.075000000186265 ], [ 22097.925, 5919633.150000000372529 ], [ 22098.0, 5919633.150000000372529 ], [ 22098.0, 5919633.224999999627471 ], [ 22098.150000000001455, 5919633.224999999627471 ], [ 22098.150000000001455, 5919633.299999999813735 ], [ 22098.224999999998545, 5919633.299999999813735 ], [ 22098.224999999998545, 5919633.375 ], [ 22098.3, 5919633.375 ], [ 22098.3, 5919633.450000000186265 ], [ 22098.45, 5919633.450000000186265 ], [ 22098.45, 5919633.525000000372529 ], [ 22098.525000000001455, 5919633.525000000372529 ], [ 22098.525000000001455, 5919633.599999999627471 ], [ 22098.599999999998545, 5919633.599999999627471 ], [ 22098.599999999998545, 5919633.674999999813735 ], [ 22098.675, 5919633.674999999813735 ], [ 22098.675, 5919633.75 ], [ 22098.75, 5919633.75 ], [ 22098.75, 5919633.900000000372529 ], [ 22098.825, 5919633.900000000372529 ], [ 22098.825, 5919633.974999999627471 ], [ 22098.900000000001455, 5919633.974999999627471 ], [ 22098.900000000001455, 5919634.125 ], [ 22098.974999999998545, 5919634.125 ], [ 22098.974999999998545, 5919634.200000000186265 ], [ 22099.05, 5919634.200000000186265 ], [ 22099.05, 5919634.349999999627471 ], [ 22099.125, 5919634.349999999627471 ], [ 22099.125, 5919634.5 ], [ 22099.2, 5919634.5 ], [ 22099.2, 5919634.650000000372529 ], [ 22099.275000000001455, 5919634.650000000372529 ], [ 22099.275000000001455, 5919634.799999999813735 ], [ 22099.349999999998545, 5919634.799999999813735 ], [ 22099.349999999998545, 5919634.950000000186265 ], [ 22099.425, 5919634.950000000186265 ], [ 22099.425, 5919635.025000000372529 ], [ 22099.5, 5919635.025000000372529 ], [ 22099.5, 5919635.099999999627471 ], [ 22099.575, 5919635.099999999627471 ], [ 22099.575, 5919635.174999999813735 ], [ 22099.650000000001455, 5919635.174999999813735 ], [ 22099.650000000001455, 5919635.25 ], [ 22099.724999999998545, 5919635.25 ], [ 22099.724999999998545, 5919635.325000000186265 ], [ 22099.8, 5919635.325000000186265 ], [ 22099.8, 5919635.400000000372529 ], [ 22099.875, 5919635.400000000372529 ], [ 22099.875, 5919635.474999999627471 ], [ 22099.95, 5919635.474999999627471 ], [ 22099.95, 5919635.549999999813735 ], [ 22100.025000000001455, 5919635.549999999813735 ], [ 22100.025000000001455, 5919635.625 ], [ 22100.175, 5919635.625 ], [ 22100.175, 5919635.700000000186265 ], [ 22100.25, 5919635.700000000186265 ], [ 22100.25, 5919635.775000000372529 ], [ 22100.325, 5919635.775000000372529 ], [ 22100.325, 5919635.849999999627471 ], [ 22100.400000000001455, 5919635.849999999627471 ], [ 22100.400000000001455, 5919635.924999999813735 ], [ 22100.474999999998545, 5919635.924999999813735 ], [ 22100.474999999998545, 5919636.0 ], [ 22100.55, 5919636.0 ], [ 22100.55, 5919636.075000000186265 ], [ 22100.625, 5919636.075000000186265 ], [ 22100.625, 5919636.224999999627471 ], [ 22100.7, 5919636.224999999627471 ], [ 22100.7, 5919636.299999999813735 ], [ 22100.775000000001455, 5919636.299999999813735 ], [ 22100.775000000001455, 5919636.450000000186265 ], [ 22100.849999999998545, 5919636.450000000186265 ], [ 22100.849999999998545, 5919636.599999999627471 ], [ 22100.925, 5919636.599999999627471 ], [ 22100.925, 5919638.549999999813735 ], [ 22100.849999999998545, 5919638.549999999813735 ], [ 22100.849999999998545, 5919638.700000000186265 ], [ 22100.775000000001455, 5919638.700000000186265 ], [ 22100.775000000001455, 5919638.849999999627471 ], [ 22100.7, 5919638.849999999627471 ], [ 22100.7, 5919639.0 ], [ 22100.625, 5919639.0 ], [ 22100.625, 5919639.075000000186265 ], [ 22100.55, 5919639.075000000186265 ], [ 22100.55, 5919639.150000000372529 ], [ 22100.474999999998545, 5919639.150000000372529 ], [ 22100.474999999998545, 5919639.224999999627471 ], [ 22100.400000000001455, 5919639.224999999627471 ], [ 22100.400000000001455, 5919639.299999999813735 ], [ 22100.325, 5919639.299999999813735 ], [ 22100.325, 5919639.375 ], [ 22100.25, 5919639.375 ], [ 22100.25, 5919639.450000000186265 ], [ 22100.175, 5919639.450000000186265 ], [ 22100.175, 5919639.525000000372529 ], [ 22100.099999999998545, 5919639.525000000372529 ], [ 22100.099999999998545, 5919639.599999999627471 ], [ 22099.95, 5919639.599999999627471 ], [ 22099.95, 5919639.674999999813735 ], [ 22099.875, 5919639.674999999813735 ], [ 22099.875, 5919639.75 ], [ 22099.8, 5919639.75 ], [ 22099.8, 5919639.825000000186265 ], [ 22099.724999999998545, 5919639.825000000186265 ], [ 22099.724999999998545, 5919639.900000000372529 ], [ 22099.650000000001455, 5919639.900000000372529 ], [ 22099.650000000001455, 5919639.974999999627471 ], [ 22099.575, 5919639.974999999627471 ], [ 22099.575, 5919640.049999999813735 ], [ 22099.5, 5919640.049999999813735 ], [ 22099.5, 5919640.125 ], [ 22099.425, 5919640.125 ], [ 22099.425, 5919640.200000000186265 ], [ 22099.349999999998545, 5919640.200000000186265 ], [ 22099.349999999998545, 5919640.349999999627471 ], [ 22099.275000000001455, 5919640.349999999627471 ], [ 22099.275000000001455, 5919640.5 ], [ 22099.2, 5919640.5 ], [ 22099.2, 5919640.650000000372529 ], [ 22099.125, 5919640.650000000372529 ], [ 22099.125, 5919640.799999999813735 ], [ 22099.05, 5919640.799999999813735 ], [ 22099.05, 5919641.025000000372529 ], [ 22098.974999999998545, 5919641.025000000372529 ], [ 22098.974999999998545, 5919641.174999999813735 ], [ 22098.900000000001455, 5919641.174999999813735 ], [ 22098.900000000001455, 5919641.25 ], [ 22098.825, 5919641.25 ], [ 22098.825, 5919641.400000000372529 ], [ 22098.75, 5919641.400000000372529 ], [ 22098.75, 5919641.549999999813735 ], [ 22098.675, 5919641.549999999813735 ], [ 22098.675, 5919641.625 ], [ 22098.599999999998545, 5919641.625 ], [ 22098.599999999998545, 5919641.700000000186265 ], [ 22098.525000000001455, 5919641.700000000186265 ], [ 22098.525000000001455, 5919641.849999999627471 ], [ 22098.45, 5919641.849999999627471 ], [ 22098.45, 5919641.924999999813735 ], [ 22098.375, 5919641.924999999813735 ], [ 22098.375, 5919642.0 ], [ 22098.3, 5919642.0 ], [ 22098.3, 5919642.075000000186265 ], [ 22098.224999999998545, 5919642.075000000186265 ], [ 22098.224999999998545, 5919642.150000000372529 ], [ 22098.150000000001455, 5919642.150000000372529 ], [ 22098.150000000001455, 5919642.224999999627471 ], [ 22098.0, 5919642.224999999627471 ], [ 22098.0, 5919642.299999999813735 ], [ 22097.925, 5919642.299999999813735 ], [ 22097.925, 5919642.375 ], [ 22097.849999999998545, 5919642.375 ], [ 22097.849999999998545, 5919642.525000000372529 ], [ 22097.775000000001455, 5919642.525000000372529 ], [ 22097.775000000001455, 5919642.674999999813735 ], [ 22097.7, 5919642.674999999813735 ], [ 22097.7, 5919642.825000000186265 ], [ 22097.625, 5919642.825000000186265 ], [ 22097.625, 5919642.974999999627471 ], [ 22097.55, 5919642.974999999627471 ], [ 22097.55, 5919643.125 ], [ 22097.474999999998545, 5919643.125 ], [ 22097.474999999998545, 5919643.349999999627471 ], [ 22097.400000000001455, 5919643.349999999627471 ], [ 22097.400000000001455, 5919643.5 ], [ 22097.325, 5919643.5 ], [ 22097.325, 5919643.724999999627471 ], [ 22097.25, 5919643.724999999627471 ], [ 22097.25, 5919643.950000000186265 ], [ 22097.175, 5919643.950000000186265 ], [ 22097.175, 5919644.174999999813735 ], [ 22097.099999999998545, 5919644.174999999813735 ], [ 22097.099999999998545, 5919644.400000000372529 ], [ 22097.025000000001455, 5919644.400000000372529 ], [ 22097.025000000001455, 5919644.549999999813735 ], [ 22096.95, 5919644.549999999813735 ], [ 22096.95, 5919644.700000000186265 ], [ 22096.875, 5919644.700000000186265 ], [ 22096.875, 5919644.775000000372529 ], [ 22096.8, 5919644.775000000372529 ], [ 22096.8, 5919644.924999999813735 ], [ 22096.724999999998545, 5919644.924999999813735 ], [ 22096.724999999998545, 5919645.0 ], [ 22096.650000000001455, 5919645.0 ], [ 22096.650000000001455, 5919645.075000000186265 ], [ 22096.575, 5919645.075000000186265 ], [ 22096.575, 5919645.150000000372529 ], [ 22096.5, 5919645.150000000372529 ], [ 22096.5, 5919645.224999999627471 ], [ 22096.425, 5919645.224999999627471 ], [ 22096.425, 5919645.299999999813735 ], [ 22096.349999999998545, 5919645.299999999813735 ], [ 22096.349999999998545, 5919645.375 ], [ 22096.2, 5919645.375 ], [ 22096.2, 5919645.450000000186265 ], [ 22096.125, 5919645.450000000186265 ], [ 22096.125, 5919645.525000000372529 ], [ 22096.05, 5919645.525000000372529 ], [ 22096.05, 5919645.599999999627471 ], [ 22095.900000000001455, 5919645.599999999627471 ], [ 22095.900000000001455, 5919645.674999999813735 ], [ 22095.825, 5919645.674999999813735 ], [ 22095.825, 5919645.75 ], [ 22095.75, 5919645.75 ], [ 22095.75, 5919645.825000000186265 ], [ 22095.675, 5919645.825000000186265 ], [ 22095.675, 5919645.900000000372529 ], [ 22095.599999999998545, 5919645.900000000372529 ], [ 22095.599999999998545, 5919645.974999999627471 ], [ 22095.525000000001455, 5919645.974999999627471 ], [ 22095.525000000001455, 5919646.049999999813735 ], [ 22095.45, 5919646.049999999813735 ], [ 22095.45, 5919646.200000000186265 ], [ 22095.375, 5919646.200000000186265 ], [ 22095.375, 5919646.275000000372529 ], [ 22095.3, 5919646.275000000372529 ], [ 22095.3, 5919646.424999999813735 ], [ 22095.224999999998545, 5919646.424999999813735 ], [ 22095.224999999998545, 5919646.575000000186265 ], [ 22095.150000000001455, 5919646.575000000186265 ], [ 22095.150000000001455, 5919646.724999999627471 ], [ 22095.075, 5919646.724999999627471 ], [ 22095.075, 5919646.799999999813735 ], [ 22095.0, 5919646.799999999813735 ], [ 22095.0, 5919646.950000000186265 ], [ 22094.925, 5919646.950000000186265 ], [ 22094.925, 5919647.025000000372529 ], [ 22094.849999999998545, 5919647.025000000372529 ], [ 22094.849999999998545, 5919647.099999999627471 ], [ 22094.775000000001455, 5919647.099999999627471 ], [ 22094.775000000001455, 5919647.174999999813735 ], [ 22094.7, 5919647.174999999813735 ], [ 22094.7, 5919647.25 ], [ 22094.625, 5919647.25 ], [ 22094.625, 5919647.325000000186265 ], [ 22094.55, 5919647.325000000186265 ], [ 22094.55, 5919647.400000000372529 ], [ 22094.474999999998545, 5919647.400000000372529 ], [ 22094.474999999998545, 5919647.474999999627471 ], [ 22094.400000000001455, 5919647.474999999627471 ], [ 22094.400000000001455, 5919647.549999999813735 ], [ 22094.25, 5919647.549999999813735 ], [ 22094.25, 5919647.625 ], [ 22094.175, 5919647.625 ], [ 22094.175, 5919647.700000000186265 ], [ 22094.025000000001455, 5919647.700000000186265 ], [ 22094.025000000001455, 5919647.775000000372529 ], [ 22093.95, 5919647.775000000372529 ], [ 22093.95, 5919647.849999999627471 ], [ 22093.8, 5919647.849999999627471 ], [ 22093.8, 5919647.924999999813735 ], [ 22093.724999999998545, 5919647.924999999813735 ], [ 22093.724999999998545, 5919648.0 ], [ 22093.650000000001455, 5919648.0 ], [ 22093.650000000001455, 5919648.075000000186265 ], [ 22093.575, 5919648.075000000186265 ], [ 22093.575, 5919648.150000000372529 ], [ 22093.5, 5919648.150000000372529 ], [ 22093.5, 5919648.224999999627471 ], [ 22093.425, 5919648.224999999627471 ], [ 22093.425, 5919648.375 ], [ 22093.349999999998545, 5919648.375 ], [ 22093.349999999998545, 5919648.450000000186265 ], [ 22093.275000000001455, 5919648.450000000186265 ], [ 22093.275000000001455, 5919648.525000000372529 ], [ 22093.2, 5919648.525000000372529 ], [ 22093.2, 5919648.674999999813735 ], [ 22093.125, 5919648.674999999813735 ], [ 22093.125, 5919648.75 ], [ 22093.05, 5919648.75 ], [ 22093.05, 5919648.825000000186265 ], [ 22092.974999999998545, 5919648.825000000186265 ], [ 22092.974999999998545, 5919648.900000000372529 ], [ 22092.825, 5919648.900000000372529 ], [ 22092.825, 5919648.974999999627471 ], [ 22092.75, 5919648.974999999627471 ], [ 22092.75, 5919649.049999999813735 ], [ 22092.675, 5919649.049999999813735 ], [ 22092.675, 5919649.125 ], [ 22092.525000000001455, 5919649.125 ], [ 22092.525000000001455, 5919649.200000000186265 ], [ 22092.375, 5919649.200000000186265 ], [ 22092.375, 5919649.275000000372529 ], [ 22092.224999999998545, 5919649.275000000372529 ], [ 22092.224999999998545, 5919649.349999999627471 ], [ 22091.7, 5919649.349999999627471 ], [ 22091.7, 5919649.424999999813735 ], [ 22090.875, 5919649.424999999813735 ], [ 22090.875, 5919649.5 ], [ 22090.05, 5919649.5 ], [ 22090.05, 5919649.575000000186265 ], [ 22089.075, 5919649.575000000186265 ], [ 22089.075, 5919649.650000000372529 ], [ 22088.25, 5919649.650000000372529 ], [ 22088.25, 5919649.724999999627471 ], [ 22087.275000000001455, 5919649.724999999627471 ], [ 22087.275000000001455, 5919649.799999999813735 ], [ 22086.375, 5919649.799999999813735 ], [ 22086.375, 5919649.875 ], [ 22086.150000000001455, 5919649.875 ] ] ] } }
]
}
