{
"type": "FeatureCollection",
"name": "21933E591207N_buildings",
"crs": { "type": "name", "properties": { "name": "urn:ogc:def:crs:EPSG::3776" } },
"features": [
{ "type": "Feature", "properties": { "value": 1.0, "building_id": 0, "area": 124.62187499986172 }, "geometry": { "type": "Polygon", "coordinates": [ [ [ 22383.0, 5912225.174999999813735 ], [ 22383.0, 5912225.099999999627471 ], [ 22382.775000000001455, 5912225.099999999627471 ], [ 22382.775000000001455, 5912225.025000000372529 ], [ 22382.625, 5912225.025000000372529 ], [ 22382.625, 5912224.950000000186265 ], [ 22382.474999999998545, 5912224.950000000186265 ], [ 22382.474999999998545, 5912224.875 ], [ 22382.325, 5912224.875 ], [ 22382.325, 5912224.799999999813735 ], [ 22382.175, 5912224.799999999813735 ], [ 22382.175, 5912224.724999999627471 ], [ 22382.025000000001455, 5912224.724999999627471 ], [ 22382.025000000001455, 5912224.650000000372529 ], [ 22381.875, 5912224.650000000372529 ], [ 22381.875, 5912224.575000000186265 ], [ 22381.8, 5912224.575000000186265 ], [ 22381.8, 5912224.5 ], [ 22381.724999999998545, 5912224.5 ], [ 22381.724999999998545, 5912224.424999999813735 ], [ 22381.575, 5912224.424999999813735 ], [ 22381.575, 5912224.349999999627471 ], [ 22381.425, 5912224.349999999627471 ], [ 22381.425, 5912224.275000000372529 ], [ 22381.349999999998545, 5912224.275000000372529 ], [ 22381.349999999998545, 5912224.200000000186265 ], [ 22381.2, 5912224.200000000186265 ], [ 22381.2, 5912224.125 ], [ 22381.05, 5912224.125 ], [ 22381.05, 5912224.049999999813735 ], [ 22380.974999999998545, 5912224.049999999813735 ], [ 22380.974999999998545, 5912223.974999999627471 ], [ 22380.900000000001455, 5912223.974999999627471 ], [ 22380.900000000001455, 5912223.900000000372529 ], [ 22380.825, 5912223.900000000372529 ], [ 22380.825, 5912223.825000000186265 ], [ 22380.675, 5912223.825000000186265 ], [ 22380.675, 5912223.75 ], [ 22380.599999999998545, 5912223.75 ], [ 22380.599999999998545, 5912223.674999999813735 ], [ 22380.525000000001455, 5912223.674999999813735 ], [ 22380.525000000001455, 5912223.599999999627471 ], [ 22380.45, 5912223.599999999627471 ], [ 22380.45, 5912223.525000000372529 ], [ 22380.375, 5912223.525000000372529 ], [ 22380.375, 5912223.375 ], [ 22380.3, 5912223.375 ], [ 22380.3, 5912223.299999999813735 ], [ 22380.224999999998545, 5912223.299999999813735 ], [ 22380.224999999998545, 5912223.224999999627471 ], [ 22380.150000000001455, 5912223.224999999627471 ], [ 22380.150000000001455, 5912223.075000000186265 ], [ 22380.075, 5912223.075000000186265 ], [ 22380.075, 5912223.0 ], [ 22380.0, 5912223.0 ], [ 22380.0, 5912222.849999999627471 ], [ 22379.925, 5912222.849999999627471 ], [ 22379.925, 5912222.700000000186265 ], [ 22379.849999999998545, 5912222.700000000186265 ], [ 22379.849999999998545, 5912222.549999999813735 ], [ 22379.775000000001455, 5912222.549999999813735 ], [ 22379.775000000001455, 5912222.025000000372529 ], [ 22379.7, 5912222.025000000372529 ], [ 22379.7, 5912221.5 ], [ 22379.625, 5912221.5 ], [ 22379.625, 5912221.049999999813735 ], [ 22379.55, 5912221.049999999813735 ], [ 22379.55, 5912219.625 ], [ 22379.625, 5912219.625 ], [ 22379.625, 5912218.575000000186265 ], [ 22379.7, 5912218.575000000186265 ], [ 22379.7, 5912217.75 ], [ 22379.775000000001455, 5912217.75 ], [ 22379.775000000001455, 5912216.775000000372529 ], [ 22379.849999999998545, 5912216.775000000372529 ], [ 22379.849999999998545, 5912215.200000000186265 ], [ 22379.925, 5912215.200000000186265 ], [ 22379.925, 5912210.325000000186265 ], [ 22379.849999999998545, 5912210.325000000186265 ], [ 22379.849999999998545, 5912208.674999999813735 ], [ 22379.925, 5912208.674999999813735 ], [ 22379.925, 5912208.299999999813735 ], [ 22380.0, 5912208.299999999813735 ], [ 22380.0, 5912207.924999999813735 ], [ 22380.075, 5912207.924999999813735 ], [ 22380.075, 5912207.549999999813735 ], [ 22380.150000000001455, 5912207.549999999813735 ], [ 22380.150000000001455, 5912207.174999999813735 ], [ 22380.224999999998545, 5912207.174999999813735 ], [ 22380.224999999998545, 5912206.875 ], [ 22380.3, 5912206.875 ], [ 22380.3, 5912206.799999999813735 ], [ 22380.375, 5912206.799999999813735 ], [ 22380.375, 5912206.650000000372529 ], [ 22380.45, 5912206.650000000372529 ], [ 22380.45, 5912206.575000000186265 ], [ 22380.525000000001455, 5912206.575000000186265 ], [ 22380.525000000001455, 5912206.5 ], [ 22380.599999999998545, 5912206.5 ], [ 22380.599999999998545, 5912206.424999999813735 ], [ 22380.675, 5912206.424999999813735 ], [ 22380.675, 5912206.349999999627471 ], [ 22380.75, 5912206.349999999627471 ], [ 22380.75, 5912206.275000000372529 ], [ 22380.825, 5912206.275000000372529 ], [ 22380.825, 5912206.200000000186265 ], [ 22380.900000000001455, 5912206.200000000186265 ], [ 22380.900000000001455, 5912206.125 ], [ 22380.974999999998545, 5912206.125 ], [ 22380.974999999998545, 5912206.049999999813735 ], [ 22381.125, 5912206.049999999813735 ], [ 22381.125, 5912205.974999999627471 ], [ 22381.2, 5912205.974999999627471 ], [ 22381.2, 5912205.900000000372529 ], [ 22381.425, 5912205.900000000372529 ], [ 22381.425, 5912205.825000000186265 ], [ 22381.650000000001455, 5912205.825000000186265 ], [ 22381.650000000001455, 5912205.75 ], [ 22381.8, 5912205.75 ], [ 22381.8, 5912205.674999999813735 ], [ 22381.95, 5912205.674999999813735 ], [ 22381.95, 5912205.599999999627471 ], [ 22382.175, 5912205.599999999627471 ], [ 22382.175, 5912205.525000000372529 ], [ 22382.325, 5912205.525000000372529 ], [ 22382.325, 5912205.450000000186265 ], [ 22382.400000000001455, 5912205.450000000186265 ], [ 22382.400000000001455, 5912205.375 ], [ 22382.55, 5912205.375 ], [ 22382.55, 5912205.299999999813735 ], [ 22382.7, 5912205.299999999813735 ], [ 22382.7, 5912205.224999999627471 ], [ 22382.775000000001455, 5912205.224999999627471 ], [ 22382.775000000001455, 5912205.150000000372529 ], [ 22382.849999999998545, 5912205.150000000372529 ], [ 22382.849999999998545, 5912205.075000000186265 ], [ 22383.0, 5912205.075000000186265 ], [ 22383.0, 5912205.0 ], [ 22383.075, 5912205.0 ], [ 22383.075, 5912204.924999999813735 ], [ 22383.150000000001455, 5912204.924999999813735 ], [ 22383.150000000001455, 5912204.849999999627471 ], [ 22383.224999999998545, 5912204.849999999627471 ], [ 22383.224999999998545, 5912204.924999999813735 ], [ 22383.375, 5912204.924999999813735 ], [ 22383.375, 5912205.0 ], [ 22383.45, 5912205.0 ], [ 22383.45, 5912205.075000000186265 ], [ 22383.599999999998545, 5912205.075000000186265 ], [ 22383.599999999998545, 5912205.150000000372529 ], [ 22383.675, 5912205.150000000372529 ], [ 22383.675, 5912205.224999999627471 ], [ 22383.825, 5912205.224999999627471 ], [ 22383.825, 5912205.299999999813735 ], [ 22383.974999999998545, 5912205.299999999813735 ], [ 22383.974999999998545, 5912205.375 ], [ 22384.125, 5912205.375 ], [ 22384.125, 5912205.450000000186265 ], [ 22384.2, 5912205.450000000186265 ], [ 22384.2, 5912205.525000000372529 ], [ 22384.425, 5912205.525000000372529 ], [ 22384.425, 5912205.599999999627471 ], [ 22384.575, 5912205.599999999627471 ], [ 22384.575, 5912205.674999999813735 ], [ 22384.724999999998545, 5912205.674999999813735 ], [ 22384.724999999998545, 5912205.75 ], [ 22384.95, 5912205.75 ], [ 22384.95, 5912205.825000000186265 ], [ 22385.099999999998545, 5912205.825000000186265 ], [ 22385.099999999998545, 5912205.900000000372529 ], [ 22385.325, 5912205.900000000372529 ], [ 22385.325, 5912205.974999999627471 ], [ 22385.55, 5912205.974999999627471 ], [ 22385.55, 5912206.049999999813735 ], [ 22385.7, 5912206.049999999813735 ], [ 22385.7, 5912206.125 ], [ 22385.849999999998545, 5912206.125 ], [ 22385.849999999998545, 5912206.200000000186265 ], [ 22386.075, 5912206.200000000186265 ], [ 22386.075, 5912206.275000000372529 ], [ 22386.224999999998545, 5912206.275000000372529 ], [ 22386.224999999998545, 5912206.349999999627471 ], [ 22386.375, 5912206.349999999627471 ], [ 22386.375, 5912206.424999999813735 ], [ 22386.525000000001455, 5912206.424999999813735 ], [ 22386.525000000001455, 5912206.5 ], [ 22386.599999999998545, 5912206.5 ], [ 22386.599999999998545, 5912206.575000000186265 ], [ 22386.75, 5912206.575000000186265 ], [ 22386.75, 5912206.650000000372529 ], [ 22386.900000000001455, 5912206.650000000372529 ], [ 22386.900000000001455, 5912206.724999999627471 ], [ 22387.05, 5912206.724999999627471 ], [ 22387.05, 5912206.799999999813735 ], [ 22387.125, 5912206.799999999813735 ], [ 22387.125, 5912206.875 ], [ 22387.2, 5912206.875 ], [ 22387.2, 5912206.950000000186265 ], [ 22387.275000000001455, 5912206.950000000186265 ], [ 22387.275000000001455, 5912207.099999999627471 ], [ 22387.349999999998545, 5912207.099999999627471 ], [ 22387.349999999998545, 5912207.25 ], [ 22387.425, 5912207.25 ], [ 22387.425, 5912207.474999999627471 ], [ 22387.5, 5912207.474999999627471 ], [ 22387.5, 5912207.700000000186265 ], [ 22387.575, 5912207.700000000186265 ], [ 22387.575, 5912207.924999999813735 ], [ 22387.650000000001455, 5912207.924999999813735 ], [ 22387.650000000001455, 5912208.150000000372529 ], [ 22387.724999999998545, 5912208.150000000372529 ], [ 22387.724999999998545, 5912208.450000000186265 ], [ 22387.8, 5912208.450000000186265 ], [ 22387.8, 5912208.674999999813735 ], [ 22387.875, 5912208.674999999813735 ], [ 22387.875, 5912208.974999999627471 ], [ 22387.8, 5912208.974999999627471 ], [ 22387.8, 5912209.125 ], [ 22387.724999999998545, 5912209.125 ], [ 22387.724999999998545, 5912209.275000000372529 ], [ 22387.650000000001455, 5912209.275000000372529 ], [ 22387.650000000001455, 5912209.424999999813735 ], [ 22387.575, 5912209.424999999813735 ], [ 22387.575, 5912209.5 ], [ 22387.5, 5912209.5 ], [ 22387.5, 5912209.650000000372529 ], [ 22387.425, 5912209.650000000372529 ], [ 22387.425, 5912209.724999999627471 ], [ 22387.349999999998545, 5912209.724999999627471 ], [ 22387.349999999998545, 5912209.799999999813735 ], [ 22387.275000000001455, 5912209.799999999813735 ], [ 22387.275000000001455, 5912209.875 ], [ 22387.2, 5912209.875 ], [ 22387.2, 5912209.950000000186265 ], [ 22387.125, 5912209.950000000186265 ], [ 22387.125, 5912210.025000000372529 ], [ 22387.05, 5912210.025000000372529 ], [ 22387.05, 5912210.174999999813735 ], [ 22386.974999999998545, 5912210.174999999813735 ], [ 22386.974999999998545, 5912210.25 ], [ 22386.900000000001455, 5912210.25 ], [ 22386.900000000001455, 5912210.400000000372529 ], [ 22386.825, 5912210.400000000372529 ], [ 22386.825, 5912210.549999999813735 ], [ 22386.75, 5912210.549999999813735 ], [ 22386.75, 5912210.700000000186265 ], [ 22386.675, 5912210.700000000186265 ], [ 22386.675, 5912210.924999999813735 ], [ 22386.599999999998545, 5912210.924999999813735 ], [ 22386.599999999998545, 5912211.375 ], [ 22386.525000000001455, 5912211.375 ], [ 22386.525000000001455, 5912211.825000000186265 ], [ 22386.45, 5912211.825000000186265 ], [ 22386.45, 5912212.349999999627471 ], [ 22386.375, 5912212.349999999627471 ], [ 22386.375, 5912212.799999999813735 ], [ 22386.3, 5912212.799999999813735 ], [ 22386.3, 5912213.174999999813735 ], [ 22386.224999999998545, 5912213.174999999813735 ], [ 22386.224999999998545, 5912213.549999999813735 ], [ 22386.150000000001455, 5912213.549999999813735 ], [ 22386.150000000001455, 5912213.849999999627471 ], [ 22386.075, 5912213.849999999627471 ], [ 22386.075, 5912214.150000000372529 ], [ 22386.0, 5912214.150000000372529 ], [ 22386.0, 5912214.375 ], [ 22385.925, 5912214.375 ], [ 22385.925, 5912214.599999999627471 ], [ 22385.849999999998545, 5912214.599999999627471 ], [ 22385.849999999998545, 5912215.349999999627471 ], [ 22385.925, 5912215.349999999627471 ], [ 22385.925, 5912216.099999999627471 ], [ 22386.0, 5912216.099999999627471 ], [ 22386.0, 5912216.700000000186265 ], [ 22386.075, 5912216.700000000186265 ], [ 22386.075, 5912216.924999999813735 ], [ 22386.150000000001455, 5912216.924999999813735 ], [ 22386.150000000001455, 5912217.075000000186265 ], [ 22386.224999999998545, 5912217.075000000186265 ], [ 22386.224999999998545, 5912217.299999999813735 ], [ 22386.3, 5912217.299999999813735 ], [ 22386.3, 5912217.450000000186265 ], [ 22386.375, 5912217.450000000186265 ], [ 22386.375, 5912217.674999999813735 ], [ 22386.45, 5912217.674999999813735 ], [ 22386.45, 5912217.900000000372529 ], [ 22386.525000000001455, 5912217.900000000372529 ], [ 22386.525000000001455, 5912218.200000000186265 ], [ 22386.599999999998545, 5912218.200000000186265 ], [ 22386.599999999998545, 5912218.424999999813735 ], [ 22386.675, 5912218.424999999813735 ], [ 22386.675, 5912218.799999999813735 ], [ 22386.75, 5912218.799999999813735 ], [ 22386.75, 5912219.174999999813735 ], [ 22386.675, 5912219.174999999813735 ], [ 22386.675, 5912221.799999999813735 ], [ 22386.75, 5912221.799999999813735 ], [ 22386.75, 5912222.625 ], [ 22386.675, 5912222.625 ], [ 22386.675, 5912222.700000000186265 ], [ 22386.599999999998545, 5912222.700000000186265 ], [ 22386.599999999998545, 5912222.775000000372529 ], [ 22386.525000000001455, 5912222.775000000372529 ], [ 22386.525000000001455, 5912222.849999999627471 ], [ 22386.45, 5912222.849999999627471 ], [ 22386.45, 5912222.924999999813735 ], [ 22386.375, 5912222.924999999813735 ], [ 22386.375, 5912223.0 ], [ 22386.3, 5912223.0 ], [ 22386.3, 5912223.075000000186265 ], [ 22386.150000000001455, 5912223.075000000186265 ], [ 22386.150000000001455, 5912223.150000000372529 ], [ 22386.075, 5912223.150000000372529 ], [ 22386.075, 5912223.224999999627471 ], [ 22386.0, 5912223.224999999627471 ], [ 22386.0, 5912223.299999999813735 ], [ 22385.849999999998545, 5912223.299999999813735 ], [ 22385.849999999998545, 5912223.375 ], [ 22385.7, 5912223.375 ], [ 22385.7, 5912223.450000000186265 ], [ 22385.55, 5912223.450000000186265 ], [ 22385.55, 5912223.525000000372529 ], [ 22385.400000000001455, 5912223.525000000372529 ], [ 22385.400000000001455, 5912223.599999999627471 ], [ 22385.25, 5912223.599999999627471 ], [ 22385.25, 5912223.674999999813735 ], [ 22385.099999999998545, 5912223.674999999813735 ], [ 22385.099999999998545, 5912223.75 ], [ 22384.95, 5912223.75 ], [ 22384.95, 5912223.825000000186265 ], [ 22384.8, 5912223.825000000186265 ], [ 22384.8, 5912223.900000000372529 ], [ 22384.724999999998545, 5912223.900000000372529 ], [ 22384.724999999998545, 5912223.974999999627471 ], [ 22384.650000000001455, 5912223.974999999627471 ], [ 22384.650000000001455, 5912224.049999999813735 ], [ 22384.5, 5912224.049999999813735 ], [ 22384.5, 5912224.125 ], [ 22384.425, 5912224.125 ], [ 22384.425, 5912224.200000000186265 ], [ 22384.349999999998545, 5912224.200000000186265 ], [ 22384.349999999998545, 5912224.275000000372529 ], [ 22384.275000000001455, 5912224.275000000372529 ], [ 22384.275000000001455, 5912224.349999999627471 ], [ 22384.2, 5912224.349999999627471 ], [ 22384.2, 5912224.424999999813735 ], [ 22384.125, 5912224.424999999813735 ], [ 22384.125, 5912224.575000000186265 ], [ 22384.05, 5912224.575000000186265 ], [ 22384.05, 5912224.650000000372529 ], [ 22383.974999999998545, 5912224.650000000372529 ], [ 22383.974999999998545, 5912224.724999999627471 ], [ 22383.825, 5912224.724999999627471 ], [ 22383.825, 5912224.799999999813735 ], [ 22383.75, 5912224.799999999813735 ], [ 22383.75, 5912224.875 ], [ 22383.675, 5912224.875 ], [ 22383.675, 5912224.950000000186265 ], [ 22383.599999999998545, 5912224.950000000186265 ], [ 22383.599999999998545, 5912225.025000000372529 ], [ 22383.45, 5912225.025000000372529 ], [ 22383.45, 5912225.099999999627471 ], [ 22383.3, 5912225.099999999627471 ], [ 22383.3, 5912225.174999999813735 ], [ 22383.0, 5912225.174999999813735 ] ] ] } },
{ "type": "Feature", "properties": { "value": 1.0, "building_id": 1, "area": 10.698749999886987 }, "geometry": { "type": "Polygon", "coordinates": [ [ [ 22365.525000000001455, 5912185.950000000186265 ], [ 22365.525000000001455, 5912185.875 ], [ 22365.150000000001455, 5912185.875 ], [ 22365.150000000001455, 5912185.799999999813735 ], [ 22364.849999999998545, 5912185.799999999813735 ], [ 22364.849999999998545, 5912185.724999999627471 ], [ 22364.55, 5912185.724999999627471 ], [ 22364.55, 5912185.650000000372529 ], [ 22364.25, 5912185.650000000372529 ], [ 22364.25, 5912185.575000000186265 ], [ 22363.95, 5912185.575000000186265 ], [ 22363.95, 5912185.5 ], [ 22363.724999999998545, 5912185.5 ], [ 22363.724999999998545, 5912185.424999999813735 ], [ 22363.650000000001455, 5912185.424999999813735 ], [ 22363.650000000001455, 5912185.049999999813735 ], [ 22363.724999999998545, 5912185.049999999813735 ], [ 22363.724999999998545, 5912184.150000000372529 ], [ 22363.8, 5912184.150000000372529 ], [ 22363.8, 5912183.474999999627471 ], [ 22363.95, 5912183.474999999627471 ], [ 22363.95, 5912183.400000000372529 ], [ 22364.175, 5912183.400000000372529 ], [ 22364.175, 5912183.325000000186265 ], [ 22364.474999999998545, 5912183.325000000186265 ], [ 22364.474999999998545, 5912183.25 ], [ 22364.7, 5912183.25 ], [ 22364.7, 5912183.174999999813735 ], [ 22365.0, 5912183.174999999813735 ], [ 22365.0, 5912183.099999999627471 ], [ 22365.3, 5912183.099999999627471 ], [ 22365.3, 5912183.025000000372529 ], [ 22366.349999999998545, 5912183.025000000372529 ], [ 22366.349999999998545, 5912183.099999999627471 ], [ 22367.175, 5912183.099999999627471 ], [ 22367.175, 5912183.174999999813735 ], [ 22367.625, 5912183.174999999813735 ], [ 22367.625, 5912183.25 ], [ 22367.7, 5912183.25 ], [ 22367.7, 5912183.325000000186265 ], [ 22367.775000000001455, 5912183.325000000186265 ], [ 22367.775000000001455, 5912183.400000000372529 ], [ 22367.849999999998545, 5912183.400000000372529 ], [ 22367.849999999998545, 5912183.474999999627471 ], [ 22367.925, 5912183.474999999627471 ], [ 22367.925, 5912183.549999999813735 ], [ 22367.849999999998545, 5912183.549999999813735 ], [ 22367.849999999998545, 5912185.5 ], [ 22367.775000000001455, 5912185.5 ], [ 22367.775000000001455, 5912185.575000000186265 ], [ 22367.7, 5912185.575000000186265 ], [ 22367.7, 5912185.650000000372529 ], [ 22367.625, 5912185.650000000372529 ], [ 22367.625, 5912185.724999999627471 ], [ 22367.325, 5912185.724999999627471 ], [ 22367.325, 5912185.799999999813735 ], [ 22366.575, 5912185.799999999813735 ], [ 22366.575, 5912185.875 ], [ 22365.900000000001455, 5912185.875 ], [ 22365.900000000001455, 5912185.950000000186265 ], [ 22365.525000000001455, 5912185.950000000186265 ] ] ] } }
]
}
