{
"type": "FeatureCollection",
"name": "22683E592482N_buildings",
"crs": { "type": "name", "properties": { "name": "urn:ogc:def:crs:EPSG::3776" } },
"features": [
{ "type": "Feature", "properties": { "value": 1.0, "building_id": 0, "area": 17.52749999980394 }, "geometry": { "type": "Polygon", "coordinates": [ [ [ 23139.0, 5925439.200000000186265 ], [ 23139.0, 5925439.049999999813735 ], [ 23138.925, 5925439.049999999813735 ], [ 23138.925, 5925438.974999999627471 ], [ 23138.849999999998545, 5925438.974999999627471 ], [ 23138.849999999998545, 5925438.825000000186265 ], [ 23138.775000000001455, 5925438.825000000186265 ], [ 23138.775000000001455, 5925438.674999999813735 ], [ 23138.7, 5925438.674999999813735 ], [ 23138.7, 5925438.599999999627471 ], [ 23138.625, 5925438.599999999627471 ], [ 23138.625, 5925438.450000000186265 ], [ 23138.55, 5925438.450000000186265 ], [ 23138.55, 5925438.299999999813735 ], [ 23138.474999999998545, 5925438.299999999813735 ], [ 23138.474999999998545, 5925438.224999999627471 ], [ 23138.400000000001455, 5925438.224999999627471 ], [ 23138.400000000001455, 5925438.075000000186265 ], [ 23138.325, 5925438.075000000186265 ], [ 23138.325, 5925437.924999999813735 ], [ 23138.25, 5925437.924999999813735 ], [ 23138.25, 5925437.849999999627471 ], [ 23138.175, 5925437.849999999627471 ], [ 23138.175, 5925437.700000000186265 ], [ 23138.099999999998545, 5925437.700000000186265 ], [ 23138.099999999998545, 5925437.625 ], [ 23138.025000000001455, 5925437.625 ], [ 23138.025000000001455, 5925437.474999999627471 ], [ 23137.95, 5925437.474999999627471 ], [ 23137.95, 5925437.325000000186265 ], [ 23137.875, 5925437.325000000186265 ], [ 23137.875, 5925437.174999999813735 ], [ 23137.8, 5925437.174999999813735 ], [ 23137.8, 5925437.025000000372529 ], [ 23137.724999999998545, 5925437.025000000372529 ], [ 23137.724999999998545, 5925436.950000000186265 ], [ 23137.650000000001455, 5925436.950000000186265 ], [ 23137.650000000001455, 5925436.799999999813735 ], [ 23137.575, 5925436.799999999813735 ], [ 23137.575, 5925436.724999999627471 ], [ 23137.5, 5925436.724999999627471 ], [ 23137.5, 5925436.575000000186265 ], [ 23137.425, 5925436.575000000186265 ], [ 23137.425, 5925436.5 ], [ 23137.349999999998545, 5925436.5 ], [ 23137.349999999998545, 5925436.424999999813735 ], [ 23137.275000000001455, 5925436.424999999813735 ], [ 23137.275000000001455, 5925436.275000000372529 ], [ 23137.2, 5925436.275000000372529 ], [ 23137.2, 5925436.200000000186265 ], [ 23137.125, 5925436.200000000186265 ], [ 23137.125, 5925436.125 ], [ 23137.05, 5925436.125 ], [ 23137.05, 5925436.049999999813735 ], [ 23136.974999999998545, 5925436.049999999813735 ], [ 23136.974999999998545, 5925435.974999999627471 ], [ 23136.900000000001455, 5925435.974999999627471 ], [ 23136.900000000001455, 5925435.825000000186265 ], [ 23136.825, 5925435.825000000186265 ], [ 23136.825, 5925435.75 ], [ 23136.75, 5925435.75 ], [ 23136.75, 5925435.599999999627471 ], [ 23136.675, 5925435.599999999627471 ], [ 23136.675, 5925435.525000000372529 ], [ 23136.599999999998545, 5925435.525000000372529 ], [ 23136.599999999998545, 5925435.375 ], [ 23136.675, 5925435.375 ], [ 23136.675, 5925435.299999999813735 ], [ 23136.75, 5925435.299999999813735 ], [ 23136.75, 5925435.224999999627471 ], [ 23136.825, 5925435.224999999627471 ], [ 23136.825, 5925435.150000000372529 ], [ 23136.900000000001455, 5925435.150000000372529 ], [ 23136.900000000001455, 5925435.075000000186265 ], [ 23136.974999999998545, 5925435.075000000186265 ], [ 23136.974999999998545, 5925435.0 ], [ 23137.125, 5925435.0 ], [ 23137.125, 5925434.924999999813735 ], [ 23137.275000000001455, 5925434.924999999813735 ], [ 23137.275000000001455, 5925434.849999999627471 ], [ 23137.425, 5925434.849999999627471 ], [ 23137.425, 5925434.775000000372529 ], [ 23137.575, 5925434.775000000372529 ], [ 23137.575, 5925434.700000000186265 ], [ 23137.650000000001455, 5925434.700000000186265 ], [ 23137.650000000001455, 5925434.625 ], [ 23137.8, 5925434.625 ], [ 23137.8, 5925434.549999999813735 ], [ 23137.95, 5925434.549999999813735 ], [ 23137.95, 5925434.474999999627471 ], [ 23138.099999999998545, 5925434.474999999627471 ], [ 23138.099999999998545, 5925434.400000000372529 ], [ 23138.175, 5925434.400000000372529 ], [ 23138.175, 5925434.325000000186265 ], [ 23138.325, 5925434.325000000186265 ], [ 23138.325, 5925434.25 ], [ 23138.474999999998545, 5925434.25 ], [ 23138.474999999998545, 5925434.174999999813735 ], [ 23138.55, 5925434.174999999813735 ], [ 23138.55, 5925434.099999999627471 ], [ 23138.7, 5925434.099999999627471 ], [ 23138.7, 5925434.025000000372529 ], [ 23138.849999999998545, 5925434.025000000372529 ], [ 23138.849999999998545, 5925433.950000000186265 ], [ 23138.925, 5925433.950000000186265 ], [ 23138.925, 5925433.875 ], [ 23139.3, 5925433.875 ], [ 23139.3, 5925433.950000000186265 ], [ 23139.525000000001455, 5925433.950000000186265 ], [ 23139.525000000001455, 5925434.025000000372529 ], [ 23139.825, 5925434.025000000372529 ], [ 23139.825, 5925434.099999999627471 ], [ 23140.05, 5925434.099999999627471 ], [ 23140.05, 5925434.174999999813735 ], [ 23140.349999999998545, 5925434.174999999813735 ], [ 23140.349999999998545, 5925434.25 ], [ 23140.650000000001455, 5925434.25 ], [ 23140.650000000001455, 5925434.325000000186265 ], [ 23140.95, 5925434.325000000186265 ], [ 23140.95, 5925434.400000000372529 ], [ 23141.099999999998545, 5925434.400000000372529 ], [ 23141.099999999998545, 5925434.474999999627471 ], [ 23141.25, 5925434.474999999627471 ], [ 23141.25, 5925434.549999999813735 ], [ 23141.325, 5925434.549999999813735 ], [ 23141.325, 5925434.625 ], [ 23141.474999999998545, 5925434.625 ], [ 23141.474999999998545, 5925434.700000000186265 ], [ 23141.55, 5925434.700000000186265 ], [ 23141.55, 5925434.775000000372529 ], [ 23141.625, 5925434.775000000372529 ], [ 23141.625, 5925434.849999999627471 ], [ 23141.7, 5925434.849999999627471 ], [ 23141.7, 5925435.0 ], [ 23141.775000000001455, 5925435.0 ], [ 23141.775000000001455, 5925435.075000000186265 ], [ 23141.849999999998545, 5925435.075000000186265 ], [ 23141.849999999998545, 5925435.224999999627471 ], [ 23141.925, 5925435.224999999627471 ], [ 23141.925, 5925435.299999999813735 ], [ 23142.0, 5925435.299999999813735 ], [ 23142.0, 5925435.75 ], [ 23141.925, 5925435.75 ], [ 23141.925, 5925436.049999999813735 ], [ 23141.849999999998545, 5925436.049999999813735 ], [ 23141.849999999998545, 5925436.349999999627471 ], [ 23141.775000000001455, 5925436.349999999627471 ], [ 23141.775000000001455, 5925436.575000000186265 ], [ 23141.7, 5925436.575000000186265 ], [ 23141.7, 5925436.799999999813735 ], [ 23141.625, 5925436.799999999813735 ], [ 23141.625, 5925436.950000000186265 ], [ 23141.55, 5925436.950000000186265 ], [ 23141.55, 5925437.099999999627471 ], [ 23141.474999999998545, 5925437.099999999627471 ], [ 23141.474999999998545, 5925437.25 ], [ 23141.400000000001455, 5925437.25 ], [ 23141.400000000001455, 5925437.400000000372529 ], [ 23141.325, 5925437.400000000372529 ], [ 23141.325, 5925437.474999999627471 ], [ 23141.25, 5925437.474999999627471 ], [ 23141.25, 5925437.625 ], [ 23141.175, 5925437.625 ], [ 23141.175, 5925437.700000000186265 ], [ 23141.099999999998545, 5925437.700000000186265 ], [ 23141.099999999998545, 5925437.775000000372529 ], [ 23141.025000000001455, 5925437.775000000372529 ], [ 23141.025000000001455, 5925437.849999999627471 ], [ 23140.95, 5925437.849999999627471 ], [ 23140.95, 5925437.924999999813735 ], [ 23140.875, 5925437.924999999813735 ], [ 23140.875, 5925438.0 ], [ 23140.8, 5925438.0 ], [ 23140.8, 5925438.075000000186265 ], [ 23140.724999999998545, 5925438.075000000186265 ], [ 23140.724999999998545, 5925438.150000000372529 ], [ 23140.650000000001455, 5925438.150000000372529 ], [ 23140.650000000001455, 5925438.224999999627471 ], [ 23140.5, 5925438.224999999627471 ], [ 23140.5, 5925438.299999999813735 ], [ 23140.425, 5925438.299999999813735 ], [ 23140.425, 5925438.375 ], [ 23140.349999999998545, 5925438.375 ], [ 23140.349999999998545, 5925438.450000000186265 ], [ 23140.275000000001455, 5925438.450000000186265 ], [ 23140.275000000001455, 5925438.525000000372529 ], [ 23140.125, 5925438.525000000372529 ], [ 23140.125, 5925438.599999999627471 ], [ 23140.05, 5925438.599999999627471 ], [ 23140.05, 5925438.674999999813735 ], [ 23139.900000000001455, 5925438.674999999813735 ], [ 23139.900000000001455, 5925438.75 ], [ 23139.825, 5925438.75 ], [ 23139.825, 5925438.825000000186265 ], [ 23139.675, 5925438.825000000186265 ], [ 23139.675, 5925438.900000000372529 ], [ 23139.599999999998545, 5925438.900000000372529 ], [ 23139.599999999998545, 5925438.974999999627471 ], [ 23139.45, 5925438.974999999627471 ], [ 23139.45, 5925439.049999999813735 ], [ 23139.3, 5925439.049999999813735 ], [ 23139.3, 5925439.125 ], [ 23139.150000000001455, 5925439.125 ], [ 23139.150000000001455, 5925439.200000000186265 ], [ 23139.0, 5925439.200000000186265 ] ] ] } },
{ "type": "Feature", "properties": { "value": 1.0, "building_id": 1, "area": 108.13500000047331 }, "geometry": { "type": "Polygon", "coordinates": [ [ [ 23101.875, 5925444.599999999627471 ], [ 23101.875, 5925444.525000000372529 ], [ 23101.650000000001455, 5925444.525000000372529 ], [ 23101.650000000001455, 5925444.450000000186265 ], [ 23101.5, 5925444.450000000186265 ], [ 23101.5, 5925444.375 ], [ 23101.275000000001455, 5925444.375 ], [ 23101.275000000001455, 5925444.299999999813735 ], [ 23101.125, 5925444.299999999813735 ], [ 23101.125, 5925444.224999999627471 ], [ 23101.05, 5925444.224999999627471 ], [ 23101.05, 5925444.150000000372529 ], [ 23100.900000000001455, 5925444.150000000372529 ], [ 23100.900000000001455, 5925444.075000000186265 ], [ 23100.75, 5925444.075000000186265 ], [ 23100.75, 5925444.0 ], [ 23100.675, 5925444.0 ], [ 23100.675, 5925443.924999999813735 ], [ 23100.599999999998545, 5925443.924999999813735 ], [ 23100.599999999998545, 5925443.849999999627471 ], [ 23100.525000000001455, 5925443.849999999627471 ], [ 23100.525000000001455, 5925443.775000000372529 ], [ 23100.45, 5925443.775000000372529 ], [ 23100.45, 5925443.700000000186265 ], [ 23100.375, 5925443.700000000186265 ], [ 23100.375, 5925443.625 ], [ 23100.3, 5925443.625 ], [ 23100.3, 5925443.549999999813735 ], [ 23100.224999999998545, 5925443.549999999813735 ], [ 23100.224999999998545, 5925443.474999999627471 ], [ 23100.150000000001455, 5925443.474999999627471 ], [ 23100.150000000001455, 5925443.400000000372529 ], [ 23100.075, 5925443.400000000372529 ], [ 23100.075, 5925443.25 ], [ 23099.925, 5925443.25 ], [ 23099.925, 5925443.174999999813735 ], [ 23099.849999999998545, 5925443.174999999813735 ], [ 23099.849999999998545, 5925443.099999999627471 ], [ 23099.775000000001455, 5925443.099999999627471 ], [ 23099.775000000001455, 5925443.025000000372529 ], [ 23099.625, 5925443.025000000372529 ], [ 23099.625, 5925442.950000000186265 ], [ 23099.55, 5925442.950000000186265 ], [ 23099.55, 5925442.875 ], [ 23099.474999999998545, 5925442.875 ], [ 23099.474999999998545, 5925442.799999999813735 ], [ 23099.400000000001455, 5925442.799999999813735 ], [ 23099.400000000001455, 5925442.724999999627471 ], [ 23099.325, 5925442.724999999627471 ], [ 23099.325, 5925442.650000000372529 ], [ 23099.25, 5925442.650000000372529 ], [ 23099.25, 5925442.5 ], [ 23099.175, 5925442.5 ], [ 23099.175, 5925442.424999999813735 ], [ 23099.099999999998545, 5925442.424999999813735 ], [ 23099.099999999998545, 5925442.275000000372529 ], [ 23099.025000000001455, 5925442.275000000372529 ], [ 23099.025000000001455, 5925442.125 ], [ 23098.95, 5925442.125 ], [ 23098.95, 5925441.974999999627471 ], [ 23098.875, 5925441.974999999627471 ], [ 23098.875, 5925441.825000000186265 ], [ 23098.8, 5925441.825000000186265 ], [ 23098.8, 5925441.599999999627471 ], [ 23098.724999999998545, 5925441.599999999627471 ], [ 23098.724999999998545, 5925441.375 ], [ 23098.650000000001455, 5925441.375 ], [ 23098.650000000001455, 5925440.400000000372529 ], [ 23098.575, 5925440.400000000372529 ], [ 23098.575, 5925438.825000000186265 ], [ 23098.5, 5925438.825000000186265 ], [ 23098.5, 5925436.875 ], [ 23098.425, 5925436.875 ], [ 23098.425, 5925434.849999999627471 ], [ 23098.5, 5925434.849999999627471 ], [ 23098.5, 5925434.174999999813735 ], [ 23098.575, 5925434.174999999813735 ], [ 23098.575, 5925433.575000000186265 ], [ 23098.650000000001455, 5925433.575000000186265 ], [ 23098.650000000001455, 5925433.349999999627471 ], [ 23098.724999999998545, 5925433.349999999627471 ], [ 23098.724999999998545, 5925433.200000000186265 ], [ 23098.8, 5925433.200000000186265 ], [ 23098.8, 5925433.049999999813735 ], [ 23098.875, 5925433.049999999813735 ], [ 23098.875, 5925432.974999999627471 ], [ 23098.95, 5925432.974999999627471 ], [ 23098.95, 5925432.900000000372529 ], [ 23099.025000000001455, 5925432.900000000372529 ], [ 23099.025000000001455, 5925432.75 ], [ 23099.099999999998545, 5925432.75 ], [ 23099.099999999998545, 5925432.674999999813735 ], [ 23099.175, 5925432.674999999813735 ], [ 23099.175, 5925432.599999999627471 ], [ 23099.325, 5925432.599999999627471 ], [ 23099.325, 5925432.525000000372529 ], [ 23099.400000000001455, 5925432.525000000372529 ], [ 23099.400000000001455, 5925432.450000000186265 ], [ 23099.474999999998545, 5925432.450000000186265 ], [ 23099.474999999998545, 5925432.375 ], [ 23099.625, 5925432.375 ], [ 23099.625, 5925432.299999999813735 ], [ 23099.775000000001455, 5925432.299999999813735 ], [ 23099.775000000001455, 5925432.224999999627471 ], [ 23099.925, 5925432.224999999627471 ], [ 23099.925, 5925432.150000000372529 ], [ 23100.150000000001455, 5925432.150000000372529 ], [ 23100.150000000001455, 5925432.075000000186265 ], [ 23100.599999999998545, 5925432.075000000186265 ], [ 23100.599999999998545, 5925432.0 ], [ 23101.05, 5925432.0 ], [ 23101.05, 5925431.924999999813735 ], [ 23101.5, 5925431.924999999813735 ], [ 23101.5, 5925431.849999999627471 ], [ 23102.775000000001455, 5925431.849999999627471 ], [ 23102.775000000001455, 5925431.775000000372529 ], [ 23103.150000000001455, 5925431.775000000372529 ], [ 23103.150000000001455, 5925431.849999999627471 ], [ 23104.05, 5925431.849999999627471 ], [ 23104.05, 5925431.924999999813735 ], [ 23104.575, 5925431.924999999813735 ], [ 23104.575, 5925432.0 ], [ 23105.099999999998545, 5925432.0 ], [ 23105.099999999998545, 5925432.075000000186265 ], [ 23105.625, 5925432.075000000186265 ], [ 23105.625, 5925432.150000000372529 ], [ 23106.0, 5925432.150000000372529 ], [ 23106.0, 5925432.224999999627471 ], [ 23106.224999999998545, 5925432.224999999627471 ], [ 23106.224999999998545, 5925432.299999999813735 ], [ 23106.375, 5925432.299999999813735 ], [ 23106.375, 5925432.375 ], [ 23106.599999999998545, 5925432.375 ], [ 23106.599999999998545, 5925432.450000000186265 ], [ 23106.75, 5925432.450000000186265 ], [ 23106.75, 5925432.525000000372529 ], [ 23106.900000000001455, 5925432.525000000372529 ], [ 23106.900000000001455, 5925432.599999999627471 ], [ 23106.974999999998545, 5925432.599999999627471 ], [ 23106.974999999998545, 5925432.674999999813735 ], [ 23107.125, 5925432.674999999813735 ], [ 23107.125, 5925432.75 ], [ 23107.2, 5925432.75 ], [ 23107.2, 5925432.825000000186265 ], [ 23107.349999999998545, 5925432.825000000186265 ], [ 23107.349999999998545, 5925432.900000000372529 ], [ 23107.425, 5925432.900000000372529 ], [ 23107.425, 5925432.974999999627471 ], [ 23107.5, 5925432.974999999627471 ], [ 23107.5, 5925433.049999999813735 ], [ 23107.575, 5925433.049999999813735 ], [ 23107.575, 5925433.125 ], [ 23107.650000000001455, 5925433.125 ], [ 23107.650000000001455, 5925433.200000000186265 ], [ 23107.724999999998545, 5925433.200000000186265 ], [ 23107.724999999998545, 5925433.275000000372529 ], [ 23107.8, 5925433.275000000372529 ], [ 23107.8, 5925433.349999999627471 ], [ 23107.875, 5925433.349999999627471 ], [ 23107.875, 5925433.424999999813735 ], [ 23107.95, 5925433.424999999813735 ], [ 23107.95, 5925433.5 ], [ 23108.099999999998545, 5925433.5 ], [ 23108.099999999998545, 5925433.575000000186265 ], [ 23108.175, 5925433.575000000186265 ], [ 23108.175, 5925433.650000000372529 ], [ 23108.325, 5925433.650000000372529 ], [ 23108.325, 5925433.724999999627471 ], [ 23108.400000000001455, 5925433.724999999627471 ], [ 23108.400000000001455, 5925433.799999999813735 ], [ 23108.474999999998545, 5925433.799999999813735 ], [ 23108.474999999998545, 5925433.875 ], [ 23108.625, 5925433.875 ], [ 23108.625, 5925433.950000000186265 ], [ 23108.7, 5925433.950000000186265 ], [ 23108.7, 5925434.025000000372529 ], [ 23108.775000000001455, 5925434.025000000372529 ], [ 23108.775000000001455, 5925434.099999999627471 ], [ 23108.849999999998545, 5925434.099999999627471 ], [ 23108.849999999998545, 5925434.174999999813735 ], [ 23108.925, 5925434.174999999813735 ], [ 23108.925, 5925434.25 ], [ 23109.0, 5925434.25 ], [ 23109.0, 5925434.400000000372529 ], [ 23109.075, 5925434.400000000372529 ], [ 23109.075, 5925434.474999999627471 ], [ 23109.150000000001455, 5925434.474999999627471 ], [ 23109.150000000001455, 5925434.549999999813735 ], [ 23109.224999999998545, 5925434.549999999813735 ], [ 23109.224999999998545, 5925434.700000000186265 ], [ 23109.3, 5925434.700000000186265 ], [ 23109.3, 5925434.775000000372529 ], [ 23109.375, 5925434.775000000372529 ], [ 23109.375, 5925434.924999999813735 ], [ 23109.45, 5925434.924999999813735 ], [ 23109.45, 5925435.075000000186265 ], [ 23109.525000000001455, 5925435.075000000186265 ], [ 23109.525000000001455, 5925435.224999999627471 ], [ 23109.599999999998545, 5925435.224999999627471 ], [ 23109.599999999998545, 5925435.375 ], [ 23109.675, 5925435.375 ], [ 23109.675, 5925435.525000000372529 ], [ 23109.599999999998545, 5925435.525000000372529 ], [ 23109.599999999998545, 5925435.674999999813735 ], [ 23109.525000000001455, 5925435.674999999813735 ], [ 23109.525000000001455, 5925435.900000000372529 ], [ 23109.45, 5925435.900000000372529 ], [ 23109.45, 5925436.125 ], [ 23109.375, 5925436.125 ], [ 23109.375, 5925436.349999999627471 ], [ 23109.3, 5925436.349999999627471 ], [ 23109.3, 5925436.575000000186265 ], [ 23109.224999999998545, 5925436.575000000186265 ], [ 23109.224999999998545, 5925436.724999999627471 ], [ 23109.150000000001455, 5925436.724999999627471 ], [ 23109.150000000001455, 5925436.950000000186265 ], [ 23109.075, 5925436.950000000186265 ], [ 23109.075, 5925437.174999999813735 ], [ 23109.0, 5925437.174999999813735 ], [ 23109.0, 5925437.400000000372529 ], [ 23108.925, 5925437.400000000372529 ], [ 23108.925, 5925437.625 ], [ 23108.849999999998545, 5925437.625 ], [ 23108.849999999998545, 5925437.775000000372529 ], [ 23108.775000000001455, 5925437.775000000372529 ], [ 23108.775000000001455, 5925437.924999999813735 ], [ 23108.7, 5925437.924999999813735 ], [ 23108.7, 5925438.150000000372529 ], [ 23108.625, 5925438.150000000372529 ], [ 23108.625, 5925438.299999999813735 ], [ 23108.55, 5925438.299999999813735 ], [ 23108.55, 5925438.450000000186265 ], [ 23108.474999999998545, 5925438.450000000186265 ], [ 23108.474999999998545, 5925438.599999999627471 ], [ 23108.400000000001455, 5925438.599999999627471 ], [ 23108.400000000001455, 5925438.75 ], [ 23108.325, 5925438.75 ], [ 23108.325, 5925438.900000000372529 ], [ 23108.25, 5925438.900000000372529 ], [ 23108.25, 5925439.049999999813735 ], [ 23108.175, 5925439.049999999813735 ], [ 23108.175, 5925439.125 ], [ 23108.099999999998545, 5925439.125 ], [ 23108.099999999998545, 5925439.275000000372529 ], [ 23108.025000000001455, 5925439.275000000372529 ], [ 23108.025000000001455, 5925439.424999999813735 ], [ 23107.95, 5925439.424999999813735 ], [ 23107.95, 5925439.5 ], [ 23107.875, 5925439.5 ], [ 23107.875, 5925439.650000000372529 ], [ 23107.8, 5925439.650000000372529 ], [ 23107.8, 5925439.724999999627471 ], [ 23107.724999999998545, 5925439.724999999627471 ], [ 23107.724999999998545, 5925439.875 ], [ 23107.650000000001455, 5925439.875 ], [ 23107.650000000001455, 5925439.950000000186265 ], [ 23107.575, 5925439.950000000186265 ], [ 23107.575, 5925440.099999999627471 ], [ 23107.5, 5925440.099999999627471 ], [ 23107.5, 5925440.174999999813735 ], [ 23107.425, 5925440.174999999813735 ], [ 23107.425, 5925440.325000000186265 ], [ 23107.349999999998545, 5925440.325000000186265 ], [ 23107.349999999998545, 5925440.400000000372529 ], [ 23107.275000000001455, 5925440.400000000372529 ], [ 23107.275000000001455, 5925440.549999999813735 ], [ 23107.2, 5925440.549999999813735 ], [ 23107.2, 5925440.700000000186265 ], [ 23107.125, 5925440.700000000186265 ], [ 23107.125, 5925440.775000000372529 ], [ 23107.05, 5925440.775000000372529 ], [ 23107.05, 5925440.924999999813735 ], [ 23106.974999999998545, 5925440.924999999813735 ], [ 23106.974999999998545, 5925441.075000000186265 ], [ 23106.900000000001455, 5925441.075000000186265 ], [ 23106.900000000001455, 5925441.224999999627471 ], [ 23106.825, 5925441.224999999627471 ], [ 23106.825, 5925441.299999999813735 ], [ 23106.75, 5925441.299999999813735 ], [ 23106.75, 5925441.450000000186265 ], [ 23106.675, 5925441.450000000186265 ], [ 23106.675, 5925441.599999999627471 ], [ 23106.599999999998545, 5925441.599999999627471 ], [ 23106.599999999998545, 5925441.674999999813735 ], [ 23106.525000000001455, 5925441.674999999813735 ], [ 23106.525000000001455, 5925441.75 ], [ 23106.45, 5925441.75 ], [ 23106.45, 5925441.825000000186265 ], [ 23106.375, 5925441.825000000186265 ], [ 23106.375, 5925441.974999999627471 ], [ 23106.3, 5925441.974999999627471 ], [ 23106.3, 5925442.049999999813735 ], [ 23106.224999999998545, 5925442.049999999813735 ], [ 23106.224999999998545, 5925442.125 ], [ 23106.150000000001455, 5925442.125 ], [ 23106.150000000001455, 5925442.200000000186265 ], [ 23106.075, 5925442.200000000186265 ], [ 23106.075, 5925442.275000000372529 ], [ 23106.0, 5925442.275000000372529 ], [ 23106.0, 5925442.349999999627471 ], [ 23105.849999999998545, 5925442.349999999627471 ], [ 23105.849999999998545, 5925442.424999999813735 ], [ 23105.775000000001455, 5925442.424999999813735 ], [ 23105.775000000001455, 5925442.5 ], [ 23105.7, 5925442.5 ], [ 23105.7, 5925442.575000000186265 ], [ 23105.55, 5925442.575000000186265 ], [ 23105.55, 5925442.650000000372529 ], [ 23105.474999999998545, 5925442.650000000372529 ], [ 23105.474999999998545, 5925442.724999999627471 ], [ 23105.400000000001455, 5925442.724999999627471 ], [ 23105.400000000001455, 5925442.799999999813735 ], [ 23105.25, 5925442.799999999813735 ], [ 23105.25, 5925442.875 ], [ 23105.175, 5925442.875 ], [ 23105.175, 5925442.950000000186265 ], [ 23105.099999999998545, 5925442.950000000186265 ], [ 23105.099999999998545, 5925443.025000000372529 ], [ 23105.025000000001455, 5925443.025000000372529 ], [ 23105.025000000001455, 5925443.099999999627471 ], [ 23104.95, 5925443.099999999627471 ], [ 23104.95, 5925443.174999999813735 ], [ 23104.8, 5925443.174999999813735 ], [ 23104.8, 5925443.25 ], [ 23104.724999999998545, 5925443.25 ], [ 23104.724999999998545, 5925443.400000000372529 ], [ 23104.650000000001455, 5925443.400000000372529 ], [ 23104.650000000001455, 5925443.474999999627471 ], [ 23104.575, 5925443.474999999627471 ], [ 23104.575, 5925443.549999999813735 ], [ 23104.5, 5925443.549999999813735 ], [ 23104.5, 5925443.625 ], [ 23104.425, 5925443.625 ], [ 23104.425, 5925443.700000000186265 ], [ 23104.349999999998545, 5925443.700000000186265 ], [ 23104.349999999998545, 5925443.775000000372529 ], [ 23104.275000000001455, 5925443.775000000372529 ], [ 23104.275000000001455, 5925443.849999999627471 ], [ 23104.2, 5925443.849999999627471 ], [ 23104.2, 5925443.924999999813735 ], [ 23104.125, 5925443.924999999813735 ], [ 23104.125, 5925444.0 ], [ 23104.05, 5925444.0 ], [ 23104.05, 5925444.075000000186265 ], [ 23103.900000000001455, 5925444.075000000186265 ], [ 23103.900000000001455, 5925444.150000000372529 ], [ 23103.825, 5925444.150000000372529 ], [ 23103.825, 5925444.224999999627471 ], [ 23103.675, 5925444.224999999627471 ], [ 23103.675, 5925444.299999999813735 ], [ 23103.525000000001455, 5925444.299999999813735 ], [ 23103.525000000001455, 5925444.375 ], [ 23103.375, 5925444.375 ], [ 23103.375, 5925444.450000000186265 ], [ 23103.150000000001455, 5925444.450000000186265 ], [ 23103.150000000001455, 5925444.525000000372529 ], [ 23102.925, 5925444.525000000372529 ], [ 23102.925, 5925444.599999999627471 ], [ 23101.875, 5925444.599999999627471 ] ] ] } },
{ "type": "Feature", "properties": { "value": 1.0, "building_id": 2, "area": 786.61125000407969 }, "geometry": { "type": "Polygon", "coordinates": [ [ [ 22683.0, 5925224.700000000186265 ], [ 22683.0, 5925204.974999999627471 ], [ 22687.650000000001455, 5925204.974999999627471 ], [ 22687.650000000001455, 5925204.900000000372529 ], [ 22687.875, 5925204.900000000372529 ], [ 22687.875, 5925204.75 ], [ 22687.95, 5925204.75 ], [ 22687.95, 5925204.599999999627471 ], [ 22688.025000000001455, 5925204.599999999627471 ], [ 22688.025000000001455, 5925204.450000000186265 ], [ 22688.099999999998545, 5925204.450000000186265 ], [ 22688.099999999998545, 5925204.299999999813735 ], [ 22688.175, 5925204.299999999813735 ], [ 22688.175, 5925204.224999999627471 ], [ 22688.25, 5925204.224999999627471 ], [ 22688.25, 5925204.150000000372529 ], [ 22688.325, 5925204.150000000372529 ], [ 22688.325, 5925204.075000000186265 ], [ 22688.474999999998545, 5925204.075000000186265 ], [ 22688.474999999998545, 5925204.0 ], [ 22688.55, 5925204.0 ], [ 22688.55, 5925203.924999999813735 ], [ 22688.7, 5925203.924999999813735 ], [ 22688.7, 5925203.849999999627471 ], [ 22688.925, 5925203.849999999627471 ], [ 22688.925, 5925203.775000000372529 ], [ 22689.224999999998545, 5925203.775000000372529 ], [ 22689.224999999998545, 5925203.700000000186265 ], [ 22689.675, 5925203.700000000186265 ], [ 22689.675, 5925203.625 ], [ 22689.974999999998545, 5925203.625 ], [ 22689.974999999998545, 5925203.549999999813735 ], [ 22690.275000000001455, 5925203.549999999813735 ], [ 22690.275000000001455, 5925203.474999999627471 ], [ 22690.724999999998545, 5925203.474999999627471 ], [ 22690.724999999998545, 5925203.400000000372529 ], [ 22691.55, 5925203.400000000372529 ], [ 22691.55, 5925203.325000000186265 ], [ 22692.075, 5925203.325000000186265 ], [ 22692.075, 5925203.25 ], [ 22692.45, 5925203.25 ], [ 22692.45, 5925203.174999999813735 ], [ 22692.825, 5925203.174999999813735 ], [ 22692.825, 5925203.099999999627471 ], [ 22693.125, 5925203.099999999627471 ], [ 22693.125, 5925203.025000000372529 ], [ 22693.425, 5925203.025000000372529 ], [ 22693.425, 5925202.950000000186265 ], [ 22693.724999999998545, 5925202.950000000186265 ], [ 22693.724999999998545, 5925202.875 ], [ 22694.099999999998545, 5925202.875 ], [ 22694.099999999998545, 5925202.799999999813735 ], [ 22694.474999999998545, 5925202.799999999813735 ], [ 22694.474999999998545, 5925202.724999999627471 ], [ 22694.925, 5925202.724999999627471 ], [ 22694.925, 5925202.650000000372529 ], [ 22695.45, 5925202.650000000372529 ], [ 22695.45, 5925202.575000000186265 ], [ 22695.974999999998545, 5925202.575000000186265 ], [ 22695.974999999998545, 5925202.650000000372529 ], [ 22696.349999999998545, 5925202.650000000372529 ], [ 22696.349999999998545, 5925202.724999999627471 ], [ 22696.650000000001455, 5925202.724999999627471 ], [ 22696.650000000001455, 5925202.799999999813735 ], [ 22696.875, 5925202.799999999813735 ], [ 22696.875, 5925202.875 ], [ 22697.025000000001455, 5925202.875 ], [ 22697.025000000001455, 5925202.950000000186265 ], [ 22697.175, 5925202.950000000186265 ], [ 22697.175, 5925203.025000000372529 ], [ 22697.400000000001455, 5925203.025000000372529 ], [ 22697.400000000001455, 5925203.099999999627471 ], [ 22698.75, 5925203.099999999627471 ], [ 22698.75, 5925203.174999999813735 ], [ 22701.075, 5925203.174999999813735 ], [ 22701.075, 5925203.099999999627471 ], [ 22701.3, 5925203.099999999627471 ], [ 22701.3, 5925203.174999999813735 ], [ 22708.2, 5925203.174999999813735 ], [ 22708.2, 5925203.099999999627471 ], [ 22710.599999999998545, 5925203.099999999627471 ], [ 22710.599999999998545, 5925203.174999999813735 ], [ 22714.349999999998545, 5925203.174999999813735 ], [ 22714.349999999998545, 5925203.25 ], [ 22716.150000000001455, 5925203.25 ], [ 22716.150000000001455, 5925203.325000000186265 ], [ 22717.275000000001455, 5925203.325000000186265 ], [ 22717.275000000001455, 5925203.400000000372529 ], [ 22717.650000000001455, 5925203.400000000372529 ], [ 22717.650000000001455, 5925203.474999999627471 ], [ 22718.025000000001455, 5925203.474999999627471 ], [ 22718.025000000001455, 5925203.549999999813735 ], [ 22718.325, 5925203.549999999813735 ], [ 22718.325, 5925203.625 ], [ 22718.55, 5925203.625 ], [ 22718.55, 5925203.700000000186265 ], [ 22718.7, 5925203.700000000186265 ], [ 22718.7, 5925203.775000000372529 ], [ 22718.925, 5925203.775000000372529 ], [ 22718.925, 5925203.849999999627471 ], [ 22719.075, 5925203.849999999627471 ], [ 22719.075, 5925203.924999999813735 ], [ 22719.224999999998545, 5925203.924999999813735 ], [ 22719.224999999998545, 5925204.0 ], [ 22719.3, 5925204.0 ], [ 22719.3, 5925204.075000000186265 ], [ 22719.45, 5925204.075000000186265 ], [ 22719.45, 5925204.150000000372529 ], [ 22719.525000000001455, 5925204.150000000372529 ], [ 22719.525000000001455, 5925204.224999999627471 ], [ 22719.675, 5925204.224999999627471 ], [ 22719.675, 5925204.299999999813735 ], [ 22719.75, 5925204.299999999813735 ], [ 22719.75, 5925204.375 ], [ 22719.825, 5925204.375 ], [ 22719.825, 5925204.450000000186265 ], [ 22719.900000000001455, 5925204.450000000186265 ], [ 22719.900000000001455, 5925204.525000000372529 ], [ 22719.974999999998545, 5925204.525000000372529 ], [ 22719.974999999998545, 5925204.599999999627471 ], [ 22720.125, 5925204.599999999627471 ], [ 22720.125, 5925204.674999999813735 ], [ 22720.2, 5925204.674999999813735 ], [ 22720.2, 5925204.825000000186265 ], [ 22720.275000000001455, 5925204.825000000186265 ], [ 22720.275000000001455, 5925204.900000000372529 ], [ 22720.349999999998545, 5925204.900000000372529 ], [ 22720.349999999998545, 5925204.974999999627471 ], [ 22720.5, 5925204.974999999627471 ], [ 22720.5, 5925205.049999999813735 ], [ 22720.8, 5925205.049999999813735 ], [ 22720.8, 5925205.125 ], [ 22721.099999999998545, 5925205.125 ], [ 22721.099999999998545, 5925205.200000000186265 ], [ 22721.400000000001455, 5925205.200000000186265 ], [ 22721.400000000001455, 5925205.275000000372529 ], [ 22721.625, 5925205.275000000372529 ], [ 22721.625, 5925205.349999999627471 ], [ 22721.775000000001455, 5925205.349999999627471 ], [ 22721.775000000001455, 5925205.424999999813735 ], [ 22722.0, 5925205.424999999813735 ], [ 22722.0, 5925205.5 ], [ 22722.150000000001455, 5925205.5 ], [ 22722.150000000001455, 5925205.575000000186265 ], [ 22722.3, 5925205.575000000186265 ], [ 22722.3, 5925205.650000000372529 ], [ 22722.375, 5925205.650000000372529 ], [ 22722.375, 5925205.724999999627471 ], [ 22722.525000000001455, 5925205.724999999627471 ], [ 22722.525000000001455, 5925205.799999999813735 ], [ 22722.599999999998545, 5925205.799999999813735 ], [ 22722.599999999998545, 5925205.875 ], [ 22722.675, 5925205.875 ], [ 22722.675, 5925205.950000000186265 ], [ 22722.75, 5925205.950000000186265 ], [ 22722.75, 5925206.025000000372529 ], [ 22722.825, 5925206.025000000372529 ], [ 22722.825, 5925206.099999999627471 ], [ 22722.900000000001455, 5925206.099999999627471 ], [ 22722.900000000001455, 5925206.174999999813735 ], [ 22722.974999999998545, 5925206.174999999813735 ], [ 22722.974999999998545, 5925206.325000000186265 ], [ 22723.05, 5925206.325000000186265 ], [ 22723.05, 5925206.400000000372529 ], [ 22723.125, 5925206.400000000372529 ], [ 22723.125, 5925206.474999999627471 ], [ 22723.2, 5925206.474999999627471 ], [ 22723.2, 5925206.549999999813735 ], [ 22723.275000000001455, 5925206.549999999813735 ], [ 22723.275000000001455, 5925206.625 ], [ 22723.349999999998545, 5925206.625 ], [ 22723.349999999998545, 5925206.775000000372529 ], [ 22723.425, 5925206.775000000372529 ], [ 22723.425, 5925206.849999999627471 ], [ 22723.5, 5925206.849999999627471 ], [ 22723.5, 5925207.0 ], [ 22723.575, 5925207.0 ], [ 22723.575, 5925207.075000000186265 ], [ 22723.650000000001455, 5925207.075000000186265 ], [ 22723.650000000001455, 5925207.150000000372529 ], [ 22723.724999999998545, 5925207.150000000372529 ], [ 22723.724999999998545, 5925207.224999999627471 ], [ 22723.8, 5925207.224999999627471 ], [ 22723.8, 5925207.299999999813735 ], [ 22723.875, 5925207.299999999813735 ], [ 22723.875, 5925207.375 ], [ 22723.95, 5925207.375 ], [ 22723.95, 5925207.525000000372529 ], [ 22724.025000000001455, 5925207.525000000372529 ], [ 22724.025000000001455, 5925207.599999999627471 ], [ 22724.099999999998545, 5925207.599999999627471 ], [ 22724.099999999998545, 5925207.75 ], [ 22724.175, 5925207.75 ], [ 22724.175, 5925207.900000000372529 ], [ 22724.25, 5925207.900000000372529 ], [ 22724.25, 5925208.049999999813735 ], [ 22724.325, 5925208.049999999813735 ], [ 22724.325, 5925208.200000000186265 ], [ 22724.400000000001455, 5925208.200000000186265 ], [ 22724.400000000001455, 5925208.349999999627471 ], [ 22724.474999999998545, 5925208.349999999627471 ], [ 22724.474999999998545, 5925208.575000000186265 ], [ 22724.55, 5925208.575000000186265 ], [ 22724.55, 5925208.875 ], [ 22724.625, 5925208.875 ], [ 22724.625, 5925209.174999999813735 ], [ 22724.7, 5925209.174999999813735 ], [ 22724.7, 5925209.474999999627471 ], [ 22724.775000000001455, 5925209.474999999627471 ], [ 22724.775000000001455, 5925209.775000000372529 ], [ 22724.849999999998545, 5925209.775000000372529 ], [ 22724.849999999998545, 5925210.075000000186265 ], [ 22724.925, 5925210.075000000186265 ], [ 22724.925, 5925210.375 ], [ 22725.0, 5925210.375 ], [ 22725.0, 5925210.599999999627471 ], [ 22725.075, 5925210.599999999627471 ], [ 22725.075, 5925210.75 ], [ 22725.150000000001455, 5925210.75 ], [ 22725.150000000001455, 5925210.974999999627471 ], [ 22725.224999999998545, 5925210.974999999627471 ], [ 22725.224999999998545, 5925211.125 ], [ 22725.3, 5925211.125 ], [ 22725.3, 5925211.275000000372529 ], [ 22725.375, 5925211.275000000372529 ], [ 22725.375, 5925211.5 ], [ 22725.45, 5925211.5 ], [ 22725.45, 5925211.724999999627471 ], [ 22725.525000000001455, 5925211.724999999627471 ], [ 22725.525000000001455, 5925211.950000000186265 ], [ 22725.599999999998545, 5925211.950000000186265 ], [ 22725.599999999998545, 5925212.174999999813735 ], [ 22725.675, 5925212.174999999813735 ], [ 22725.675, 5925212.474999999627471 ], [ 22725.75, 5925212.474999999627471 ], [ 22725.75, 5925212.775000000372529 ], [ 22725.825, 5925212.775000000372529 ], [ 22725.825, 5925213.075000000186265 ], [ 22725.900000000001455, 5925213.075000000186265 ], [ 22725.900000000001455, 5925213.450000000186265 ], [ 22725.974999999998545, 5925213.450000000186265 ], [ 22725.974999999998545, 5925213.900000000372529 ], [ 22726.05, 5925213.900000000372529 ], [ 22726.05, 5925214.349999999627471 ], [ 22726.125, 5925214.349999999627471 ], [ 22726.125, 5925215.25 ], [ 22726.05, 5925215.25 ], [ 22726.05, 5925215.849999999627471 ], [ 22725.974999999998545, 5925215.849999999627471 ], [ 22725.974999999998545, 5925216.299999999813735 ], [ 22725.900000000001455, 5925216.299999999813735 ], [ 22725.900000000001455, 5925216.75 ], [ 22725.825, 5925216.75 ], [ 22725.825, 5925216.900000000372529 ], [ 22725.75, 5925216.900000000372529 ], [ 22725.75, 5925217.125 ], [ 22725.675, 5925217.125 ], [ 22725.675, 5925217.275000000372529 ], [ 22725.599999999998545, 5925217.275000000372529 ], [ 22725.599999999998545, 5925217.424999999813735 ], [ 22725.525000000001455, 5925217.424999999813735 ], [ 22725.525000000001455, 5925217.5 ], [ 22725.45, 5925217.5 ], [ 22725.45, 5925217.650000000372529 ], [ 22725.375, 5925217.650000000372529 ], [ 22725.375, 5925217.724999999627471 ], [ 22725.3, 5925217.724999999627471 ], [ 22725.3, 5925217.799999999813735 ], [ 22725.224999999998545, 5925217.799999999813735 ], [ 22725.224999999998545, 5925217.950000000186265 ], [ 22725.150000000001455, 5925217.950000000186265 ], [ 22725.150000000001455, 5925218.025000000372529 ], [ 22725.0, 5925218.025000000372529 ], [ 22725.0, 5925218.099999999627471 ], [ 22724.925, 5925218.099999999627471 ], [ 22724.925, 5925218.25 ], [ 22724.849999999998545, 5925218.25 ], [ 22724.849999999998545, 5925218.400000000372529 ], [ 22724.775000000001455, 5925218.400000000372529 ], [ 22724.775000000001455, 5925218.549999999813735 ], [ 22724.7, 5925218.549999999813735 ], [ 22724.7, 5925218.775000000372529 ], [ 22724.625, 5925218.775000000372529 ], [ 22724.625, 5925219.0 ], [ 22724.55, 5925219.0 ], [ 22724.55, 5925219.150000000372529 ], [ 22724.474999999998545, 5925219.150000000372529 ], [ 22724.474999999998545, 5925219.299999999813735 ], [ 22724.400000000001455, 5925219.299999999813735 ], [ 22724.400000000001455, 5925219.450000000186265 ], [ 22724.325, 5925219.450000000186265 ], [ 22724.325, 5925219.525000000372529 ], [ 22724.25, 5925219.525000000372529 ], [ 22724.25, 5925219.599999999627471 ], [ 22724.175, 5925219.599999999627471 ], [ 22724.175, 5925219.75 ], [ 22724.099999999998545, 5925219.75 ], [ 22724.099999999998545, 5925219.825000000186265 ], [ 22723.95, 5925219.825000000186265 ], [ 22723.95, 5925219.900000000372529 ], [ 22723.875, 5925219.900000000372529 ], [ 22723.875, 5925219.974999999627471 ], [ 22723.8, 5925219.974999999627471 ], [ 22723.8, 5925220.049999999813735 ], [ 22723.650000000001455, 5925220.049999999813735 ], [ 22723.650000000001455, 5925220.125 ], [ 22723.5, 5925220.125 ], [ 22723.5, 5925220.200000000186265 ], [ 22723.349999999998545, 5925220.200000000186265 ], [ 22723.349999999998545, 5925220.275000000372529 ], [ 22723.125, 5925220.275000000372529 ], [ 22723.125, 5925220.349999999627471 ], [ 22722.974999999998545, 5925220.349999999627471 ], [ 22722.974999999998545, 5925220.424999999813735 ], [ 22722.825, 5925220.424999999813735 ], [ 22722.825, 5925220.5 ], [ 22722.75, 5925220.5 ], [ 22722.75, 5925220.575000000186265 ], [ 22722.675, 5925220.575000000186265 ], [ 22722.675, 5925220.650000000372529 ], [ 22722.599999999998545, 5925220.650000000372529 ], [ 22722.599999999998545, 5925220.724999999627471 ], [ 22722.525000000001455, 5925220.724999999627471 ], [ 22722.525000000001455, 5925220.799999999813735 ], [ 22722.45, 5925220.799999999813735 ], [ 22722.45, 5925220.875 ], [ 22722.375, 5925220.875 ], [ 22722.375, 5925220.950000000186265 ], [ 22722.3, 5925220.950000000186265 ], [ 22722.3, 5925221.025000000372529 ], [ 22722.224999999998545, 5925221.025000000372529 ], [ 22722.224999999998545, 5925221.099999999627471 ], [ 22722.075, 5925221.099999999627471 ], [ 22722.075, 5925221.174999999813735 ], [ 22722.0, 5925221.174999999813735 ], [ 22722.0, 5925221.25 ], [ 22721.849999999998545, 5925221.25 ], [ 22721.849999999998545, 5925221.325000000186265 ], [ 22721.7, 5925221.325000000186265 ], [ 22721.7, 5925221.400000000372529 ], [ 22721.55, 5925221.400000000372529 ], [ 22721.55, 5925221.474999999627471 ], [ 22721.400000000001455, 5925221.474999999627471 ], [ 22721.400000000001455, 5925221.549999999813735 ], [ 22721.175, 5925221.549999999813735 ], [ 22721.175, 5925221.625 ], [ 22720.95, 5925221.625 ], [ 22720.95, 5925221.700000000186265 ], [ 22720.5, 5925221.700000000186265 ], [ 22720.5, 5925221.775000000372529 ], [ 22720.05, 5925221.775000000372529 ], [ 22720.05, 5925221.849999999627471 ], [ 22719.525000000001455, 5925221.849999999627471 ], [ 22719.525000000001455, 5925221.924999999813735 ], [ 22713.599999999998545, 5925221.924999999813735 ], [ 22713.599999999998545, 5925221.849999999627471 ], [ 22709.400000000001455, 5925221.849999999627471 ], [ 22709.400000000001455, 5925221.775000000372529 ], [ 22706.849999999998545, 5925221.775000000372529 ], [ 22706.849999999998545, 5925221.700000000186265 ], [ 22705.125, 5925221.700000000186265 ], [ 22705.125, 5925221.625 ], [ 22704.150000000001455, 5925221.625 ], [ 22704.150000000001455, 5925221.549999999813735 ], [ 22701.825, 5925221.549999999813735 ], [ 22701.825, 5925221.625 ], [ 22701.075, 5925221.625 ], [ 22701.075, 5925221.700000000186265 ], [ 22700.474999999998545, 5925221.700000000186265 ], [ 22700.474999999998545, 5925221.775000000372529 ], [ 22699.875, 5925221.775000000372529 ], [ 22699.875, 5925221.849999999627471 ], [ 22699.425, 5925221.849999999627471 ], [ 22699.425, 5925221.924999999813735 ], [ 22699.125, 5925221.924999999813735 ], [ 22699.125, 5925222.0 ], [ 22698.825, 5925222.0 ], [ 22698.825, 5925222.075000000186265 ], [ 22698.525000000001455, 5925222.075000000186265 ], [ 22698.525000000001455, 5925222.150000000372529 ], [ 22698.3, 5925222.150000000372529 ], [ 22698.3, 5925222.224999999627471 ], [ 22698.075, 5925222.224999999627471 ], [ 22698.075, 5925222.299999999813735 ], [ 22697.849999999998545, 5925222.299999999813735 ], [ 22697.849999999998545, 5925222.375 ], [ 22697.7, 5925222.375 ], [ 22697.7, 5925222.450000000186265 ], [ 22697.55, 5925222.450000000186265 ], [ 22697.55, 5925222.525000000372529 ], [ 22697.400000000001455, 5925222.525000000372529 ], [ 22697.400000000001455, 5925222.599999999627471 ], [ 22697.325, 5925222.599999999627471 ], [ 22697.325, 5925222.674999999813735 ], [ 22697.175, 5925222.674999999813735 ], [ 22697.175, 5925222.75 ], [ 22697.025000000001455, 5925222.75 ], [ 22697.025000000001455, 5925222.825000000186265 ], [ 22696.875, 5925222.825000000186265 ], [ 22696.875, 5925222.900000000372529 ], [ 22696.724999999998545, 5925222.900000000372529 ], [ 22696.724999999998545, 5925222.974999999627471 ], [ 22696.575, 5925222.974999999627471 ], [ 22696.575, 5925223.049999999813735 ], [ 22696.349999999998545, 5925223.049999999813735 ], [ 22696.349999999998545, 5925223.125 ], [ 22696.2, 5925223.125 ], [ 22696.2, 5925223.200000000186265 ], [ 22695.974999999998545, 5925223.200000000186265 ], [ 22695.974999999998545, 5925223.275000000372529 ], [ 22695.675, 5925223.275000000372529 ], [ 22695.675, 5925223.349999999627471 ], [ 22695.075, 5925223.349999999627471 ], [ 22695.075, 5925223.424999999813735 ], [ 22694.325, 5925223.424999999813735 ], [ 22694.325, 5925223.5 ], [ 22693.5, 5925223.5 ], [ 22693.5, 5925223.575000000186265 ], [ 22692.45, 5925223.575000000186265 ], [ 22692.45, 5925223.650000000372529 ], [ 22691.55, 5925223.650000000372529 ], [ 22691.55, 5925223.724999999627471 ], [ 22690.8, 5925223.724999999627471 ], [ 22690.8, 5925223.799999999813735 ], [ 22690.125, 5925223.799999999813735 ], [ 22690.125, 5925223.875 ], [ 22689.599999999998545, 5925223.875 ], [ 22689.599999999998545, 5925223.950000000186265 ], [ 22689.150000000001455, 5925223.950000000186265 ], [ 22689.150000000001455, 5925224.025000000372529 ], [ 22688.775000000001455, 5925224.025000000372529 ], [ 22688.775000000001455, 5925224.099999999627471 ], [ 22688.400000000001455, 5925224.099999999627471 ], [ 22688.400000000001455, 5925224.174999999813735 ], [ 22688.099999999998545, 5925224.174999999813735 ], [ 22688.099999999998545, 5925224.25 ], [ 22687.724999999998545, 5925224.25 ], [ 22687.724999999998545, 5925224.325000000186265 ], [ 22687.275000000001455, 5925224.325000000186265 ], [ 22687.275000000001455, 5925224.400000000372529 ], [ 22686.825, 5925224.400000000372529 ], [ 22686.825, 5925224.474999999627471 ], [ 22686.45, 5925224.474999999627471 ], [ 22686.45, 5925224.549999999813735 ], [ 22686.224999999998545, 5925224.549999999813735 ], [ 22686.224999999998545, 5925224.625 ], [ 22686.0, 5925224.625 ], [ 22686.0, 5925224.700000000186265 ], [ 22683.0, 5925224.700000000186265 ] ] ] } },
{ "type": "Feature", "properties": { "value": 1.0, "building_id": 3, "area": 3.2962500000830541 }, "geometry": { "type": "Polygon", "coordinates": [ [ [ 22711.275000000001455, 5925170.549999999813735 ], [ 22711.275000000001455, 5925170.474999999627471 ], [ 22711.2, 5925170.474999999627471 ], [ 22711.2, 5925170.325000000186265 ], [ 22711.125, 5925170.325000000186265 ], [ 22711.125, 5925170.25 ], [ 22711.05, 5925170.25 ], [ 22711.05, 5925170.099999999627471 ], [ 22710.974999999998545, 5925170.099999999627471 ], [ 22710.974999999998545, 5925170.025000000372529 ], [ 22710.900000000001455, 5925170.025000000372529 ], [ 22710.900000000001455, 5925169.875 ], [ 22710.825, 5925169.875 ], [ 22710.825, 5925169.724999999627471 ], [ 22710.900000000001455, 5925169.724999999627471 ], [ 22710.900000000001455, 5925169.650000000372529 ], [ 22710.974999999998545, 5925169.650000000372529 ], [ 22710.974999999998545, 5925169.575000000186265 ], [ 22711.05, 5925169.575000000186265 ], [ 22711.05, 5925169.5 ], [ 22711.125, 5925169.5 ], [ 22711.125, 5925169.424999999813735 ], [ 22711.2, 5925169.424999999813735 ], [ 22711.2, 5925169.349999999627471 ], [ 22711.275000000001455, 5925169.349999999627471 ], [ 22711.275000000001455, 5925169.275000000372529 ], [ 22711.8, 5925169.275000000372529 ], [ 22711.8, 5925169.349999999627471 ], [ 22712.400000000001455, 5925169.349999999627471 ], [ 22712.400000000001455, 5925169.424999999813735 ], [ 22713.0, 5925169.424999999813735 ], [ 22713.0, 5925169.5 ], [ 22713.599999999998545, 5925169.5 ], [ 22713.599999999998545, 5925169.575000000186265 ], [ 22714.125, 5925169.575000000186265 ], [ 22714.125, 5925169.650000000372529 ], [ 22714.650000000001455, 5925169.650000000372529 ], [ 22714.650000000001455, 5925169.724999999627471 ], [ 22715.175, 5925169.724999999627471 ], [ 22715.175, 5925169.799999999813735 ], [ 22715.400000000001455, 5925169.799999999813735 ], [ 22715.400000000001455, 5925169.875 ], [ 22715.099999999998545, 5925169.875 ], [ 22715.099999999998545, 5925169.950000000186265 ], [ 22714.8, 5925169.950000000186265 ], [ 22714.8, 5925170.025000000372529 ], [ 22714.425, 5925170.025000000372529 ], [ 22714.425, 5925170.099999999627471 ], [ 22714.05, 5925170.099999999627471 ], [ 22714.05, 5925170.174999999813735 ], [ 22713.599999999998545, 5925170.174999999813735 ], [ 22713.599999999998545, 5925170.25 ], [ 22713.224999999998545, 5925170.25 ], [ 22713.224999999998545, 5925170.325000000186265 ], [ 22712.7, 5925170.325000000186265 ], [ 22712.7, 5925170.400000000372529 ], [ 22712.175, 5925170.400000000372529 ], [ 22712.175, 5925170.474999999627471 ], [ 22711.575, 5925170.474999999627471 ], [ 22711.575, 5925170.549999999813735 ], [ 22711.275000000001455, 5925170.549999999813735 ] ] ] } },
{ "type": "Feature", "properties": { "value": 1.0, "building_id": 4, "area": 45.528750000265916 }, "geometry": { "type": "Polygon", "coordinates": [ [ [ 22732.5, 5925174.224999999627471 ], [ 22732.5, 5925174.150000000372529 ], [ 22732.05, 5925174.150000000372529 ], [ 22732.05, 5925174.075000000186265 ], [ 22731.675, 5925174.075000000186265 ], [ 22731.675, 5925174.0 ], [ 22731.3, 5925174.0 ], [ 22731.3, 5925173.924999999813735 ], [ 22730.849999999998545, 5925173.924999999813735 ], [ 22730.849999999998545, 5925173.849999999627471 ], [ 22730.775000000001455, 5925173.849999999627471 ], [ 22730.775000000001455, 5925173.775000000372529 ], [ 22730.625, 5925173.775000000372529 ], [ 22730.625, 5925173.700000000186265 ], [ 22730.55, 5925173.700000000186265 ], [ 22730.55, 5925173.549999999813735 ], [ 22730.474999999998545, 5925173.549999999813735 ], [ 22730.474999999998545, 5925173.474999999627471 ], [ 22730.400000000001455, 5925173.474999999627471 ], [ 22730.400000000001455, 5925173.400000000372529 ], [ 22730.325, 5925173.400000000372529 ], [ 22730.325, 5925173.325000000186265 ], [ 22730.25, 5925173.325000000186265 ], [ 22730.25, 5925173.174999999813735 ], [ 22730.175, 5925173.174999999813735 ], [ 22730.175, 5925173.099999999627471 ], [ 22730.099999999998545, 5925173.099999999627471 ], [ 22730.099999999998545, 5925173.025000000372529 ], [ 22730.025000000001455, 5925173.025000000372529 ], [ 22730.025000000001455, 5925172.950000000186265 ], [ 22729.95, 5925172.950000000186265 ], [ 22729.95, 5925172.875 ], [ 22729.875, 5925172.875 ], [ 22729.875, 5925172.724999999627471 ], [ 22729.8, 5925172.724999999627471 ], [ 22729.8, 5925172.650000000372529 ], [ 22729.724999999998545, 5925172.650000000372529 ], [ 22729.724999999998545, 5925172.575000000186265 ], [ 22729.650000000001455, 5925172.575000000186265 ], [ 22729.650000000001455, 5925172.5 ], [ 22729.575, 5925172.5 ], [ 22729.575, 5925172.424999999813735 ], [ 22729.5, 5925172.424999999813735 ], [ 22729.5, 5925172.349999999627471 ], [ 22729.425, 5925172.349999999627471 ], [ 22729.425, 5925172.275000000372529 ], [ 22729.349999999998545, 5925172.275000000372529 ], [ 22729.349999999998545, 5925172.125 ], [ 22729.275000000001455, 5925172.125 ], [ 22729.275000000001455, 5925172.049999999813735 ], [ 22729.2, 5925172.049999999813735 ], [ 22729.2, 5925171.974999999627471 ], [ 22729.125, 5925171.974999999627471 ], [ 22729.125, 5925171.900000000372529 ], [ 22729.05, 5925171.900000000372529 ], [ 22729.05, 5925171.825000000186265 ], [ 22728.974999999998545, 5925171.825000000186265 ], [ 22728.974999999998545, 5925171.75 ], [ 22728.900000000001455, 5925171.75 ], [ 22728.900000000001455, 5925171.599999999627471 ], [ 22728.825, 5925171.599999999627471 ], [ 22728.825, 5925171.375 ], [ 22728.75, 5925171.375 ], [ 22728.75, 5925171.224999999627471 ], [ 22728.675, 5925171.224999999627471 ], [ 22728.675, 5925171.0 ], [ 22728.599999999998545, 5925171.0 ], [ 22728.599999999998545, 5925170.775000000372529 ], [ 22728.525000000001455, 5925170.775000000372529 ], [ 22728.525000000001455, 5925170.625 ], [ 22728.45, 5925170.625 ], [ 22728.45, 5925170.400000000372529 ], [ 22728.375, 5925170.400000000372529 ], [ 22728.375, 5925170.174999999813735 ], [ 22728.3, 5925170.174999999813735 ], [ 22728.3, 5925169.950000000186265 ], [ 22728.224999999998545, 5925169.950000000186265 ], [ 22728.224999999998545, 5925169.799999999813735 ], [ 22728.3, 5925169.799999999813735 ], [ 22728.3, 5925169.724999999627471 ], [ 22728.375, 5925169.724999999627471 ], [ 22728.375, 5925169.650000000372529 ], [ 22728.525000000001455, 5925169.650000000372529 ], [ 22728.525000000001455, 5925169.575000000186265 ], [ 22728.599999999998545, 5925169.575000000186265 ], [ 22728.599999999998545, 5925169.5 ], [ 22728.75, 5925169.5 ], [ 22728.75, 5925169.424999999813735 ], [ 22728.825, 5925169.424999999813735 ], [ 22728.825, 5925169.349999999627471 ], [ 22728.974999999998545, 5925169.349999999627471 ], [ 22728.974999999998545, 5925169.275000000372529 ], [ 22729.125, 5925169.275000000372529 ], [ 22729.125, 5925169.200000000186265 ], [ 22729.275000000001455, 5925169.200000000186265 ], [ 22729.275000000001455, 5925169.125 ], [ 22729.425, 5925169.125 ], [ 22729.425, 5925169.049999999813735 ], [ 22729.575, 5925169.049999999813735 ], [ 22729.575, 5925168.974999999627471 ], [ 22729.650000000001455, 5925168.974999999627471 ], [ 22729.650000000001455, 5925168.900000000372529 ], [ 22729.724999999998545, 5925168.900000000372529 ], [ 22729.724999999998545, 5925168.825000000186265 ], [ 22729.8, 5925168.825000000186265 ], [ 22729.8, 5925168.75 ], [ 22729.875, 5925168.75 ], [ 22729.875, 5925168.674999999813735 ], [ 22729.95, 5925168.674999999813735 ], [ 22729.95, 5925168.599999999627471 ], [ 22730.025000000001455, 5925168.599999999627471 ], [ 22730.025000000001455, 5925168.525000000372529 ], [ 22730.099999999998545, 5925168.525000000372529 ], [ 22730.099999999998545, 5925168.450000000186265 ], [ 22730.175, 5925168.450000000186265 ], [ 22730.175, 5925168.375 ], [ 22730.25, 5925168.375 ], [ 22730.25, 5925168.299999999813735 ], [ 22730.325, 5925168.299999999813735 ], [ 22730.325, 5925168.150000000372529 ], [ 22730.400000000001455, 5925168.150000000372529 ], [ 22730.400000000001455, 5925168.0 ], [ 22730.474999999998545, 5925168.0 ], [ 22730.474999999998545, 5925167.849999999627471 ], [ 22730.625, 5925167.849999999627471 ], [ 22730.625, 5925167.775000000372529 ], [ 22730.7, 5925167.775000000372529 ], [ 22730.7, 5925167.700000000186265 ], [ 22730.849999999998545, 5925167.700000000186265 ], [ 22730.849999999998545, 5925167.625 ], [ 22731.075, 5925167.625 ], [ 22731.075, 5925167.549999999813735 ], [ 22731.375, 5925167.549999999813735 ], [ 22731.375, 5925167.474999999627471 ], [ 22731.675, 5925167.474999999627471 ], [ 22731.675, 5925167.400000000372529 ], [ 22732.05, 5925167.400000000372529 ], [ 22732.05, 5925167.325000000186265 ], [ 22732.349999999998545, 5925167.325000000186265 ], [ 22732.349999999998545, 5925167.25 ], [ 22732.724999999998545, 5925167.25 ], [ 22732.724999999998545, 5925167.174999999813735 ], [ 22733.7, 5925167.174999999813735 ], [ 22733.7, 5925167.25 ], [ 22734.900000000001455, 5925167.25 ], [ 22734.900000000001455, 5925167.325000000186265 ], [ 22735.05, 5925167.325000000186265 ], [ 22735.05, 5925167.400000000372529 ], [ 22735.2, 5925167.400000000372529 ], [ 22735.2, 5925167.474999999627471 ], [ 22735.275000000001455, 5925167.474999999627471 ], [ 22735.275000000001455, 5925167.549999999813735 ], [ 22735.425, 5925167.549999999813735 ], [ 22735.425, 5925167.625 ], [ 22735.5, 5925167.625 ], [ 22735.5, 5925167.700000000186265 ], [ 22735.575, 5925167.700000000186265 ], [ 22735.575, 5925167.775000000372529 ], [ 22735.650000000001455, 5925167.775000000372529 ], [ 22735.650000000001455, 5925167.849999999627471 ], [ 22735.724999999998545, 5925167.849999999627471 ], [ 22735.724999999998545, 5925167.924999999813735 ], [ 22735.8, 5925167.924999999813735 ], [ 22735.8, 5925168.075000000186265 ], [ 22735.875, 5925168.075000000186265 ], [ 22735.875, 5925168.150000000372529 ], [ 22735.95, 5925168.150000000372529 ], [ 22735.95, 5925168.299999999813735 ], [ 22736.025000000001455, 5925168.299999999813735 ], [ 22736.025000000001455, 5925168.375 ], [ 22736.099999999998545, 5925168.375 ], [ 22736.099999999998545, 5925168.450000000186265 ], [ 22736.175, 5925168.450000000186265 ], [ 22736.175, 5925168.599999999627471 ], [ 22736.325, 5925168.599999999627471 ], [ 22736.325, 5925168.674999999813735 ], [ 22736.400000000001455, 5925168.674999999813735 ], [ 22736.400000000001455, 5925168.75 ], [ 22736.474999999998545, 5925168.75 ], [ 22736.474999999998545, 5925168.825000000186265 ], [ 22736.625, 5925168.825000000186265 ], [ 22736.625, 5925168.900000000372529 ], [ 22736.7, 5925168.900000000372529 ], [ 22736.7, 5925168.974999999627471 ], [ 22736.775000000001455, 5925168.974999999627471 ], [ 22736.775000000001455, 5925169.049999999813735 ], [ 22736.849999999998545, 5925169.049999999813735 ], [ 22736.849999999998545, 5925169.125 ], [ 22736.925, 5925169.125 ], [ 22736.925, 5925169.200000000186265 ], [ 22737.0, 5925169.200000000186265 ], [ 22737.0, 5925169.275000000372529 ], [ 22737.075, 5925169.275000000372529 ], [ 22737.075, 5925169.349999999627471 ], [ 22737.150000000001455, 5925169.349999999627471 ], [ 22737.150000000001455, 5925169.424999999813735 ], [ 22737.224999999998545, 5925169.424999999813735 ], [ 22737.224999999998545, 5925169.575000000186265 ], [ 22737.3, 5925169.575000000186265 ], [ 22737.3, 5925169.650000000372529 ], [ 22737.375, 5925169.650000000372529 ], [ 22737.375, 5925169.799999999813735 ], [ 22737.45, 5925169.799999999813735 ], [ 22737.45, 5925169.950000000186265 ], [ 22737.375, 5925169.950000000186265 ], [ 22737.375, 5925170.174999999813735 ], [ 22737.3, 5925170.174999999813735 ], [ 22737.3, 5925170.400000000372529 ], [ 22737.224999999998545, 5925170.400000000372529 ], [ 22737.224999999998545, 5925170.549999999813735 ], [ 22737.150000000001455, 5925170.549999999813735 ], [ 22737.150000000001455, 5925170.775000000372529 ], [ 22737.075, 5925170.775000000372529 ], [ 22737.075, 5925170.924999999813735 ], [ 22737.0, 5925170.924999999813735 ], [ 22737.0, 5925171.075000000186265 ], [ 22736.925, 5925171.075000000186265 ], [ 22736.925, 5925171.224999999627471 ], [ 22736.849999999998545, 5925171.224999999627471 ], [ 22736.849999999998545, 5925171.375 ], [ 22736.775000000001455, 5925171.375 ], [ 22736.775000000001455, 5925171.525000000372529 ], [ 22736.7, 5925171.525000000372529 ], [ 22736.7, 5925171.599999999627471 ], [ 22736.625, 5925171.599999999627471 ], [ 22736.625, 5925171.674999999813735 ], [ 22736.55, 5925171.674999999813735 ], [ 22736.55, 5925171.75 ], [ 22736.474999999998545, 5925171.75 ], [ 22736.474999999998545, 5925171.825000000186265 ], [ 22736.400000000001455, 5925171.825000000186265 ], [ 22736.400000000001455, 5925171.900000000372529 ], [ 22736.325, 5925171.900000000372529 ], [ 22736.325, 5925171.974999999627471 ], [ 22736.25, 5925171.974999999627471 ], [ 22736.25, 5925172.049999999813735 ], [ 22736.175, 5925172.049999999813735 ], [ 22736.175, 5925172.125 ], [ 22736.099999999998545, 5925172.125 ], [ 22736.099999999998545, 5925172.200000000186265 ], [ 22736.025000000001455, 5925172.200000000186265 ], [ 22736.025000000001455, 5925172.275000000372529 ], [ 22735.95, 5925172.275000000372529 ], [ 22735.95, 5925172.349999999627471 ], [ 22735.875, 5925172.349999999627471 ], [ 22735.875, 5925172.424999999813735 ], [ 22735.8, 5925172.424999999813735 ], [ 22735.8, 5925172.575000000186265 ], [ 22735.724999999998545, 5925172.575000000186265 ], [ 22735.724999999998545, 5925172.650000000372529 ], [ 22735.650000000001455, 5925172.650000000372529 ], [ 22735.650000000001455, 5925172.724999999627471 ], [ 22735.575, 5925172.724999999627471 ], [ 22735.575, 5925172.799999999813735 ], [ 22735.5, 5925172.799999999813735 ], [ 22735.5, 5925172.950000000186265 ], [ 22735.425, 5925172.950000000186265 ], [ 22735.425, 5925173.025000000372529 ], [ 22735.349999999998545, 5925173.025000000372529 ], [ 22735.349999999998545, 5925173.174999999813735 ], [ 22735.275000000001455, 5925173.174999999813735 ], [ 22735.275000000001455, 5925173.25 ], [ 22735.2, 5925173.25 ], [ 22735.2, 5925173.400000000372529 ], [ 22735.125, 5925173.400000000372529 ], [ 22735.125, 5925173.474999999627471 ], [ 22735.05, 5925173.474999999627471 ], [ 22735.05, 5925173.625 ], [ 22734.974999999998545, 5925173.625 ], [ 22734.974999999998545, 5925173.775000000372529 ], [ 22734.825, 5925173.775000000372529 ], [ 22734.825, 5925173.849999999627471 ], [ 22734.75, 5925173.849999999627471 ], [ 22734.75, 5925173.924999999813735 ], [ 22734.375, 5925173.924999999813735 ], [ 22734.375, 5925174.0 ], [ 22733.925, 5925174.0 ], [ 22733.925, 5925174.075000000186265 ], [ 22733.55, 5925174.075000000186265 ], [ 22733.55, 5925174.150000000372529 ], [ 22733.099999999998545, 5925174.150000000372529 ], [ 22733.099999999998545, 5925174.224999999627471 ], [ 22732.5, 5925174.224999999627471 ] ] ] } }
]
}
