{
"type": "FeatureCollection",
"name": "22683E593457N_buildings",
"crs": { "type": "name", "properties": { "name": "urn:ogc:def:crs:EPSG::3776" } },
"features": [
{ "type": "Feature", "properties": { "value": 1.0, "building_id": 0, "area": 855.78750000062109 }, "geometry": { "type": "Polygon", "coordinates": [ [ [ 23312.625, 5935329.0 ], [ 23312.625, 5935325.849999999627471 ], [ 23312.55, 5935325.849999999627471 ], [ 23312.55, 5935325.625 ], [ 23312.474999999998545, 5935325.625 ], [ 23312.474999999998545, 5935325.400000000372529 ], [ 23312.400000000001455, 5935325.400000000372529 ], [ 23312.400000000001455, 5935325.174999999813735 ], [ 23312.325, 5935325.174999999813735 ], [ 23312.325, 5935324.950000000186265 ], [ 23312.25, 5935324.950000000186265 ], [ 23312.25, 5935324.650000000372529 ], [ 23312.175, 5935324.650000000372529 ], [ 23312.175, 5935324.349999999627471 ], [ 23312.099999999998545, 5935324.349999999627471 ], [ 23312.099999999998545, 5935324.049999999813735 ], [ 23312.025000000001455, 5935324.049999999813735 ], [ 23312.025000000001455, 5935323.900000000372529 ], [ 23311.95, 5935323.900000000372529 ], [ 23311.95, 5935323.75 ], [ 23311.875, 5935323.75 ], [ 23311.875, 5935323.599999999627471 ], [ 23311.8, 5935323.599999999627471 ], [ 23311.8, 5935323.450000000186265 ], [ 23311.724999999998545, 5935323.450000000186265 ], [ 23311.724999999998545, 5935323.299999999813735 ], [ 23311.650000000001455, 5935323.299999999813735 ], [ 23311.650000000001455, 5935323.150000000372529 ], [ 23311.575, 5935323.150000000372529 ], [ 23311.575, 5935323.0 ], [ 23311.5, 5935323.0 ], [ 23311.5, 5935322.849999999627471 ], [ 23311.425, 5935322.849999999627471 ], [ 23311.425, 5935322.700000000186265 ], [ 23311.349999999998545, 5935322.700000000186265 ], [ 23311.349999999998545, 5935322.625 ], [ 23311.275000000001455, 5935322.625 ], [ 23311.275000000001455, 5935322.474999999627471 ], [ 23311.2, 5935322.474999999627471 ], [ 23311.2, 5935322.325000000186265 ], [ 23311.125, 5935322.325000000186265 ], [ 23311.125, 5935322.25 ], [ 23311.05, 5935322.25 ], [ 23311.05, 5935322.099999999627471 ], [ 23310.974999999998545, 5935322.099999999627471 ], [ 23310.974999999998545, 5935322.025000000372529 ], [ 23310.900000000001455, 5935322.025000000372529 ], [ 23310.900000000001455, 5935321.950000000186265 ], [ 23310.825, 5935321.950000000186265 ], [ 23310.825, 5935321.875 ], [ 23310.75, 5935321.875 ], [ 23310.75, 5935321.799999999813735 ], [ 23310.675, 5935321.799999999813735 ], [ 23310.675, 5935321.724999999627471 ], [ 23310.599999999998545, 5935321.724999999627471 ], [ 23310.599999999998545, 5935321.575000000186265 ], [ 23310.525000000001455, 5935321.575000000186265 ], [ 23310.525000000001455, 5935321.5 ], [ 23310.45, 5935321.5 ], [ 23310.45, 5935321.349999999627471 ], [ 23310.375, 5935321.349999999627471 ], [ 23310.375, 5935321.200000000186265 ], [ 23310.3, 5935321.200000000186265 ], [ 23310.3, 5935321.125 ], [ 23310.224999999998545, 5935321.125 ], [ 23310.224999999998545, 5935320.974999999627471 ], [ 23310.150000000001455, 5935320.974999999627471 ], [ 23310.150000000001455, 5935320.75 ], [ 23310.075, 5935320.75 ], [ 23310.075, 5935320.599999999627471 ], [ 23310.0, 5935320.599999999627471 ], [ 23310.0, 5935320.375 ], [ 23309.925, 5935320.375 ], [ 23309.925, 5935320.150000000372529 ], [ 23309.849999999998545, 5935320.150000000372529 ], [ 23309.849999999998545, 5935319.775000000372529 ], [ 23309.775000000001455, 5935319.775000000372529 ], [ 23309.775000000001455, 5935319.400000000372529 ], [ 23309.7, 5935319.400000000372529 ], [ 23309.7, 5935319.025000000372529 ], [ 23309.625, 5935319.025000000372529 ], [ 23309.625, 5935318.575000000186265 ], [ 23309.55, 5935318.575000000186265 ], [ 23309.55, 5935317.450000000186265 ], [ 23309.474999999998545, 5935317.450000000186265 ], [ 23309.474999999998545, 5935316.174999999813735 ], [ 23309.55, 5935316.174999999813735 ], [ 23309.55, 5935315.799999999813735 ], [ 23309.625, 5935315.799999999813735 ], [ 23309.625, 5935315.349999999627471 ], [ 23309.7, 5935315.349999999627471 ], [ 23309.7, 5935314.900000000372529 ], [ 23309.775000000001455, 5935314.900000000372529 ], [ 23309.775000000001455, 5935314.450000000186265 ], [ 23309.849999999998545, 5935314.450000000186265 ], [ 23309.849999999998545, 5935314.224999999627471 ], [ 23309.925, 5935314.224999999627471 ], [ 23309.925, 5935314.0 ], [ 23310.0, 5935314.0 ], [ 23310.0, 5935313.775000000372529 ], [ 23310.075, 5935313.775000000372529 ], [ 23310.075, 5935313.625 ], [ 23310.150000000001455, 5935313.625 ], [ 23310.150000000001455, 5935313.474999999627471 ], [ 23310.224999999998545, 5935313.474999999627471 ], [ 23310.224999999998545, 5935313.325000000186265 ], [ 23310.3, 5935313.325000000186265 ], [ 23310.3, 5935313.25 ], [ 23310.375, 5935313.25 ], [ 23310.375, 5935313.099999999627471 ], [ 23310.45, 5935313.099999999627471 ], [ 23310.45, 5935313.025000000372529 ], [ 23310.525000000001455, 5935313.025000000372529 ], [ 23310.525000000001455, 5935312.875 ], [ 23310.599999999998545, 5935312.875 ], [ 23310.599999999998545, 5935312.799999999813735 ], [ 23310.675, 5935312.799999999813735 ], [ 23310.675, 5935312.724999999627471 ], [ 23310.75, 5935312.724999999627471 ], [ 23310.75, 5935312.650000000372529 ], [ 23310.825, 5935312.650000000372529 ], [ 23310.825, 5935312.575000000186265 ], [ 23310.900000000001455, 5935312.575000000186265 ], [ 23310.900000000001455, 5935312.5 ], [ 23310.974999999998545, 5935312.5 ], [ 23310.974999999998545, 5935312.424999999813735 ], [ 23311.05, 5935312.424999999813735 ], [ 23311.05, 5935312.349999999627471 ], [ 23311.125, 5935312.349999999627471 ], [ 23311.125, 5935312.200000000186265 ], [ 23311.2, 5935312.200000000186265 ], [ 23311.2, 5935312.125 ], [ 23311.275000000001455, 5935312.125 ], [ 23311.275000000001455, 5935312.049999999813735 ], [ 23311.349999999998545, 5935312.049999999813735 ], [ 23311.349999999998545, 5935311.900000000372529 ], [ 23311.425, 5935311.900000000372529 ], [ 23311.425, 5935311.825000000186265 ], [ 23311.5, 5935311.825000000186265 ], [ 23311.5, 5935311.75 ], [ 23311.575, 5935311.75 ], [ 23311.575, 5935311.674999999813735 ], [ 23311.650000000001455, 5935311.674999999813735 ], [ 23311.650000000001455, 5935311.525000000372529 ], [ 23311.724999999998545, 5935311.525000000372529 ], [ 23311.724999999998545, 5935311.450000000186265 ], [ 23311.8, 5935311.450000000186265 ], [ 23311.8, 5935311.375 ], [ 23311.875, 5935311.375 ], [ 23311.875, 5935311.299999999813735 ], [ 23311.95, 5935311.299999999813735 ], [ 23311.95, 5935311.224999999627471 ], [ 23312.025000000001455, 5935311.224999999627471 ], [ 23312.025000000001455, 5935311.150000000372529 ], [ 23312.099999999998545, 5935311.150000000372529 ], [ 23312.099999999998545, 5935311.0 ], [ 23312.175, 5935311.0 ], [ 23312.175, 5935310.924999999813735 ], [ 23312.25, 5935310.924999999813735 ], [ 23312.25, 5935310.849999999627471 ], [ 23312.325, 5935310.849999999627471 ], [ 23312.325, 5935310.775000000372529 ], [ 23312.400000000001455, 5935310.775000000372529 ], [ 23312.400000000001455, 5935310.700000000186265 ], [ 23312.474999999998545, 5935310.700000000186265 ], [ 23312.474999999998545, 5935310.625 ], [ 23312.55, 5935310.625 ], [ 23312.55, 5935310.549999999813735 ], [ 23312.625, 5935310.549999999813735 ], [ 23312.625, 5935310.400000000372529 ], [ 23312.7, 5935310.400000000372529 ], [ 23312.7, 5935310.325000000186265 ], [ 23312.775000000001455, 5935310.325000000186265 ], [ 23312.775000000001455, 5935310.174999999813735 ], [ 23312.849999999998545, 5935310.174999999813735 ], [ 23312.849999999998545, 5935310.099999999627471 ], [ 23312.925, 5935310.099999999627471 ], [ 23312.925, 5935310.025000000372529 ], [ 23313.0, 5935310.025000000372529 ], [ 23313.0, 5935309.950000000186265 ], [ 23313.075, 5935309.950000000186265 ], [ 23313.075, 5935309.875 ], [ 23313.150000000001455, 5935309.875 ], [ 23313.150000000001455, 5935309.799999999813735 ], [ 23313.224999999998545, 5935309.799999999813735 ], [ 23313.224999999998545, 5935309.724999999627471 ], [ 23313.3, 5935309.724999999627471 ], [ 23313.3, 5935309.575000000186265 ], [ 23313.375, 5935309.575000000186265 ], [ 23313.375, 5935309.5 ], [ 23313.45, 5935309.5 ], [ 23313.45, 5935309.349999999627471 ], [ 23313.525000000001455, 5935309.349999999627471 ], [ 23313.525000000001455, 5935309.275000000372529 ], [ 23313.599999999998545, 5935309.275000000372529 ], [ 23313.599999999998545, 5935309.125 ], [ 23313.675, 5935309.125 ], [ 23313.675, 5935309.049999999813735 ], [ 23313.75, 5935309.049999999813735 ], [ 23313.75, 5935308.900000000372529 ], [ 23313.825, 5935308.900000000372529 ], [ 23313.825, 5935308.75 ], [ 23313.900000000001455, 5935308.75 ], [ 23313.900000000001455, 5935308.599999999627471 ], [ 23313.974999999998545, 5935308.599999999627471 ], [ 23313.974999999998545, 5935308.299999999813735 ], [ 23313.900000000001455, 5935308.299999999813735 ], [ 23313.900000000001455, 5935307.775000000372529 ], [ 23313.825, 5935307.775000000372529 ], [ 23313.825, 5935307.25 ], [ 23313.75, 5935307.25 ], [ 23313.75, 5935306.5 ], [ 23313.675, 5935306.5 ], [ 23313.675, 5935305.825000000186265 ], [ 23313.599999999998545, 5935305.825000000186265 ], [ 23313.599999999998545, 5935305.0 ], [ 23313.525000000001455, 5935305.0 ], [ 23313.525000000001455, 5935304.025000000372529 ], [ 23313.45, 5935304.025000000372529 ], [ 23313.45, 5935303.049999999813735 ], [ 23313.525000000001455, 5935303.049999999813735 ], [ 23313.525000000001455, 5935302.599999999627471 ], [ 23313.599999999998545, 5935302.599999999627471 ], [ 23313.599999999998545, 5935302.224999999627471 ], [ 23313.675, 5935302.224999999627471 ], [ 23313.675, 5935301.849999999627471 ], [ 23313.75, 5935301.849999999627471 ], [ 23313.75, 5935301.474999999627471 ], [ 23313.825, 5935301.474999999627471 ], [ 23313.825, 5935301.025000000372529 ], [ 23313.900000000001455, 5935301.025000000372529 ], [ 23313.900000000001455, 5935300.650000000372529 ], [ 23313.974999999998545, 5935300.650000000372529 ], [ 23313.974999999998545, 5935300.349999999627471 ], [ 23314.05, 5935300.349999999627471 ], [ 23314.05, 5935300.125 ], [ 23314.125, 5935300.125 ], [ 23314.125, 5935299.900000000372529 ], [ 23314.2, 5935299.900000000372529 ], [ 23314.2, 5935299.674999999813735 ], [ 23314.275000000001455, 5935299.674999999813735 ], [ 23314.275000000001455, 5935299.525000000372529 ], [ 23314.349999999998545, 5935299.525000000372529 ], [ 23314.349999999998545, 5935299.375 ], [ 23314.425, 5935299.375 ], [ 23314.425, 5935299.224999999627471 ], [ 23314.5, 5935299.224999999627471 ], [ 23314.5, 5935299.075000000186265 ], [ 23314.575, 5935299.075000000186265 ], [ 23314.575, 5935298.924999999813735 ], [ 23314.650000000001455, 5935298.924999999813735 ], [ 23314.650000000001455, 5935298.775000000372529 ], [ 23314.724999999998545, 5935298.775000000372529 ], [ 23314.724999999998545, 5935298.625 ], [ 23314.8, 5935298.625 ], [ 23314.8, 5935298.474999999627471 ], [ 23314.875, 5935298.474999999627471 ], [ 23314.875, 5935298.325000000186265 ], [ 23314.95, 5935298.325000000186265 ], [ 23314.95, 5935298.099999999627471 ], [ 23315.025000000001455, 5935298.099999999627471 ], [ 23315.025000000001455, 5935297.875 ], [ 23315.099999999998545, 5935297.875 ], [ 23315.099999999998545, 5935297.724999999627471 ], [ 23315.175, 5935297.724999999627471 ], [ 23315.175, 5935297.424999999813735 ], [ 23315.25, 5935297.424999999813735 ], [ 23315.25, 5935297.200000000186265 ], [ 23315.325, 5935297.200000000186265 ], [ 23315.325, 5935296.900000000372529 ], [ 23315.400000000001455, 5935296.900000000372529 ], [ 23315.400000000001455, 5935296.525000000372529 ], [ 23315.474999999998545, 5935296.525000000372529 ], [ 23315.474999999998545, 5935296.075000000186265 ], [ 23315.55, 5935296.075000000186265 ], [ 23315.55, 5935295.625 ], [ 23315.625, 5935295.625 ], [ 23315.625, 5935295.25 ], [ 23315.7, 5935295.25 ], [ 23315.7, 5935294.799999999813735 ], [ 23315.775000000001455, 5935294.799999999813735 ], [ 23315.775000000001455, 5935294.5 ], [ 23315.849999999998545, 5935294.5 ], [ 23315.849999999998545, 5935294.275000000372529 ], [ 23315.925, 5935294.275000000372529 ], [ 23315.925, 5935294.049999999813735 ], [ 23316.0, 5935294.049999999813735 ], [ 23316.0, 5935293.825000000186265 ], [ 23316.075, 5935293.825000000186265 ], [ 23316.075, 5935293.599999999627471 ], [ 23316.150000000001455, 5935293.599999999627471 ], [ 23316.150000000001455, 5935293.450000000186265 ], [ 23316.224999999998545, 5935293.450000000186265 ], [ 23316.224999999998545, 5935293.299999999813735 ], [ 23316.3, 5935293.299999999813735 ], [ 23316.3, 5935293.150000000372529 ], [ 23316.375, 5935293.150000000372529 ], [ 23316.375, 5935293.0 ], [ 23316.45, 5935293.0 ], [ 23316.45, 5935292.849999999627471 ], [ 23316.525000000001455, 5935292.849999999627471 ], [ 23316.525000000001455, 5935292.700000000186265 ], [ 23316.599999999998545, 5935292.700000000186265 ], [ 23316.599999999998545, 5935292.474999999627471 ], [ 23316.675, 5935292.474999999627471 ], [ 23316.675, 5935292.325000000186265 ], [ 23316.75, 5935292.325000000186265 ], [ 23316.75, 5935292.174999999813735 ], [ 23316.825, 5935292.174999999813735 ], [ 23316.825, 5935291.950000000186265 ], [ 23316.900000000001455, 5935291.950000000186265 ], [ 23316.900000000001455, 5935291.799999999813735 ], [ 23316.974999999998545, 5935291.799999999813735 ], [ 23316.974999999998545, 5935291.575000000186265 ], [ 23317.05, 5935291.575000000186265 ], [ 23317.05, 5935291.349999999627471 ], [ 23317.125, 5935291.349999999627471 ], [ 23317.125, 5935291.125 ], [ 23317.2, 5935291.125 ], [ 23317.2, 5935290.825000000186265 ], [ 23317.275000000001455, 5935290.825000000186265 ], [ 23317.275000000001455, 5935290.599999999627471 ], [ 23317.349999999998545, 5935290.599999999627471 ], [ 23317.349999999998545, 5935290.375 ], [ 23317.425, 5935290.375 ], [ 23317.425, 5935290.150000000372529 ], [ 23317.5, 5935290.150000000372529 ], [ 23317.5, 5935290.0 ], [ 23317.575, 5935290.0 ], [ 23317.575, 5935289.849999999627471 ], [ 23317.650000000001455, 5935289.849999999627471 ], [ 23317.650000000001455, 5935289.700000000186265 ], [ 23317.724999999998545, 5935289.700000000186265 ], [ 23317.724999999998545, 5935289.625 ], [ 23317.8, 5935289.625 ], [ 23317.8, 5935289.474999999627471 ], [ 23317.875, 5935289.474999999627471 ], [ 23317.875, 5935289.400000000372529 ], [ 23317.95, 5935289.400000000372529 ], [ 23317.95, 5935289.325000000186265 ], [ 23318.025000000001455, 5935289.325000000186265 ], [ 23318.025000000001455, 5935289.25 ], [ 23318.099999999998545, 5935289.25 ], [ 23318.099999999998545, 5935289.174999999813735 ], [ 23318.175, 5935289.174999999813735 ], [ 23318.175, 5935289.099999999627471 ], [ 23319.0, 5935289.099999999627471 ], [ 23319.0, 5935289.025000000372529 ], [ 23319.974999999998545, 5935289.025000000372529 ], [ 23319.974999999998545, 5935288.950000000186265 ], [ 23320.875, 5935288.950000000186265 ], [ 23320.875, 5935289.025000000372529 ], [ 23321.175, 5935289.025000000372529 ], [ 23321.175, 5935289.099999999627471 ], [ 23321.474999999998545, 5935289.099999999627471 ], [ 23321.474999999998545, 5935289.174999999813735 ], [ 23321.849999999998545, 5935289.174999999813735 ], [ 23321.849999999998545, 5935289.25 ], [ 23322.150000000001455, 5935289.25 ], [ 23322.150000000001455, 5935289.325000000186265 ], [ 23322.599999999998545, 5935289.325000000186265 ], [ 23322.599999999998545, 5935289.400000000372529 ], [ 23323.05, 5935289.400000000372529 ], [ 23323.05, 5935289.474999999627471 ], [ 23323.575, 5935289.474999999627471 ], [ 23323.575, 5935289.549999999813735 ], [ 23324.099999999998545, 5935289.549999999813735 ], [ 23324.099999999998545, 5935289.625 ], [ 23324.7, 5935289.625 ], [ 23324.7, 5935289.700000000186265 ], [ 23325.525000000001455, 5935289.700000000186265 ], [ 23325.525000000001455, 5935289.775000000372529 ], [ 23326.349999999998545, 5935289.775000000372529 ], [ 23326.349999999998545, 5935289.849999999627471 ], [ 23328.599999999998545, 5935289.849999999627471 ], [ 23328.599999999998545, 5935289.924999999813735 ], [ 23329.2, 5935289.924999999813735 ], [ 23329.2, 5935290.0 ], [ 23329.5, 5935290.0 ], [ 23329.5, 5935290.075000000186265 ], [ 23329.575, 5935290.075000000186265 ], [ 23329.575, 5935290.224999999627471 ], [ 23329.650000000001455, 5935290.224999999627471 ], [ 23329.650000000001455, 5935290.299999999813735 ], [ 23329.724999999998545, 5935290.299999999813735 ], [ 23329.724999999998545, 5935290.450000000186265 ], [ 23329.8, 5935290.450000000186265 ], [ 23329.8, 5935290.599999999627471 ], [ 23329.875, 5935290.599999999627471 ], [ 23329.875, 5935290.75 ], [ 23329.95, 5935290.75 ], [ 23329.95, 5935290.900000000372529 ], [ 23330.025000000001455, 5935290.900000000372529 ], [ 23330.025000000001455, 5935290.974999999627471 ], [ 23330.099999999998545, 5935290.974999999627471 ], [ 23330.099999999998545, 5935291.049999999813735 ], [ 23330.175, 5935291.049999999813735 ], [ 23330.175, 5935291.125 ], [ 23330.25, 5935291.125 ], [ 23330.25, 5935291.200000000186265 ], [ 23330.325, 5935291.200000000186265 ], [ 23330.325, 5935291.275000000372529 ], [ 23330.400000000001455, 5935291.275000000372529 ], [ 23330.400000000001455, 5935291.349999999627471 ], [ 23330.474999999998545, 5935291.349999999627471 ], [ 23330.474999999998545, 5935291.424999999813735 ], [ 23330.55, 5935291.424999999813735 ], [ 23330.55, 5935291.5 ], [ 23330.7, 5935291.5 ], [ 23330.7, 5935291.575000000186265 ], [ 23330.775000000001455, 5935291.575000000186265 ], [ 23330.775000000001455, 5935291.650000000372529 ], [ 23330.849999999998545, 5935291.650000000372529 ], [ 23330.849999999998545, 5935291.724999999627471 ], [ 23330.925, 5935291.724999999627471 ], [ 23330.925, 5935291.799999999813735 ], [ 23331.0, 5935291.799999999813735 ], [ 23331.0, 5935291.875 ], [ 23331.075, 5935291.875 ], [ 23331.075, 5935292.025000000372529 ], [ 23331.150000000001455, 5935292.025000000372529 ], [ 23331.150000000001455, 5935292.099999999627471 ], [ 23331.224999999998545, 5935292.099999999627471 ], [ 23331.224999999998545, 5935292.25 ], [ 23331.3, 5935292.25 ], [ 23331.3, 5935292.325000000186265 ], [ 23331.375, 5935292.325000000186265 ], [ 23331.375, 5935292.474999999627471 ], [ 23331.45, 5935292.474999999627471 ], [ 23331.45, 5935292.625 ], [ 23331.525000000001455, 5935292.625 ], [ 23331.525000000001455, 5935292.775000000372529 ], [ 23331.599999999998545, 5935292.775000000372529 ], [ 23331.599999999998545, 5935292.924999999813735 ], [ 23331.675, 5935292.924999999813735 ], [ 23331.675, 5935293.075000000186265 ], [ 23331.75, 5935293.075000000186265 ], [ 23331.75, 5935293.224999999627471 ], [ 23331.825, 5935293.224999999627471 ], [ 23331.825, 5935293.299999999813735 ], [ 23331.900000000001455, 5935293.299999999813735 ], [ 23331.900000000001455, 5935293.450000000186265 ], [ 23331.974999999998545, 5935293.450000000186265 ], [ 23331.974999999998545, 5935293.525000000372529 ], [ 23332.05, 5935293.525000000372529 ], [ 23332.05, 5935293.599999999627471 ], [ 23332.125, 5935293.599999999627471 ], [ 23332.125, 5935293.75 ], [ 23332.2, 5935293.75 ], [ 23332.2, 5935293.825000000186265 ], [ 23332.275000000001455, 5935293.825000000186265 ], [ 23332.275000000001455, 5935293.900000000372529 ], [ 23332.349999999998545, 5935293.900000000372529 ], [ 23332.349999999998545, 5935293.974999999627471 ], [ 23332.425, 5935293.974999999627471 ], [ 23332.425, 5935294.049999999813735 ], [ 23332.5, 5935294.049999999813735 ], [ 23332.5, 5935294.125 ], [ 23332.575, 5935294.125 ], [ 23332.575, 5935294.200000000186265 ], [ 23332.650000000001455, 5935294.200000000186265 ], [ 23332.650000000001455, 5935294.349999999627471 ], [ 23332.724999999998545, 5935294.349999999627471 ], [ 23332.724999999998545, 5935294.424999999813735 ], [ 23332.8, 5935294.424999999813735 ], [ 23332.8, 5935294.575000000186265 ], [ 23332.875, 5935294.575000000186265 ], [ 23332.875, 5935294.650000000372529 ], [ 23332.95, 5935294.650000000372529 ], [ 23332.95, 5935294.799999999813735 ], [ 23333.025000000001455, 5935294.799999999813735 ], [ 23333.025000000001455, 5935295.025000000372529 ], [ 23333.099999999998545, 5935295.025000000372529 ], [ 23333.099999999998545, 5935295.325000000186265 ], [ 23333.175, 5935295.325000000186265 ], [ 23333.175, 5935295.549999999813735 ], [ 23333.25, 5935295.549999999813735 ], [ 23333.25, 5935295.849999999627471 ], [ 23333.325, 5935295.849999999627471 ], [ 23333.325, 5935296.150000000372529 ], [ 23333.400000000001455, 5935296.150000000372529 ], [ 23333.400000000001455, 5935296.450000000186265 ], [ 23333.474999999998545, 5935296.450000000186265 ], [ 23333.474999999998545, 5935296.75 ], [ 23333.55, 5935296.75 ], [ 23333.55, 5935297.125 ], [ 23333.625, 5935297.125 ], [ 23333.625, 5935297.349999999627471 ], [ 23333.7, 5935297.349999999627471 ], [ 23333.7, 5935297.650000000372529 ], [ 23333.775000000001455, 5935297.650000000372529 ], [ 23333.775000000001455, 5935297.875 ], [ 23333.849999999998545, 5935297.875 ], [ 23333.849999999998545, 5935298.099999999627471 ], [ 23333.925, 5935298.099999999627471 ], [ 23333.925, 5935298.325000000186265 ], [ 23334.0, 5935298.325000000186265 ], [ 23334.0, 5935298.549999999813735 ], [ 23334.075, 5935298.549999999813735 ], [ 23334.075, 5935298.700000000186265 ], [ 23334.150000000001455, 5935298.700000000186265 ], [ 23334.150000000001455, 5935298.849999999627471 ], [ 23334.224999999998545, 5935298.849999999627471 ], [ 23334.224999999998545, 5935299.0 ], [ 23334.3, 5935299.0 ], [ 23334.3, 5935299.150000000372529 ], [ 23334.375, 5935299.150000000372529 ], [ 23334.375, 5935299.299999999813735 ], [ 23334.45, 5935299.299999999813735 ], [ 23334.45, 5935299.450000000186265 ], [ 23334.525000000001455, 5935299.450000000186265 ], [ 23334.525000000001455, 5935299.525000000372529 ], [ 23334.599999999998545, 5935299.525000000372529 ], [ 23334.599999999998545, 5935299.674999999813735 ], [ 23334.675, 5935299.674999999813735 ], [ 23334.675, 5935299.825000000186265 ], [ 23334.75, 5935299.825000000186265 ], [ 23334.75, 5935300.049999999813735 ], [ 23334.825, 5935300.049999999813735 ], [ 23334.825, 5935300.200000000186265 ], [ 23334.900000000001455, 5935300.200000000186265 ], [ 23334.900000000001455, 5935300.424999999813735 ], [ 23334.974999999998545, 5935300.424999999813735 ], [ 23334.974999999998545, 5935300.650000000372529 ], [ 23335.05, 5935300.650000000372529 ], [ 23335.05, 5935300.875 ], [ 23335.125, 5935300.875 ], [ 23335.125, 5935301.174999999813735 ], [ 23335.2, 5935301.174999999813735 ], [ 23335.2, 5935301.474999999627471 ], [ 23335.275000000001455, 5935301.474999999627471 ], [ 23335.275000000001455, 5935301.775000000372529 ], [ 23335.349999999998545, 5935301.775000000372529 ], [ 23335.349999999998545, 5935302.075000000186265 ], [ 23335.425, 5935302.075000000186265 ], [ 23335.425, 5935302.375 ], [ 23335.5, 5935302.375 ], [ 23335.5, 5935302.674999999813735 ], [ 23335.575, 5935302.674999999813735 ], [ 23335.575, 5935302.974999999627471 ], [ 23335.650000000001455, 5935302.974999999627471 ], [ 23335.650000000001455, 5935303.200000000186265 ], [ 23335.724999999998545, 5935303.200000000186265 ], [ 23335.724999999998545, 5935303.5 ], [ 23335.8, 5935303.5 ], [ 23335.8, 5935303.724999999627471 ], [ 23335.875, 5935303.724999999627471 ], [ 23335.875, 5935303.950000000186265 ], [ 23335.95, 5935303.950000000186265 ], [ 23335.95, 5935304.174999999813735 ], [ 23336.025000000001455, 5935304.174999999813735 ], [ 23336.025000000001455, 5935304.400000000372529 ], [ 23336.099999999998545, 5935304.400000000372529 ], [ 23336.099999999998545, 5935307.25 ], [ 23336.175, 5935307.25 ], [ 23336.175, 5935308.525000000372529 ], [ 23336.25, 5935308.525000000372529 ], [ 23336.25, 5935309.200000000186265 ], [ 23336.325, 5935309.200000000186265 ], [ 23336.325, 5935309.724999999627471 ], [ 23336.400000000001455, 5935309.724999999627471 ], [ 23336.400000000001455, 5935310.174999999813735 ], [ 23336.474999999998545, 5935310.174999999813735 ], [ 23336.474999999998545, 5935310.849999999627471 ], [ 23336.55, 5935310.849999999627471 ], [ 23336.55, 5935311.674999999813735 ], [ 23336.625, 5935311.674999999813735 ], [ 23336.625, 5935312.575000000186265 ], [ 23336.7, 5935312.575000000186265 ], [ 23336.7, 5935313.474999999627471 ], [ 23336.775000000001455, 5935313.474999999627471 ], [ 23336.775000000001455, 5935314.525000000372529 ], [ 23336.849999999998545, 5935314.525000000372529 ], [ 23336.849999999998545, 5935315.724999999627471 ], [ 23336.925, 5935315.724999999627471 ], [ 23336.925, 5935316.474999999627471 ], [ 23336.849999999998545, 5935316.474999999627471 ], [ 23336.849999999998545, 5935316.775000000372529 ], [ 23336.775000000001455, 5935316.775000000372529 ], [ 23336.775000000001455, 5935317.075000000186265 ], [ 23336.7, 5935317.075000000186265 ], [ 23336.7, 5935317.299999999813735 ], [ 23336.625, 5935317.299999999813735 ], [ 23336.625, 5935317.599999999627471 ], [ 23336.55, 5935317.599999999627471 ], [ 23336.55, 5935317.825000000186265 ], [ 23336.474999999998545, 5935317.825000000186265 ], [ 23336.474999999998545, 5935318.049999999813735 ], [ 23336.400000000001455, 5935318.049999999813735 ], [ 23336.400000000001455, 5935318.275000000372529 ], [ 23336.325, 5935318.275000000372529 ], [ 23336.325, 5935318.349999999627471 ], [ 23336.25, 5935318.349999999627471 ], [ 23336.25, 5935318.5 ], [ 23336.175, 5935318.5 ], [ 23336.175, 5935318.650000000372529 ], [ 23336.099999999998545, 5935318.650000000372529 ], [ 23336.099999999998545, 5935318.799999999813735 ], [ 23336.025000000001455, 5935318.799999999813735 ], [ 23336.025000000001455, 5935319.025000000372529 ], [ 23335.95, 5935319.025000000372529 ], [ 23335.95, 5935319.174999999813735 ], [ 23335.875, 5935319.174999999813735 ], [ 23335.875, 5935319.400000000372529 ], [ 23335.8, 5935319.400000000372529 ], [ 23335.8, 5935319.549999999813735 ], [ 23335.724999999998545, 5935319.549999999813735 ], [ 23335.724999999998545, 5935319.775000000372529 ], [ 23335.650000000001455, 5935319.775000000372529 ], [ 23335.650000000001455, 5935320.0 ], [ 23335.575, 5935320.0 ], [ 23335.575, 5935320.299999999813735 ], [ 23335.5, 5935320.299999999813735 ], [ 23335.5, 5935320.599999999627471 ], [ 23335.425, 5935320.599999999627471 ], [ 23335.425, 5935320.900000000372529 ], [ 23335.349999999998545, 5935320.900000000372529 ], [ 23335.349999999998545, 5935321.200000000186265 ], [ 23335.275000000001455, 5935321.200000000186265 ], [ 23335.275000000001455, 5935321.424999999813735 ], [ 23335.2, 5935321.424999999813735 ], [ 23335.2, 5935321.724999999627471 ], [ 23335.125, 5935321.724999999627471 ], [ 23335.125, 5935321.950000000186265 ], [ 23335.05, 5935321.950000000186265 ], [ 23335.05, 5935322.174999999813735 ], [ 23334.974999999998545, 5935322.174999999813735 ], [ 23334.974999999998545, 5935322.325000000186265 ], [ 23334.900000000001455, 5935322.325000000186265 ], [ 23334.900000000001455, 5935322.474999999627471 ], [ 23334.825, 5935322.474999999627471 ], [ 23334.825, 5935322.625 ], [ 23334.75, 5935322.625 ], [ 23334.75, 5935322.700000000186265 ], [ 23334.675, 5935322.700000000186265 ], [ 23334.675, 5935322.849999999627471 ], [ 23334.599999999998545, 5935322.849999999627471 ], [ 23334.599999999998545, 5935322.924999999813735 ], [ 23334.525000000001455, 5935322.924999999813735 ], [ 23334.525000000001455, 5935323.0 ], [ 23334.45, 5935323.0 ], [ 23334.45, 5935323.075000000186265 ], [ 23334.375, 5935323.075000000186265 ], [ 23334.375, 5935323.224999999627471 ], [ 23334.3, 5935323.224999999627471 ], [ 23334.3, 5935323.299999999813735 ], [ 23334.224999999998545, 5935323.299999999813735 ], [ 23334.224999999998545, 5935323.375 ], [ 23334.150000000001455, 5935323.375 ], [ 23334.150000000001455, 5935323.450000000186265 ], [ 23334.075, 5935323.450000000186265 ], [ 23334.075, 5935323.525000000372529 ], [ 23334.0, 5935323.525000000372529 ], [ 23334.0, 5935323.599999999627471 ], [ 23333.925, 5935323.599999999627471 ], [ 23333.925, 5935323.75 ], [ 23333.849999999998545, 5935323.75 ], [ 23333.849999999998545, 5935323.825000000186265 ], [ 23333.775000000001455, 5935323.825000000186265 ], [ 23333.775000000001455, 5935323.974999999627471 ], [ 23333.7, 5935323.974999999627471 ], [ 23333.7, 5935324.049999999813735 ], [ 23333.625, 5935324.049999999813735 ], [ 23333.625, 5935324.200000000186265 ], [ 23333.55, 5935324.200000000186265 ], [ 23333.55, 5935324.424999999813735 ], [ 23333.474999999998545, 5935324.424999999813735 ], [ 23333.474999999998545, 5935324.650000000372529 ], [ 23333.400000000001455, 5935324.650000000372529 ], [ 23333.400000000001455, 5935324.799999999813735 ], [ 23333.325, 5935324.799999999813735 ], [ 23333.325, 5935325.025000000372529 ], [ 23333.25, 5935325.025000000372529 ], [ 23333.25, 5935325.174999999813735 ], [ 23333.175, 5935325.174999999813735 ], [ 23333.175, 5935325.325000000186265 ], [ 23333.099999999998545, 5935325.325000000186265 ], [ 23333.099999999998545, 5935325.474999999627471 ], [ 23333.025000000001455, 5935325.474999999627471 ], [ 23333.025000000001455, 5935325.625 ], [ 23332.95, 5935325.625 ], [ 23332.95, 5935325.775000000372529 ], [ 23332.875, 5935325.775000000372529 ], [ 23332.875, 5935325.924999999813735 ], [ 23332.8, 5935325.924999999813735 ], [ 23332.8, 5935329.0 ], [ 23312.625, 5935329.0 ] ] ] } },
{ "type": "Feature", "properties": { "value": 1.0, "building_id": 1, "area": 141.28312500065334 }, "geometry": { "type": "Polygon", "coordinates": [ [ [ 23289.3, 5935311.674999999813735 ], [ 23289.3, 5935311.599999999627471 ], [ 23289.075, 5935311.599999999627471 ], [ 23289.075, 5935311.525000000372529 ], [ 23288.849999999998545, 5935311.525000000372529 ], [ 23288.849999999998545, 5935311.450000000186265 ], [ 23288.625, 5935311.450000000186265 ], [ 23288.625, 5935311.375 ], [ 23288.400000000001455, 5935311.375 ], [ 23288.400000000001455, 5935311.299999999813735 ], [ 23288.099999999998545, 5935311.299999999813735 ], [ 23288.099999999998545, 5935311.224999999627471 ], [ 23287.875, 5935311.224999999627471 ], [ 23287.875, 5935311.150000000372529 ], [ 23287.650000000001455, 5935311.150000000372529 ], [ 23287.650000000001455, 5935311.075000000186265 ], [ 23287.425, 5935311.075000000186265 ], [ 23287.425, 5935311.0 ], [ 23287.349999999998545, 5935311.0 ], [ 23287.349999999998545, 5935310.849999999627471 ], [ 23287.275000000001455, 5935310.849999999627471 ], [ 23287.275000000001455, 5935310.775000000372529 ], [ 23287.2, 5935310.775000000372529 ], [ 23287.2, 5935310.700000000186265 ], [ 23287.125, 5935310.700000000186265 ], [ 23287.125, 5935310.549999999813735 ], [ 23287.05, 5935310.549999999813735 ], [ 23287.05, 5935310.474999999627471 ], [ 23286.974999999998545, 5935310.474999999627471 ], [ 23286.974999999998545, 5935310.099999999627471 ], [ 23286.900000000001455, 5935310.099999999627471 ], [ 23286.900000000001455, 5935309.724999999627471 ], [ 23286.825, 5935309.724999999627471 ], [ 23286.825, 5935309.275000000372529 ], [ 23286.75, 5935309.275000000372529 ], [ 23286.75, 5935308.825000000186265 ], [ 23286.675, 5935308.825000000186265 ], [ 23286.675, 5935301.099999999627471 ], [ 23286.75, 5935301.099999999627471 ], [ 23286.75, 5935297.5 ], [ 23286.825, 5935297.5 ], [ 23286.825, 5935294.424999999813735 ], [ 23286.75, 5935294.424999999813735 ], [ 23286.75, 5935294.049999999813735 ], [ 23286.675, 5935294.049999999813735 ], [ 23286.675, 5935293.599999999627471 ], [ 23286.599999999998545, 5935293.599999999627471 ], [ 23286.599999999998545, 5935293.075000000186265 ], [ 23286.525000000001455, 5935293.075000000186265 ], [ 23286.525000000001455, 5935292.700000000186265 ], [ 23286.45, 5935292.700000000186265 ], [ 23286.45, 5935292.474999999627471 ], [ 23286.375, 5935292.474999999627471 ], [ 23286.375, 5935292.25 ], [ 23286.3, 5935292.25 ], [ 23286.3, 5935292.025000000372529 ], [ 23286.224999999998545, 5935292.025000000372529 ], [ 23286.224999999998545, 5935291.799999999813735 ], [ 23286.150000000001455, 5935291.799999999813735 ], [ 23286.150000000001455, 5935291.650000000372529 ], [ 23286.075, 5935291.650000000372529 ], [ 23286.075, 5935291.424999999813735 ], [ 23286.0, 5935291.424999999813735 ], [ 23286.0, 5935291.275000000372529 ], [ 23285.925, 5935291.275000000372529 ], [ 23285.925, 5935291.049999999813735 ], [ 23285.849999999998545, 5935291.049999999813735 ], [ 23285.849999999998545, 5935290.900000000372529 ], [ 23285.775000000001455, 5935290.900000000372529 ], [ 23285.775000000001455, 5935290.825000000186265 ], [ 23285.7, 5935290.825000000186265 ], [ 23285.7, 5935290.674999999813735 ], [ 23285.625, 5935290.674999999813735 ], [ 23285.625, 5935290.599999999627471 ], [ 23285.55, 5935290.599999999627471 ], [ 23285.55, 5935290.525000000372529 ], [ 23285.474999999998545, 5935290.525000000372529 ], [ 23285.474999999998545, 5935290.375 ], [ 23285.400000000001455, 5935290.375 ], [ 23285.400000000001455, 5935290.299999999813735 ], [ 23285.325, 5935290.299999999813735 ], [ 23285.325, 5935290.224999999627471 ], [ 23285.25, 5935290.224999999627471 ], [ 23285.25, 5935290.075000000186265 ], [ 23285.175, 5935290.075000000186265 ], [ 23285.175, 5935289.924999999813735 ], [ 23285.099999999998545, 5935289.924999999813735 ], [ 23285.099999999998545, 5935289.849999999627471 ], [ 23285.025000000001455, 5935289.849999999627471 ], [ 23285.025000000001455, 5935289.700000000186265 ], [ 23284.95, 5935289.700000000186265 ], [ 23284.95, 5935289.549999999813735 ], [ 23284.875, 5935289.549999999813735 ], [ 23284.875, 5935289.400000000372529 ], [ 23284.8, 5935289.400000000372529 ], [ 23284.8, 5935289.174999999813735 ], [ 23284.724999999998545, 5935289.174999999813735 ], [ 23284.724999999998545, 5935289.025000000372529 ], [ 23284.650000000001455, 5935289.025000000372529 ], [ 23284.650000000001455, 5935288.799999999813735 ], [ 23284.575, 5935288.799999999813735 ], [ 23284.575, 5935288.575000000186265 ], [ 23284.5, 5935288.575000000186265 ], [ 23284.5, 5935288.349999999627471 ], [ 23284.425, 5935288.349999999627471 ], [ 23284.425, 5935288.125 ], [ 23284.349999999998545, 5935288.125 ], [ 23284.349999999998545, 5935287.900000000372529 ], [ 23284.275000000001455, 5935287.900000000372529 ], [ 23284.275000000001455, 5935287.75 ], [ 23284.2, 5935287.75 ], [ 23284.2, 5935287.525000000372529 ], [ 23284.125, 5935287.525000000372529 ], [ 23284.125, 5935287.375 ], [ 23284.05, 5935287.375 ], [ 23284.05, 5935287.150000000372529 ], [ 23283.974999999998545, 5935287.150000000372529 ], [ 23283.974999999998545, 5935286.174999999813735 ], [ 23284.05, 5935286.174999999813735 ], [ 23284.05, 5935285.349999999627471 ], [ 23284.125, 5935285.349999999627471 ], [ 23284.125, 5935284.974999999627471 ], [ 23284.2, 5935284.974999999627471 ], [ 23284.2, 5935284.825000000186265 ], [ 23284.275000000001455, 5935284.825000000186265 ], [ 23284.275000000001455, 5935284.75 ], [ 23284.349999999998545, 5935284.75 ], [ 23284.349999999998545, 5935284.674999999813735 ], [ 23284.425, 5935284.674999999813735 ], [ 23284.425, 5935284.599999999627471 ], [ 23284.5, 5935284.599999999627471 ], [ 23284.5, 5935284.525000000372529 ], [ 23284.575, 5935284.525000000372529 ], [ 23284.575, 5935284.450000000186265 ], [ 23284.650000000001455, 5935284.450000000186265 ], [ 23284.650000000001455, 5935284.375 ], [ 23284.724999999998545, 5935284.375 ], [ 23284.724999999998545, 5935284.299999999813735 ], [ 23284.8, 5935284.299999999813735 ], [ 23284.8, 5935284.224999999627471 ], [ 23284.875, 5935284.224999999627471 ], [ 23284.875, 5935284.150000000372529 ], [ 23284.95, 5935284.150000000372529 ], [ 23284.95, 5935284.075000000186265 ], [ 23285.099999999998545, 5935284.075000000186265 ], [ 23285.099999999998545, 5935284.0 ], [ 23285.25, 5935284.0 ], [ 23285.25, 5935283.924999999813735 ], [ 23285.325, 5935283.924999999813735 ], [ 23285.325, 5935283.849999999627471 ], [ 23285.474999999998545, 5935283.849999999627471 ], [ 23285.474999999998545, 5935283.775000000372529 ], [ 23285.775000000001455, 5935283.775000000372529 ], [ 23285.775000000001455, 5935283.700000000186265 ], [ 23286.0, 5935283.700000000186265 ], [ 23286.0, 5935283.625 ], [ 23286.224999999998545, 5935283.625 ], [ 23286.224999999998545, 5935283.549999999813735 ], [ 23286.45, 5935283.549999999813735 ], [ 23286.45, 5935283.474999999627471 ], [ 23286.675, 5935283.474999999627471 ], [ 23286.675, 5935283.400000000372529 ], [ 23286.900000000001455, 5935283.400000000372529 ], [ 23286.900000000001455, 5935283.325000000186265 ], [ 23287.125, 5935283.325000000186265 ], [ 23287.125, 5935283.25 ], [ 23287.349999999998545, 5935283.25 ], [ 23287.349999999998545, 5935283.174999999813735 ], [ 23288.025000000001455, 5935283.174999999813735 ], [ 23288.025000000001455, 5935283.099999999627471 ], [ 23289.75, 5935283.099999999627471 ], [ 23289.75, 5935283.174999999813735 ], [ 23290.275000000001455, 5935283.174999999813735 ], [ 23290.275000000001455, 5935283.25 ], [ 23290.724999999998545, 5935283.25 ], [ 23290.724999999998545, 5935283.325000000186265 ], [ 23291.175, 5935283.325000000186265 ], [ 23291.175, 5935283.400000000372529 ], [ 23291.325, 5935283.400000000372529 ], [ 23291.325, 5935283.474999999627471 ], [ 23291.474999999998545, 5935283.474999999627471 ], [ 23291.474999999998545, 5935283.549999999813735 ], [ 23291.625, 5935283.549999999813735 ], [ 23291.625, 5935283.625 ], [ 23291.7, 5935283.625 ], [ 23291.7, 5935283.700000000186265 ], [ 23291.775000000001455, 5935283.700000000186265 ], [ 23291.775000000001455, 5935283.775000000372529 ], [ 23291.849999999998545, 5935283.775000000372529 ], [ 23291.849999999998545, 5935283.849999999627471 ], [ 23291.925, 5935283.849999999627471 ], [ 23291.925, 5935283.924999999813735 ], [ 23292.0, 5935283.924999999813735 ], [ 23292.0, 5935284.075000000186265 ], [ 23292.075, 5935284.075000000186265 ], [ 23292.075, 5935284.224999999627471 ], [ 23292.150000000001455, 5935284.224999999627471 ], [ 23292.150000000001455, 5935284.375 ], [ 23292.224999999998545, 5935284.375 ], [ 23292.224999999998545, 5935284.525000000372529 ], [ 23292.3, 5935284.525000000372529 ], [ 23292.3, 5935284.75 ], [ 23292.375, 5935284.75 ], [ 23292.375, 5935285.125 ], [ 23292.45, 5935285.125 ], [ 23292.45, 5935286.474999999627471 ], [ 23292.525000000001455, 5935286.474999999627471 ], [ 23292.525000000001455, 5935287.299999999813735 ], [ 23292.45, 5935287.299999999813735 ], [ 23292.45, 5935288.125 ], [ 23292.375, 5935288.125 ], [ 23292.375, 5935288.799999999813735 ], [ 23292.3, 5935288.799999999813735 ], [ 23292.3, 5935289.174999999813735 ], [ 23292.224999999998545, 5935289.174999999813735 ], [ 23292.224999999998545, 5935289.474999999627471 ], [ 23292.150000000001455, 5935289.474999999627471 ], [ 23292.150000000001455, 5935289.775000000372529 ], [ 23292.075, 5935289.775000000372529 ], [ 23292.075, 5935290.0 ], [ 23292.0, 5935290.0 ], [ 23292.0, 5935290.224999999627471 ], [ 23291.925, 5935290.224999999627471 ], [ 23291.925, 5935290.375 ], [ 23291.849999999998545, 5935290.375 ], [ 23291.849999999998545, 5935290.599999999627471 ], [ 23291.775000000001455, 5935290.599999999627471 ], [ 23291.775000000001455, 5935290.75 ], [ 23291.7, 5935290.75 ], [ 23291.7, 5935290.825000000186265 ], [ 23291.625, 5935290.825000000186265 ], [ 23291.625, 5935290.974999999627471 ], [ 23291.55, 5935290.974999999627471 ], [ 23291.55, 5935291.200000000186265 ], [ 23291.474999999998545, 5935291.200000000186265 ], [ 23291.474999999998545, 5935291.275000000372529 ], [ 23291.400000000001455, 5935291.275000000372529 ], [ 23291.400000000001455, 5935291.5 ], [ 23291.325, 5935291.5 ], [ 23291.325, 5935291.724999999627471 ], [ 23291.25, 5935291.724999999627471 ], [ 23291.25, 5935291.950000000186265 ], [ 23291.175, 5935291.950000000186265 ], [ 23291.175, 5935292.174999999813735 ], [ 23291.099999999998545, 5935292.174999999813735 ], [ 23291.099999999998545, 5935292.474999999627471 ], [ 23291.025000000001455, 5935292.474999999627471 ], [ 23291.025000000001455, 5935292.700000000186265 ], [ 23290.95, 5935292.700000000186265 ], [ 23290.95, 5935293.150000000372529 ], [ 23290.875, 5935293.150000000372529 ], [ 23290.875, 5935293.825000000186265 ], [ 23290.8, 5935293.825000000186265 ], [ 23290.8, 5935294.5 ], [ 23290.724999999998545, 5935294.5 ], [ 23290.724999999998545, 5935299.974999999627471 ], [ 23290.8, 5935299.974999999627471 ], [ 23290.8, 5935302.674999999813735 ], [ 23290.724999999998545, 5935302.674999999813735 ], [ 23290.724999999998545, 5935306.5 ], [ 23290.650000000001455, 5935306.5 ], [ 23290.650000000001455, 5935309.049999999813735 ], [ 23290.575, 5935309.049999999813735 ], [ 23290.575, 5935310.025000000372529 ], [ 23290.5, 5935310.025000000372529 ], [ 23290.5, 5935310.625 ], [ 23290.425, 5935310.625 ], [ 23290.425, 5935310.849999999627471 ], [ 23290.349999999998545, 5935310.849999999627471 ], [ 23290.349999999998545, 5935311.075000000186265 ], [ 23290.275000000001455, 5935311.075000000186265 ], [ 23290.275000000001455, 5935311.299999999813735 ], [ 23290.2, 5935311.299999999813735 ], [ 23290.2, 5935311.450000000186265 ], [ 23290.125, 5935311.450000000186265 ], [ 23290.125, 5935311.525000000372529 ], [ 23289.974999999998545, 5935311.525000000372529 ], [ 23289.974999999998545, 5935311.599999999627471 ], [ 23289.675, 5935311.599999999627471 ], [ 23289.675, 5935311.674999999813735 ], [ 23289.3, 5935311.674999999813735 ] ] ] } },
{ "type": "Feature", "properties": { "value": 1.0, "building_id": 2, "area": 9.1406250001399734 }, "geometry": { "type": "Polygon", "coordinates": [ [ [ 23185.875, 5935201.424999999813735 ], [ 23185.875, 5935201.349999999627471 ], [ 23185.8, 5935201.349999999627471 ], [ 23185.8, 5935201.275000000372529 ], [ 23185.650000000001455, 5935201.275000000372529 ], [ 23185.650000000001455, 5935201.200000000186265 ], [ 23185.575, 5935201.200000000186265 ], [ 23185.575, 5935201.125 ], [ 23185.5, 5935201.125 ], [ 23185.5, 5935201.049999999813735 ], [ 23185.425, 5935201.049999999813735 ], [ 23185.425, 5935200.825000000186265 ], [ 23185.349999999998545, 5935200.825000000186265 ], [ 23185.349999999998545, 5935200.674999999813735 ], [ 23185.275000000001455, 5935200.674999999813735 ], [ 23185.275000000001455, 5935200.450000000186265 ], [ 23185.2, 5935200.450000000186265 ], [ 23185.2, 5935200.299999999813735 ], [ 23185.125, 5935200.299999999813735 ], [ 23185.125, 5935200.150000000372529 ], [ 23185.05, 5935200.150000000372529 ], [ 23185.05, 5935199.924999999813735 ], [ 23184.974999999998545, 5935199.924999999813735 ], [ 23184.974999999998545, 5935199.775000000372529 ], [ 23184.900000000001455, 5935199.775000000372529 ], [ 23184.900000000001455, 5935199.625 ], [ 23184.825, 5935199.625 ], [ 23184.825, 5935199.400000000372529 ], [ 23184.75, 5935199.400000000372529 ], [ 23184.75, 5935199.25 ], [ 23184.675, 5935199.25 ], [ 23184.675, 5935198.950000000186265 ], [ 23184.75, 5935198.950000000186265 ], [ 23184.75, 5935198.724999999627471 ], [ 23184.825, 5935198.724999999627471 ], [ 23184.825, 5935198.5 ], [ 23184.900000000001455, 5935198.5 ], [ 23184.900000000001455, 5935198.349999999627471 ], [ 23184.974999999998545, 5935198.349999999627471 ], [ 23184.974999999998545, 5935198.125 ], [ 23185.05, 5935198.125 ], [ 23185.05, 5935197.974999999627471 ], [ 23185.125, 5935197.974999999627471 ], [ 23185.125, 5935197.825000000186265 ], [ 23185.2, 5935197.825000000186265 ], [ 23185.2, 5935197.674999999813735 ], [ 23185.275000000001455, 5935197.674999999813735 ], [ 23185.275000000001455, 5935197.525000000372529 ], [ 23185.349999999998545, 5935197.525000000372529 ], [ 23185.349999999998545, 5935197.375 ], [ 23185.425, 5935197.375 ], [ 23185.425, 5935197.299999999813735 ], [ 23185.5, 5935197.299999999813735 ], [ 23185.5, 5935197.150000000372529 ], [ 23185.575, 5935197.150000000372529 ], [ 23185.575, 5935197.075000000186265 ], [ 23185.650000000001455, 5935197.075000000186265 ], [ 23185.650000000001455, 5935196.924999999813735 ], [ 23185.724999999998545, 5935196.924999999813735 ], [ 23185.724999999998545, 5935196.849999999627471 ], [ 23185.8, 5935196.849999999627471 ], [ 23185.8, 5935196.775000000372529 ], [ 23185.875, 5935196.775000000372529 ], [ 23185.875, 5935196.700000000186265 ], [ 23186.025000000001455, 5935196.700000000186265 ], [ 23186.025000000001455, 5935196.775000000372529 ], [ 23186.099999999998545, 5935196.775000000372529 ], [ 23186.099999999998545, 5935196.924999999813735 ], [ 23186.175, 5935196.924999999813735 ], [ 23186.175, 5935197.0 ], [ 23186.25, 5935197.0 ], [ 23186.25, 5935197.075000000186265 ], [ 23186.325, 5935197.075000000186265 ], [ 23186.325, 5935197.224999999627471 ], [ 23186.400000000001455, 5935197.224999999627471 ], [ 23186.400000000001455, 5935197.299999999813735 ], [ 23186.474999999998545, 5935197.299999999813735 ], [ 23186.474999999998545, 5935197.375 ], [ 23186.55, 5935197.375 ], [ 23186.55, 5935197.525000000372529 ], [ 23186.625, 5935197.525000000372529 ], [ 23186.625, 5935197.599999999627471 ], [ 23186.7, 5935197.599999999627471 ], [ 23186.7, 5935197.674999999813735 ], [ 23186.775000000001455, 5935197.674999999813735 ], [ 23186.775000000001455, 5935197.75 ], [ 23186.849999999998545, 5935197.75 ], [ 23186.849999999998545, 5935197.825000000186265 ], [ 23186.925, 5935197.825000000186265 ], [ 23186.925, 5935197.974999999627471 ], [ 23187.0, 5935197.974999999627471 ], [ 23187.0, 5935198.049999999813735 ], [ 23187.075, 5935198.049999999813735 ], [ 23187.075, 5935198.125 ], [ 23187.150000000001455, 5935198.125 ], [ 23187.150000000001455, 5935198.200000000186265 ], [ 23187.224999999998545, 5935198.200000000186265 ], [ 23187.224999999998545, 5935198.275000000372529 ], [ 23187.3, 5935198.275000000372529 ], [ 23187.3, 5935198.349999999627471 ], [ 23187.375, 5935198.349999999627471 ], [ 23187.375, 5935198.5 ], [ 23187.45, 5935198.5 ], [ 23187.45, 5935198.575000000186265 ], [ 23187.525000000001455, 5935198.575000000186265 ], [ 23187.525000000001455, 5935198.650000000372529 ], [ 23187.599999999998545, 5935198.650000000372529 ], [ 23187.599999999998545, 5935198.724999999627471 ], [ 23187.675, 5935198.724999999627471 ], [ 23187.675, 5935198.799999999813735 ], [ 23187.75, 5935198.799999999813735 ], [ 23187.75, 5935198.875 ], [ 23187.825, 5935198.875 ], [ 23187.825, 5935198.950000000186265 ], [ 23187.900000000001455, 5935198.950000000186265 ], [ 23187.900000000001455, 5935199.099999999627471 ], [ 23187.974999999998545, 5935199.099999999627471 ], [ 23187.974999999998545, 5935199.174999999813735 ], [ 23187.900000000001455, 5935199.174999999813735 ], [ 23187.900000000001455, 5935199.400000000372529 ], [ 23187.825, 5935199.400000000372529 ], [ 23187.825, 5935199.549999999813735 ], [ 23187.75, 5935199.549999999813735 ], [ 23187.75, 5935199.700000000186265 ], [ 23187.675, 5935199.700000000186265 ], [ 23187.675, 5935199.775000000372529 ], [ 23187.599999999998545, 5935199.775000000372529 ], [ 23187.599999999998545, 5935199.924999999813735 ], [ 23187.525000000001455, 5935199.924999999813735 ], [ 23187.525000000001455, 5935200.0 ], [ 23187.45, 5935200.0 ], [ 23187.45, 5935200.150000000372529 ], [ 23187.375, 5935200.150000000372529 ], [ 23187.375, 5935200.224999999627471 ], [ 23187.3, 5935200.224999999627471 ], [ 23187.3, 5935200.375 ], [ 23187.224999999998545, 5935200.375 ], [ 23187.224999999998545, 5935200.450000000186265 ], [ 23187.150000000001455, 5935200.450000000186265 ], [ 23187.150000000001455, 5935200.599999999627471 ], [ 23187.075, 5935200.599999999627471 ], [ 23187.075, 5935200.674999999813735 ], [ 23187.0, 5935200.674999999813735 ], [ 23187.0, 5935200.825000000186265 ], [ 23186.925, 5935200.825000000186265 ], [ 23186.925, 5935200.900000000372529 ], [ 23186.849999999998545, 5935200.900000000372529 ], [ 23186.849999999998545, 5935201.049999999813735 ], [ 23186.7, 5935201.049999999813735 ], [ 23186.7, 5935201.125 ], [ 23186.55, 5935201.125 ], [ 23186.55, 5935201.200000000186265 ], [ 23186.400000000001455, 5935201.200000000186265 ], [ 23186.400000000001455, 5935201.275000000372529 ], [ 23186.25, 5935201.275000000372529 ], [ 23186.25, 5935201.349999999627471 ], [ 23186.025000000001455, 5935201.349999999627471 ], [ 23186.025000000001455, 5935201.424999999813735 ], [ 23185.875, 5935201.424999999813735 ] ] ] } }
]
}
