{
"type": "FeatureCollection",
"name": "22683E592332N_buildings",
"crs": { "type": "name", "properties": { "name": "urn:ogc:def:crs:EPSG::3776" } },
"features": [
{ "type": "Feature", "properties": { "value": 1.0, "building_id": 0, "area": 20.041874999621875 }, "geometry": { "type": "Polygon", "coordinates": [ [ [ 22974.974999999998545, 5923888.950000000186265 ], [ 22974.974999999998545, 5923888.875 ], [ 22974.825, 5923888.875 ], [ 22974.825, 5923888.799999999813735 ], [ 22974.75, 5923888.799999999813735 ], [ 22974.75, 5923888.724999999627471 ], [ 22974.599999999998545, 5923888.724999999627471 ], [ 22974.599999999998545, 5923888.650000000372529 ], [ 22974.45, 5923888.650000000372529 ], [ 22974.45, 5923888.575000000186265 ], [ 22974.375, 5923888.575000000186265 ], [ 22974.375, 5923888.5 ], [ 22974.3, 5923888.5 ], [ 22974.3, 5923888.424999999813735 ], [ 22974.224999999998545, 5923888.424999999813735 ], [ 22974.224999999998545, 5923888.349999999627471 ], [ 22974.150000000001455, 5923888.349999999627471 ], [ 22974.150000000001455, 5923888.200000000186265 ], [ 22974.075, 5923888.200000000186265 ], [ 22974.075, 5923888.125 ], [ 22974.0, 5923888.125 ], [ 22974.0, 5923888.049999999813735 ], [ 22973.925, 5923888.049999999813735 ], [ 22973.925, 5923887.974999999627471 ], [ 22973.849999999998545, 5923887.974999999627471 ], [ 22973.849999999998545, 5923887.900000000372529 ], [ 22973.775000000001455, 5923887.900000000372529 ], [ 22973.775000000001455, 5923887.825000000186265 ], [ 22973.7, 5923887.825000000186265 ], [ 22973.7, 5923887.674999999813735 ], [ 22973.625, 5923887.674999999813735 ], [ 22973.625, 5923887.599999999627471 ], [ 22973.55, 5923887.599999999627471 ], [ 22973.55, 5923887.525000000372529 ], [ 22973.474999999998545, 5923887.525000000372529 ], [ 22973.474999999998545, 5923887.450000000186265 ], [ 22973.400000000001455, 5923887.450000000186265 ], [ 22973.400000000001455, 5923887.375 ], [ 22973.325, 5923887.375 ], [ 22973.325, 5923887.224999999627471 ], [ 22973.25, 5923887.224999999627471 ], [ 22973.25, 5923887.150000000372529 ], [ 22973.175, 5923887.150000000372529 ], [ 22973.175, 5923887.075000000186265 ], [ 22973.099999999998545, 5923887.075000000186265 ], [ 22973.099999999998545, 5923887.0 ], [ 22973.025000000001455, 5923887.0 ], [ 22973.025000000001455, 5923886.849999999627471 ], [ 22972.95, 5923886.849999999627471 ], [ 22972.95, 5923886.775000000372529 ], [ 22972.875, 5923886.775000000372529 ], [ 22972.875, 5923886.700000000186265 ], [ 22972.8, 5923886.700000000186265 ], [ 22972.8, 5923886.400000000372529 ], [ 22972.875, 5923886.400000000372529 ], [ 22972.875, 5923885.875 ], [ 22972.95, 5923885.875 ], [ 22972.95, 5923885.424999999813735 ], [ 22973.025000000001455, 5923885.424999999813735 ], [ 22973.025000000001455, 5923885.125 ], [ 22973.099999999998545, 5923885.125 ], [ 22973.099999999998545, 5923884.900000000372529 ], [ 22973.175, 5923884.900000000372529 ], [ 22973.175, 5923884.825000000186265 ], [ 22973.25, 5923884.825000000186265 ], [ 22973.25, 5923884.674999999813735 ], [ 22973.325, 5923884.674999999813735 ], [ 22973.325, 5923884.299999999813735 ], [ 22973.400000000001455, 5923884.299999999813735 ], [ 22973.400000000001455, 5923883.924999999813735 ], [ 22973.474999999998545, 5923883.924999999813735 ], [ 22973.474999999998545, 5923883.700000000186265 ], [ 22973.55, 5923883.700000000186265 ], [ 22973.55, 5923883.474999999627471 ], [ 22973.625, 5923883.474999999627471 ], [ 22973.625, 5923883.325000000186265 ], [ 22973.7, 5923883.325000000186265 ], [ 22973.7, 5923883.25 ], [ 22974.0, 5923883.25 ], [ 22974.0, 5923883.325000000186265 ], [ 22974.375, 5923883.325000000186265 ], [ 22974.375, 5923883.400000000372529 ], [ 22974.825, 5923883.400000000372529 ], [ 22974.825, 5923883.474999999627471 ], [ 22975.05, 5923883.474999999627471 ], [ 22975.05, 5923883.549999999813735 ], [ 22975.125, 5923883.549999999813735 ], [ 22975.125, 5923883.625 ], [ 22975.2, 5923883.625 ], [ 22975.2, 5923883.700000000186265 ], [ 22975.275000000001455, 5923883.700000000186265 ], [ 22975.275000000001455, 5923883.775000000372529 ], [ 22975.349999999998545, 5923883.775000000372529 ], [ 22975.349999999998545, 5923883.849999999627471 ], [ 22975.425, 5923883.849999999627471 ], [ 22975.425, 5923883.924999999813735 ], [ 22975.5, 5923883.924999999813735 ], [ 22975.5, 5923884.0 ], [ 22975.575, 5923884.0 ], [ 22975.575, 5923884.075000000186265 ], [ 22975.650000000001455, 5923884.075000000186265 ], [ 22975.650000000001455, 5923884.150000000372529 ], [ 22975.724999999998545, 5923884.150000000372529 ], [ 22975.724999999998545, 5923884.299999999813735 ], [ 22975.8, 5923884.299999999813735 ], [ 22975.8, 5923884.375 ], [ 22975.875, 5923884.375 ], [ 22975.875, 5923884.450000000186265 ], [ 22975.95, 5923884.450000000186265 ], [ 22975.95, 5923884.599999999627471 ], [ 22976.025000000001455, 5923884.599999999627471 ], [ 22976.025000000001455, 5923884.674999999813735 ], [ 22976.175, 5923884.674999999813735 ], [ 22976.175, 5923884.75 ], [ 22976.325, 5923884.75 ], [ 22976.325, 5923884.825000000186265 ], [ 22976.400000000001455, 5923884.825000000186265 ], [ 22976.400000000001455, 5923884.900000000372529 ], [ 22976.55, 5923884.900000000372529 ], [ 22976.55, 5923884.974999999627471 ], [ 22976.7, 5923884.974999999627471 ], [ 22976.7, 5923885.049999999813735 ], [ 22976.775000000001455, 5923885.049999999813735 ], [ 22976.775000000001455, 5923885.125 ], [ 22976.925, 5923885.125 ], [ 22976.925, 5923885.200000000186265 ], [ 22977.0, 5923885.200000000186265 ], [ 22977.0, 5923885.275000000372529 ], [ 22977.075, 5923885.275000000372529 ], [ 22977.075, 5923885.349999999627471 ], [ 22977.150000000001455, 5923885.349999999627471 ], [ 22977.150000000001455, 5923885.424999999813735 ], [ 22977.224999999998545, 5923885.424999999813735 ], [ 22977.224999999998545, 5923885.5 ], [ 22977.3, 5923885.5 ], [ 22977.3, 5923885.650000000372529 ], [ 22977.375, 5923885.650000000372529 ], [ 22977.375, 5923885.724999999627471 ], [ 22977.45, 5923885.724999999627471 ], [ 22977.45, 5923885.799999999813735 ], [ 22977.525000000001455, 5923885.799999999813735 ], [ 22977.525000000001455, 5923885.950000000186265 ], [ 22977.599999999998545, 5923885.950000000186265 ], [ 22977.599999999998545, 5923886.025000000372529 ], [ 22977.675, 5923886.025000000372529 ], [ 22977.675, 5923886.174999999813735 ], [ 22977.75, 5923886.174999999813735 ], [ 22977.75, 5923886.325000000186265 ], [ 22977.825, 5923886.325000000186265 ], [ 22977.825, 5923886.474999999627471 ], [ 22977.900000000001455, 5923886.474999999627471 ], [ 22977.900000000001455, 5923886.700000000186265 ], [ 22977.974999999998545, 5923886.700000000186265 ], [ 22977.974999999998545, 5923887.0 ], [ 22978.05, 5923887.0 ], [ 22978.05, 5923887.375 ], [ 22978.125, 5923887.375 ], [ 22978.125, 5923887.450000000186265 ], [ 22978.05, 5923887.450000000186265 ], [ 22978.05, 5923887.599999999627471 ], [ 22977.974999999998545, 5923887.599999999627471 ], [ 22977.974999999998545, 5923887.674999999813735 ], [ 22977.900000000001455, 5923887.674999999813735 ], [ 22977.900000000001455, 5923887.825000000186265 ], [ 22977.825, 5923887.825000000186265 ], [ 22977.825, 5923887.900000000372529 ], [ 22977.75, 5923887.900000000372529 ], [ 22977.75, 5923888.049999999813735 ], [ 22977.675, 5923888.049999999813735 ], [ 22977.675, 5923888.125 ], [ 22977.599999999998545, 5923888.125 ], [ 22977.599999999998545, 5923888.275000000372529 ], [ 22977.525000000001455, 5923888.275000000372529 ], [ 22977.525000000001455, 5923888.349999999627471 ], [ 22977.45, 5923888.349999999627471 ], [ 22977.45, 5923888.5 ], [ 22977.375, 5923888.5 ], [ 22977.375, 5923888.575000000186265 ], [ 22977.224999999998545, 5923888.575000000186265 ], [ 22977.224999999998545, 5923888.650000000372529 ], [ 22977.075, 5923888.650000000372529 ], [ 22977.075, 5923888.724999999627471 ], [ 22976.55, 5923888.724999999627471 ], [ 22976.55, 5923888.799999999813735 ], [ 22975.8, 5923888.799999999813735 ], [ 22975.8, 5923888.875 ], [ 22975.125, 5923888.875 ], [ 22975.125, 5923888.950000000186265 ], [ 22974.974999999998545, 5923888.950000000186265 ] ] ] } },
{ "type": "Feature", "properties": { "value": 1.0, "building_id": 1, "area": 4.2412499998462794 }, "geometry": { "type": "Polygon", "coordinates": [ [ [ 22912.425, 5923872.75 ], [ 22912.425, 5923872.674999999813735 ], [ 22912.349999999998545, 5923872.674999999813735 ], [ 22912.349999999998545, 5923872.599999999627471 ], [ 22912.275000000001455, 5923872.599999999627471 ], [ 22912.275000000001455, 5923872.525000000372529 ], [ 22912.2, 5923872.525000000372529 ], [ 22912.2, 5923872.450000000186265 ], [ 22912.125, 5923872.450000000186265 ], [ 22912.125, 5923872.375 ], [ 22912.05, 5923872.375 ], [ 22912.05, 5923872.299999999813735 ], [ 22911.974999999998545, 5923872.299999999813735 ], [ 22911.974999999998545, 5923872.224999999627471 ], [ 22911.900000000001455, 5923872.224999999627471 ], [ 22911.900000000001455, 5923872.150000000372529 ], [ 22911.825, 5923872.150000000372529 ], [ 22911.825, 5923872.075000000186265 ], [ 22911.75, 5923872.075000000186265 ], [ 22911.75, 5923872.0 ], [ 22911.675, 5923872.0 ], [ 22911.675, 5923871.924999999813735 ], [ 22911.599999999998545, 5923871.924999999813735 ], [ 22911.599999999998545, 5923871.849999999627471 ], [ 22911.525000000001455, 5923871.849999999627471 ], [ 22911.525000000001455, 5923871.775000000372529 ], [ 22911.45, 5923871.775000000372529 ], [ 22911.45, 5923871.700000000186265 ], [ 22911.375, 5923871.700000000186265 ], [ 22911.375, 5923871.625 ], [ 22911.3, 5923871.625 ], [ 22911.3, 5923871.474999999627471 ], [ 22911.224999999998545, 5923871.474999999627471 ], [ 22911.224999999998545, 5923871.400000000372529 ], [ 22911.150000000001455, 5923871.400000000372529 ], [ 22911.150000000001455, 5923871.325000000186265 ], [ 22911.075, 5923871.325000000186265 ], [ 22911.075, 5923871.25 ], [ 22911.0, 5923871.25 ], [ 22911.0, 5923871.099999999627471 ], [ 22910.925, 5923871.099999999627471 ], [ 22910.925, 5923871.025000000372529 ], [ 22910.849999999998545, 5923871.025000000372529 ], [ 22910.849999999998545, 5923870.950000000186265 ], [ 22910.925, 5923870.950000000186265 ], [ 22910.925, 5923870.875 ], [ 22911.075, 5923870.875 ], [ 22911.075, 5923870.799999999813735 ], [ 22911.150000000001455, 5923870.799999999813735 ], [ 22911.150000000001455, 5923870.724999999627471 ], [ 22911.224999999998545, 5923870.724999999627471 ], [ 22911.224999999998545, 5923870.650000000372529 ], [ 22911.375, 5923870.650000000372529 ], [ 22911.375, 5923870.575000000186265 ], [ 22911.45, 5923870.575000000186265 ], [ 22911.45, 5923870.5 ], [ 22911.599999999998545, 5923870.5 ], [ 22911.599999999998545, 5923870.424999999813735 ], [ 22911.75, 5923870.424999999813735 ], [ 22911.75, 5923870.349999999627471 ], [ 22911.900000000001455, 5923870.349999999627471 ], [ 22911.900000000001455, 5923870.275000000372529 ], [ 22912.05, 5923870.275000000372529 ], [ 22912.05, 5923870.200000000186265 ], [ 22912.275000000001455, 5923870.200000000186265 ], [ 22912.275000000001455, 5923870.125 ], [ 22912.650000000001455, 5923870.125 ], [ 22912.650000000001455, 5923870.200000000186265 ], [ 22912.8, 5923870.200000000186265 ], [ 22912.8, 5923870.275000000372529 ], [ 22912.95, 5923870.275000000372529 ], [ 22912.95, 5923870.349999999627471 ], [ 22913.099999999998545, 5923870.349999999627471 ], [ 22913.099999999998545, 5923870.424999999813735 ], [ 22913.175, 5923870.424999999813735 ], [ 22913.175, 5923870.5 ], [ 22913.25, 5923870.5 ], [ 22913.25, 5923870.575000000186265 ], [ 22913.400000000001455, 5923870.575000000186265 ], [ 22913.400000000001455, 5923870.650000000372529 ], [ 22913.474999999998545, 5923870.650000000372529 ], [ 22913.474999999998545, 5923870.724999999627471 ], [ 22913.55, 5923870.724999999627471 ], [ 22913.55, 5923870.799999999813735 ], [ 22913.625, 5923870.799999999813735 ], [ 22913.625, 5923870.950000000186265 ], [ 22913.7, 5923870.950000000186265 ], [ 22913.7, 5923871.099999999627471 ], [ 22913.625, 5923871.099999999627471 ], [ 22913.625, 5923871.25 ], [ 22913.55, 5923871.25 ], [ 22913.55, 5923871.325000000186265 ], [ 22913.474999999998545, 5923871.325000000186265 ], [ 22913.474999999998545, 5923871.474999999627471 ], [ 22913.400000000001455, 5923871.474999999627471 ], [ 22913.400000000001455, 5923871.625 ], [ 22913.325, 5923871.625 ], [ 22913.325, 5923871.700000000186265 ], [ 22913.25, 5923871.700000000186265 ], [ 22913.25, 5923871.849999999627471 ], [ 22913.175, 5923871.849999999627471 ], [ 22913.175, 5923871.924999999813735 ], [ 22913.099999999998545, 5923871.924999999813735 ], [ 22913.099999999998545, 5923872.075000000186265 ], [ 22913.025000000001455, 5923872.075000000186265 ], [ 22913.025000000001455, 5923872.150000000372529 ], [ 22912.95, 5923872.150000000372529 ], [ 22912.95, 5923872.224999999627471 ], [ 22912.875, 5923872.224999999627471 ], [ 22912.875, 5923872.299999999813735 ], [ 22912.8, 5923872.299999999813735 ], [ 22912.8, 5923872.450000000186265 ], [ 22912.724999999998545, 5923872.450000000186265 ], [ 22912.724999999998545, 5923872.525000000372529 ], [ 22912.650000000001455, 5923872.525000000372529 ], [ 22912.650000000001455, 5923872.599999999627471 ], [ 22912.575, 5923872.599999999627471 ], [ 22912.575, 5923872.674999999813735 ], [ 22912.5, 5923872.674999999813735 ], [ 22912.5, 5923872.75 ], [ 22912.425, 5923872.75 ] ] ] } },
{ "type": "Feature", "properties": { "value": 1.0, "building_id": 2, "area": 48.712500000278865 }, "geometry": { "type": "Polygon", "coordinates": [ [ [ 22928.025000000001455, 5923844.474999999627471 ], [ 22928.025000000001455, 5923844.400000000372529 ], [ 22927.95, 5923844.400000000372529 ], [ 22927.95, 5923844.325000000186265 ], [ 22927.8, 5923844.325000000186265 ], [ 22927.8, 5923844.25 ], [ 22927.724999999998545, 5923844.25 ], [ 22927.724999999998545, 5923844.174999999813735 ], [ 22927.650000000001455, 5923844.174999999813735 ], [ 22927.650000000001455, 5923844.099999999627471 ], [ 22927.5, 5923844.099999999627471 ], [ 22927.5, 5923844.025000000372529 ], [ 22927.425, 5923844.025000000372529 ], [ 22927.425, 5923843.950000000186265 ], [ 22927.349999999998545, 5923843.950000000186265 ], [ 22927.349999999998545, 5923843.875 ], [ 22927.2, 5923843.875 ], [ 22927.2, 5923843.799999999813735 ], [ 22927.125, 5923843.799999999813735 ], [ 22927.125, 5923843.724999999627471 ], [ 22927.05, 5923843.724999999627471 ], [ 22927.05, 5923843.650000000372529 ], [ 22926.974999999998545, 5923843.650000000372529 ], [ 22926.974999999998545, 5923843.575000000186265 ], [ 22926.900000000001455, 5923843.575000000186265 ], [ 22926.900000000001455, 5923843.5 ], [ 22926.825, 5923843.5 ], [ 22926.825, 5923843.424999999813735 ], [ 22926.75, 5923843.424999999813735 ], [ 22926.75, 5923843.349999999627471 ], [ 22926.675, 5923843.349999999627471 ], [ 22926.675, 5923843.275000000372529 ], [ 22926.599999999998545, 5923843.275000000372529 ], [ 22926.599999999998545, 5923843.200000000186265 ], [ 22926.45, 5923843.200000000186265 ], [ 22926.45, 5923843.125 ], [ 22926.375, 5923843.125 ], [ 22926.375, 5923843.049999999813735 ], [ 22926.3, 5923843.049999999813735 ], [ 22926.3, 5923842.974999999627471 ], [ 22926.224999999998545, 5923842.974999999627471 ], [ 22926.224999999998545, 5923842.900000000372529 ], [ 22926.150000000001455, 5923842.900000000372529 ], [ 22926.150000000001455, 5923842.825000000186265 ], [ 22926.075, 5923842.825000000186265 ], [ 22926.075, 5923842.75 ], [ 22926.0, 5923842.75 ], [ 22926.0, 5923842.674999999813735 ], [ 22925.925, 5923842.674999999813735 ], [ 22925.925, 5923842.599999999627471 ], [ 22925.849999999998545, 5923842.599999999627471 ], [ 22925.849999999998545, 5923842.525000000372529 ], [ 22925.775000000001455, 5923842.525000000372529 ], [ 22925.775000000001455, 5923842.450000000186265 ], [ 22925.7, 5923842.450000000186265 ], [ 22925.7, 5923842.375 ], [ 22925.625, 5923842.375 ], [ 22925.625, 5923842.299999999813735 ], [ 22925.55, 5923842.299999999813735 ], [ 22925.55, 5923842.224999999627471 ], [ 22925.474999999998545, 5923842.224999999627471 ], [ 22925.474999999998545, 5923842.075000000186265 ], [ 22925.400000000001455, 5923842.075000000186265 ], [ 22925.400000000001455, 5923842.0 ], [ 22925.325, 5923842.0 ], [ 22925.325, 5923841.924999999813735 ], [ 22925.25, 5923841.924999999813735 ], [ 22925.25, 5923841.849999999627471 ], [ 22925.175, 5923841.849999999627471 ], [ 22925.175, 5923841.549999999813735 ], [ 22925.25, 5923841.549999999813735 ], [ 22925.25, 5923841.400000000372529 ], [ 22925.325, 5923841.400000000372529 ], [ 22925.325, 5923841.325000000186265 ], [ 22925.400000000001455, 5923841.325000000186265 ], [ 22925.400000000001455, 5923841.174999999813735 ], [ 22925.474999999998545, 5923841.174999999813735 ], [ 22925.474999999998545, 5923841.099999999627471 ], [ 22925.55, 5923841.099999999627471 ], [ 22925.55, 5923841.025000000372529 ], [ 22925.625, 5923841.025000000372529 ], [ 22925.625, 5923840.875 ], [ 22925.7, 5923840.875 ], [ 22925.7, 5923840.799999999813735 ], [ 22925.775000000001455, 5923840.799999999813735 ], [ 22925.775000000001455, 5923840.650000000372529 ], [ 22925.849999999998545, 5923840.650000000372529 ], [ 22925.849999999998545, 5923840.575000000186265 ], [ 22925.925, 5923840.575000000186265 ], [ 22925.925, 5923840.5 ], [ 22926.0, 5923840.5 ], [ 22926.0, 5923840.424999999813735 ], [ 22926.075, 5923840.424999999813735 ], [ 22926.075, 5923840.349999999627471 ], [ 22926.150000000001455, 5923840.349999999627471 ], [ 22926.150000000001455, 5923840.200000000186265 ], [ 22926.224999999998545, 5923840.200000000186265 ], [ 22926.224999999998545, 5923840.125 ], [ 22926.3, 5923840.125 ], [ 22926.3, 5923840.049999999813735 ], [ 22926.375, 5923840.049999999813735 ], [ 22926.375, 5923839.974999999627471 ], [ 22926.45, 5923839.974999999627471 ], [ 22926.45, 5923839.825000000186265 ], [ 22926.525000000001455, 5923839.825000000186265 ], [ 22926.525000000001455, 5923839.75 ], [ 22926.599999999998545, 5923839.75 ], [ 22926.599999999998545, 5923839.674999999813735 ], [ 22926.675, 5923839.674999999813735 ], [ 22926.675, 5923839.599999999627471 ], [ 22926.75, 5923839.599999999627471 ], [ 22926.75, 5923839.525000000372529 ], [ 22926.900000000001455, 5923839.525000000372529 ], [ 22926.900000000001455, 5923839.450000000186265 ], [ 22926.974999999998545, 5923839.450000000186265 ], [ 22926.974999999998545, 5923839.375 ], [ 22927.125, 5923839.375 ], [ 22927.125, 5923839.299999999813735 ], [ 22927.2, 5923839.299999999813735 ], [ 22927.2, 5923839.224999999627471 ], [ 22927.349999999998545, 5923839.224999999627471 ], [ 22927.349999999998545, 5923839.150000000372529 ], [ 22927.5, 5923839.150000000372529 ], [ 22927.5, 5923839.075000000186265 ], [ 22927.650000000001455, 5923839.075000000186265 ], [ 22927.650000000001455, 5923839.0 ], [ 22927.875, 5923839.0 ], [ 22927.875, 5923838.924999999813735 ], [ 22928.025000000001455, 5923838.924999999813735 ], [ 22928.025000000001455, 5923838.849999999627471 ], [ 22928.849999999998545, 5923838.849999999627471 ], [ 22928.849999999998545, 5923838.775000000372529 ], [ 22929.0, 5923838.775000000372529 ], [ 22929.0, 5923838.849999999627471 ], [ 22929.825, 5923838.849999999627471 ], [ 22929.825, 5923838.924999999813735 ], [ 22930.2, 5923838.924999999813735 ], [ 22930.2, 5923838.849999999627471 ], [ 22930.650000000001455, 5923838.849999999627471 ], [ 22930.650000000001455, 5923838.775000000372529 ], [ 22931.325, 5923838.775000000372529 ], [ 22931.325, 5923838.849999999627471 ], [ 22932.525000000001455, 5923838.849999999627471 ], [ 22932.525000000001455, 5923838.924999999813735 ], [ 22933.5, 5923838.924999999813735 ], [ 22933.5, 5923839.0 ], [ 22934.325, 5923839.0 ], [ 22934.325, 5923839.075000000186265 ], [ 22935.075, 5923839.075000000186265 ], [ 22935.075, 5923839.150000000372529 ], [ 22935.75, 5923839.150000000372529 ], [ 22935.75, 5923839.224999999627471 ], [ 22936.05, 5923839.224999999627471 ], [ 22936.05, 5923839.299999999813735 ], [ 22936.2, 5923839.299999999813735 ], [ 22936.2, 5923839.375 ], [ 22936.349999999998545, 5923839.375 ], [ 22936.349999999998545, 5923839.450000000186265 ], [ 22936.425, 5923839.450000000186265 ], [ 22936.425, 5923839.525000000372529 ], [ 22936.575, 5923839.525000000372529 ], [ 22936.575, 5923839.599999999627471 ], [ 22936.650000000001455, 5923839.599999999627471 ], [ 22936.650000000001455, 5923839.674999999813735 ], [ 22936.724999999998545, 5923839.674999999813735 ], [ 22936.724999999998545, 5923839.75 ], [ 22936.8, 5923839.75 ], [ 22936.8, 5923839.974999999627471 ], [ 22936.875, 5923839.974999999627471 ], [ 22936.875, 5923840.275000000372529 ], [ 22936.95, 5923840.275000000372529 ], [ 22936.95, 5923840.650000000372529 ], [ 22937.025000000001455, 5923840.650000000372529 ], [ 22937.025000000001455, 5923841.025000000372529 ], [ 22937.099999999998545, 5923841.025000000372529 ], [ 22937.099999999998545, 5923841.400000000372529 ], [ 22937.175, 5923841.400000000372529 ], [ 22937.175, 5923841.775000000372529 ], [ 22937.099999999998545, 5923841.775000000372529 ], [ 22937.099999999998545, 5923841.849999999627471 ], [ 22936.95, 5923841.849999999627471 ], [ 22936.95, 5923841.924999999813735 ], [ 22936.875, 5923841.924999999813735 ], [ 22936.875, 5923842.0 ], [ 22936.8, 5923842.0 ], [ 22936.8, 5923842.075000000186265 ], [ 22936.650000000001455, 5923842.075000000186265 ], [ 22936.650000000001455, 5923842.150000000372529 ], [ 22936.5, 5923842.150000000372529 ], [ 22936.5, 5923842.224999999627471 ], [ 22936.349999999998545, 5923842.224999999627471 ], [ 22936.349999999998545, 5923842.299999999813735 ], [ 22936.2, 5923842.299999999813735 ], [ 22936.2, 5923842.375 ], [ 22936.05, 5923842.375 ], [ 22936.05, 5923842.450000000186265 ], [ 22935.675, 5923842.450000000186265 ], [ 22935.675, 5923842.525000000372529 ], [ 22935.075, 5923842.525000000372529 ], [ 22935.075, 5923842.599999999627471 ], [ 22934.55, 5923842.599999999627471 ], [ 22934.55, 5923842.674999999813735 ], [ 22933.95, 5923842.674999999813735 ], [ 22933.95, 5923842.75 ], [ 22933.724999999998545, 5923842.75 ], [ 22933.724999999998545, 5923842.825000000186265 ], [ 22933.425, 5923842.825000000186265 ], [ 22933.425, 5923842.900000000372529 ], [ 22933.2, 5923842.900000000372529 ], [ 22933.2, 5923842.974999999627471 ], [ 22932.974999999998545, 5923842.974999999627471 ], [ 22932.974999999998545, 5923843.049999999813735 ], [ 22932.825, 5923843.049999999813735 ], [ 22932.825, 5923843.125 ], [ 22932.675, 5923843.125 ], [ 22932.675, 5923843.200000000186265 ], [ 22932.525000000001455, 5923843.200000000186265 ], [ 22932.525000000001455, 5923843.275000000372529 ], [ 22932.375, 5923843.275000000372529 ], [ 22932.375, 5923843.349999999627471 ], [ 22932.224999999998545, 5923843.349999999627471 ], [ 22932.224999999998545, 5923843.424999999813735 ], [ 22932.075, 5923843.424999999813735 ], [ 22932.075, 5923843.5 ], [ 22931.925, 5923843.5 ], [ 22931.925, 5923843.575000000186265 ], [ 22931.849999999998545, 5923843.575000000186265 ], [ 22931.849999999998545, 5923843.650000000372529 ], [ 22931.7, 5923843.650000000372529 ], [ 22931.7, 5923843.724999999627471 ], [ 22931.55, 5923843.724999999627471 ], [ 22931.55, 5923843.799999999813735 ], [ 22931.400000000001455, 5923843.799999999813735 ], [ 22931.400000000001455, 5923843.875 ], [ 22931.25, 5923843.875 ], [ 22931.25, 5923843.950000000186265 ], [ 22931.099999999998545, 5923843.950000000186265 ], [ 22931.099999999998545, 5923844.025000000372529 ], [ 22930.95, 5923844.025000000372529 ], [ 22930.95, 5923844.099999999627471 ], [ 22930.724999999998545, 5923844.099999999627471 ], [ 22930.724999999998545, 5923844.174999999813735 ], [ 22930.575, 5923844.174999999813735 ], [ 22930.575, 5923844.25 ], [ 22930.425, 5923844.25 ], [ 22930.425, 5923844.325000000186265 ], [ 22930.2, 5923844.325000000186265 ], [ 22930.2, 5923844.400000000372529 ], [ 22929.75, 5923844.400000000372529 ], [ 22929.75, 5923844.474999999627471 ], [ 22928.025000000001455, 5923844.474999999627471 ] ] ] } },
{ "type": "Feature", "properties": { "value": 1.0, "building_id": 3, "area": 3.1275000000145718 }, "geometry": { "type": "Polygon", "coordinates": [ [ [ 22937.849999999998545, 5923787.400000000372529 ], [ 22937.849999999998545, 5923787.325000000186265 ], [ 22937.7, 5923787.325000000186265 ], [ 22937.7, 5923787.25 ], [ 22937.474999999998545, 5923787.25 ], [ 22937.474999999998545, 5923787.174999999813735 ], [ 22937.325, 5923787.174999999813735 ], [ 22937.325, 5923787.099999999627471 ], [ 22937.175, 5923787.099999999627471 ], [ 22937.175, 5923787.025000000372529 ], [ 22937.099999999998545, 5923787.025000000372529 ], [ 22937.099999999998545, 5923786.799999999813735 ], [ 22937.175, 5923786.799999999813735 ], [ 22937.175, 5923786.5 ], [ 22937.25, 5923786.5 ], [ 22937.25, 5923786.275000000372529 ], [ 22937.325, 5923786.275000000372529 ], [ 22937.325, 5923786.049999999813735 ], [ 22937.400000000001455, 5923786.049999999813735 ], [ 22937.400000000001455, 5923785.825000000186265 ], [ 22937.474999999998545, 5923785.825000000186265 ], [ 22937.474999999998545, 5923785.599999999627471 ], [ 22937.55, 5923785.599999999627471 ], [ 22937.55, 5923785.450000000186265 ], [ 22937.625, 5923785.450000000186265 ], [ 22937.625, 5923785.224999999627471 ], [ 22937.7, 5923785.224999999627471 ], [ 22937.7, 5923785.075000000186265 ], [ 22937.775000000001455, 5923785.075000000186265 ], [ 22937.775000000001455, 5923785.0 ], [ 22938.0, 5923785.0 ], [ 22938.0, 5923785.075000000186265 ], [ 22938.075, 5923785.075000000186265 ], [ 22938.075, 5923785.224999999627471 ], [ 22938.150000000001455, 5923785.224999999627471 ], [ 22938.150000000001455, 5923785.375 ], [ 22938.224999999998545, 5923785.375 ], [ 22938.224999999998545, 5923785.450000000186265 ], [ 22938.3, 5923785.450000000186265 ], [ 22938.3, 5923785.599999999627471 ], [ 22938.375, 5923785.599999999627471 ], [ 22938.375, 5923785.674999999813735 ], [ 22938.45, 5923785.674999999813735 ], [ 22938.45, 5923785.825000000186265 ], [ 22938.525000000001455, 5923785.825000000186265 ], [ 22938.525000000001455, 5923785.900000000372529 ], [ 22938.599999999998545, 5923785.900000000372529 ], [ 22938.599999999998545, 5923785.974999999627471 ], [ 22938.675, 5923785.974999999627471 ], [ 22938.675, 5923786.125 ], [ 22938.75, 5923786.125 ], [ 22938.75, 5923786.200000000186265 ], [ 22938.825, 5923786.200000000186265 ], [ 22938.825, 5923786.275000000372529 ], [ 22938.900000000001455, 5923786.275000000372529 ], [ 22938.900000000001455, 5923786.349999999627471 ], [ 22938.974999999998545, 5923786.349999999627471 ], [ 22938.974999999998545, 5923786.424999999813735 ], [ 22939.05, 5923786.424999999813735 ], [ 22939.05, 5923786.5 ], [ 22939.125, 5923786.5 ], [ 22939.125, 5923786.575000000186265 ], [ 22939.2, 5923786.575000000186265 ], [ 22939.2, 5923786.650000000372529 ], [ 22939.275000000001455, 5923786.650000000372529 ], [ 22939.275000000001455, 5923786.724999999627471 ], [ 22939.349999999998545, 5923786.724999999627471 ], [ 22939.349999999998545, 5923786.799999999813735 ], [ 22939.5, 5923786.799999999813735 ], [ 22939.5, 5923786.875 ], [ 22939.575, 5923786.875 ], [ 22939.575, 5923786.950000000186265 ], [ 22939.650000000001455, 5923786.950000000186265 ], [ 22939.650000000001455, 5923787.025000000372529 ], [ 22939.425, 5923787.025000000372529 ], [ 22939.425, 5923787.099999999627471 ], [ 22939.125, 5923787.099999999627471 ], [ 22939.125, 5923787.174999999813735 ], [ 22938.75, 5923787.174999999813735 ], [ 22938.75, 5923787.25 ], [ 22938.3, 5923787.25 ], [ 22938.3, 5923787.325000000186265 ], [ 22937.925, 5923787.325000000186265 ], [ 22937.925, 5923787.400000000372529 ], [ 22937.849999999998545, 5923787.400000000372529 ] ] ] } },
{ "type": "Feature", "properties": { "value": 1.0, "building_id": 4, "area": 25.093124999664767 }, "geometry": { "type": "Polygon", "coordinates": [ [ [ 22953.3, 5923782.299999999813735 ], [ 22953.3, 5923782.224999999627471 ], [ 22952.325, 5923782.224999999627471 ], [ 22952.325, 5923782.150000000372529 ], [ 22951.575, 5923782.150000000372529 ], [ 22951.575, 5923782.075000000186265 ], [ 22951.5, 5923782.075000000186265 ], [ 22951.5, 5923782.0 ], [ 22951.425, 5923782.0 ], [ 22951.425, 5923781.924999999813735 ], [ 22951.349999999998545, 5923781.924999999813735 ], [ 22951.349999999998545, 5923781.849999999627471 ], [ 22951.275000000001455, 5923781.849999999627471 ], [ 22951.275000000001455, 5923781.775000000372529 ], [ 22951.2, 5923781.775000000372529 ], [ 22951.2, 5923781.625 ], [ 22951.125, 5923781.625 ], [ 22951.125, 5923781.549999999813735 ], [ 22951.05, 5923781.549999999813735 ], [ 22951.05, 5923781.400000000372529 ], [ 22950.974999999998545, 5923781.400000000372529 ], [ 22950.974999999998545, 5923781.25 ], [ 22950.900000000001455, 5923781.25 ], [ 22950.900000000001455, 5923781.099999999627471 ], [ 22950.825, 5923781.099999999627471 ], [ 22950.825, 5923780.799999999813735 ], [ 22950.75, 5923780.799999999813735 ], [ 22950.75, 5923780.424999999813735 ], [ 22950.675, 5923780.424999999813735 ], [ 22950.675, 5923780.125 ], [ 22950.599999999998545, 5923780.125 ], [ 22950.599999999998545, 5923779.674999999813735 ], [ 22950.525000000001455, 5923779.674999999813735 ], [ 22950.525000000001455, 5923779.224999999627471 ], [ 22950.45, 5923779.224999999627471 ], [ 22950.45, 5923779.075000000186265 ], [ 22950.525000000001455, 5923779.075000000186265 ], [ 22950.525000000001455, 5923778.099999999627471 ], [ 22950.599999999998545, 5923778.099999999627471 ], [ 22950.599999999998545, 5923777.200000000186265 ], [ 22950.675, 5923777.200000000186265 ], [ 22950.675, 5923777.049999999813735 ], [ 22950.75, 5923777.049999999813735 ], [ 22950.75, 5923776.974999999627471 ], [ 22950.825, 5923776.974999999627471 ], [ 22950.825, 5923776.825000000186265 ], [ 22950.900000000001455, 5923776.825000000186265 ], [ 22950.900000000001455, 5923776.75 ], [ 22950.974999999998545, 5923776.75 ], [ 22950.974999999998545, 5923776.599999999627471 ], [ 22951.05, 5923776.599999999627471 ], [ 22951.05, 5923776.525000000372529 ], [ 22951.125, 5923776.525000000372529 ], [ 22951.125, 5923776.450000000186265 ], [ 22951.2, 5923776.450000000186265 ], [ 22951.2, 5923776.375 ], [ 22951.275000000001455, 5923776.375 ], [ 22951.275000000001455, 5923776.299999999813735 ], [ 22951.425, 5923776.299999999813735 ], [ 22951.425, 5923776.224999999627471 ], [ 22951.5, 5923776.224999999627471 ], [ 22951.5, 5923776.150000000372529 ], [ 22951.875, 5923776.150000000372529 ], [ 22951.875, 5923776.075000000186265 ], [ 22952.400000000001455, 5923776.075000000186265 ], [ 22952.400000000001455, 5923776.0 ], [ 22953.0, 5923776.0 ], [ 22953.0, 5923775.924999999813735 ], [ 22953.675, 5923775.924999999813735 ], [ 22953.675, 5923776.0 ], [ 22953.825, 5923776.0 ], [ 22953.825, 5923776.075000000186265 ], [ 22953.974999999998545, 5923776.075000000186265 ], [ 22953.974999999998545, 5923776.150000000372529 ], [ 22954.125, 5923776.150000000372529 ], [ 22954.125, 5923776.224999999627471 ], [ 22954.275000000001455, 5923776.224999999627471 ], [ 22954.275000000001455, 5923776.299999999813735 ], [ 22954.349999999998545, 5923776.299999999813735 ], [ 22954.349999999998545, 5923776.375 ], [ 22954.425, 5923776.375 ], [ 22954.425, 5923776.450000000186265 ], [ 22954.5, 5923776.450000000186265 ], [ 22954.5, 5923776.525000000372529 ], [ 22954.575, 5923776.525000000372529 ], [ 22954.575, 5923776.599999999627471 ], [ 22954.650000000001455, 5923776.599999999627471 ], [ 22954.650000000001455, 5923776.674999999813735 ], [ 22954.724999999998545, 5923776.674999999813735 ], [ 22954.724999999998545, 5923776.75 ], [ 22954.8, 5923776.75 ], [ 22954.8, 5923776.900000000372529 ], [ 22954.875, 5923776.900000000372529 ], [ 22954.875, 5923777.049999999813735 ], [ 22954.95, 5923777.049999999813735 ], [ 22954.95, 5923777.200000000186265 ], [ 22955.025000000001455, 5923777.200000000186265 ], [ 22955.025000000001455, 5923777.424999999813735 ], [ 22955.099999999998545, 5923777.424999999813735 ], [ 22955.099999999998545, 5923777.799999999813735 ], [ 22955.175, 5923777.799999999813735 ], [ 22955.175, 5923778.174999999813735 ], [ 22955.25, 5923778.174999999813735 ], [ 22955.25, 5923778.474999999627471 ], [ 22955.325, 5923778.474999999627471 ], [ 22955.325, 5923778.849999999627471 ], [ 22955.400000000001455, 5923778.849999999627471 ], [ 22955.400000000001455, 5923779.075000000186265 ], [ 22955.474999999998545, 5923779.075000000186265 ], [ 22955.474999999998545, 5923779.224999999627471 ], [ 22955.400000000001455, 5923779.224999999627471 ], [ 22955.400000000001455, 5923779.450000000186265 ], [ 22955.325, 5923779.450000000186265 ], [ 22955.325, 5923779.599999999627471 ], [ 22955.25, 5923779.599999999627471 ], [ 22955.25, 5923779.75 ], [ 22955.175, 5923779.75 ], [ 22955.175, 5923779.900000000372529 ], [ 22955.099999999998545, 5923779.900000000372529 ], [ 22955.099999999998545, 5923780.049999999813735 ], [ 22955.025000000001455, 5923780.049999999813735 ], [ 22955.025000000001455, 5923780.275000000372529 ], [ 22954.95, 5923780.275000000372529 ], [ 22954.95, 5923780.424999999813735 ], [ 22954.875, 5923780.424999999813735 ], [ 22954.875, 5923780.575000000186265 ], [ 22954.8, 5923780.575000000186265 ], [ 22954.8, 5923780.724999999627471 ], [ 22954.724999999998545, 5923780.724999999627471 ], [ 22954.724999999998545, 5923780.950000000186265 ], [ 22954.650000000001455, 5923780.950000000186265 ], [ 22954.650000000001455, 5923781.099999999627471 ], [ 22954.575, 5923781.099999999627471 ], [ 22954.575, 5923781.25 ], [ 22954.5, 5923781.25 ], [ 22954.5, 5923781.325000000186265 ], [ 22954.425, 5923781.325000000186265 ], [ 22954.425, 5923781.474999999627471 ], [ 22954.349999999998545, 5923781.474999999627471 ], [ 22954.349999999998545, 5923781.549999999813735 ], [ 22954.275000000001455, 5923781.549999999813735 ], [ 22954.275000000001455, 5923781.625 ], [ 22954.2, 5923781.625 ], [ 22954.2, 5923781.700000000186265 ], [ 22954.125, 5923781.700000000186265 ], [ 22954.125, 5923781.849999999627471 ], [ 22954.05, 5923781.849999999627471 ], [ 22954.05, 5923781.924999999813735 ], [ 22953.900000000001455, 5923781.924999999813735 ], [ 22953.900000000001455, 5923782.0 ], [ 22953.825, 5923782.0 ], [ 22953.825, 5923782.075000000186265 ], [ 22953.75, 5923782.075000000186265 ], [ 22953.75, 5923782.150000000372529 ], [ 22953.675, 5923782.150000000372529 ], [ 22953.675, 5923782.224999999627471 ], [ 22953.525000000001455, 5923782.224999999627471 ], [ 22953.525000000001455, 5923782.299999999813735 ], [ 22953.3, 5923782.299999999813735 ] ] ] } },
{ "type": "Feature", "properties": { "value": 1.0, "building_id": 5, "area": 36.714374999959361 }, "geometry": { "type": "Polygon", "coordinates": [ [ [ 22976.775000000001455, 5923781.25 ], [ 22976.775000000001455, 5923781.174999999813735 ], [ 22976.625, 5923781.174999999813735 ], [ 22976.625, 5923781.025000000372529 ], [ 22976.55, 5923781.025000000372529 ], [ 22976.55, 5923780.950000000186265 ], [ 22976.474999999998545, 5923780.950000000186265 ], [ 22976.474999999998545, 5923780.875 ], [ 22976.400000000001455, 5923780.875 ], [ 22976.400000000001455, 5923780.799999999813735 ], [ 22976.325, 5923780.799999999813735 ], [ 22976.325, 5923780.724999999627471 ], [ 22976.25, 5923780.724999999627471 ], [ 22976.25, 5923780.650000000372529 ], [ 22976.175, 5923780.650000000372529 ], [ 22976.175, 5923780.575000000186265 ], [ 22976.025000000001455, 5923780.575000000186265 ], [ 22976.025000000001455, 5923780.5 ], [ 22975.95, 5923780.5 ], [ 22975.95, 5923780.424999999813735 ], [ 22975.8, 5923780.424999999813735 ], [ 22975.8, 5923780.349999999627471 ], [ 22975.650000000001455, 5923780.349999999627471 ], [ 22975.650000000001455, 5923780.275000000372529 ], [ 22975.425, 5923780.275000000372529 ], [ 22975.425, 5923780.200000000186265 ], [ 22975.2, 5923780.200000000186265 ], [ 22975.2, 5923780.125 ], [ 22974.974999999998545, 5923780.125 ], [ 22974.974999999998545, 5923780.049999999813735 ], [ 22974.900000000001455, 5923780.049999999813735 ], [ 22974.900000000001455, 5923779.974999999627471 ], [ 22974.825, 5923779.974999999627471 ], [ 22974.825, 5923779.825000000186265 ], [ 22974.75, 5923779.825000000186265 ], [ 22974.75, 5923779.75 ], [ 22974.675, 5923779.75 ], [ 22974.675, 5923779.599999999627471 ], [ 22974.599999999998545, 5923779.599999999627471 ], [ 22974.599999999998545, 5923779.525000000372529 ], [ 22974.525000000001455, 5923779.525000000372529 ], [ 22974.525000000001455, 5923779.375 ], [ 22974.45, 5923779.375 ], [ 22974.45, 5923779.224999999627471 ], [ 22974.375, 5923779.224999999627471 ], [ 22974.375, 5923777.724999999627471 ], [ 22974.3, 5923777.724999999627471 ], [ 22974.3, 5923777.049999999813735 ], [ 22974.375, 5923777.049999999813735 ], [ 22974.375, 5923776.299999999813735 ], [ 22974.45, 5923776.299999999813735 ], [ 22974.45, 5923775.625 ], [ 22974.525000000001455, 5923775.625 ], [ 22974.525000000001455, 5923775.174999999813735 ], [ 22974.599999999998545, 5923775.174999999813735 ], [ 22974.599999999998545, 5923774.950000000186265 ], [ 22974.675, 5923774.950000000186265 ], [ 22974.675, 5923774.724999999627471 ], [ 22974.75, 5923774.724999999627471 ], [ 22974.75, 5923774.575000000186265 ], [ 22974.825, 5923774.575000000186265 ], [ 22974.825, 5923774.424999999813735 ], [ 22974.900000000001455, 5923774.424999999813735 ], [ 22974.900000000001455, 5923774.275000000372529 ], [ 22974.974999999998545, 5923774.275000000372529 ], [ 22974.974999999998545, 5923774.125 ], [ 22975.125, 5923774.125 ], [ 22975.125, 5923774.049999999813735 ], [ 22975.349999999998545, 5923774.049999999813735 ], [ 22975.349999999998545, 5923773.974999999627471 ], [ 22975.5, 5923773.974999999627471 ], [ 22975.5, 5923773.900000000372529 ], [ 22975.650000000001455, 5923773.900000000372529 ], [ 22975.650000000001455, 5923773.825000000186265 ], [ 22975.724999999998545, 5923773.825000000186265 ], [ 22975.724999999998545, 5923773.75 ], [ 22975.875, 5923773.75 ], [ 22975.875, 5923773.674999999813735 ], [ 22975.95, 5923773.674999999813735 ], [ 22975.95, 5923773.599999999627471 ], [ 22976.025000000001455, 5923773.599999999627471 ], [ 22976.025000000001455, 5923773.525000000372529 ], [ 22976.175, 5923773.525000000372529 ], [ 22976.175, 5923773.450000000186265 ], [ 22976.25, 5923773.450000000186265 ], [ 22976.25, 5923773.375 ], [ 22976.325, 5923773.375 ], [ 22976.325, 5923773.299999999813735 ], [ 22976.474999999998545, 5923773.299999999813735 ], [ 22976.474999999998545, 5923773.224999999627471 ], [ 22976.55, 5923773.224999999627471 ], [ 22976.55, 5923773.150000000372529 ], [ 22976.7, 5923773.150000000372529 ], [ 22976.7, 5923773.075000000186265 ], [ 22976.849999999998545, 5923773.075000000186265 ], [ 22976.849999999998545, 5923773.0 ], [ 22977.0, 5923773.0 ], [ 22977.0, 5923773.075000000186265 ], [ 22977.075, 5923773.075000000186265 ], [ 22977.075, 5923773.150000000372529 ], [ 22977.224999999998545, 5923773.150000000372529 ], [ 22977.224999999998545, 5923773.224999999627471 ], [ 22977.3, 5923773.224999999627471 ], [ 22977.3, 5923773.299999999813735 ], [ 22977.375, 5923773.299999999813735 ], [ 22977.375, 5923773.375 ], [ 22977.45, 5923773.375 ], [ 22977.45, 5923773.525000000372529 ], [ 22977.525000000001455, 5923773.525000000372529 ], [ 22977.525000000001455, 5923773.599999999627471 ], [ 22977.599999999998545, 5923773.599999999627471 ], [ 22977.599999999998545, 5923773.75 ], [ 22977.675, 5923773.75 ], [ 22977.675, 5923773.825000000186265 ], [ 22977.75, 5923773.825000000186265 ], [ 22977.75, 5923773.974999999627471 ], [ 22977.825, 5923773.974999999627471 ], [ 22977.825, 5923774.049999999813735 ], [ 22977.900000000001455, 5923774.049999999813735 ], [ 22977.900000000001455, 5923774.125 ], [ 22977.974999999998545, 5923774.125 ], [ 22977.974999999998545, 5923774.200000000186265 ], [ 22978.05, 5923774.200000000186265 ], [ 22978.05, 5923774.349999999627471 ], [ 22978.125, 5923774.349999999627471 ], [ 22978.125, 5923774.424999999813735 ], [ 22978.275000000001455, 5923774.424999999813735 ], [ 22978.275000000001455, 5923774.5 ], [ 22978.349999999998545, 5923774.5 ], [ 22978.349999999998545, 5923774.575000000186265 ], [ 22978.425, 5923774.575000000186265 ], [ 22978.425, 5923774.650000000372529 ], [ 22978.5, 5923774.650000000372529 ], [ 22978.5, 5923774.724999999627471 ], [ 22978.650000000001455, 5923774.724999999627471 ], [ 22978.650000000001455, 5923774.799999999813735 ], [ 22978.724999999998545, 5923774.799999999813735 ], [ 22978.724999999998545, 5923774.875 ], [ 22978.875, 5923774.875 ], [ 22978.875, 5923774.950000000186265 ], [ 22978.95, 5923774.950000000186265 ], [ 22978.95, 5923775.025000000372529 ], [ 22979.025000000001455, 5923775.025000000372529 ], [ 22979.025000000001455, 5923775.099999999627471 ], [ 22979.099999999998545, 5923775.099999999627471 ], [ 22979.099999999998545, 5923775.174999999813735 ], [ 22979.175, 5923775.174999999813735 ], [ 22979.175, 5923775.25 ], [ 22979.25, 5923775.25 ], [ 22979.25, 5923775.400000000372529 ], [ 22979.325, 5923775.400000000372529 ], [ 22979.325, 5923775.549999999813735 ], [ 22979.400000000001455, 5923775.549999999813735 ], [ 22979.400000000001455, 5923775.700000000186265 ], [ 22979.474999999998545, 5923775.700000000186265 ], [ 22979.474999999998545, 5923775.849999999627471 ], [ 22979.55, 5923775.849999999627471 ], [ 22979.55, 5923776.0 ], [ 22979.625, 5923776.0 ], [ 22979.625, 5923776.150000000372529 ], [ 22979.7, 5923776.150000000372529 ], [ 22979.7, 5923776.224999999627471 ], [ 22979.775000000001455, 5923776.224999999627471 ], [ 22979.775000000001455, 5923776.375 ], [ 22979.849999999998545, 5923776.375 ], [ 22979.849999999998545, 5923776.450000000186265 ], [ 22979.925, 5923776.450000000186265 ], [ 22979.925, 5923776.525000000372529 ], [ 22980.0, 5923776.525000000372529 ], [ 22980.0, 5923776.599999999627471 ], [ 22980.075, 5923776.599999999627471 ], [ 22980.075, 5923776.674999999813735 ], [ 22980.150000000001455, 5923776.674999999813735 ], [ 22980.150000000001455, 5923776.75 ], [ 22980.224999999998545, 5923776.75 ], [ 22980.224999999998545, 5923776.825000000186265 ], [ 22980.3, 5923776.825000000186265 ], [ 22980.3, 5923776.900000000372529 ], [ 22980.375, 5923776.900000000372529 ], [ 22980.375, 5923776.974999999627471 ], [ 22980.45, 5923776.974999999627471 ], [ 22980.45, 5923777.049999999813735 ], [ 22980.525000000001455, 5923777.049999999813735 ], [ 22980.525000000001455, 5923777.125 ], [ 22980.675, 5923777.125 ], [ 22980.675, 5923777.200000000186265 ], [ 22980.825, 5923777.200000000186265 ], [ 22980.825, 5923778.174999999813735 ], [ 22980.900000000001455, 5923778.174999999813735 ], [ 22980.900000000001455, 5923779.224999999627471 ], [ 22980.825, 5923779.224999999627471 ], [ 22980.825, 5923779.299999999813735 ], [ 22980.599999999998545, 5923779.299999999813735 ], [ 22980.599999999998545, 5923779.375 ], [ 22980.45, 5923779.375 ], [ 22980.45, 5923779.450000000186265 ], [ 22980.3, 5923779.450000000186265 ], [ 22980.3, 5923779.525000000372529 ], [ 22980.150000000001455, 5923779.525000000372529 ], [ 22980.150000000001455, 5923779.599999999627471 ], [ 22980.0, 5923779.599999999627471 ], [ 22980.0, 5923779.674999999813735 ], [ 22979.849999999998545, 5923779.674999999813735 ], [ 22979.849999999998545, 5923779.75 ], [ 22979.7, 5923779.75 ], [ 22979.7, 5923779.825000000186265 ], [ 22979.625, 5923779.825000000186265 ], [ 22979.625, 5923779.900000000372529 ], [ 22979.474999999998545, 5923779.900000000372529 ], [ 22979.474999999998545, 5923779.974999999627471 ], [ 22979.325, 5923779.974999999627471 ], [ 22979.325, 5923780.049999999813735 ], [ 22979.25, 5923780.049999999813735 ], [ 22979.25, 5923780.125 ], [ 22979.099999999998545, 5923780.125 ], [ 22979.099999999998545, 5923780.200000000186265 ], [ 22978.95, 5923780.200000000186265 ], [ 22978.95, 5923780.275000000372529 ], [ 22978.875, 5923780.275000000372529 ], [ 22978.875, 5923780.349999999627471 ], [ 22978.724999999998545, 5923780.349999999627471 ], [ 22978.724999999998545, 5923780.424999999813735 ], [ 22978.575, 5923780.424999999813735 ], [ 22978.575, 5923780.5 ], [ 22978.5, 5923780.5 ], [ 22978.5, 5923780.575000000186265 ], [ 22978.349999999998545, 5923780.575000000186265 ], [ 22978.349999999998545, 5923780.650000000372529 ], [ 22978.2, 5923780.650000000372529 ], [ 22978.2, 5923780.724999999627471 ], [ 22978.125, 5923780.724999999627471 ], [ 22978.125, 5923780.799999999813735 ], [ 22977.974999999998545, 5923780.799999999813735 ], [ 22977.974999999998545, 5923780.875 ], [ 22977.900000000001455, 5923780.875 ], [ 22977.900000000001455, 5923780.950000000186265 ], [ 22977.825, 5923780.950000000186265 ], [ 22977.825, 5923781.025000000372529 ], [ 22977.675, 5923781.025000000372529 ], [ 22977.675, 5923781.099999999627471 ], [ 22977.599999999998545, 5923781.099999999627471 ], [ 22977.599999999998545, 5923781.174999999813735 ], [ 22977.3, 5923781.174999999813735 ], [ 22977.3, 5923781.25 ], [ 22976.775000000001455, 5923781.25 ] ] ] } },
{ "type": "Feature", "properties": { "value": 1.0, "building_id": 6, "area": 5.0568749993581532 }, "geometry": { "type": "Polygon", "coordinates": [ [ [ 22959.375, 5923749.299999999813735 ], [ 22959.375, 5923749.224999999627471 ], [ 22959.3, 5923749.224999999627471 ], [ 22959.3, 5923749.075000000186265 ], [ 22959.224999999998545, 5923749.075000000186265 ], [ 22959.224999999998545, 5923748.849999999627471 ], [ 22959.150000000001455, 5923748.849999999627471 ], [ 22959.150000000001455, 5923748.700000000186265 ], [ 22959.075, 5923748.700000000186265 ], [ 22959.075, 5923748.474999999627471 ], [ 22959.0, 5923748.474999999627471 ], [ 22959.0, 5923748.25 ], [ 22958.925, 5923748.25 ], [ 22958.925, 5923747.799999999813735 ], [ 22959.0, 5923747.799999999813735 ], [ 22959.0, 5923747.650000000372529 ], [ 22959.075, 5923747.650000000372529 ], [ 22959.075, 5923747.575000000186265 ], [ 22959.150000000001455, 5923747.575000000186265 ], [ 22959.150000000001455, 5923747.424999999813735 ], [ 22959.224999999998545, 5923747.424999999813735 ], [ 22959.224999999998545, 5923747.349999999627471 ], [ 22959.3, 5923747.349999999627471 ], [ 22959.3, 5923747.275000000372529 ], [ 22959.375, 5923747.275000000372529 ], [ 22959.375, 5923747.200000000186265 ], [ 22960.425, 5923747.200000000186265 ], [ 22960.425, 5923747.125 ], [ 22961.325, 5923747.125 ], [ 22961.325, 5923747.200000000186265 ], [ 22961.400000000001455, 5923747.200000000186265 ], [ 22961.400000000001455, 5923747.349999999627471 ], [ 22961.474999999998545, 5923747.349999999627471 ], [ 22961.474999999998545, 5923747.424999999813735 ], [ 22961.55, 5923747.424999999813735 ], [ 22961.55, 5923747.575000000186265 ], [ 22961.625, 5923747.575000000186265 ], [ 22961.625, 5923747.724999999627471 ], [ 22961.7, 5923747.724999999627471 ], [ 22961.7, 5923747.875 ], [ 22961.775000000001455, 5923747.875 ], [ 22961.775000000001455, 5923748.025000000372529 ], [ 22961.7, 5923748.025000000372529 ], [ 22961.7, 5923748.25 ], [ 22961.625, 5923748.25 ], [ 22961.625, 5923748.474999999627471 ], [ 22961.55, 5923748.474999999627471 ], [ 22961.55, 5923748.700000000186265 ], [ 22961.474999999998545, 5923748.700000000186265 ], [ 22961.474999999998545, 5923748.924999999813735 ], [ 22961.400000000001455, 5923748.924999999813735 ], [ 22961.400000000001455, 5923749.075000000186265 ], [ 22961.325, 5923749.075000000186265 ], [ 22961.325, 5923749.150000000372529 ], [ 22961.025000000001455, 5923749.150000000372529 ], [ 22961.025000000001455, 5923749.224999999627471 ], [ 22959.75, 5923749.224999999627471 ], [ 22959.75, 5923749.299999999813735 ], [ 22959.375, 5923749.299999999813735 ] ] ] } }
]
}
