{
"type": "FeatureCollection",
"name": "23433E592257N_buildings",
"crs": { "type": "name", "properties": { "name": "urn:ogc:def:crs:EPSG::3776" } },
"features": [
{ "type": "Feature", "properties": { "value": 1.0, "building_id": 0, "area": 52.830000000240325 }, "geometry": { "type": "Polygon", "coordinates": [ [ [ 24032.474999999998545, 5922864.150000000372529 ], [ 24032.474999999998545, 5922864.075000000186265 ], [ 24032.325, 5922864.075000000186265 ], [ 24032.325, 5922864.0 ], [ 24032.175, 5922864.0 ], [ 24032.175, 5922863.924999999813735 ], [ 24031.95, 5922863.924999999813735 ], [ 24031.95, 5922863.849999999627471 ], [ 24031.8, 5922863.849999999627471 ], [ 24031.8, 5922863.775000000372529 ], [ 24031.650000000001455, 5922863.775000000372529 ], [ 24031.650000000001455, 5922863.700000000186265 ], [ 24031.5, 5922863.700000000186265 ], [ 24031.5, 5922863.625 ], [ 24031.425, 5922863.625 ], [ 24031.425, 5922863.549999999813735 ], [ 24031.349999999998545, 5922863.549999999813735 ], [ 24031.349999999998545, 5922863.474999999627471 ], [ 24031.275000000001455, 5922863.474999999627471 ], [ 24031.275000000001455, 5922863.400000000372529 ], [ 24031.2, 5922863.400000000372529 ], [ 24031.2, 5922863.325000000186265 ], [ 24031.125, 5922863.325000000186265 ], [ 24031.125, 5922863.25 ], [ 24031.05, 5922863.25 ], [ 24031.05, 5922863.099999999627471 ], [ 24030.974999999998545, 5922863.099999999627471 ], [ 24030.974999999998545, 5922862.950000000186265 ], [ 24030.900000000001455, 5922862.950000000186265 ], [ 24030.900000000001455, 5922862.799999999813735 ], [ 24030.825, 5922862.799999999813735 ], [ 24030.825, 5922862.650000000372529 ], [ 24030.75, 5922862.650000000372529 ], [ 24030.75, 5922862.5 ], [ 24030.675, 5922862.5 ], [ 24030.675, 5922862.349999999627471 ], [ 24030.599999999998545, 5922862.349999999627471 ], [ 24030.599999999998545, 5922862.275000000372529 ], [ 24030.525000000001455, 5922862.275000000372529 ], [ 24030.525000000001455, 5922862.125 ], [ 24030.45, 5922862.125 ], [ 24030.45, 5922861.974999999627471 ], [ 24030.375, 5922861.974999999627471 ], [ 24030.375, 5922861.900000000372529 ], [ 24030.3, 5922861.900000000372529 ], [ 24030.3, 5922861.75 ], [ 24030.224999999998545, 5922861.75 ], [ 24030.224999999998545, 5922861.674999999813735 ], [ 24030.150000000001455, 5922861.674999999813735 ], [ 24030.150000000001455, 5922861.599999999627471 ], [ 24030.075, 5922861.599999999627471 ], [ 24030.075, 5922861.450000000186265 ], [ 24030.0, 5922861.450000000186265 ], [ 24030.0, 5922861.375 ], [ 24029.925, 5922861.375 ], [ 24029.925, 5922861.299999999813735 ], [ 24029.849999999998545, 5922861.299999999813735 ], [ 24029.849999999998545, 5922861.150000000372529 ], [ 24029.775000000001455, 5922861.150000000372529 ], [ 24029.775000000001455, 5922861.075000000186265 ], [ 24029.7, 5922861.075000000186265 ], [ 24029.7, 5922861.0 ], [ 24029.625, 5922861.0 ], [ 24029.625, 5922860.924999999813735 ], [ 24029.55, 5922860.924999999813735 ], [ 24029.55, 5922860.849999999627471 ], [ 24029.474999999998545, 5922860.849999999627471 ], [ 24029.474999999998545, 5922860.775000000372529 ], [ 24029.400000000001455, 5922860.775000000372529 ], [ 24029.400000000001455, 5922860.625 ], [ 24029.325, 5922860.625 ], [ 24029.325, 5922860.549999999813735 ], [ 24029.25, 5922860.549999999813735 ], [ 24029.25, 5922860.474999999627471 ], [ 24029.175, 5922860.474999999627471 ], [ 24029.175, 5922860.325000000186265 ], [ 24029.099999999998545, 5922860.325000000186265 ], [ 24029.099999999998545, 5922860.174999999813735 ], [ 24029.025000000001455, 5922860.174999999813735 ], [ 24029.025000000001455, 5922860.025000000372529 ], [ 24028.95, 5922860.025000000372529 ], [ 24028.95, 5922859.875 ], [ 24028.875, 5922859.875 ], [ 24028.875, 5922859.724999999627471 ], [ 24028.8, 5922859.724999999627471 ], [ 24028.8, 5922859.5 ], [ 24028.724999999998545, 5922859.5 ], [ 24028.724999999998545, 5922858.224999999627471 ], [ 24028.650000000001455, 5922858.224999999627471 ], [ 24028.650000000001455, 5922857.25 ], [ 24028.724999999998545, 5922857.25 ], [ 24028.724999999998545, 5922856.875 ], [ 24028.8, 5922856.875 ], [ 24028.8, 5922856.575000000186265 ], [ 24028.875, 5922856.575000000186265 ], [ 24028.875, 5922856.275000000372529 ], [ 24028.95, 5922856.275000000372529 ], [ 24028.95, 5922856.049999999813735 ], [ 24029.025000000001455, 5922856.049999999813735 ], [ 24029.025000000001455, 5922855.75 ], [ 24029.099999999998545, 5922855.75 ], [ 24029.099999999998545, 5922855.525000000372529 ], [ 24029.175, 5922855.525000000372529 ], [ 24029.175, 5922855.375 ], [ 24029.25, 5922855.375 ], [ 24029.25, 5922855.299999999813735 ], [ 24029.325, 5922855.299999999813735 ], [ 24029.325, 5922855.224999999627471 ], [ 24029.400000000001455, 5922855.224999999627471 ], [ 24029.400000000001455, 5922855.150000000372529 ], [ 24029.55, 5922855.150000000372529 ], [ 24029.55, 5922855.075000000186265 ], [ 24029.7, 5922855.075000000186265 ], [ 24029.7, 5922855.0 ], [ 24030.3, 5922855.0 ], [ 24030.3, 5922854.924999999813735 ], [ 24030.900000000001455, 5922854.924999999813735 ], [ 24030.900000000001455, 5922854.849999999627471 ], [ 24031.349999999998545, 5922854.849999999627471 ], [ 24031.349999999998545, 5922854.775000000372529 ], [ 24031.875, 5922854.775000000372529 ], [ 24031.875, 5922854.849999999627471 ], [ 24032.099999999998545, 5922854.849999999627471 ], [ 24032.099999999998545, 5922854.924999999813735 ], [ 24032.474999999998545, 5922854.924999999813735 ], [ 24032.474999999998545, 5922855.0 ], [ 24032.775000000001455, 5922855.0 ], [ 24032.775000000001455, 5922855.075000000186265 ], [ 24033.150000000001455, 5922855.075000000186265 ], [ 24033.150000000001455, 5922855.150000000372529 ], [ 24033.525000000001455, 5922855.150000000372529 ], [ 24033.525000000001455, 5922855.224999999627471 ], [ 24033.75, 5922855.224999999627471 ], [ 24033.75, 5922855.299999999813735 ], [ 24033.900000000001455, 5922855.299999999813735 ], [ 24033.900000000001455, 5922855.375 ], [ 24033.974999999998545, 5922855.375 ], [ 24033.974999999998545, 5922855.450000000186265 ], [ 24034.05, 5922855.450000000186265 ], [ 24034.05, 5922855.599999999627471 ], [ 24034.125, 5922855.599999999627471 ], [ 24034.125, 5922855.75 ], [ 24034.2, 5922855.75 ], [ 24034.2, 5922855.900000000372529 ], [ 24034.275000000001455, 5922855.900000000372529 ], [ 24034.275000000001455, 5922855.974999999627471 ], [ 24034.349999999998545, 5922855.974999999627471 ], [ 24034.349999999998545, 5922856.125 ], [ 24034.425, 5922856.125 ], [ 24034.425, 5922856.200000000186265 ], [ 24034.5, 5922856.200000000186265 ], [ 24034.5, 5922856.275000000372529 ], [ 24034.575, 5922856.275000000372529 ], [ 24034.575, 5922856.349999999627471 ], [ 24034.650000000001455, 5922856.349999999627471 ], [ 24034.650000000001455, 5922856.5 ], [ 24034.724999999998545, 5922856.5 ], [ 24034.724999999998545, 5922856.575000000186265 ], [ 24034.8, 5922856.575000000186265 ], [ 24034.8, 5922856.650000000372529 ], [ 24034.875, 5922856.650000000372529 ], [ 24034.875, 5922856.724999999627471 ], [ 24034.95, 5922856.724999999627471 ], [ 24034.95, 5922856.799999999813735 ], [ 24035.099999999998545, 5922856.799999999813735 ], [ 24035.099999999998545, 5922856.875 ], [ 24035.175, 5922856.875 ], [ 24035.175, 5922856.950000000186265 ], [ 24035.25, 5922856.950000000186265 ], [ 24035.25, 5922857.025000000372529 ], [ 24035.325, 5922857.025000000372529 ], [ 24035.325, 5922857.099999999627471 ], [ 24035.474999999998545, 5922857.099999999627471 ], [ 24035.474999999998545, 5922857.174999999813735 ], [ 24035.55, 5922857.174999999813735 ], [ 24035.55, 5922857.25 ], [ 24035.625, 5922857.25 ], [ 24035.625, 5922858.299999999813735 ], [ 24035.7, 5922858.299999999813735 ], [ 24035.7, 5922859.950000000186265 ], [ 24035.775000000001455, 5922859.950000000186265 ], [ 24035.775000000001455, 5922860.924999999813735 ], [ 24035.849999999998545, 5922860.924999999813735 ], [ 24035.849999999998545, 5922861.599999999627471 ], [ 24035.925, 5922861.599999999627471 ], [ 24035.925, 5922862.200000000186265 ], [ 24036.0, 5922862.200000000186265 ], [ 24036.0, 5922862.575000000186265 ], [ 24036.075, 5922862.575000000186265 ], [ 24036.075, 5922862.950000000186265 ], [ 24036.150000000001455, 5922862.950000000186265 ], [ 24036.150000000001455, 5922863.174999999813735 ], [ 24036.075, 5922863.174999999813735 ], [ 24036.075, 5922863.25 ], [ 24035.7, 5922863.25 ], [ 24035.7, 5922863.325000000186265 ], [ 24035.400000000001455, 5922863.325000000186265 ], [ 24035.400000000001455, 5922863.400000000372529 ], [ 24035.175, 5922863.400000000372529 ], [ 24035.175, 5922863.474999999627471 ], [ 24034.95, 5922863.474999999627471 ], [ 24034.95, 5922863.549999999813735 ], [ 24034.724999999998545, 5922863.549999999813735 ], [ 24034.724999999998545, 5922863.625 ], [ 24034.425, 5922863.625 ], [ 24034.425, 5922863.700000000186265 ], [ 24034.125, 5922863.700000000186265 ], [ 24034.125, 5922863.775000000372529 ], [ 24033.75, 5922863.775000000372529 ], [ 24033.75, 5922863.849999999627471 ], [ 24033.45, 5922863.849999999627471 ], [ 24033.45, 5922863.924999999813735 ], [ 24033.3, 5922863.924999999813735 ], [ 24033.3, 5922864.0 ], [ 24033.075, 5922864.0 ], [ 24033.075, 5922864.075000000186265 ], [ 24032.775000000001455, 5922864.075000000186265 ], [ 24032.775000000001455, 5922864.150000000372529 ], [ 24032.474999999998545, 5922864.150000000372529 ] ] ] } },
{ "type": "Feature", "properties": { "value": 1.0, "building_id": 1, "area": 234.140625 }, "geometry": { "type": "Polygon", "coordinates": [ [ [ 24038.325, 5922846.375 ], [ 24038.325, 5922846.299999999813735 ], [ 24037.425, 5922846.299999999813735 ], [ 24037.425, 5922846.224999999627471 ], [ 24037.349999999998545, 5922846.224999999627471 ], [ 24037.349999999998545, 5922846.150000000372529 ], [ 24037.2, 5922846.150000000372529 ], [ 24037.2, 5922846.075000000186265 ], [ 24037.125, 5922846.075000000186265 ], [ 24037.125, 5922846.0 ], [ 24037.05, 5922846.0 ], [ 24037.05, 5922845.924999999813735 ], [ 24036.974999999998545, 5922845.924999999813735 ], [ 24036.974999999998545, 5922845.849999999627471 ], [ 24036.900000000001455, 5922845.849999999627471 ], [ 24036.900000000001455, 5922845.775000000372529 ], [ 24036.825, 5922845.775000000372529 ], [ 24036.825, 5922845.700000000186265 ], [ 24036.75, 5922845.700000000186265 ], [ 24036.75, 5922845.625 ], [ 24036.675, 5922845.625 ], [ 24036.675, 5922845.474999999627471 ], [ 24036.599999999998545, 5922845.474999999627471 ], [ 24036.599999999998545, 5922845.325000000186265 ], [ 24036.525000000001455, 5922845.325000000186265 ], [ 24036.525000000001455, 5922845.25 ], [ 24036.45, 5922845.25 ], [ 24036.45, 5922845.099999999627471 ], [ 24036.375, 5922845.099999999627471 ], [ 24036.375, 5922845.025000000372529 ], [ 24036.3, 5922845.025000000372529 ], [ 24036.3, 5922844.875 ], [ 24036.224999999998545, 5922844.875 ], [ 24036.224999999998545, 5922844.799999999813735 ], [ 24036.150000000001455, 5922844.799999999813735 ], [ 24036.150000000001455, 5922844.650000000372529 ], [ 24036.075, 5922844.650000000372529 ], [ 24036.075, 5922844.575000000186265 ], [ 24036.0, 5922844.575000000186265 ], [ 24036.0, 5922844.5 ], [ 24035.925, 5922844.5 ], [ 24035.925, 5922844.424999999813735 ], [ 24035.849999999998545, 5922844.424999999813735 ], [ 24035.849999999998545, 5922844.349999999627471 ], [ 24035.775000000001455, 5922844.349999999627471 ], [ 24035.775000000001455, 5922844.275000000372529 ], [ 24035.7, 5922844.275000000372529 ], [ 24035.7, 5922844.200000000186265 ], [ 24035.625, 5922844.200000000186265 ], [ 24035.625, 5922844.125 ], [ 24035.55, 5922844.125 ], [ 24035.55, 5922844.049999999813735 ], [ 24035.474999999998545, 5922844.049999999813735 ], [ 24035.474999999998545, 5922843.974999999627471 ], [ 24035.400000000001455, 5922843.974999999627471 ], [ 24035.400000000001455, 5922843.825000000186265 ], [ 24035.325, 5922843.825000000186265 ], [ 24035.325, 5922843.75 ], [ 24035.25, 5922843.75 ], [ 24035.25, 5922843.674999999813735 ], [ 24035.175, 5922843.674999999813735 ], [ 24035.175, 5922843.525000000372529 ], [ 24035.099999999998545, 5922843.525000000372529 ], [ 24035.099999999998545, 5922843.450000000186265 ], [ 24035.025000000001455, 5922843.450000000186265 ], [ 24035.025000000001455, 5922843.299999999813735 ], [ 24034.95, 5922843.299999999813735 ], [ 24034.95, 5922843.075000000186265 ], [ 24034.875, 5922843.075000000186265 ], [ 24034.875, 5922842.924999999813735 ], [ 24034.8, 5922842.924999999813735 ], [ 24034.8, 5922842.700000000186265 ], [ 24034.724999999998545, 5922842.700000000186265 ], [ 24034.724999999998545, 5922842.474999999627471 ], [ 24034.650000000001455, 5922842.474999999627471 ], [ 24034.650000000001455, 5922842.25 ], [ 24034.575, 5922842.25 ], [ 24034.575, 5922842.025000000372529 ], [ 24034.5, 5922842.025000000372529 ], [ 24034.5, 5922841.724999999627471 ], [ 24034.425, 5922841.724999999627471 ], [ 24034.425, 5922839.549999999813735 ], [ 24034.5, 5922839.549999999813735 ], [ 24034.5, 5922839.25 ], [ 24034.575, 5922839.25 ], [ 24034.575, 5922838.875 ], [ 24034.650000000001455, 5922838.875 ], [ 24034.650000000001455, 5922838.575000000186265 ], [ 24034.724999999998545, 5922838.575000000186265 ], [ 24034.724999999998545, 5922838.349999999627471 ], [ 24034.8, 5922838.349999999627471 ], [ 24034.8, 5922838.125 ], [ 24034.875, 5922838.125 ], [ 24034.875, 5922837.900000000372529 ], [ 24034.95, 5922837.900000000372529 ], [ 24034.95, 5922837.674999999813735 ], [ 24035.025000000001455, 5922837.674999999813735 ], [ 24035.025000000001455, 5922837.525000000372529 ], [ 24035.099999999998545, 5922837.525000000372529 ], [ 24035.099999999998545, 5922837.375 ], [ 24035.175, 5922837.375 ], [ 24035.175, 5922837.224999999627471 ], [ 24035.25, 5922837.224999999627471 ], [ 24035.25, 5922837.075000000186265 ], [ 24035.325, 5922837.075000000186265 ], [ 24035.325, 5922837.0 ], [ 24035.400000000001455, 5922837.0 ], [ 24035.400000000001455, 5922836.849999999627471 ], [ 24035.474999999998545, 5922836.849999999627471 ], [ 24035.474999999998545, 5922836.775000000372529 ], [ 24035.55, 5922836.775000000372529 ], [ 24035.55, 5922836.625 ], [ 24035.625, 5922836.625 ], [ 24035.625, 5922836.549999999813735 ], [ 24035.7, 5922836.549999999813735 ], [ 24035.7, 5922836.400000000372529 ], [ 24035.775000000001455, 5922836.400000000372529 ], [ 24035.775000000001455, 5922836.25 ], [ 24035.849999999998545, 5922836.25 ], [ 24035.849999999998545, 5922836.099999999627471 ], [ 24035.925, 5922836.099999999627471 ], [ 24035.925, 5922835.875 ], [ 24036.0, 5922835.875 ], [ 24036.0, 5922835.5 ], [ 24036.075, 5922835.5 ], [ 24036.075, 5922835.049999999813735 ], [ 24036.150000000001455, 5922835.049999999813735 ], [ 24036.150000000001455, 5922834.525000000372529 ], [ 24036.224999999998545, 5922834.525000000372529 ], [ 24036.224999999998545, 5922834.0 ], [ 24036.3, 5922834.0 ], [ 24036.3, 5922833.474999999627471 ], [ 24036.375, 5922833.474999999627471 ], [ 24036.375, 5922833.025000000372529 ], [ 24036.45, 5922833.025000000372529 ], [ 24036.45, 5922832.575000000186265 ], [ 24036.525000000001455, 5922832.575000000186265 ], [ 24036.525000000001455, 5922832.125 ], [ 24036.599999999998545, 5922832.125 ], [ 24036.599999999998545, 5922831.825000000186265 ], [ 24036.675, 5922831.825000000186265 ], [ 24036.675, 5922831.75 ], [ 24036.75, 5922831.75 ], [ 24036.75, 5922831.599999999627471 ], [ 24036.825, 5922831.599999999627471 ], [ 24036.825, 5922831.450000000186265 ], [ 24036.900000000001455, 5922831.450000000186265 ], [ 24036.900000000001455, 5922831.375 ], [ 24036.974999999998545, 5922831.375 ], [ 24036.974999999998545, 5922831.299999999813735 ], [ 24037.05, 5922831.299999999813735 ], [ 24037.05, 5922831.224999999627471 ], [ 24037.125, 5922831.224999999627471 ], [ 24037.125, 5922831.150000000372529 ], [ 24037.2, 5922831.150000000372529 ], [ 24037.2, 5922831.075000000186265 ], [ 24037.275000000001455, 5922831.075000000186265 ], [ 24037.275000000001455, 5922831.0 ], [ 24037.349999999998545, 5922831.0 ], [ 24037.349999999998545, 5922830.924999999813735 ], [ 24037.425, 5922830.924999999813735 ], [ 24037.425, 5922830.849999999627471 ], [ 24037.575, 5922830.849999999627471 ], [ 24037.575, 5922830.775000000372529 ], [ 24037.650000000001455, 5922830.775000000372529 ], [ 24037.650000000001455, 5922830.700000000186265 ], [ 24037.8, 5922830.700000000186265 ], [ 24037.8, 5922830.625 ], [ 24037.875, 5922830.625 ], [ 24037.875, 5922830.549999999813735 ], [ 24037.95, 5922830.549999999813735 ], [ 24037.95, 5922830.474999999627471 ], [ 24038.025000000001455, 5922830.474999999627471 ], [ 24038.025000000001455, 5922830.400000000372529 ], [ 24038.099999999998545, 5922830.400000000372529 ], [ 24038.099999999998545, 5922830.325000000186265 ], [ 24038.175, 5922830.325000000186265 ], [ 24038.175, 5922830.25 ], [ 24038.25, 5922830.25 ], [ 24038.25, 5922830.174999999813735 ], [ 24038.325, 5922830.174999999813735 ], [ 24038.325, 5922830.099999999627471 ], [ 24038.400000000001455, 5922830.099999999627471 ], [ 24038.400000000001455, 5922830.025000000372529 ], [ 24038.474999999998545, 5922830.025000000372529 ], [ 24038.474999999998545, 5922829.950000000186265 ], [ 24038.55, 5922829.950000000186265 ], [ 24038.55, 5922829.875 ], [ 24038.625, 5922829.875 ], [ 24038.625, 5922829.724999999627471 ], [ 24038.775000000001455, 5922829.724999999627471 ], [ 24038.775000000001455, 5922829.650000000372529 ], [ 24038.849999999998545, 5922829.650000000372529 ], [ 24038.849999999998545, 5922829.575000000186265 ], [ 24038.925, 5922829.575000000186265 ], [ 24038.925, 5922829.5 ], [ 24039.0, 5922829.5 ], [ 24039.0, 5922829.424999999813735 ], [ 24039.150000000001455, 5922829.424999999813735 ], [ 24039.150000000001455, 5922829.349999999627471 ], [ 24039.224999999998545, 5922829.349999999627471 ], [ 24039.224999999998545, 5922829.275000000372529 ], [ 24039.375, 5922829.275000000372529 ], [ 24039.375, 5922829.200000000186265 ], [ 24039.825, 5922829.200000000186265 ], [ 24039.825, 5922829.125 ], [ 24040.425, 5922829.125 ], [ 24040.425, 5922829.049999999813735 ], [ 24040.95, 5922829.049999999813735 ], [ 24040.95, 5922828.974999999627471 ], [ 24041.400000000001455, 5922828.974999999627471 ], [ 24041.400000000001455, 5922828.900000000372529 ], [ 24041.7, 5922828.900000000372529 ], [ 24041.7, 5922828.825000000186265 ], [ 24042.0, 5922828.825000000186265 ], [ 24042.0, 5922828.75 ], [ 24042.224999999998545, 5922828.75 ], [ 24042.224999999998545, 5922828.674999999813735 ], [ 24042.45, 5922828.674999999813735 ], [ 24042.45, 5922828.599999999627471 ], [ 24042.675, 5922828.599999999627471 ], [ 24042.675, 5922828.525000000372529 ], [ 24042.825, 5922828.525000000372529 ], [ 24042.825, 5922828.450000000186265 ], [ 24042.974999999998545, 5922828.450000000186265 ], [ 24042.974999999998545, 5922828.375 ], [ 24043.2, 5922828.375 ], [ 24043.2, 5922828.299999999813735 ], [ 24043.275000000001455, 5922828.299999999813735 ], [ 24043.275000000001455, 5922828.224999999627471 ], [ 24043.575, 5922828.224999999627471 ], [ 24043.575, 5922828.150000000372529 ], [ 24043.875, 5922828.150000000372529 ], [ 24043.875, 5922828.075000000186265 ], [ 24044.099999999998545, 5922828.075000000186265 ], [ 24044.099999999998545, 5922828.0 ], [ 24044.55, 5922828.0 ], [ 24044.55, 5922827.924999999813735 ], [ 24045.0, 5922827.924999999813735 ], [ 24045.0, 5922827.849999999627471 ], [ 24045.599999999998545, 5922827.849999999627471 ], [ 24045.599999999998545, 5922827.924999999813735 ], [ 24046.05, 5922827.924999999813735 ], [ 24046.05, 5922828.0 ], [ 24046.425, 5922828.0 ], [ 24046.425, 5922828.075000000186265 ], [ 24046.650000000001455, 5922828.075000000186265 ], [ 24046.650000000001455, 5922828.150000000372529 ], [ 24046.875, 5922828.150000000372529 ], [ 24046.875, 5922828.224999999627471 ], [ 24047.099999999998545, 5922828.224999999627471 ], [ 24047.099999999998545, 5922828.299999999813735 ], [ 24047.25, 5922828.299999999813735 ], [ 24047.25, 5922828.375 ], [ 24047.325, 5922828.375 ], [ 24047.325, 5922828.450000000186265 ], [ 24047.400000000001455, 5922828.450000000186265 ], [ 24047.400000000001455, 5922828.525000000372529 ], [ 24047.474999999998545, 5922828.525000000372529 ], [ 24047.474999999998545, 5922828.674999999813735 ], [ 24047.55, 5922828.674999999813735 ], [ 24047.55, 5922828.75 ], [ 24047.625, 5922828.75 ], [ 24047.625, 5922828.825000000186265 ], [ 24047.7, 5922828.825000000186265 ], [ 24047.7, 5922828.900000000372529 ], [ 24047.775000000001455, 5922828.900000000372529 ], [ 24047.775000000001455, 5922828.974999999627471 ], [ 24047.849999999998545, 5922828.974999999627471 ], [ 24047.849999999998545, 5922829.049999999813735 ], [ 24047.925, 5922829.049999999813735 ], [ 24047.925, 5922829.125 ], [ 24048.0, 5922829.125 ], [ 24048.0, 5922829.200000000186265 ], [ 24048.150000000001455, 5922829.200000000186265 ], [ 24048.150000000001455, 5922829.275000000372529 ], [ 24048.224999999998545, 5922829.275000000372529 ], [ 24048.224999999998545, 5922829.349999999627471 ], [ 24048.3, 5922829.349999999627471 ], [ 24048.3, 5922829.424999999813735 ], [ 24048.375, 5922829.424999999813735 ], [ 24048.375, 5922829.5 ], [ 24048.525000000001455, 5922829.5 ], [ 24048.525000000001455, 5922829.575000000186265 ], [ 24048.599999999998545, 5922829.575000000186265 ], [ 24048.599999999998545, 5922829.650000000372529 ], [ 24048.75, 5922829.650000000372529 ], [ 24048.75, 5922829.724999999627471 ], [ 24048.900000000001455, 5922829.724999999627471 ], [ 24048.900000000001455, 5922829.799999999813735 ], [ 24048.974999999998545, 5922829.799999999813735 ], [ 24048.974999999998545, 5922829.875 ], [ 24049.125, 5922829.875 ], [ 24049.125, 5922829.950000000186265 ], [ 24049.275000000001455, 5922829.950000000186265 ], [ 24049.275000000001455, 5922830.099999999627471 ], [ 24049.349999999998545, 5922830.099999999627471 ], [ 24049.349999999998545, 5922830.25 ], [ 24049.425, 5922830.25 ], [ 24049.425, 5922830.325000000186265 ], [ 24049.5, 5922830.325000000186265 ], [ 24049.5, 5922830.474999999627471 ], [ 24049.575, 5922830.474999999627471 ], [ 24049.575, 5922830.625 ], [ 24049.650000000001455, 5922830.625 ], [ 24049.650000000001455, 5922830.700000000186265 ], [ 24049.724999999998545, 5922830.700000000186265 ], [ 24049.724999999998545, 5922830.849999999627471 ], [ 24049.8, 5922830.849999999627471 ], [ 24049.8, 5922831.0 ], [ 24049.875, 5922831.0 ], [ 24049.875, 5922831.150000000372529 ], [ 24049.95, 5922831.150000000372529 ], [ 24049.95, 5922831.375 ], [ 24050.025000000001455, 5922831.375 ], [ 24050.025000000001455, 5922831.525000000372529 ], [ 24050.099999999998545, 5922831.525000000372529 ], [ 24050.099999999998545, 5922831.674999999813735 ], [ 24050.175, 5922831.674999999813735 ], [ 24050.175, 5922831.900000000372529 ], [ 24050.25, 5922831.900000000372529 ], [ 24050.25, 5922832.200000000186265 ], [ 24050.325, 5922832.200000000186265 ], [ 24050.325, 5922832.5 ], [ 24050.400000000001455, 5922832.5 ], [ 24050.400000000001455, 5922832.875 ], [ 24050.474999999998545, 5922832.875 ], [ 24050.474999999998545, 5922833.174999999813735 ], [ 24050.55, 5922833.174999999813735 ], [ 24050.55, 5922833.474999999627471 ], [ 24050.625, 5922833.474999999627471 ], [ 24050.625, 5922833.700000000186265 ], [ 24050.7, 5922833.700000000186265 ], [ 24050.7, 5922834.150000000372529 ], [ 24050.625, 5922834.150000000372529 ], [ 24050.625, 5922834.525000000372529 ], [ 24050.55, 5922834.525000000372529 ], [ 24050.55, 5922834.974999999627471 ], [ 24050.474999999998545, 5922834.974999999627471 ], [ 24050.474999999998545, 5922835.5 ], [ 24050.400000000001455, 5922835.5 ], [ 24050.400000000001455, 5922836.099999999627471 ], [ 24050.325, 5922836.099999999627471 ], [ 24050.325, 5922837.0 ], [ 24050.25, 5922837.0 ], [ 24050.25, 5922838.049999999813735 ], [ 24050.175, 5922838.049999999813735 ], [ 24050.175, 5922839.325000000186265 ], [ 24050.099999999998545, 5922839.325000000186265 ], [ 24050.099999999998545, 5922839.924999999813735 ], [ 24050.025000000001455, 5922839.924999999813735 ], [ 24050.025000000001455, 5922840.224999999627471 ], [ 24049.95, 5922840.224999999627471 ], [ 24049.95, 5922840.525000000372529 ], [ 24049.875, 5922840.525000000372529 ], [ 24049.875, 5922840.75 ], [ 24049.8, 5922840.75 ], [ 24049.8, 5922840.974999999627471 ], [ 24049.724999999998545, 5922840.974999999627471 ], [ 24049.724999999998545, 5922841.200000000186265 ], [ 24049.650000000001455, 5922841.200000000186265 ], [ 24049.650000000001455, 5922841.349999999627471 ], [ 24049.575, 5922841.349999999627471 ], [ 24049.575, 5922841.5 ], [ 24049.5, 5922841.5 ], [ 24049.5, 5922841.724999999627471 ], [ 24049.425, 5922841.724999999627471 ], [ 24049.425, 5922841.799999999813735 ], [ 24049.349999999998545, 5922841.799999999813735 ], [ 24049.349999999998545, 5922841.875 ], [ 24049.275000000001455, 5922841.875 ], [ 24049.275000000001455, 5922841.950000000186265 ], [ 24049.2, 5922841.950000000186265 ], [ 24049.2, 5922842.025000000372529 ], [ 24049.05, 5922842.025000000372529 ], [ 24049.05, 5922842.099999999627471 ], [ 24048.974999999998545, 5922842.099999999627471 ], [ 24048.974999999998545, 5922842.174999999813735 ], [ 24048.900000000001455, 5922842.174999999813735 ], [ 24048.900000000001455, 5922842.25 ], [ 24048.825, 5922842.25 ], [ 24048.825, 5922842.325000000186265 ], [ 24048.75, 5922842.325000000186265 ], [ 24048.75, 5922842.400000000372529 ], [ 24048.675, 5922842.400000000372529 ], [ 24048.675, 5922842.474999999627471 ], [ 24048.599999999998545, 5922842.474999999627471 ], [ 24048.599999999998545, 5922842.549999999813735 ], [ 24048.525000000001455, 5922842.549999999813735 ], [ 24048.525000000001455, 5922842.700000000186265 ], [ 24048.45, 5922842.700000000186265 ], [ 24048.45, 5922842.775000000372529 ], [ 24048.375, 5922842.775000000372529 ], [ 24048.375, 5922842.849999999627471 ], [ 24048.3, 5922842.849999999627471 ], [ 24048.3, 5922842.924999999813735 ], [ 24048.224999999998545, 5922842.924999999813735 ], [ 24048.224999999998545, 5922843.075000000186265 ], [ 24048.150000000001455, 5922843.075000000186265 ], [ 24048.150000000001455, 5922843.150000000372529 ], [ 24048.075, 5922843.150000000372529 ], [ 24048.075, 5922843.299999999813735 ], [ 24048.0, 5922843.299999999813735 ], [ 24048.0, 5922843.450000000186265 ], [ 24047.925, 5922843.450000000186265 ], [ 24047.925, 5922843.599999999627471 ], [ 24047.849999999998545, 5922843.599999999627471 ], [ 24047.849999999998545, 5922843.674999999813735 ], [ 24047.775000000001455, 5922843.674999999813735 ], [ 24047.775000000001455, 5922843.75 ], [ 24047.7, 5922843.75 ], [ 24047.7, 5922843.825000000186265 ], [ 24047.625, 5922843.825000000186265 ], [ 24047.625, 5922843.900000000372529 ], [ 24047.55, 5922843.900000000372529 ], [ 24047.55, 5922843.974999999627471 ], [ 24047.474999999998545, 5922843.974999999627471 ], [ 24047.474999999998545, 5922844.049999999813735 ], [ 24047.400000000001455, 5922844.049999999813735 ], [ 24047.400000000001455, 5922844.125 ], [ 24047.325, 5922844.125 ], [ 24047.325, 5922844.200000000186265 ], [ 24047.099999999998545, 5922844.200000000186265 ], [ 24047.099999999998545, 5922844.275000000372529 ], [ 24046.875, 5922844.275000000372529 ], [ 24046.875, 5922844.349999999627471 ], [ 24046.724999999998545, 5922844.349999999627471 ], [ 24046.724999999998545, 5922844.424999999813735 ], [ 24046.575, 5922844.424999999813735 ], [ 24046.575, 5922844.5 ], [ 24046.425, 5922844.5 ], [ 24046.425, 5922844.575000000186265 ], [ 24046.275000000001455, 5922844.575000000186265 ], [ 24046.275000000001455, 5922844.650000000372529 ], [ 24046.125, 5922844.650000000372529 ], [ 24046.125, 5922844.724999999627471 ], [ 24045.974999999998545, 5922844.724999999627471 ], [ 24045.974999999998545, 5922844.799999999813735 ], [ 24045.825, 5922844.799999999813735 ], [ 24045.825, 5922844.875 ], [ 24045.75, 5922844.875 ], [ 24045.75, 5922844.950000000186265 ], [ 24045.599999999998545, 5922844.950000000186265 ], [ 24045.599999999998545, 5922845.025000000372529 ], [ 24045.525000000001455, 5922845.025000000372529 ], [ 24045.525000000001455, 5922845.099999999627471 ], [ 24045.45, 5922845.099999999627471 ], [ 24045.45, 5922845.174999999813735 ], [ 24045.3, 5922845.174999999813735 ], [ 24045.3, 5922845.25 ], [ 24045.224999999998545, 5922845.25 ], [ 24045.224999999998545, 5922845.325000000186265 ], [ 24045.075, 5922845.325000000186265 ], [ 24045.075, 5922845.400000000372529 ], [ 24044.925, 5922845.400000000372529 ], [ 24044.925, 5922845.474999999627471 ], [ 24044.775000000001455, 5922845.474999999627471 ], [ 24044.775000000001455, 5922845.549999999813735 ], [ 24044.625, 5922845.549999999813735 ], [ 24044.625, 5922845.625 ], [ 24044.400000000001455, 5922845.625 ], [ 24044.400000000001455, 5922845.700000000186265 ], [ 24044.175, 5922845.700000000186265 ], [ 24044.175, 5922845.775000000372529 ], [ 24043.95, 5922845.775000000372529 ], [ 24043.95, 5922845.849999999627471 ], [ 24043.650000000001455, 5922845.849999999627471 ], [ 24043.650000000001455, 5922845.924999999813735 ], [ 24043.349999999998545, 5922845.924999999813735 ], [ 24043.349999999998545, 5922846.0 ], [ 24042.900000000001455, 5922846.0 ], [ 24042.900000000001455, 5922846.075000000186265 ], [ 24042.375, 5922846.075000000186265 ], [ 24042.375, 5922846.150000000372529 ], [ 24041.849999999998545, 5922846.150000000372529 ], [ 24041.849999999998545, 5922846.224999999627471 ], [ 24041.099999999998545, 5922846.224999999627471 ], [ 24041.099999999998545, 5922846.299999999813735 ], [ 24040.275000000001455, 5922846.299999999813735 ], [ 24040.275000000001455, 5922846.375 ], [ 24038.325, 5922846.375 ] ] ] } },
{ "type": "Feature", "properties": { "value": 1.0, "building_id": 2, "area": 636.23812499970654 }, "geometry": { "type": "Polygon", "coordinates": [ [ [ 24043.8, 5922690.224999999627471 ], [ 24043.8, 5922690.150000000372529 ], [ 24042.224999999998545, 5922690.150000000372529 ], [ 24042.224999999998545, 5922690.075000000186265 ], [ 24041.099999999998545, 5922690.075000000186265 ], [ 24041.099999999998545, 5922690.0 ], [ 24040.349999999998545, 5922690.0 ], [ 24040.349999999998545, 5922689.924999999813735 ], [ 24039.675, 5922689.924999999813735 ], [ 24039.675, 5922689.849999999627471 ], [ 24039.3, 5922689.849999999627471 ], [ 24039.3, 5922689.775000000372529 ], [ 24039.075, 5922689.775000000372529 ], [ 24039.075, 5922689.700000000186265 ], [ 24038.925, 5922689.700000000186265 ], [ 24038.925, 5922689.625 ], [ 24038.7, 5922689.625 ], [ 24038.7, 5922689.549999999813735 ], [ 24038.55, 5922689.549999999813735 ], [ 24038.55, 5922689.474999999627471 ], [ 24038.474999999998545, 5922689.474999999627471 ], [ 24038.474999999998545, 5922689.400000000372529 ], [ 24038.325, 5922689.400000000372529 ], [ 24038.325, 5922689.325000000186265 ], [ 24038.175, 5922689.325000000186265 ], [ 24038.175, 5922689.25 ], [ 24038.025000000001455, 5922689.25 ], [ 24038.025000000001455, 5922689.174999999813735 ], [ 24037.875, 5922689.174999999813735 ], [ 24037.875, 5922689.099999999627471 ], [ 24037.724999999998545, 5922689.099999999627471 ], [ 24037.724999999998545, 5922689.025000000372529 ], [ 24037.575, 5922689.025000000372529 ], [ 24037.575, 5922688.950000000186265 ], [ 24036.825, 5922688.950000000186265 ], [ 24036.825, 5922688.875 ], [ 24035.925, 5922688.875 ], [ 24035.925, 5922688.799999999813735 ], [ 24035.625, 5922688.799999999813735 ], [ 24035.625, 5922688.724999999627471 ], [ 24035.474999999998545, 5922688.724999999627471 ], [ 24035.474999999998545, 5922688.650000000372529 ], [ 24035.325, 5922688.650000000372529 ], [ 24035.325, 5922688.575000000186265 ], [ 24035.25, 5922688.575000000186265 ], [ 24035.25, 5922688.5 ], [ 24035.175, 5922688.5 ], [ 24035.175, 5922688.424999999813735 ], [ 24035.099999999998545, 5922688.424999999813735 ], [ 24035.099999999998545, 5922688.349999999627471 ], [ 24034.95, 5922688.349999999627471 ], [ 24034.95, 5922688.275000000372529 ], [ 24034.875, 5922688.275000000372529 ], [ 24034.875, 5922688.200000000186265 ], [ 24034.8, 5922688.200000000186265 ], [ 24034.8, 5922688.125 ], [ 24034.724999999998545, 5922688.125 ], [ 24034.724999999998545, 5922688.049999999813735 ], [ 24034.650000000001455, 5922688.049999999813735 ], [ 24034.650000000001455, 5922687.974999999627471 ], [ 24034.575, 5922687.974999999627471 ], [ 24034.575, 5922687.825000000186265 ], [ 24034.5, 5922687.825000000186265 ], [ 24034.5, 5922687.75 ], [ 24034.425, 5922687.75 ], [ 24034.425, 5922687.674999999813735 ], [ 24034.349999999998545, 5922687.674999999813735 ], [ 24034.349999999998545, 5922687.599999999627471 ], [ 24034.275000000001455, 5922687.599999999627471 ], [ 24034.275000000001455, 5922687.450000000186265 ], [ 24034.2, 5922687.450000000186265 ], [ 24034.2, 5922687.375 ], [ 24034.125, 5922687.375 ], [ 24034.125, 5922687.299999999813735 ], [ 24034.05, 5922687.299999999813735 ], [ 24034.05, 5922687.224999999627471 ], [ 24033.974999999998545, 5922687.224999999627471 ], [ 24033.974999999998545, 5922687.150000000372529 ], [ 24033.900000000001455, 5922687.150000000372529 ], [ 24033.900000000001455, 5922687.075000000186265 ], [ 24033.825, 5922687.075000000186265 ], [ 24033.825, 5922687.0 ], [ 24033.675, 5922687.0 ], [ 24033.675, 5922686.924999999813735 ], [ 24033.599999999998545, 5922686.924999999813735 ], [ 24033.599999999998545, 5922686.849999999627471 ], [ 24033.45, 5922686.849999999627471 ], [ 24033.45, 5922686.775000000372529 ], [ 24033.375, 5922686.775000000372529 ], [ 24033.375, 5922686.700000000186265 ], [ 24033.224999999998545, 5922686.700000000186265 ], [ 24033.224999999998545, 5922686.625 ], [ 24033.150000000001455, 5922686.625 ], [ 24033.150000000001455, 5922686.549999999813735 ], [ 24033.075, 5922686.549999999813735 ], [ 24033.075, 5922686.474999999627471 ], [ 24032.925, 5922686.474999999627471 ], [ 24032.925, 5922686.400000000372529 ], [ 24032.849999999998545, 5922686.400000000372529 ], [ 24032.849999999998545, 5922686.325000000186265 ], [ 24032.775000000001455, 5922686.325000000186265 ], [ 24032.775000000001455, 5922686.25 ], [ 24032.7, 5922686.25 ], [ 24032.7, 5922686.174999999813735 ], [ 24032.625, 5922686.174999999813735 ], [ 24032.625, 5922686.099999999627471 ], [ 24032.55, 5922686.099999999627471 ], [ 24032.55, 5922686.025000000372529 ], [ 24032.474999999998545, 5922686.025000000372529 ], [ 24032.474999999998545, 5922685.950000000186265 ], [ 24032.400000000001455, 5922685.950000000186265 ], [ 24032.400000000001455, 5922685.799999999813735 ], [ 24032.325, 5922685.799999999813735 ], [ 24032.325, 5922685.724999999627471 ], [ 24032.25, 5922685.724999999627471 ], [ 24032.25, 5922685.650000000372529 ], [ 24032.175, 5922685.650000000372529 ], [ 24032.175, 5922685.5 ], [ 24032.099999999998545, 5922685.5 ], [ 24032.099999999998545, 5922685.424999999813735 ], [ 24032.025000000001455, 5922685.424999999813735 ], [ 24032.025000000001455, 5922685.349999999627471 ], [ 24031.95, 5922685.349999999627471 ], [ 24031.95, 5922685.200000000186265 ], [ 24031.875, 5922685.200000000186265 ], [ 24031.875, 5922685.125 ], [ 24031.8, 5922685.125 ], [ 24031.8, 5922685.049999999813735 ], [ 24031.650000000001455, 5922685.049999999813735 ], [ 24031.650000000001455, 5922684.974999999627471 ], [ 24031.575, 5922684.974999999627471 ], [ 24031.575, 5922684.900000000372529 ], [ 24031.425, 5922684.900000000372529 ], [ 24031.425, 5922684.825000000186265 ], [ 24031.275000000001455, 5922684.825000000186265 ], [ 24031.275000000001455, 5922684.75 ], [ 24031.125, 5922684.75 ], [ 24031.125, 5922684.674999999813735 ], [ 24031.05, 5922684.674999999813735 ], [ 24031.05, 5922684.599999999627471 ], [ 24030.900000000001455, 5922684.599999999627471 ], [ 24030.900000000001455, 5922684.525000000372529 ], [ 24030.825, 5922684.525000000372529 ], [ 24030.825, 5922684.450000000186265 ], [ 24030.75, 5922684.450000000186265 ], [ 24030.75, 5922684.375 ], [ 24030.599999999998545, 5922684.375 ], [ 24030.599999999998545, 5922684.299999999813735 ], [ 24030.525000000001455, 5922684.299999999813735 ], [ 24030.525000000001455, 5922684.224999999627471 ], [ 24030.45, 5922684.224999999627471 ], [ 24030.45, 5922684.150000000372529 ], [ 24030.375, 5922684.150000000372529 ], [ 24030.375, 5922684.075000000186265 ], [ 24030.3, 5922684.075000000186265 ], [ 24030.3, 5922683.924999999813735 ], [ 24030.224999999998545, 5922683.924999999813735 ], [ 24030.224999999998545, 5922683.849999999627471 ], [ 24030.150000000001455, 5922683.849999999627471 ], [ 24030.150000000001455, 5922683.775000000372529 ], [ 24030.075, 5922683.775000000372529 ], [ 24030.075, 5922683.549999999813735 ], [ 24030.0, 5922683.549999999813735 ], [ 24030.0, 5922683.400000000372529 ], [ 24029.925, 5922683.400000000372529 ], [ 24029.925, 5922683.325000000186265 ], [ 24029.849999999998545, 5922683.325000000186265 ], [ 24029.849999999998545, 5922683.25 ], [ 24029.775000000001455, 5922683.25 ], [ 24029.775000000001455, 5922683.174999999813735 ], [ 24029.7, 5922683.174999999813735 ], [ 24029.7, 5922683.099999999627471 ], [ 24029.625, 5922683.099999999627471 ], [ 24029.625, 5922683.025000000372529 ], [ 24029.474999999998545, 5922683.025000000372529 ], [ 24029.474999999998545, 5922682.950000000186265 ], [ 24029.325, 5922682.950000000186265 ], [ 24029.325, 5922682.875 ], [ 24029.175, 5922682.875 ], [ 24029.175, 5922682.799999999813735 ], [ 24029.099999999998545, 5922682.799999999813735 ], [ 24029.099999999998545, 5922682.724999999627471 ], [ 24028.95, 5922682.724999999627471 ], [ 24028.95, 5922682.650000000372529 ], [ 24028.875, 5922682.650000000372529 ], [ 24028.875, 5922682.575000000186265 ], [ 24028.8, 5922682.575000000186265 ], [ 24028.8, 5922682.5 ], [ 24028.724999999998545, 5922682.5 ], [ 24028.724999999998545, 5922682.424999999813735 ], [ 24028.650000000001455, 5922682.424999999813735 ], [ 24028.650000000001455, 5922682.349999999627471 ], [ 24028.575, 5922682.349999999627471 ], [ 24028.575, 5922682.200000000186265 ], [ 24028.5, 5922682.200000000186265 ], [ 24028.5, 5922682.125 ], [ 24028.425, 5922682.125 ], [ 24028.425, 5922681.974999999627471 ], [ 24028.349999999998545, 5922681.974999999627471 ], [ 24028.349999999998545, 5922681.825000000186265 ], [ 24028.275000000001455, 5922681.825000000186265 ], [ 24028.275000000001455, 5922681.599999999627471 ], [ 24028.2, 5922681.599999999627471 ], [ 24028.2, 5922681.450000000186265 ], [ 24028.125, 5922681.450000000186265 ], [ 24028.125, 5922681.299999999813735 ], [ 24028.05, 5922681.299999999813735 ], [ 24028.05, 5922681.150000000372529 ], [ 24027.974999999998545, 5922681.150000000372529 ], [ 24027.974999999998545, 5922681.075000000186265 ], [ 24027.900000000001455, 5922681.075000000186265 ], [ 24027.900000000001455, 5922680.924999999813735 ], [ 24027.825, 5922680.924999999813735 ], [ 24027.825, 5922680.775000000372529 ], [ 24027.75, 5922680.775000000372529 ], [ 24027.75, 5922680.700000000186265 ], [ 24027.675, 5922680.700000000186265 ], [ 24027.675, 5922680.625 ], [ 24027.599999999998545, 5922680.625 ], [ 24027.599999999998545, 5922680.549999999813735 ], [ 24027.525000000001455, 5922680.549999999813735 ], [ 24027.525000000001455, 5922680.474999999627471 ], [ 24027.45, 5922680.474999999627471 ], [ 24027.45, 5922680.400000000372529 ], [ 24027.375, 5922680.400000000372529 ], [ 24027.375, 5922680.325000000186265 ], [ 24027.3, 5922680.325000000186265 ], [ 24027.3, 5922680.25 ], [ 24027.224999999998545, 5922680.25 ], [ 24027.224999999998545, 5922680.174999999813735 ], [ 24027.150000000001455, 5922680.174999999813735 ], [ 24027.150000000001455, 5922680.099999999627471 ], [ 24027.075, 5922680.099999999627471 ], [ 24027.075, 5922679.950000000186265 ], [ 24027.0, 5922679.950000000186265 ], [ 24027.0, 5922679.799999999813735 ], [ 24026.925, 5922679.799999999813735 ], [ 24026.925, 5922679.650000000372529 ], [ 24026.849999999998545, 5922679.650000000372529 ], [ 24026.849999999998545, 5922679.424999999813735 ], [ 24026.775000000001455, 5922679.424999999813735 ], [ 24026.775000000001455, 5922679.275000000372529 ], [ 24026.7, 5922679.275000000372529 ], [ 24026.7, 5922679.049999999813735 ], [ 24026.625, 5922679.049999999813735 ], [ 24026.625, 5922678.75 ], [ 24026.55, 5922678.75 ], [ 24026.55, 5922678.525000000372529 ], [ 24026.474999999998545, 5922678.525000000372529 ], [ 24026.474999999998545, 5922678.150000000372529 ], [ 24026.400000000001455, 5922678.150000000372529 ], [ 24026.400000000001455, 5922677.775000000372529 ], [ 24026.325, 5922677.775000000372529 ], [ 24026.325, 5922677.325000000186265 ], [ 24026.400000000001455, 5922677.325000000186265 ], [ 24026.400000000001455, 5922676.575000000186265 ], [ 24026.474999999998545, 5922676.575000000186265 ], [ 24026.474999999998545, 5922675.900000000372529 ], [ 24026.55, 5922675.900000000372529 ], [ 24026.55, 5922675.599999999627471 ], [ 24026.625, 5922675.599999999627471 ], [ 24026.625, 5922675.450000000186265 ], [ 24026.7, 5922675.450000000186265 ], [ 24026.7, 5922675.375 ], [ 24026.775000000001455, 5922675.375 ], [ 24026.775000000001455, 5922675.224999999627471 ], [ 24026.849999999998545, 5922675.224999999627471 ], [ 24026.849999999998545, 5922675.150000000372529 ], [ 24026.925, 5922675.150000000372529 ], [ 24026.925, 5922675.075000000186265 ], [ 24027.0, 5922675.075000000186265 ], [ 24027.0, 5922675.0 ], [ 24027.075, 5922675.0 ], [ 24027.075, 5922674.924999999813735 ], [ 24027.150000000001455, 5922674.924999999813735 ], [ 24027.150000000001455, 5922674.849999999627471 ], [ 24027.224999999998545, 5922674.849999999627471 ], [ 24027.224999999998545, 5922674.775000000372529 ], [ 24027.375, 5922674.775000000372529 ], [ 24027.375, 5922674.700000000186265 ], [ 24027.45, 5922674.700000000186265 ], [ 24027.45, 5922674.625 ], [ 24027.599999999998545, 5922674.625 ], [ 24027.599999999998545, 5922674.549999999813735 ], [ 24027.75, 5922674.549999999813735 ], [ 24027.75, 5922674.474999999627471 ], [ 24027.825, 5922674.474999999627471 ], [ 24027.825, 5922674.400000000372529 ], [ 24027.974999999998545, 5922674.400000000372529 ], [ 24027.974999999998545, 5922674.325000000186265 ], [ 24028.05, 5922674.325000000186265 ], [ 24028.05, 5922674.25 ], [ 24028.2, 5922674.25 ], [ 24028.2, 5922674.174999999813735 ], [ 24028.275000000001455, 5922674.174999999813735 ], [ 24028.275000000001455, 5922674.099999999627471 ], [ 24028.349999999998545, 5922674.099999999627471 ], [ 24028.349999999998545, 5922674.025000000372529 ], [ 24028.425, 5922674.025000000372529 ], [ 24028.425, 5922673.950000000186265 ], [ 24028.5, 5922673.950000000186265 ], [ 24028.5, 5922673.875 ], [ 24028.575, 5922673.875 ], [ 24028.575, 5922673.799999999813735 ], [ 24028.650000000001455, 5922673.799999999813735 ], [ 24028.650000000001455, 5922673.724999999627471 ], [ 24028.724999999998545, 5922673.724999999627471 ], [ 24028.724999999998545, 5922673.650000000372529 ], [ 24028.8, 5922673.650000000372529 ], [ 24028.8, 5922673.575000000186265 ], [ 24028.875, 5922673.575000000186265 ], [ 24028.875, 5922673.5 ], [ 24028.95, 5922673.5 ], [ 24028.95, 5922673.424999999813735 ], [ 24029.099999999998545, 5922673.424999999813735 ], [ 24029.099999999998545, 5922673.349999999627471 ], [ 24029.175, 5922673.349999999627471 ], [ 24029.175, 5922673.275000000372529 ], [ 24029.325, 5922673.275000000372529 ], [ 24029.325, 5922673.200000000186265 ], [ 24029.474999999998545, 5922673.200000000186265 ], [ 24029.474999999998545, 5922673.125 ], [ 24029.625, 5922673.125 ], [ 24029.625, 5922673.049999999813735 ], [ 24029.775000000001455, 5922673.049999999813735 ], [ 24029.775000000001455, 5922672.974999999627471 ], [ 24029.849999999998545, 5922672.974999999627471 ], [ 24029.849999999998545, 5922672.900000000372529 ], [ 24030.0, 5922672.900000000372529 ], [ 24030.0, 5922672.825000000186265 ], [ 24030.150000000001455, 5922672.825000000186265 ], [ 24030.150000000001455, 5922672.75 ], [ 24030.224999999998545, 5922672.75 ], [ 24030.224999999998545, 5922672.674999999813735 ], [ 24030.375, 5922672.674999999813735 ], [ 24030.375, 5922672.599999999627471 ], [ 24030.45, 5922672.599999999627471 ], [ 24030.45, 5922672.525000000372529 ], [ 24030.525000000001455, 5922672.525000000372529 ], [ 24030.525000000001455, 5922672.450000000186265 ], [ 24030.599999999998545, 5922672.450000000186265 ], [ 24030.599999999998545, 5922672.375 ], [ 24030.675, 5922672.375 ], [ 24030.675, 5922672.299999999813735 ], [ 24030.75, 5922672.299999999813735 ], [ 24030.75, 5922672.224999999627471 ], [ 24030.825, 5922672.224999999627471 ], [ 24030.825, 5922672.150000000372529 ], [ 24030.900000000001455, 5922672.150000000372529 ], [ 24030.900000000001455, 5922672.075000000186265 ], [ 24030.974999999998545, 5922672.075000000186265 ], [ 24030.974999999998545, 5922672.0 ], [ 24031.05, 5922672.0 ], [ 24031.05, 5922671.924999999813735 ], [ 24031.125, 5922671.924999999813735 ], [ 24031.125, 5922671.849999999627471 ], [ 24031.2, 5922671.849999999627471 ], [ 24031.2, 5922671.775000000372529 ], [ 24031.275000000001455, 5922671.775000000372529 ], [ 24031.275000000001455, 5922671.700000000186265 ], [ 24031.349999999998545, 5922671.700000000186265 ], [ 24031.349999999998545, 5922671.625 ], [ 24031.425, 5922671.625 ], [ 24031.425, 5922671.549999999813735 ], [ 24031.5, 5922671.549999999813735 ], [ 24031.5, 5922671.474999999627471 ], [ 24031.575, 5922671.474999999627471 ], [ 24031.575, 5922671.400000000372529 ], [ 24031.724999999998545, 5922671.400000000372529 ], [ 24031.724999999998545, 5922671.325000000186265 ], [ 24031.8, 5922671.325000000186265 ], [ 24031.8, 5922671.25 ], [ 24031.875, 5922671.25 ], [ 24031.875, 5922671.174999999813735 ], [ 24032.025000000001455, 5922671.174999999813735 ], [ 24032.025000000001455, 5922671.099999999627471 ], [ 24032.099999999998545, 5922671.099999999627471 ], [ 24032.099999999998545, 5922671.025000000372529 ], [ 24032.175, 5922671.025000000372529 ], [ 24032.175, 5922670.950000000186265 ], [ 24032.325, 5922670.950000000186265 ], [ 24032.325, 5922670.875 ], [ 24032.400000000001455, 5922670.875 ], [ 24032.400000000001455, 5922670.799999999813735 ], [ 24032.474999999998545, 5922670.799999999813735 ], [ 24032.474999999998545, 5922670.724999999627471 ], [ 24032.55, 5922670.724999999627471 ], [ 24032.55, 5922670.650000000372529 ], [ 24032.625, 5922670.650000000372529 ], [ 24032.625, 5922670.575000000186265 ], [ 24032.7, 5922670.575000000186265 ], [ 24032.7, 5922670.5 ], [ 24032.775000000001455, 5922670.5 ], [ 24032.775000000001455, 5922670.424999999813735 ], [ 24032.849999999998545, 5922670.424999999813735 ], [ 24032.849999999998545, 5922670.349999999627471 ], [ 24032.925, 5922670.349999999627471 ], [ 24032.925, 5922670.275000000372529 ], [ 24033.0, 5922670.275000000372529 ], [ 24033.0, 5922670.200000000186265 ], [ 24033.075, 5922670.200000000186265 ], [ 24033.075, 5922670.125 ], [ 24033.150000000001455, 5922670.125 ], [ 24033.150000000001455, 5922670.049999999813735 ], [ 24033.224999999998545, 5922670.049999999813735 ], [ 24033.224999999998545, 5922669.974999999627471 ], [ 24033.3, 5922669.974999999627471 ], [ 24033.3, 5922669.900000000372529 ], [ 24033.375, 5922669.900000000372529 ], [ 24033.375, 5922669.75 ], [ 24033.45, 5922669.75 ], [ 24033.45, 5922669.674999999813735 ], [ 24033.525000000001455, 5922669.674999999813735 ], [ 24033.525000000001455, 5922669.599999999627471 ], [ 24033.599999999998545, 5922669.599999999627471 ], [ 24033.599999999998545, 5922669.525000000372529 ], [ 24033.75, 5922669.525000000372529 ], [ 24033.75, 5922669.450000000186265 ], [ 24033.825, 5922669.450000000186265 ], [ 24033.825, 5922669.375 ], [ 24033.900000000001455, 5922669.375 ], [ 24033.900000000001455, 5922669.299999999813735 ], [ 24033.974999999998545, 5922669.299999999813735 ], [ 24033.974999999998545, 5922669.224999999627471 ], [ 24034.05, 5922669.224999999627471 ], [ 24034.05, 5922669.150000000372529 ], [ 24034.125, 5922669.150000000372529 ], [ 24034.125, 5922669.075000000186265 ], [ 24034.2, 5922669.075000000186265 ], [ 24034.2, 5922669.0 ], [ 24034.275000000001455, 5922669.0 ], [ 24034.275000000001455, 5922668.924999999813735 ], [ 24034.349999999998545, 5922668.924999999813735 ], [ 24034.349999999998545, 5922668.849999999627471 ], [ 24034.425, 5922668.849999999627471 ], [ 24034.425, 5922668.775000000372529 ], [ 24034.5, 5922668.775000000372529 ], [ 24034.5, 5922668.700000000186265 ], [ 24034.575, 5922668.700000000186265 ], [ 24034.575, 5922668.549999999813735 ], [ 24034.650000000001455, 5922668.549999999813735 ], [ 24034.650000000001455, 5922668.474999999627471 ], [ 24034.724999999998545, 5922668.474999999627471 ], [ 24034.724999999998545, 5922668.400000000372529 ], [ 24034.8, 5922668.400000000372529 ], [ 24034.8, 5922668.325000000186265 ], [ 24034.875, 5922668.325000000186265 ], [ 24034.875, 5922668.174999999813735 ], [ 24034.95, 5922668.174999999813735 ], [ 24034.95, 5922668.099999999627471 ], [ 24035.025000000001455, 5922668.099999999627471 ], [ 24035.025000000001455, 5922668.025000000372529 ], [ 24035.099999999998545, 5922668.025000000372529 ], [ 24035.099999999998545, 5922667.875 ], [ 24035.175, 5922667.875 ], [ 24035.175, 5922667.799999999813735 ], [ 24035.25, 5922667.799999999813735 ], [ 24035.25, 5922667.650000000372529 ], [ 24035.325, 5922667.650000000372529 ], [ 24035.325, 5922667.575000000186265 ], [ 24035.400000000001455, 5922667.575000000186265 ], [ 24035.400000000001455, 5922667.5 ], [ 24035.474999999998545, 5922667.5 ], [ 24035.474999999998545, 5922667.424999999813735 ], [ 24035.55, 5922667.424999999813735 ], [ 24035.55, 5922667.349999999627471 ], [ 24035.625, 5922667.349999999627471 ], [ 24035.625, 5922667.275000000372529 ], [ 24035.7, 5922667.275000000372529 ], [ 24035.7, 5922667.200000000186265 ], [ 24035.775000000001455, 5922667.200000000186265 ], [ 24035.775000000001455, 5922667.125 ], [ 24035.849999999998545, 5922667.125 ], [ 24035.849999999998545, 5922667.049999999813735 ], [ 24035.925, 5922667.049999999813735 ], [ 24035.925, 5922666.974999999627471 ], [ 24036.0, 5922666.974999999627471 ], [ 24036.0, 5922666.900000000372529 ], [ 24036.075, 5922666.900000000372529 ], [ 24036.075, 5922666.825000000186265 ], [ 24036.150000000001455, 5922666.825000000186265 ], [ 24036.150000000001455, 5922666.75 ], [ 24036.224999999998545, 5922666.75 ], [ 24036.224999999998545, 5922666.674999999813735 ], [ 24036.3, 5922666.674999999813735 ], [ 24036.3, 5922666.599999999627471 ], [ 24036.375, 5922666.599999999627471 ], [ 24036.375, 5922666.525000000372529 ], [ 24036.45, 5922666.525000000372529 ], [ 24036.45, 5922666.450000000186265 ], [ 24036.525000000001455, 5922666.450000000186265 ], [ 24036.525000000001455, 5922666.299999999813735 ], [ 24036.599999999998545, 5922666.299999999813735 ], [ 24036.599999999998545, 5922666.224999999627471 ], [ 24036.675, 5922666.224999999627471 ], [ 24036.675, 5922666.075000000186265 ], [ 24036.75, 5922666.075000000186265 ], [ 24036.75, 5922666.0 ], [ 24036.825, 5922666.0 ], [ 24036.825, 5922665.849999999627471 ], [ 24036.900000000001455, 5922665.849999999627471 ], [ 24036.900000000001455, 5922665.775000000372529 ], [ 24036.974999999998545, 5922665.775000000372529 ], [ 24036.974999999998545, 5922665.700000000186265 ], [ 24037.05, 5922665.700000000186265 ], [ 24037.05, 5922665.625 ], [ 24037.125, 5922665.625 ], [ 24037.125, 5922665.549999999813735 ], [ 24037.2, 5922665.549999999813735 ], [ 24037.2, 5922665.474999999627471 ], [ 24037.349999999998545, 5922665.474999999627471 ], [ 24037.349999999998545, 5922665.400000000372529 ], [ 24037.425, 5922665.400000000372529 ], [ 24037.425, 5922665.325000000186265 ], [ 24037.575, 5922665.325000000186265 ], [ 24037.575, 5922665.25 ], [ 24037.650000000001455, 5922665.25 ], [ 24037.650000000001455, 5922665.174999999813735 ], [ 24037.8, 5922665.174999999813735 ], [ 24037.8, 5922665.099999999627471 ], [ 24037.95, 5922665.099999999627471 ], [ 24037.95, 5922665.025000000372529 ], [ 24038.025000000001455, 5922665.025000000372529 ], [ 24038.025000000001455, 5922664.950000000186265 ], [ 24038.175, 5922664.950000000186265 ], [ 24038.175, 5922664.875 ], [ 24038.25, 5922664.875 ], [ 24038.25, 5922664.799999999813735 ], [ 24038.400000000001455, 5922664.799999999813735 ], [ 24038.400000000001455, 5922664.724999999627471 ], [ 24038.474999999998545, 5922664.724999999627471 ], [ 24038.474999999998545, 5922664.650000000372529 ], [ 24038.55, 5922664.650000000372529 ], [ 24038.55, 5922664.575000000186265 ], [ 24038.7, 5922664.575000000186265 ], [ 24038.7, 5922664.5 ], [ 24038.775000000001455, 5922664.5 ], [ 24038.775000000001455, 5922664.424999999813735 ], [ 24038.849999999998545, 5922664.424999999813735 ], [ 24038.849999999998545, 5922664.349999999627471 ], [ 24038.925, 5922664.349999999627471 ], [ 24038.925, 5922664.275000000372529 ], [ 24039.0, 5922664.275000000372529 ], [ 24039.0, 5922664.200000000186265 ], [ 24039.075, 5922664.200000000186265 ], [ 24039.075, 5922664.125 ], [ 24039.150000000001455, 5922664.125 ], [ 24039.150000000001455, 5922664.049999999813735 ], [ 24039.224999999998545, 5922664.049999999813735 ], [ 24039.224999999998545, 5922663.974999999627471 ], [ 24039.3, 5922663.974999999627471 ], [ 24039.3, 5922663.900000000372529 ], [ 24039.375, 5922663.900000000372529 ], [ 24039.375, 5922663.825000000186265 ], [ 24039.525000000001455, 5922663.825000000186265 ], [ 24039.525000000001455, 5922663.75 ], [ 24039.675, 5922663.75 ], [ 24039.675, 5922663.674999999813735 ], [ 24039.825, 5922663.674999999813735 ], [ 24039.825, 5922663.599999999627471 ], [ 24039.974999999998545, 5922663.599999999627471 ], [ 24039.974999999998545, 5922663.525000000372529 ], [ 24040.125, 5922663.525000000372529 ], [ 24040.125, 5922663.450000000186265 ], [ 24040.275000000001455, 5922663.450000000186265 ], [ 24040.275000000001455, 5922663.375 ], [ 24040.5, 5922663.375 ], [ 24040.5, 5922663.299999999813735 ], [ 24040.724999999998545, 5922663.299999999813735 ], [ 24040.724999999998545, 5922663.224999999627471 ], [ 24040.95, 5922663.224999999627471 ], [ 24040.95, 5922663.150000000372529 ], [ 24041.175, 5922663.150000000372529 ], [ 24041.175, 5922663.075000000186265 ], [ 24041.474999999998545, 5922663.075000000186265 ], [ 24041.474999999998545, 5922663.0 ], [ 24041.775000000001455, 5922663.0 ], [ 24041.775000000001455, 5922662.924999999813735 ], [ 24042.075, 5922662.924999999813735 ], [ 24042.075, 5922662.849999999627471 ], [ 24042.375, 5922662.849999999627471 ], [ 24042.375, 5922662.775000000372529 ], [ 24042.599999999998545, 5922662.775000000372529 ], [ 24042.599999999998545, 5922662.700000000186265 ], [ 24042.900000000001455, 5922662.700000000186265 ], [ 24042.900000000001455, 5922662.625 ], [ 24043.125, 5922662.625 ], [ 24043.125, 5922662.549999999813735 ], [ 24043.349999999998545, 5922662.549999999813735 ], [ 24043.349999999998545, 5922662.474999999627471 ], [ 24043.5, 5922662.474999999627471 ], [ 24043.5, 5922662.400000000372529 ], [ 24043.724999999998545, 5922662.400000000372529 ], [ 24043.724999999998545, 5922662.325000000186265 ], [ 24043.875, 5922662.325000000186265 ], [ 24043.875, 5922662.25 ], [ 24044.025000000001455, 5922662.25 ], [ 24044.025000000001455, 5922662.174999999813735 ], [ 24044.099999999998545, 5922662.174999999813735 ], [ 24044.099999999998545, 5922662.099999999627471 ], [ 24044.25, 5922662.099999999627471 ], [ 24044.25, 5922662.025000000372529 ], [ 24044.400000000001455, 5922662.025000000372529 ], [ 24044.400000000001455, 5922661.950000000186265 ], [ 24044.474999999998545, 5922661.950000000186265 ], [ 24044.474999999998545, 5922661.875 ], [ 24044.625, 5922661.875 ], [ 24044.625, 5922661.799999999813735 ], [ 24044.775000000001455, 5922661.799999999813735 ], [ 24044.775000000001455, 5922661.724999999627471 ], [ 24044.925, 5922661.724999999627471 ], [ 24044.925, 5922661.650000000372529 ], [ 24045.075, 5922661.650000000372529 ], [ 24045.075, 5922661.575000000186265 ], [ 24045.3, 5922661.575000000186265 ], [ 24045.3, 5922661.5 ], [ 24047.625, 5922661.5 ], [ 24047.625, 5922661.575000000186265 ], [ 24047.925, 5922661.575000000186265 ], [ 24047.925, 5922661.650000000372529 ], [ 24048.224999999998545, 5922661.650000000372529 ], [ 24048.224999999998545, 5922661.724999999627471 ], [ 24048.525000000001455, 5922661.724999999627471 ], [ 24048.525000000001455, 5922661.799999999813735 ], [ 24048.75, 5922661.799999999813735 ], [ 24048.75, 5922661.875 ], [ 24048.974999999998545, 5922661.875 ], [ 24048.974999999998545, 5922661.950000000186265 ], [ 24049.125, 5922661.950000000186265 ], [ 24049.125, 5922662.025000000372529 ], [ 24049.349999999998545, 5922662.025000000372529 ], [ 24049.349999999998545, 5922662.099999999627471 ], [ 24049.5, 5922662.099999999627471 ], [ 24049.5, 5922662.174999999813735 ], [ 24049.650000000001455, 5922662.174999999813735 ], [ 24049.650000000001455, 5922662.25 ], [ 24049.8, 5922662.25 ], [ 24049.8, 5922662.325000000186265 ], [ 24049.95, 5922662.325000000186265 ], [ 24049.95, 5922662.400000000372529 ], [ 24050.099999999998545, 5922662.400000000372529 ], [ 24050.099999999998545, 5922662.474999999627471 ], [ 24050.325, 5922662.474999999627471 ], [ 24050.325, 5922662.549999999813735 ], [ 24050.474999999998545, 5922662.549999999813735 ], [ 24050.474999999998545, 5922662.625 ], [ 24050.7, 5922662.625 ], [ 24050.7, 5922662.700000000186265 ], [ 24050.849999999998545, 5922662.700000000186265 ], [ 24050.849999999998545, 5922662.775000000372529 ], [ 24051.075, 5922662.775000000372529 ], [ 24051.075, 5922662.849999999627471 ], [ 24051.224999999998545, 5922662.849999999627471 ], [ 24051.224999999998545, 5922662.924999999813735 ], [ 24051.375, 5922662.924999999813735 ], [ 24051.375, 5922663.0 ], [ 24051.525000000001455, 5922663.0 ], [ 24051.525000000001455, 5922663.075000000186265 ], [ 24051.675, 5922663.075000000186265 ], [ 24051.675, 5922663.150000000372529 ], [ 24051.75, 5922663.150000000372529 ], [ 24051.75, 5922663.224999999627471 ], [ 24051.900000000001455, 5922663.224999999627471 ], [ 24051.900000000001455, 5922663.299999999813735 ], [ 24051.974999999998545, 5922663.299999999813735 ], [ 24051.974999999998545, 5922663.375 ], [ 24052.125, 5922663.375 ], [ 24052.125, 5922663.450000000186265 ], [ 24052.2, 5922663.450000000186265 ], [ 24052.2, 5922663.525000000372529 ], [ 24052.275000000001455, 5922663.525000000372529 ], [ 24052.275000000001455, 5922663.599999999627471 ], [ 24052.425, 5922663.599999999627471 ], [ 24052.425, 5922663.674999999813735 ], [ 24052.5, 5922663.674999999813735 ], [ 24052.5, 5922663.75 ], [ 24052.575, 5922663.75 ], [ 24052.575, 5922663.825000000186265 ], [ 24052.650000000001455, 5922663.825000000186265 ], [ 24052.650000000001455, 5922663.900000000372529 ], [ 24052.724999999998545, 5922663.900000000372529 ], [ 24052.724999999998545, 5922664.049999999813735 ], [ 24052.8, 5922664.049999999813735 ], [ 24052.8, 5922664.125 ], [ 24052.875, 5922664.125 ], [ 24052.875, 5922664.200000000186265 ], [ 24052.95, 5922664.200000000186265 ], [ 24052.95, 5922664.275000000372529 ], [ 24053.025000000001455, 5922664.275000000372529 ], [ 24053.025000000001455, 5922664.424999999813735 ], [ 24053.099999999998545, 5922664.424999999813735 ], [ 24053.099999999998545, 5922664.5 ], [ 24053.175, 5922664.5 ], [ 24053.175, 5922664.575000000186265 ], [ 24053.25, 5922664.575000000186265 ], [ 24053.25, 5922664.724999999627471 ], [ 24053.325, 5922664.724999999627471 ], [ 24053.325, 5922664.799999999813735 ], [ 24053.400000000001455, 5922664.799999999813735 ], [ 24053.400000000001455, 5922664.950000000186265 ], [ 24053.474999999998545, 5922664.950000000186265 ], [ 24053.474999999998545, 5922665.099999999627471 ], [ 24053.55, 5922665.099999999627471 ], [ 24053.55, 5922665.174999999813735 ], [ 24053.625, 5922665.174999999813735 ], [ 24053.625, 5922665.400000000372529 ], [ 24053.7, 5922665.400000000372529 ], [ 24053.7, 5922665.549999999813735 ], [ 24053.775000000001455, 5922665.549999999813735 ], [ 24053.775000000001455, 5922665.700000000186265 ], [ 24053.849999999998545, 5922665.700000000186265 ], [ 24053.849999999998545, 5922665.924999999813735 ], [ 24053.925, 5922665.924999999813735 ], [ 24053.925, 5922666.150000000372529 ], [ 24054.0, 5922666.150000000372529 ], [ 24054.0, 5922666.450000000186265 ], [ 24054.075, 5922666.450000000186265 ], [ 24054.075, 5922666.75 ], [ 24054.150000000001455, 5922666.75 ], [ 24054.150000000001455, 5922667.049999999813735 ], [ 24054.224999999998545, 5922667.049999999813735 ], [ 24054.224999999998545, 5922667.349999999627471 ], [ 24054.3, 5922667.349999999627471 ], [ 24054.3, 5922667.650000000372529 ], [ 24054.375, 5922667.650000000372529 ], [ 24054.375, 5922667.875 ], [ 24054.45, 5922667.875 ], [ 24054.45, 5922668.099999999627471 ], [ 24054.525000000001455, 5922668.099999999627471 ], [ 24054.525000000001455, 5922668.174999999813735 ], [ 24054.599999999998545, 5922668.174999999813735 ], [ 24054.599999999998545, 5922668.325000000186265 ], [ 24054.675, 5922668.325000000186265 ], [ 24054.675, 5922668.474999999627471 ], [ 24054.75, 5922668.474999999627471 ], [ 24054.75, 5922668.549999999813735 ], [ 24054.825, 5922668.549999999813735 ], [ 24054.825, 5922668.700000000186265 ], [ 24054.900000000001455, 5922668.700000000186265 ], [ 24054.900000000001455, 5922668.775000000372529 ], [ 24054.974999999998545, 5922668.775000000372529 ], [ 24054.974999999998545, 5922668.849999999627471 ], [ 24055.05, 5922668.849999999627471 ], [ 24055.05, 5922669.0 ], [ 24055.125, 5922669.0 ], [ 24055.125, 5922669.075000000186265 ], [ 24055.2, 5922669.075000000186265 ], [ 24055.2, 5922669.150000000372529 ], [ 24055.275000000001455, 5922669.150000000372529 ], [ 24055.275000000001455, 5922669.224999999627471 ], [ 24055.349999999998545, 5922669.224999999627471 ], [ 24055.349999999998545, 5922669.299999999813735 ], [ 24055.425, 5922669.299999999813735 ], [ 24055.425, 5922669.375 ], [ 24055.5, 5922669.375 ], [ 24055.5, 5922669.450000000186265 ], [ 24055.575, 5922669.450000000186265 ], [ 24055.575, 5922669.599999999627471 ], [ 24055.650000000001455, 5922669.599999999627471 ], [ 24055.650000000001455, 5922669.674999999813735 ], [ 24055.724999999998545, 5922669.674999999813735 ], [ 24055.724999999998545, 5922669.825000000186265 ], [ 24055.8, 5922669.825000000186265 ], [ 24055.8, 5922669.974999999627471 ], [ 24055.875, 5922669.974999999627471 ], [ 24055.875, 5922670.049999999813735 ], [ 24055.95, 5922670.049999999813735 ], [ 24055.95, 5922670.200000000186265 ], [ 24056.025000000001455, 5922670.200000000186265 ], [ 24056.025000000001455, 5922670.275000000372529 ], [ 24056.099999999998545, 5922670.275000000372529 ], [ 24056.099999999998545, 5922670.349999999627471 ], [ 24056.175, 5922670.349999999627471 ], [ 24056.175, 5922670.5 ], [ 24056.25, 5922670.5 ], [ 24056.25, 5922670.575000000186265 ], [ 24056.325, 5922670.575000000186265 ], [ 24056.325, 5922670.650000000372529 ], [ 24056.400000000001455, 5922670.650000000372529 ], [ 24056.400000000001455, 5922670.799999999813735 ], [ 24056.474999999998545, 5922670.799999999813735 ], [ 24056.474999999998545, 5922670.875 ], [ 24056.55, 5922670.875 ], [ 24056.55, 5922670.950000000186265 ], [ 24056.625, 5922670.950000000186265 ], [ 24056.625, 5922671.025000000372529 ], [ 24056.7, 5922671.025000000372529 ], [ 24056.7, 5922671.099999999627471 ], [ 24056.775000000001455, 5922671.099999999627471 ], [ 24056.775000000001455, 5922671.25 ], [ 24056.849999999998545, 5922671.25 ], [ 24056.849999999998545, 5922671.325000000186265 ], [ 24056.925, 5922671.325000000186265 ], [ 24056.925, 5922671.400000000372529 ], [ 24057.0, 5922671.400000000372529 ], [ 24057.0, 5922671.474999999627471 ], [ 24057.075, 5922671.474999999627471 ], [ 24057.075, 5922671.549999999813735 ], [ 24057.150000000001455, 5922671.549999999813735 ], [ 24057.150000000001455, 5922671.625 ], [ 24057.224999999998545, 5922671.625 ], [ 24057.224999999998545, 5922671.775000000372529 ], [ 24057.3, 5922671.775000000372529 ], [ 24057.3, 5922671.849999999627471 ], [ 24057.375, 5922671.849999999627471 ], [ 24057.375, 5922672.0 ], [ 24057.45, 5922672.0 ], [ 24057.45, 5922672.150000000372529 ], [ 24057.525000000001455, 5922672.150000000372529 ], [ 24057.525000000001455, 5922672.299999999813735 ], [ 24057.599999999998545, 5922672.299999999813735 ], [ 24057.599999999998545, 5922672.525000000372529 ], [ 24057.675, 5922672.525000000372529 ], [ 24057.675, 5922672.674999999813735 ], [ 24057.75, 5922672.674999999813735 ], [ 24057.75, 5922672.900000000372529 ], [ 24057.825, 5922672.900000000372529 ], [ 24057.825, 5922673.125 ], [ 24057.900000000001455, 5922673.125 ], [ 24057.900000000001455, 5922673.349999999627471 ], [ 24057.974999999998545, 5922673.349999999627471 ], [ 24057.974999999998545, 5922673.575000000186265 ], [ 24058.05, 5922673.575000000186265 ], [ 24058.05, 5922673.875 ], [ 24058.125, 5922673.875 ], [ 24058.125, 5922674.174999999813735 ], [ 24058.2, 5922674.174999999813735 ], [ 24058.2, 5922674.474999999627471 ], [ 24058.275000000001455, 5922674.474999999627471 ], [ 24058.275000000001455, 5922674.775000000372529 ], [ 24058.349999999998545, 5922674.775000000372529 ], [ 24058.349999999998545, 5922675.075000000186265 ], [ 24058.425, 5922675.075000000186265 ], [ 24058.425, 5922675.299999999813735 ], [ 24058.5, 5922675.299999999813735 ], [ 24058.5, 5922675.525000000372529 ], [ 24058.575, 5922675.525000000372529 ], [ 24058.575, 5922677.625 ], [ 24058.5, 5922677.625 ], [ 24058.5, 5922677.849999999627471 ], [ 24058.425, 5922677.849999999627471 ], [ 24058.425, 5922678.075000000186265 ], [ 24058.349999999998545, 5922678.075000000186265 ], [ 24058.349999999998545, 5922678.299999999813735 ], [ 24058.275000000001455, 5922678.299999999813735 ], [ 24058.275000000001455, 5922678.525000000372529 ], [ 24058.2, 5922678.525000000372529 ], [ 24058.2, 5922678.75 ], [ 24058.125, 5922678.75 ], [ 24058.125, 5922678.974999999627471 ], [ 24058.05, 5922678.974999999627471 ], [ 24058.05, 5922679.200000000186265 ], [ 24057.974999999998545, 5922679.200000000186265 ], [ 24057.974999999998545, 5922679.424999999813735 ], [ 24057.900000000001455, 5922679.424999999813735 ], [ 24057.900000000001455, 5922679.650000000372529 ], [ 24057.825, 5922679.650000000372529 ], [ 24057.825, 5922679.799999999813735 ], [ 24057.75, 5922679.799999999813735 ], [ 24057.75, 5922679.950000000186265 ], [ 24057.675, 5922679.950000000186265 ], [ 24057.675, 5922680.025000000372529 ], [ 24057.599999999998545, 5922680.025000000372529 ], [ 24057.599999999998545, 5922680.099999999627471 ], [ 24057.525000000001455, 5922680.099999999627471 ], [ 24057.525000000001455, 5922680.25 ], [ 24057.45, 5922680.25 ], [ 24057.45, 5922680.325000000186265 ], [ 24057.375, 5922680.325000000186265 ], [ 24057.375, 5922680.400000000372529 ], [ 24057.3, 5922680.400000000372529 ], [ 24057.3, 5922680.474999999627471 ], [ 24057.224999999998545, 5922680.474999999627471 ], [ 24057.224999999998545, 5922680.549999999813735 ], [ 24057.150000000001455, 5922680.549999999813735 ], [ 24057.150000000001455, 5922680.625 ], [ 24057.075, 5922680.625 ], [ 24057.075, 5922680.700000000186265 ], [ 24057.0, 5922680.700000000186265 ], [ 24057.0, 5922680.775000000372529 ], [ 24056.925, 5922680.775000000372529 ], [ 24056.925, 5922680.849999999627471 ], [ 24056.775000000001455, 5922680.849999999627471 ], [ 24056.775000000001455, 5922680.924999999813735 ], [ 24056.7, 5922680.924999999813735 ], [ 24056.7, 5922681.0 ], [ 24056.625, 5922681.0 ], [ 24056.625, 5922681.075000000186265 ], [ 24056.55, 5922681.075000000186265 ], [ 24056.55, 5922681.150000000372529 ], [ 24056.474999999998545, 5922681.150000000372529 ], [ 24056.474999999998545, 5922681.224999999627471 ], [ 24056.400000000001455, 5922681.224999999627471 ], [ 24056.400000000001455, 5922681.299999999813735 ], [ 24056.325, 5922681.299999999813735 ], [ 24056.325, 5922681.375 ], [ 24056.25, 5922681.375 ], [ 24056.25, 5922681.450000000186265 ], [ 24056.175, 5922681.450000000186265 ], [ 24056.175, 5922681.525000000372529 ], [ 24056.099999999998545, 5922681.525000000372529 ], [ 24056.099999999998545, 5922681.599999999627471 ], [ 24056.025000000001455, 5922681.599999999627471 ], [ 24056.025000000001455, 5922681.674999999813735 ], [ 24055.95, 5922681.674999999813735 ], [ 24055.95, 5922681.75 ], [ 24055.875, 5922681.75 ], [ 24055.875, 5922681.825000000186265 ], [ 24055.8, 5922681.825000000186265 ], [ 24055.8, 5922681.900000000372529 ], [ 24055.724999999998545, 5922681.900000000372529 ], [ 24055.724999999998545, 5922681.974999999627471 ], [ 24055.575, 5922681.974999999627471 ], [ 24055.575, 5922682.049999999813735 ], [ 24055.5, 5922682.049999999813735 ], [ 24055.5, 5922682.125 ], [ 24055.349999999998545, 5922682.125 ], [ 24055.349999999998545, 5922682.200000000186265 ], [ 24055.2, 5922682.200000000186265 ], [ 24055.2, 5922682.275000000372529 ], [ 24055.05, 5922682.275000000372529 ], [ 24055.05, 5922682.349999999627471 ], [ 24054.974999999998545, 5922682.349999999627471 ], [ 24054.974999999998545, 5922682.424999999813735 ], [ 24054.825, 5922682.424999999813735 ], [ 24054.825, 5922682.5 ], [ 24054.75, 5922682.5 ], [ 24054.75, 5922682.575000000186265 ], [ 24054.675, 5922682.575000000186265 ], [ 24054.675, 5922682.650000000372529 ], [ 24054.525000000001455, 5922682.650000000372529 ], [ 24054.525000000001455, 5922682.724999999627471 ], [ 24054.45, 5922682.724999999627471 ], [ 24054.45, 5922682.799999999813735 ], [ 24054.375, 5922682.799999999813735 ], [ 24054.375, 5922682.875 ], [ 24054.3, 5922682.875 ], [ 24054.3, 5922683.025000000372529 ], [ 24054.224999999998545, 5922683.025000000372529 ], [ 24054.224999999998545, 5922683.099999999627471 ], [ 24054.150000000001455, 5922683.099999999627471 ], [ 24054.150000000001455, 5922683.174999999813735 ], [ 24054.075, 5922683.174999999813735 ], [ 24054.075, 5922683.25 ], [ 24054.0, 5922683.25 ], [ 24054.0, 5922683.400000000372529 ], [ 24053.925, 5922683.400000000372529 ], [ 24053.925, 5922683.474999999627471 ], [ 24053.849999999998545, 5922683.474999999627471 ], [ 24053.849999999998545, 5922683.625 ], [ 24053.775000000001455, 5922683.625 ], [ 24053.775000000001455, 5922683.700000000186265 ], [ 24053.7, 5922683.700000000186265 ], [ 24053.7, 5922683.849999999627471 ], [ 24053.625, 5922683.849999999627471 ], [ 24053.625, 5922683.924999999813735 ], [ 24053.55, 5922683.924999999813735 ], [ 24053.55, 5922684.0 ], [ 24053.474999999998545, 5922684.0 ], [ 24053.474999999998545, 5922684.075000000186265 ], [ 24053.400000000001455, 5922684.075000000186265 ], [ 24053.400000000001455, 5922684.150000000372529 ], [ 24053.325, 5922684.150000000372529 ], [ 24053.325, 5922684.224999999627471 ], [ 24053.25, 5922684.224999999627471 ], [ 24053.25, 5922684.299999999813735 ], [ 24053.175, 5922684.299999999813735 ], [ 24053.175, 5922684.375 ], [ 24053.025000000001455, 5922684.375 ], [ 24053.025000000001455, 5922684.450000000186265 ], [ 24052.95, 5922684.450000000186265 ], [ 24052.95, 5922684.525000000372529 ], [ 24052.875, 5922684.525000000372529 ], [ 24052.875, 5922684.599999999627471 ], [ 24052.8, 5922684.599999999627471 ], [ 24052.8, 5922684.674999999813735 ], [ 24052.724999999998545, 5922684.674999999813735 ], [ 24052.724999999998545, 5922684.75 ], [ 24052.650000000001455, 5922684.75 ], [ 24052.650000000001455, 5922684.900000000372529 ], [ 24052.575, 5922684.900000000372529 ], [ 24052.575, 5922684.974999999627471 ], [ 24052.5, 5922684.974999999627471 ], [ 24052.5, 5922685.049999999813735 ], [ 24052.425, 5922685.049999999813735 ], [ 24052.425, 5922685.200000000186265 ], [ 24052.349999999998545, 5922685.200000000186265 ], [ 24052.349999999998545, 5922685.275000000372529 ], [ 24052.275000000001455, 5922685.275000000372529 ], [ 24052.275000000001455, 5922685.424999999813735 ], [ 24052.2, 5922685.424999999813735 ], [ 24052.2, 5922685.650000000372529 ], [ 24052.125, 5922685.650000000372529 ], [ 24052.125, 5922685.875 ], [ 24052.05, 5922685.875 ], [ 24052.05, 5922686.099999999627471 ], [ 24051.974999999998545, 5922686.099999999627471 ], [ 24051.974999999998545, 5922686.325000000186265 ], [ 24051.900000000001455, 5922686.325000000186265 ], [ 24051.900000000001455, 5922686.549999999813735 ], [ 24051.825, 5922686.549999999813735 ], [ 24051.825, 5922686.700000000186265 ], [ 24051.75, 5922686.700000000186265 ], [ 24051.75, 5922686.849999999627471 ], [ 24051.675, 5922686.849999999627471 ], [ 24051.675, 5922687.075000000186265 ], [ 24051.599999999998545, 5922687.075000000186265 ], [ 24051.599999999998545, 5922687.224999999627471 ], [ 24051.525000000001455, 5922687.224999999627471 ], [ 24051.525000000001455, 5922687.375 ], [ 24051.45, 5922687.375 ], [ 24051.45, 5922687.450000000186265 ], [ 24051.375, 5922687.450000000186265 ], [ 24051.375, 5922687.525000000372529 ], [ 24051.3, 5922687.525000000372529 ], [ 24051.3, 5922687.599999999627471 ], [ 24051.224999999998545, 5922687.599999999627471 ], [ 24051.224999999998545, 5922687.674999999813735 ], [ 24051.150000000001455, 5922687.674999999813735 ], [ 24051.150000000001455, 5922687.75 ], [ 24051.075, 5922687.75 ], [ 24051.075, 5922687.825000000186265 ], [ 24050.925, 5922687.825000000186265 ], [ 24050.925, 5922687.900000000372529 ], [ 24050.849999999998545, 5922687.900000000372529 ], [ 24050.849999999998545, 5922687.974999999627471 ], [ 24050.7, 5922687.974999999627471 ], [ 24050.7, 5922688.049999999813735 ], [ 24050.625, 5922688.049999999813735 ], [ 24050.625, 5922688.125 ], [ 24050.55, 5922688.125 ], [ 24050.55, 5922688.200000000186265 ], [ 24050.400000000001455, 5922688.200000000186265 ], [ 24050.400000000001455, 5922688.275000000372529 ], [ 24050.325, 5922688.275000000372529 ], [ 24050.325, 5922688.349999999627471 ], [ 24050.25, 5922688.349999999627471 ], [ 24050.25, 5922688.424999999813735 ], [ 24050.099999999998545, 5922688.424999999813735 ], [ 24050.099999999998545, 5922688.5 ], [ 24050.025000000001455, 5922688.5 ], [ 24050.025000000001455, 5922688.575000000186265 ], [ 24049.95, 5922688.575000000186265 ], [ 24049.95, 5922688.650000000372529 ], [ 24049.875, 5922688.650000000372529 ], [ 24049.875, 5922688.724999999627471 ], [ 24049.724999999998545, 5922688.724999999627471 ], [ 24049.724999999998545, 5922688.799999999813735 ], [ 24049.650000000001455, 5922688.799999999813735 ], [ 24049.650000000001455, 5922688.875 ], [ 24049.575, 5922688.875 ], [ 24049.575, 5922688.950000000186265 ], [ 24049.5, 5922688.950000000186265 ], [ 24049.5, 5922689.025000000372529 ], [ 24049.425, 5922689.025000000372529 ], [ 24049.425, 5922689.099999999627471 ], [ 24049.349999999998545, 5922689.099999999627471 ], [ 24049.349999999998545, 5922689.174999999813735 ], [ 24049.275000000001455, 5922689.174999999813735 ], [ 24049.275000000001455, 5922689.25 ], [ 24049.125, 5922689.25 ], [ 24049.125, 5922689.325000000186265 ], [ 24049.05, 5922689.325000000186265 ], [ 24049.05, 5922689.400000000372529 ], [ 24048.974999999998545, 5922689.400000000372529 ], [ 24048.974999999998545, 5922689.474999999627471 ], [ 24048.825, 5922689.474999999627471 ], [ 24048.825, 5922689.549999999813735 ], [ 24048.675, 5922689.549999999813735 ], [ 24048.675, 5922689.625 ], [ 24048.525000000001455, 5922689.625 ], [ 24048.525000000001455, 5922689.700000000186265 ], [ 24048.375, 5922689.700000000186265 ], [ 24048.375, 5922689.775000000372529 ], [ 24048.224999999998545, 5922689.775000000372529 ], [ 24048.224999999998545, 5922689.849999999627471 ], [ 24048.0, 5922689.849999999627471 ], [ 24048.0, 5922689.924999999813735 ], [ 24047.849999999998545, 5922689.924999999813735 ], [ 24047.849999999998545, 5922690.0 ], [ 24047.625, 5922690.0 ], [ 24047.625, 5922690.075000000186265 ], [ 24047.325, 5922690.075000000186265 ], [ 24047.325, 5922690.150000000372529 ], [ 24046.425, 5922690.150000000372529 ], [ 24046.425, 5922690.224999999627471 ], [ 24043.8, 5922690.224999999627471 ] ] ] } }
]
}
