{
"type": "FeatureCollection",
"name": "23433E591882N_buildings",
"crs": { "type": "name", "properties": { "name": "urn:ogc:def:crs:EPSG::3776" } },
"features": [
{ "type": "Feature", "properties": { "value": 1.0, "building_id": 0, "area": 227.76187500015473 }, "geometry": { "type": "Polygon", "coordinates": [ [ [ 24109.575, 5919012.075000000186265 ], [ 24109.575, 5919012.0 ], [ 24109.2, 5919012.0 ], [ 24109.2, 5919011.924999999813735 ], [ 24108.900000000001455, 5919011.924999999813735 ], [ 24108.900000000001455, 5919011.849999999627471 ], [ 24108.675, 5919011.849999999627471 ], [ 24108.675, 5919011.775000000372529 ], [ 24108.375, 5919011.775000000372529 ], [ 24108.375, 5919011.700000000186265 ], [ 24108.150000000001455, 5919011.700000000186265 ], [ 24108.150000000001455, 5919011.625 ], [ 24107.925, 5919011.625 ], [ 24107.925, 5919011.549999999813735 ], [ 24107.775000000001455, 5919011.549999999813735 ], [ 24107.775000000001455, 5919011.474999999627471 ], [ 24107.625, 5919011.474999999627471 ], [ 24107.625, 5919011.400000000372529 ], [ 24107.474999999998545, 5919011.400000000372529 ], [ 24107.474999999998545, 5919011.325000000186265 ], [ 24107.325, 5919011.325000000186265 ], [ 24107.325, 5919011.25 ], [ 24107.175, 5919011.25 ], [ 24107.175, 5919011.174999999813735 ], [ 24106.95, 5919011.174999999813735 ], [ 24106.95, 5919011.099999999627471 ], [ 24106.8, 5919011.099999999627471 ], [ 24106.8, 5919011.025000000372529 ], [ 24106.575, 5919011.025000000372529 ], [ 24106.575, 5919010.950000000186265 ], [ 24106.349999999998545, 5919010.950000000186265 ], [ 24106.349999999998545, 5919010.875 ], [ 24106.2, 5919010.875 ], [ 24106.2, 5919010.799999999813735 ], [ 24105.900000000001455, 5919010.799999999813735 ], [ 24105.900000000001455, 5919010.724999999627471 ], [ 24105.75, 5919010.724999999627471 ], [ 24105.75, 5919010.650000000372529 ], [ 24105.599999999998545, 5919010.650000000372529 ], [ 24105.599999999998545, 5919010.575000000186265 ], [ 24105.45, 5919010.575000000186265 ], [ 24105.45, 5919010.5 ], [ 24105.3, 5919010.5 ], [ 24105.3, 5919010.424999999813735 ], [ 24105.224999999998545, 5919010.424999999813735 ], [ 24105.224999999998545, 5919010.349999999627471 ], [ 24105.150000000001455, 5919010.349999999627471 ], [ 24105.150000000001455, 5919010.275000000372529 ], [ 24105.0, 5919010.275000000372529 ], [ 24105.0, 5919010.200000000186265 ], [ 24104.925, 5919010.200000000186265 ], [ 24104.925, 5919010.125 ], [ 24104.849999999998545, 5919010.125 ], [ 24104.849999999998545, 5919010.049999999813735 ], [ 24104.775000000001455, 5919010.049999999813735 ], [ 24104.775000000001455, 5919009.900000000372529 ], [ 24104.7, 5919009.900000000372529 ], [ 24104.7, 5919009.825000000186265 ], [ 24104.625, 5919009.825000000186265 ], [ 24104.625, 5919009.75 ], [ 24104.55, 5919009.75 ], [ 24104.55, 5919009.599999999627471 ], [ 24104.474999999998545, 5919009.599999999627471 ], [ 24104.474999999998545, 5919009.525000000372529 ], [ 24104.400000000001455, 5919009.525000000372529 ], [ 24104.400000000001455, 5919009.450000000186265 ], [ 24104.325, 5919009.450000000186265 ], [ 24104.325, 5919009.299999999813735 ], [ 24104.25, 5919009.299999999813735 ], [ 24104.25, 5919009.224999999627471 ], [ 24104.175, 5919009.224999999627471 ], [ 24104.175, 5919009.150000000372529 ], [ 24104.099999999998545, 5919009.150000000372529 ], [ 24104.099999999998545, 5919009.075000000186265 ], [ 24104.025000000001455, 5919009.075000000186265 ], [ 24104.025000000001455, 5919009.0 ], [ 24103.95, 5919009.0 ], [ 24103.95, 5919008.924999999813735 ], [ 24103.8, 5919008.924999999813735 ], [ 24103.8, 5919008.849999999627471 ], [ 24103.724999999998545, 5919008.849999999627471 ], [ 24103.724999999998545, 5919008.775000000372529 ], [ 24103.650000000001455, 5919008.775000000372529 ], [ 24103.650000000001455, 5919008.700000000186265 ], [ 24103.575, 5919008.700000000186265 ], [ 24103.575, 5919008.625 ], [ 24103.5, 5919008.625 ], [ 24103.5, 5919008.549999999813735 ], [ 24103.425, 5919008.549999999813735 ], [ 24103.425, 5919008.400000000372529 ], [ 24103.349999999998545, 5919008.400000000372529 ], [ 24103.349999999998545, 5919008.325000000186265 ], [ 24103.275000000001455, 5919008.325000000186265 ], [ 24103.275000000001455, 5919008.174999999813735 ], [ 24103.2, 5919008.174999999813735 ], [ 24103.2, 5919008.099999999627471 ], [ 24103.125, 5919008.099999999627471 ], [ 24103.125, 5919007.950000000186265 ], [ 24103.05, 5919007.950000000186265 ], [ 24103.05, 5919007.724999999627471 ], [ 24102.974999999998545, 5919007.724999999627471 ], [ 24102.974999999998545, 5919007.349999999627471 ], [ 24102.900000000001455, 5919007.349999999627471 ], [ 24102.900000000001455, 5919006.75 ], [ 24102.825, 5919006.75 ], [ 24102.825, 5919006.150000000372529 ], [ 24102.75, 5919006.150000000372529 ], [ 24102.75, 5919005.099999999627471 ], [ 24102.675, 5919005.099999999627471 ], [ 24102.675, 5919003.075000000186265 ], [ 24102.75, 5919003.075000000186265 ], [ 24102.75, 5919002.174999999813735 ], [ 24102.825, 5919002.174999999813735 ], [ 24102.825, 5919001.724999999627471 ], [ 24102.900000000001455, 5919001.724999999627471 ], [ 24102.900000000001455, 5919001.424999999813735 ], [ 24102.974999999998545, 5919001.424999999813735 ], [ 24102.974999999998545, 5919001.275000000372529 ], [ 24103.05, 5919001.275000000372529 ], [ 24103.05, 5919001.049999999813735 ], [ 24103.125, 5919001.049999999813735 ], [ 24103.125, 5919000.900000000372529 ], [ 24103.275000000001455, 5919000.900000000372529 ], [ 24103.275000000001455, 5919000.825000000186265 ], [ 24103.349999999998545, 5919000.825000000186265 ], [ 24103.349999999998545, 5919000.75 ], [ 24103.425, 5919000.75 ], [ 24103.425, 5919000.674999999813735 ], [ 24103.575, 5919000.674999999813735 ], [ 24103.575, 5919000.599999999627471 ], [ 24103.650000000001455, 5919000.599999999627471 ], [ 24103.650000000001455, 5919000.525000000372529 ], [ 24103.8, 5919000.525000000372529 ], [ 24103.8, 5919000.450000000186265 ], [ 24103.875, 5919000.450000000186265 ], [ 24103.875, 5919000.375 ], [ 24103.95, 5919000.375 ], [ 24103.95, 5919000.299999999813735 ], [ 24104.025000000001455, 5919000.299999999813735 ], [ 24104.025000000001455, 5919000.224999999627471 ], [ 24104.099999999998545, 5919000.224999999627471 ], [ 24104.099999999998545, 5919000.075000000186265 ], [ 24104.175, 5919000.075000000186265 ], [ 24104.175, 5919000.0 ], [ 24104.25, 5919000.0 ], [ 24104.25, 5918999.849999999627471 ], [ 24104.325, 5918999.849999999627471 ], [ 24104.325, 5918999.775000000372529 ], [ 24104.400000000001455, 5918999.775000000372529 ], [ 24104.400000000001455, 5918999.700000000186265 ], [ 24104.474999999998545, 5918999.700000000186265 ], [ 24104.474999999998545, 5918999.625 ], [ 24104.55, 5918999.625 ], [ 24104.55, 5918999.549999999813735 ], [ 24104.625, 5918999.549999999813735 ], [ 24104.625, 5918999.474999999627471 ], [ 24104.7, 5918999.474999999627471 ], [ 24104.7, 5918999.400000000372529 ], [ 24104.775000000001455, 5918999.400000000372529 ], [ 24104.775000000001455, 5918999.325000000186265 ], [ 24104.849999999998545, 5918999.325000000186265 ], [ 24104.849999999998545, 5918999.25 ], [ 24105.0, 5918999.25 ], [ 24105.0, 5918999.174999999813735 ], [ 24105.075, 5918999.174999999813735 ], [ 24105.075, 5918999.099999999627471 ], [ 24105.224999999998545, 5918999.099999999627471 ], [ 24105.224999999998545, 5918999.025000000372529 ], [ 24105.3, 5918999.025000000372529 ], [ 24105.3, 5918998.950000000186265 ], [ 24105.45, 5918998.950000000186265 ], [ 24105.45, 5918998.875 ], [ 24105.599999999998545, 5918998.875 ], [ 24105.599999999998545, 5918998.799999999813735 ], [ 24105.825, 5918998.799999999813735 ], [ 24105.825, 5918998.724999999627471 ], [ 24105.974999999998545, 5918998.724999999627471 ], [ 24105.974999999998545, 5918998.650000000372529 ], [ 24106.125, 5918998.650000000372529 ], [ 24106.125, 5918998.575000000186265 ], [ 24106.2, 5918998.575000000186265 ], [ 24106.2, 5918998.5 ], [ 24106.349999999998545, 5918998.5 ], [ 24106.349999999998545, 5918998.424999999813735 ], [ 24106.425, 5918998.424999999813735 ], [ 24106.425, 5918998.349999999627471 ], [ 24106.5, 5918998.349999999627471 ], [ 24106.5, 5918998.275000000372529 ], [ 24106.650000000001455, 5918998.275000000372529 ], [ 24106.650000000001455, 5918998.200000000186265 ], [ 24106.724999999998545, 5918998.200000000186265 ], [ 24106.724999999998545, 5918998.125 ], [ 24106.8, 5918998.125 ], [ 24106.8, 5918998.049999999813735 ], [ 24106.875, 5918998.049999999813735 ], [ 24106.875, 5918997.900000000372529 ], [ 24106.95, 5918997.900000000372529 ], [ 24106.95, 5918997.825000000186265 ], [ 24107.025000000001455, 5918997.825000000186265 ], [ 24107.025000000001455, 5918997.75 ], [ 24107.099999999998545, 5918997.75 ], [ 24107.099999999998545, 5918997.674999999813735 ], [ 24107.175, 5918997.674999999813735 ], [ 24107.175, 5918997.599999999627471 ], [ 24107.25, 5918997.599999999627471 ], [ 24107.25, 5918997.525000000372529 ], [ 24107.325, 5918997.525000000372529 ], [ 24107.325, 5918997.450000000186265 ], [ 24107.400000000001455, 5918997.450000000186265 ], [ 24107.400000000001455, 5918997.375 ], [ 24107.55, 5918997.375 ], [ 24107.55, 5918997.299999999813735 ], [ 24107.625, 5918997.299999999813735 ], [ 24107.625, 5918997.224999999627471 ], [ 24107.775000000001455, 5918997.224999999627471 ], [ 24107.775000000001455, 5918997.150000000372529 ], [ 24108.075, 5918997.150000000372529 ], [ 24108.075, 5918997.075000000186265 ], [ 24108.45, 5918997.075000000186265 ], [ 24108.45, 5918997.0 ], [ 24108.825, 5918997.0 ], [ 24108.825, 5918996.924999999813735 ], [ 24109.125, 5918996.924999999813735 ], [ 24109.125, 5918996.849999999627471 ], [ 24109.425, 5918996.849999999627471 ], [ 24109.425, 5918996.775000000372529 ], [ 24109.724999999998545, 5918996.775000000372529 ], [ 24109.724999999998545, 5918996.700000000186265 ], [ 24109.875, 5918996.700000000186265 ], [ 24109.875, 5918996.775000000372529 ], [ 24110.400000000001455, 5918996.775000000372529 ], [ 24110.400000000001455, 5918996.849999999627471 ], [ 24111.0, 5918996.849999999627471 ], [ 24111.0, 5918996.924999999813735 ], [ 24111.599999999998545, 5918996.924999999813735 ], [ 24111.599999999998545, 5918997.0 ], [ 24112.275000000001455, 5918997.0 ], [ 24112.275000000001455, 5918997.075000000186265 ], [ 24112.95, 5918997.075000000186265 ], [ 24112.95, 5918997.150000000372529 ], [ 24113.625, 5918997.150000000372529 ], [ 24113.625, 5918997.224999999627471 ], [ 24114.375, 5918997.224999999627471 ], [ 24114.375, 5918997.299999999813735 ], [ 24115.125, 5918997.299999999813735 ], [ 24115.125, 5918997.375 ], [ 24115.724999999998545, 5918997.375 ], [ 24115.724999999998545, 5918997.450000000186265 ], [ 24115.875, 5918997.450000000186265 ], [ 24115.875, 5918997.525000000372529 ], [ 24116.099999999998545, 5918997.525000000372529 ], [ 24116.099999999998545, 5918997.599999999627471 ], [ 24116.25, 5918997.599999999627471 ], [ 24116.25, 5918997.674999999813735 ], [ 24116.400000000001455, 5918997.674999999813735 ], [ 24116.400000000001455, 5918997.75 ], [ 24116.55, 5918997.75 ], [ 24116.55, 5918997.825000000186265 ], [ 24116.7, 5918997.825000000186265 ], [ 24116.7, 5918997.900000000372529 ], [ 24116.775000000001455, 5918997.900000000372529 ], [ 24116.775000000001455, 5918997.974999999627471 ], [ 24116.925, 5918997.974999999627471 ], [ 24116.925, 5918998.049999999813735 ], [ 24117.0, 5918998.049999999813735 ], [ 24117.0, 5918998.125 ], [ 24117.150000000001455, 5918998.125 ], [ 24117.150000000001455, 5918998.200000000186265 ], [ 24117.224999999998545, 5918998.200000000186265 ], [ 24117.224999999998545, 5918998.275000000372529 ], [ 24117.375, 5918998.275000000372529 ], [ 24117.375, 5918998.349999999627471 ], [ 24117.45, 5918998.349999999627471 ], [ 24117.45, 5918998.424999999813735 ], [ 24117.599999999998545, 5918998.424999999813735 ], [ 24117.599999999998545, 5918998.5 ], [ 24117.675, 5918998.5 ], [ 24117.675, 5918998.575000000186265 ], [ 24117.75, 5918998.575000000186265 ], [ 24117.75, 5918998.724999999627471 ], [ 24117.825, 5918998.724999999627471 ], [ 24117.825, 5918998.799999999813735 ], [ 24117.900000000001455, 5918998.799999999813735 ], [ 24117.900000000001455, 5918998.875 ], [ 24117.974999999998545, 5918998.875 ], [ 24117.974999999998545, 5918998.950000000186265 ], [ 24118.05, 5918998.950000000186265 ], [ 24118.05, 5918999.099999999627471 ], [ 24118.125, 5918999.099999999627471 ], [ 24118.125, 5918999.174999999813735 ], [ 24118.2, 5918999.174999999813735 ], [ 24118.2, 5918999.325000000186265 ], [ 24118.275000000001455, 5918999.325000000186265 ], [ 24118.275000000001455, 5918999.400000000372529 ], [ 24118.349999999998545, 5918999.400000000372529 ], [ 24118.349999999998545, 5918999.549999999813735 ], [ 24118.425, 5918999.549999999813735 ], [ 24118.425, 5918999.700000000186265 ], [ 24118.5, 5918999.700000000186265 ], [ 24118.5, 5918999.849999999627471 ], [ 24118.575, 5918999.849999999627471 ], [ 24118.575, 5919000.0 ], [ 24118.650000000001455, 5919000.0 ], [ 24118.650000000001455, 5919000.150000000372529 ], [ 24118.724999999998545, 5919000.150000000372529 ], [ 24118.724999999998545, 5919000.224999999627471 ], [ 24118.8, 5919000.224999999627471 ], [ 24118.8, 5919000.375 ], [ 24118.875, 5919000.375 ], [ 24118.875, 5919000.450000000186265 ], [ 24118.95, 5919000.450000000186265 ], [ 24118.95, 5919000.599999999627471 ], [ 24119.025000000001455, 5919000.599999999627471 ], [ 24119.025000000001455, 5919000.674999999813735 ], [ 24119.099999999998545, 5919000.674999999813735 ], [ 24119.099999999998545, 5919000.75 ], [ 24119.175, 5919000.75 ], [ 24119.175, 5919000.825000000186265 ], [ 24119.25, 5919000.825000000186265 ], [ 24119.25, 5919000.900000000372529 ], [ 24119.325, 5919000.900000000372529 ], [ 24119.325, 5919000.974999999627471 ], [ 24119.400000000001455, 5919000.974999999627471 ], [ 24119.400000000001455, 5919001.049999999813735 ], [ 24119.474999999998545, 5919001.049999999813735 ], [ 24119.474999999998545, 5919001.125 ], [ 24119.55, 5919001.125 ], [ 24119.55, 5919001.200000000186265 ], [ 24119.625, 5919001.200000000186265 ], [ 24119.625, 5919001.275000000372529 ], [ 24119.7, 5919001.275000000372529 ], [ 24119.7, 5919001.349999999627471 ], [ 24119.775000000001455, 5919001.349999999627471 ], [ 24119.775000000001455, 5919001.424999999813735 ], [ 24119.849999999998545, 5919001.424999999813735 ], [ 24119.849999999998545, 5919001.5 ], [ 24119.925, 5919001.5 ], [ 24119.925, 5919001.650000000372529 ], [ 24120.0, 5919001.650000000372529 ], [ 24120.0, 5919001.724999999627471 ], [ 24120.075, 5919001.724999999627471 ], [ 24120.075, 5919001.875 ], [ 24120.150000000001455, 5919001.875 ], [ 24120.150000000001455, 5919002.025000000372529 ], [ 24120.224999999998545, 5919002.025000000372529 ], [ 24120.224999999998545, 5919002.174999999813735 ], [ 24120.3, 5919002.174999999813735 ], [ 24120.3, 5919002.325000000186265 ], [ 24120.375, 5919002.325000000186265 ], [ 24120.375, 5919002.474999999627471 ], [ 24120.45, 5919002.474999999627471 ], [ 24120.45, 5919002.625 ], [ 24120.525000000001455, 5919002.625 ], [ 24120.525000000001455, 5919002.849999999627471 ], [ 24120.599999999998545, 5919002.849999999627471 ], [ 24120.599999999998545, 5919003.0 ], [ 24120.675, 5919003.0 ], [ 24120.675, 5919003.150000000372529 ], [ 24120.75, 5919003.150000000372529 ], [ 24120.75, 5919003.299999999813735 ], [ 24120.825, 5919003.299999999813735 ], [ 24120.825, 5919003.450000000186265 ], [ 24120.900000000001455, 5919003.450000000186265 ], [ 24120.900000000001455, 5919003.599999999627471 ], [ 24120.974999999998545, 5919003.599999999627471 ], [ 24120.974999999998545, 5919003.75 ], [ 24121.05, 5919003.75 ], [ 24121.05, 5919004.049999999813735 ], [ 24121.125, 5919004.049999999813735 ], [ 24121.125, 5919004.275000000372529 ], [ 24121.2, 5919004.275000000372529 ], [ 24121.2, 5919004.5 ], [ 24121.275000000001455, 5919004.5 ], [ 24121.275000000001455, 5919004.724999999627471 ], [ 24121.349999999998545, 5919004.724999999627471 ], [ 24121.349999999998545, 5919004.950000000186265 ], [ 24121.425, 5919004.950000000186265 ], [ 24121.425, 5919005.099999999627471 ], [ 24121.5, 5919005.099999999627471 ], [ 24121.5, 5919005.25 ], [ 24121.575, 5919005.25 ], [ 24121.575, 5919005.474999999627471 ], [ 24121.650000000001455, 5919005.474999999627471 ], [ 24121.650000000001455, 5919005.625 ], [ 24121.724999999998545, 5919005.625 ], [ 24121.724999999998545, 5919006.075000000186265 ], [ 24121.650000000001455, 5919006.075000000186265 ], [ 24121.650000000001455, 5919006.525000000372529 ], [ 24121.575, 5919006.525000000372529 ], [ 24121.575, 5919006.900000000372529 ], [ 24121.5, 5919006.900000000372529 ], [ 24121.5, 5919007.200000000186265 ], [ 24121.425, 5919007.200000000186265 ], [ 24121.425, 5919007.424999999813735 ], [ 24121.349999999998545, 5919007.424999999813735 ], [ 24121.349999999998545, 5919007.575000000186265 ], [ 24121.275000000001455, 5919007.575000000186265 ], [ 24121.275000000001455, 5919007.650000000372529 ], [ 24121.2, 5919007.650000000372529 ], [ 24121.2, 5919007.875 ], [ 24121.125, 5919007.875 ], [ 24121.125, 5919007.950000000186265 ], [ 24121.05, 5919007.950000000186265 ], [ 24121.05, 5919008.099999999627471 ], [ 24120.974999999998545, 5919008.099999999627471 ], [ 24120.974999999998545, 5919008.25 ], [ 24120.900000000001455, 5919008.25 ], [ 24120.900000000001455, 5919008.325000000186265 ], [ 24120.825, 5919008.325000000186265 ], [ 24120.825, 5919008.474999999627471 ], [ 24120.75, 5919008.474999999627471 ], [ 24120.75, 5919008.549999999813735 ], [ 24120.675, 5919008.549999999813735 ], [ 24120.675, 5919008.625 ], [ 24120.599999999998545, 5919008.625 ], [ 24120.599999999998545, 5919008.700000000186265 ], [ 24120.525000000001455, 5919008.700000000186265 ], [ 24120.525000000001455, 5919008.775000000372529 ], [ 24120.45, 5919008.775000000372529 ], [ 24120.45, 5919008.849999999627471 ], [ 24120.375, 5919008.849999999627471 ], [ 24120.375, 5919008.924999999813735 ], [ 24120.3, 5919008.924999999813735 ], [ 24120.3, 5919009.0 ], [ 24120.224999999998545, 5919009.0 ], [ 24120.224999999998545, 5919009.075000000186265 ], [ 24120.150000000001455, 5919009.075000000186265 ], [ 24120.150000000001455, 5919009.150000000372529 ], [ 24120.075, 5919009.150000000372529 ], [ 24120.075, 5919009.224999999627471 ], [ 24119.925, 5919009.224999999627471 ], [ 24119.925, 5919009.299999999813735 ], [ 24119.849999999998545, 5919009.299999999813735 ], [ 24119.849999999998545, 5919009.375 ], [ 24119.7, 5919009.375 ], [ 24119.7, 5919009.450000000186265 ], [ 24119.55, 5919009.450000000186265 ], [ 24119.55, 5919009.525000000372529 ], [ 24119.474999999998545, 5919009.525000000372529 ], [ 24119.474999999998545, 5919009.599999999627471 ], [ 24119.400000000001455, 5919009.599999999627471 ], [ 24119.400000000001455, 5919009.674999999813735 ], [ 24119.325, 5919009.674999999813735 ], [ 24119.325, 5919009.75 ], [ 24119.25, 5919009.75 ], [ 24119.25, 5919009.825000000186265 ], [ 24119.175, 5919009.825000000186265 ], [ 24119.175, 5919009.900000000372529 ], [ 24119.025000000001455, 5919009.900000000372529 ], [ 24119.025000000001455, 5919009.974999999627471 ], [ 24118.95, 5919009.974999999627471 ], [ 24118.95, 5919010.049999999813735 ], [ 24118.875, 5919010.049999999813735 ], [ 24118.875, 5919010.125 ], [ 24118.8, 5919010.125 ], [ 24118.8, 5919010.200000000186265 ], [ 24118.650000000001455, 5919010.200000000186265 ], [ 24118.650000000001455, 5919010.275000000372529 ], [ 24118.575, 5919010.275000000372529 ], [ 24118.575, 5919010.349999999627471 ], [ 24118.425, 5919010.349999999627471 ], [ 24118.425, 5919010.424999999813735 ], [ 24118.349999999998545, 5919010.424999999813735 ], [ 24118.349999999998545, 5919010.5 ], [ 24118.2, 5919010.5 ], [ 24118.2, 5919010.575000000186265 ], [ 24118.05, 5919010.575000000186265 ], [ 24118.05, 5919010.650000000372529 ], [ 24117.900000000001455, 5919010.650000000372529 ], [ 24117.900000000001455, 5919010.724999999627471 ], [ 24117.675, 5919010.724999999627471 ], [ 24117.675, 5919010.799999999813735 ], [ 24117.45, 5919010.799999999813735 ], [ 24117.45, 5919010.875 ], [ 24117.224999999998545, 5919010.875 ], [ 24117.224999999998545, 5919010.950000000186265 ], [ 24116.925, 5919010.950000000186265 ], [ 24116.925, 5919011.025000000372529 ], [ 24116.7, 5919011.025000000372529 ], [ 24116.7, 5919011.099999999627471 ], [ 24116.400000000001455, 5919011.099999999627471 ], [ 24116.400000000001455, 5919011.174999999813735 ], [ 24116.175, 5919011.174999999813735 ], [ 24116.175, 5919011.25 ], [ 24115.95, 5919011.25 ], [ 24115.95, 5919011.325000000186265 ], [ 24115.724999999998545, 5919011.325000000186265 ], [ 24115.724999999998545, 5919011.400000000372529 ], [ 24115.349999999998545, 5919011.400000000372529 ], [ 24115.349999999998545, 5919011.474999999627471 ], [ 24114.825, 5919011.474999999627471 ], [ 24114.825, 5919011.549999999813735 ], [ 24114.3, 5919011.549999999813735 ], [ 24114.3, 5919011.625 ], [ 24113.775000000001455, 5919011.625 ], [ 24113.775000000001455, 5919011.700000000186265 ], [ 24113.175, 5919011.700000000186265 ], [ 24113.175, 5919011.775000000372529 ], [ 24112.575, 5919011.775000000372529 ], [ 24112.575, 5919011.849999999627471 ], [ 24111.900000000001455, 5919011.849999999627471 ], [ 24111.900000000001455, 5919011.924999999813735 ], [ 24111.150000000001455, 5919011.924999999813735 ], [ 24111.150000000001455, 5919012.0 ], [ 24110.25, 5919012.0 ], [ 24110.25, 5919012.075000000186265 ], [ 24109.575, 5919012.075000000186265 ] ] ] } },
{ "type": "Feature", "properties": { "value": 1.0, "building_id": 1, "area": 356.24812500143713 }, "geometry": { "type": "Polygon", "coordinates": [ [ [ 24078.45, 5918999.549999999813735 ], [ 24078.45, 5918999.474999999627471 ], [ 24078.3, 5918999.474999999627471 ], [ 24078.3, 5918999.400000000372529 ], [ 24078.075, 5918999.400000000372529 ], [ 24078.075, 5918999.325000000186265 ], [ 24077.849999999998545, 5918999.325000000186265 ], [ 24077.849999999998545, 5918999.25 ], [ 24077.625, 5918999.25 ], [ 24077.625, 5918999.174999999813735 ], [ 24077.400000000001455, 5918999.174999999813735 ], [ 24077.400000000001455, 5918999.099999999627471 ], [ 24077.175, 5918999.099999999627471 ], [ 24077.175, 5918999.025000000372529 ], [ 24076.875, 5918999.025000000372529 ], [ 24076.875, 5918998.950000000186265 ], [ 24076.575, 5918998.950000000186265 ], [ 24076.575, 5918998.875 ], [ 24076.425, 5918998.875 ], [ 24076.425, 5918998.799999999813735 ], [ 24076.349999999998545, 5918998.799999999813735 ], [ 24076.349999999998545, 5918998.724999999627471 ], [ 24076.2, 5918998.724999999627471 ], [ 24076.2, 5918998.650000000372529 ], [ 24076.125, 5918998.650000000372529 ], [ 24076.125, 5918998.575000000186265 ], [ 24075.974999999998545, 5918998.575000000186265 ], [ 24075.974999999998545, 5918998.5 ], [ 24075.900000000001455, 5918998.5 ], [ 24075.900000000001455, 5918998.424999999813735 ], [ 24075.825, 5918998.424999999813735 ], [ 24075.825, 5918998.349999999627471 ], [ 24075.75, 5918998.349999999627471 ], [ 24075.75, 5918998.275000000372529 ], [ 24075.675, 5918998.275000000372529 ], [ 24075.675, 5918998.125 ], [ 24075.599999999998545, 5918998.125 ], [ 24075.599999999998545, 5918998.049999999813735 ], [ 24075.525000000001455, 5918998.049999999813735 ], [ 24075.525000000001455, 5918997.974999999627471 ], [ 24075.45, 5918997.974999999627471 ], [ 24075.45, 5918997.825000000186265 ], [ 24075.375, 5918997.825000000186265 ], [ 24075.375, 5918997.75 ], [ 24075.3, 5918997.75 ], [ 24075.3, 5918997.674999999813735 ], [ 24075.224999999998545, 5918997.674999999813735 ], [ 24075.224999999998545, 5918997.599999999627471 ], [ 24075.150000000001455, 5918997.599999999627471 ], [ 24075.150000000001455, 5918997.525000000372529 ], [ 24075.075, 5918997.525000000372529 ], [ 24075.075, 5918997.450000000186265 ], [ 24075.0, 5918997.450000000186265 ], [ 24075.0, 5918997.375 ], [ 24074.925, 5918997.375 ], [ 24074.925, 5918997.299999999813735 ], [ 24074.775000000001455, 5918997.299999999813735 ], [ 24074.775000000001455, 5918997.224999999627471 ], [ 24074.7, 5918997.224999999627471 ], [ 24074.7, 5918997.150000000372529 ], [ 24074.55, 5918997.150000000372529 ], [ 24074.55, 5918997.075000000186265 ], [ 24074.400000000001455, 5918997.075000000186265 ], [ 24074.400000000001455, 5918997.0 ], [ 24074.325, 5918997.0 ], [ 24074.325, 5918996.924999999813735 ], [ 24074.25, 5918996.924999999813735 ], [ 24074.25, 5918996.849999999627471 ], [ 24074.099999999998545, 5918996.849999999627471 ], [ 24074.099999999998545, 5918996.775000000372529 ], [ 24074.025000000001455, 5918996.775000000372529 ], [ 24074.025000000001455, 5918996.700000000186265 ], [ 24073.95, 5918996.700000000186265 ], [ 24073.95, 5918996.625 ], [ 24073.875, 5918996.625 ], [ 24073.875, 5918996.549999999813735 ], [ 24073.8, 5918996.549999999813735 ], [ 24073.8, 5918996.400000000372529 ], [ 24073.724999999998545, 5918996.400000000372529 ], [ 24073.724999999998545, 5918996.325000000186265 ], [ 24073.650000000001455, 5918996.325000000186265 ], [ 24073.650000000001455, 5918996.25 ], [ 24073.575, 5918996.25 ], [ 24073.575, 5918996.099999999627471 ], [ 24073.5, 5918996.099999999627471 ], [ 24073.5, 5918995.950000000186265 ], [ 24073.425, 5918995.950000000186265 ], [ 24073.425, 5918995.799999999813735 ], [ 24073.349999999998545, 5918995.799999999813735 ], [ 24073.349999999998545, 5918995.650000000372529 ], [ 24073.275000000001455, 5918995.650000000372529 ], [ 24073.275000000001455, 5918995.5 ], [ 24073.2, 5918995.5 ], [ 24073.2, 5918995.349999999627471 ], [ 24073.125, 5918995.349999999627471 ], [ 24073.125, 5918995.275000000372529 ], [ 24073.05, 5918995.275000000372529 ], [ 24073.05, 5918995.125 ], [ 24072.974999999998545, 5918995.125 ], [ 24072.974999999998545, 5918995.049999999813735 ], [ 24072.900000000001455, 5918995.049999999813735 ], [ 24072.900000000001455, 5918994.900000000372529 ], [ 24072.825, 5918994.900000000372529 ], [ 24072.825, 5918994.825000000186265 ], [ 24072.75, 5918994.825000000186265 ], [ 24072.75, 5918994.75 ], [ 24072.675, 5918994.75 ], [ 24072.675, 5918994.674999999813735 ], [ 24072.599999999998545, 5918994.674999999813735 ], [ 24072.599999999998545, 5918994.599999999627471 ], [ 24072.525000000001455, 5918994.599999999627471 ], [ 24072.525000000001455, 5918994.525000000372529 ], [ 24072.45, 5918994.525000000372529 ], [ 24072.45, 5918994.450000000186265 ], [ 24072.375, 5918994.450000000186265 ], [ 24072.375, 5918994.375 ], [ 24072.3, 5918994.375 ], [ 24072.3, 5918994.224999999627471 ], [ 24072.224999999998545, 5918994.224999999627471 ], [ 24072.224999999998545, 5918994.150000000372529 ], [ 24072.150000000001455, 5918994.150000000372529 ], [ 24072.150000000001455, 5918994.075000000186265 ], [ 24072.075, 5918994.075000000186265 ], [ 24072.075, 5918993.924999999813735 ], [ 24072.0, 5918993.924999999813735 ], [ 24072.0, 5918993.775000000372529 ], [ 24071.925, 5918993.775000000372529 ], [ 24071.925, 5918993.625 ], [ 24071.849999999998545, 5918993.625 ], [ 24071.849999999998545, 5918993.474999999627471 ], [ 24071.775000000001455, 5918993.474999999627471 ], [ 24071.775000000001455, 5918993.25 ], [ 24071.7, 5918993.25 ], [ 24071.7, 5918993.099999999627471 ], [ 24071.625, 5918993.099999999627471 ], [ 24071.625, 5918992.950000000186265 ], [ 24071.55, 5918992.950000000186265 ], [ 24071.55, 5918992.724999999627471 ], [ 24071.474999999998545, 5918992.724999999627471 ], [ 24071.474999999998545, 5918992.5 ], [ 24071.400000000001455, 5918992.5 ], [ 24071.400000000001455, 5918992.275000000372529 ], [ 24071.325, 5918992.275000000372529 ], [ 24071.325, 5918991.974999999627471 ], [ 24071.25, 5918991.974999999627471 ], [ 24071.25, 5918991.450000000186265 ], [ 24071.175, 5918991.450000000186265 ], [ 24071.175, 5918991.0 ], [ 24071.099999999998545, 5918991.0 ], [ 24071.099999999998545, 5918990.625 ], [ 24071.025000000001455, 5918990.625 ], [ 24071.025000000001455, 5918990.174999999813735 ], [ 24070.95, 5918990.174999999813735 ], [ 24070.95, 5918988.224999999627471 ], [ 24070.875, 5918988.224999999627471 ], [ 24070.875, 5918982.075000000186265 ], [ 24070.95, 5918982.075000000186265 ], [ 24070.95, 5918981.099999999627471 ], [ 24071.025000000001455, 5918981.099999999627471 ], [ 24071.025000000001455, 5918979.900000000372529 ], [ 24071.099999999998545, 5918979.900000000372529 ], [ 24071.099999999998545, 5918979.375 ], [ 24071.175, 5918979.375 ], [ 24071.175, 5918978.849999999627471 ], [ 24071.25, 5918978.849999999627471 ], [ 24071.25, 5918978.400000000372529 ], [ 24071.325, 5918978.400000000372529 ], [ 24071.325, 5918978.25 ], [ 24071.400000000001455, 5918978.25 ], [ 24071.400000000001455, 5918978.025000000372529 ], [ 24071.474999999998545, 5918978.025000000372529 ], [ 24071.474999999998545, 5918977.950000000186265 ], [ 24071.55, 5918977.950000000186265 ], [ 24071.55, 5918977.799999999813735 ], [ 24071.625, 5918977.799999999813735 ], [ 24071.625, 5918977.724999999627471 ], [ 24071.7, 5918977.724999999627471 ], [ 24071.7, 5918977.575000000186265 ], [ 24071.775000000001455, 5918977.575000000186265 ], [ 24071.775000000001455, 5918977.5 ], [ 24071.849999999998545, 5918977.5 ], [ 24071.849999999998545, 5918977.424999999813735 ], [ 24071.925, 5918977.424999999813735 ], [ 24071.925, 5918977.349999999627471 ], [ 24072.0, 5918977.349999999627471 ], [ 24072.0, 5918977.275000000372529 ], [ 24072.075, 5918977.275000000372529 ], [ 24072.075, 5918977.200000000186265 ], [ 24072.224999999998545, 5918977.200000000186265 ], [ 24072.224999999998545, 5918977.125 ], [ 24072.3, 5918977.125 ], [ 24072.3, 5918977.049999999813735 ], [ 24072.45, 5918977.049999999813735 ], [ 24072.45, 5918976.974999999627471 ], [ 24072.599999999998545, 5918976.974999999627471 ], [ 24072.599999999998545, 5918976.900000000372529 ], [ 24072.75, 5918976.900000000372529 ], [ 24072.75, 5918976.825000000186265 ], [ 24072.825, 5918976.825000000186265 ], [ 24072.825, 5918976.75 ], [ 24072.900000000001455, 5918976.75 ], [ 24072.900000000001455, 5918976.674999999813735 ], [ 24072.974999999998545, 5918976.674999999813735 ], [ 24072.974999999998545, 5918976.599999999627471 ], [ 24073.05, 5918976.599999999627471 ], [ 24073.05, 5918976.525000000372529 ], [ 24073.125, 5918976.525000000372529 ], [ 24073.125, 5918976.375 ], [ 24073.2, 5918976.375 ], [ 24073.2, 5918976.299999999813735 ], [ 24073.275000000001455, 5918976.299999999813735 ], [ 24073.275000000001455, 5918976.224999999627471 ], [ 24073.349999999998545, 5918976.224999999627471 ], [ 24073.349999999998545, 5918976.075000000186265 ], [ 24073.425, 5918976.075000000186265 ], [ 24073.425, 5918976.0 ], [ 24073.5, 5918976.0 ], [ 24073.5, 5918975.924999999813735 ], [ 24073.575, 5918975.924999999813735 ], [ 24073.575, 5918975.849999999627471 ], [ 24073.650000000001455, 5918975.849999999627471 ], [ 24073.650000000001455, 5918975.775000000372529 ], [ 24073.8, 5918975.775000000372529 ], [ 24073.8, 5918975.700000000186265 ], [ 24073.875, 5918975.700000000186265 ], [ 24073.875, 5918975.625 ], [ 24074.025000000001455, 5918975.625 ], [ 24074.025000000001455, 5918975.549999999813735 ], [ 24074.099999999998545, 5918975.549999999813735 ], [ 24074.099999999998545, 5918975.474999999627471 ], [ 24074.25, 5918975.474999999627471 ], [ 24074.25, 5918975.400000000372529 ], [ 24074.474999999998545, 5918975.400000000372529 ], [ 24074.474999999998545, 5918975.325000000186265 ], [ 24074.7, 5918975.325000000186265 ], [ 24074.7, 5918975.25 ], [ 24075.375, 5918975.25 ], [ 24075.375, 5918975.174999999813735 ], [ 24076.05, 5918975.174999999813735 ], [ 24076.05, 5918975.099999999627471 ], [ 24079.275000000001455, 5918975.099999999627471 ], [ 24079.275000000001455, 5918975.174999999813735 ], [ 24080.400000000001455, 5918975.174999999813735 ], [ 24080.400000000001455, 5918975.25 ], [ 24081.224999999998545, 5918975.25 ], [ 24081.224999999998545, 5918975.325000000186265 ], [ 24081.974999999998545, 5918975.325000000186265 ], [ 24081.974999999998545, 5918975.400000000372529 ], [ 24082.5, 5918975.400000000372529 ], [ 24082.5, 5918975.474999999627471 ], [ 24082.724999999998545, 5918975.474999999627471 ], [ 24082.724999999998545, 5918975.549999999813735 ], [ 24082.95, 5918975.549999999813735 ], [ 24082.95, 5918975.625 ], [ 24083.099999999998545, 5918975.625 ], [ 24083.099999999998545, 5918975.700000000186265 ], [ 24083.325, 5918975.700000000186265 ], [ 24083.325, 5918975.775000000372529 ], [ 24083.400000000001455, 5918975.775000000372529 ], [ 24083.400000000001455, 5918975.849999999627471 ], [ 24083.55, 5918975.849999999627471 ], [ 24083.55, 5918975.924999999813735 ], [ 24083.7, 5918975.924999999813735 ], [ 24083.7, 5918976.0 ], [ 24083.775000000001455, 5918976.0 ], [ 24083.775000000001455, 5918976.075000000186265 ], [ 24083.925, 5918976.075000000186265 ], [ 24083.925, 5918976.150000000372529 ], [ 24084.0, 5918976.150000000372529 ], [ 24084.0, 5918976.224999999627471 ], [ 24084.075, 5918976.224999999627471 ], [ 24084.075, 5918976.299999999813735 ], [ 24084.150000000001455, 5918976.299999999813735 ], [ 24084.150000000001455, 5918976.375 ], [ 24084.224999999998545, 5918976.375 ], [ 24084.224999999998545, 5918976.450000000186265 ], [ 24084.3, 5918976.450000000186265 ], [ 24084.3, 5918976.525000000372529 ], [ 24084.45, 5918976.525000000372529 ], [ 24084.45, 5918976.599999999627471 ], [ 24084.675, 5918976.599999999627471 ], [ 24084.675, 5918976.674999999813735 ], [ 24084.900000000001455, 5918976.674999999813735 ], [ 24084.900000000001455, 5918976.75 ], [ 24085.05, 5918976.75 ], [ 24085.05, 5918976.825000000186265 ], [ 24085.275000000001455, 5918976.825000000186265 ], [ 24085.275000000001455, 5918976.900000000372529 ], [ 24085.5, 5918976.900000000372529 ], [ 24085.5, 5918976.974999999627471 ], [ 24085.8, 5918976.974999999627471 ], [ 24085.8, 5918977.049999999813735 ], [ 24086.025000000001455, 5918977.049999999813735 ], [ 24086.025000000001455, 5918977.125 ], [ 24086.325, 5918977.125 ], [ 24086.325, 5918977.200000000186265 ], [ 24086.474999999998545, 5918977.200000000186265 ], [ 24086.474999999998545, 5918977.275000000372529 ], [ 24086.7, 5918977.275000000372529 ], [ 24086.7, 5918977.349999999627471 ], [ 24086.775000000001455, 5918977.349999999627471 ], [ 24086.775000000001455, 5918977.424999999813735 ], [ 24086.925, 5918977.424999999813735 ], [ 24086.925, 5918977.5 ], [ 24087.075, 5918977.5 ], [ 24087.075, 5918977.575000000186265 ], [ 24087.150000000001455, 5918977.575000000186265 ], [ 24087.150000000001455, 5918977.650000000372529 ], [ 24087.224999999998545, 5918977.650000000372529 ], [ 24087.224999999998545, 5918977.724999999627471 ], [ 24087.3, 5918977.724999999627471 ], [ 24087.3, 5918977.799999999813735 ], [ 24087.375, 5918977.799999999813735 ], [ 24087.375, 5918977.875 ], [ 24087.45, 5918977.875 ], [ 24087.45, 5918977.950000000186265 ], [ 24087.525000000001455, 5918977.950000000186265 ], [ 24087.525000000001455, 5918978.099999999627471 ], [ 24087.599999999998545, 5918978.099999999627471 ], [ 24087.599999999998545, 5918978.174999999813735 ], [ 24087.675, 5918978.174999999813735 ], [ 24087.675, 5918978.325000000186265 ], [ 24087.75, 5918978.325000000186265 ], [ 24087.75, 5918978.474999999627471 ], [ 24087.825, 5918978.474999999627471 ], [ 24087.825, 5918978.700000000186265 ], [ 24087.900000000001455, 5918978.700000000186265 ], [ 24087.900000000001455, 5918978.849999999627471 ], [ 24087.974999999998545, 5918978.849999999627471 ], [ 24087.974999999998545, 5918979.0 ], [ 24088.05, 5918979.0 ], [ 24088.05, 5918979.150000000372529 ], [ 24088.125, 5918979.150000000372529 ], [ 24088.125, 5918979.224999999627471 ], [ 24088.2, 5918979.224999999627471 ], [ 24088.2, 5918979.375 ], [ 24088.275000000001455, 5918979.375 ], [ 24088.275000000001455, 5918979.450000000186265 ], [ 24088.349999999998545, 5918979.450000000186265 ], [ 24088.349999999998545, 5918979.525000000372529 ], [ 24088.425, 5918979.525000000372529 ], [ 24088.425, 5918979.599999999627471 ], [ 24088.5, 5918979.599999999627471 ], [ 24088.5, 5918979.674999999813735 ], [ 24088.575, 5918979.674999999813735 ], [ 24088.575, 5918979.75 ], [ 24088.650000000001455, 5918979.75 ], [ 24088.650000000001455, 5918979.825000000186265 ], [ 24088.724999999998545, 5918979.825000000186265 ], [ 24088.724999999998545, 5918979.900000000372529 ], [ 24088.8, 5918979.900000000372529 ], [ 24088.8, 5918979.974999999627471 ], [ 24088.875, 5918979.974999999627471 ], [ 24088.875, 5918980.049999999813735 ], [ 24088.95, 5918980.049999999813735 ], [ 24088.95, 5918980.200000000186265 ], [ 24089.025000000001455, 5918980.200000000186265 ], [ 24089.025000000001455, 5918980.275000000372529 ], [ 24089.099999999998545, 5918980.275000000372529 ], [ 24089.099999999998545, 5918980.424999999813735 ], [ 24089.175, 5918980.424999999813735 ], [ 24089.175, 5918980.575000000186265 ], [ 24089.25, 5918980.575000000186265 ], [ 24089.25, 5918980.724999999627471 ], [ 24089.325, 5918980.724999999627471 ], [ 24089.325, 5918980.875 ], [ 24089.400000000001455, 5918980.875 ], [ 24089.400000000001455, 5918981.099999999627471 ], [ 24089.474999999998545, 5918981.099999999627471 ], [ 24089.474999999998545, 5918981.325000000186265 ], [ 24089.55, 5918981.325000000186265 ], [ 24089.55, 5918981.625 ], [ 24089.625, 5918981.625 ], [ 24089.625, 5918981.924999999813735 ], [ 24089.7, 5918981.924999999813735 ], [ 24089.7, 5918982.299999999813735 ], [ 24089.775000000001455, 5918982.299999999813735 ], [ 24089.775000000001455, 5918982.375 ], [ 24089.7, 5918982.375 ], [ 24089.7, 5918983.125 ], [ 24089.625, 5918983.125 ], [ 24089.625, 5918983.575000000186265 ], [ 24089.55, 5918983.575000000186265 ], [ 24089.55, 5918983.950000000186265 ], [ 24089.474999999998545, 5918983.950000000186265 ], [ 24089.474999999998545, 5918984.174999999813735 ], [ 24089.400000000001455, 5918984.174999999813735 ], [ 24089.400000000001455, 5918984.474999999627471 ], [ 24089.325, 5918984.474999999627471 ], [ 24089.325, 5918984.775000000372529 ], [ 24089.25, 5918984.775000000372529 ], [ 24089.25, 5918984.924999999813735 ], [ 24089.175, 5918984.924999999813735 ], [ 24089.175, 5918985.0 ], [ 24089.099999999998545, 5918985.0 ], [ 24089.099999999998545, 5918985.075000000186265 ], [ 24089.025000000001455, 5918985.075000000186265 ], [ 24089.025000000001455, 5918985.150000000372529 ], [ 24088.95, 5918985.150000000372529 ], [ 24088.95, 5918985.224999999627471 ], [ 24088.875, 5918985.224999999627471 ], [ 24088.875, 5918985.299999999813735 ], [ 24088.8, 5918985.299999999813735 ], [ 24088.8, 5918985.375 ], [ 24088.724999999998545, 5918985.375 ], [ 24088.724999999998545, 5918985.450000000186265 ], [ 24088.650000000001455, 5918985.450000000186265 ], [ 24088.650000000001455, 5918985.525000000372529 ], [ 24088.575, 5918985.525000000372529 ], [ 24088.575, 5918985.599999999627471 ], [ 24088.5, 5918985.599999999627471 ], [ 24088.5, 5918985.674999999813735 ], [ 24088.425, 5918985.674999999813735 ], [ 24088.425, 5918985.75 ], [ 24088.349999999998545, 5918985.75 ], [ 24088.349999999998545, 5918985.825000000186265 ], [ 24088.275000000001455, 5918985.825000000186265 ], [ 24088.275000000001455, 5918985.974999999627471 ], [ 24088.2, 5918985.974999999627471 ], [ 24088.2, 5918986.200000000186265 ], [ 24088.125, 5918986.200000000186265 ], [ 24088.125, 5918986.349999999627471 ], [ 24088.05, 5918986.349999999627471 ], [ 24088.05, 5918986.575000000186265 ], [ 24087.974999999998545, 5918986.575000000186265 ], [ 24087.974999999998545, 5918986.799999999813735 ], [ 24087.900000000001455, 5918986.799999999813735 ], [ 24087.900000000001455, 5918987.025000000372529 ], [ 24087.825, 5918987.025000000372529 ], [ 24087.825, 5918987.325000000186265 ], [ 24087.75, 5918987.325000000186265 ], [ 24087.75, 5918987.625 ], [ 24087.675, 5918987.625 ], [ 24087.675, 5918987.924999999813735 ], [ 24087.599999999998545, 5918987.924999999813735 ], [ 24087.599999999998545, 5918988.299999999813735 ], [ 24087.525000000001455, 5918988.299999999813735 ], [ 24087.525000000001455, 5918988.900000000372529 ], [ 24087.45, 5918988.900000000372529 ], [ 24087.45, 5918989.424999999813735 ], [ 24087.375, 5918989.424999999813735 ], [ 24087.375, 5918989.950000000186265 ], [ 24087.3, 5918989.950000000186265 ], [ 24087.3, 5918990.474999999627471 ], [ 24087.224999999998545, 5918990.474999999627471 ], [ 24087.224999999998545, 5918991.0 ], [ 24087.150000000001455, 5918991.0 ], [ 24087.150000000001455, 5918991.299999999813735 ], [ 24087.075, 5918991.299999999813735 ], [ 24087.075, 5918991.525000000372529 ], [ 24087.0, 5918991.525000000372529 ], [ 24087.0, 5918991.674999999813735 ], [ 24086.925, 5918991.674999999813735 ], [ 24086.925, 5918991.825000000186265 ], [ 24086.849999999998545, 5918991.825000000186265 ], [ 24086.849999999998545, 5918991.974999999627471 ], [ 24086.775000000001455, 5918991.974999999627471 ], [ 24086.775000000001455, 5918992.049999999813735 ], [ 24086.7, 5918992.049999999813735 ], [ 24086.7, 5918992.200000000186265 ], [ 24086.625, 5918992.200000000186265 ], [ 24086.625, 5918992.5 ], [ 24086.55, 5918992.5 ], [ 24086.55, 5918992.724999999627471 ], [ 24086.474999999998545, 5918992.724999999627471 ], [ 24086.474999999998545, 5918992.799999999813735 ], [ 24086.325, 5918992.799999999813735 ], [ 24086.325, 5918992.950000000186265 ], [ 24086.25, 5918992.950000000186265 ], [ 24086.25, 5918993.174999999813735 ], [ 24086.175, 5918993.174999999813735 ], [ 24086.175, 5918993.474999999627471 ], [ 24086.099999999998545, 5918993.474999999627471 ], [ 24086.099999999998545, 5918993.700000000186265 ], [ 24086.025000000001455, 5918993.700000000186265 ], [ 24086.025000000001455, 5918994.0 ], [ 24085.95, 5918994.0 ], [ 24085.95, 5918994.150000000372529 ], [ 24085.875, 5918994.150000000372529 ], [ 24085.875, 5918994.375 ], [ 24085.8, 5918994.375 ], [ 24085.8, 5918994.525000000372529 ], [ 24085.724999999998545, 5918994.525000000372529 ], [ 24085.724999999998545, 5918994.599999999627471 ], [ 24085.650000000001455, 5918994.599999999627471 ], [ 24085.650000000001455, 5918994.75 ], [ 24085.575, 5918994.75 ], [ 24085.575, 5918994.825000000186265 ], [ 24085.5, 5918994.825000000186265 ], [ 24085.5, 5918994.900000000372529 ], [ 24085.425, 5918994.900000000372529 ], [ 24085.425, 5918994.974999999627471 ], [ 24085.349999999998545, 5918994.974999999627471 ], [ 24085.349999999998545, 5918995.049999999813735 ], [ 24085.275000000001455, 5918995.049999999813735 ], [ 24085.275000000001455, 5918995.125 ], [ 24085.2, 5918995.125 ], [ 24085.2, 5918995.200000000186265 ], [ 24085.125, 5918995.200000000186265 ], [ 24085.125, 5918995.275000000372529 ], [ 24085.05, 5918995.275000000372529 ], [ 24085.05, 5918995.349999999627471 ], [ 24084.900000000001455, 5918995.349999999627471 ], [ 24084.900000000001455, 5918995.424999999813735 ], [ 24084.825, 5918995.424999999813735 ], [ 24084.825, 5918995.5 ], [ 24084.675, 5918995.5 ], [ 24084.675, 5918995.575000000186265 ], [ 24084.45, 5918995.575000000186265 ], [ 24084.45, 5918995.650000000372529 ], [ 24084.3, 5918995.650000000372529 ], [ 24084.3, 5918995.799999999813735 ], [ 24084.224999999998545, 5918995.799999999813735 ], [ 24084.224999999998545, 5918995.875 ], [ 24084.150000000001455, 5918995.875 ], [ 24084.150000000001455, 5918995.950000000186265 ], [ 24084.075, 5918995.950000000186265 ], [ 24084.075, 5918996.025000000372529 ], [ 24084.0, 5918996.025000000372529 ], [ 24084.0, 5918996.25 ], [ 24083.925, 5918996.25 ], [ 24083.925, 5918996.400000000372529 ], [ 24083.849999999998545, 5918996.400000000372529 ], [ 24083.849999999998545, 5918996.549999999813735 ], [ 24083.775000000001455, 5918996.549999999813735 ], [ 24083.775000000001455, 5918996.625 ], [ 24083.7, 5918996.625 ], [ 24083.7, 5918996.775000000372529 ], [ 24083.625, 5918996.775000000372529 ], [ 24083.625, 5918996.849999999627471 ], [ 24083.55, 5918996.849999999627471 ], [ 24083.55, 5918997.0 ], [ 24083.474999999998545, 5918997.0 ], [ 24083.474999999998545, 5918997.075000000186265 ], [ 24083.400000000001455, 5918997.075000000186265 ], [ 24083.400000000001455, 5918997.150000000372529 ], [ 24083.325, 5918997.150000000372529 ], [ 24083.325, 5918997.224999999627471 ], [ 24083.25, 5918997.224999999627471 ], [ 24083.25, 5918997.299999999813735 ], [ 24083.175, 5918997.299999999813735 ], [ 24083.175, 5918997.375 ], [ 24083.025000000001455, 5918997.375 ], [ 24083.025000000001455, 5918997.450000000186265 ], [ 24082.95, 5918997.450000000186265 ], [ 24082.95, 5918997.525000000372529 ], [ 24082.875, 5918997.525000000372529 ], [ 24082.875, 5918997.599999999627471 ], [ 24082.724999999998545, 5918997.599999999627471 ], [ 24082.724999999998545, 5918997.674999999813735 ], [ 24082.575, 5918997.674999999813735 ], [ 24082.575, 5918997.75 ], [ 24082.425, 5918997.75 ], [ 24082.425, 5918997.825000000186265 ], [ 24082.349999999998545, 5918997.825000000186265 ], [ 24082.349999999998545, 5918997.900000000372529 ], [ 24082.275000000001455, 5918997.900000000372529 ], [ 24082.275000000001455, 5918998.049999999813735 ], [ 24082.2, 5918998.049999999813735 ], [ 24082.2, 5918998.275000000372529 ], [ 24082.125, 5918998.275000000372529 ], [ 24082.125, 5918998.424999999813735 ], [ 24082.05, 5918998.424999999813735 ], [ 24082.05, 5918998.575000000186265 ], [ 24081.974999999998545, 5918998.575000000186265 ], [ 24081.974999999998545, 5918998.650000000372529 ], [ 24081.900000000001455, 5918998.650000000372529 ], [ 24081.900000000001455, 5918998.724999999627471 ], [ 24081.825, 5918998.724999999627471 ], [ 24081.825, 5918998.799999999813735 ], [ 24081.675, 5918998.799999999813735 ], [ 24081.675, 5918998.875 ], [ 24081.525000000001455, 5918998.875 ], [ 24081.525000000001455, 5918998.950000000186265 ], [ 24081.375, 5918998.950000000186265 ], [ 24081.375, 5918999.025000000372529 ], [ 24081.150000000001455, 5918999.025000000372529 ], [ 24081.150000000001455, 5918999.099999999627471 ], [ 24080.849999999998545, 5918999.099999999627471 ], [ 24080.849999999998545, 5918999.174999999813735 ], [ 24080.474999999998545, 5918999.174999999813735 ], [ 24080.474999999998545, 5918999.25 ], [ 24079.95, 5918999.25 ], [ 24079.95, 5918999.325000000186265 ], [ 24079.5, 5918999.325000000186265 ], [ 24079.5, 5918999.400000000372529 ], [ 24079.05, 5918999.400000000372529 ], [ 24079.05, 5918999.474999999627471 ], [ 24078.675, 5918999.474999999627471 ], [ 24078.675, 5918999.549999999813735 ], [ 24078.45, 5918999.549999999813735 ] ] ] } },
{ "type": "Feature", "properties": { "value": 1.0, "building_id": 2, "area": 398.20500000016568 }, "geometry": { "type": "Polygon", "coordinates": [ [ [ 24153.525000000001455, 5918977.5 ], [ 24153.525000000001455, 5918977.424999999813735 ], [ 24152.55, 5918977.424999999813735 ], [ 24152.55, 5918977.349999999627471 ], [ 24152.099999999998545, 5918977.349999999627471 ], [ 24152.099999999998545, 5918977.275000000372529 ], [ 24151.724999999998545, 5918977.275000000372529 ], [ 24151.724999999998545, 5918977.200000000186265 ], [ 24151.425, 5918977.200000000186265 ], [ 24151.425, 5918977.125 ], [ 24151.125, 5918977.125 ], [ 24151.125, 5918977.049999999813735 ], [ 24150.825, 5918977.049999999813735 ], [ 24150.825, 5918976.974999999627471 ], [ 24150.675, 5918976.974999999627471 ], [ 24150.675, 5918976.900000000372529 ], [ 24150.599999999998545, 5918976.900000000372529 ], [ 24150.599999999998545, 5918976.825000000186265 ], [ 24150.45, 5918976.825000000186265 ], [ 24150.45, 5918976.75 ], [ 24150.375, 5918976.75 ], [ 24150.375, 5918976.674999999813735 ], [ 24150.3, 5918976.674999999813735 ], [ 24150.3, 5918976.599999999627471 ], [ 24150.224999999998545, 5918976.599999999627471 ], [ 24150.224999999998545, 5918976.525000000372529 ], [ 24150.150000000001455, 5918976.525000000372529 ], [ 24150.150000000001455, 5918976.450000000186265 ], [ 24150.075, 5918976.450000000186265 ], [ 24150.075, 5918976.299999999813735 ], [ 24150.0, 5918976.299999999813735 ], [ 24150.0, 5918976.224999999627471 ], [ 24149.925, 5918976.224999999627471 ], [ 24149.925, 5918976.150000000372529 ], [ 24149.849999999998545, 5918976.150000000372529 ], [ 24149.849999999998545, 5918976.075000000186265 ], [ 24149.775000000001455, 5918976.075000000186265 ], [ 24149.775000000001455, 5918976.0 ], [ 24149.7, 5918976.0 ], [ 24149.7, 5918975.924999999813735 ], [ 24149.625, 5918975.924999999813735 ], [ 24149.625, 5918975.849999999627471 ], [ 24149.55, 5918975.849999999627471 ], [ 24149.55, 5918975.775000000372529 ], [ 24149.474999999998545, 5918975.775000000372529 ], [ 24149.474999999998545, 5918975.700000000186265 ], [ 24149.325, 5918975.700000000186265 ], [ 24149.325, 5918975.625 ], [ 24149.25, 5918975.625 ], [ 24149.25, 5918975.549999999813735 ], [ 24149.099999999998545, 5918975.549999999813735 ], [ 24149.099999999998545, 5918975.474999999627471 ], [ 24148.95, 5918975.474999999627471 ], [ 24148.95, 5918975.400000000372529 ], [ 24148.875, 5918975.400000000372529 ], [ 24148.875, 5918975.325000000186265 ], [ 24148.5, 5918975.325000000186265 ], [ 24148.5, 5918975.25 ], [ 24148.2, 5918975.25 ], [ 24148.2, 5918975.174999999813735 ], [ 24147.825, 5918975.174999999813735 ], [ 24147.825, 5918975.099999999627471 ], [ 24147.525000000001455, 5918975.099999999627471 ], [ 24147.525000000001455, 5918975.025000000372529 ], [ 24147.3, 5918975.025000000372529 ], [ 24147.3, 5918974.950000000186265 ], [ 24147.0, 5918974.950000000186265 ], [ 24147.0, 5918974.875 ], [ 24146.849999999998545, 5918974.875 ], [ 24146.849999999998545, 5918974.799999999813735 ], [ 24146.7, 5918974.799999999813735 ], [ 24146.7, 5918974.724999999627471 ], [ 24146.625, 5918974.724999999627471 ], [ 24146.625, 5918974.650000000372529 ], [ 24146.55, 5918974.650000000372529 ], [ 24146.55, 5918974.575000000186265 ], [ 24146.474999999998545, 5918974.575000000186265 ], [ 24146.474999999998545, 5918974.424999999813735 ], [ 24146.400000000001455, 5918974.424999999813735 ], [ 24146.400000000001455, 5918974.275000000372529 ], [ 24146.325, 5918974.275000000372529 ], [ 24146.325, 5918974.049999999813735 ], [ 24146.25, 5918974.049999999813735 ], [ 24146.25, 5918973.825000000186265 ], [ 24146.175, 5918973.825000000186265 ], [ 24146.175, 5918973.599999999627471 ], [ 24146.099999999998545, 5918973.599999999627471 ], [ 24146.099999999998545, 5918973.375 ], [ 24146.025000000001455, 5918973.375 ], [ 24146.025000000001455, 5918973.150000000372529 ], [ 24145.95, 5918973.150000000372529 ], [ 24145.95, 5918972.924999999813735 ], [ 24145.875, 5918972.924999999813735 ], [ 24145.875, 5918972.700000000186265 ], [ 24145.8, 5918972.700000000186265 ], [ 24145.8, 5918972.400000000372529 ], [ 24145.724999999998545, 5918972.400000000372529 ], [ 24145.724999999998545, 5918972.025000000372529 ], [ 24145.650000000001455, 5918972.025000000372529 ], [ 24145.650000000001455, 5918971.650000000372529 ], [ 24145.575, 5918971.650000000372529 ], [ 24145.575, 5918971.349999999627471 ], [ 24145.5, 5918971.349999999627471 ], [ 24145.5, 5918970.974999999627471 ], [ 24145.425, 5918970.974999999627471 ], [ 24145.425, 5918970.674999999813735 ], [ 24145.349999999998545, 5918970.674999999813735 ], [ 24145.349999999998545, 5918970.299999999813735 ], [ 24145.275000000001455, 5918970.299999999813735 ], [ 24145.275000000001455, 5918970.0 ], [ 24145.2, 5918970.0 ], [ 24145.2, 5918969.700000000186265 ], [ 24145.125, 5918969.700000000186265 ], [ 24145.125, 5918969.400000000372529 ], [ 24145.05, 5918969.400000000372529 ], [ 24145.05, 5918969.099999999627471 ], [ 24144.974999999998545, 5918969.099999999627471 ], [ 24144.974999999998545, 5918968.799999999813735 ], [ 24144.900000000001455, 5918968.799999999813735 ], [ 24144.900000000001455, 5918968.650000000372529 ], [ 24144.825, 5918968.650000000372529 ], [ 24144.825, 5918968.5 ], [ 24144.75, 5918968.5 ], [ 24144.75, 5918968.275000000372529 ], [ 24144.675, 5918968.275000000372529 ], [ 24144.675, 5918968.125 ], [ 24144.599999999998545, 5918968.125 ], [ 24144.599999999998545, 5918967.974999999627471 ], [ 24144.675, 5918967.974999999627471 ], [ 24144.675, 5918966.775000000372529 ], [ 24144.75, 5918966.775000000372529 ], [ 24144.75, 5918966.474999999627471 ], [ 24144.825, 5918966.474999999627471 ], [ 24144.825, 5918966.325000000186265 ], [ 24144.900000000001455, 5918966.325000000186265 ], [ 24144.900000000001455, 5918966.174999999813735 ], [ 24144.974999999998545, 5918966.174999999813735 ], [ 24144.974999999998545, 5918965.950000000186265 ], [ 24145.05, 5918965.950000000186265 ], [ 24145.05, 5918965.799999999813735 ], [ 24145.125, 5918965.799999999813735 ], [ 24145.125, 5918965.575000000186265 ], [ 24145.2, 5918965.575000000186265 ], [ 24145.2, 5918965.349999999627471 ], [ 24145.275000000001455, 5918965.349999999627471 ], [ 24145.275000000001455, 5918965.049999999813735 ], [ 24145.349999999998545, 5918965.049999999813735 ], [ 24145.349999999998545, 5918964.825000000186265 ], [ 24145.425, 5918964.825000000186265 ], [ 24145.425, 5918964.674999999813735 ], [ 24145.5, 5918964.674999999813735 ], [ 24145.5, 5918964.525000000372529 ], [ 24145.575, 5918964.525000000372529 ], [ 24145.575, 5918964.375 ], [ 24145.650000000001455, 5918964.375 ], [ 24145.650000000001455, 5918964.299999999813735 ], [ 24145.724999999998545, 5918964.299999999813735 ], [ 24145.724999999998545, 5918964.150000000372529 ], [ 24145.8, 5918964.150000000372529 ], [ 24145.8, 5918964.075000000186265 ], [ 24145.875, 5918964.075000000186265 ], [ 24145.875, 5918964.0 ], [ 24145.95, 5918964.0 ], [ 24145.95, 5918963.924999999813735 ], [ 24146.025000000001455, 5918963.924999999813735 ], [ 24146.025000000001455, 5918963.849999999627471 ], [ 24146.175, 5918963.849999999627471 ], [ 24146.175, 5918963.775000000372529 ], [ 24146.25, 5918963.775000000372529 ], [ 24146.25, 5918963.700000000186265 ], [ 24146.400000000001455, 5918963.700000000186265 ], [ 24146.400000000001455, 5918963.625 ], [ 24146.55, 5918963.625 ], [ 24146.55, 5918963.549999999813735 ], [ 24146.7, 5918963.549999999813735 ], [ 24146.7, 5918963.474999999627471 ], [ 24146.849999999998545, 5918963.474999999627471 ], [ 24146.849999999998545, 5918963.400000000372529 ], [ 24147.0, 5918963.400000000372529 ], [ 24147.0, 5918963.325000000186265 ], [ 24147.150000000001455, 5918963.325000000186265 ], [ 24147.150000000001455, 5918963.25 ], [ 24147.3, 5918963.25 ], [ 24147.3, 5918963.174999999813735 ], [ 24147.45, 5918963.174999999813735 ], [ 24147.45, 5918963.099999999627471 ], [ 24147.525000000001455, 5918963.099999999627471 ], [ 24147.525000000001455, 5918963.025000000372529 ], [ 24147.675, 5918963.025000000372529 ], [ 24147.675, 5918962.950000000186265 ], [ 24147.75, 5918962.950000000186265 ], [ 24147.75, 5918962.875 ], [ 24147.825, 5918962.875 ], [ 24147.825, 5918962.799999999813735 ], [ 24147.900000000001455, 5918962.799999999813735 ], [ 24147.900000000001455, 5918962.724999999627471 ], [ 24147.974999999998545, 5918962.724999999627471 ], [ 24147.974999999998545, 5918962.650000000372529 ], [ 24148.05, 5918962.650000000372529 ], [ 24148.05, 5918962.575000000186265 ], [ 24148.125, 5918962.575000000186265 ], [ 24148.125, 5918962.5 ], [ 24148.2, 5918962.5 ], [ 24148.2, 5918962.424999999813735 ], [ 24148.275000000001455, 5918962.424999999813735 ], [ 24148.275000000001455, 5918962.349999999627471 ], [ 24148.349999999998545, 5918962.349999999627471 ], [ 24148.349999999998545, 5918962.275000000372529 ], [ 24148.425, 5918962.275000000372529 ], [ 24148.425, 5918962.200000000186265 ], [ 24148.5, 5918962.200000000186265 ], [ 24148.5, 5918962.125 ], [ 24148.650000000001455, 5918962.125 ], [ 24148.650000000001455, 5918962.049999999813735 ], [ 24148.724999999998545, 5918962.049999999813735 ], [ 24148.724999999998545, 5918961.974999999627471 ], [ 24148.95, 5918961.974999999627471 ], [ 24148.95, 5918961.900000000372529 ], [ 24149.099999999998545, 5918961.900000000372529 ], [ 24149.099999999998545, 5918961.825000000186265 ], [ 24149.325, 5918961.825000000186265 ], [ 24149.325, 5918961.75 ], [ 24149.55, 5918961.75 ], [ 24149.55, 5918961.674999999813735 ], [ 24149.775000000001455, 5918961.674999999813735 ], [ 24149.775000000001455, 5918961.599999999627471 ], [ 24150.075, 5918961.599999999627471 ], [ 24150.075, 5918961.525000000372529 ], [ 24150.45, 5918961.525000000372529 ], [ 24150.45, 5918961.450000000186265 ], [ 24150.825, 5918961.450000000186265 ], [ 24150.825, 5918961.375 ], [ 24151.5, 5918961.375 ], [ 24151.5, 5918961.299999999813735 ], [ 24152.175, 5918961.299999999813735 ], [ 24152.175, 5918961.224999999627471 ], [ 24152.775000000001455, 5918961.224999999627471 ], [ 24152.775000000001455, 5918961.150000000372529 ], [ 24153.075, 5918961.150000000372529 ], [ 24153.075, 5918961.075000000186265 ], [ 24153.3, 5918961.075000000186265 ], [ 24153.3, 5918961.0 ], [ 24153.525000000001455, 5918961.0 ], [ 24153.525000000001455, 5918960.924999999813735 ], [ 24153.75, 5918960.924999999813735 ], [ 24153.75, 5918960.849999999627471 ], [ 24153.900000000001455, 5918960.849999999627471 ], [ 24153.900000000001455, 5918960.775000000372529 ], [ 24154.05, 5918960.775000000372529 ], [ 24154.05, 5918960.700000000186265 ], [ 24154.125, 5918960.700000000186265 ], [ 24154.125, 5918960.625 ], [ 24154.275000000001455, 5918960.625 ], [ 24154.275000000001455, 5918960.549999999813735 ], [ 24154.425, 5918960.549999999813735 ], [ 24154.425, 5918960.474999999627471 ], [ 24154.575, 5918960.474999999627471 ], [ 24154.575, 5918960.400000000372529 ], [ 24154.8, 5918960.400000000372529 ], [ 24154.8, 5918960.325000000186265 ], [ 24155.025000000001455, 5918960.325000000186265 ], [ 24155.025000000001455, 5918960.25 ], [ 24155.400000000001455, 5918960.25 ], [ 24155.400000000001455, 5918960.174999999813735 ], [ 24155.775000000001455, 5918960.174999999813735 ], [ 24155.775000000001455, 5918960.099999999627471 ], [ 24156.224999999998545, 5918960.099999999627471 ], [ 24156.224999999998545, 5918960.025000000372529 ], [ 24157.05, 5918960.025000000372529 ], [ 24157.05, 5918960.099999999627471 ], [ 24157.5, 5918960.099999999627471 ], [ 24157.5, 5918960.174999999813735 ], [ 24157.95, 5918960.174999999813735 ], [ 24157.95, 5918960.25 ], [ 24158.400000000001455, 5918960.25 ], [ 24158.400000000001455, 5918960.325000000186265 ], [ 24158.775000000001455, 5918960.325000000186265 ], [ 24158.775000000001455, 5918960.400000000372529 ], [ 24159.150000000001455, 5918960.400000000372529 ], [ 24159.150000000001455, 5918960.474999999627471 ], [ 24159.525000000001455, 5918960.474999999627471 ], [ 24159.525000000001455, 5918960.549999999813735 ], [ 24159.825, 5918960.549999999813735 ], [ 24159.825, 5918960.625 ], [ 24160.2, 5918960.625 ], [ 24160.2, 5918960.700000000186265 ], [ 24160.5, 5918960.700000000186265 ], [ 24160.5, 5918960.775000000372529 ], [ 24160.8, 5918960.775000000372529 ], [ 24160.8, 5918960.849999999627471 ], [ 24161.175, 5918960.849999999627471 ], [ 24161.175, 5918960.924999999813735 ], [ 24161.55, 5918960.924999999813735 ], [ 24161.55, 5918961.0 ], [ 24162.0, 5918961.0 ], [ 24162.0, 5918961.075000000186265 ], [ 24162.525000000001455, 5918961.075000000186265 ], [ 24162.525000000001455, 5918961.150000000372529 ], [ 24163.125, 5918961.150000000372529 ], [ 24163.125, 5918961.224999999627471 ], [ 24163.8, 5918961.224999999627471 ], [ 24163.8, 5918961.299999999813735 ], [ 24164.55, 5918961.299999999813735 ], [ 24164.55, 5918961.375 ], [ 24165.599999999998545, 5918961.375 ], [ 24165.599999999998545, 5918961.450000000186265 ], [ 24166.650000000001455, 5918961.450000000186265 ], [ 24166.650000000001455, 5918961.525000000372529 ], [ 24167.775000000001455, 5918961.525000000372529 ], [ 24167.775000000001455, 5918961.599999999627471 ], [ 24168.825, 5918961.599999999627471 ], [ 24168.825, 5918961.674999999813735 ], [ 24169.8, 5918961.674999999813735 ], [ 24169.8, 5918961.75 ], [ 24170.400000000001455, 5918961.75 ], [ 24170.400000000001455, 5918961.825000000186265 ], [ 24170.55, 5918961.825000000186265 ], [ 24170.55, 5918961.900000000372529 ], [ 24170.7, 5918961.900000000372529 ], [ 24170.7, 5918961.974999999627471 ], [ 24170.849999999998545, 5918961.974999999627471 ], [ 24170.849999999998545, 5918962.049999999813735 ], [ 24171.0, 5918962.049999999813735 ], [ 24171.0, 5918962.125 ], [ 24171.075, 5918962.125 ], [ 24171.075, 5918962.200000000186265 ], [ 24171.224999999998545, 5918962.200000000186265 ], [ 24171.224999999998545, 5918962.275000000372529 ], [ 24171.3, 5918962.275000000372529 ], [ 24171.3, 5918962.349999999627471 ], [ 24171.375, 5918962.349999999627471 ], [ 24171.375, 5918962.424999999813735 ], [ 24171.45, 5918962.424999999813735 ], [ 24171.45, 5918962.5 ], [ 24171.525000000001455, 5918962.5 ], [ 24171.525000000001455, 5918962.575000000186265 ], [ 24171.599999999998545, 5918962.575000000186265 ], [ 24171.599999999998545, 5918962.650000000372529 ], [ 24171.675, 5918962.650000000372529 ], [ 24171.675, 5918962.724999999627471 ], [ 24171.75, 5918962.724999999627471 ], [ 24171.75, 5918962.875 ], [ 24171.825, 5918962.875 ], [ 24171.825, 5918962.950000000186265 ], [ 24171.900000000001455, 5918962.950000000186265 ], [ 24171.900000000001455, 5918963.025000000372529 ], [ 24172.05, 5918963.025000000372529 ], [ 24172.05, 5918963.099999999627471 ], [ 24172.125, 5918963.099999999627471 ], [ 24172.125, 5918963.174999999813735 ], [ 24172.2, 5918963.174999999813735 ], [ 24172.2, 5918963.25 ], [ 24172.275000000001455, 5918963.25 ], [ 24172.275000000001455, 5918963.325000000186265 ], [ 24172.425, 5918963.325000000186265 ], [ 24172.425, 5918963.400000000372529 ], [ 24172.5, 5918963.400000000372529 ], [ 24172.5, 5918963.474999999627471 ], [ 24172.650000000001455, 5918963.474999999627471 ], [ 24172.650000000001455, 5918963.549999999813735 ], [ 24172.724999999998545, 5918963.549999999813735 ], [ 24172.724999999998545, 5918963.625 ], [ 24172.8, 5918963.625 ], [ 24172.8, 5918963.700000000186265 ], [ 24172.875, 5918963.700000000186265 ], [ 24172.875, 5918963.775000000372529 ], [ 24172.95, 5918963.775000000372529 ], [ 24172.95, 5918963.849999999627471 ], [ 24173.025000000001455, 5918963.849999999627471 ], [ 24173.025000000001455, 5918964.0 ], [ 24173.099999999998545, 5918964.0 ], [ 24173.099999999998545, 5918964.075000000186265 ], [ 24173.175, 5918964.075000000186265 ], [ 24173.175, 5918964.224999999627471 ], [ 24173.25, 5918964.224999999627471 ], [ 24173.25, 5918964.375 ], [ 24173.325, 5918964.375 ], [ 24173.325, 5918964.525000000372529 ], [ 24173.400000000001455, 5918964.525000000372529 ], [ 24173.400000000001455, 5918964.674999999813735 ], [ 24173.474999999998545, 5918964.674999999813735 ], [ 24173.474999999998545, 5918966.174999999813735 ], [ 24173.55, 5918966.174999999813735 ], [ 24173.55, 5918966.849999999627471 ], [ 24173.474999999998545, 5918966.849999999627471 ], [ 24173.474999999998545, 5918967.299999999813735 ], [ 24173.400000000001455, 5918967.299999999813735 ], [ 24173.400000000001455, 5918967.75 ], [ 24173.325, 5918967.75 ], [ 24173.325, 5918968.200000000186265 ], [ 24173.25, 5918968.200000000186265 ], [ 24173.25, 5918968.724999999627471 ], [ 24173.175, 5918968.724999999627471 ], [ 24173.175, 5918969.325000000186265 ], [ 24173.099999999998545, 5918969.325000000186265 ], [ 24173.099999999998545, 5918969.849999999627471 ], [ 24173.025000000001455, 5918969.849999999627471 ], [ 24173.025000000001455, 5918970.450000000186265 ], [ 24172.95, 5918970.450000000186265 ], [ 24172.95, 5918971.125 ], [ 24172.875, 5918971.125 ], [ 24172.875, 5918971.724999999627471 ], [ 24172.8, 5918971.724999999627471 ], [ 24172.8, 5918972.325000000186265 ], [ 24172.724999999998545, 5918972.325000000186265 ], [ 24172.724999999998545, 5918972.625 ], [ 24172.650000000001455, 5918972.625 ], [ 24172.650000000001455, 5918972.700000000186265 ], [ 24172.575, 5918972.700000000186265 ], [ 24172.575, 5918972.775000000372529 ], [ 24172.5, 5918972.775000000372529 ], [ 24172.5, 5918972.849999999627471 ], [ 24172.425, 5918972.849999999627471 ], [ 24172.425, 5918972.924999999813735 ], [ 24172.349999999998545, 5918972.924999999813735 ], [ 24172.349999999998545, 5918973.0 ], [ 24172.275000000001455, 5918973.0 ], [ 24172.275000000001455, 5918973.075000000186265 ], [ 24172.125, 5918973.075000000186265 ], [ 24172.125, 5918973.150000000372529 ], [ 24171.974999999998545, 5918973.150000000372529 ], [ 24171.974999999998545, 5918973.224999999627471 ], [ 24171.825, 5918973.224999999627471 ], [ 24171.825, 5918973.299999999813735 ], [ 24171.675, 5918973.299999999813735 ], [ 24171.675, 5918973.375 ], [ 24171.599999999998545, 5918973.375 ], [ 24171.599999999998545, 5918973.450000000186265 ], [ 24171.45, 5918973.450000000186265 ], [ 24171.45, 5918973.525000000372529 ], [ 24171.375, 5918973.525000000372529 ], [ 24171.375, 5918973.599999999627471 ], [ 24171.3, 5918973.599999999627471 ], [ 24171.3, 5918973.674999999813735 ], [ 24171.224999999998545, 5918973.674999999813735 ], [ 24171.224999999998545, 5918973.75 ], [ 24171.150000000001455, 5918973.75 ], [ 24171.150000000001455, 5918973.825000000186265 ], [ 24171.075, 5918973.825000000186265 ], [ 24171.075, 5918973.900000000372529 ], [ 24171.0, 5918973.900000000372529 ], [ 24171.0, 5918973.974999999627471 ], [ 24170.925, 5918973.974999999627471 ], [ 24170.925, 5918974.125 ], [ 24170.849999999998545, 5918974.125 ], [ 24170.849999999998545, 5918974.200000000186265 ], [ 24170.775000000001455, 5918974.200000000186265 ], [ 24170.775000000001455, 5918974.349999999627471 ], [ 24170.7, 5918974.349999999627471 ], [ 24170.7, 5918974.5 ], [ 24170.625, 5918974.5 ], [ 24170.625, 5918974.575000000186265 ], [ 24170.55, 5918974.575000000186265 ], [ 24170.55, 5918974.650000000372529 ], [ 24170.474999999998545, 5918974.650000000372529 ], [ 24170.474999999998545, 5918974.724999999627471 ], [ 24170.400000000001455, 5918974.724999999627471 ], [ 24170.400000000001455, 5918974.799999999813735 ], [ 24170.25, 5918974.799999999813735 ], [ 24170.25, 5918974.875 ], [ 24169.724999999998545, 5918974.875 ], [ 24169.724999999998545, 5918974.950000000186265 ], [ 24169.125, 5918974.950000000186265 ], [ 24169.125, 5918975.025000000372529 ], [ 24168.45, 5918975.025000000372529 ], [ 24168.45, 5918975.099999999627471 ], [ 24167.400000000001455, 5918975.099999999627471 ], [ 24167.400000000001455, 5918975.174999999813735 ], [ 24166.05, 5918975.174999999813735 ], [ 24166.05, 5918975.25 ], [ 24164.55, 5918975.25 ], [ 24164.55, 5918975.325000000186265 ], [ 24163.425, 5918975.325000000186265 ], [ 24163.425, 5918975.400000000372529 ], [ 24162.45, 5918975.400000000372529 ], [ 24162.45, 5918975.474999999627471 ], [ 24162.150000000001455, 5918975.474999999627471 ], [ 24162.150000000001455, 5918975.549999999813735 ], [ 24161.925, 5918975.549999999813735 ], [ 24161.925, 5918975.625 ], [ 24161.625, 5918975.625 ], [ 24161.625, 5918975.700000000186265 ], [ 24161.400000000001455, 5918975.700000000186265 ], [ 24161.400000000001455, 5918975.775000000372529 ], [ 24161.25, 5918975.775000000372529 ], [ 24161.25, 5918975.849999999627471 ], [ 24161.025000000001455, 5918975.849999999627471 ], [ 24161.025000000001455, 5918975.924999999813735 ], [ 24160.875, 5918975.924999999813735 ], [ 24160.875, 5918976.0 ], [ 24160.724999999998545, 5918976.0 ], [ 24160.724999999998545, 5918976.075000000186265 ], [ 24160.575, 5918976.075000000186265 ], [ 24160.575, 5918976.150000000372529 ], [ 24160.425, 5918976.150000000372529 ], [ 24160.425, 5918976.224999999627471 ], [ 24160.275000000001455, 5918976.224999999627471 ], [ 24160.275000000001455, 5918976.299999999813735 ], [ 24160.2, 5918976.299999999813735 ], [ 24160.2, 5918976.375 ], [ 24160.125, 5918976.375 ], [ 24160.125, 5918976.450000000186265 ], [ 24160.05, 5918976.450000000186265 ], [ 24160.05, 5918976.525000000372529 ], [ 24159.900000000001455, 5918976.525000000372529 ], [ 24159.900000000001455, 5918976.599999999627471 ], [ 24159.825, 5918976.599999999627471 ], [ 24159.825, 5918976.674999999813735 ], [ 24159.675, 5918976.674999999813735 ], [ 24159.675, 5918976.75 ], [ 24159.525000000001455, 5918976.75 ], [ 24159.525000000001455, 5918976.825000000186265 ], [ 24159.45, 5918976.825000000186265 ], [ 24159.45, 5918976.900000000372529 ], [ 24159.224999999998545, 5918976.900000000372529 ], [ 24159.224999999998545, 5918976.974999999627471 ], [ 24159.075, 5918976.974999999627471 ], [ 24159.075, 5918977.049999999813735 ], [ 24158.925, 5918977.049999999813735 ], [ 24158.925, 5918977.125 ], [ 24158.7, 5918977.125 ], [ 24158.7, 5918977.200000000186265 ], [ 24158.325, 5918977.200000000186265 ], [ 24158.325, 5918977.275000000372529 ], [ 24157.724999999998545, 5918977.275000000372529 ], [ 24157.724999999998545, 5918977.349999999627471 ], [ 24157.125, 5918977.349999999627471 ], [ 24157.125, 5918977.424999999813735 ], [ 24156.3, 5918977.424999999813735 ], [ 24156.3, 5918977.5 ], [ 24153.525000000001455, 5918977.5 ] ] ] } }
]
}
