{
"type": "FeatureCollection",
"name": "23433E591582N_buildings",
"crs": { "type": "name", "properties": { "name": "urn:ogc:def:crs:EPSG::3776" } },
"features": [
{ "type": "Feature", "properties": { "value": 1.0, "building_id": 0, "area": 154.20937499978072 }, "geometry": { "type": "Polygon", "coordinates": [ [ [ 23890.95, 5915843.775000000372529 ], [ 23890.95, 5915843.700000000186265 ], [ 23890.8, 5915843.700000000186265 ], [ 23890.8, 5915843.625 ], [ 23890.575, 5915843.625 ], [ 23890.575, 5915843.549999999813735 ], [ 23890.275000000001455, 5915843.549999999813735 ], [ 23890.275000000001455, 5915843.474999999627471 ], [ 23889.974999999998545, 5915843.474999999627471 ], [ 23889.974999999998545, 5915843.400000000372529 ], [ 23889.675, 5915843.400000000372529 ], [ 23889.675, 5915843.325000000186265 ], [ 23889.3, 5915843.325000000186265 ], [ 23889.3, 5915843.25 ], [ 23889.0, 5915843.25 ], [ 23889.0, 5915843.174999999813735 ], [ 23888.849999999998545, 5915843.174999999813735 ], [ 23888.849999999998545, 5915843.099999999627471 ], [ 23888.7, 5915843.099999999627471 ], [ 23888.7, 5915843.025000000372529 ], [ 23888.625, 5915843.025000000372529 ], [ 23888.625, 5915842.950000000186265 ], [ 23888.474999999998545, 5915842.950000000186265 ], [ 23888.474999999998545, 5915842.875 ], [ 23888.400000000001455, 5915842.875 ], [ 23888.400000000001455, 5915842.799999999813735 ], [ 23888.325, 5915842.799999999813735 ], [ 23888.325, 5915842.724999999627471 ], [ 23888.25, 5915842.724999999627471 ], [ 23888.25, 5915842.650000000372529 ], [ 23888.175, 5915842.650000000372529 ], [ 23888.175, 5915842.575000000186265 ], [ 23888.099999999998545, 5915842.575000000186265 ], [ 23888.099999999998545, 5915842.5 ], [ 23888.025000000001455, 5915842.5 ], [ 23888.025000000001455, 5915842.424999999813735 ], [ 23887.95, 5915842.424999999813735 ], [ 23887.95, 5915842.275000000372529 ], [ 23887.875, 5915842.275000000372529 ], [ 23887.875, 5915842.125 ], [ 23887.8, 5915842.125 ], [ 23887.8, 5915842.049999999813735 ], [ 23887.724999999998545, 5915842.049999999813735 ], [ 23887.724999999998545, 5915841.825000000186265 ], [ 23887.650000000001455, 5915841.825000000186265 ], [ 23887.650000000001455, 5915841.599999999627471 ], [ 23887.575, 5915841.599999999627471 ], [ 23887.575, 5915840.924999999813735 ], [ 23887.5, 5915840.924999999813735 ], [ 23887.5, 5915840.325000000186265 ], [ 23887.425, 5915840.325000000186265 ], [ 23887.425, 5915839.724999999627471 ], [ 23887.349999999998545, 5915839.724999999627471 ], [ 23887.349999999998545, 5915839.349999999627471 ], [ 23887.275000000001455, 5915839.349999999627471 ], [ 23887.275000000001455, 5915839.049999999813735 ], [ 23887.2, 5915839.049999999813735 ], [ 23887.2, 5915838.75 ], [ 23887.125, 5915838.75 ], [ 23887.125, 5915838.525000000372529 ], [ 23887.05, 5915838.525000000372529 ], [ 23887.05, 5915838.375 ], [ 23886.974999999998545, 5915838.375 ], [ 23886.974999999998545, 5915838.150000000372529 ], [ 23886.900000000001455, 5915838.150000000372529 ], [ 23886.900000000001455, 5915838.0 ], [ 23886.825, 5915838.0 ], [ 23886.825, 5915837.849999999627471 ], [ 23886.75, 5915837.849999999627471 ], [ 23886.75, 5915837.700000000186265 ], [ 23886.675, 5915837.700000000186265 ], [ 23886.675, 5915837.549999999813735 ], [ 23886.599999999998545, 5915837.549999999813735 ], [ 23886.599999999998545, 5915837.474999999627471 ], [ 23886.525000000001455, 5915837.474999999627471 ], [ 23886.525000000001455, 5915837.325000000186265 ], [ 23886.45, 5915837.325000000186265 ], [ 23886.45, 5915837.174999999813735 ], [ 23886.375, 5915837.174999999813735 ], [ 23886.375, 5915837.025000000372529 ], [ 23886.3, 5915837.025000000372529 ], [ 23886.3, 5915836.799999999813735 ], [ 23886.224999999998545, 5915836.799999999813735 ], [ 23886.224999999998545, 5915836.575000000186265 ], [ 23886.150000000001455, 5915836.575000000186265 ], [ 23886.150000000001455, 5915836.349999999627471 ], [ 23886.075, 5915836.349999999627471 ], [ 23886.075, 5915836.125 ], [ 23886.0, 5915836.125 ], [ 23886.0, 5915835.825000000186265 ], [ 23885.925, 5915835.825000000186265 ], [ 23885.925, 5915835.299999999813735 ], [ 23885.849999999998545, 5915835.299999999813735 ], [ 23885.849999999998545, 5915834.700000000186265 ], [ 23885.775000000001455, 5915834.700000000186265 ], [ 23885.775000000001455, 5915834.025000000372529 ], [ 23885.7, 5915834.025000000372529 ], [ 23885.7, 5915829.0 ], [ 23897.474999999998545, 5915829.0 ], [ 23897.474999999998545, 5915832.0 ], [ 23897.55, 5915832.0 ], [ 23897.55, 5915833.275000000372529 ], [ 23897.625, 5915833.275000000372529 ], [ 23897.625, 5915834.174999999813735 ], [ 23897.7, 5915834.174999999813735 ], [ 23897.7, 5915834.700000000186265 ], [ 23897.775000000001455, 5915834.700000000186265 ], [ 23897.775000000001455, 5915835.150000000372529 ], [ 23897.849999999998545, 5915835.150000000372529 ], [ 23897.849999999998545, 5915835.674999999813735 ], [ 23897.925, 5915835.674999999813735 ], [ 23897.925, 5915836.125 ], [ 23898.0, 5915836.125 ], [ 23898.0, 5915836.650000000372529 ], [ 23898.075, 5915836.650000000372529 ], [ 23898.075, 5915837.099999999627471 ], [ 23898.150000000001455, 5915837.099999999627471 ], [ 23898.150000000001455, 5915837.549999999813735 ], [ 23898.224999999998545, 5915837.549999999813735 ], [ 23898.224999999998545, 5915838.0 ], [ 23898.3, 5915838.0 ], [ 23898.3, 5915839.049999999813735 ], [ 23898.224999999998545, 5915839.049999999813735 ], [ 23898.224999999998545, 5915839.424999999813735 ], [ 23898.150000000001455, 5915839.424999999813735 ], [ 23898.150000000001455, 5915839.724999999627471 ], [ 23898.075, 5915839.724999999627471 ], [ 23898.075, 5915839.875 ], [ 23898.0, 5915839.875 ], [ 23898.0, 5915839.950000000186265 ], [ 23897.925, 5915839.950000000186265 ], [ 23897.925, 5915840.099999999627471 ], [ 23897.849999999998545, 5915840.099999999627471 ], [ 23897.849999999998545, 5915840.174999999813735 ], [ 23897.775000000001455, 5915840.174999999813735 ], [ 23897.775000000001455, 5915840.25 ], [ 23897.7, 5915840.25 ], [ 23897.7, 5915840.325000000186265 ], [ 23897.625, 5915840.325000000186265 ], [ 23897.625, 5915840.400000000372529 ], [ 23897.55, 5915840.400000000372529 ], [ 23897.55, 5915840.474999999627471 ], [ 23897.474999999998545, 5915840.474999999627471 ], [ 23897.474999999998545, 5915840.549999999813735 ], [ 23897.400000000001455, 5915840.549999999813735 ], [ 23897.400000000001455, 5915840.625 ], [ 23897.325, 5915840.625 ], [ 23897.325, 5915840.700000000186265 ], [ 23897.175, 5915840.700000000186265 ], [ 23897.175, 5915840.775000000372529 ], [ 23897.099999999998545, 5915840.775000000372529 ], [ 23897.099999999998545, 5915840.849999999627471 ], [ 23896.95, 5915840.849999999627471 ], [ 23896.95, 5915840.924999999813735 ], [ 23896.8, 5915840.924999999813735 ], [ 23896.8, 5915841.0 ], [ 23896.650000000001455, 5915841.0 ], [ 23896.650000000001455, 5915841.075000000186265 ], [ 23896.5, 5915841.075000000186265 ], [ 23896.5, 5915841.150000000372529 ], [ 23896.349999999998545, 5915841.150000000372529 ], [ 23896.349999999998545, 5915841.224999999627471 ], [ 23896.2, 5915841.224999999627471 ], [ 23896.2, 5915841.299999999813735 ], [ 23896.05, 5915841.299999999813735 ], [ 23896.05, 5915841.375 ], [ 23895.900000000001455, 5915841.375 ], [ 23895.900000000001455, 5915841.450000000186265 ], [ 23895.75, 5915841.450000000186265 ], [ 23895.75, 5915841.525000000372529 ], [ 23895.599999999998545, 5915841.525000000372529 ], [ 23895.599999999998545, 5915841.599999999627471 ], [ 23895.45, 5915841.599999999627471 ], [ 23895.45, 5915841.674999999813735 ], [ 23895.3, 5915841.674999999813735 ], [ 23895.3, 5915841.75 ], [ 23895.224999999998545, 5915841.75 ], [ 23895.224999999998545, 5915841.825000000186265 ], [ 23895.075, 5915841.825000000186265 ], [ 23895.075, 5915841.900000000372529 ], [ 23895.0, 5915841.900000000372529 ], [ 23895.0, 5915841.974999999627471 ], [ 23894.849999999998545, 5915841.974999999627471 ], [ 23894.849999999998545, 5915842.049999999813735 ], [ 23894.775000000001455, 5915842.049999999813735 ], [ 23894.775000000001455, 5915842.125 ], [ 23894.7, 5915842.125 ], [ 23894.7, 5915842.200000000186265 ], [ 23894.625, 5915842.200000000186265 ], [ 23894.625, 5915842.275000000372529 ], [ 23894.55, 5915842.275000000372529 ], [ 23894.55, 5915842.349999999627471 ], [ 23894.400000000001455, 5915842.349999999627471 ], [ 23894.400000000001455, 5915842.424999999813735 ], [ 23894.325, 5915842.424999999813735 ], [ 23894.325, 5915842.5 ], [ 23894.175, 5915842.5 ], [ 23894.175, 5915842.575000000186265 ], [ 23894.025000000001455, 5915842.575000000186265 ], [ 23894.025000000001455, 5915842.650000000372529 ], [ 23893.875, 5915842.650000000372529 ], [ 23893.875, 5915842.724999999627471 ], [ 23893.724999999998545, 5915842.724999999627471 ], [ 23893.724999999998545, 5915842.799999999813735 ], [ 23893.575, 5915842.799999999813735 ], [ 23893.575, 5915842.875 ], [ 23893.349999999998545, 5915842.875 ], [ 23893.349999999998545, 5915842.950000000186265 ], [ 23893.125, 5915842.950000000186265 ], [ 23893.125, 5915843.025000000372529 ], [ 23892.900000000001455, 5915843.025000000372529 ], [ 23892.900000000001455, 5915843.099999999627471 ], [ 23892.599999999998545, 5915843.099999999627471 ], [ 23892.599999999998545, 5915843.174999999813735 ], [ 23892.375, 5915843.174999999813735 ], [ 23892.375, 5915843.25 ], [ 23892.075, 5915843.25 ], [ 23892.075, 5915843.325000000186265 ], [ 23891.849999999998545, 5915843.325000000186265 ], [ 23891.849999999998545, 5915843.400000000372529 ], [ 23891.7, 5915843.400000000372529 ], [ 23891.7, 5915843.474999999627471 ], [ 23891.474999999998545, 5915843.474999999627471 ], [ 23891.474999999998545, 5915843.549999999813735 ], [ 23891.325, 5915843.549999999813735 ], [ 23891.325, 5915843.625 ], [ 23891.099999999998545, 5915843.625 ], [ 23891.099999999998545, 5915843.700000000186265 ], [ 23891.025000000001455, 5915843.700000000186265 ], [ 23891.025000000001455, 5915843.775000000372529 ], [ 23890.95, 5915843.775000000372529 ] ] ] } }
]
}
