{
"type": "FeatureCollection",
"name": "23433E591507N_buildings",
"crs": { "type": "name", "properties": { "name": "urn:ogc:def:crs:EPSG::3776" } },
"features": [
{ "type": "Feature", "properties": { "value": 1.0, "building_id": 0, "area": 147.08250000004037 }, "geometry": { "type": "Polygon", "coordinates": [ [ [ 23889.0, 5915817.974999999627471 ], [ 23889.0, 5915817.900000000372529 ], [ 23888.925, 5915817.900000000372529 ], [ 23888.925, 5915817.825000000186265 ], [ 23888.775000000001455, 5915817.825000000186265 ], [ 23888.775000000001455, 5915817.75 ], [ 23888.7, 5915817.75 ], [ 23888.7, 5915817.674999999813735 ], [ 23888.625, 5915817.674999999813735 ], [ 23888.625, 5915817.599999999627471 ], [ 23888.55, 5915817.599999999627471 ], [ 23888.55, 5915817.525000000372529 ], [ 23888.474999999998545, 5915817.525000000372529 ], [ 23888.474999999998545, 5915817.450000000186265 ], [ 23888.400000000001455, 5915817.450000000186265 ], [ 23888.400000000001455, 5915817.299999999813735 ], [ 23888.325, 5915817.299999999813735 ], [ 23888.325, 5915817.224999999627471 ], [ 23888.25, 5915817.224999999627471 ], [ 23888.25, 5915817.075000000186265 ], [ 23888.175, 5915817.075000000186265 ], [ 23888.175, 5915817.0 ], [ 23888.099999999998545, 5915817.0 ], [ 23888.099999999998545, 5915816.849999999627471 ], [ 23888.025000000001455, 5915816.849999999627471 ], [ 23888.025000000001455, 5915816.700000000186265 ], [ 23887.95, 5915816.700000000186265 ], [ 23887.95, 5915816.474999999627471 ], [ 23887.875, 5915816.474999999627471 ], [ 23887.875, 5915816.25 ], [ 23887.8, 5915816.25 ], [ 23887.8, 5915815.799999999813735 ], [ 23887.724999999998545, 5915815.799999999813735 ], [ 23887.724999999998545, 5915815.349999999627471 ], [ 23887.650000000001455, 5915815.349999999627471 ], [ 23887.650000000001455, 5915814.900000000372529 ], [ 23887.575, 5915814.900000000372529 ], [ 23887.575, 5915814.450000000186265 ], [ 23887.5, 5915814.450000000186265 ], [ 23887.5, 5915814.299999999813735 ], [ 23887.425, 5915814.299999999813735 ], [ 23887.425, 5915814.150000000372529 ], [ 23887.349999999998545, 5915814.150000000372529 ], [ 23887.349999999998545, 5915814.075000000186265 ], [ 23887.275000000001455, 5915814.075000000186265 ], [ 23887.275000000001455, 5915814.0 ], [ 23887.2, 5915814.0 ], [ 23887.2, 5915813.924999999813735 ], [ 23887.125, 5915813.924999999813735 ], [ 23887.125, 5915813.849999999627471 ], [ 23887.05, 5915813.849999999627471 ], [ 23887.05, 5915813.775000000372529 ], [ 23886.900000000001455, 5915813.775000000372529 ], [ 23886.900000000001455, 5915813.700000000186265 ], [ 23886.825, 5915813.700000000186265 ], [ 23886.825, 5915813.625 ], [ 23886.75, 5915813.625 ], [ 23886.75, 5915813.549999999813735 ], [ 23886.675, 5915813.549999999813735 ], [ 23886.675, 5915813.400000000372529 ], [ 23886.599999999998545, 5915813.400000000372529 ], [ 23886.599999999998545, 5915813.325000000186265 ], [ 23886.525000000001455, 5915813.325000000186265 ], [ 23886.525000000001455, 5915813.25 ], [ 23886.45, 5915813.25 ], [ 23886.45, 5915813.099999999627471 ], [ 23886.375, 5915813.099999999627471 ], [ 23886.375, 5915813.025000000372529 ], [ 23886.3, 5915813.025000000372529 ], [ 23886.3, 5915812.875 ], [ 23886.224999999998545, 5915812.875 ], [ 23886.224999999998545, 5915812.724999999627471 ], [ 23886.150000000001455, 5915812.724999999627471 ], [ 23886.150000000001455, 5915812.5 ], [ 23886.075, 5915812.5 ], [ 23886.075, 5915812.049999999813735 ], [ 23886.0, 5915812.049999999813735 ], [ 23886.0, 5915811.075000000186265 ], [ 23885.925, 5915811.075000000186265 ], [ 23885.925, 5915808.900000000372529 ], [ 23885.849999999998545, 5915808.900000000372529 ], [ 23885.849999999998545, 5915808.375 ], [ 23885.925, 5915808.375 ], [ 23885.925, 5915806.575000000186265 ], [ 23886.0, 5915806.575000000186265 ], [ 23886.0, 5915805.900000000372529 ], [ 23886.075, 5915805.900000000372529 ], [ 23886.075, 5915805.299999999813735 ], [ 23886.150000000001455, 5915805.299999999813735 ], [ 23886.150000000001455, 5915804.700000000186265 ], [ 23886.224999999998545, 5915804.700000000186265 ], [ 23886.224999999998545, 5915804.474999999627471 ], [ 23886.3, 5915804.474999999627471 ], [ 23886.3, 5915804.25 ], [ 23886.375, 5915804.25 ], [ 23886.375, 5915804.099999999627471 ], [ 23886.45, 5915804.099999999627471 ], [ 23886.45, 5915803.950000000186265 ], [ 23886.525000000001455, 5915803.950000000186265 ], [ 23886.525000000001455, 5915803.875 ], [ 23886.599999999998545, 5915803.875 ], [ 23886.599999999998545, 5915803.724999999627471 ], [ 23886.675, 5915803.724999999627471 ], [ 23886.675, 5915803.650000000372529 ], [ 23886.75, 5915803.650000000372529 ], [ 23886.75, 5915803.5 ], [ 23886.825, 5915803.5 ], [ 23886.825, 5915803.424999999813735 ], [ 23886.900000000001455, 5915803.424999999813735 ], [ 23886.900000000001455, 5915803.349999999627471 ], [ 23886.974999999998545, 5915803.349999999627471 ], [ 23886.974999999998545, 5915803.275000000372529 ], [ 23887.05, 5915803.275000000372529 ], [ 23887.05, 5915803.200000000186265 ], [ 23887.125, 5915803.200000000186265 ], [ 23887.125, 5915803.125 ], [ 23887.2, 5915803.125 ], [ 23887.2, 5915803.049999999813735 ], [ 23887.275000000001455, 5915803.049999999813735 ], [ 23887.275000000001455, 5915802.900000000372529 ], [ 23887.349999999998545, 5915802.900000000372529 ], [ 23887.349999999998545, 5915802.825000000186265 ], [ 23887.425, 5915802.825000000186265 ], [ 23887.425, 5915802.674999999813735 ], [ 23887.5, 5915802.674999999813735 ], [ 23887.5, 5915801.924999999813735 ], [ 23887.575, 5915801.924999999813735 ], [ 23887.575, 5915800.650000000372529 ], [ 23887.650000000001455, 5915800.650000000372529 ], [ 23887.650000000001455, 5915800.275000000372529 ], [ 23887.724999999998545, 5915800.275000000372529 ], [ 23887.724999999998545, 5915800.049999999813735 ], [ 23887.8, 5915800.049999999813735 ], [ 23887.8, 5915799.900000000372529 ], [ 23887.875, 5915799.900000000372529 ], [ 23887.875, 5915799.674999999813735 ], [ 23887.95, 5915799.674999999813735 ], [ 23887.95, 5915799.599999999627471 ], [ 23888.025000000001455, 5915799.599999999627471 ], [ 23888.025000000001455, 5915799.450000000186265 ], [ 23888.099999999998545, 5915799.450000000186265 ], [ 23888.099999999998545, 5915799.375 ], [ 23888.175, 5915799.375 ], [ 23888.175, 5915799.299999999813735 ], [ 23888.25, 5915799.299999999813735 ], [ 23888.25, 5915799.224999999627471 ], [ 23888.325, 5915799.224999999627471 ], [ 23888.325, 5915799.150000000372529 ], [ 23888.474999999998545, 5915799.150000000372529 ], [ 23888.474999999998545, 5915799.075000000186265 ], [ 23888.55, 5915799.075000000186265 ], [ 23888.55, 5915799.0 ], [ 23888.7, 5915799.0 ], [ 23888.7, 5915798.924999999813735 ], [ 23889.150000000001455, 5915798.924999999813735 ], [ 23889.150000000001455, 5915799.0 ], [ 23889.45, 5915799.0 ], [ 23889.45, 5915799.075000000186265 ], [ 23889.75, 5915799.075000000186265 ], [ 23889.75, 5915799.150000000372529 ], [ 23890.05, 5915799.150000000372529 ], [ 23890.05, 5915799.224999999627471 ], [ 23890.425, 5915799.224999999627471 ], [ 23890.425, 5915799.299999999813735 ], [ 23890.8, 5915799.299999999813735 ], [ 23890.8, 5915799.375 ], [ 23891.25, 5915799.375 ], [ 23891.25, 5915799.450000000186265 ], [ 23891.775000000001455, 5915799.450000000186265 ], [ 23891.775000000001455, 5915799.525000000372529 ], [ 23892.3, 5915799.525000000372529 ], [ 23892.3, 5915799.599999999627471 ], [ 23892.900000000001455, 5915799.599999999627471 ], [ 23892.900000000001455, 5915799.674999999813735 ], [ 23893.125, 5915799.674999999813735 ], [ 23893.125, 5915799.75 ], [ 23893.275000000001455, 5915799.75 ], [ 23893.275000000001455, 5915799.825000000186265 ], [ 23893.425, 5915799.825000000186265 ], [ 23893.425, 5915799.900000000372529 ], [ 23893.575, 5915799.900000000372529 ], [ 23893.575, 5915799.974999999627471 ], [ 23893.650000000001455, 5915799.974999999627471 ], [ 23893.650000000001455, 5915800.049999999813735 ], [ 23893.8, 5915800.049999999813735 ], [ 23893.8, 5915800.125 ], [ 23893.875, 5915800.125 ], [ 23893.875, 5915800.200000000186265 ], [ 23893.95, 5915800.200000000186265 ], [ 23893.95, 5915800.275000000372529 ], [ 23894.025000000001455, 5915800.275000000372529 ], [ 23894.025000000001455, 5915800.349999999627471 ], [ 23894.099999999998545, 5915800.349999999627471 ], [ 23894.099999999998545, 5915800.424999999813735 ], [ 23894.175, 5915800.424999999813735 ], [ 23894.175, 5915800.5 ], [ 23894.25, 5915800.5 ], [ 23894.25, 5915800.575000000186265 ], [ 23894.325, 5915800.575000000186265 ], [ 23894.325, 5915800.650000000372529 ], [ 23894.400000000001455, 5915800.650000000372529 ], [ 23894.400000000001455, 5915800.724999999627471 ], [ 23894.474999999998545, 5915800.724999999627471 ], [ 23894.474999999998545, 5915800.799999999813735 ], [ 23894.55, 5915800.799999999813735 ], [ 23894.55, 5915800.875 ], [ 23894.625, 5915800.875 ], [ 23894.625, 5915800.950000000186265 ], [ 23894.7, 5915800.950000000186265 ], [ 23894.7, 5915801.025000000372529 ], [ 23894.775000000001455, 5915801.025000000372529 ], [ 23894.775000000001455, 5915801.099999999627471 ], [ 23894.925, 5915801.099999999627471 ], [ 23894.925, 5915801.174999999813735 ], [ 23895.075, 5915801.174999999813735 ], [ 23895.075, 5915801.25 ], [ 23895.224999999998545, 5915801.25 ], [ 23895.224999999998545, 5915801.325000000186265 ], [ 23895.375, 5915801.325000000186265 ], [ 23895.375, 5915801.400000000372529 ], [ 23895.525000000001455, 5915801.400000000372529 ], [ 23895.525000000001455, 5915801.474999999627471 ], [ 23895.599999999998545, 5915801.474999999627471 ], [ 23895.599999999998545, 5915801.549999999813735 ], [ 23895.675, 5915801.549999999813735 ], [ 23895.675, 5915801.625 ], [ 23895.75, 5915801.625 ], [ 23895.75, 5915801.700000000186265 ], [ 23895.825, 5915801.700000000186265 ], [ 23895.825, 5915801.849999999627471 ], [ 23895.900000000001455, 5915801.849999999627471 ], [ 23895.900000000001455, 5915802.0 ], [ 23895.974999999998545, 5915802.0 ], [ 23895.974999999998545, 5915802.224999999627471 ], [ 23896.05, 5915802.224999999627471 ], [ 23896.05, 5915802.525000000372529 ], [ 23896.125, 5915802.525000000372529 ], [ 23896.125, 5915805.0 ], [ 23896.05, 5915805.0 ], [ 23896.05, 5915808.0 ], [ 23895.974999999998545, 5915808.0 ], [ 23895.974999999998545, 5915809.424999999813735 ], [ 23895.900000000001455, 5915809.424999999813735 ], [ 23895.900000000001455, 5915810.474999999627471 ], [ 23895.825, 5915810.474999999627471 ], [ 23895.825, 5915810.625 ], [ 23895.75, 5915810.625 ], [ 23895.75, 5915810.775000000372529 ], [ 23895.675, 5915810.775000000372529 ], [ 23895.675, 5915810.924999999813735 ], [ 23895.599999999998545, 5915810.924999999813735 ], [ 23895.599999999998545, 5915811.0 ], [ 23895.525000000001455, 5915811.0 ], [ 23895.525000000001455, 5915811.150000000372529 ], [ 23895.45, 5915811.150000000372529 ], [ 23895.45, 5915811.224999999627471 ], [ 23895.375, 5915811.224999999627471 ], [ 23895.375, 5915811.299999999813735 ], [ 23895.3, 5915811.299999999813735 ], [ 23895.3, 5915811.375 ], [ 23895.224999999998545, 5915811.375 ], [ 23895.224999999998545, 5915811.450000000186265 ], [ 23895.150000000001455, 5915811.450000000186265 ], [ 23895.150000000001455, 5915811.525000000372529 ], [ 23895.075, 5915811.525000000372529 ], [ 23895.075, 5915811.599999999627471 ], [ 23895.0, 5915811.599999999627471 ], [ 23895.0, 5915811.674999999813735 ], [ 23894.849999999998545, 5915811.674999999813735 ], [ 23894.849999999998545, 5915811.75 ], [ 23894.775000000001455, 5915811.75 ], [ 23894.775000000001455, 5915811.825000000186265 ], [ 23894.7, 5915811.825000000186265 ], [ 23894.7, 5915811.900000000372529 ], [ 23894.625, 5915811.900000000372529 ], [ 23894.625, 5915811.974999999627471 ], [ 23894.55, 5915811.974999999627471 ], [ 23894.55, 5915812.049999999813735 ], [ 23894.474999999998545, 5915812.049999999813735 ], [ 23894.474999999998545, 5915812.125 ], [ 23894.400000000001455, 5915812.125 ], [ 23894.400000000001455, 5915812.275000000372529 ], [ 23894.325, 5915812.275000000372529 ], [ 23894.325, 5915812.349999999627471 ], [ 23894.25, 5915812.349999999627471 ], [ 23894.25, 5915812.575000000186265 ], [ 23894.175, 5915812.575000000186265 ], [ 23894.175, 5915812.799999999813735 ], [ 23894.099999999998545, 5915812.799999999813735 ], [ 23894.099999999998545, 5915813.025000000372529 ], [ 23894.025000000001455, 5915813.025000000372529 ], [ 23894.025000000001455, 5915813.25 ], [ 23893.95, 5915813.25 ], [ 23893.95, 5915813.474999999627471 ], [ 23893.875, 5915813.474999999627471 ], [ 23893.875, 5915813.625 ], [ 23893.8, 5915813.625 ], [ 23893.8, 5915813.849999999627471 ], [ 23893.724999999998545, 5915813.849999999627471 ], [ 23893.724999999998545, 5915814.075000000186265 ], [ 23893.650000000001455, 5915814.075000000186265 ], [ 23893.650000000001455, 5915814.224999999627471 ], [ 23893.575, 5915814.224999999627471 ], [ 23893.575, 5915814.375 ], [ 23893.5, 5915814.375 ], [ 23893.5, 5915814.525000000372529 ], [ 23893.425, 5915814.525000000372529 ], [ 23893.425, 5915814.599999999627471 ], [ 23893.349999999998545, 5915814.599999999627471 ], [ 23893.349999999998545, 5915814.674999999813735 ], [ 23893.275000000001455, 5915814.674999999813735 ], [ 23893.275000000001455, 5915814.75 ], [ 23893.2, 5915814.75 ], [ 23893.2, 5915814.825000000186265 ], [ 23893.125, 5915814.825000000186265 ], [ 23893.125, 5915814.900000000372529 ], [ 23893.05, 5915814.900000000372529 ], [ 23893.05, 5915814.974999999627471 ], [ 23892.974999999998545, 5915814.974999999627471 ], [ 23892.974999999998545, 5915815.049999999813735 ], [ 23892.900000000001455, 5915815.049999999813735 ], [ 23892.900000000001455, 5915815.125 ], [ 23892.75, 5915815.125 ], [ 23892.75, 5915815.200000000186265 ], [ 23892.675, 5915815.200000000186265 ], [ 23892.675, 5915815.275000000372529 ], [ 23892.599999999998545, 5915815.275000000372529 ], [ 23892.599999999998545, 5915815.349999999627471 ], [ 23892.525000000001455, 5915815.349999999627471 ], [ 23892.525000000001455, 5915815.424999999813735 ], [ 23892.45, 5915815.424999999813735 ], [ 23892.45, 5915815.5 ], [ 23892.375, 5915815.5 ], [ 23892.375, 5915815.650000000372529 ], [ 23892.3, 5915815.650000000372529 ], [ 23892.3, 5915815.724999999627471 ], [ 23892.224999999998545, 5915815.724999999627471 ], [ 23892.224999999998545, 5915815.799999999813735 ], [ 23892.150000000001455, 5915815.799999999813735 ], [ 23892.150000000001455, 5915815.950000000186265 ], [ 23892.075, 5915815.950000000186265 ], [ 23892.075, 5915816.099999999627471 ], [ 23892.0, 5915816.099999999627471 ], [ 23892.0, 5915816.25 ], [ 23891.925, 5915816.25 ], [ 23891.925, 5915816.400000000372529 ], [ 23891.849999999998545, 5915816.400000000372529 ], [ 23891.849999999998545, 5915816.549999999813735 ], [ 23891.775000000001455, 5915816.549999999813735 ], [ 23891.775000000001455, 5915816.700000000186265 ], [ 23891.7, 5915816.700000000186265 ], [ 23891.7, 5915816.775000000372529 ], [ 23891.625, 5915816.775000000372529 ], [ 23891.625, 5915816.924999999813735 ], [ 23891.55, 5915816.924999999813735 ], [ 23891.55, 5915817.0 ], [ 23891.474999999998545, 5915817.0 ], [ 23891.474999999998545, 5915817.075000000186265 ], [ 23891.400000000001455, 5915817.075000000186265 ], [ 23891.400000000001455, 5915817.150000000372529 ], [ 23891.325, 5915817.150000000372529 ], [ 23891.325, 5915817.224999999627471 ], [ 23891.25, 5915817.224999999627471 ], [ 23891.25, 5915817.299999999813735 ], [ 23891.175, 5915817.299999999813735 ], [ 23891.175, 5915817.375 ], [ 23891.099999999998545, 5915817.375 ], [ 23891.099999999998545, 5915817.450000000186265 ], [ 23891.025000000001455, 5915817.450000000186265 ], [ 23891.025000000001455, 5915817.525000000372529 ], [ 23890.650000000001455, 5915817.525000000372529 ], [ 23890.650000000001455, 5915817.599999999627471 ], [ 23890.349999999998545, 5915817.599999999627471 ], [ 23890.349999999998545, 5915817.674999999813735 ], [ 23890.05, 5915817.674999999813735 ], [ 23890.05, 5915817.75 ], [ 23889.75, 5915817.75 ], [ 23889.75, 5915817.825000000186265 ], [ 23889.525000000001455, 5915817.825000000186265 ], [ 23889.525000000001455, 5915817.900000000372529 ], [ 23889.224999999998545, 5915817.900000000372529 ], [ 23889.224999999998545, 5915817.974999999627471 ], [ 23889.0, 5915817.974999999627471 ] ] ] } },
{ "type": "Feature", "properties": { "value": 1.0, "building_id": 1, "area": 208.53562500004421 }, "geometry": { "type": "Polygon", "coordinates": [ [ [ 23922.075, 5915780.625 ], [ 23922.075, 5915780.549999999813735 ], [ 23921.55, 5915780.549999999813735 ], [ 23921.55, 5915780.474999999627471 ], [ 23921.099999999998545, 5915780.474999999627471 ], [ 23921.099999999998545, 5915780.400000000372529 ], [ 23920.724999999998545, 5915780.400000000372529 ], [ 23920.724999999998545, 5915780.325000000186265 ], [ 23920.349999999998545, 5915780.325000000186265 ], [ 23920.349999999998545, 5915780.25 ], [ 23920.2, 5915780.25 ], [ 23920.2, 5915780.174999999813735 ], [ 23920.05, 5915780.174999999813735 ], [ 23920.05, 5915780.099999999627471 ], [ 23919.974999999998545, 5915780.099999999627471 ], [ 23919.974999999998545, 5915780.025000000372529 ], [ 23919.900000000001455, 5915780.025000000372529 ], [ 23919.900000000001455, 5915779.950000000186265 ], [ 23919.75, 5915779.950000000186265 ], [ 23919.75, 5915779.875 ], [ 23919.675, 5915779.875 ], [ 23919.675, 5915779.799999999813735 ], [ 23919.599999999998545, 5915779.799999999813735 ], [ 23919.599999999998545, 5915779.724999999627471 ], [ 23919.525000000001455, 5915779.724999999627471 ], [ 23919.525000000001455, 5915779.650000000372529 ], [ 23919.45, 5915779.650000000372529 ], [ 23919.45, 5915779.575000000186265 ], [ 23919.375, 5915779.575000000186265 ], [ 23919.375, 5915779.5 ], [ 23919.3, 5915779.5 ], [ 23919.3, 5915779.424999999813735 ], [ 23919.224999999998545, 5915779.424999999813735 ], [ 23919.224999999998545, 5915779.275000000372529 ], [ 23919.150000000001455, 5915779.275000000372529 ], [ 23919.150000000001455, 5915779.200000000186265 ], [ 23919.075, 5915779.200000000186265 ], [ 23919.075, 5915779.049999999813735 ], [ 23919.0, 5915779.049999999813735 ], [ 23919.0, 5915778.900000000372529 ], [ 23918.925, 5915778.900000000372529 ], [ 23918.925, 5915778.75 ], [ 23918.849999999998545, 5915778.75 ], [ 23918.849999999998545, 5915778.525000000372529 ], [ 23918.775000000001455, 5915778.525000000372529 ], [ 23918.775000000001455, 5915778.299999999813735 ], [ 23918.7, 5915778.299999999813735 ], [ 23918.7, 5915778.150000000372529 ], [ 23918.625, 5915778.150000000372529 ], [ 23918.625, 5915777.924999999813735 ], [ 23918.55, 5915777.924999999813735 ], [ 23918.55, 5915777.625 ], [ 23918.474999999998545, 5915777.625 ], [ 23918.474999999998545, 5915777.325000000186265 ], [ 23918.400000000001455, 5915777.325000000186265 ], [ 23918.400000000001455, 5915777.174999999813735 ], [ 23918.474999999998545, 5915777.174999999813735 ], [ 23918.474999999998545, 5915777.025000000372529 ], [ 23918.55, 5915777.025000000372529 ], [ 23918.55, 5915776.875 ], [ 23918.625, 5915776.875 ], [ 23918.625, 5915776.650000000372529 ], [ 23918.7, 5915776.650000000372529 ], [ 23918.7, 5915776.5 ], [ 23918.775000000001455, 5915776.5 ], [ 23918.775000000001455, 5915776.349999999627471 ], [ 23918.849999999998545, 5915776.349999999627471 ], [ 23918.849999999998545, 5915776.125 ], [ 23918.925, 5915776.125 ], [ 23918.925, 5915775.974999999627471 ], [ 23919.0, 5915775.974999999627471 ], [ 23919.0, 5915775.75 ], [ 23919.075, 5915775.75 ], [ 23919.075, 5915775.599999999627471 ], [ 23919.150000000001455, 5915775.599999999627471 ], [ 23919.150000000001455, 5915775.375 ], [ 23919.224999999998545, 5915775.375 ], [ 23919.224999999998545, 5915775.224999999627471 ], [ 23919.3, 5915775.224999999627471 ], [ 23919.3, 5915775.0 ], [ 23919.375, 5915775.0 ], [ 23919.375, 5915774.849999999627471 ], [ 23919.45, 5915774.849999999627471 ], [ 23919.45, 5915774.700000000186265 ], [ 23919.525000000001455, 5915774.700000000186265 ], [ 23919.525000000001455, 5915774.549999999813735 ], [ 23919.599999999998545, 5915774.549999999813735 ], [ 23919.599999999998545, 5915774.474999999627471 ], [ 23919.675, 5915774.474999999627471 ], [ 23919.675, 5915774.325000000186265 ], [ 23919.75, 5915774.325000000186265 ], [ 23919.75, 5915774.174999999813735 ], [ 23919.825, 5915774.174999999813735 ], [ 23919.825, 5915774.099999999627471 ], [ 23919.900000000001455, 5915774.099999999627471 ], [ 23919.900000000001455, 5915773.950000000186265 ], [ 23919.974999999998545, 5915773.950000000186265 ], [ 23919.974999999998545, 5915773.875 ], [ 23920.05, 5915773.875 ], [ 23920.05, 5915773.799999999813735 ], [ 23920.125, 5915773.799999999813735 ], [ 23920.125, 5915773.650000000372529 ], [ 23920.2, 5915773.650000000372529 ], [ 23920.2, 5915773.575000000186265 ], [ 23920.275000000001455, 5915773.575000000186265 ], [ 23920.275000000001455, 5915773.5 ], [ 23920.349999999998545, 5915773.5 ], [ 23920.349999999998545, 5915773.349999999627471 ], [ 23920.425, 5915773.349999999627471 ], [ 23920.425, 5915773.275000000372529 ], [ 23920.5, 5915773.275000000372529 ], [ 23920.5, 5915773.125 ], [ 23920.575, 5915773.125 ], [ 23920.575, 5915772.974999999627471 ], [ 23920.650000000001455, 5915772.974999999627471 ], [ 23920.650000000001455, 5915772.825000000186265 ], [ 23920.724999999998545, 5915772.825000000186265 ], [ 23920.724999999998545, 5915772.674999999813735 ], [ 23920.8, 5915772.674999999813735 ], [ 23920.8, 5915772.450000000186265 ], [ 23920.875, 5915772.450000000186265 ], [ 23920.875, 5915772.299999999813735 ], [ 23920.95, 5915772.299999999813735 ], [ 23920.95, 5915772.075000000186265 ], [ 23921.025000000001455, 5915772.075000000186265 ], [ 23921.025000000001455, 5915771.849999999627471 ], [ 23921.099999999998545, 5915771.849999999627471 ], [ 23921.099999999998545, 5915771.549999999813735 ], [ 23921.175, 5915771.549999999813735 ], [ 23921.175, 5915771.25 ], [ 23921.25, 5915771.25 ], [ 23921.25, 5915770.650000000372529 ], [ 23921.325, 5915770.650000000372529 ], [ 23921.325, 5915769.974999999627471 ], [ 23921.400000000001455, 5915769.974999999627471 ], [ 23921.400000000001455, 5915769.375 ], [ 23921.474999999998545, 5915769.375 ], [ 23921.474999999998545, 5915769.0 ], [ 23921.55, 5915769.0 ], [ 23921.55, 5915768.625 ], [ 23921.625, 5915768.625 ], [ 23921.625, 5915768.325000000186265 ], [ 23921.7, 5915768.325000000186265 ], [ 23921.7, 5915768.025000000372529 ], [ 23921.775000000001455, 5915768.025000000372529 ], [ 23921.775000000001455, 5915767.799999999813735 ], [ 23921.849999999998545, 5915767.799999999813735 ], [ 23921.849999999998545, 5915767.575000000186265 ], [ 23921.925, 5915767.575000000186265 ], [ 23921.925, 5915767.424999999813735 ], [ 23922.0, 5915767.424999999813735 ], [ 23922.0, 5915767.275000000372529 ], [ 23922.075, 5915767.275000000372529 ], [ 23922.075, 5915767.200000000186265 ], [ 23922.150000000001455, 5915767.200000000186265 ], [ 23922.150000000001455, 5915767.125 ], [ 23922.224999999998545, 5915767.125 ], [ 23922.224999999998545, 5915767.049999999813735 ], [ 23922.3, 5915767.049999999813735 ], [ 23922.3, 5915766.974999999627471 ], [ 23922.375, 5915766.974999999627471 ], [ 23922.375, 5915766.825000000186265 ], [ 23922.45, 5915766.825000000186265 ], [ 23922.45, 5915766.75 ], [ 23922.525000000001455, 5915766.75 ], [ 23922.525000000001455, 5915766.674999999813735 ], [ 23922.599999999998545, 5915766.674999999813735 ], [ 23922.599999999998545, 5915766.599999999627471 ], [ 23922.675, 5915766.599999999627471 ], [ 23922.675, 5915766.525000000372529 ], [ 23922.75, 5915766.525000000372529 ], [ 23922.75, 5915766.450000000186265 ], [ 23922.825, 5915766.450000000186265 ], [ 23922.825, 5915766.375 ], [ 23922.900000000001455, 5915766.375 ], [ 23922.900000000001455, 5915766.299999999813735 ], [ 23922.974999999998545, 5915766.299999999813735 ], [ 23922.974999999998545, 5915766.224999999627471 ], [ 23923.05, 5915766.224999999627471 ], [ 23923.05, 5915766.150000000372529 ], [ 23923.125, 5915766.150000000372529 ], [ 23923.125, 5915766.075000000186265 ], [ 23923.2, 5915766.075000000186265 ], [ 23923.2, 5915765.924999999813735 ], [ 23923.275000000001455, 5915765.924999999813735 ], [ 23923.275000000001455, 5915765.849999999627471 ], [ 23923.349999999998545, 5915765.849999999627471 ], [ 23923.349999999998545, 5915765.775000000372529 ], [ 23923.425, 5915765.775000000372529 ], [ 23923.425, 5915765.700000000186265 ], [ 23923.5, 5915765.700000000186265 ], [ 23923.5, 5915765.625 ], [ 23923.575, 5915765.625 ], [ 23923.575, 5915765.549999999813735 ], [ 23923.650000000001455, 5915765.549999999813735 ], [ 23923.650000000001455, 5915765.400000000372529 ], [ 23923.724999999998545, 5915765.400000000372529 ], [ 23923.724999999998545, 5915765.325000000186265 ], [ 23923.8, 5915765.325000000186265 ], [ 23923.8, 5915765.25 ], [ 23923.875, 5915765.25 ], [ 23923.875, 5915765.174999999813735 ], [ 23923.95, 5915765.174999999813735 ], [ 23923.95, 5915765.099999999627471 ], [ 23924.025000000001455, 5915765.099999999627471 ], [ 23924.025000000001455, 5915765.025000000372529 ], [ 23924.099999999998545, 5915765.025000000372529 ], [ 23924.099999999998545, 5915764.950000000186265 ], [ 23924.25, 5915764.950000000186265 ], [ 23924.25, 5915764.875 ], [ 23924.400000000001455, 5915764.875 ], [ 23924.400000000001455, 5915764.799999999813735 ], [ 23924.55, 5915764.799999999813735 ], [ 23924.55, 5915764.724999999627471 ], [ 23924.849999999998545, 5915764.724999999627471 ], [ 23924.849999999998545, 5915764.650000000372529 ], [ 23925.224999999998545, 5915764.650000000372529 ], [ 23925.224999999998545, 5915764.575000000186265 ], [ 23925.675, 5915764.575000000186265 ], [ 23925.675, 5915764.5 ], [ 23927.025000000001455, 5915764.5 ], [ 23927.025000000001455, 5915764.424999999813735 ], [ 23928.224999999998545, 5915764.424999999813735 ], [ 23928.224999999998545, 5915764.5 ], [ 23929.5, 5915764.5 ], [ 23929.5, 5915764.575000000186265 ], [ 23930.175, 5915764.575000000186265 ], [ 23930.175, 5915764.650000000372529 ], [ 23930.325, 5915764.650000000372529 ], [ 23930.325, 5915764.724999999627471 ], [ 23930.474999999998545, 5915764.724999999627471 ], [ 23930.474999999998545, 5915764.799999999813735 ], [ 23930.625, 5915764.799999999813735 ], [ 23930.625, 5915764.875 ], [ 23930.775000000001455, 5915764.875 ], [ 23930.775000000001455, 5915764.950000000186265 ], [ 23930.925, 5915764.950000000186265 ], [ 23930.925, 5915765.025000000372529 ], [ 23931.0, 5915765.025000000372529 ], [ 23931.0, 5915765.099999999627471 ], [ 23931.075, 5915765.099999999627471 ], [ 23931.075, 5915765.174999999813735 ], [ 23931.224999999998545, 5915765.174999999813735 ], [ 23931.224999999998545, 5915765.25 ], [ 23931.3, 5915765.25 ], [ 23931.3, 5915765.325000000186265 ], [ 23931.375, 5915765.325000000186265 ], [ 23931.375, 5915765.400000000372529 ], [ 23931.45, 5915765.400000000372529 ], [ 23931.45, 5915765.549999999813735 ], [ 23931.525000000001455, 5915765.549999999813735 ], [ 23931.525000000001455, 5915765.625 ], [ 23931.599999999998545, 5915765.625 ], [ 23931.599999999998545, 5915765.700000000186265 ], [ 23931.675, 5915765.700000000186265 ], [ 23931.675, 5915765.775000000372529 ], [ 23931.75, 5915765.775000000372529 ], [ 23931.75, 5915765.849999999627471 ], [ 23931.900000000001455, 5915765.849999999627471 ], [ 23931.900000000001455, 5915765.924999999813735 ], [ 23931.974999999998545, 5915765.924999999813735 ], [ 23931.974999999998545, 5915766.0 ], [ 23932.125, 5915766.0 ], [ 23932.125, 5915766.075000000186265 ], [ 23932.349999999998545, 5915766.075000000186265 ], [ 23932.349999999998545, 5915766.150000000372529 ], [ 23932.575, 5915766.150000000372529 ], [ 23932.575, 5915766.224999999627471 ], [ 23932.8, 5915766.224999999627471 ], [ 23932.8, 5915766.299999999813735 ], [ 23933.025000000001455, 5915766.299999999813735 ], [ 23933.025000000001455, 5915766.375 ], [ 23933.25, 5915766.375 ], [ 23933.25, 5915766.450000000186265 ], [ 23933.55, 5915766.450000000186265 ], [ 23933.55, 5915766.525000000372529 ], [ 23933.775000000001455, 5915766.525000000372529 ], [ 23933.775000000001455, 5915766.599999999627471 ], [ 23934.0, 5915766.599999999627471 ], [ 23934.0, 5915766.674999999813735 ], [ 23934.150000000001455, 5915766.674999999813735 ], [ 23934.150000000001455, 5915766.75 ], [ 23934.224999999998545, 5915766.75 ], [ 23934.224999999998545, 5915766.825000000186265 ], [ 23934.375, 5915766.825000000186265 ], [ 23934.375, 5915766.900000000372529 ], [ 23934.45, 5915766.900000000372529 ], [ 23934.45, 5915766.974999999627471 ], [ 23934.525000000001455, 5915766.974999999627471 ], [ 23934.525000000001455, 5915767.049999999813735 ], [ 23934.599999999998545, 5915767.049999999813735 ], [ 23934.599999999998545, 5915767.125 ], [ 23934.675, 5915767.125 ], [ 23934.675, 5915767.200000000186265 ], [ 23934.75, 5915767.200000000186265 ], [ 23934.75, 5915767.275000000372529 ], [ 23934.825, 5915767.275000000372529 ], [ 23934.825, 5915767.424999999813735 ], [ 23934.900000000001455, 5915767.424999999813735 ], [ 23934.900000000001455, 5915767.5 ], [ 23934.974999999998545, 5915767.5 ], [ 23934.974999999998545, 5915767.650000000372529 ], [ 23935.05, 5915767.650000000372529 ], [ 23935.05, 5915767.724999999627471 ], [ 23935.125, 5915767.724999999627471 ], [ 23935.125, 5915767.799999999813735 ], [ 23935.2, 5915767.799999999813735 ], [ 23935.2, 5915767.875 ], [ 23935.275000000001455, 5915767.875 ], [ 23935.275000000001455, 5915767.950000000186265 ], [ 23935.349999999998545, 5915767.950000000186265 ], [ 23935.349999999998545, 5915768.025000000372529 ], [ 23935.425, 5915768.025000000372529 ], [ 23935.425, 5915768.099999999627471 ], [ 23935.5, 5915768.099999999627471 ], [ 23935.5, 5915768.174999999813735 ], [ 23935.575, 5915768.174999999813735 ], [ 23935.575, 5915768.25 ], [ 23935.650000000001455, 5915768.25 ], [ 23935.650000000001455, 5915768.325000000186265 ], [ 23935.8, 5915768.325000000186265 ], [ 23935.8, 5915768.400000000372529 ], [ 23935.95, 5915768.400000000372529 ], [ 23935.95, 5915768.474999999627471 ], [ 23936.099999999998545, 5915768.474999999627471 ], [ 23936.099999999998545, 5915768.549999999813735 ], [ 23936.175, 5915768.549999999813735 ], [ 23936.175, 5915768.625 ], [ 23936.325, 5915768.625 ], [ 23936.325, 5915768.700000000186265 ], [ 23936.474999999998545, 5915768.700000000186265 ], [ 23936.474999999998545, 5915768.775000000372529 ], [ 23936.55, 5915768.775000000372529 ], [ 23936.55, 5915768.849999999627471 ], [ 23936.625, 5915768.849999999627471 ], [ 23936.625, 5915768.924999999813735 ], [ 23936.7, 5915768.924999999813735 ], [ 23936.7, 5915769.0 ], [ 23936.775000000001455, 5915769.0 ], [ 23936.775000000001455, 5915769.075000000186265 ], [ 23936.849999999998545, 5915769.075000000186265 ], [ 23936.849999999998545, 5915769.150000000372529 ], [ 23936.925, 5915769.150000000372529 ], [ 23936.925, 5915769.224999999627471 ], [ 23937.0, 5915769.224999999627471 ], [ 23937.0, 5915769.299999999813735 ], [ 23937.075, 5915769.299999999813735 ], [ 23937.075, 5915769.450000000186265 ], [ 23937.150000000001455, 5915769.450000000186265 ], [ 23937.150000000001455, 5915769.974999999627471 ], [ 23937.075, 5915769.974999999627471 ], [ 23937.075, 5915771.099999999627471 ], [ 23937.0, 5915771.099999999627471 ], [ 23937.0, 5915771.549999999813735 ], [ 23936.925, 5915771.549999999813735 ], [ 23936.925, 5915771.775000000372529 ], [ 23936.849999999998545, 5915771.775000000372529 ], [ 23936.849999999998545, 5915771.924999999813735 ], [ 23936.775000000001455, 5915771.924999999813735 ], [ 23936.775000000001455, 5915772.075000000186265 ], [ 23936.7, 5915772.075000000186265 ], [ 23936.7, 5915772.224999999627471 ], [ 23936.625, 5915772.224999999627471 ], [ 23936.625, 5915772.299999999813735 ], [ 23936.55, 5915772.299999999813735 ], [ 23936.55, 5915772.450000000186265 ], [ 23936.474999999998545, 5915772.450000000186265 ], [ 23936.474999999998545, 5915772.525000000372529 ], [ 23936.400000000001455, 5915772.525000000372529 ], [ 23936.400000000001455, 5915772.674999999813735 ], [ 23936.325, 5915772.674999999813735 ], [ 23936.325, 5915772.75 ], [ 23936.25, 5915772.75 ], [ 23936.25, 5915772.825000000186265 ], [ 23936.175, 5915772.825000000186265 ], [ 23936.175, 5915772.900000000372529 ], [ 23936.099999999998545, 5915772.900000000372529 ], [ 23936.099999999998545, 5915772.974999999627471 ], [ 23936.025000000001455, 5915772.974999999627471 ], [ 23936.025000000001455, 5915773.049999999813735 ], [ 23935.95, 5915773.049999999813735 ], [ 23935.95, 5915773.125 ], [ 23935.875, 5915773.125 ], [ 23935.875, 5915773.200000000186265 ], [ 23935.8, 5915773.200000000186265 ], [ 23935.8, 5915773.275000000372529 ], [ 23935.724999999998545, 5915773.275000000372529 ], [ 23935.724999999998545, 5915773.424999999813735 ], [ 23935.650000000001455, 5915773.424999999813735 ], [ 23935.650000000001455, 5915773.575000000186265 ], [ 23935.575, 5915773.575000000186265 ], [ 23935.575, 5915773.724999999627471 ], [ 23935.5, 5915773.724999999627471 ], [ 23935.5, 5915773.875 ], [ 23935.425, 5915773.875 ], [ 23935.425, 5915774.025000000372529 ], [ 23935.349999999998545, 5915774.025000000372529 ], [ 23935.349999999998545, 5915774.174999999813735 ], [ 23935.275000000001455, 5915774.174999999813735 ], [ 23935.275000000001455, 5915774.400000000372529 ], [ 23935.2, 5915774.400000000372529 ], [ 23935.2, 5915774.549999999813735 ], [ 23935.125, 5915774.549999999813735 ], [ 23935.125, 5915774.700000000186265 ], [ 23935.05, 5915774.700000000186265 ], [ 23935.05, 5915774.849999999627471 ], [ 23934.974999999998545, 5915774.849999999627471 ], [ 23934.974999999998545, 5915775.0 ], [ 23934.900000000001455, 5915775.0 ], [ 23934.900000000001455, 5915775.150000000372529 ], [ 23934.825, 5915775.150000000372529 ], [ 23934.825, 5915775.299999999813735 ], [ 23934.75, 5915775.299999999813735 ], [ 23934.75, 5915775.450000000186265 ], [ 23934.675, 5915775.450000000186265 ], [ 23934.675, 5915775.525000000372529 ], [ 23934.599999999998545, 5915775.525000000372529 ], [ 23934.599999999998545, 5915775.599999999627471 ], [ 23934.525000000001455, 5915775.599999999627471 ], [ 23934.525000000001455, 5915775.674999999813735 ], [ 23934.45, 5915775.674999999813735 ], [ 23934.45, 5915775.75 ], [ 23934.375, 5915775.75 ], [ 23934.375, 5915775.825000000186265 ], [ 23934.3, 5915775.825000000186265 ], [ 23934.3, 5915775.900000000372529 ], [ 23934.224999999998545, 5915775.900000000372529 ], [ 23934.224999999998545, 5915775.974999999627471 ], [ 23934.150000000001455, 5915775.974999999627471 ], [ 23934.150000000001455, 5915776.049999999813735 ], [ 23934.0, 5915776.049999999813735 ], [ 23934.0, 5915776.125 ], [ 23933.925, 5915776.125 ], [ 23933.925, 5915776.200000000186265 ], [ 23933.775000000001455, 5915776.200000000186265 ], [ 23933.775000000001455, 5915776.275000000372529 ], [ 23933.625, 5915776.275000000372529 ], [ 23933.625, 5915776.349999999627471 ], [ 23933.55, 5915776.349999999627471 ], [ 23933.55, 5915776.424999999813735 ], [ 23933.400000000001455, 5915776.424999999813735 ], [ 23933.400000000001455, 5915776.5 ], [ 23933.325, 5915776.5 ], [ 23933.325, 5915776.575000000186265 ], [ 23933.175, 5915776.575000000186265 ], [ 23933.175, 5915776.650000000372529 ], [ 23933.099999999998545, 5915776.650000000372529 ], [ 23933.099999999998545, 5915776.724999999627471 ], [ 23933.025000000001455, 5915776.724999999627471 ], [ 23933.025000000001455, 5915776.799999999813735 ], [ 23932.875, 5915776.799999999813735 ], [ 23932.875, 5915776.875 ], [ 23932.8, 5915776.875 ], [ 23932.8, 5915776.950000000186265 ], [ 23932.724999999998545, 5915776.950000000186265 ], [ 23932.724999999998545, 5915777.025000000372529 ], [ 23932.650000000001455, 5915777.025000000372529 ], [ 23932.650000000001455, 5915777.099999999627471 ], [ 23932.575, 5915777.099999999627471 ], [ 23932.575, 5915777.174999999813735 ], [ 23932.5, 5915777.174999999813735 ], [ 23932.5, 5915777.25 ], [ 23932.425, 5915777.25 ], [ 23932.425, 5915777.325000000186265 ], [ 23932.275000000001455, 5915777.325000000186265 ], [ 23932.275000000001455, 5915777.400000000372529 ], [ 23932.2, 5915777.400000000372529 ], [ 23932.2, 5915777.474999999627471 ], [ 23932.125, 5915777.474999999627471 ], [ 23932.125, 5915777.549999999813735 ], [ 23932.05, 5915777.549999999813735 ], [ 23932.05, 5915777.625 ], [ 23931.900000000001455, 5915777.625 ], [ 23931.900000000001455, 5915777.700000000186265 ], [ 23931.75, 5915777.700000000186265 ], [ 23931.75, 5915777.775000000372529 ], [ 23931.599999999998545, 5915777.775000000372529 ], [ 23931.599999999998545, 5915777.849999999627471 ], [ 23931.45, 5915777.849999999627471 ], [ 23931.45, 5915777.924999999813735 ], [ 23931.3, 5915777.924999999813735 ], [ 23931.3, 5915778.0 ], [ 23931.150000000001455, 5915778.0 ], [ 23931.150000000001455, 5915778.075000000186265 ], [ 23931.0, 5915778.075000000186265 ], [ 23931.0, 5915778.150000000372529 ], [ 23930.775000000001455, 5915778.150000000372529 ], [ 23930.775000000001455, 5915778.224999999627471 ], [ 23930.625, 5915778.224999999627471 ], [ 23930.625, 5915778.299999999813735 ], [ 23930.400000000001455, 5915778.299999999813735 ], [ 23930.400000000001455, 5915778.375 ], [ 23930.175, 5915778.375 ], [ 23930.175, 5915778.450000000186265 ], [ 23930.025000000001455, 5915778.450000000186265 ], [ 23930.025000000001455, 5915778.525000000372529 ], [ 23929.8, 5915778.525000000372529 ], [ 23929.8, 5915778.599999999627471 ], [ 23929.650000000001455, 5915778.599999999627471 ], [ 23929.650000000001455, 5915778.674999999813735 ], [ 23929.5, 5915778.674999999813735 ], [ 23929.5, 5915778.75 ], [ 23929.349999999998545, 5915778.75 ], [ 23929.349999999998545, 5915778.825000000186265 ], [ 23929.2, 5915778.825000000186265 ], [ 23929.2, 5915778.900000000372529 ], [ 23929.125, 5915778.900000000372529 ], [ 23929.125, 5915778.974999999627471 ], [ 23928.974999999998545, 5915778.974999999627471 ], [ 23928.974999999998545, 5915779.049999999813735 ], [ 23928.900000000001455, 5915779.049999999813735 ], [ 23928.900000000001455, 5915779.125 ], [ 23928.75, 5915779.125 ], [ 23928.75, 5915779.200000000186265 ], [ 23928.675, 5915779.200000000186265 ], [ 23928.675, 5915779.275000000372529 ], [ 23928.599999999998545, 5915779.275000000372529 ], [ 23928.599999999998545, 5915779.349999999627471 ], [ 23928.525000000001455, 5915779.349999999627471 ], [ 23928.525000000001455, 5915779.424999999813735 ], [ 23928.375, 5915779.424999999813735 ], [ 23928.375, 5915779.5 ], [ 23928.3, 5915779.5 ], [ 23928.3, 5915779.575000000186265 ], [ 23928.150000000001455, 5915779.575000000186265 ], [ 23928.150000000001455, 5915779.650000000372529 ], [ 23927.849999999998545, 5915779.650000000372529 ], [ 23927.849999999998545, 5915779.724999999627471 ], [ 23927.55, 5915779.724999999627471 ], [ 23927.55, 5915779.799999999813735 ], [ 23927.175, 5915779.799999999813735 ], [ 23927.175, 5915779.875 ], [ 23926.724999999998545, 5915779.875 ], [ 23926.724999999998545, 5915779.950000000186265 ], [ 23926.349999999998545, 5915779.950000000186265 ], [ 23926.349999999998545, 5915780.025000000372529 ], [ 23925.900000000001455, 5915780.025000000372529 ], [ 23925.900000000001455, 5915780.099999999627471 ], [ 23925.45, 5915780.099999999627471 ], [ 23925.45, 5915780.174999999813735 ], [ 23925.0, 5915780.174999999813735 ], [ 23925.0, 5915780.25 ], [ 23924.55, 5915780.25 ], [ 23924.55, 5915780.325000000186265 ], [ 23924.099999999998545, 5915780.325000000186265 ], [ 23924.099999999998545, 5915780.400000000372529 ], [ 23923.5, 5915780.400000000372529 ], [ 23923.5, 5915780.474999999627471 ], [ 23922.974999999998545, 5915780.474999999627471 ], [ 23922.974999999998545, 5915780.549999999813735 ], [ 23922.45, 5915780.549999999813735 ], [ 23922.45, 5915780.625 ], [ 23922.075, 5915780.625 ] ] ] } }
]
}
