{
"type": "FeatureCollection",
"name": "23433E592407N_buildings",
"crs": { "type": "name", "properties": { "name": "urn:ogc:def:crs:EPSG::3776" } },
"features": [
{ "type": "Feature", "properties": { "value": 1.0, "building_id": 0, "area": 444.97124999994901 }, "geometry": { "type": "Polygon", "coordinates": [ [ [ 24172.349999999998545, 5924829.0 ], [ 24172.349999999998545, 5924826.0 ], [ 24172.2, 5924826.0 ], [ 24172.2, 5924825.924999999813735 ], [ 24171.900000000001455, 5924825.924999999813735 ], [ 24171.900000000001455, 5924825.849999999627471 ], [ 24171.599999999998545, 5924825.849999999627471 ], [ 24171.599999999998545, 5924825.775000000372529 ], [ 24171.3, 5924825.775000000372529 ], [ 24171.3, 5924825.700000000186265 ], [ 24171.075, 5924825.700000000186265 ], [ 24171.075, 5924825.625 ], [ 24170.849999999998545, 5924825.625 ], [ 24170.849999999998545, 5924825.549999999813735 ], [ 24170.625, 5924825.549999999813735 ], [ 24170.625, 5924825.474999999627471 ], [ 24170.400000000001455, 5924825.474999999627471 ], [ 24170.400000000001455, 5924825.400000000372529 ], [ 24170.099999999998545, 5924825.400000000372529 ], [ 24170.099999999998545, 5924825.325000000186265 ], [ 24169.875, 5924825.325000000186265 ], [ 24169.875, 5924825.25 ], [ 24169.724999999998545, 5924825.25 ], [ 24169.724999999998545, 5924825.174999999813735 ], [ 24169.5, 5924825.174999999813735 ], [ 24169.5, 5924825.099999999627471 ], [ 24169.349999999998545, 5924825.099999999627471 ], [ 24169.349999999998545, 5924825.025000000372529 ], [ 24169.275000000001455, 5924825.025000000372529 ], [ 24169.275000000001455, 5924824.950000000186265 ], [ 24169.125, 5924824.950000000186265 ], [ 24169.125, 5924824.875 ], [ 24169.05, 5924824.875 ], [ 24169.05, 5924824.799999999813735 ], [ 24168.974999999998545, 5924824.799999999813735 ], [ 24168.974999999998545, 5924824.724999999627471 ], [ 24168.900000000001455, 5924824.724999999627471 ], [ 24168.900000000001455, 5924824.650000000372529 ], [ 24168.825, 5924824.650000000372529 ], [ 24168.825, 5924824.575000000186265 ], [ 24168.75, 5924824.575000000186265 ], [ 24168.75, 5924824.424999999813735 ], [ 24168.675, 5924824.424999999813735 ], [ 24168.675, 5924824.349999999627471 ], [ 24168.599999999998545, 5924824.349999999627471 ], [ 24168.599999999998545, 5924824.200000000186265 ], [ 24168.525000000001455, 5924824.200000000186265 ], [ 24168.525000000001455, 5924824.125 ], [ 24168.45, 5924824.125 ], [ 24168.45, 5924824.049999999813735 ], [ 24168.224999999998545, 5924824.049999999813735 ], [ 24168.224999999998545, 5924823.974999999627471 ], [ 24167.775000000001455, 5924823.974999999627471 ], [ 24167.775000000001455, 5924823.900000000372529 ], [ 24167.474999999998545, 5924823.900000000372529 ], [ 24167.474999999998545, 5924823.825000000186265 ], [ 24167.099999999998545, 5924823.825000000186265 ], [ 24167.099999999998545, 5924823.75 ], [ 24166.650000000001455, 5924823.75 ], [ 24166.650000000001455, 5924823.674999999813735 ], [ 24166.349999999998545, 5924823.674999999813735 ], [ 24166.349999999998545, 5924823.599999999627471 ], [ 24166.125, 5924823.599999999627471 ], [ 24166.125, 5924823.525000000372529 ], [ 24165.900000000001455, 5924823.525000000372529 ], [ 24165.900000000001455, 5924823.450000000186265 ], [ 24165.675, 5924823.450000000186265 ], [ 24165.675, 5924823.375 ], [ 24165.525000000001455, 5924823.375 ], [ 24165.525000000001455, 5924823.299999999813735 ], [ 24165.3, 5924823.299999999813735 ], [ 24165.3, 5924823.224999999627471 ], [ 24165.150000000001455, 5924823.224999999627471 ], [ 24165.150000000001455, 5924823.150000000372529 ], [ 24164.925, 5924823.150000000372529 ], [ 24164.925, 5924823.075000000186265 ], [ 24164.775000000001455, 5924823.075000000186265 ], [ 24164.775000000001455, 5924823.0 ], [ 24164.625, 5924823.0 ], [ 24164.625, 5924822.924999999813735 ], [ 24164.474999999998545, 5924822.924999999813735 ], [ 24164.474999999998545, 5924822.849999999627471 ], [ 24164.25, 5924822.849999999627471 ], [ 24164.25, 5924822.775000000372529 ], [ 24164.099999999998545, 5924822.775000000372529 ], [ 24164.099999999998545, 5924822.700000000186265 ], [ 24163.95, 5924822.700000000186265 ], [ 24163.95, 5924822.625 ], [ 24163.8, 5924822.625 ], [ 24163.8, 5924822.549999999813735 ], [ 24163.650000000001455, 5924822.549999999813735 ], [ 24163.650000000001455, 5924822.474999999627471 ], [ 24163.5, 5924822.474999999627471 ], [ 24163.5, 5924822.400000000372529 ], [ 24163.349999999998545, 5924822.400000000372529 ], [ 24163.349999999998545, 5924822.325000000186265 ], [ 24163.275000000001455, 5924822.325000000186265 ], [ 24163.275000000001455, 5924822.25 ], [ 24163.125, 5924822.25 ], [ 24163.125, 5924822.174999999813735 ], [ 24163.05, 5924822.174999999813735 ], [ 24163.05, 5924822.099999999627471 ], [ 24162.900000000001455, 5924822.099999999627471 ], [ 24162.900000000001455, 5924822.025000000372529 ], [ 24162.75, 5924822.025000000372529 ], [ 24162.75, 5924821.950000000186265 ], [ 24162.599999999998545, 5924821.950000000186265 ], [ 24162.599999999998545, 5924821.875 ], [ 24162.3, 5924821.875 ], [ 24162.3, 5924821.799999999813735 ], [ 24162.150000000001455, 5924821.799999999813735 ], [ 24162.150000000001455, 5924821.724999999627471 ], [ 24162.0, 5924821.724999999627471 ], [ 24162.0, 5924821.650000000372529 ], [ 24161.849999999998545, 5924821.650000000372529 ], [ 24161.849999999998545, 5924821.575000000186265 ], [ 24161.775000000001455, 5924821.575000000186265 ], [ 24161.775000000001455, 5924821.5 ], [ 24161.625, 5924821.5 ], [ 24161.625, 5924821.424999999813735 ], [ 24161.55, 5924821.424999999813735 ], [ 24161.55, 5924821.349999999627471 ], [ 24161.474999999998545, 5924821.349999999627471 ], [ 24161.474999999998545, 5924821.275000000372529 ], [ 24161.400000000001455, 5924821.275000000372529 ], [ 24161.400000000001455, 5924821.200000000186265 ], [ 24161.325, 5924821.200000000186265 ], [ 24161.325, 5924821.049999999813735 ], [ 24161.25, 5924821.049999999813735 ], [ 24161.25, 5924820.974999999627471 ], [ 24161.175, 5924820.974999999627471 ], [ 24161.175, 5924820.825000000186265 ], [ 24161.099999999998545, 5924820.825000000186265 ], [ 24161.099999999998545, 5924820.674999999813735 ], [ 24161.025000000001455, 5924820.674999999813735 ], [ 24161.025000000001455, 5924820.525000000372529 ], [ 24160.95, 5924820.525000000372529 ], [ 24160.95, 5924820.299999999813735 ], [ 24160.875, 5924820.299999999813735 ], [ 24160.875, 5924820.150000000372529 ], [ 24160.8, 5924820.150000000372529 ], [ 24160.8, 5924820.075000000186265 ], [ 24160.724999999998545, 5924820.075000000186265 ], [ 24160.724999999998545, 5924820.0 ], [ 24160.650000000001455, 5924820.0 ], [ 24160.650000000001455, 5924819.924999999813735 ], [ 24160.575, 5924819.924999999813735 ], [ 24160.575, 5924819.849999999627471 ], [ 24160.5, 5924819.849999999627471 ], [ 24160.5, 5924819.775000000372529 ], [ 24160.349999999998545, 5924819.775000000372529 ], [ 24160.349999999998545, 5924819.700000000186265 ], [ 24160.275000000001455, 5924819.700000000186265 ], [ 24160.275000000001455, 5924819.625 ], [ 24160.2, 5924819.625 ], [ 24160.2, 5924819.549999999813735 ], [ 24160.125, 5924819.549999999813735 ], [ 24160.125, 5924819.474999999627471 ], [ 24159.974999999998545, 5924819.474999999627471 ], [ 24159.974999999998545, 5924819.325000000186265 ], [ 24159.900000000001455, 5924819.325000000186265 ], [ 24159.900000000001455, 5924819.25 ], [ 24159.825, 5924819.25 ], [ 24159.825, 5924819.174999999813735 ], [ 24159.75, 5924819.174999999813735 ], [ 24159.75, 5924819.099999999627471 ], [ 24159.675, 5924819.099999999627471 ], [ 24159.675, 5924818.950000000186265 ], [ 24159.599999999998545, 5924818.950000000186265 ], [ 24159.599999999998545, 5924818.875 ], [ 24159.525000000001455, 5924818.875 ], [ 24159.525000000001455, 5924818.724999999627471 ], [ 24159.45, 5924818.724999999627471 ], [ 24159.45, 5924818.575000000186265 ], [ 24159.375, 5924818.575000000186265 ], [ 24159.375, 5924818.349999999627471 ], [ 24159.3, 5924818.349999999627471 ], [ 24159.3, 5924818.125 ], [ 24159.224999999998545, 5924818.125 ], [ 24159.224999999998545, 5924817.900000000372529 ], [ 24159.150000000001455, 5924817.900000000372529 ], [ 24159.150000000001455, 5924817.674999999813735 ], [ 24159.075, 5924817.674999999813735 ], [ 24159.075, 5924817.450000000186265 ], [ 24159.0, 5924817.450000000186265 ], [ 24159.0, 5924817.299999999813735 ], [ 24158.925, 5924817.299999999813735 ], [ 24158.925, 5924817.075000000186265 ], [ 24158.849999999998545, 5924817.075000000186265 ], [ 24158.849999999998545, 5924816.924999999813735 ], [ 24158.775000000001455, 5924816.924999999813735 ], [ 24158.775000000001455, 5924816.775000000372529 ], [ 24158.7, 5924816.775000000372529 ], [ 24158.7, 5924816.700000000186265 ], [ 24158.625, 5924816.700000000186265 ], [ 24158.625, 5924816.549999999813735 ], [ 24158.55, 5924816.549999999813735 ], [ 24158.55, 5924816.400000000372529 ], [ 24158.474999999998545, 5924816.400000000372529 ], [ 24158.474999999998545, 5924815.875 ], [ 24158.55, 5924815.875 ], [ 24158.55, 5924815.5 ], [ 24158.625, 5924815.5 ], [ 24158.625, 5924815.125 ], [ 24158.7, 5924815.125 ], [ 24158.7, 5924814.75 ], [ 24158.775000000001455, 5924814.75 ], [ 24158.775000000001455, 5924814.299999999813735 ], [ 24158.849999999998545, 5924814.299999999813735 ], [ 24158.849999999998545, 5924813.775000000372529 ], [ 24158.925, 5924813.775000000372529 ], [ 24158.925, 5924813.25 ], [ 24159.0, 5924813.25 ], [ 24159.0, 5924812.650000000372529 ], [ 24159.075, 5924812.650000000372529 ], [ 24159.075, 5924811.974999999627471 ], [ 24159.150000000001455, 5924811.974999999627471 ], [ 24159.150000000001455, 5924811.150000000372529 ], [ 24159.224999999998545, 5924811.150000000372529 ], [ 24159.224999999998545, 5924810.400000000372529 ], [ 24159.3, 5924810.400000000372529 ], [ 24159.3, 5924810.174999999813735 ], [ 24159.375, 5924810.174999999813735 ], [ 24159.375, 5924810.025000000372529 ], [ 24159.45, 5924810.025000000372529 ], [ 24159.45, 5924809.799999999813735 ], [ 24159.525000000001455, 5924809.799999999813735 ], [ 24159.525000000001455, 5924809.650000000372529 ], [ 24159.599999999998545, 5924809.650000000372529 ], [ 24159.599999999998545, 5924809.5 ], [ 24159.675, 5924809.5 ], [ 24159.675, 5924809.349999999627471 ], [ 24159.75, 5924809.349999999627471 ], [ 24159.75, 5924809.200000000186265 ], [ 24159.825, 5924809.200000000186265 ], [ 24159.825, 5924809.125 ], [ 24159.900000000001455, 5924809.125 ], [ 24159.900000000001455, 5924808.974999999627471 ], [ 24159.974999999998545, 5924808.974999999627471 ], [ 24159.974999999998545, 5924808.900000000372529 ], [ 24160.05, 5924808.900000000372529 ], [ 24160.05, 5924808.75 ], [ 24160.125, 5924808.75 ], [ 24160.125, 5924808.674999999813735 ], [ 24160.2, 5924808.674999999813735 ], [ 24160.2, 5924808.599999999627471 ], [ 24160.275000000001455, 5924808.599999999627471 ], [ 24160.275000000001455, 5924808.450000000186265 ], [ 24160.349999999998545, 5924808.450000000186265 ], [ 24160.349999999998545, 5924808.375 ], [ 24160.425, 5924808.375 ], [ 24160.425, 5924808.299999999813735 ], [ 24160.5, 5924808.299999999813735 ], [ 24160.5, 5924808.150000000372529 ], [ 24160.575, 5924808.150000000372529 ], [ 24160.575, 5924808.075000000186265 ], [ 24160.650000000001455, 5924808.075000000186265 ], [ 24160.650000000001455, 5924808.0 ], [ 24160.724999999998545, 5924808.0 ], [ 24160.724999999998545, 5924807.849999999627471 ], [ 24160.8, 5924807.849999999627471 ], [ 24160.8, 5924807.775000000372529 ], [ 24160.875, 5924807.775000000372529 ], [ 24160.875, 5924807.700000000186265 ], [ 24160.95, 5924807.700000000186265 ], [ 24160.95, 5924807.625 ], [ 24161.025000000001455, 5924807.625 ], [ 24161.025000000001455, 5924807.549999999813735 ], [ 24161.099999999998545, 5924807.549999999813735 ], [ 24161.099999999998545, 5924807.474999999627471 ], [ 24161.25, 5924807.474999999627471 ], [ 24161.25, 5924807.400000000372529 ], [ 24161.474999999998545, 5924807.400000000372529 ], [ 24161.474999999998545, 5924807.325000000186265 ], [ 24161.7, 5924807.325000000186265 ], [ 24161.7, 5924807.25 ], [ 24161.925, 5924807.25 ], [ 24161.925, 5924807.174999999813735 ], [ 24162.224999999998545, 5924807.174999999813735 ], [ 24162.224999999998545, 5924807.099999999627471 ], [ 24162.525000000001455, 5924807.099999999627471 ], [ 24162.525000000001455, 5924807.025000000372529 ], [ 24162.75, 5924807.025000000372529 ], [ 24162.75, 5924806.950000000186265 ], [ 24162.900000000001455, 5924806.950000000186265 ], [ 24162.900000000001455, 5924806.875 ], [ 24162.974999999998545, 5924806.875 ], [ 24162.974999999998545, 5924806.799999999813735 ], [ 24163.125, 5924806.799999999813735 ], [ 24163.125, 5924806.724999999627471 ], [ 24163.275000000001455, 5924806.724999999627471 ], [ 24163.275000000001455, 5924806.650000000372529 ], [ 24163.349999999998545, 5924806.650000000372529 ], [ 24163.349999999998545, 5924806.575000000186265 ], [ 24163.425, 5924806.575000000186265 ], [ 24163.425, 5924806.5 ], [ 24163.575, 5924806.5 ], [ 24163.575, 5924806.424999999813735 ], [ 24163.650000000001455, 5924806.424999999813735 ], [ 24163.650000000001455, 5924806.349999999627471 ], [ 24163.8, 5924806.349999999627471 ], [ 24163.8, 5924806.275000000372529 ], [ 24163.875, 5924806.275000000372529 ], [ 24163.875, 5924806.200000000186265 ], [ 24164.025000000001455, 5924806.200000000186265 ], [ 24164.025000000001455, 5924806.125 ], [ 24164.175, 5924806.125 ], [ 24164.175, 5924806.049999999813735 ], [ 24164.325, 5924806.049999999813735 ], [ 24164.325, 5924805.974999999627471 ], [ 24164.55, 5924805.974999999627471 ], [ 24164.55, 5924805.900000000372529 ], [ 24164.849999999998545, 5924805.900000000372529 ], [ 24164.849999999998545, 5924805.825000000186265 ], [ 24165.150000000001455, 5924805.825000000186265 ], [ 24165.150000000001455, 5924805.75 ], [ 24165.45, 5924805.75 ], [ 24165.45, 5924805.674999999813735 ], [ 24165.825, 5924805.674999999813735 ], [ 24165.825, 5924805.599999999627471 ], [ 24166.2, 5924805.599999999627471 ], [ 24166.2, 5924805.525000000372529 ], [ 24166.724999999998545, 5924805.525000000372529 ], [ 24166.724999999998545, 5924805.450000000186265 ], [ 24167.25, 5924805.450000000186265 ], [ 24167.25, 5924805.375 ], [ 24167.775000000001455, 5924805.375 ], [ 24167.775000000001455, 5924805.299999999813735 ], [ 24168.375, 5924805.299999999813735 ], [ 24168.375, 5924805.224999999627471 ], [ 24168.825, 5924805.224999999627471 ], [ 24168.825, 5924805.150000000372529 ], [ 24169.275000000001455, 5924805.150000000372529 ], [ 24169.275000000001455, 5924805.075000000186265 ], [ 24169.724999999998545, 5924805.075000000186265 ], [ 24169.724999999998545, 5924805.0 ], [ 24170.099999999998545, 5924805.0 ], [ 24170.099999999998545, 5924804.924999999813735 ], [ 24171.525000000001455, 5924804.924999999813735 ], [ 24171.525000000001455, 5924805.0 ], [ 24172.5, 5924805.0 ], [ 24172.5, 5924805.075000000186265 ], [ 24172.724999999998545, 5924805.075000000186265 ], [ 24172.724999999998545, 5924805.150000000372529 ], [ 24173.025000000001455, 5924805.150000000372529 ], [ 24173.025000000001455, 5924805.224999999627471 ], [ 24173.25, 5924805.224999999627471 ], [ 24173.25, 5924805.299999999813735 ], [ 24173.474999999998545, 5924805.299999999813735 ], [ 24173.474999999998545, 5924805.375 ], [ 24173.7, 5924805.375 ], [ 24173.7, 5924805.450000000186265 ], [ 24173.849999999998545, 5924805.450000000186265 ], [ 24173.849999999998545, 5924805.525000000372529 ], [ 24174.075, 5924805.525000000372529 ], [ 24174.075, 5924805.599999999627471 ], [ 24174.224999999998545, 5924805.599999999627471 ], [ 24174.224999999998545, 5924805.674999999813735 ], [ 24174.375, 5924805.674999999813735 ], [ 24174.375, 5924805.75 ], [ 24174.45, 5924805.75 ], [ 24174.45, 5924805.825000000186265 ], [ 24174.599999999998545, 5924805.825000000186265 ], [ 24174.599999999998545, 5924805.900000000372529 ], [ 24174.675, 5924805.900000000372529 ], [ 24174.675, 5924805.974999999627471 ], [ 24174.825, 5924805.974999999627471 ], [ 24174.825, 5924806.049999999813735 ], [ 24174.900000000001455, 5924806.049999999813735 ], [ 24174.900000000001455, 5924806.125 ], [ 24174.974999999998545, 5924806.125 ], [ 24174.974999999998545, 5924806.200000000186265 ], [ 24175.05, 5924806.200000000186265 ], [ 24175.05, 5924806.275000000372529 ], [ 24175.125, 5924806.275000000372529 ], [ 24175.125, 5924806.349999999627471 ], [ 24175.2, 5924806.349999999627471 ], [ 24175.2, 5924806.424999999813735 ], [ 24175.275000000001455, 5924806.424999999813735 ], [ 24175.275000000001455, 5924806.5 ], [ 24175.349999999998545, 5924806.5 ], [ 24175.349999999998545, 5924806.575000000186265 ], [ 24175.425, 5924806.575000000186265 ], [ 24175.425, 5924806.650000000372529 ], [ 24175.5, 5924806.650000000372529 ], [ 24175.5, 5924806.724999999627471 ], [ 24175.575, 5924806.724999999627471 ], [ 24175.575, 5924806.799999999813735 ], [ 24175.724999999998545, 5924806.799999999813735 ], [ 24175.724999999998545, 5924806.875 ], [ 24175.8, 5924806.875 ], [ 24175.8, 5924806.950000000186265 ], [ 24175.875, 5924806.950000000186265 ], [ 24175.875, 5924807.025000000372529 ], [ 24176.025000000001455, 5924807.025000000372529 ], [ 24176.025000000001455, 5924807.099999999627471 ], [ 24176.099999999998545, 5924807.099999999627471 ], [ 24176.099999999998545, 5924807.174999999813735 ], [ 24176.25, 5924807.174999999813735 ], [ 24176.25, 5924807.25 ], [ 24176.325, 5924807.25 ], [ 24176.325, 5924807.325000000186265 ], [ 24176.474999999998545, 5924807.325000000186265 ], [ 24176.474999999998545, 5924807.400000000372529 ], [ 24176.55, 5924807.400000000372529 ], [ 24176.55, 5924807.474999999627471 ], [ 24176.625, 5924807.474999999627471 ], [ 24176.625, 5924807.549999999813735 ], [ 24176.7, 5924807.549999999813735 ], [ 24176.7, 5924807.625 ], [ 24176.775000000001455, 5924807.625 ], [ 24176.775000000001455, 5924807.700000000186265 ], [ 24176.849999999998545, 5924807.700000000186265 ], [ 24176.849999999998545, 5924807.775000000372529 ], [ 24176.925, 5924807.775000000372529 ], [ 24176.925, 5924807.924999999813735 ], [ 24177.0, 5924807.924999999813735 ], [ 24177.0, 5924808.0 ], [ 24177.075, 5924808.0 ], [ 24177.075, 5924808.075000000186265 ], [ 24177.150000000001455, 5924808.075000000186265 ], [ 24177.150000000001455, 5924808.224999999627471 ], [ 24177.224999999998545, 5924808.224999999627471 ], [ 24177.224999999998545, 5924808.375 ], [ 24177.3, 5924808.375 ], [ 24177.3, 5924808.525000000372529 ], [ 24177.375, 5924808.525000000372529 ], [ 24177.375, 5924808.599999999627471 ], [ 24177.45, 5924808.599999999627471 ], [ 24177.45, 5924808.674999999813735 ], [ 24177.525000000001455, 5924808.674999999813735 ], [ 24177.525000000001455, 5924808.825000000186265 ], [ 24177.599999999998545, 5924808.825000000186265 ], [ 24177.599999999998545, 5924808.900000000372529 ], [ 24177.675, 5924808.900000000372529 ], [ 24177.675, 5924808.974999999627471 ], [ 24177.75, 5924808.974999999627471 ], [ 24177.75, 5924809.049999999813735 ], [ 24177.900000000001455, 5924809.049999999813735 ], [ 24177.900000000001455, 5924809.125 ], [ 24177.974999999998545, 5924809.125 ], [ 24177.974999999998545, 5924809.200000000186265 ], [ 24178.05, 5924809.200000000186265 ], [ 24178.05, 5924809.275000000372529 ], [ 24178.2, 5924809.275000000372529 ], [ 24178.2, 5924809.349999999627471 ], [ 24178.349999999998545, 5924809.349999999627471 ], [ 24178.349999999998545, 5924809.424999999813735 ], [ 24178.5, 5924809.424999999813735 ], [ 24178.5, 5924809.5 ], [ 24178.650000000001455, 5924809.5 ], [ 24178.650000000001455, 5924809.575000000186265 ], [ 24178.8, 5924809.575000000186265 ], [ 24178.8, 5924809.650000000372529 ], [ 24178.875, 5924809.650000000372529 ], [ 24178.875, 5924809.724999999627471 ], [ 24179.025000000001455, 5924809.724999999627471 ], [ 24179.025000000001455, 5924809.799999999813735 ], [ 24179.099999999998545, 5924809.799999999813735 ], [ 24179.099999999998545, 5924809.875 ], [ 24179.175, 5924809.875 ], [ 24179.175, 5924809.950000000186265 ], [ 24179.325, 5924809.950000000186265 ], [ 24179.325, 5924810.025000000372529 ], [ 24179.400000000001455, 5924810.025000000372529 ], [ 24179.400000000001455, 5924810.099999999627471 ], [ 24179.474999999998545, 5924810.099999999627471 ], [ 24179.474999999998545, 5924810.174999999813735 ], [ 24179.55, 5924810.174999999813735 ], [ 24179.55, 5924810.25 ], [ 24179.625, 5924810.25 ], [ 24179.625, 5924810.325000000186265 ], [ 24179.7, 5924810.325000000186265 ], [ 24179.7, 5924810.400000000372529 ], [ 24179.775000000001455, 5924810.400000000372529 ], [ 24179.775000000001455, 5924810.474999999627471 ], [ 24179.849999999998545, 5924810.474999999627471 ], [ 24179.849999999998545, 5924810.549999999813735 ], [ 24179.925, 5924810.549999999813735 ], [ 24179.925, 5924810.625 ], [ 24183.0, 5924810.625 ], [ 24183.0, 5924829.0 ], [ 24172.349999999998545, 5924829.0 ] ] ] } },
{ "type": "Feature", "properties": { "value": 1.0, "building_id": 1, "area": 564.45187499835072 }, "geometry": { "type": "Polygon", "coordinates": [ [ [ 23968.95, 5924661.075000000186265 ], [ 23968.95, 5924661.0 ], [ 23968.575, 5924661.0 ], [ 23968.575, 5924660.924999999813735 ], [ 23968.125, 5924660.924999999813735 ], [ 23968.125, 5924660.849999999627471 ], [ 23967.675, 5924660.849999999627471 ], [ 23967.675, 5924660.775000000372529 ], [ 23967.150000000001455, 5924660.775000000372529 ], [ 23967.150000000001455, 5924660.700000000186265 ], [ 23967.075, 5924660.700000000186265 ], [ 23967.075, 5924660.625 ], [ 23966.925, 5924660.625 ], [ 23966.925, 5924660.549999999813735 ], [ 23966.849999999998545, 5924660.549999999813735 ], [ 23966.849999999998545, 5924660.474999999627471 ], [ 23966.775000000001455, 5924660.474999999627471 ], [ 23966.775000000001455, 5924660.400000000372529 ], [ 23966.7, 5924660.400000000372529 ], [ 23966.7, 5924660.325000000186265 ], [ 23966.625, 5924660.325000000186265 ], [ 23966.625, 5924660.25 ], [ 23966.55, 5924660.25 ], [ 23966.55, 5924660.174999999813735 ], [ 23966.474999999998545, 5924660.174999999813735 ], [ 23966.474999999998545, 5924660.099999999627471 ], [ 23966.400000000001455, 5924660.099999999627471 ], [ 23966.400000000001455, 5924659.875 ], [ 23966.325, 5924659.875 ], [ 23966.325, 5924659.724999999627471 ], [ 23966.25, 5924659.724999999627471 ], [ 23966.25, 5924659.575000000186265 ], [ 23966.175, 5924659.575000000186265 ], [ 23966.175, 5924659.424999999813735 ], [ 23966.099999999998545, 5924659.424999999813735 ], [ 23966.099999999998545, 5924659.349999999627471 ], [ 23966.025000000001455, 5924659.349999999627471 ], [ 23966.025000000001455, 5924659.200000000186265 ], [ 23965.95, 5924659.200000000186265 ], [ 23965.95, 5924659.049999999813735 ], [ 23965.875, 5924659.049999999813735 ], [ 23965.875, 5924658.900000000372529 ], [ 23965.8, 5924658.900000000372529 ], [ 23965.8, 5924658.75 ], [ 23965.724999999998545, 5924658.75 ], [ 23965.724999999998545, 5924658.599999999627471 ], [ 23965.650000000001455, 5924658.599999999627471 ], [ 23965.650000000001455, 5924658.525000000372529 ], [ 23965.575, 5924658.525000000372529 ], [ 23965.575, 5924658.375 ], [ 23965.5, 5924658.375 ], [ 23965.5, 5924658.224999999627471 ], [ 23965.425, 5924658.224999999627471 ], [ 23965.425, 5924658.075000000186265 ], [ 23965.349999999998545, 5924658.075000000186265 ], [ 23965.349999999998545, 5924657.849999999627471 ], [ 23965.275000000001455, 5924657.849999999627471 ], [ 23965.275000000001455, 5924657.549999999813735 ], [ 23965.2, 5924657.549999999813735 ], [ 23965.2, 5924657.474999999627471 ], [ 23965.125, 5924657.474999999627471 ], [ 23965.125, 5924657.325000000186265 ], [ 23965.05, 5924657.325000000186265 ], [ 23965.05, 5924656.875 ], [ 23964.974999999998545, 5924656.875 ], [ 23964.974999999998545, 5924656.349999999627471 ], [ 23964.900000000001455, 5924656.349999999627471 ], [ 23964.900000000001455, 5924655.900000000372529 ], [ 23964.825, 5924655.900000000372529 ], [ 23964.825, 5924655.525000000372529 ], [ 23964.75, 5924655.525000000372529 ], [ 23964.75, 5924654.924999999813735 ], [ 23964.675, 5924654.924999999813735 ], [ 23964.675, 5924654.25 ], [ 23964.599999999998545, 5924654.25 ], [ 23964.599999999998545, 5924654.174999999813735 ], [ 23964.675, 5924654.174999999813735 ], [ 23964.675, 5924652.450000000186265 ], [ 23964.75, 5924652.450000000186265 ], [ 23964.75, 5924651.924999999813735 ], [ 23964.825, 5924651.924999999813735 ], [ 23964.825, 5924651.549999999813735 ], [ 23964.900000000001455, 5924651.549999999813735 ], [ 23964.900000000001455, 5924651.174999999813735 ], [ 23964.974999999998545, 5924651.174999999813735 ], [ 23964.974999999998545, 5924650.875 ], [ 23965.05, 5924650.875 ], [ 23965.05, 5924650.575000000186265 ], [ 23965.125, 5924650.575000000186265 ], [ 23965.125, 5924650.200000000186265 ], [ 23965.2, 5924650.200000000186265 ], [ 23965.2, 5924649.825000000186265 ], [ 23965.275000000001455, 5924649.825000000186265 ], [ 23965.275000000001455, 5924649.375 ], [ 23965.349999999998545, 5924649.375 ], [ 23965.349999999998545, 5924648.775000000372529 ], [ 23965.425, 5924648.775000000372529 ], [ 23965.425, 5924648.174999999813735 ], [ 23965.5, 5924648.174999999813735 ], [ 23965.5, 5924647.275000000372529 ], [ 23965.575, 5924647.275000000372529 ], [ 23965.575, 5924646.375 ], [ 23965.650000000001455, 5924646.375 ], [ 23965.650000000001455, 5924645.474999999627471 ], [ 23965.724999999998545, 5924645.474999999627471 ], [ 23965.724999999998545, 5924644.575000000186265 ], [ 23965.8, 5924644.575000000186265 ], [ 23965.8, 5924643.974999999627471 ], [ 23965.875, 5924643.974999999627471 ], [ 23965.875, 5924643.450000000186265 ], [ 23965.95, 5924643.450000000186265 ], [ 23965.95, 5924642.924999999813735 ], [ 23966.025000000001455, 5924642.924999999813735 ], [ 23966.025000000001455, 5924642.474999999627471 ], [ 23966.099999999998545, 5924642.474999999627471 ], [ 23966.099999999998545, 5924642.325000000186265 ], [ 23966.175, 5924642.325000000186265 ], [ 23966.175, 5924642.099999999627471 ], [ 23966.25, 5924642.099999999627471 ], [ 23966.25, 5924641.950000000186265 ], [ 23966.325, 5924641.950000000186265 ], [ 23966.325, 5924641.875 ], [ 23966.400000000001455, 5924641.875 ], [ 23966.400000000001455, 5924641.724999999627471 ], [ 23966.474999999998545, 5924641.724999999627471 ], [ 23966.474999999998545, 5924641.650000000372529 ], [ 23966.55, 5924641.650000000372529 ], [ 23966.55, 5924641.5 ], [ 23966.625, 5924641.5 ], [ 23966.625, 5924641.424999999813735 ], [ 23966.7, 5924641.424999999813735 ], [ 23966.7, 5924641.349999999627471 ], [ 23966.775000000001455, 5924641.349999999627471 ], [ 23966.775000000001455, 5924641.275000000372529 ], [ 23966.849999999998545, 5924641.275000000372529 ], [ 23966.849999999998545, 5924641.200000000186265 ], [ 23966.925, 5924641.200000000186265 ], [ 23966.925, 5924641.125 ], [ 23967.075, 5924641.125 ], [ 23967.075, 5924641.049999999813735 ], [ 23967.150000000001455, 5924641.049999999813735 ], [ 23967.150000000001455, 5924640.974999999627471 ], [ 23967.224999999998545, 5924640.974999999627471 ], [ 23967.224999999998545, 5924640.900000000372529 ], [ 23967.3, 5924640.900000000372529 ], [ 23967.3, 5924640.825000000186265 ], [ 23967.375, 5924640.825000000186265 ], [ 23967.375, 5924640.75 ], [ 23967.45, 5924640.75 ], [ 23967.45, 5924640.674999999813735 ], [ 23967.525000000001455, 5924640.674999999813735 ], [ 23967.525000000001455, 5924640.525000000372529 ], [ 23967.599999999998545, 5924640.525000000372529 ], [ 23967.599999999998545, 5924640.450000000186265 ], [ 23967.675, 5924640.450000000186265 ], [ 23967.675, 5924640.299999999813735 ], [ 23967.75, 5924640.299999999813735 ], [ 23967.75, 5924640.150000000372529 ], [ 23967.825, 5924640.150000000372529 ], [ 23967.825, 5924640.075000000186265 ], [ 23967.900000000001455, 5924640.075000000186265 ], [ 23967.900000000001455, 5924640.0 ], [ 23967.974999999998545, 5924640.0 ], [ 23967.974999999998545, 5924639.849999999627471 ], [ 23968.05, 5924639.849999999627471 ], [ 23968.05, 5924639.775000000372529 ], [ 23968.125, 5924639.775000000372529 ], [ 23968.125, 5924639.700000000186265 ], [ 23968.2, 5924639.700000000186265 ], [ 23968.2, 5924639.625 ], [ 23968.275000000001455, 5924639.625 ], [ 23968.275000000001455, 5924639.549999999813735 ], [ 23968.349999999998545, 5924639.549999999813735 ], [ 23968.349999999998545, 5924639.474999999627471 ], [ 23968.425, 5924639.474999999627471 ], [ 23968.425, 5924639.400000000372529 ], [ 23968.5, 5924639.400000000372529 ], [ 23968.5, 5924639.325000000186265 ], [ 23968.650000000001455, 5924639.325000000186265 ], [ 23968.650000000001455, 5924639.25 ], [ 23968.724999999998545, 5924639.25 ], [ 23968.724999999998545, 5924639.174999999813735 ], [ 23968.875, 5924639.174999999813735 ], [ 23968.875, 5924639.099999999627471 ], [ 23968.95, 5924639.099999999627471 ], [ 23968.95, 5924639.025000000372529 ], [ 23969.099999999998545, 5924639.025000000372529 ], [ 23969.099999999998545, 5924638.950000000186265 ], [ 23969.175, 5924638.950000000186265 ], [ 23969.175, 5924638.875 ], [ 23969.325, 5924638.875 ], [ 23969.325, 5924638.799999999813735 ], [ 23969.400000000001455, 5924638.799999999813735 ], [ 23969.400000000001455, 5924638.724999999627471 ], [ 23969.474999999998545, 5924638.724999999627471 ], [ 23969.474999999998545, 5924638.650000000372529 ], [ 23969.55, 5924638.650000000372529 ], [ 23969.55, 5924638.575000000186265 ], [ 23969.625, 5924638.575000000186265 ], [ 23969.625, 5924638.424999999813735 ], [ 23969.7, 5924638.424999999813735 ], [ 23969.7, 5924638.349999999627471 ], [ 23969.775000000001455, 5924638.349999999627471 ], [ 23969.775000000001455, 5924638.275000000372529 ], [ 23969.849999999998545, 5924638.275000000372529 ], [ 23969.849999999998545, 5924638.200000000186265 ], [ 23969.925, 5924638.200000000186265 ], [ 23969.925, 5924638.125 ], [ 23970.0, 5924638.125 ], [ 23970.0, 5924638.049999999813735 ], [ 23970.075, 5924638.049999999813735 ], [ 23970.075, 5924637.974999999627471 ], [ 23970.150000000001455, 5924637.974999999627471 ], [ 23970.150000000001455, 5924637.900000000372529 ], [ 23970.224999999998545, 5924637.900000000372529 ], [ 23970.224999999998545, 5924637.825000000186265 ], [ 23970.3, 5924637.825000000186265 ], [ 23970.3, 5924637.75 ], [ 23970.375, 5924637.75 ], [ 23970.375, 5924637.674999999813735 ], [ 23970.525000000001455, 5924637.674999999813735 ], [ 23970.525000000001455, 5924637.599999999627471 ], [ 23970.599999999998545, 5924637.599999999627471 ], [ 23970.599999999998545, 5924637.525000000372529 ], [ 23970.75, 5924637.525000000372529 ], [ 23970.75, 5924637.450000000186265 ], [ 23970.900000000001455, 5924637.450000000186265 ], [ 23970.900000000001455, 5924637.375 ], [ 23971.05, 5924637.375 ], [ 23971.05, 5924637.299999999813735 ], [ 23971.2, 5924637.299999999813735 ], [ 23971.2, 5924637.224999999627471 ], [ 23971.349999999998545, 5924637.224999999627471 ], [ 23971.349999999998545, 5924637.150000000372529 ], [ 23971.5, 5924637.150000000372529 ], [ 23971.5, 5924637.075000000186265 ], [ 23971.650000000001455, 5924637.075000000186265 ], [ 23971.650000000001455, 5924637.0 ], [ 23971.724999999998545, 5924637.0 ], [ 23971.724999999998545, 5924636.924999999813735 ], [ 23971.875, 5924636.924999999813735 ], [ 23971.875, 5924636.849999999627471 ], [ 23971.95, 5924636.849999999627471 ], [ 23971.95, 5924636.775000000372529 ], [ 23972.099999999998545, 5924636.775000000372529 ], [ 23972.099999999998545, 5924636.700000000186265 ], [ 23972.175, 5924636.700000000186265 ], [ 23972.175, 5924636.625 ], [ 23972.25, 5924636.625 ], [ 23972.25, 5924636.549999999813735 ], [ 23972.325, 5924636.549999999813735 ], [ 23972.325, 5924636.400000000372529 ], [ 23972.400000000001455, 5924636.400000000372529 ], [ 23972.400000000001455, 5924636.325000000186265 ], [ 23972.474999999998545, 5924636.325000000186265 ], [ 23972.474999999998545, 5924636.174999999813735 ], [ 23972.55, 5924636.174999999813735 ], [ 23972.55, 5924636.099999999627471 ], [ 23972.625, 5924636.099999999627471 ], [ 23972.625, 5924636.025000000372529 ], [ 23972.7, 5924636.025000000372529 ], [ 23972.7, 5924635.950000000186265 ], [ 23972.775000000001455, 5924635.950000000186265 ], [ 23972.775000000001455, 5924635.875 ], [ 23972.849999999998545, 5924635.875 ], [ 23972.849999999998545, 5924635.799999999813735 ], [ 23972.925, 5924635.799999999813735 ], [ 23972.925, 5924635.724999999627471 ], [ 23973.075, 5924635.724999999627471 ], [ 23973.075, 5924635.650000000372529 ], [ 23973.224999999998545, 5924635.650000000372529 ], [ 23973.224999999998545, 5924635.575000000186265 ], [ 23973.375, 5924635.575000000186265 ], [ 23973.375, 5924635.5 ], [ 23973.525000000001455, 5924635.5 ], [ 23973.525000000001455, 5924635.424999999813735 ], [ 23973.75, 5924635.424999999813735 ], [ 23973.75, 5924635.349999999627471 ], [ 23973.900000000001455, 5924635.349999999627471 ], [ 23973.900000000001455, 5924635.275000000372529 ], [ 23974.125, 5924635.275000000372529 ], [ 23974.125, 5924635.200000000186265 ], [ 23974.425, 5924635.200000000186265 ], [ 23974.425, 5924635.125 ], [ 23974.724999999998545, 5924635.125 ], [ 23974.724999999998545, 5924635.049999999813735 ], [ 23975.175, 5924635.049999999813735 ], [ 23975.175, 5924634.974999999627471 ], [ 23976.0, 5924634.974999999627471 ], [ 23976.0, 5924634.900000000372529 ], [ 23976.75, 5924634.900000000372529 ], [ 23976.75, 5924634.825000000186265 ], [ 23977.724999999998545, 5924634.825000000186265 ], [ 23977.724999999998545, 5924634.900000000372529 ], [ 23982.825, 5924634.900000000372529 ], [ 23982.825, 5924634.974999999627471 ], [ 23984.099999999998545, 5924634.974999999627471 ], [ 23984.099999999998545, 5924635.049999999813735 ], [ 23984.925, 5924635.049999999813735 ], [ 23984.925, 5924635.125 ], [ 23985.3, 5924635.125 ], [ 23985.3, 5924635.200000000186265 ], [ 23985.525000000001455, 5924635.200000000186265 ], [ 23985.525000000001455, 5924635.275000000372529 ], [ 23985.75, 5924635.275000000372529 ], [ 23985.75, 5924635.349999999627471 ], [ 23985.900000000001455, 5924635.349999999627471 ], [ 23985.900000000001455, 5924635.424999999813735 ], [ 23986.125, 5924635.424999999813735 ], [ 23986.125, 5924635.5 ], [ 23986.2, 5924635.5 ], [ 23986.2, 5924635.575000000186265 ], [ 23986.349999999998545, 5924635.575000000186265 ], [ 23986.349999999998545, 5924635.650000000372529 ], [ 23986.425, 5924635.650000000372529 ], [ 23986.425, 5924635.724999999627471 ], [ 23986.575, 5924635.724999999627471 ], [ 23986.575, 5924635.799999999813735 ], [ 23986.650000000001455, 5924635.799999999813735 ], [ 23986.650000000001455, 5924635.875 ], [ 23986.724999999998545, 5924635.875 ], [ 23986.724999999998545, 5924635.950000000186265 ], [ 23986.8, 5924635.950000000186265 ], [ 23986.8, 5924636.025000000372529 ], [ 23986.875, 5924636.025000000372529 ], [ 23986.875, 5924636.099999999627471 ], [ 23987.025000000001455, 5924636.099999999627471 ], [ 23987.025000000001455, 5924636.174999999813735 ], [ 23987.099999999998545, 5924636.174999999813735 ], [ 23987.099999999998545, 5924636.25 ], [ 23987.175, 5924636.25 ], [ 23987.175, 5924636.325000000186265 ], [ 23987.25, 5924636.325000000186265 ], [ 23987.25, 5924636.474999999627471 ], [ 23987.325, 5924636.474999999627471 ], [ 23987.325, 5924636.549999999813735 ], [ 23987.400000000001455, 5924636.549999999813735 ], [ 23987.400000000001455, 5924636.625 ], [ 23987.474999999998545, 5924636.625 ], [ 23987.474999999998545, 5924636.700000000186265 ], [ 23987.625, 5924636.700000000186265 ], [ 23987.625, 5924636.775000000372529 ], [ 23987.775000000001455, 5924636.775000000372529 ], [ 23987.775000000001455, 5924636.849999999627471 ], [ 23987.849999999998545, 5924636.849999999627471 ], [ 23987.849999999998545, 5924636.924999999813735 ], [ 23988.0, 5924636.924999999813735 ], [ 23988.0, 5924637.0 ], [ 23988.075, 5924637.0 ], [ 23988.075, 5924637.075000000186265 ], [ 23988.224999999998545, 5924637.075000000186265 ], [ 23988.224999999998545, 5924637.150000000372529 ], [ 23988.3, 5924637.150000000372529 ], [ 23988.3, 5924637.224999999627471 ], [ 23988.45, 5924637.224999999627471 ], [ 23988.45, 5924637.299999999813735 ], [ 23988.525000000001455, 5924637.299999999813735 ], [ 23988.525000000001455, 5924637.375 ], [ 23988.599999999998545, 5924637.375 ], [ 23988.599999999998545, 5924637.450000000186265 ], [ 23988.75, 5924637.450000000186265 ], [ 23988.75, 5924637.525000000372529 ], [ 23988.825, 5924637.525000000372529 ], [ 23988.825, 5924637.599999999627471 ], [ 23988.900000000001455, 5924637.599999999627471 ], [ 23988.900000000001455, 5924637.674999999813735 ], [ 23988.974999999998545, 5924637.674999999813735 ], [ 23988.974999999998545, 5924637.75 ], [ 23989.05, 5924637.75 ], [ 23989.05, 5924637.825000000186265 ], [ 23989.125, 5924637.825000000186265 ], [ 23989.125, 5924637.900000000372529 ], [ 23989.2, 5924637.900000000372529 ], [ 23989.2, 5924637.974999999627471 ], [ 23989.275000000001455, 5924637.974999999627471 ], [ 23989.275000000001455, 5924638.049999999813735 ], [ 23989.349999999998545, 5924638.049999999813735 ], [ 23989.349999999998545, 5924638.125 ], [ 23989.425, 5924638.125 ], [ 23989.425, 5924638.275000000372529 ], [ 23989.5, 5924638.275000000372529 ], [ 23989.5, 5924638.424999999813735 ], [ 23989.575, 5924638.424999999813735 ], [ 23989.575, 5924638.575000000186265 ], [ 23989.650000000001455, 5924638.575000000186265 ], [ 23989.650000000001455, 5924638.724999999627471 ], [ 23989.724999999998545, 5924638.724999999627471 ], [ 23989.724999999998545, 5924638.950000000186265 ], [ 23989.8, 5924638.950000000186265 ], [ 23989.8, 5924639.25 ], [ 23989.875, 5924639.25 ], [ 23989.875, 5924639.474999999627471 ], [ 23989.95, 5924639.474999999627471 ], [ 23989.95, 5924639.849999999627471 ], [ 23990.025000000001455, 5924639.849999999627471 ], [ 23990.025000000001455, 5924640.224999999627471 ], [ 23990.099999999998545, 5924640.224999999627471 ], [ 23990.099999999998545, 5924640.75 ], [ 23990.175, 5924640.75 ], [ 23990.175, 5924641.424999999813735 ], [ 23990.25, 5924641.424999999813735 ], [ 23990.25, 5924642.099999999627471 ], [ 23990.325, 5924642.099999999627471 ], [ 23990.325, 5924642.775000000372529 ], [ 23990.400000000001455, 5924642.775000000372529 ], [ 23990.400000000001455, 5924643.224999999627471 ], [ 23990.474999999998545, 5924643.224999999627471 ], [ 23990.474999999998545, 5924644.200000000186265 ], [ 23990.55, 5924644.200000000186265 ], [ 23990.55, 5924645.400000000372529 ], [ 23990.625, 5924645.400000000372529 ], [ 23990.625, 5924646.150000000372529 ], [ 23990.7, 5924646.150000000372529 ], [ 23990.7, 5924647.349999999627471 ], [ 23990.775000000001455, 5924647.349999999627471 ], [ 23990.775000000001455, 5924649.150000000372529 ], [ 23990.849999999998545, 5924649.150000000372529 ], [ 23990.849999999998545, 5924650.5 ], [ 23990.925, 5924650.5 ], [ 23990.925, 5924651.775000000372529 ], [ 23991.0, 5924651.775000000372529 ], [ 23991.0, 5924652.299999999813735 ], [ 23990.925, 5924652.299999999813735 ], [ 23990.925, 5924652.375 ], [ 23990.849999999998545, 5924652.375 ], [ 23990.849999999998545, 5924652.525000000372529 ], [ 23990.775000000001455, 5924652.525000000372529 ], [ 23990.775000000001455, 5924652.599999999627471 ], [ 23990.7, 5924652.599999999627471 ], [ 23990.7, 5924652.674999999813735 ], [ 23990.625, 5924652.674999999813735 ], [ 23990.625, 5924652.825000000186265 ], [ 23990.55, 5924652.825000000186265 ], [ 23990.55, 5924653.125 ], [ 23990.474999999998545, 5924653.125 ], [ 23990.474999999998545, 5924653.424999999813735 ], [ 23990.400000000001455, 5924653.424999999813735 ], [ 23990.400000000001455, 5924653.799999999813735 ], [ 23990.325, 5924653.799999999813735 ], [ 23990.325, 5924654.099999999627471 ], [ 23990.25, 5924654.099999999627471 ], [ 23990.25, 5924654.325000000186265 ], [ 23990.175, 5924654.325000000186265 ], [ 23990.175, 5924654.474999999627471 ], [ 23990.099999999998545, 5924654.474999999627471 ], [ 23990.099999999998545, 5924654.625 ], [ 23990.025000000001455, 5924654.625 ], [ 23990.025000000001455, 5924654.700000000186265 ], [ 23989.95, 5924654.700000000186265 ], [ 23989.95, 5924654.849999999627471 ], [ 23989.875, 5924654.849999999627471 ], [ 23989.875, 5924655.0 ], [ 23989.8, 5924655.0 ], [ 23989.8, 5924655.150000000372529 ], [ 23989.724999999998545, 5924655.150000000372529 ], [ 23989.724999999998545, 5924655.224999999627471 ], [ 23989.650000000001455, 5924655.224999999627471 ], [ 23989.650000000001455, 5924655.375 ], [ 23989.575, 5924655.375 ], [ 23989.575, 5924655.450000000186265 ], [ 23989.5, 5924655.450000000186265 ], [ 23989.5, 5924655.599999999627471 ], [ 23989.425, 5924655.599999999627471 ], [ 23989.425, 5924655.674999999813735 ], [ 23989.349999999998545, 5924655.674999999813735 ], [ 23989.349999999998545, 5924655.825000000186265 ], [ 23989.275000000001455, 5924655.825000000186265 ], [ 23989.275000000001455, 5924655.900000000372529 ], [ 23989.2, 5924655.900000000372529 ], [ 23989.2, 5924655.974999999627471 ], [ 23989.125, 5924655.974999999627471 ], [ 23989.125, 5924656.125 ], [ 23989.05, 5924656.125 ], [ 23989.05, 5924656.200000000186265 ], [ 23988.974999999998545, 5924656.200000000186265 ], [ 23988.974999999998545, 5924656.275000000372529 ], [ 23988.825, 5924656.275000000372529 ], [ 23988.825, 5924656.349999999627471 ], [ 23988.75, 5924656.349999999627471 ], [ 23988.75, 5924656.424999999813735 ], [ 23988.675, 5924656.424999999813735 ], [ 23988.675, 5924656.5 ], [ 23988.525000000001455, 5924656.5 ], [ 23988.525000000001455, 5924656.575000000186265 ], [ 23988.375, 5924656.575000000186265 ], [ 23988.375, 5924656.650000000372529 ], [ 23988.224999999998545, 5924656.650000000372529 ], [ 23988.224999999998545, 5924656.724999999627471 ], [ 23988.0, 5924656.724999999627471 ], [ 23988.0, 5924656.799999999813735 ], [ 23987.849999999998545, 5924656.799999999813735 ], [ 23987.849999999998545, 5924656.875 ], [ 23987.625, 5924656.875 ], [ 23987.625, 5924656.950000000186265 ], [ 23987.400000000001455, 5924656.950000000186265 ], [ 23987.400000000001455, 5924657.025000000372529 ], [ 23987.175, 5924657.025000000372529 ], [ 23987.175, 5924657.099999999627471 ], [ 23986.875, 5924657.099999999627471 ], [ 23986.875, 5924657.174999999813735 ], [ 23986.5, 5924657.174999999813735 ], [ 23986.5, 5924657.25 ], [ 23986.05, 5924657.25 ], [ 23986.05, 5924657.325000000186265 ], [ 23985.599999999998545, 5924657.325000000186265 ], [ 23985.599999999998545, 5924657.400000000372529 ], [ 23985.075, 5924657.400000000372529 ], [ 23985.075, 5924657.474999999627471 ], [ 23984.7, 5924657.474999999627471 ], [ 23984.7, 5924657.549999999813735 ], [ 23984.400000000001455, 5924657.549999999813735 ], [ 23984.400000000001455, 5924657.625 ], [ 23984.175, 5924657.625 ], [ 23984.175, 5924657.700000000186265 ], [ 23983.95, 5924657.700000000186265 ], [ 23983.95, 5924657.775000000372529 ], [ 23983.724999999998545, 5924657.775000000372529 ], [ 23983.724999999998545, 5924657.849999999627471 ], [ 23983.5, 5924657.849999999627471 ], [ 23983.5, 5924657.924999999813735 ], [ 23983.349999999998545, 5924657.924999999813735 ], [ 23983.349999999998545, 5924658.0 ], [ 23983.125, 5924658.0 ], [ 23983.125, 5924658.075000000186265 ], [ 23982.974999999998545, 5924658.075000000186265 ], [ 23982.974999999998545, 5924658.150000000372529 ], [ 23982.825, 5924658.150000000372529 ], [ 23982.825, 5924658.224999999627471 ], [ 23982.675, 5924658.224999999627471 ], [ 23982.675, 5924658.299999999813735 ], [ 23982.525000000001455, 5924658.299999999813735 ], [ 23982.525000000001455, 5924658.375 ], [ 23982.3, 5924658.375 ], [ 23982.3, 5924658.450000000186265 ], [ 23982.150000000001455, 5924658.450000000186265 ], [ 23982.150000000001455, 5924658.525000000372529 ], [ 23981.925, 5924658.525000000372529 ], [ 23981.925, 5924658.599999999627471 ], [ 23981.7, 5924658.599999999627471 ], [ 23981.7, 5924658.674999999813735 ], [ 23981.474999999998545, 5924658.674999999813735 ], [ 23981.474999999998545, 5924658.75 ], [ 23981.175, 5924658.75 ], [ 23981.175, 5924658.825000000186265 ], [ 23980.875, 5924658.825000000186265 ], [ 23980.875, 5924658.900000000372529 ], [ 23980.275000000001455, 5924658.900000000372529 ], [ 23980.275000000001455, 5924658.974999999627471 ], [ 23979.599999999998545, 5924658.974999999627471 ], [ 23979.599999999998545, 5924659.049999999813735 ], [ 23978.925, 5924659.049999999813735 ], [ 23978.925, 5924659.125 ], [ 23978.55, 5924659.125 ], [ 23978.55, 5924659.200000000186265 ], [ 23978.25, 5924659.200000000186265 ], [ 23978.25, 5924659.275000000372529 ], [ 23977.875, 5924659.275000000372529 ], [ 23977.875, 5924659.349999999627471 ], [ 23977.650000000001455, 5924659.349999999627471 ], [ 23977.650000000001455, 5924659.424999999813735 ], [ 23977.349999999998545, 5924659.424999999813735 ], [ 23977.349999999998545, 5924659.5 ], [ 23977.125, 5924659.5 ], [ 23977.125, 5924659.575000000186265 ], [ 23976.900000000001455, 5924659.575000000186265 ], [ 23976.900000000001455, 5924659.650000000372529 ], [ 23976.599999999998545, 5924659.650000000372529 ], [ 23976.599999999998545, 5924659.724999999627471 ], [ 23976.375, 5924659.724999999627471 ], [ 23976.375, 5924659.799999999813735 ], [ 23976.150000000001455, 5924659.799999999813735 ], [ 23976.150000000001455, 5924659.875 ], [ 23976.0, 5924659.875 ], [ 23976.0, 5924659.950000000186265 ], [ 23975.775000000001455, 5924659.950000000186265 ], [ 23975.775000000001455, 5924660.025000000372529 ], [ 23975.625, 5924660.025000000372529 ], [ 23975.625, 5924660.099999999627471 ], [ 23975.474999999998545, 5924660.099999999627471 ], [ 23975.474999999998545, 5924660.174999999813735 ], [ 23975.25, 5924660.174999999813735 ], [ 23975.25, 5924660.25 ], [ 23975.099999999998545, 5924660.25 ], [ 23975.099999999998545, 5924660.325000000186265 ], [ 23974.650000000001455, 5924660.325000000186265 ], [ 23974.650000000001455, 5924660.400000000372529 ], [ 23974.125, 5924660.400000000372529 ], [ 23974.125, 5924660.474999999627471 ], [ 23973.525000000001455, 5924660.474999999627471 ], [ 23973.525000000001455, 5924660.549999999813735 ], [ 23972.925, 5924660.549999999813735 ], [ 23972.925, 5924660.625 ], [ 23972.25, 5924660.625 ], [ 23972.25, 5924660.700000000186265 ], [ 23971.5, 5924660.700000000186265 ], [ 23971.5, 5924660.775000000372529 ], [ 23970.825, 5924660.775000000372529 ], [ 23970.825, 5924660.849999999627471 ], [ 23970.3, 5924660.849999999627471 ], [ 23970.3, 5924660.924999999813735 ], [ 23969.849999999998545, 5924660.924999999813735 ], [ 23969.849999999998545, 5924661.0 ], [ 23969.325, 5924661.0 ], [ 23969.325, 5924661.075000000186265 ], [ 23968.95, 5924661.075000000186265 ] ] ] } }
]
}
