{
"type": "FeatureCollection",
"name": "24183E591507N_buildings",
"crs": { "type": "name", "properties": { "name": "urn:ogc:def:crs:EPSG::3776" } },
"features": [
{ "type": "Feature", "properties": { "value": 1.0, "building_id": 0, "area": 959.25937499853671 }, "geometry": { "type": "Polygon", "coordinates": [ [ [ 24701.099999999998545, 5915160.900000000372529 ], [ 24701.099999999998545, 5915160.825000000186265 ], [ 24700.05, 5915160.825000000186265 ], [ 24700.05, 5915160.75 ], [ 24699.3, 5915160.75 ], [ 24699.3, 5915160.674999999813735 ], [ 24698.7, 5915160.674999999813735 ], [ 24698.7, 5915160.599999999627471 ], [ 24698.175, 5915160.599999999627471 ], [ 24698.175, 5915160.525000000372529 ], [ 24697.724999999998545, 5915160.525000000372529 ], [ 24697.724999999998545, 5915160.450000000186265 ], [ 24697.425, 5915160.450000000186265 ], [ 24697.425, 5915160.375 ], [ 24697.2, 5915160.375 ], [ 24697.2, 5915160.299999999813735 ], [ 24697.05, 5915160.299999999813735 ], [ 24697.05, 5915160.224999999627471 ], [ 24696.825, 5915160.224999999627471 ], [ 24696.825, 5915160.150000000372529 ], [ 24696.675, 5915160.150000000372529 ], [ 24696.675, 5915160.075000000186265 ], [ 24696.525000000001455, 5915160.075000000186265 ], [ 24696.525000000001455, 5915160.0 ], [ 24696.375, 5915160.0 ], [ 24696.375, 5915159.924999999813735 ], [ 24696.224999999998545, 5915159.924999999813735 ], [ 24696.224999999998545, 5915159.849999999627471 ], [ 24696.0, 5915159.849999999627471 ], [ 24696.0, 5915159.775000000372529 ], [ 24695.849999999998545, 5915159.775000000372529 ], [ 24695.849999999998545, 5915159.700000000186265 ], [ 24695.625, 5915159.700000000186265 ], [ 24695.625, 5915159.625 ], [ 24695.25, 5915159.625 ], [ 24695.25, 5915159.549999999813735 ], [ 24694.875, 5915159.549999999813735 ], [ 24694.875, 5915159.474999999627471 ], [ 24694.425, 5915159.474999999627471 ], [ 24694.425, 5915159.400000000372529 ], [ 24693.974999999998545, 5915159.400000000372529 ], [ 24693.974999999998545, 5915159.325000000186265 ], [ 24692.775000000001455, 5915159.325000000186265 ], [ 24692.775000000001455, 5915159.25 ], [ 24690.375, 5915159.25 ], [ 24690.375, 5915159.174999999813735 ], [ 24687.599999999998545, 5915159.174999999813735 ], [ 24687.599999999998545, 5915159.099999999627471 ], [ 24686.25, 5915159.099999999627471 ], [ 24686.25, 5915159.025000000372529 ], [ 24685.349999999998545, 5915159.025000000372529 ], [ 24685.349999999998545, 5915158.950000000186265 ], [ 24684.599999999998545, 5915158.950000000186265 ], [ 24684.599999999998545, 5915158.875 ], [ 24684.0, 5915158.875 ], [ 24684.0, 5915158.799999999813735 ], [ 24683.625, 5915158.799999999813735 ], [ 24683.625, 5915158.724999999627471 ], [ 24683.25, 5915158.724999999627471 ], [ 24683.25, 5915158.650000000372529 ], [ 24682.95, 5915158.650000000372529 ], [ 24682.95, 5915158.575000000186265 ], [ 24682.724999999998545, 5915158.575000000186265 ], [ 24682.724999999998545, 5915158.5 ], [ 24682.425, 5915158.5 ], [ 24682.425, 5915158.424999999813735 ], [ 24682.2, 5915158.424999999813735 ], [ 24682.2, 5915158.349999999627471 ], [ 24682.05, 5915158.349999999627471 ], [ 24682.05, 5915158.275000000372529 ], [ 24681.900000000001455, 5915158.275000000372529 ], [ 24681.900000000001455, 5915158.200000000186265 ], [ 24681.825, 5915158.200000000186265 ], [ 24681.825, 5915158.125 ], [ 24681.675, 5915158.125 ], [ 24681.675, 5915157.974999999627471 ], [ 24681.599999999998545, 5915157.974999999627471 ], [ 24681.599999999998545, 5915157.900000000372529 ], [ 24681.525000000001455, 5915157.900000000372529 ], [ 24681.525000000001455, 5915157.825000000186265 ], [ 24681.375, 5915157.825000000186265 ], [ 24681.375, 5915157.75 ], [ 24681.3, 5915157.75 ], [ 24681.3, 5915157.674999999813735 ], [ 24681.224999999998545, 5915157.674999999813735 ], [ 24681.224999999998545, 5915157.599999999627471 ], [ 24681.150000000001455, 5915157.599999999627471 ], [ 24681.150000000001455, 5915157.525000000372529 ], [ 24681.075, 5915157.525000000372529 ], [ 24681.075, 5915157.450000000186265 ], [ 24681.0, 5915157.450000000186265 ], [ 24681.0, 5915157.375 ], [ 24680.849999999998545, 5915157.375 ], [ 24680.849999999998545, 5915157.299999999813735 ], [ 24680.775000000001455, 5915157.299999999813735 ], [ 24680.775000000001455, 5915157.224999999627471 ], [ 24680.625, 5915157.224999999627471 ], [ 24680.625, 5915157.150000000372529 ], [ 24680.55, 5915157.150000000372529 ], [ 24680.55, 5915157.075000000186265 ], [ 24680.400000000001455, 5915157.075000000186265 ], [ 24680.400000000001455, 5915157.0 ], [ 24680.25, 5915157.0 ], [ 24680.25, 5915156.924999999813735 ], [ 24680.175, 5915156.924999999813735 ], [ 24680.175, 5915156.849999999627471 ], [ 24680.025000000001455, 5915156.849999999627471 ], [ 24680.025000000001455, 5915156.775000000372529 ], [ 24679.95, 5915156.775000000372529 ], [ 24679.95, 5915156.700000000186265 ], [ 24679.875, 5915156.700000000186265 ], [ 24679.875, 5915156.625 ], [ 24679.8, 5915156.625 ], [ 24679.8, 5915156.474999999627471 ], [ 24679.724999999998545, 5915156.474999999627471 ], [ 24679.724999999998545, 5915156.400000000372529 ], [ 24679.650000000001455, 5915156.400000000372529 ], [ 24679.650000000001455, 5915156.325000000186265 ], [ 24679.575, 5915156.325000000186265 ], [ 24679.575, 5915156.174999999813735 ], [ 24679.5, 5915156.174999999813735 ], [ 24679.5, 5915155.799999999813735 ], [ 24679.425, 5915155.799999999813735 ], [ 24679.425, 5915155.424999999813735 ], [ 24679.349999999998545, 5915155.424999999813735 ], [ 24679.349999999998545, 5915155.049999999813735 ], [ 24679.275000000001455, 5915155.049999999813735 ], [ 24679.275000000001455, 5915154.525000000372529 ], [ 24679.2, 5915154.525000000372529 ], [ 24679.2, 5915153.849999999627471 ], [ 24679.125, 5915153.849999999627471 ], [ 24679.125, 5915152.575000000186265 ], [ 24679.05, 5915152.575000000186265 ], [ 24679.05, 5915151.674999999813735 ], [ 24679.125, 5915151.674999999813735 ], [ 24679.125, 5915148.224999999627471 ], [ 24679.2, 5915148.224999999627471 ], [ 24679.2, 5915134.575000000186265 ], [ 24679.275000000001455, 5915134.575000000186265 ], [ 24679.275000000001455, 5915132.174999999813735 ], [ 24679.349999999998545, 5915132.174999999813735 ], [ 24679.349999999998545, 5915130.75 ], [ 24679.425, 5915130.75 ], [ 24679.425, 5915130.599999999627471 ], [ 24679.5, 5915130.599999999627471 ], [ 24679.5, 5915130.450000000186265 ], [ 24679.575, 5915130.450000000186265 ], [ 24679.575, 5915130.375 ], [ 24679.650000000001455, 5915130.375 ], [ 24679.650000000001455, 5915130.299999999813735 ], [ 24679.724999999998545, 5915130.299999999813735 ], [ 24679.724999999998545, 5915130.224999999627471 ], [ 24679.8, 5915130.224999999627471 ], [ 24679.8, 5915130.075000000186265 ], [ 24679.875, 5915130.075000000186265 ], [ 24679.875, 5915130.0 ], [ 24680.025000000001455, 5915130.0 ], [ 24680.025000000001455, 5915129.924999999813735 ], [ 24680.099999999998545, 5915129.924999999813735 ], [ 24680.099999999998545, 5915129.849999999627471 ], [ 24680.175, 5915129.849999999627471 ], [ 24680.175, 5915129.775000000372529 ], [ 24680.25, 5915129.775000000372529 ], [ 24680.25, 5915129.700000000186265 ], [ 24680.400000000001455, 5915129.700000000186265 ], [ 24680.400000000001455, 5915129.625 ], [ 24680.474999999998545, 5915129.625 ], [ 24680.474999999998545, 5915129.549999999813735 ], [ 24680.55, 5915129.549999999813735 ], [ 24680.55, 5915129.474999999627471 ], [ 24680.625, 5915129.474999999627471 ], [ 24680.625, 5915129.400000000372529 ], [ 24680.7, 5915129.400000000372529 ], [ 24680.7, 5915129.325000000186265 ], [ 24680.775000000001455, 5915129.325000000186265 ], [ 24680.775000000001455, 5915129.174999999813735 ], [ 24680.849999999998545, 5915129.174999999813735 ], [ 24680.849999999998545, 5915129.099999999627471 ], [ 24680.925, 5915129.099999999627471 ], [ 24680.925, 5915129.025000000372529 ], [ 24681.0, 5915129.025000000372529 ], [ 24681.0, 5915128.875 ], [ 24681.075, 5915128.875 ], [ 24681.075, 5915128.724999999627471 ], [ 24681.150000000001455, 5915128.724999999627471 ], [ 24681.150000000001455, 5915128.650000000372529 ], [ 24681.224999999998545, 5915128.650000000372529 ], [ 24681.224999999998545, 5915128.575000000186265 ], [ 24681.3, 5915128.575000000186265 ], [ 24681.3, 5915128.5 ], [ 24681.375, 5915128.5 ], [ 24681.375, 5915128.424999999813735 ], [ 24681.45, 5915128.424999999813735 ], [ 24681.45, 5915128.349999999627471 ], [ 24681.525000000001455, 5915128.349999999627471 ], [ 24681.525000000001455, 5915128.275000000372529 ], [ 24681.675, 5915128.275000000372529 ], [ 24681.675, 5915128.200000000186265 ], [ 24681.75, 5915128.200000000186265 ], [ 24681.75, 5915128.125 ], [ 24681.900000000001455, 5915128.125 ], [ 24681.900000000001455, 5915128.049999999813735 ], [ 24681.974999999998545, 5915128.049999999813735 ], [ 24681.974999999998545, 5915127.974999999627471 ], [ 24682.349999999998545, 5915127.974999999627471 ], [ 24682.349999999998545, 5915127.900000000372529 ], [ 24682.8, 5915127.900000000372529 ], [ 24682.8, 5915127.825000000186265 ], [ 24683.175, 5915127.825000000186265 ], [ 24683.175, 5915127.75 ], [ 24683.625, 5915127.75 ], [ 24683.625, 5915127.674999999813735 ], [ 24684.0, 5915127.674999999813735 ], [ 24684.0, 5915127.599999999627471 ], [ 24684.224999999998545, 5915127.599999999627471 ], [ 24684.224999999998545, 5915127.525000000372529 ], [ 24684.375, 5915127.525000000372529 ], [ 24684.375, 5915127.450000000186265 ], [ 24684.525000000001455, 5915127.450000000186265 ], [ 24684.525000000001455, 5915127.375 ], [ 24684.675, 5915127.375 ], [ 24684.675, 5915127.299999999813735 ], [ 24684.825, 5915127.299999999813735 ], [ 24684.825, 5915127.224999999627471 ], [ 24684.900000000001455, 5915127.224999999627471 ], [ 24684.900000000001455, 5915127.150000000372529 ], [ 24685.05, 5915127.150000000372529 ], [ 24685.05, 5915127.075000000186265 ], [ 24685.125, 5915127.075000000186265 ], [ 24685.125, 5915127.0 ], [ 24685.275000000001455, 5915127.0 ], [ 24685.275000000001455, 5915126.924999999813735 ], [ 24685.349999999998545, 5915126.924999999813735 ], [ 24685.349999999998545, 5915126.849999999627471 ], [ 24685.425, 5915126.849999999627471 ], [ 24685.425, 5915126.775000000372529 ], [ 24685.5, 5915126.775000000372529 ], [ 24685.5, 5915126.700000000186265 ], [ 24685.575, 5915126.700000000186265 ], [ 24685.575, 5915126.625 ], [ 24685.724999999998545, 5915126.625 ], [ 24685.724999999998545, 5915126.549999999813735 ], [ 24685.8, 5915126.549999999813735 ], [ 24685.8, 5915126.474999999627471 ], [ 24686.025000000001455, 5915126.474999999627471 ], [ 24686.025000000001455, 5915126.400000000372529 ], [ 24686.7, 5915126.400000000372529 ], [ 24686.7, 5915126.325000000186265 ], [ 24687.45, 5915126.325000000186265 ], [ 24687.45, 5915126.25 ], [ 24687.974999999998545, 5915126.25 ], [ 24687.974999999998545, 5915126.325000000186265 ], [ 24688.125, 5915126.325000000186265 ], [ 24688.125, 5915126.400000000372529 ], [ 24688.275000000001455, 5915126.400000000372529 ], [ 24688.275000000001455, 5915126.474999999627471 ], [ 24688.425, 5915126.474999999627471 ], [ 24688.425, 5915126.549999999813735 ], [ 24688.5, 5915126.549999999813735 ], [ 24688.5, 5915126.625 ], [ 24688.650000000001455, 5915126.625 ], [ 24688.650000000001455, 5915126.700000000186265 ], [ 24688.724999999998545, 5915126.700000000186265 ], [ 24688.724999999998545, 5915126.775000000372529 ], [ 24688.875, 5915126.775000000372529 ], [ 24688.875, 5915126.849999999627471 ], [ 24688.95, 5915126.849999999627471 ], [ 24688.95, 5915126.924999999813735 ], [ 24689.025000000001455, 5915126.924999999813735 ], [ 24689.025000000001455, 5915127.0 ], [ 24689.175, 5915127.0 ], [ 24689.175, 5915127.075000000186265 ], [ 24689.25, 5915127.075000000186265 ], [ 24689.25, 5915127.150000000372529 ], [ 24689.400000000001455, 5915127.150000000372529 ], [ 24689.400000000001455, 5915127.224999999627471 ], [ 24689.55, 5915127.224999999627471 ], [ 24689.55, 5915127.299999999813735 ], [ 24689.7, 5915127.299999999813735 ], [ 24689.7, 5915127.375 ], [ 24690.0, 5915127.375 ], [ 24690.0, 5915127.450000000186265 ], [ 24690.45, 5915127.450000000186265 ], [ 24690.45, 5915127.525000000372529 ], [ 24690.974999999998545, 5915127.525000000372529 ], [ 24690.974999999998545, 5915127.599999999627471 ], [ 24691.5, 5915127.599999999627471 ], [ 24691.5, 5915127.674999999813735 ], [ 24692.325, 5915127.674999999813735 ], [ 24692.325, 5915127.75 ], [ 24693.224999999998545, 5915127.75 ], [ 24693.224999999998545, 5915127.825000000186265 ], [ 24695.325, 5915127.825000000186265 ], [ 24695.325, 5915127.900000000372529 ], [ 24695.925, 5915127.900000000372529 ], [ 24695.925, 5915127.825000000186265 ], [ 24698.099999999998545, 5915127.825000000186265 ], [ 24698.099999999998545, 5915127.75 ], [ 24703.8, 5915127.75 ], [ 24703.8, 5915127.825000000186265 ], [ 24704.7, 5915127.825000000186265 ], [ 24704.7, 5915127.900000000372529 ], [ 24705.525000000001455, 5915127.900000000372529 ], [ 24705.525000000001455, 5915127.974999999627471 ], [ 24705.974999999998545, 5915127.974999999627471 ], [ 24705.974999999998545, 5915128.049999999813735 ], [ 24706.425, 5915128.049999999813735 ], [ 24706.425, 5915128.125 ], [ 24706.8, 5915128.125 ], [ 24706.8, 5915128.200000000186265 ], [ 24707.175, 5915128.200000000186265 ], [ 24707.175, 5915128.275000000372529 ], [ 24707.474999999998545, 5915128.275000000372529 ], [ 24707.474999999998545, 5915128.349999999627471 ], [ 24707.55, 5915128.349999999627471 ], [ 24707.55, 5915128.424999999813735 ], [ 24707.7, 5915128.424999999813735 ], [ 24707.7, 5915128.5 ], [ 24707.775000000001455, 5915128.5 ], [ 24707.775000000001455, 5915128.575000000186265 ], [ 24707.849999999998545, 5915128.575000000186265 ], [ 24707.849999999998545, 5915128.650000000372529 ], [ 24707.925, 5915128.650000000372529 ], [ 24707.925, 5915128.724999999627471 ], [ 24708.0, 5915128.724999999627471 ], [ 24708.0, 5915128.799999999813735 ], [ 24708.075, 5915128.799999999813735 ], [ 24708.075, 5915128.875 ], [ 24708.150000000001455, 5915128.875 ], [ 24708.150000000001455, 5915129.025000000372529 ], [ 24708.224999999998545, 5915129.025000000372529 ], [ 24708.224999999998545, 5915129.099999999627471 ], [ 24708.3, 5915129.099999999627471 ], [ 24708.3, 5915129.174999999813735 ], [ 24708.375, 5915129.174999999813735 ], [ 24708.375, 5915129.325000000186265 ], [ 24708.45, 5915129.325000000186265 ], [ 24708.45, 5915129.400000000372529 ], [ 24708.525000000001455, 5915129.400000000372529 ], [ 24708.525000000001455, 5915129.474999999627471 ], [ 24708.599999999998545, 5915129.474999999627471 ], [ 24708.599999999998545, 5915129.549999999813735 ], [ 24708.675, 5915129.549999999813735 ], [ 24708.675, 5915129.625 ], [ 24708.75, 5915129.625 ], [ 24708.75, 5915129.700000000186265 ], [ 24708.900000000001455, 5915129.700000000186265 ], [ 24708.900000000001455, 5915129.775000000372529 ], [ 24708.974999999998545, 5915129.775000000372529 ], [ 24708.974999999998545, 5915129.849999999627471 ], [ 24709.05, 5915129.849999999627471 ], [ 24709.05, 5915129.924999999813735 ], [ 24709.2, 5915129.924999999813735 ], [ 24709.2, 5915130.0 ], [ 24709.275000000001455, 5915130.0 ], [ 24709.275000000001455, 5915130.075000000186265 ], [ 24709.425, 5915130.075000000186265 ], [ 24709.425, 5915130.150000000372529 ], [ 24709.5, 5915130.150000000372529 ], [ 24709.5, 5915130.224999999627471 ], [ 24709.575, 5915130.224999999627471 ], [ 24709.575, 5915130.299999999813735 ], [ 24709.650000000001455, 5915130.299999999813735 ], [ 24709.650000000001455, 5915130.375 ], [ 24709.724999999998545, 5915130.375 ], [ 24709.724999999998545, 5915130.525000000372529 ], [ 24709.8, 5915130.525000000372529 ], [ 24709.8, 5915130.599999999627471 ], [ 24709.875, 5915130.599999999627471 ], [ 24709.875, 5915130.75 ], [ 24709.95, 5915130.75 ], [ 24709.95, 5915132.625 ], [ 24710.025000000001455, 5915132.625 ], [ 24710.025000000001455, 5915135.775000000372529 ], [ 24710.099999999998545, 5915135.775000000372529 ], [ 24710.099999999998545, 5915138.325000000186265 ], [ 24710.025000000001455, 5915138.325000000186265 ], [ 24710.025000000001455, 5915140.049999999813735 ], [ 24709.95, 5915140.049999999813735 ], [ 24709.95, 5915141.174999999813735 ], [ 24709.875, 5915141.174999999813735 ], [ 24709.875, 5915142.150000000372529 ], [ 24709.8, 5915142.150000000372529 ], [ 24709.8, 5915142.900000000372529 ], [ 24709.724999999998545, 5915142.900000000372529 ], [ 24709.724999999998545, 5915143.5 ], [ 24709.650000000001455, 5915143.5 ], [ 24709.650000000001455, 5915144.099999999627471 ], [ 24709.575, 5915144.099999999627471 ], [ 24709.575, 5915145.825000000186265 ], [ 24709.650000000001455, 5915145.825000000186265 ], [ 24709.650000000001455, 5915146.799999999813735 ], [ 24709.724999999998545, 5915146.799999999813735 ], [ 24709.724999999998545, 5915147.325000000186265 ], [ 24709.8, 5915147.325000000186265 ], [ 24709.8, 5915148.0 ], [ 24709.875, 5915148.0 ], [ 24709.875, 5915149.049999999813735 ], [ 24709.95, 5915149.049999999813735 ], [ 24709.95, 5915150.849999999627471 ], [ 24710.025000000001455, 5915150.849999999627471 ], [ 24710.025000000001455, 5915152.799999999813735 ], [ 24709.95, 5915152.799999999813735 ], [ 24709.95, 5915153.775000000372529 ], [ 24709.875, 5915153.775000000372529 ], [ 24709.875, 5915154.299999999813735 ], [ 24709.8, 5915154.299999999813735 ], [ 24709.8, 5915154.375 ], [ 24709.724999999998545, 5915154.375 ], [ 24709.724999999998545, 5915154.525000000372529 ], [ 24709.650000000001455, 5915154.525000000372529 ], [ 24709.650000000001455, 5915154.599999999627471 ], [ 24709.575, 5915154.599999999627471 ], [ 24709.575, 5915154.674999999813735 ], [ 24709.5, 5915154.674999999813735 ], [ 24709.5, 5915154.75 ], [ 24709.425, 5915154.75 ], [ 24709.425, 5915154.825000000186265 ], [ 24709.349999999998545, 5915154.825000000186265 ], [ 24709.349999999998545, 5915154.900000000372529 ], [ 24709.275000000001455, 5915154.900000000372529 ], [ 24709.275000000001455, 5915154.974999999627471 ], [ 24709.2, 5915154.974999999627471 ], [ 24709.2, 5915155.049999999813735 ], [ 24709.125, 5915155.049999999813735 ], [ 24709.125, 5915155.125 ], [ 24709.05, 5915155.125 ], [ 24709.05, 5915155.275000000372529 ], [ 24708.974999999998545, 5915155.275000000372529 ], [ 24708.974999999998545, 5915155.349999999627471 ], [ 24708.900000000001455, 5915155.349999999627471 ], [ 24708.900000000001455, 5915155.424999999813735 ], [ 24708.825, 5915155.424999999813735 ], [ 24708.825, 5915155.575000000186265 ], [ 24708.75, 5915155.575000000186265 ], [ 24708.75, 5915155.724999999627471 ], [ 24708.675, 5915155.724999999627471 ], [ 24708.675, 5915155.799999999813735 ], [ 24708.599999999998545, 5915155.799999999813735 ], [ 24708.599999999998545, 5915155.950000000186265 ], [ 24708.525000000001455, 5915155.950000000186265 ], [ 24708.525000000001455, 5915156.174999999813735 ], [ 24708.45, 5915156.174999999813735 ], [ 24708.45, 5915156.400000000372529 ], [ 24708.375, 5915156.400000000372529 ], [ 24708.375, 5915156.625 ], [ 24708.3, 5915156.625 ], [ 24708.3, 5915156.849999999627471 ], [ 24708.224999999998545, 5915156.849999999627471 ], [ 24708.224999999998545, 5915157.075000000186265 ], [ 24708.150000000001455, 5915157.075000000186265 ], [ 24708.150000000001455, 5915157.299999999813735 ], [ 24708.075, 5915157.299999999813735 ], [ 24708.075, 5915157.450000000186265 ], [ 24708.0, 5915157.450000000186265 ], [ 24708.0, 5915157.674999999813735 ], [ 24707.925, 5915157.674999999813735 ], [ 24707.925, 5915157.825000000186265 ], [ 24707.849999999998545, 5915157.825000000186265 ], [ 24707.849999999998545, 5915157.974999999627471 ], [ 24707.775000000001455, 5915157.974999999627471 ], [ 24707.775000000001455, 5915158.125 ], [ 24707.7, 5915158.125 ], [ 24707.7, 5915158.200000000186265 ], [ 24707.625, 5915158.200000000186265 ], [ 24707.625, 5915158.275000000372529 ], [ 24707.55, 5915158.275000000372529 ], [ 24707.55, 5915158.349999999627471 ], [ 24707.474999999998545, 5915158.349999999627471 ], [ 24707.474999999998545, 5915158.424999999813735 ], [ 24707.400000000001455, 5915158.424999999813735 ], [ 24707.400000000001455, 5915158.5 ], [ 24707.25, 5915158.5 ], [ 24707.25, 5915158.575000000186265 ], [ 24707.099999999998545, 5915158.575000000186265 ], [ 24707.099999999998545, 5915158.650000000372529 ], [ 24706.95, 5915158.650000000372529 ], [ 24706.95, 5915158.724999999627471 ], [ 24706.8, 5915158.724999999627471 ], [ 24706.8, 5915158.799999999813735 ], [ 24706.650000000001455, 5915158.799999999813735 ], [ 24706.650000000001455, 5915158.875 ], [ 24706.425, 5915158.875 ], [ 24706.425, 5915158.950000000186265 ], [ 24706.275000000001455, 5915158.950000000186265 ], [ 24706.275000000001455, 5915159.025000000372529 ], [ 24706.125, 5915159.025000000372529 ], [ 24706.125, 5915159.099999999627471 ], [ 24705.900000000001455, 5915159.099999999627471 ], [ 24705.900000000001455, 5915159.174999999813735 ], [ 24705.675, 5915159.174999999813735 ], [ 24705.675, 5915159.25 ], [ 24705.525000000001455, 5915159.25 ], [ 24705.525000000001455, 5915159.325000000186265 ], [ 24705.375, 5915159.325000000186265 ], [ 24705.375, 5915159.400000000372529 ], [ 24705.224999999998545, 5915159.400000000372529 ], [ 24705.224999999998545, 5915159.474999999627471 ], [ 24705.075, 5915159.474999999627471 ], [ 24705.075, 5915159.549999999813735 ], [ 24705.0, 5915159.549999999813735 ], [ 24705.0, 5915159.625 ], [ 24704.925, 5915159.625 ], [ 24704.925, 5915159.700000000186265 ], [ 24704.775000000001455, 5915159.700000000186265 ], [ 24704.775000000001455, 5915159.775000000372529 ], [ 24704.7, 5915159.775000000372529 ], [ 24704.7, 5915159.849999999627471 ], [ 24704.625, 5915159.849999999627471 ], [ 24704.625, 5915159.924999999813735 ], [ 24704.55, 5915159.924999999813735 ], [ 24704.55, 5915160.0 ], [ 24704.474999999998545, 5915160.0 ], [ 24704.474999999998545, 5915160.075000000186265 ], [ 24704.400000000001455, 5915160.075000000186265 ], [ 24704.400000000001455, 5915160.150000000372529 ], [ 24704.325, 5915160.150000000372529 ], [ 24704.325, 5915160.224999999627471 ], [ 24704.25, 5915160.224999999627471 ], [ 24704.25, 5915160.299999999813735 ], [ 24704.175, 5915160.299999999813735 ], [ 24704.175, 5915160.375 ], [ 24704.099999999998545, 5915160.375 ], [ 24704.099999999998545, 5915160.450000000186265 ], [ 24704.025000000001455, 5915160.450000000186265 ], [ 24704.025000000001455, 5915160.525000000372529 ], [ 24703.875, 5915160.525000000372529 ], [ 24703.875, 5915160.599999999627471 ], [ 24703.8, 5915160.599999999627471 ], [ 24703.8, 5915160.674999999813735 ], [ 24703.650000000001455, 5915160.674999999813735 ], [ 24703.650000000001455, 5915160.75 ], [ 24703.5, 5915160.75 ], [ 24703.5, 5915160.825000000186265 ], [ 24702.150000000001455, 5915160.825000000186265 ], [ 24702.150000000001455, 5915160.900000000372529 ], [ 24701.099999999998545, 5915160.900000000372529 ] ] ] } }
]
}
