{
"type": "FeatureCollection",
"name": "24183E591882N_buildings",
"crs": { "type": "name", "properties": { "name": "urn:ogc:def:crs:EPSG::3776" } },
"features": [
{ "type": "Feature", "properties": { "value": 1.0, "building_id": 0, "area": 26.049375000084133 }, "geometry": { "type": "Polygon", "coordinates": [ [ [ 24265.95, 5919510.299999999813735 ], [ 24265.95, 5919510.224999999627471 ], [ 24265.8, 5919510.224999999627471 ], [ 24265.8, 5919510.150000000372529 ], [ 24265.724999999998545, 5919510.150000000372529 ], [ 24265.724999999998545, 5919510.075000000186265 ], [ 24265.575, 5919510.075000000186265 ], [ 24265.575, 5919510.0 ], [ 24265.5, 5919510.0 ], [ 24265.5, 5919509.924999999813735 ], [ 24265.425, 5919509.924999999813735 ], [ 24265.425, 5919509.849999999627471 ], [ 24265.349999999998545, 5919509.849999999627471 ], [ 24265.349999999998545, 5919509.775000000372529 ], [ 24265.275000000001455, 5919509.775000000372529 ], [ 24265.275000000001455, 5919509.700000000186265 ], [ 24265.2, 5919509.700000000186265 ], [ 24265.2, 5919509.625 ], [ 24265.125, 5919509.625 ], [ 24265.125, 5919509.549999999813735 ], [ 24265.05, 5919509.549999999813735 ], [ 24265.05, 5919509.400000000372529 ], [ 24264.974999999998545, 5919509.400000000372529 ], [ 24264.974999999998545, 5919509.325000000186265 ], [ 24264.900000000001455, 5919509.325000000186265 ], [ 24264.900000000001455, 5919509.25 ], [ 24264.825, 5919509.25 ], [ 24264.825, 5919509.174999999813735 ], [ 24264.75, 5919509.174999999813735 ], [ 24264.75, 5919509.099999999627471 ], [ 24264.675, 5919509.099999999627471 ], [ 24264.675, 5919509.025000000372529 ], [ 24264.599999999998545, 5919509.025000000372529 ], [ 24264.599999999998545, 5919508.875 ], [ 24264.525000000001455, 5919508.875 ], [ 24264.525000000001455, 5919508.799999999813735 ], [ 24264.45, 5919508.799999999813735 ], [ 24264.45, 5919508.724999999627471 ], [ 24264.375, 5919508.724999999627471 ], [ 24264.375, 5919508.575000000186265 ], [ 24264.3, 5919508.575000000186265 ], [ 24264.3, 5919508.5 ], [ 24264.224999999998545, 5919508.5 ], [ 24264.224999999998545, 5919508.349999999627471 ], [ 24264.150000000001455, 5919508.349999999627471 ], [ 24264.150000000001455, 5919508.275000000372529 ], [ 24264.075, 5919508.275000000372529 ], [ 24264.075, 5919508.200000000186265 ], [ 24264.0, 5919508.200000000186265 ], [ 24264.0, 5919508.125 ], [ 24263.925, 5919508.125 ], [ 24263.925, 5919508.049999999813735 ], [ 24263.849999999998545, 5919508.049999999813735 ], [ 24263.849999999998545, 5919507.974999999627471 ], [ 24263.775000000001455, 5919507.974999999627471 ], [ 24263.775000000001455, 5919507.900000000372529 ], [ 24263.7, 5919507.900000000372529 ], [ 24263.7, 5919507.825000000186265 ], [ 24263.625, 5919507.825000000186265 ], [ 24263.625, 5919507.75 ], [ 24263.55, 5919507.75 ], [ 24263.55, 5919507.674999999813735 ], [ 24263.474999999998545, 5919507.674999999813735 ], [ 24263.474999999998545, 5919507.599999999627471 ], [ 24263.400000000001455, 5919507.599999999627471 ], [ 24263.400000000001455, 5919507.525000000372529 ], [ 24263.325, 5919507.525000000372529 ], [ 24263.325, 5919507.450000000186265 ], [ 24263.25, 5919507.450000000186265 ], [ 24263.25, 5919507.375 ], [ 24263.175, 5919507.375 ], [ 24263.175, 5919507.299999999813735 ], [ 24263.099999999998545, 5919507.299999999813735 ], [ 24263.099999999998545, 5919507.150000000372529 ], [ 24263.025000000001455, 5919507.150000000372529 ], [ 24263.025000000001455, 5919507.075000000186265 ], [ 24262.95, 5919507.075000000186265 ], [ 24262.95, 5919506.924999999813735 ], [ 24262.875, 5919506.924999999813735 ], [ 24262.875, 5919506.700000000186265 ], [ 24262.8, 5919506.700000000186265 ], [ 24262.8, 5919506.549999999813735 ], [ 24262.724999999998545, 5919506.549999999813735 ], [ 24262.724999999998545, 5919506.25 ], [ 24262.650000000001455, 5919506.25 ], [ 24262.650000000001455, 5919505.950000000186265 ], [ 24262.575, 5919505.950000000186265 ], [ 24262.575, 5919505.650000000372529 ], [ 24262.650000000001455, 5919505.650000000372529 ], [ 24262.650000000001455, 5919505.349999999627471 ], [ 24262.724999999998545, 5919505.349999999627471 ], [ 24262.724999999998545, 5919505.125 ], [ 24262.8, 5919505.125 ], [ 24262.8, 5919504.900000000372529 ], [ 24262.875, 5919504.900000000372529 ], [ 24262.875, 5919504.825000000186265 ], [ 24262.95, 5919504.825000000186265 ], [ 24262.95, 5919504.674999999813735 ], [ 24263.025000000001455, 5919504.674999999813735 ], [ 24263.025000000001455, 5919504.599999999627471 ], [ 24263.099999999998545, 5919504.599999999627471 ], [ 24263.099999999998545, 5919504.525000000372529 ], [ 24263.175, 5919504.525000000372529 ], [ 24263.175, 5919504.450000000186265 ], [ 24263.25, 5919504.450000000186265 ], [ 24263.25, 5919504.375 ], [ 24263.325, 5919504.375 ], [ 24263.325, 5919504.299999999813735 ], [ 24263.474999999998545, 5919504.299999999813735 ], [ 24263.474999999998545, 5919504.224999999627471 ], [ 24263.625, 5919504.224999999627471 ], [ 24263.625, 5919504.150000000372529 ], [ 24263.775000000001455, 5919504.150000000372529 ], [ 24263.775000000001455, 5919504.075000000186265 ], [ 24264.0, 5919504.075000000186265 ], [ 24264.0, 5919504.0 ], [ 24264.150000000001455, 5919504.0 ], [ 24264.150000000001455, 5919503.924999999813735 ], [ 24264.224999999998545, 5919503.924999999813735 ], [ 24264.224999999998545, 5919503.775000000372529 ], [ 24264.3, 5919503.775000000372529 ], [ 24264.3, 5919503.474999999627471 ], [ 24264.375, 5919503.474999999627471 ], [ 24264.375, 5919503.325000000186265 ], [ 24264.45, 5919503.325000000186265 ], [ 24264.45, 5919503.174999999813735 ], [ 24264.525000000001455, 5919503.174999999813735 ], [ 24264.525000000001455, 5919503.025000000372529 ], [ 24264.599999999998545, 5919503.025000000372529 ], [ 24264.599999999998545, 5919502.950000000186265 ], [ 24264.675, 5919502.950000000186265 ], [ 24264.675, 5919502.875 ], [ 24264.825, 5919502.875 ], [ 24264.825, 5919502.799999999813735 ], [ 24264.974999999998545, 5919502.799999999813735 ], [ 24264.974999999998545, 5919502.724999999627471 ], [ 24265.125, 5919502.724999999627471 ], [ 24265.125, 5919502.650000000372529 ], [ 24265.275000000001455, 5919502.650000000372529 ], [ 24265.275000000001455, 5919502.575000000186265 ], [ 24265.5, 5919502.575000000186265 ], [ 24265.5, 5919502.5 ], [ 24265.724999999998545, 5919502.5 ], [ 24265.724999999998545, 5919502.424999999813735 ], [ 24266.25, 5919502.424999999813735 ], [ 24266.25, 5919502.5 ], [ 24266.400000000001455, 5919502.5 ], [ 24266.400000000001455, 5919502.575000000186265 ], [ 24266.474999999998545, 5919502.575000000186265 ], [ 24266.474999999998545, 5919502.650000000372529 ], [ 24266.625, 5919502.650000000372529 ], [ 24266.625, 5919502.724999999627471 ], [ 24266.7, 5919502.724999999627471 ], [ 24266.7, 5919502.799999999813735 ], [ 24266.775000000001455, 5919502.799999999813735 ], [ 24266.775000000001455, 5919502.875 ], [ 24266.849999999998545, 5919502.875 ], [ 24266.849999999998545, 5919503.025000000372529 ], [ 24266.925, 5919503.025000000372529 ], [ 24266.925, 5919503.174999999813735 ], [ 24267.0, 5919503.174999999813735 ], [ 24267.0, 5919503.325000000186265 ], [ 24267.075, 5919503.325000000186265 ], [ 24267.075, 5919503.474999999627471 ], [ 24267.150000000001455, 5919503.474999999627471 ], [ 24267.150000000001455, 5919503.700000000186265 ], [ 24267.224999999998545, 5919503.700000000186265 ], [ 24267.224999999998545, 5919504.0 ], [ 24267.3, 5919504.0 ], [ 24267.3, 5919504.224999999627471 ], [ 24267.375, 5919504.224999999627471 ], [ 24267.375, 5919504.450000000186265 ], [ 24267.45, 5919504.450000000186265 ], [ 24267.45, 5919504.674999999813735 ], [ 24267.525000000001455, 5919504.674999999813735 ], [ 24267.525000000001455, 5919504.900000000372529 ], [ 24267.599999999998545, 5919504.900000000372529 ], [ 24267.599999999998545, 5919505.125 ], [ 24267.675, 5919505.125 ], [ 24267.675, 5919505.349999999627471 ], [ 24267.75, 5919505.349999999627471 ], [ 24267.75, 5919505.575000000186265 ], [ 24267.825, 5919505.575000000186265 ], [ 24267.825, 5919505.950000000186265 ], [ 24267.75, 5919505.950000000186265 ], [ 24267.75, 5919506.174999999813735 ], [ 24267.675, 5919506.174999999813735 ], [ 24267.675, 5919506.400000000372529 ], [ 24267.599999999998545, 5919506.400000000372529 ], [ 24267.599999999998545, 5919506.625 ], [ 24267.525000000001455, 5919506.625 ], [ 24267.525000000001455, 5919506.924999999813735 ], [ 24267.45, 5919506.924999999813735 ], [ 24267.45, 5919507.150000000372529 ], [ 24267.375, 5919507.150000000372529 ], [ 24267.375, 5919507.450000000186265 ], [ 24267.3, 5919507.450000000186265 ], [ 24267.3, 5919507.75 ], [ 24267.224999999998545, 5919507.75 ], [ 24267.224999999998545, 5919507.974999999627471 ], [ 24267.150000000001455, 5919507.974999999627471 ], [ 24267.150000000001455, 5919508.275000000372529 ], [ 24267.075, 5919508.275000000372529 ], [ 24267.075, 5919508.5 ], [ 24267.0, 5919508.5 ], [ 24267.0, 5919508.650000000372529 ], [ 24266.925, 5919508.650000000372529 ], [ 24266.925, 5919508.875 ], [ 24266.849999999998545, 5919508.875 ], [ 24266.849999999998545, 5919509.025000000372529 ], [ 24266.775000000001455, 5919509.025000000372529 ], [ 24266.775000000001455, 5919509.174999999813735 ], [ 24266.7, 5919509.174999999813735 ], [ 24266.7, 5919509.325000000186265 ], [ 24266.625, 5919509.325000000186265 ], [ 24266.625, 5919509.474999999627471 ], [ 24266.55, 5919509.474999999627471 ], [ 24266.55, 5919509.625 ], [ 24266.474999999998545, 5919509.625 ], [ 24266.474999999998545, 5919509.775000000372529 ], [ 24266.400000000001455, 5919509.775000000372529 ], [ 24266.400000000001455, 5919509.849999999627471 ], [ 24266.325, 5919509.849999999627471 ], [ 24266.325, 5919510.0 ], [ 24266.25, 5919510.0 ], [ 24266.25, 5919510.075000000186265 ], [ 24266.175, 5919510.075000000186265 ], [ 24266.175, 5919510.150000000372529 ], [ 24266.099999999998545, 5919510.150000000372529 ], [ 24266.099999999998545, 5919510.224999999627471 ], [ 24266.025000000001455, 5919510.224999999627471 ], [ 24266.025000000001455, 5919510.299999999813735 ], [ 24265.95, 5919510.299999999813735 ] ] ] } },
{ "type": "Feature", "properties": { "value": 1.0, "building_id": 1, "area": 202.8262500015789 }, "geometry": { "type": "Polygon", "coordinates": [ [ [ 24326.325, 5919004.650000000372529 ], [ 24326.325, 5919004.575000000186265 ], [ 24325.875, 5919004.575000000186265 ], [ 24325.875, 5919004.5 ], [ 24325.349999999998545, 5919004.5 ], [ 24325.349999999998545, 5919004.424999999813735 ], [ 24324.974999999998545, 5919004.424999999813735 ], [ 24324.974999999998545, 5919004.349999999627471 ], [ 24324.599999999998545, 5919004.349999999627471 ], [ 24324.599999999998545, 5919004.275000000372529 ], [ 24324.45, 5919004.275000000372529 ], [ 24324.45, 5919004.200000000186265 ], [ 24324.375, 5919004.200000000186265 ], [ 24324.375, 5919004.125 ], [ 24324.224999999998545, 5919004.125 ], [ 24324.224999999998545, 5919004.049999999813735 ], [ 24324.150000000001455, 5919004.049999999813735 ], [ 24324.150000000001455, 5919003.974999999627471 ], [ 24324.075, 5919003.974999999627471 ], [ 24324.075, 5919003.900000000372529 ], [ 24324.0, 5919003.900000000372529 ], [ 24324.0, 5919003.825000000186265 ], [ 24323.925, 5919003.825000000186265 ], [ 24323.925, 5919003.75 ], [ 24323.849999999998545, 5919003.75 ], [ 24323.849999999998545, 5919003.599999999627471 ], [ 24323.775000000001455, 5919003.599999999627471 ], [ 24323.775000000001455, 5919003.525000000372529 ], [ 24323.7, 5919003.525000000372529 ], [ 24323.7, 5919003.450000000186265 ], [ 24323.625, 5919003.450000000186265 ], [ 24323.625, 5919003.375 ], [ 24323.55, 5919003.375 ], [ 24323.55, 5919003.299999999813735 ], [ 24323.474999999998545, 5919003.299999999813735 ], [ 24323.474999999998545, 5919003.224999999627471 ], [ 24323.400000000001455, 5919003.224999999627471 ], [ 24323.400000000001455, 5919003.150000000372529 ], [ 24323.325, 5919003.150000000372529 ], [ 24323.325, 5919003.075000000186265 ], [ 24323.175, 5919003.075000000186265 ], [ 24323.175, 5919003.0 ], [ 24323.099999999998545, 5919003.0 ], [ 24323.099999999998545, 5919002.924999999813735 ], [ 24322.95, 5919002.924999999813735 ], [ 24322.95, 5919002.849999999627471 ], [ 24322.8, 5919002.849999999627471 ], [ 24322.8, 5919002.775000000372529 ], [ 24322.650000000001455, 5919002.775000000372529 ], [ 24322.650000000001455, 5919002.700000000186265 ], [ 24322.349999999998545, 5919002.700000000186265 ], [ 24322.349999999998545, 5919002.625 ], [ 24321.974999999998545, 5919002.625 ], [ 24321.974999999998545, 5919002.549999999813735 ], [ 24321.599999999998545, 5919002.549999999813735 ], [ 24321.599999999998545, 5919002.474999999627471 ], [ 24321.224999999998545, 5919002.474999999627471 ], [ 24321.224999999998545, 5919002.400000000372529 ], [ 24320.849999999998545, 5919002.400000000372529 ], [ 24320.849999999998545, 5919002.325000000186265 ], [ 24320.625, 5919002.325000000186265 ], [ 24320.625, 5919002.25 ], [ 24320.55, 5919002.25 ], [ 24320.55, 5919002.174999999813735 ], [ 24320.400000000001455, 5919002.174999999813735 ], [ 24320.400000000001455, 5919002.099999999627471 ], [ 24320.325, 5919002.099999999627471 ], [ 24320.325, 5919002.025000000372529 ], [ 24320.25, 5919002.025000000372529 ], [ 24320.25, 5919001.950000000186265 ], [ 24320.175, 5919001.950000000186265 ], [ 24320.175, 5919001.799999999813735 ], [ 24320.099999999998545, 5919001.799999999813735 ], [ 24320.099999999998545, 5919001.724999999627471 ], [ 24320.025000000001455, 5919001.724999999627471 ], [ 24320.025000000001455, 5919001.575000000186265 ], [ 24319.95, 5919001.575000000186265 ], [ 24319.95, 5919001.424999999813735 ], [ 24319.875, 5919001.424999999813735 ], [ 24319.875, 5919001.349999999627471 ], [ 24319.8, 5919001.349999999627471 ], [ 24319.8, 5919001.275000000372529 ], [ 24319.724999999998545, 5919001.275000000372529 ], [ 24319.724999999998545, 5919001.200000000186265 ], [ 24319.650000000001455, 5919001.200000000186265 ], [ 24319.650000000001455, 5919001.125 ], [ 24319.575, 5919001.125 ], [ 24319.575, 5919001.049999999813735 ], [ 24319.5, 5919001.049999999813735 ], [ 24319.5, 5919000.974999999627471 ], [ 24319.425, 5919000.974999999627471 ], [ 24319.425, 5919000.900000000372529 ], [ 24319.349999999998545, 5919000.900000000372529 ], [ 24319.349999999998545, 5919000.825000000186265 ], [ 24319.2, 5919000.825000000186265 ], [ 24319.2, 5919000.75 ], [ 24319.05, 5919000.75 ], [ 24319.05, 5919000.674999999813735 ], [ 24318.900000000001455, 5919000.674999999813735 ], [ 24318.900000000001455, 5919000.599999999627471 ], [ 24318.75, 5919000.599999999627471 ], [ 24318.75, 5919000.525000000372529 ], [ 24318.675, 5919000.525000000372529 ], [ 24318.675, 5919000.450000000186265 ], [ 24318.599999999998545, 5919000.450000000186265 ], [ 24318.599999999998545, 5919000.375 ], [ 24318.45, 5919000.375 ], [ 24318.45, 5919000.299999999813735 ], [ 24318.375, 5919000.299999999813735 ], [ 24318.375, 5919000.150000000372529 ], [ 24318.3, 5919000.150000000372529 ], [ 24318.3, 5919000.075000000186265 ], [ 24318.224999999998545, 5919000.075000000186265 ], [ 24318.224999999998545, 5919000.0 ], [ 24318.150000000001455, 5919000.0 ], [ 24318.150000000001455, 5918999.924999999813735 ], [ 24318.075, 5918999.924999999813735 ], [ 24318.075, 5918999.775000000372529 ], [ 24318.0, 5918999.775000000372529 ], [ 24318.0, 5918999.625 ], [ 24317.925, 5918999.625 ], [ 24317.925, 5918999.474999999627471 ], [ 24317.849999999998545, 5918999.474999999627471 ], [ 24317.849999999998545, 5918999.400000000372529 ], [ 24317.775000000001455, 5918999.400000000372529 ], [ 24317.775000000001455, 5918999.25 ], [ 24317.7, 5918999.25 ], [ 24317.7, 5918999.174999999813735 ], [ 24317.625, 5918999.174999999813735 ], [ 24317.625, 5918999.099999999627471 ], [ 24317.55, 5918999.099999999627471 ], [ 24317.55, 5918999.025000000372529 ], [ 24317.474999999998545, 5918999.025000000372529 ], [ 24317.474999999998545, 5918998.950000000186265 ], [ 24317.400000000001455, 5918998.950000000186265 ], [ 24317.400000000001455, 5918998.875 ], [ 24317.325, 5918998.875 ], [ 24317.325, 5918998.799999999813735 ], [ 24317.175, 5918998.799999999813735 ], [ 24317.175, 5918998.724999999627471 ], [ 24317.099999999998545, 5918998.724999999627471 ], [ 24317.099999999998545, 5918998.650000000372529 ], [ 24316.95, 5918998.650000000372529 ], [ 24316.95, 5918998.575000000186265 ], [ 24316.8, 5918998.575000000186265 ], [ 24316.8, 5918998.5 ], [ 24316.724999999998545, 5918998.5 ], [ 24316.724999999998545, 5918998.424999999813735 ], [ 24316.650000000001455, 5918998.424999999813735 ], [ 24316.650000000001455, 5918998.349999999627471 ], [ 24316.575, 5918998.349999999627471 ], [ 24316.575, 5918998.275000000372529 ], [ 24316.5, 5918998.275000000372529 ], [ 24316.5, 5918998.200000000186265 ], [ 24316.425, 5918998.200000000186265 ], [ 24316.425, 5918998.125 ], [ 24316.349999999998545, 5918998.125 ], [ 24316.349999999998545, 5918998.049999999813735 ], [ 24316.275000000001455, 5918998.049999999813735 ], [ 24316.275000000001455, 5918996.849999999627471 ], [ 24316.349999999998545, 5918996.849999999627471 ], [ 24316.349999999998545, 5918995.950000000186265 ], [ 24316.425, 5918995.950000000186265 ], [ 24316.425, 5918995.875 ], [ 24316.5, 5918995.875 ], [ 24316.5, 5918995.799999999813735 ], [ 24316.575, 5918995.799999999813735 ], [ 24316.575, 5918995.724999999627471 ], [ 24316.650000000001455, 5918995.724999999627471 ], [ 24316.650000000001455, 5918995.650000000372529 ], [ 24316.724999999998545, 5918995.650000000372529 ], [ 24316.724999999998545, 5918995.575000000186265 ], [ 24316.95, 5918995.575000000186265 ], [ 24316.95, 5918995.5 ], [ 24317.175, 5918995.5 ], [ 24317.175, 5918995.424999999813735 ], [ 24317.400000000001455, 5918995.424999999813735 ], [ 24317.400000000001455, 5918995.349999999627471 ], [ 24317.55, 5918995.349999999627471 ], [ 24317.55, 5918995.275000000372529 ], [ 24317.775000000001455, 5918995.275000000372529 ], [ 24317.775000000001455, 5918995.200000000186265 ], [ 24318.0, 5918995.200000000186265 ], [ 24318.0, 5918995.125 ], [ 24318.150000000001455, 5918995.125 ], [ 24318.150000000001455, 5918995.049999999813735 ], [ 24318.375, 5918995.049999999813735 ], [ 24318.375, 5918994.974999999627471 ], [ 24318.525000000001455, 5918994.974999999627471 ], [ 24318.525000000001455, 5918994.900000000372529 ], [ 24318.675, 5918994.900000000372529 ], [ 24318.675, 5918994.825000000186265 ], [ 24318.825, 5918994.825000000186265 ], [ 24318.825, 5918994.75 ], [ 24318.974999999998545, 5918994.75 ], [ 24318.974999999998545, 5918994.674999999813735 ], [ 24319.125, 5918994.674999999813735 ], [ 24319.125, 5918994.599999999627471 ], [ 24319.275000000001455, 5918994.599999999627471 ], [ 24319.275000000001455, 5918994.525000000372529 ], [ 24319.349999999998545, 5918994.525000000372529 ], [ 24319.349999999998545, 5918994.450000000186265 ], [ 24319.5, 5918994.450000000186265 ], [ 24319.5, 5918994.375 ], [ 24319.575, 5918994.375 ], [ 24319.575, 5918994.299999999813735 ], [ 24319.724999999998545, 5918994.299999999813735 ], [ 24319.724999999998545, 5918994.224999999627471 ], [ 24319.8, 5918994.224999999627471 ], [ 24319.8, 5918994.150000000372529 ], [ 24319.875, 5918994.150000000372529 ], [ 24319.875, 5918994.075000000186265 ], [ 24319.95, 5918994.075000000186265 ], [ 24319.95, 5918994.0 ], [ 24320.099999999998545, 5918994.0 ], [ 24320.099999999998545, 5918993.924999999813735 ], [ 24320.175, 5918993.924999999813735 ], [ 24320.175, 5918993.849999999627471 ], [ 24320.325, 5918993.849999999627471 ], [ 24320.325, 5918993.775000000372529 ], [ 24320.474999999998545, 5918993.775000000372529 ], [ 24320.474999999998545, 5918993.700000000186265 ], [ 24320.7, 5918993.700000000186265 ], [ 24320.7, 5918993.625 ], [ 24320.775000000001455, 5918993.625 ], [ 24320.775000000001455, 5918993.700000000186265 ], [ 24321.150000000001455, 5918993.700000000186265 ], [ 24321.150000000001455, 5918993.775000000372529 ], [ 24321.525000000001455, 5918993.775000000372529 ], [ 24321.525000000001455, 5918993.849999999627471 ], [ 24321.825, 5918993.849999999627471 ], [ 24321.825, 5918993.924999999813735 ], [ 24322.125, 5918993.924999999813735 ], [ 24322.125, 5918994.0 ], [ 24322.425, 5918994.0 ], [ 24322.425, 5918994.075000000186265 ], [ 24322.650000000001455, 5918994.075000000186265 ], [ 24322.650000000001455, 5918994.150000000372529 ], [ 24322.875, 5918994.150000000372529 ], [ 24322.875, 5918994.224999999627471 ], [ 24323.175, 5918994.224999999627471 ], [ 24323.175, 5918994.299999999813735 ], [ 24323.474999999998545, 5918994.299999999813735 ], [ 24323.474999999998545, 5918994.375 ], [ 24323.775000000001455, 5918994.375 ], [ 24323.775000000001455, 5918994.450000000186265 ], [ 24324.150000000001455, 5918994.450000000186265 ], [ 24324.150000000001455, 5918994.525000000372529 ], [ 24324.599999999998545, 5918994.525000000372529 ], [ 24324.599999999998545, 5918994.599999999627471 ], [ 24327.900000000001455, 5918994.599999999627471 ], [ 24327.900000000001455, 5918994.525000000372529 ], [ 24328.875, 5918994.525000000372529 ], [ 24328.875, 5918994.450000000186265 ], [ 24329.400000000001455, 5918994.450000000186265 ], [ 24329.400000000001455, 5918994.375 ], [ 24329.925, 5918994.375 ], [ 24329.925, 5918994.299999999813735 ], [ 24330.375, 5918994.299999999813735 ], [ 24330.375, 5918994.224999999627471 ], [ 24330.599999999998545, 5918994.224999999627471 ], [ 24330.599999999998545, 5918994.150000000372529 ], [ 24330.75, 5918994.150000000372529 ], [ 24330.75, 5918994.075000000186265 ], [ 24330.900000000001455, 5918994.075000000186265 ], [ 24330.900000000001455, 5918994.0 ], [ 24331.05, 5918994.0 ], [ 24331.05, 5918993.924999999813735 ], [ 24331.2, 5918993.924999999813735 ], [ 24331.2, 5918993.849999999627471 ], [ 24331.349999999998545, 5918993.849999999627471 ], [ 24331.349999999998545, 5918993.775000000372529 ], [ 24331.5, 5918993.775000000372529 ], [ 24331.5, 5918993.700000000186265 ], [ 24331.724999999998545, 5918993.700000000186265 ], [ 24331.724999999998545, 5918993.625 ], [ 24331.875, 5918993.625 ], [ 24331.875, 5918993.549999999813735 ], [ 24332.099999999998545, 5918993.549999999813735 ], [ 24332.099999999998545, 5918993.474999999627471 ], [ 24332.400000000001455, 5918993.474999999627471 ], [ 24332.400000000001455, 5918993.400000000372529 ], [ 24332.775000000001455, 5918993.400000000372529 ], [ 24332.775000000001455, 5918993.325000000186265 ], [ 24333.150000000001455, 5918993.325000000186265 ], [ 24333.150000000001455, 5918993.25 ], [ 24333.675, 5918993.25 ], [ 24333.675, 5918993.174999999813735 ], [ 24334.2, 5918993.174999999813735 ], [ 24334.2, 5918993.099999999627471 ], [ 24334.575, 5918993.099999999627471 ], [ 24334.575, 5918993.174999999813735 ], [ 24335.175, 5918993.174999999813735 ], [ 24335.175, 5918993.25 ], [ 24335.7, 5918993.25 ], [ 24335.7, 5918993.325000000186265 ], [ 24336.224999999998545, 5918993.325000000186265 ], [ 24336.224999999998545, 5918993.400000000372529 ], [ 24336.45, 5918993.400000000372529 ], [ 24336.45, 5918993.474999999627471 ], [ 24336.525000000001455, 5918993.474999999627471 ], [ 24336.525000000001455, 5918993.549999999813735 ], [ 24336.675, 5918993.549999999813735 ], [ 24336.675, 5918993.625 ], [ 24336.75, 5918993.625 ], [ 24336.75, 5918993.700000000186265 ], [ 24336.900000000001455, 5918993.700000000186265 ], [ 24336.900000000001455, 5918993.775000000372529 ], [ 24336.974999999998545, 5918993.775000000372529 ], [ 24336.974999999998545, 5918993.849999999627471 ], [ 24337.05, 5918993.849999999627471 ], [ 24337.05, 5918993.924999999813735 ], [ 24337.125, 5918993.924999999813735 ], [ 24337.125, 5918994.0 ], [ 24337.2, 5918994.0 ], [ 24337.2, 5918994.075000000186265 ], [ 24337.275000000001455, 5918994.075000000186265 ], [ 24337.275000000001455, 5918994.150000000372529 ], [ 24337.349999999998545, 5918994.150000000372529 ], [ 24337.349999999998545, 5918994.224999999627471 ], [ 24337.5, 5918994.224999999627471 ], [ 24337.5, 5918994.299999999813735 ], [ 24337.575, 5918994.299999999813735 ], [ 24337.575, 5918994.375 ], [ 24337.724999999998545, 5918994.375 ], [ 24337.724999999998545, 5918994.450000000186265 ], [ 24337.8, 5918994.450000000186265 ], [ 24337.8, 5918994.525000000372529 ], [ 24337.95, 5918994.525000000372529 ], [ 24337.95, 5918994.599999999627471 ], [ 24338.099999999998545, 5918994.599999999627471 ], [ 24338.099999999998545, 5918994.674999999813735 ], [ 24338.25, 5918994.674999999813735 ], [ 24338.25, 5918994.75 ], [ 24338.55, 5918994.75 ], [ 24338.55, 5918994.825000000186265 ], [ 24338.849999999998545, 5918994.825000000186265 ], [ 24338.849999999998545, 5918994.900000000372529 ], [ 24339.150000000001455, 5918994.900000000372529 ], [ 24339.150000000001455, 5918994.974999999627471 ], [ 24339.375, 5918994.974999999627471 ], [ 24339.375, 5918995.049999999813735 ], [ 24339.675, 5918995.049999999813735 ], [ 24339.675, 5918995.125 ], [ 24339.900000000001455, 5918995.125 ], [ 24339.900000000001455, 5918995.200000000186265 ], [ 24340.05, 5918995.200000000186265 ], [ 24340.05, 5918995.275000000372529 ], [ 24340.275000000001455, 5918995.275000000372529 ], [ 24340.275000000001455, 5918995.349999999627471 ], [ 24340.349999999998545, 5918995.349999999627471 ], [ 24340.349999999998545, 5918995.424999999813735 ], [ 24340.425, 5918995.424999999813735 ], [ 24340.425, 5918995.5 ], [ 24340.575, 5918995.5 ], [ 24340.575, 5918995.575000000186265 ], [ 24340.650000000001455, 5918995.575000000186265 ], [ 24340.650000000001455, 5918995.650000000372529 ], [ 24340.724999999998545, 5918995.650000000372529 ], [ 24340.724999999998545, 5918995.724999999627471 ], [ 24340.8, 5918995.724999999627471 ], [ 24340.8, 5918995.875 ], [ 24340.875, 5918995.875 ], [ 24340.875, 5918995.950000000186265 ], [ 24340.95, 5918995.950000000186265 ], [ 24340.95, 5918996.325000000186265 ], [ 24341.025000000001455, 5918996.325000000186265 ], [ 24341.025000000001455, 5918997.075000000186265 ], [ 24341.099999999998545, 5918997.075000000186265 ], [ 24341.099999999998545, 5918998.049999999813735 ], [ 24341.025000000001455, 5918998.049999999813735 ], [ 24341.025000000001455, 5918998.125 ], [ 24340.95, 5918998.125 ], [ 24340.95, 5918998.200000000186265 ], [ 24340.875, 5918998.200000000186265 ], [ 24340.875, 5918998.349999999627471 ], [ 24340.8, 5918998.349999999627471 ], [ 24340.8, 5918998.424999999813735 ], [ 24340.724999999998545, 5918998.424999999813735 ], [ 24340.724999999998545, 5918998.5 ], [ 24340.575, 5918998.5 ], [ 24340.575, 5918998.575000000186265 ], [ 24340.5, 5918998.575000000186265 ], [ 24340.5, 5918998.650000000372529 ], [ 24340.425, 5918998.650000000372529 ], [ 24340.425, 5918998.724999999627471 ], [ 24340.275000000001455, 5918998.724999999627471 ], [ 24340.275000000001455, 5918998.799999999813735 ], [ 24340.2, 5918998.799999999813735 ], [ 24340.2, 5918998.875 ], [ 24340.05, 5918998.875 ], [ 24340.05, 5918998.950000000186265 ], [ 24339.974999999998545, 5918998.950000000186265 ], [ 24339.974999999998545, 5918999.025000000372529 ], [ 24339.825, 5918999.025000000372529 ], [ 24339.825, 5918999.099999999627471 ], [ 24339.75, 5918999.099999999627471 ], [ 24339.75, 5918999.174999999813735 ], [ 24339.675, 5918999.174999999813735 ], [ 24339.675, 5918999.25 ], [ 24339.599999999998545, 5918999.25 ], [ 24339.599999999998545, 5918999.325000000186265 ], [ 24339.525000000001455, 5918999.325000000186265 ], [ 24339.525000000001455, 5918999.400000000372529 ], [ 24339.45, 5918999.400000000372529 ], [ 24339.45, 5918999.474999999627471 ], [ 24339.375, 5918999.474999999627471 ], [ 24339.375, 5918999.549999999813735 ], [ 24339.3, 5918999.549999999813735 ], [ 24339.3, 5918999.625 ], [ 24339.224999999998545, 5918999.625 ], [ 24339.224999999998545, 5918999.775000000372529 ], [ 24339.150000000001455, 5918999.775000000372529 ], [ 24339.150000000001455, 5918999.924999999813735 ], [ 24339.075, 5918999.924999999813735 ], [ 24339.075, 5919000.0 ], [ 24339.0, 5919000.0 ], [ 24339.0, 5919000.075000000186265 ], [ 24338.925, 5919000.075000000186265 ], [ 24338.925, 5919000.150000000372529 ], [ 24338.849999999998545, 5919000.150000000372529 ], [ 24338.849999999998545, 5919000.299999999813735 ], [ 24338.775000000001455, 5919000.299999999813735 ], [ 24338.775000000001455, 5919000.375 ], [ 24338.7, 5919000.375 ], [ 24338.7, 5919000.450000000186265 ], [ 24338.55, 5919000.450000000186265 ], [ 24338.55, 5919000.525000000372529 ], [ 24338.474999999998545, 5919000.525000000372529 ], [ 24338.474999999998545, 5919000.599999999627471 ], [ 24338.400000000001455, 5919000.599999999627471 ], [ 24338.400000000001455, 5919000.674999999813735 ], [ 24338.25, 5919000.674999999813735 ], [ 24338.25, 5919000.75 ], [ 24338.099999999998545, 5919000.75 ], [ 24338.099999999998545, 5919000.825000000186265 ], [ 24337.95, 5919000.825000000186265 ], [ 24337.95, 5919000.900000000372529 ], [ 24337.875, 5919000.900000000372529 ], [ 24337.875, 5919000.974999999627471 ], [ 24337.724999999998545, 5919000.974999999627471 ], [ 24337.724999999998545, 5919001.049999999813735 ], [ 24337.650000000001455, 5919001.049999999813735 ], [ 24337.650000000001455, 5919001.125 ], [ 24337.575, 5919001.125 ], [ 24337.575, 5919001.200000000186265 ], [ 24337.5, 5919001.200000000186265 ], [ 24337.5, 5919001.275000000372529 ], [ 24337.425, 5919001.275000000372529 ], [ 24337.425, 5919001.349999999627471 ], [ 24337.349999999998545, 5919001.349999999627471 ], [ 24337.349999999998545, 5919001.424999999813735 ], [ 24337.275000000001455, 5919001.424999999813735 ], [ 24337.275000000001455, 5919001.5 ], [ 24337.2, 5919001.5 ], [ 24337.2, 5919001.575000000186265 ], [ 24337.125, 5919001.575000000186265 ], [ 24337.125, 5919001.724999999627471 ], [ 24337.05, 5919001.724999999627471 ], [ 24337.05, 5919001.799999999813735 ], [ 24336.974999999998545, 5919001.799999999813735 ], [ 24336.974999999998545, 5919001.950000000186265 ], [ 24336.900000000001455, 5919001.950000000186265 ], [ 24336.900000000001455, 5919002.025000000372529 ], [ 24336.825, 5919002.025000000372529 ], [ 24336.825, 5919002.099999999627471 ], [ 24336.75, 5919002.099999999627471 ], [ 24336.75, 5919002.174999999813735 ], [ 24336.675, 5919002.174999999813735 ], [ 24336.675, 5919002.25 ], [ 24336.525000000001455, 5919002.25 ], [ 24336.525000000001455, 5919002.325000000186265 ], [ 24336.45, 5919002.325000000186265 ], [ 24336.45, 5919002.400000000372529 ], [ 24336.375, 5919002.400000000372529 ], [ 24336.375, 5919002.474999999627471 ], [ 24336.150000000001455, 5919002.474999999627471 ], [ 24336.150000000001455, 5919002.549999999813735 ], [ 24335.849999999998545, 5919002.549999999813735 ], [ 24335.849999999998545, 5919002.625 ], [ 24335.625, 5919002.625 ], [ 24335.625, 5919002.700000000186265 ], [ 24335.400000000001455, 5919002.700000000186265 ], [ 24335.400000000001455, 5919002.775000000372529 ], [ 24335.175, 5919002.775000000372529 ], [ 24335.175, 5919002.849999999627471 ], [ 24335.025000000001455, 5919002.849999999627471 ], [ 24335.025000000001455, 5919002.924999999813735 ], [ 24334.875, 5919002.924999999813735 ], [ 24334.875, 5919003.0 ], [ 24334.724999999998545, 5919003.0 ], [ 24334.724999999998545, 5919003.075000000186265 ], [ 24334.575, 5919003.075000000186265 ], [ 24334.575, 5919003.150000000372529 ], [ 24334.425, 5919003.150000000372529 ], [ 24334.425, 5919003.224999999627471 ], [ 24334.275000000001455, 5919003.224999999627471 ], [ 24334.275000000001455, 5919003.299999999813735 ], [ 24334.125, 5919003.299999999813735 ], [ 24334.125, 5919003.375 ], [ 24333.974999999998545, 5919003.375 ], [ 24333.974999999998545, 5919003.450000000186265 ], [ 24333.825, 5919003.450000000186265 ], [ 24333.825, 5919003.525000000372529 ], [ 24333.75, 5919003.525000000372529 ], [ 24333.75, 5919003.599999999627471 ], [ 24333.599999999998545, 5919003.599999999627471 ], [ 24333.599999999998545, 5919003.674999999813735 ], [ 24333.525000000001455, 5919003.674999999813735 ], [ 24333.525000000001455, 5919003.75 ], [ 24333.375, 5919003.75 ], [ 24333.375, 5919003.825000000186265 ], [ 24333.3, 5919003.825000000186265 ], [ 24333.3, 5919003.900000000372529 ], [ 24333.150000000001455, 5919003.900000000372529 ], [ 24333.150000000001455, 5919003.974999999627471 ], [ 24332.925, 5919003.974999999627471 ], [ 24332.925, 5919004.049999999813735 ], [ 24332.775000000001455, 5919004.049999999813735 ], [ 24332.775000000001455, 5919004.125 ], [ 24332.55, 5919004.125 ], [ 24332.55, 5919004.200000000186265 ], [ 24332.325, 5919004.200000000186265 ], [ 24332.325, 5919004.275000000372529 ], [ 24331.8, 5919004.275000000372529 ], [ 24331.8, 5919004.349999999627471 ], [ 24331.275000000001455, 5919004.349999999627471 ], [ 24331.275000000001455, 5919004.424999999813735 ], [ 24330.675, 5919004.424999999813735 ], [ 24330.675, 5919004.5 ], [ 24330.0, 5919004.5 ], [ 24330.0, 5919004.575000000186265 ], [ 24329.175, 5919004.575000000186265 ], [ 24329.175, 5919004.650000000372529 ], [ 24326.325, 5919004.650000000372529 ] ] ] } },
{ "type": "Feature", "properties": { "value": 1.0, "building_id": 2, "area": 333.6299999931129 }, "geometry": { "type": "Polygon", "coordinates": [ [ [ 24226.275000000001455, 5919003.299999999813735 ], [ 24226.275000000001455, 5919003.224999999627471 ], [ 24224.325, 5919003.224999999627471 ], [ 24224.325, 5919003.150000000372529 ], [ 24223.2, 5919003.150000000372529 ], [ 24223.2, 5919003.075000000186265 ], [ 24222.224999999998545, 5919003.075000000186265 ], [ 24222.224999999998545, 5919003.0 ], [ 24221.400000000001455, 5919003.0 ], [ 24221.400000000001455, 5919002.924999999813735 ], [ 24220.724999999998545, 5919002.924999999813735 ], [ 24220.724999999998545, 5919002.849999999627471 ], [ 24220.275000000001455, 5919002.849999999627471 ], [ 24220.275000000001455, 5919002.775000000372529 ], [ 24219.825, 5919002.775000000372529 ], [ 24219.825, 5919002.700000000186265 ], [ 24219.375, 5919002.700000000186265 ], [ 24219.375, 5919002.625 ], [ 24219.075, 5919002.625 ], [ 24219.075, 5919002.549999999813735 ], [ 24218.925, 5919002.549999999813735 ], [ 24218.925, 5919002.474999999627471 ], [ 24218.775000000001455, 5919002.474999999627471 ], [ 24218.775000000001455, 5919002.400000000372529 ], [ 24218.7, 5919002.400000000372529 ], [ 24218.7, 5919002.325000000186265 ], [ 24218.55, 5919002.325000000186265 ], [ 24218.55, 5919002.25 ], [ 24218.474999999998545, 5919002.25 ], [ 24218.474999999998545, 5919002.174999999813735 ], [ 24218.400000000001455, 5919002.174999999813735 ], [ 24218.400000000001455, 5919002.099999999627471 ], [ 24218.325, 5919002.099999999627471 ], [ 24218.325, 5919002.025000000372529 ], [ 24218.25, 5919002.025000000372529 ], [ 24218.25, 5919001.950000000186265 ], [ 24218.175, 5919001.950000000186265 ], [ 24218.175, 5919001.875 ], [ 24218.099999999998545, 5919001.875 ], [ 24218.099999999998545, 5919001.799999999813735 ], [ 24218.025000000001455, 5919001.799999999813735 ], [ 24218.025000000001455, 5919001.724999999627471 ], [ 24217.95, 5919001.724999999627471 ], [ 24217.95, 5919001.575000000186265 ], [ 24217.875, 5919001.575000000186265 ], [ 24217.875, 5919001.5 ], [ 24217.8, 5919001.5 ], [ 24217.8, 5919001.424999999813735 ], [ 24217.724999999998545, 5919001.424999999813735 ], [ 24217.724999999998545, 5919001.349999999627471 ], [ 24217.650000000001455, 5919001.349999999627471 ], [ 24217.650000000001455, 5919001.275000000372529 ], [ 24217.575, 5919001.275000000372529 ], [ 24217.575, 5919001.200000000186265 ], [ 24217.5, 5919001.200000000186265 ], [ 24217.5, 5919001.125 ], [ 24217.425, 5919001.125 ], [ 24217.425, 5919001.049999999813735 ], [ 24217.349999999998545, 5919001.049999999813735 ], [ 24217.349999999998545, 5919000.974999999627471 ], [ 24217.2, 5919000.974999999627471 ], [ 24217.2, 5919000.900000000372529 ], [ 24217.125, 5919000.900000000372529 ], [ 24217.125, 5919000.825000000186265 ], [ 24217.05, 5919000.825000000186265 ], [ 24217.05, 5919000.75 ], [ 24216.974999999998545, 5919000.75 ], [ 24216.974999999998545, 5919000.674999999813735 ], [ 24216.900000000001455, 5919000.674999999813735 ], [ 24216.900000000001455, 5919000.599999999627471 ], [ 24216.825, 5919000.599999999627471 ], [ 24216.825, 5919000.525000000372529 ], [ 24216.75, 5919000.525000000372529 ], [ 24216.75, 5919000.450000000186265 ], [ 24216.675, 5919000.450000000186265 ], [ 24216.675, 5919000.375 ], [ 24216.599999999998545, 5919000.375 ], [ 24216.599999999998545, 5919000.299999999813735 ], [ 24216.525000000001455, 5919000.299999999813735 ], [ 24216.525000000001455, 5919000.150000000372529 ], [ 24216.45, 5919000.150000000372529 ], [ 24216.45, 5919000.075000000186265 ], [ 24216.375, 5919000.075000000186265 ], [ 24216.375, 5918999.924999999813735 ], [ 24216.3, 5918999.924999999813735 ], [ 24216.3, 5918999.775000000372529 ], [ 24216.224999999998545, 5918999.775000000372529 ], [ 24216.224999999998545, 5918999.625 ], [ 24216.150000000001455, 5918999.625 ], [ 24216.150000000001455, 5918999.549999999813735 ], [ 24216.075, 5918999.549999999813735 ], [ 24216.075, 5918999.400000000372529 ], [ 24216.0, 5918999.400000000372529 ], [ 24216.0, 5918999.325000000186265 ], [ 24215.925, 5918999.325000000186265 ], [ 24215.925, 5918999.25 ], [ 24215.849999999998545, 5918999.25 ], [ 24215.849999999998545, 5918999.174999999813735 ], [ 24215.775000000001455, 5918999.174999999813735 ], [ 24215.775000000001455, 5918999.025000000372529 ], [ 24215.625, 5918999.025000000372529 ], [ 24215.625, 5918998.950000000186265 ], [ 24215.55, 5918998.950000000186265 ], [ 24215.55, 5918998.875 ], [ 24215.474999999998545, 5918998.875 ], [ 24215.474999999998545, 5918998.799999999813735 ], [ 24215.400000000001455, 5918998.799999999813735 ], [ 24215.400000000001455, 5918998.724999999627471 ], [ 24215.25, 5918998.724999999627471 ], [ 24215.25, 5918998.650000000372529 ], [ 24215.175, 5918998.650000000372529 ], [ 24215.175, 5918998.575000000186265 ], [ 24215.099999999998545, 5918998.575000000186265 ], [ 24215.099999999998545, 5918998.5 ], [ 24214.95, 5918998.5 ], [ 24214.95, 5918998.424999999813735 ], [ 24214.875, 5918998.424999999813735 ], [ 24214.875, 5918998.275000000372529 ], [ 24214.8, 5918998.275000000372529 ], [ 24214.8, 5918998.200000000186265 ], [ 24214.724999999998545, 5918998.200000000186265 ], [ 24214.724999999998545, 5918998.125 ], [ 24214.650000000001455, 5918998.125 ], [ 24214.650000000001455, 5918997.974999999627471 ], [ 24214.575, 5918997.974999999627471 ], [ 24214.575, 5918997.825000000186265 ], [ 24214.650000000001455, 5918997.825000000186265 ], [ 24214.650000000001455, 5918997.525000000372529 ], [ 24214.724999999998545, 5918997.525000000372529 ], [ 24214.724999999998545, 5918997.299999999813735 ], [ 24214.8, 5918997.299999999813735 ], [ 24214.8, 5918997.075000000186265 ], [ 24214.875, 5918997.075000000186265 ], [ 24214.875, 5918996.849999999627471 ], [ 24214.95, 5918996.849999999627471 ], [ 24214.95, 5918996.625 ], [ 24215.025000000001455, 5918996.625 ], [ 24215.025000000001455, 5918996.474999999627471 ], [ 24215.099999999998545, 5918996.474999999627471 ], [ 24215.099999999998545, 5918996.325000000186265 ], [ 24215.175, 5918996.325000000186265 ], [ 24215.175, 5918996.099999999627471 ], [ 24215.25, 5918996.099999999627471 ], [ 24215.25, 5918996.025000000372529 ], [ 24215.325, 5918996.025000000372529 ], [ 24215.325, 5918995.950000000186265 ], [ 24215.400000000001455, 5918995.950000000186265 ], [ 24215.400000000001455, 5918995.875 ], [ 24215.55, 5918995.875 ], [ 24215.55, 5918995.799999999813735 ], [ 24215.625, 5918995.799999999813735 ], [ 24215.625, 5918995.724999999627471 ], [ 24215.775000000001455, 5918995.724999999627471 ], [ 24215.775000000001455, 5918995.650000000372529 ], [ 24215.849999999998545, 5918995.650000000372529 ], [ 24215.849999999998545, 5918995.575000000186265 ], [ 24216.0, 5918995.575000000186265 ], [ 24216.0, 5918995.5 ], [ 24216.075, 5918995.5 ], [ 24216.075, 5918995.424999999813735 ], [ 24216.224999999998545, 5918995.424999999813735 ], [ 24216.224999999998545, 5918995.349999999627471 ], [ 24216.3, 5918995.349999999627471 ], [ 24216.3, 5918995.275000000372529 ], [ 24216.45, 5918995.275000000372529 ], [ 24216.45, 5918995.200000000186265 ], [ 24216.525000000001455, 5918995.200000000186265 ], [ 24216.525000000001455, 5918995.125 ], [ 24216.675, 5918995.125 ], [ 24216.675, 5918995.049999999813735 ], [ 24216.75, 5918995.049999999813735 ], [ 24216.75, 5918994.974999999627471 ], [ 24216.900000000001455, 5918994.974999999627471 ], [ 24216.900000000001455, 5918994.900000000372529 ], [ 24216.974999999998545, 5918994.900000000372529 ], [ 24216.974999999998545, 5918994.825000000186265 ], [ 24217.125, 5918994.825000000186265 ], [ 24217.125, 5918994.75 ], [ 24217.2, 5918994.75 ], [ 24217.2, 5918994.674999999813735 ], [ 24217.275000000001455, 5918994.674999999813735 ], [ 24217.275000000001455, 5918994.599999999627471 ], [ 24217.349999999998545, 5918994.599999999627471 ], [ 24217.349999999998545, 5918994.525000000372529 ], [ 24217.425, 5918994.525000000372529 ], [ 24217.425, 5918994.450000000186265 ], [ 24217.5, 5918994.450000000186265 ], [ 24217.5, 5918994.375 ], [ 24217.575, 5918994.375 ], [ 24217.575, 5918994.299999999813735 ], [ 24217.650000000001455, 5918994.299999999813735 ], [ 24217.650000000001455, 5918994.224999999627471 ], [ 24217.724999999998545, 5918994.224999999627471 ], [ 24217.724999999998545, 5918994.075000000186265 ], [ 24217.8, 5918994.075000000186265 ], [ 24217.8, 5918994.0 ], [ 24217.875, 5918994.0 ], [ 24217.875, 5918993.924999999813735 ], [ 24217.95, 5918993.924999999813735 ], [ 24217.95, 5918993.849999999627471 ], [ 24218.025000000001455, 5918993.849999999627471 ], [ 24218.025000000001455, 5918993.775000000372529 ], [ 24218.099999999998545, 5918993.775000000372529 ], [ 24218.099999999998545, 5918993.700000000186265 ], [ 24218.25, 5918993.700000000186265 ], [ 24218.25, 5918993.625 ], [ 24218.325, 5918993.625 ], [ 24218.325, 5918993.549999999813735 ], [ 24218.400000000001455, 5918993.549999999813735 ], [ 24218.400000000001455, 5918993.474999999627471 ], [ 24218.55, 5918993.474999999627471 ], [ 24218.55, 5918993.400000000372529 ], [ 24218.625, 5918993.400000000372529 ], [ 24218.625, 5918993.325000000186265 ], [ 24218.775000000001455, 5918993.325000000186265 ], [ 24218.775000000001455, 5918993.25 ], [ 24218.925, 5918993.25 ], [ 24218.925, 5918993.174999999813735 ], [ 24219.075, 5918993.174999999813735 ], [ 24219.075, 5918993.099999999627471 ], [ 24219.224999999998545, 5918993.099999999627471 ], [ 24219.224999999998545, 5918993.025000000372529 ], [ 24219.375, 5918993.025000000372529 ], [ 24219.375, 5918992.950000000186265 ], [ 24219.525000000001455, 5918992.950000000186265 ], [ 24219.525000000001455, 5918992.875 ], [ 24219.599999999998545, 5918992.875 ], [ 24219.599999999998545, 5918992.799999999813735 ], [ 24219.675, 5918992.799999999813735 ], [ 24219.675, 5918992.724999999627471 ], [ 24219.75, 5918992.724999999627471 ], [ 24219.75, 5918992.650000000372529 ], [ 24219.900000000001455, 5918992.650000000372529 ], [ 24219.900000000001455, 5918992.575000000186265 ], [ 24219.974999999998545, 5918992.575000000186265 ], [ 24219.974999999998545, 5918992.5 ], [ 24220.05, 5918992.5 ], [ 24220.05, 5918992.424999999813735 ], [ 24220.125, 5918992.424999999813735 ], [ 24220.125, 5918992.349999999627471 ], [ 24220.2, 5918992.349999999627471 ], [ 24220.2, 5918992.200000000186265 ], [ 24220.275000000001455, 5918992.200000000186265 ], [ 24220.275000000001455, 5918992.125 ], [ 24220.349999999998545, 5918992.125 ], [ 24220.349999999998545, 5918992.049999999813735 ], [ 24220.425, 5918992.049999999813735 ], [ 24220.425, 5918991.974999999627471 ], [ 24220.5, 5918991.974999999627471 ], [ 24220.5, 5918991.825000000186265 ], [ 24220.575, 5918991.825000000186265 ], [ 24220.575, 5918991.75 ], [ 24220.724999999998545, 5918991.75 ], [ 24220.724999999998545, 5918991.674999999813735 ], [ 24220.8, 5918991.674999999813735 ], [ 24220.8, 5918991.599999999627471 ], [ 24220.875, 5918991.599999999627471 ], [ 24220.875, 5918991.525000000372529 ], [ 24220.95, 5918991.525000000372529 ], [ 24220.95, 5918991.450000000186265 ], [ 24221.099999999998545, 5918991.450000000186265 ], [ 24221.099999999998545, 5918991.375 ], [ 24221.400000000001455, 5918991.375 ], [ 24221.400000000001455, 5918991.299999999813735 ], [ 24221.7, 5918991.299999999813735 ], [ 24221.7, 5918991.224999999627471 ], [ 24222.075, 5918991.224999999627471 ], [ 24222.075, 5918991.150000000372529 ], [ 24222.375, 5918991.150000000372529 ], [ 24222.375, 5918991.075000000186265 ], [ 24222.75, 5918991.075000000186265 ], [ 24222.75, 5918991.0 ], [ 24223.349999999998545, 5918991.0 ], [ 24223.349999999998545, 5918990.924999999813735 ], [ 24224.025000000001455, 5918990.924999999813735 ], [ 24224.025000000001455, 5918990.849999999627471 ], [ 24224.775000000001455, 5918990.849999999627471 ], [ 24224.775000000001455, 5918990.775000000372529 ], [ 24226.05, 5918990.775000000372529 ], [ 24226.05, 5918990.700000000186265 ], [ 24230.625, 5918990.700000000186265 ], [ 24230.625, 5918990.775000000372529 ], [ 24234.3, 5918990.775000000372529 ], [ 24234.3, 5918990.849999999627471 ], [ 24235.875, 5918990.849999999627471 ], [ 24235.875, 5918990.924999999813735 ], [ 24237.3, 5918990.924999999813735 ], [ 24237.3, 5918991.0 ], [ 24238.650000000001455, 5918991.0 ], [ 24238.650000000001455, 5918991.075000000186265 ], [ 24239.775000000001455, 5918991.075000000186265 ], [ 24239.775000000001455, 5918991.150000000372529 ], [ 24240.75, 5918991.150000000372529 ], [ 24240.75, 5918991.224999999627471 ], [ 24241.2, 5918991.224999999627471 ], [ 24241.2, 5918991.299999999813735 ], [ 24241.650000000001455, 5918991.299999999813735 ], [ 24241.650000000001455, 5918991.375 ], [ 24242.025000000001455, 5918991.375 ], [ 24242.025000000001455, 5918991.450000000186265 ], [ 24242.325, 5918991.450000000186265 ], [ 24242.325, 5918991.525000000372529 ], [ 24242.625, 5918991.525000000372529 ], [ 24242.625, 5918991.599999999627471 ], [ 24242.7, 5918991.599999999627471 ], [ 24242.7, 5918991.674999999813735 ], [ 24242.849999999998545, 5918991.674999999813735 ], [ 24242.849999999998545, 5918991.75 ], [ 24242.925, 5918991.75 ], [ 24242.925, 5918991.825000000186265 ], [ 24243.0, 5918991.825000000186265 ], [ 24243.0, 5918991.900000000372529 ], [ 24243.075, 5918991.900000000372529 ], [ 24243.075, 5918991.974999999627471 ], [ 24243.150000000001455, 5918991.974999999627471 ], [ 24243.150000000001455, 5918992.049999999813735 ], [ 24243.224999999998545, 5918992.049999999813735 ], [ 24243.224999999998545, 5918992.200000000186265 ], [ 24243.3, 5918992.200000000186265 ], [ 24243.3, 5918992.275000000372529 ], [ 24243.375, 5918992.275000000372529 ], [ 24243.375, 5918992.424999999813735 ], [ 24243.45, 5918992.424999999813735 ], [ 24243.45, 5918992.5 ], [ 24243.525000000001455, 5918992.5 ], [ 24243.525000000001455, 5918992.650000000372529 ], [ 24243.599999999998545, 5918992.650000000372529 ], [ 24243.599999999998545, 5918992.724999999627471 ], [ 24243.675, 5918992.724999999627471 ], [ 24243.675, 5918992.875 ], [ 24243.75, 5918992.875 ], [ 24243.75, 5918992.950000000186265 ], [ 24243.825, 5918992.950000000186265 ], [ 24243.825, 5918993.025000000372529 ], [ 24243.900000000001455, 5918993.025000000372529 ], [ 24243.900000000001455, 5918993.099999999627471 ], [ 24243.974999999998545, 5918993.099999999627471 ], [ 24243.974999999998545, 5918993.25 ], [ 24244.05, 5918993.25 ], [ 24244.05, 5918993.325000000186265 ], [ 24244.125, 5918993.325000000186265 ], [ 24244.125, 5918993.400000000372529 ], [ 24244.2, 5918993.400000000372529 ], [ 24244.2, 5918993.474999999627471 ], [ 24244.275000000001455, 5918993.474999999627471 ], [ 24244.275000000001455, 5918993.549999999813735 ], [ 24244.349999999998545, 5918993.549999999813735 ], [ 24244.349999999998545, 5918993.625 ], [ 24244.425, 5918993.625 ], [ 24244.425, 5918993.700000000186265 ], [ 24244.5, 5918993.700000000186265 ], [ 24244.5, 5918993.849999999627471 ], [ 24244.575, 5918993.849999999627471 ], [ 24244.575, 5918993.924999999813735 ], [ 24244.650000000001455, 5918993.924999999813735 ], [ 24244.650000000001455, 5918994.0 ], [ 24244.724999999998545, 5918994.0 ], [ 24244.724999999998545, 5918994.075000000186265 ], [ 24244.8, 5918994.075000000186265 ], [ 24244.8, 5918994.150000000372529 ], [ 24244.875, 5918994.150000000372529 ], [ 24244.875, 5918994.224999999627471 ], [ 24244.95, 5918994.224999999627471 ], [ 24244.95, 5918994.375 ], [ 24245.025000000001455, 5918994.375 ], [ 24245.025000000001455, 5918994.450000000186265 ], [ 24245.099999999998545, 5918994.450000000186265 ], [ 24245.099999999998545, 5918994.599999999627471 ], [ 24245.175, 5918994.599999999627471 ], [ 24245.175, 5918994.75 ], [ 24245.25, 5918994.75 ], [ 24245.25, 5918994.900000000372529 ], [ 24245.325, 5918994.900000000372529 ], [ 24245.325, 5918995.049999999813735 ], [ 24245.400000000001455, 5918995.049999999813735 ], [ 24245.400000000001455, 5918995.275000000372529 ], [ 24245.474999999998545, 5918995.275000000372529 ], [ 24245.474999999998545, 5918995.424999999813735 ], [ 24245.55, 5918995.424999999813735 ], [ 24245.55, 5918995.650000000372529 ], [ 24245.625, 5918995.650000000372529 ], [ 24245.625, 5918995.950000000186265 ], [ 24245.7, 5918995.950000000186265 ], [ 24245.7, 5918998.200000000186265 ], [ 24245.625, 5918998.200000000186265 ], [ 24245.625, 5918998.5 ], [ 24245.55, 5918998.5 ], [ 24245.55, 5918998.799999999813735 ], [ 24245.474999999998545, 5918998.799999999813735 ], [ 24245.474999999998545, 5918999.025000000372529 ], [ 24245.400000000001455, 5918999.025000000372529 ], [ 24245.400000000001455, 5918999.25 ], [ 24245.325, 5918999.25 ], [ 24245.325, 5918999.400000000372529 ], [ 24245.25, 5918999.400000000372529 ], [ 24245.25, 5918999.625 ], [ 24245.175, 5918999.625 ], [ 24245.175, 5918999.775000000372529 ], [ 24245.099999999998545, 5918999.775000000372529 ], [ 24245.099999999998545, 5918999.924999999813735 ], [ 24245.025000000001455, 5918999.924999999813735 ], [ 24245.025000000001455, 5919000.0 ], [ 24244.95, 5919000.0 ], [ 24244.95, 5919000.150000000372529 ], [ 24244.875, 5919000.150000000372529 ], [ 24244.875, 5919000.224999999627471 ], [ 24244.8, 5919000.224999999627471 ], [ 24244.8, 5919000.375 ], [ 24244.724999999998545, 5919000.375 ], [ 24244.724999999998545, 5919000.450000000186265 ], [ 24244.650000000001455, 5919000.450000000186265 ], [ 24244.650000000001455, 5919000.525000000372529 ], [ 24244.575, 5919000.525000000372529 ], [ 24244.575, 5919000.599999999627471 ], [ 24244.5, 5919000.599999999627471 ], [ 24244.5, 5919000.674999999813735 ], [ 24244.425, 5919000.674999999813735 ], [ 24244.425, 5919000.75 ], [ 24244.349999999998545, 5919000.75 ], [ 24244.349999999998545, 5919000.900000000372529 ], [ 24244.275000000001455, 5919000.900000000372529 ], [ 24244.275000000001455, 5919000.974999999627471 ], [ 24244.2, 5919000.974999999627471 ], [ 24244.2, 5919001.125 ], [ 24244.125, 5919001.125 ], [ 24244.125, 5919001.200000000186265 ], [ 24244.05, 5919001.200000000186265 ], [ 24244.05, 5919001.349999999627471 ], [ 24243.974999999998545, 5919001.349999999627471 ], [ 24243.974999999998545, 5919001.5 ], [ 24243.900000000001455, 5919001.5 ], [ 24243.900000000001455, 5919001.575000000186265 ], [ 24243.825, 5919001.575000000186265 ], [ 24243.825, 5919001.724999999627471 ], [ 24243.75, 5919001.724999999627471 ], [ 24243.75, 5919001.875 ], [ 24243.675, 5919001.875 ], [ 24243.675, 5919002.025000000372529 ], [ 24243.599999999998545, 5919002.025000000372529 ], [ 24243.599999999998545, 5919002.099999999627471 ], [ 24243.525000000001455, 5919002.099999999627471 ], [ 24243.525000000001455, 5919002.25 ], [ 24243.45, 5919002.25 ], [ 24243.45, 5919002.325000000186265 ], [ 24243.375, 5919002.325000000186265 ], [ 24243.375, 5919002.400000000372529 ], [ 24243.3, 5919002.400000000372529 ], [ 24243.3, 5919002.474999999627471 ], [ 24243.224999999998545, 5919002.474999999627471 ], [ 24243.224999999998545, 5919002.549999999813735 ], [ 24243.150000000001455, 5919002.549999999813735 ], [ 24243.150000000001455, 5919002.625 ], [ 24243.075, 5919002.625 ], [ 24243.075, 5919002.700000000186265 ], [ 24243.0, 5919002.700000000186265 ], [ 24243.0, 5919002.775000000372529 ], [ 24242.925, 5919002.775000000372529 ], [ 24242.925, 5919002.849999999627471 ], [ 24242.775000000001455, 5919002.849999999627471 ], [ 24242.775000000001455, 5919002.924999999813735 ], [ 24242.625, 5919002.924999999813735 ], [ 24242.625, 5919003.0 ], [ 24242.400000000001455, 5919003.0 ], [ 24242.400000000001455, 5919003.075000000186265 ], [ 24241.875, 5919003.075000000186265 ], [ 24241.875, 5919003.150000000372529 ], [ 24241.275000000001455, 5919003.150000000372529 ], [ 24241.275000000001455, 5919003.224999999627471 ], [ 24240.675, 5919003.224999999627471 ], [ 24240.675, 5919003.299999999813735 ], [ 24240.075, 5919003.299999999813735 ], [ 24240.075, 5919003.224999999627471 ], [ 24228.0, 5919003.224999999627471 ], [ 24228.0, 5919003.299999999813735 ], [ 24226.275000000001455, 5919003.299999999813735 ] ] ] } }
]
}
