{
"type": "FeatureCollection",
"name": "24183E593982N_buildings",
"crs": { "type": "name", "properties": { "name": "urn:ogc:def:crs:EPSG::3776" } },
"features": [
{ "type": "Feature", "properties": { "value": 1.0, "building_id": 0, "area": 199.9968750005637 }, "geometry": { "type": "Polygon", "coordinates": [ [ [ 24911.474999999998545, 5940579.0 ], [ 24911.474999999998545, 5940576.0 ], [ 24911.55, 5940576.0 ], [ 24911.55, 5940575.849999999627471 ], [ 24911.625, 5940575.849999999627471 ], [ 24911.625, 5940575.775000000372529 ], [ 24911.7, 5940575.775000000372529 ], [ 24911.7, 5940575.625 ], [ 24911.775000000001455, 5940575.625 ], [ 24911.775000000001455, 5940575.549999999813735 ], [ 24911.849999999998545, 5940575.549999999813735 ], [ 24911.849999999998545, 5940575.474999999627471 ], [ 24911.925, 5940575.474999999627471 ], [ 24911.925, 5940575.325000000186265 ], [ 24912.0, 5940575.325000000186265 ], [ 24912.0, 5940575.25 ], [ 24912.075, 5940575.25 ], [ 24912.075, 5940575.174999999813735 ], [ 24912.150000000001455, 5940575.174999999813735 ], [ 24912.150000000001455, 5940575.099999999627471 ], [ 24912.224999999998545, 5940575.099999999627471 ], [ 24912.224999999998545, 5940575.025000000372529 ], [ 24912.3, 5940575.025000000372529 ], [ 24912.3, 5940574.950000000186265 ], [ 24912.375, 5940574.950000000186265 ], [ 24912.375, 5940574.875 ], [ 24912.45, 5940574.875 ], [ 24912.45, 5940574.799999999813735 ], [ 24912.525000000001455, 5940574.799999999813735 ], [ 24912.525000000001455, 5940574.724999999627471 ], [ 24912.599999999998545, 5940574.724999999627471 ], [ 24912.599999999998545, 5940574.650000000372529 ], [ 24912.75, 5940574.650000000372529 ], [ 24912.75, 5940574.575000000186265 ], [ 24912.825, 5940574.575000000186265 ], [ 24912.825, 5940574.5 ], [ 24912.900000000001455, 5940574.5 ], [ 24912.900000000001455, 5940574.424999999813735 ], [ 24912.974999999998545, 5940574.424999999813735 ], [ 24912.974999999998545, 5940574.275000000372529 ], [ 24913.05, 5940574.275000000372529 ], [ 24913.05, 5940574.200000000186265 ], [ 24913.125, 5940574.200000000186265 ], [ 24913.125, 5940574.125 ], [ 24913.2, 5940574.125 ], [ 24913.2, 5940574.049999999813735 ], [ 24913.275000000001455, 5940574.049999999813735 ], [ 24913.275000000001455, 5940573.974999999627471 ], [ 24913.349999999998545, 5940573.974999999627471 ], [ 24913.349999999998545, 5940573.900000000372529 ], [ 24913.5, 5940573.900000000372529 ], [ 24913.5, 5940573.825000000186265 ], [ 24913.575, 5940573.825000000186265 ], [ 24913.575, 5940573.75 ], [ 24913.724999999998545, 5940573.75 ], [ 24913.724999999998545, 5940573.674999999813735 ], [ 24913.875, 5940573.674999999813735 ], [ 24913.875, 5940573.599999999627471 ], [ 24913.95, 5940573.599999999627471 ], [ 24913.95, 5940573.525000000372529 ], [ 24914.099999999998545, 5940573.525000000372529 ], [ 24914.099999999998545, 5940573.450000000186265 ], [ 24914.325, 5940573.450000000186265 ], [ 24914.325, 5940573.375 ], [ 24914.474999999998545, 5940573.375 ], [ 24914.474999999998545, 5940573.299999999813735 ], [ 24914.7, 5940573.299999999813735 ], [ 24914.7, 5940573.224999999627471 ], [ 24914.849999999998545, 5940573.224999999627471 ], [ 24914.849999999998545, 5940573.150000000372529 ], [ 24915.0, 5940573.150000000372529 ], [ 24915.0, 5940573.075000000186265 ], [ 24915.224999999998545, 5940573.075000000186265 ], [ 24915.224999999998545, 5940573.0 ], [ 24915.375, 5940573.0 ], [ 24915.375, 5940572.924999999813735 ], [ 24915.525000000001455, 5940572.924999999813735 ], [ 24915.525000000001455, 5940572.849999999627471 ], [ 24915.675, 5940572.849999999627471 ], [ 24915.675, 5940572.775000000372529 ], [ 24915.75, 5940572.775000000372529 ], [ 24915.75, 5940572.700000000186265 ], [ 24915.900000000001455, 5940572.700000000186265 ], [ 24915.900000000001455, 5940572.625 ], [ 24916.05, 5940572.625 ], [ 24916.05, 5940572.549999999813735 ], [ 24916.125, 5940572.549999999813735 ], [ 24916.125, 5940572.474999999627471 ], [ 24916.2, 5940572.474999999627471 ], [ 24916.2, 5940572.400000000372529 ], [ 24916.349999999998545, 5940572.400000000372529 ], [ 24916.349999999998545, 5940572.325000000186265 ], [ 24916.425, 5940572.325000000186265 ], [ 24916.425, 5940572.25 ], [ 24916.5, 5940572.25 ], [ 24916.5, 5940572.174999999813735 ], [ 24916.575, 5940572.174999999813735 ], [ 24916.575, 5940572.099999999627471 ], [ 24916.724999999998545, 5940572.099999999627471 ], [ 24916.724999999998545, 5940572.025000000372529 ], [ 24916.8, 5940572.025000000372529 ], [ 24916.8, 5940571.950000000186265 ], [ 24916.875, 5940571.950000000186265 ], [ 24916.875, 5940571.875 ], [ 24916.95, 5940571.875 ], [ 24916.95, 5940571.799999999813735 ], [ 24917.025000000001455, 5940571.799999999813735 ], [ 24917.025000000001455, 5940571.724999999627471 ], [ 24917.099999999998545, 5940571.724999999627471 ], [ 24917.099999999998545, 5940571.650000000372529 ], [ 24917.25, 5940571.650000000372529 ], [ 24917.25, 5940571.575000000186265 ], [ 24917.325, 5940571.575000000186265 ], [ 24917.325, 5940571.5 ], [ 24917.400000000001455, 5940571.5 ], [ 24917.400000000001455, 5940571.424999999813735 ], [ 24917.474999999998545, 5940571.424999999813735 ], [ 24917.474999999998545, 5940571.349999999627471 ], [ 24917.625, 5940571.349999999627471 ], [ 24917.625, 5940571.275000000372529 ], [ 24917.7, 5940571.275000000372529 ], [ 24917.7, 5940571.200000000186265 ], [ 24917.775000000001455, 5940571.200000000186265 ], [ 24917.775000000001455, 5940571.125 ], [ 24917.925, 5940571.125 ], [ 24917.925, 5940571.049999999813735 ], [ 24918.0, 5940571.049999999813735 ], [ 24918.0, 5940570.974999999627471 ], [ 24918.075, 5940570.974999999627471 ], [ 24918.075, 5940570.900000000372529 ], [ 24918.224999999998545, 5940570.900000000372529 ], [ 24918.224999999998545, 5940570.825000000186265 ], [ 24918.3, 5940570.825000000186265 ], [ 24918.3, 5940570.75 ], [ 24918.45, 5940570.75 ], [ 24918.45, 5940570.674999999813735 ], [ 24918.525000000001455, 5940570.674999999813735 ], [ 24918.525000000001455, 5940570.599999999627471 ], [ 24918.599999999998545, 5940570.599999999627471 ], [ 24918.599999999998545, 5940570.525000000372529 ], [ 24918.675, 5940570.525000000372529 ], [ 24918.675, 5940570.450000000186265 ], [ 24918.75, 5940570.450000000186265 ], [ 24918.75, 5940570.375 ], [ 24918.825, 5940570.375 ], [ 24918.825, 5940570.299999999813735 ], [ 24918.900000000001455, 5940570.299999999813735 ], [ 24918.900000000001455, 5940570.224999999627471 ], [ 24918.974999999998545, 5940570.224999999627471 ], [ 24918.974999999998545, 5940570.150000000372529 ], [ 24919.05, 5940570.150000000372529 ], [ 24919.05, 5940570.0 ], [ 24919.125, 5940570.0 ], [ 24919.125, 5940569.924999999813735 ], [ 24919.2, 5940569.924999999813735 ], [ 24919.2, 5940569.775000000372529 ], [ 24919.275000000001455, 5940569.775000000372529 ], [ 24919.275000000001455, 5940569.700000000186265 ], [ 24919.349999999998545, 5940569.700000000186265 ], [ 24919.349999999998545, 5940569.625 ], [ 24919.425, 5940569.625 ], [ 24919.425, 5940569.474999999627471 ], [ 24919.5, 5940569.474999999627471 ], [ 24919.5, 5940569.400000000372529 ], [ 24919.575, 5940569.400000000372529 ], [ 24919.575, 5940569.25 ], [ 24919.650000000001455, 5940569.25 ], [ 24919.650000000001455, 5940569.174999999813735 ], [ 24919.724999999998545, 5940569.174999999813735 ], [ 24919.724999999998545, 5940569.025000000372529 ], [ 24919.8, 5940569.025000000372529 ], [ 24919.8, 5940568.950000000186265 ], [ 24919.875, 5940568.950000000186265 ], [ 24919.875, 5940568.875 ], [ 24919.95, 5940568.875 ], [ 24919.95, 5940568.724999999627471 ], [ 24920.025000000001455, 5940568.724999999627471 ], [ 24920.025000000001455, 5940568.650000000372529 ], [ 24920.099999999998545, 5940568.650000000372529 ], [ 24920.099999999998545, 5940568.5 ], [ 24920.175, 5940568.5 ], [ 24920.175, 5940568.424999999813735 ], [ 24920.25, 5940568.424999999813735 ], [ 24920.25, 5940568.275000000372529 ], [ 24920.400000000001455, 5940568.275000000372529 ], [ 24920.400000000001455, 5940568.200000000186265 ], [ 24920.55, 5940568.200000000186265 ], [ 24920.55, 5940568.125 ], [ 24920.7, 5940568.125 ], [ 24920.7, 5940568.049999999813735 ], [ 24920.925, 5940568.049999999813735 ], [ 24920.925, 5940567.974999999627471 ], [ 24921.075, 5940567.974999999627471 ], [ 24921.075, 5940567.900000000372529 ], [ 24921.3, 5940567.900000000372529 ], [ 24921.3, 5940567.825000000186265 ], [ 24921.45, 5940567.825000000186265 ], [ 24921.45, 5940567.75 ], [ 24921.675, 5940567.75 ], [ 24921.675, 5940567.674999999813735 ], [ 24921.825, 5940567.674999999813735 ], [ 24921.825, 5940567.599999999627471 ], [ 24921.974999999998545, 5940567.599999999627471 ], [ 24921.974999999998545, 5940567.525000000372529 ], [ 24922.2, 5940567.525000000372529 ], [ 24922.2, 5940567.450000000186265 ], [ 24922.650000000001455, 5940567.450000000186265 ], [ 24922.650000000001455, 5940567.525000000372529 ], [ 24923.7, 5940567.525000000372529 ], [ 24923.7, 5940567.599999999627471 ], [ 24924.675, 5940567.599999999627471 ], [ 24924.675, 5940567.674999999813735 ], [ 24925.650000000001455, 5940567.674999999813735 ], [ 24925.650000000001455, 5940567.75 ], [ 24926.474999999998545, 5940567.75 ], [ 24926.474999999998545, 5940567.825000000186265 ], [ 24927.3, 5940567.825000000186265 ], [ 24927.3, 5940567.900000000372529 ], [ 24928.05, 5940567.900000000372529 ], [ 24928.05, 5940567.974999999627471 ], [ 24929.25, 5940567.974999999627471 ], [ 24929.25, 5940568.049999999813735 ], [ 24933.0, 5940568.049999999813735 ], [ 24933.0, 5940579.0 ], [ 24911.474999999998545, 5940579.0 ] ] ] } },
{ "type": "Feature", "properties": { "value": 1.0, "building_id": 1, "area": 14.883749999874873 }, "geometry": { "type": "Polygon", "coordinates": [ [ [ 24264.974999999998545, 5940327.0 ], [ 24264.974999999998545, 5940326.924999999813735 ], [ 24264.075, 5940326.924999999813735 ], [ 24264.075, 5940326.849999999627471 ], [ 24263.925, 5940326.849999999627471 ], [ 24263.925, 5940326.775000000372529 ], [ 24263.849999999998545, 5940326.775000000372529 ], [ 24263.849999999998545, 5940326.700000000186265 ], [ 24263.775000000001455, 5940326.700000000186265 ], [ 24263.775000000001455, 5940326.625 ], [ 24263.7, 5940326.625 ], [ 24263.7, 5940326.474999999627471 ], [ 24263.625, 5940326.474999999627471 ], [ 24263.625, 5940326.400000000372529 ], [ 24263.55, 5940326.400000000372529 ], [ 24263.55, 5940326.325000000186265 ], [ 24263.474999999998545, 5940326.325000000186265 ], [ 24263.474999999998545, 5940326.174999999813735 ], [ 24263.400000000001455, 5940326.174999999813735 ], [ 24263.400000000001455, 5940325.950000000186265 ], [ 24263.325, 5940325.950000000186265 ], [ 24263.325, 5940325.650000000372529 ], [ 24263.25, 5940325.650000000372529 ], [ 24263.25, 5940325.275000000372529 ], [ 24263.175, 5940325.275000000372529 ], [ 24263.175, 5940324.974999999627471 ], [ 24263.099999999998545, 5940324.974999999627471 ], [ 24263.099999999998545, 5940324.599999999627471 ], [ 24263.025000000001455, 5940324.599999999627471 ], [ 24263.025000000001455, 5940324.224999999627471 ], [ 24262.95, 5940324.224999999627471 ], [ 24262.95, 5940324.075000000186265 ], [ 24263.025000000001455, 5940324.075000000186265 ], [ 24263.025000000001455, 5940323.849999999627471 ], [ 24263.099999999998545, 5940323.849999999627471 ], [ 24263.099999999998545, 5940323.700000000186265 ], [ 24263.175, 5940323.700000000186265 ], [ 24263.175, 5940323.549999999813735 ], [ 24263.25, 5940323.549999999813735 ], [ 24263.25, 5940323.400000000372529 ], [ 24263.325, 5940323.400000000372529 ], [ 24263.325, 5940323.25 ], [ 24263.400000000001455, 5940323.25 ], [ 24263.400000000001455, 5940323.099999999627471 ], [ 24263.474999999998545, 5940323.099999999627471 ], [ 24263.474999999998545, 5940323.025000000372529 ], [ 24263.55, 5940323.025000000372529 ], [ 24263.55, 5940322.875 ], [ 24263.625, 5940322.875 ], [ 24263.625, 5940322.799999999813735 ], [ 24263.7, 5940322.799999999813735 ], [ 24263.7, 5940322.724999999627471 ], [ 24263.775000000001455, 5940322.724999999627471 ], [ 24263.775000000001455, 5940322.650000000372529 ], [ 24263.849999999998545, 5940322.650000000372529 ], [ 24263.849999999998545, 5940322.575000000186265 ], [ 24263.925, 5940322.575000000186265 ], [ 24263.925, 5940322.5 ], [ 24264.0, 5940322.5 ], [ 24264.0, 5940322.424999999813735 ], [ 24264.3, 5940322.424999999813735 ], [ 24264.3, 5940322.5 ], [ 24264.525000000001455, 5940322.5 ], [ 24264.525000000001455, 5940322.575000000186265 ], [ 24264.825, 5940322.575000000186265 ], [ 24264.825, 5940322.650000000372529 ], [ 24265.05, 5940322.650000000372529 ], [ 24265.05, 5940322.724999999627471 ], [ 24265.349999999998545, 5940322.724999999627471 ], [ 24265.349999999998545, 5940322.799999999813735 ], [ 24265.650000000001455, 5940322.799999999813735 ], [ 24265.650000000001455, 5940322.875 ], [ 24265.95, 5940322.875 ], [ 24265.95, 5940322.950000000186265 ], [ 24266.099999999998545, 5940322.950000000186265 ], [ 24266.099999999998545, 5940323.025000000372529 ], [ 24266.175, 5940323.025000000372529 ], [ 24266.175, 5940323.099999999627471 ], [ 24266.25, 5940323.099999999627471 ], [ 24266.25, 5940323.174999999813735 ], [ 24266.325, 5940323.174999999813735 ], [ 24266.325, 5940323.25 ], [ 24266.400000000001455, 5940323.25 ], [ 24266.400000000001455, 5940323.325000000186265 ], [ 24266.474999999998545, 5940323.325000000186265 ], [ 24266.474999999998545, 5940323.400000000372529 ], [ 24266.55, 5940323.400000000372529 ], [ 24266.55, 5940323.474999999627471 ], [ 24266.625, 5940323.474999999627471 ], [ 24266.625, 5940323.549999999813735 ], [ 24266.7, 5940323.549999999813735 ], [ 24266.7, 5940323.700000000186265 ], [ 24266.775000000001455, 5940323.700000000186265 ], [ 24266.775000000001455, 5940323.849999999627471 ], [ 24266.849999999998545, 5940323.849999999627471 ], [ 24266.849999999998545, 5940323.924999999813735 ], [ 24266.925, 5940323.924999999813735 ], [ 24266.925, 5940324.075000000186265 ], [ 24267.0, 5940324.075000000186265 ], [ 24267.0, 5940325.049999999813735 ], [ 24267.075, 5940325.049999999813735 ], [ 24267.075, 5940325.875 ], [ 24267.150000000001455, 5940325.875 ], [ 24267.150000000001455, 5940326.099999999627471 ], [ 24267.075, 5940326.099999999627471 ], [ 24267.075, 5940326.25 ], [ 24267.0, 5940326.25 ], [ 24267.0, 5940326.325000000186265 ], [ 24266.925, 5940326.325000000186265 ], [ 24266.925, 5940326.400000000372529 ], [ 24266.849999999998545, 5940326.400000000372529 ], [ 24266.849999999998545, 5940326.474999999627471 ], [ 24266.775000000001455, 5940326.474999999627471 ], [ 24266.775000000001455, 5940326.549999999813735 ], [ 24266.7, 5940326.549999999813735 ], [ 24266.7, 5940326.625 ], [ 24266.55, 5940326.625 ], [ 24266.55, 5940326.700000000186265 ], [ 24266.474999999998545, 5940326.700000000186265 ], [ 24266.474999999998545, 5940326.775000000372529 ], [ 24266.325, 5940326.775000000372529 ], [ 24266.325, 5940326.849999999627471 ], [ 24266.25, 5940326.849999999627471 ], [ 24266.25, 5940326.924999999813735 ], [ 24266.099999999998545, 5940326.924999999813735 ], [ 24266.099999999998545, 5940327.0 ], [ 24264.974999999998545, 5940327.0 ] ] ] } },
{ "type": "Feature", "properties": { "value": 1.0, "building_id": 2, "area": 68.473125000180204 }, "geometry": { "type": "Polygon", "coordinates": [ [ [ 24875.325, 5940078.150000000372529 ], [ 24875.325, 5940078.075000000186265 ], [ 24874.5, 5940078.075000000186265 ], [ 24874.5, 5940078.0 ], [ 24873.974999999998545, 5940078.0 ], [ 24873.974999999998545, 5940077.924999999813735 ], [ 24873.45, 5940077.924999999813735 ], [ 24873.45, 5940077.849999999627471 ], [ 24873.375, 5940077.849999999627471 ], [ 24873.375, 5940077.775000000372529 ], [ 24873.3, 5940077.775000000372529 ], [ 24873.3, 5940077.700000000186265 ], [ 24873.224999999998545, 5940077.700000000186265 ], [ 24873.224999999998545, 5940077.549999999813735 ], [ 24873.150000000001455, 5940077.549999999813735 ], [ 24873.150000000001455, 5940077.474999999627471 ], [ 24873.075, 5940077.474999999627471 ], [ 24873.075, 5940077.400000000372529 ], [ 24873.0, 5940077.400000000372529 ], [ 24873.0, 5940077.25 ], [ 24872.925, 5940077.25 ], [ 24872.925, 5940077.174999999813735 ], [ 24872.849999999998545, 5940077.174999999813735 ], [ 24872.849999999998545, 5940077.099999999627471 ], [ 24872.775000000001455, 5940077.099999999627471 ], [ 24872.775000000001455, 5940077.025000000372529 ], [ 24872.7, 5940077.025000000372529 ], [ 24872.7, 5940076.875 ], [ 24872.625, 5940076.875 ], [ 24872.625, 5940076.799999999813735 ], [ 24872.55, 5940076.799999999813735 ], [ 24872.55, 5940076.650000000372529 ], [ 24872.474999999998545, 5940076.650000000372529 ], [ 24872.474999999998545, 5940076.575000000186265 ], [ 24872.400000000001455, 5940076.575000000186265 ], [ 24872.400000000001455, 5940076.5 ], [ 24872.325, 5940076.5 ], [ 24872.325, 5940076.349999999627471 ], [ 24872.25, 5940076.349999999627471 ], [ 24872.25, 5940076.275000000372529 ], [ 24872.175, 5940076.275000000372529 ], [ 24872.175, 5940076.125 ], [ 24872.099999999998545, 5940076.125 ], [ 24872.099999999998545, 5940075.974999999627471 ], [ 24872.025000000001455, 5940075.974999999627471 ], [ 24872.025000000001455, 5940075.825000000186265 ], [ 24871.95, 5940075.825000000186265 ], [ 24871.95, 5940075.599999999627471 ], [ 24871.875, 5940075.599999999627471 ], [ 24871.875, 5940075.450000000186265 ], [ 24871.8, 5940075.450000000186265 ], [ 24871.8, 5940075.299999999813735 ], [ 24871.724999999998545, 5940075.299999999813735 ], [ 24871.724999999998545, 5940075.075000000186265 ], [ 24871.650000000001455, 5940075.075000000186265 ], [ 24871.650000000001455, 5940074.924999999813735 ], [ 24871.575, 5940074.924999999813735 ], [ 24871.575, 5940074.775000000372529 ], [ 24871.5, 5940074.775000000372529 ], [ 24871.5, 5940074.700000000186265 ], [ 24871.425, 5940074.700000000186265 ], [ 24871.425, 5940074.549999999813735 ], [ 24871.349999999998545, 5940074.549999999813735 ], [ 24871.349999999998545, 5940074.400000000372529 ], [ 24871.275000000001455, 5940074.400000000372529 ], [ 24871.275000000001455, 5940074.25 ], [ 24871.2, 5940074.25 ], [ 24871.2, 5940072.674999999813735 ], [ 24871.275000000001455, 5940072.674999999813735 ], [ 24871.275000000001455, 5940071.025000000372529 ], [ 24871.349999999998545, 5940071.025000000372529 ], [ 24871.349999999998545, 5940069.375 ], [ 24871.425, 5940069.375 ], [ 24871.425, 5940068.25 ], [ 24871.5, 5940068.25 ], [ 24871.5, 5940068.099999999627471 ], [ 24871.575, 5940068.099999999627471 ], [ 24871.575, 5940068.025000000372529 ], [ 24871.650000000001455, 5940068.025000000372529 ], [ 24871.650000000001455, 5940067.950000000186265 ], [ 24871.724999999998545, 5940067.950000000186265 ], [ 24871.724999999998545, 5940067.875 ], [ 24871.8, 5940067.875 ], [ 24871.8, 5940067.724999999627471 ], [ 24871.875, 5940067.724999999627471 ], [ 24871.875, 5940067.650000000372529 ], [ 24871.95, 5940067.650000000372529 ], [ 24871.95, 5940067.5 ], [ 24872.025000000001455, 5940067.5 ], [ 24872.025000000001455, 5940067.424999999813735 ], [ 24872.099999999998545, 5940067.424999999813735 ], [ 24872.099999999998545, 5940067.275000000372529 ], [ 24872.175, 5940067.275000000372529 ], [ 24872.175, 5940067.125 ], [ 24872.25, 5940067.125 ], [ 24872.25, 5940066.974999999627471 ], [ 24872.325, 5940066.974999999627471 ], [ 24872.325, 5940066.825000000186265 ], [ 24872.400000000001455, 5940066.825000000186265 ], [ 24872.400000000001455, 5940066.674999999813735 ], [ 24872.474999999998545, 5940066.674999999813735 ], [ 24872.474999999998545, 5940066.525000000372529 ], [ 24872.55, 5940066.525000000372529 ], [ 24872.55, 5940066.375 ], [ 24872.625, 5940066.375 ], [ 24872.625, 5940066.224999999627471 ], [ 24872.7, 5940066.224999999627471 ], [ 24872.7, 5940066.150000000372529 ], [ 24872.775000000001455, 5940066.150000000372529 ], [ 24872.775000000001455, 5940066.075000000186265 ], [ 24872.849999999998545, 5940066.075000000186265 ], [ 24872.849999999998545, 5940066.0 ], [ 24872.925, 5940066.0 ], [ 24872.925, 5940065.924999999813735 ], [ 24873.0, 5940065.924999999813735 ], [ 24873.0, 5940065.849999999627471 ], [ 24873.075, 5940065.849999999627471 ], [ 24873.075, 5940065.775000000372529 ], [ 24873.150000000001455, 5940065.775000000372529 ], [ 24873.150000000001455, 5940065.700000000186265 ], [ 24873.3, 5940065.700000000186265 ], [ 24873.3, 5940065.625 ], [ 24873.375, 5940065.625 ], [ 24873.375, 5940065.549999999813735 ], [ 24875.400000000001455, 5940065.549999999813735 ], [ 24875.400000000001455, 5940065.625 ], [ 24875.474999999998545, 5940065.625 ], [ 24875.474999999998545, 5940065.700000000186265 ], [ 24875.55, 5940065.700000000186265 ], [ 24875.55, 5940065.775000000372529 ], [ 24875.625, 5940065.775000000372529 ], [ 24875.625, 5940065.849999999627471 ], [ 24875.7, 5940065.849999999627471 ], [ 24875.7, 5940065.924999999813735 ], [ 24875.775000000001455, 5940065.924999999813735 ], [ 24875.775000000001455, 5940066.0 ], [ 24875.849999999998545, 5940066.0 ], [ 24875.849999999998545, 5940066.075000000186265 ], [ 24875.925, 5940066.075000000186265 ], [ 24875.925, 5940066.150000000372529 ], [ 24876.0, 5940066.150000000372529 ], [ 24876.0, 5940066.224999999627471 ], [ 24876.075, 5940066.224999999627471 ], [ 24876.075, 5940066.299999999813735 ], [ 24876.150000000001455, 5940066.299999999813735 ], [ 24876.150000000001455, 5940066.450000000186265 ], [ 24876.224999999998545, 5940066.450000000186265 ], [ 24876.224999999998545, 5940066.599999999627471 ], [ 24876.3, 5940066.599999999627471 ], [ 24876.3, 5940066.75 ], [ 24876.375, 5940066.75 ], [ 24876.375, 5940066.900000000372529 ], [ 24876.45, 5940066.900000000372529 ], [ 24876.45, 5940067.049999999813735 ], [ 24876.525000000001455, 5940067.049999999813735 ], [ 24876.525000000001455, 5940067.200000000186265 ], [ 24876.599999999998545, 5940067.200000000186265 ], [ 24876.599999999998545, 5940067.349999999627471 ], [ 24876.675, 5940067.349999999627471 ], [ 24876.675, 5940067.424999999813735 ], [ 24876.75, 5940067.424999999813735 ], [ 24876.75, 5940067.575000000186265 ], [ 24876.825, 5940067.575000000186265 ], [ 24876.825, 5940067.650000000372529 ], [ 24876.900000000001455, 5940067.650000000372529 ], [ 24876.900000000001455, 5940067.799999999813735 ], [ 24876.974999999998545, 5940067.799999999813735 ], [ 24876.974999999998545, 5940067.875 ], [ 24877.05, 5940067.875 ], [ 24877.05, 5940067.950000000186265 ], [ 24877.125, 5940067.950000000186265 ], [ 24877.125, 5940068.025000000372529 ], [ 24877.2, 5940068.025000000372529 ], [ 24877.2, 5940068.174999999813735 ], [ 24877.275000000001455, 5940068.174999999813735 ], [ 24877.275000000001455, 5940068.25 ], [ 24877.349999999998545, 5940068.25 ], [ 24877.349999999998545, 5940068.700000000186265 ], [ 24877.425, 5940068.700000000186265 ], [ 24877.425, 5940069.299999999813735 ], [ 24877.5, 5940069.299999999813735 ], [ 24877.5, 5940069.900000000372529 ], [ 24877.575, 5940069.900000000372529 ], [ 24877.575, 5940070.5 ], [ 24877.650000000001455, 5940070.5 ], [ 24877.650000000001455, 5940071.025000000372529 ], [ 24877.724999999998545, 5940071.025000000372529 ], [ 24877.724999999998545, 5940071.549999999813735 ], [ 24877.8, 5940071.549999999813735 ], [ 24877.8, 5940072.075000000186265 ], [ 24877.875, 5940072.075000000186265 ], [ 24877.875, 5940072.525000000372529 ], [ 24877.95, 5940072.525000000372529 ], [ 24877.95, 5940072.900000000372529 ], [ 24878.025000000001455, 5940072.900000000372529 ], [ 24878.025000000001455, 5940073.275000000372529 ], [ 24878.099999999998545, 5940073.275000000372529 ], [ 24878.099999999998545, 5940073.650000000372529 ], [ 24878.175, 5940073.650000000372529 ], [ 24878.175, 5940074.025000000372529 ], [ 24878.25, 5940074.025000000372529 ], [ 24878.25, 5940074.174999999813735 ], [ 24878.175, 5940074.174999999813735 ], [ 24878.175, 5940074.474999999627471 ], [ 24878.099999999998545, 5940074.474999999627471 ], [ 24878.099999999998545, 5940074.849999999627471 ], [ 24878.025000000001455, 5940074.849999999627471 ], [ 24878.025000000001455, 5940075.150000000372529 ], [ 24877.95, 5940075.150000000372529 ], [ 24877.95, 5940075.450000000186265 ], [ 24877.875, 5940075.450000000186265 ], [ 24877.875, 5940075.75 ], [ 24877.8, 5940075.75 ], [ 24877.8, 5940076.049999999813735 ], [ 24877.724999999998545, 5940076.049999999813735 ], [ 24877.724999999998545, 5940076.200000000186265 ], [ 24877.650000000001455, 5940076.200000000186265 ], [ 24877.650000000001455, 5940076.275000000372529 ], [ 24877.575, 5940076.275000000372529 ], [ 24877.575, 5940076.349999999627471 ], [ 24877.5, 5940076.349999999627471 ], [ 24877.5, 5940076.424999999813735 ], [ 24877.425, 5940076.424999999813735 ], [ 24877.425, 5940076.5 ], [ 24877.349999999998545, 5940076.5 ], [ 24877.349999999998545, 5940076.575000000186265 ], [ 24877.2, 5940076.575000000186265 ], [ 24877.2, 5940076.650000000372529 ], [ 24877.05, 5940076.650000000372529 ], [ 24877.05, 5940076.724999999627471 ], [ 24876.974999999998545, 5940076.724999999627471 ], [ 24876.974999999998545, 5940076.799999999813735 ], [ 24876.825, 5940076.799999999813735 ], [ 24876.825, 5940076.875 ], [ 24876.675, 5940076.875 ], [ 24876.675, 5940076.950000000186265 ], [ 24876.599999999998545, 5940076.950000000186265 ], [ 24876.599999999998545, 5940077.025000000372529 ], [ 24876.525000000001455, 5940077.025000000372529 ], [ 24876.525000000001455, 5940077.099999999627471 ], [ 24876.375, 5940077.099999999627471 ], [ 24876.375, 5940077.174999999813735 ], [ 24876.3, 5940077.174999999813735 ], [ 24876.3, 5940077.25 ], [ 24876.224999999998545, 5940077.25 ], [ 24876.224999999998545, 5940077.325000000186265 ], [ 24876.150000000001455, 5940077.325000000186265 ], [ 24876.150000000001455, 5940077.400000000372529 ], [ 24876.075, 5940077.400000000372529 ], [ 24876.075, 5940077.474999999627471 ], [ 24876.0, 5940077.474999999627471 ], [ 24876.0, 5940077.549999999813735 ], [ 24875.925, 5940077.549999999813735 ], [ 24875.925, 5940077.625 ], [ 24875.849999999998545, 5940077.625 ], [ 24875.849999999998545, 5940077.700000000186265 ], [ 24875.775000000001455, 5940077.700000000186265 ], [ 24875.775000000001455, 5940077.775000000372529 ], [ 24875.7, 5940077.775000000372529 ], [ 24875.7, 5940077.849999999627471 ], [ 24875.625, 5940077.849999999627471 ], [ 24875.625, 5940077.924999999813735 ], [ 24875.55, 5940077.924999999813735 ], [ 24875.55, 5940078.075000000186265 ], [ 24875.400000000001455, 5940078.075000000186265 ], [ 24875.400000000001455, 5940078.150000000372529 ], [ 24875.325, 5940078.150000000372529 ] ] ] } },
{ "type": "Feature", "properties": { "value": 1.0, "building_id": 3, "area": 1177.4531249998579 }, "geometry": { "type": "Polygon", "coordinates": [ [ [ 24912.0, 5940092.549999999813735 ], [ 24912.0, 5940092.474999999627471 ], [ 24911.474999999998545, 5940092.474999999627471 ], [ 24911.474999999998545, 5940092.400000000372529 ], [ 24910.95, 5940092.400000000372529 ], [ 24910.95, 5940092.325000000186265 ], [ 24910.425, 5940092.325000000186265 ], [ 24910.425, 5940092.25 ], [ 24909.900000000001455, 5940092.25 ], [ 24909.900000000001455, 5940092.174999999813735 ], [ 24909.375, 5940092.174999999813735 ], [ 24909.375, 5940092.099999999627471 ], [ 24908.925, 5940092.099999999627471 ], [ 24908.925, 5940092.025000000372529 ], [ 24908.474999999998545, 5940092.025000000372529 ], [ 24908.474999999998545, 5940091.950000000186265 ], [ 24908.025000000001455, 5940091.950000000186265 ], [ 24908.025000000001455, 5940091.875 ], [ 24907.650000000001455, 5940091.875 ], [ 24907.650000000001455, 5940091.799999999813735 ], [ 24907.275000000001455, 5940091.799999999813735 ], [ 24907.275000000001455, 5940091.724999999627471 ], [ 24906.900000000001455, 5940091.724999999627471 ], [ 24906.900000000001455, 5940091.650000000372529 ], [ 24906.3, 5940091.650000000372529 ], [ 24906.3, 5940091.575000000186265 ], [ 24905.55, 5940091.575000000186265 ], [ 24905.55, 5940091.5 ], [ 24904.724999999998545, 5940091.5 ], [ 24904.724999999998545, 5940091.424999999813735 ], [ 24903.75, 5940091.424999999813735 ], [ 24903.75, 5940091.349999999627471 ], [ 24902.775000000001455, 5940091.349999999627471 ], [ 24902.775000000001455, 5940091.275000000372529 ], [ 24902.025000000001455, 5940091.275000000372529 ], [ 24902.025000000001455, 5940091.200000000186265 ], [ 24901.425, 5940091.200000000186265 ], [ 24901.425, 5940091.125 ], [ 24900.900000000001455, 5940091.125 ], [ 24900.900000000001455, 5940091.049999999813735 ], [ 24900.45, 5940091.049999999813735 ], [ 24900.45, 5940090.974999999627471 ], [ 24900.075, 5940090.974999999627471 ], [ 24900.075, 5940090.900000000372529 ], [ 24899.775000000001455, 5940090.900000000372529 ], [ 24899.775000000001455, 5940090.825000000186265 ], [ 24899.55, 5940090.825000000186265 ], [ 24899.55, 5940090.75 ], [ 24899.25, 5940090.75 ], [ 24899.25, 5940090.674999999813735 ], [ 24899.099999999998545, 5940090.674999999813735 ], [ 24899.099999999998545, 5940090.599999999627471 ], [ 24898.875, 5940090.599999999627471 ], [ 24898.875, 5940090.525000000372529 ], [ 24898.8, 5940090.525000000372529 ], [ 24898.8, 5940090.450000000186265 ], [ 24898.724999999998545, 5940090.450000000186265 ], [ 24898.724999999998545, 5940090.375 ], [ 24898.650000000001455, 5940090.375 ], [ 24898.650000000001455, 5940090.299999999813735 ], [ 24898.575, 5940090.299999999813735 ], [ 24898.575, 5940090.224999999627471 ], [ 24898.5, 5940090.224999999627471 ], [ 24898.5, 5940090.150000000372529 ], [ 24898.425, 5940090.150000000372529 ], [ 24898.425, 5940090.075000000186265 ], [ 24898.349999999998545, 5940090.075000000186265 ], [ 24898.349999999998545, 5940089.924999999813735 ], [ 24898.275000000001455, 5940089.924999999813735 ], [ 24898.275000000001455, 5940089.849999999627471 ], [ 24898.2, 5940089.849999999627471 ], [ 24898.2, 5940089.700000000186265 ], [ 24898.125, 5940089.700000000186265 ], [ 24898.125, 5940089.474999999627471 ], [ 24898.05, 5940089.474999999627471 ], [ 24898.05, 5940089.25 ], [ 24897.974999999998545, 5940089.25 ], [ 24897.974999999998545, 5940089.025000000372529 ], [ 24897.900000000001455, 5940089.025000000372529 ], [ 24897.900000000001455, 5940088.724999999627471 ], [ 24897.825, 5940088.724999999627471 ], [ 24897.825, 5940088.5 ], [ 24897.75, 5940088.5 ], [ 24897.75, 5940088.125 ], [ 24897.675, 5940088.125 ], [ 24897.675, 5940087.825000000186265 ], [ 24897.599999999998545, 5940087.825000000186265 ], [ 24897.599999999998545, 5940087.375 ], [ 24897.525000000001455, 5940087.375 ], [ 24897.525000000001455, 5940086.924999999813735 ], [ 24897.45, 5940086.924999999813735 ], [ 24897.45, 5940086.400000000372529 ], [ 24897.375, 5940086.400000000372529 ], [ 24897.375, 5940085.875 ], [ 24897.3, 5940085.875 ], [ 24897.3, 5940085.275000000372529 ], [ 24897.224999999998545, 5940085.275000000372529 ], [ 24897.224999999998545, 5940084.599999999627471 ], [ 24897.150000000001455, 5940084.599999999627471 ], [ 24897.150000000001455, 5940083.924999999813735 ], [ 24897.075, 5940083.924999999813735 ], [ 24897.075, 5940082.950000000186265 ], [ 24897.0, 5940082.950000000186265 ], [ 24897.0, 5940081.900000000372529 ], [ 24896.925, 5940081.900000000372529 ], [ 24896.925, 5940080.174999999813735 ], [ 24896.849999999998545, 5940080.174999999813735 ], [ 24896.849999999998545, 5940078.974999999627471 ], [ 24896.775000000001455, 5940078.974999999627471 ], [ 24896.775000000001455, 5940077.924999999813735 ], [ 24896.7, 5940077.924999999813735 ], [ 24896.7, 5940076.724999999627471 ], [ 24896.625, 5940076.724999999627471 ], [ 24896.625, 5940075.825000000186265 ], [ 24896.55, 5940075.825000000186265 ], [ 24896.55, 5940075.224999999627471 ], [ 24896.474999999998545, 5940075.224999999627471 ], [ 24896.474999999998545, 5940074.625 ], [ 24896.400000000001455, 5940074.625 ], [ 24896.400000000001455, 5940074.025000000372529 ], [ 24896.325, 5940074.025000000372529 ], [ 24896.325, 5940073.575000000186265 ], [ 24896.25, 5940073.575000000186265 ], [ 24896.25, 5940073.125 ], [ 24896.175, 5940073.125 ], [ 24896.175, 5940072.674999999813735 ], [ 24896.099999999998545, 5940072.674999999813735 ], [ 24896.099999999998545, 5940072.150000000372529 ], [ 24896.025000000001455, 5940072.150000000372529 ], [ 24896.025000000001455, 5940071.625 ], [ 24895.95, 5940071.625 ], [ 24895.95, 5940071.025000000372529 ], [ 24895.875, 5940071.025000000372529 ], [ 24895.875, 5940070.424999999813735 ], [ 24895.8, 5940070.424999999813735 ], [ 24895.8, 5940069.900000000372529 ], [ 24895.724999999998545, 5940069.900000000372529 ], [ 24895.724999999998545, 5940069.299999999813735 ], [ 24895.650000000001455, 5940069.299999999813735 ], [ 24895.650000000001455, 5940068.700000000186265 ], [ 24895.575, 5940068.700000000186265 ], [ 24895.575, 5940067.424999999813735 ], [ 24895.650000000001455, 5940067.424999999813735 ], [ 24895.650000000001455, 5940066.299999999813735 ], [ 24895.724999999998545, 5940066.299999999813735 ], [ 24895.724999999998545, 5940066.075000000186265 ], [ 24895.8, 5940066.075000000186265 ], [ 24895.8, 5940065.924999999813735 ], [ 24895.875, 5940065.924999999813735 ], [ 24895.875, 5940065.700000000186265 ], [ 24895.95, 5940065.700000000186265 ], [ 24895.95, 5940065.549999999813735 ], [ 24896.025000000001455, 5940065.549999999813735 ], [ 24896.025000000001455, 5940065.400000000372529 ], [ 24896.099999999998545, 5940065.400000000372529 ], [ 24896.099999999998545, 5940065.174999999813735 ], [ 24896.175, 5940065.174999999813735 ], [ 24896.175, 5940065.099999999627471 ], [ 24896.25, 5940065.099999999627471 ], [ 24896.25, 5940064.950000000186265 ], [ 24896.325, 5940064.950000000186265 ], [ 24896.325, 5940064.799999999813735 ], [ 24896.400000000001455, 5940064.799999999813735 ], [ 24896.400000000001455, 5940064.650000000372529 ], [ 24896.474999999998545, 5940064.650000000372529 ], [ 24896.474999999998545, 5940064.575000000186265 ], [ 24896.55, 5940064.575000000186265 ], [ 24896.55, 5940064.424999999813735 ], [ 24896.625, 5940064.424999999813735 ], [ 24896.625, 5940064.349999999627471 ], [ 24896.7, 5940064.349999999627471 ], [ 24896.7, 5940064.275000000372529 ], [ 24896.775000000001455, 5940064.275000000372529 ], [ 24896.775000000001455, 5940064.200000000186265 ], [ 24896.849999999998545, 5940064.200000000186265 ], [ 24896.849999999998545, 5940064.049999999813735 ], [ 24896.925, 5940064.049999999813735 ], [ 24896.925, 5940063.974999999627471 ], [ 24897.0, 5940063.974999999627471 ], [ 24897.0, 5940063.825000000186265 ], [ 24897.075, 5940063.825000000186265 ], [ 24897.075, 5940063.674999999813735 ], [ 24897.150000000001455, 5940063.674999999813735 ], [ 24897.150000000001455, 5940063.599999999627471 ], [ 24897.224999999998545, 5940063.599999999627471 ], [ 24897.224999999998545, 5940063.450000000186265 ], [ 24897.3, 5940063.450000000186265 ], [ 24897.3, 5940063.375 ], [ 24897.375, 5940063.375 ], [ 24897.375, 5940063.224999999627471 ], [ 24897.45, 5940063.224999999627471 ], [ 24897.45, 5940063.150000000372529 ], [ 24897.525000000001455, 5940063.150000000372529 ], [ 24897.525000000001455, 5940063.0 ], [ 24897.599999999998545, 5940063.0 ], [ 24897.599999999998545, 5940062.924999999813735 ], [ 24897.675, 5940062.924999999813735 ], [ 24897.675, 5940062.849999999627471 ], [ 24897.75, 5940062.849999999627471 ], [ 24897.75, 5940062.700000000186265 ], [ 24897.825, 5940062.700000000186265 ], [ 24897.825, 5940062.625 ], [ 24897.900000000001455, 5940062.625 ], [ 24897.900000000001455, 5940062.549999999813735 ], [ 24897.974999999998545, 5940062.549999999813735 ], [ 24897.974999999998545, 5940062.400000000372529 ], [ 24898.05, 5940062.400000000372529 ], [ 24898.05, 5940062.325000000186265 ], [ 24898.125, 5940062.325000000186265 ], [ 24898.125, 5940062.25 ], [ 24898.2, 5940062.25 ], [ 24898.2, 5940062.174999999813735 ], [ 24898.275000000001455, 5940062.174999999813735 ], [ 24898.275000000001455, 5940062.099999999627471 ], [ 24898.349999999998545, 5940062.099999999627471 ], [ 24898.349999999998545, 5940062.025000000372529 ], [ 24898.425, 5940062.025000000372529 ], [ 24898.425, 5940061.950000000186265 ], [ 24898.5, 5940061.950000000186265 ], [ 24898.5, 5940061.875 ], [ 24898.650000000001455, 5940061.875 ], [ 24898.650000000001455, 5940061.799999999813735 ], [ 24898.724999999998545, 5940061.799999999813735 ], [ 24898.724999999998545, 5940061.724999999627471 ], [ 24898.8, 5940061.724999999627471 ], [ 24898.8, 5940061.650000000372529 ], [ 24898.95, 5940061.650000000372529 ], [ 24898.95, 5940061.575000000186265 ], [ 24899.025000000001455, 5940061.575000000186265 ], [ 24899.025000000001455, 5940061.5 ], [ 24899.099999999998545, 5940061.5 ], [ 24899.099999999998545, 5940061.424999999813735 ], [ 24899.175, 5940061.424999999813735 ], [ 24899.175, 5940061.349999999627471 ], [ 24899.325, 5940061.349999999627471 ], [ 24899.325, 5940061.275000000372529 ], [ 24899.400000000001455, 5940061.275000000372529 ], [ 24899.400000000001455, 5940061.200000000186265 ], [ 24899.474999999998545, 5940061.200000000186265 ], [ 24899.474999999998545, 5940061.125 ], [ 24899.625, 5940061.125 ], [ 24899.625, 5940061.049999999813735 ], [ 24899.7, 5940061.049999999813735 ], [ 24899.7, 5940060.974999999627471 ], [ 24899.775000000001455, 5940060.974999999627471 ], [ 24899.775000000001455, 5940060.900000000372529 ], [ 24899.925, 5940060.900000000372529 ], [ 24899.925, 5940060.825000000186265 ], [ 24900.0, 5940060.825000000186265 ], [ 24900.0, 5940060.75 ], [ 24900.150000000001455, 5940060.75 ], [ 24900.150000000001455, 5940060.674999999813735 ], [ 24900.224999999998545, 5940060.674999999813735 ], [ 24900.224999999998545, 5940060.599999999627471 ], [ 24900.375, 5940060.599999999627471 ], [ 24900.375, 5940060.525000000372529 ], [ 24900.45, 5940060.525000000372529 ], [ 24900.45, 5940060.450000000186265 ], [ 24900.599999999998545, 5940060.450000000186265 ], [ 24900.599999999998545, 5940060.375 ], [ 24900.75, 5940060.375 ], [ 24900.75, 5940060.299999999813735 ], [ 24900.825, 5940060.299999999813735 ], [ 24900.825, 5940060.224999999627471 ], [ 24900.974999999998545, 5940060.224999999627471 ], [ 24900.974999999998545, 5940060.150000000372529 ], [ 24901.125, 5940060.150000000372529 ], [ 24901.125, 5940060.075000000186265 ], [ 24901.275000000001455, 5940060.075000000186265 ], [ 24901.275000000001455, 5940060.0 ], [ 24901.425, 5940060.0 ], [ 24901.425, 5940059.924999999813735 ], [ 24901.650000000001455, 5940059.924999999813735 ], [ 24901.650000000001455, 5940059.849999999627471 ], [ 24901.8, 5940059.849999999627471 ], [ 24901.8, 5940059.775000000372529 ], [ 24902.025000000001455, 5940059.775000000372529 ], [ 24902.025000000001455, 5940059.700000000186265 ], [ 24902.175, 5940059.700000000186265 ], [ 24902.175, 5940059.625 ], [ 24902.400000000001455, 5940059.625 ], [ 24902.400000000001455, 5940059.549999999813735 ], [ 24902.625, 5940059.549999999813735 ], [ 24902.625, 5940059.474999999627471 ], [ 24902.925, 5940059.474999999627471 ], [ 24902.925, 5940059.400000000372529 ], [ 24903.224999999998545, 5940059.400000000372529 ], [ 24903.224999999998545, 5940059.325000000186265 ], [ 24903.525000000001455, 5940059.325000000186265 ], [ 24903.525000000001455, 5940059.25 ], [ 24903.825, 5940059.25 ], [ 24903.825, 5940059.174999999813735 ], [ 24904.125, 5940059.174999999813735 ], [ 24904.125, 5940059.099999999627471 ], [ 24904.425, 5940059.099999999627471 ], [ 24904.425, 5940059.025000000372529 ], [ 24904.724999999998545, 5940059.025000000372529 ], [ 24904.724999999998545, 5940058.950000000186265 ], [ 24905.175, 5940058.950000000186265 ], [ 24905.175, 5940058.875 ], [ 24905.625, 5940058.875 ], [ 24905.625, 5940058.799999999813735 ], [ 24906.0, 5940058.799999999813735 ], [ 24906.0, 5940058.724999999627471 ], [ 24906.375, 5940058.724999999627471 ], [ 24906.375, 5940058.650000000372529 ], [ 24906.900000000001455, 5940058.650000000372529 ], [ 24906.900000000001455, 5940058.575000000186265 ], [ 24907.650000000001455, 5940058.575000000186265 ], [ 24907.650000000001455, 5940058.5 ], [ 24908.325, 5940058.5 ], [ 24908.325, 5940058.424999999813735 ], [ 24909.075, 5940058.424999999813735 ], [ 24909.075, 5940058.349999999627471 ], [ 24909.825, 5940058.349999999627471 ], [ 24909.825, 5940058.275000000372529 ], [ 24910.650000000001455, 5940058.275000000372529 ], [ 24910.650000000001455, 5940058.200000000186265 ], [ 24911.474999999998545, 5940058.200000000186265 ], [ 24911.474999999998545, 5940058.125 ], [ 24912.375, 5940058.125 ], [ 24912.375, 5940058.049999999813735 ], [ 24918.599999999998545, 5940058.049999999813735 ], [ 24918.599999999998545, 5940058.125 ], [ 24921.75, 5940058.125 ], [ 24921.75, 5940058.200000000186265 ], [ 24923.25, 5940058.200000000186265 ], [ 24923.25, 5940058.275000000372529 ], [ 24924.45, 5940058.275000000372529 ], [ 24924.45, 5940058.349999999627471 ], [ 24925.575, 5940058.349999999627471 ], [ 24925.575, 5940058.424999999813735 ], [ 24926.55, 5940058.424999999813735 ], [ 24926.55, 5940058.5 ], [ 24927.45, 5940058.5 ], [ 24927.45, 5940058.575000000186265 ], [ 24928.875, 5940058.575000000186265 ], [ 24928.875, 5940058.650000000372529 ], [ 24933.0, 5940058.650000000372529 ], [ 24933.0, 5940090.525000000372529 ], [ 24927.599999999998545, 5940090.525000000372529 ], [ 24927.599999999998545, 5940090.599999999627471 ], [ 24925.95, 5940090.599999999627471 ], [ 24925.95, 5940090.674999999813735 ], [ 24924.525000000001455, 5940090.674999999813735 ], [ 24924.525000000001455, 5940090.75 ], [ 24923.25, 5940090.75 ], [ 24923.25, 5940090.825000000186265 ], [ 24922.2, 5940090.825000000186265 ], [ 24922.2, 5940090.900000000372529 ], [ 24921.525000000001455, 5940090.900000000372529 ], [ 24921.525000000001455, 5940090.974999999627471 ], [ 24920.849999999998545, 5940090.974999999627471 ], [ 24920.849999999998545, 5940091.049999999813735 ], [ 24920.25, 5940091.049999999813735 ], [ 24920.25, 5940091.125 ], [ 24919.8, 5940091.125 ], [ 24919.8, 5940091.200000000186265 ], [ 24919.425, 5940091.200000000186265 ], [ 24919.425, 5940091.275000000372529 ], [ 24918.974999999998545, 5940091.275000000372529 ], [ 24918.974999999998545, 5940091.349999999627471 ], [ 24918.675, 5940091.349999999627471 ], [ 24918.675, 5940091.424999999813735 ], [ 24918.3, 5940091.424999999813735 ], [ 24918.3, 5940091.5 ], [ 24918.0, 5940091.5 ], [ 24918.0, 5940091.575000000186265 ], [ 24917.7, 5940091.575000000186265 ], [ 24917.7, 5940091.650000000372529 ], [ 24917.474999999998545, 5940091.650000000372529 ], [ 24917.474999999998545, 5940091.724999999627471 ], [ 24917.25, 5940091.724999999627471 ], [ 24917.25, 5940091.799999999813735 ], [ 24917.025000000001455, 5940091.799999999813735 ], [ 24917.025000000001455, 5940091.875 ], [ 24916.724999999998545, 5940091.875 ], [ 24916.724999999998545, 5940091.950000000186265 ], [ 24916.5, 5940091.950000000186265 ], [ 24916.5, 5940092.025000000372529 ], [ 24916.2, 5940092.025000000372529 ], [ 24916.2, 5940092.099999999627471 ], [ 24915.900000000001455, 5940092.099999999627471 ], [ 24915.900000000001455, 5940092.174999999813735 ], [ 24915.675, 5940092.174999999813735 ], [ 24915.675, 5940092.25 ], [ 24915.375, 5940092.25 ], [ 24915.375, 5940092.325000000186265 ], [ 24915.075, 5940092.325000000186265 ], [ 24915.075, 5940092.400000000372529 ], [ 24914.775000000001455, 5940092.400000000372529 ], [ 24914.775000000001455, 5940092.474999999627471 ], [ 24914.474999999998545, 5940092.474999999627471 ], [ 24914.474999999998545, 5940092.549999999813735 ], [ 24912.0, 5940092.549999999813735 ] ] ] } },
{ "type": "Feature", "properties": { "value": 1.0, "building_id": 4, "area": 747.76500000028659 }, "geometry": { "type": "Polygon", "coordinates": [ [ [ 24930.075, 5939988.375 ], [ 24930.075, 5939988.299999999813735 ], [ 24930.0, 5939988.299999999813735 ], [ 24930.0, 5939988.224999999627471 ], [ 24929.925, 5939988.224999999627471 ], [ 24929.925, 5939988.150000000372529 ], [ 24929.849999999998545, 5939988.150000000372529 ], [ 24929.849999999998545, 5939988.0 ], [ 24929.775000000001455, 5939988.0 ], [ 24929.775000000001455, 5939987.924999999813735 ], [ 24929.7, 5939987.924999999813735 ], [ 24929.7, 5939987.775000000372529 ], [ 24929.625, 5939987.775000000372529 ], [ 24929.625, 5939987.625 ], [ 24929.55, 5939987.625 ], [ 24929.55, 5939987.474999999627471 ], [ 24929.474999999998545, 5939987.474999999627471 ], [ 24929.474999999998545, 5939987.325000000186265 ], [ 24929.400000000001455, 5939987.325000000186265 ], [ 24929.400000000001455, 5939987.174999999813735 ], [ 24929.325, 5939987.174999999813735 ], [ 24929.325, 5939986.950000000186265 ], [ 24929.25, 5939986.950000000186265 ], [ 24929.25, 5939986.799999999813735 ], [ 24929.175, 5939986.799999999813735 ], [ 24929.175, 5939986.650000000372529 ], [ 24929.099999999998545, 5939986.650000000372529 ], [ 24929.099999999998545, 5939986.5 ], [ 24929.025000000001455, 5939986.5 ], [ 24929.025000000001455, 5939986.275000000372529 ], [ 24928.95, 5939986.275000000372529 ], [ 24928.95, 5939986.125 ], [ 24928.875, 5939986.125 ], [ 24928.875, 5939985.900000000372529 ], [ 24928.8, 5939985.900000000372529 ], [ 24928.8, 5939985.75 ], [ 24928.724999999998545, 5939985.75 ], [ 24928.724999999998545, 5939985.525000000372529 ], [ 24928.650000000001455, 5939985.525000000372529 ], [ 24928.650000000001455, 5939985.299999999813735 ], [ 24928.575, 5939985.299999999813735 ], [ 24928.575, 5939985.150000000372529 ], [ 24928.5, 5939985.150000000372529 ], [ 24928.5, 5939984.924999999813735 ], [ 24928.425, 5939984.924999999813735 ], [ 24928.425, 5939984.700000000186265 ], [ 24928.349999999998545, 5939984.700000000186265 ], [ 24928.349999999998545, 5939984.474999999627471 ], [ 24928.275000000001455, 5939984.474999999627471 ], [ 24928.275000000001455, 5939984.25 ], [ 24928.2, 5939984.25 ], [ 24928.2, 5939984.025000000372529 ], [ 24928.125, 5939984.025000000372529 ], [ 24928.125, 5939983.799999999813735 ], [ 24928.05, 5939983.799999999813735 ], [ 24928.05, 5939983.5 ], [ 24927.974999999998545, 5939983.5 ], [ 24927.974999999998545, 5939983.125 ], [ 24927.900000000001455, 5939983.125 ], [ 24927.900000000001455, 5939982.825000000186265 ], [ 24927.825, 5939982.825000000186265 ], [ 24927.825, 5939982.375 ], [ 24927.75, 5939982.375 ], [ 24927.75, 5939981.924999999813735 ], [ 24927.675, 5939981.924999999813735 ], [ 24927.675, 5939981.325000000186265 ], [ 24927.599999999998545, 5939981.325000000186265 ], [ 24927.599999999998545, 5939980.724999999627471 ], [ 24927.525000000001455, 5939980.724999999627471 ], [ 24927.525000000001455, 5939979.900000000372529 ], [ 24927.45, 5939979.900000000372529 ], [ 24927.45, 5939979.0 ], [ 24927.375, 5939979.0 ], [ 24927.375, 5939977.950000000186265 ], [ 24927.3, 5939977.950000000186265 ], [ 24927.3, 5939976.900000000372529 ], [ 24927.224999999998545, 5939976.900000000372529 ], [ 24927.224999999998545, 5939975.775000000372529 ], [ 24927.150000000001455, 5939975.775000000372529 ], [ 24927.150000000001455, 5939974.650000000372529 ], [ 24927.075, 5939974.650000000372529 ], [ 24927.075, 5939974.275000000372529 ], [ 24927.150000000001455, 5939974.275000000372529 ], [ 24927.150000000001455, 5939972.625 ], [ 24927.224999999998545, 5939972.625 ], [ 24927.224999999998545, 5939972.099999999627471 ], [ 24927.3, 5939972.099999999627471 ], [ 24927.3, 5939971.650000000372529 ], [ 24927.375, 5939971.650000000372529 ], [ 24927.375, 5939971.275000000372529 ], [ 24927.45, 5939971.275000000372529 ], [ 24927.45, 5939970.900000000372529 ], [ 24927.525000000001455, 5939970.900000000372529 ], [ 24927.525000000001455, 5939970.525000000372529 ], [ 24927.599999999998545, 5939970.525000000372529 ], [ 24927.599999999998545, 5939970.150000000372529 ], [ 24927.675, 5939970.150000000372529 ], [ 24927.675, 5939969.849999999627471 ], [ 24927.75, 5939969.849999999627471 ], [ 24927.75, 5939969.549999999813735 ], [ 24927.825, 5939969.549999999813735 ], [ 24927.825, 5939969.25 ], [ 24927.900000000001455, 5939969.25 ], [ 24927.900000000001455, 5939968.950000000186265 ], [ 24927.974999999998545, 5939968.950000000186265 ], [ 24927.974999999998545, 5939968.650000000372529 ], [ 24928.05, 5939968.650000000372529 ], [ 24928.05, 5939968.424999999813735 ], [ 24928.125, 5939968.424999999813735 ], [ 24928.125, 5939968.200000000186265 ], [ 24928.2, 5939968.200000000186265 ], [ 24928.2, 5939967.974999999627471 ], [ 24928.275000000001455, 5939967.974999999627471 ], [ 24928.275000000001455, 5939967.75 ], [ 24928.349999999998545, 5939967.75 ], [ 24928.349999999998545, 5939967.599999999627471 ], [ 24928.425, 5939967.599999999627471 ], [ 24928.425, 5939967.375 ], [ 24928.5, 5939967.375 ], [ 24928.5, 5939967.150000000372529 ], [ 24928.575, 5939967.150000000372529 ], [ 24928.575, 5939966.924999999813735 ], [ 24928.650000000001455, 5939966.924999999813735 ], [ 24928.650000000001455, 5939966.775000000372529 ], [ 24928.724999999998545, 5939966.775000000372529 ], [ 24928.724999999998545, 5939966.400000000372529 ], [ 24928.8, 5939966.400000000372529 ], [ 24928.8, 5939966.099999999627471 ], [ 24928.875, 5939966.099999999627471 ], [ 24928.875, 5939965.799999999813735 ], [ 24928.95, 5939965.799999999813735 ], [ 24928.95, 5939965.424999999813735 ], [ 24929.025000000001455, 5939965.424999999813735 ], [ 24929.025000000001455, 5939965.125 ], [ 24929.099999999998545, 5939965.125 ], [ 24929.099999999998545, 5939964.825000000186265 ], [ 24929.175, 5939964.825000000186265 ], [ 24929.175, 5939964.299999999813735 ], [ 24929.25, 5939964.299999999813735 ], [ 24929.25, 5939963.700000000186265 ], [ 24929.325, 5939963.700000000186265 ], [ 24929.325, 5939963.099999999627471 ], [ 24929.400000000001455, 5939963.099999999627471 ], [ 24929.400000000001455, 5939962.575000000186265 ], [ 24929.474999999998545, 5939962.575000000186265 ], [ 24929.474999999998545, 5939962.049999999813735 ], [ 24929.55, 5939962.049999999813735 ], [ 24929.55, 5939961.599999999627471 ], [ 24929.625, 5939961.599999999627471 ], [ 24929.625, 5939961.150000000372529 ], [ 24929.7, 5939961.150000000372529 ], [ 24929.7, 5939960.625 ], [ 24929.775000000001455, 5939960.625 ], [ 24929.775000000001455, 5939960.25 ], [ 24929.849999999998545, 5939960.25 ], [ 24929.849999999998545, 5939959.799999999813735 ], [ 24929.925, 5939959.799999999813735 ], [ 24929.925, 5939959.424999999813735 ], [ 24930.0, 5939959.424999999813735 ], [ 24930.0, 5939959.049999999813735 ], [ 24930.075, 5939959.049999999813735 ], [ 24930.075, 5939958.450000000186265 ], [ 24930.0, 5939958.450000000186265 ], [ 24930.0, 5939957.400000000372529 ], [ 24929.925, 5939957.400000000372529 ], [ 24929.925, 5939956.799999999813735 ], [ 24929.849999999998545, 5939956.799999999813735 ], [ 24929.849999999998545, 5939956.575000000186265 ], [ 24929.775000000001455, 5939956.575000000186265 ], [ 24929.775000000001455, 5939956.349999999627471 ], [ 24929.7, 5939956.349999999627471 ], [ 24929.7, 5939956.125 ], [ 24929.625, 5939956.125 ], [ 24929.625, 5939955.900000000372529 ], [ 24929.55, 5939955.900000000372529 ], [ 24929.55, 5939955.674999999813735 ], [ 24929.474999999998545, 5939955.674999999813735 ], [ 24929.474999999998545, 5939955.450000000186265 ], [ 24929.400000000001455, 5939955.450000000186265 ], [ 24929.400000000001455, 5939955.224999999627471 ], [ 24929.325, 5939955.224999999627471 ], [ 24929.325, 5939955.0 ], [ 24929.25, 5939955.0 ], [ 24929.25, 5939954.849999999627471 ], [ 24929.175, 5939954.849999999627471 ], [ 24929.175, 5939954.625 ], [ 24929.099999999998545, 5939954.625 ], [ 24929.099999999998545, 5939954.400000000372529 ], [ 24929.025000000001455, 5939954.400000000372529 ], [ 24929.025000000001455, 5939954.174999999813735 ], [ 24928.95, 5939954.174999999813735 ], [ 24928.95, 5939953.950000000186265 ], [ 24928.875, 5939953.950000000186265 ], [ 24928.875, 5939953.724999999627471 ], [ 24928.8, 5939953.724999999627471 ], [ 24928.8, 5939953.5 ], [ 24928.724999999998545, 5939953.5 ], [ 24928.724999999998545, 5939953.275000000372529 ], [ 24928.650000000001455, 5939953.275000000372529 ], [ 24928.650000000001455, 5939953.049999999813735 ], [ 24928.575, 5939953.049999999813735 ], [ 24928.575, 5939952.825000000186265 ], [ 24928.5, 5939952.825000000186265 ], [ 24928.5, 5939952.599999999627471 ], [ 24928.425, 5939952.599999999627471 ], [ 24928.425, 5939952.375 ], [ 24928.349999999998545, 5939952.375 ], [ 24928.349999999998545, 5939952.150000000372529 ], [ 24928.275000000001455, 5939952.150000000372529 ], [ 24928.275000000001455, 5939951.924999999813735 ], [ 24928.2, 5939951.924999999813735 ], [ 24928.2, 5939951.775000000372529 ], [ 24928.125, 5939951.775000000372529 ], [ 24928.125, 5939951.549999999813735 ], [ 24928.05, 5939951.549999999813735 ], [ 24928.05, 5939951.25 ], [ 24927.974999999998545, 5939951.25 ], [ 24927.974999999998545, 5939951.025000000372529 ], [ 24927.900000000001455, 5939951.025000000372529 ], [ 24927.900000000001455, 5939950.650000000372529 ], [ 24927.825, 5939950.650000000372529 ], [ 24927.825, 5939950.349999999627471 ], [ 24927.75, 5939950.349999999627471 ], [ 24927.75, 5939950.049999999813735 ], [ 24927.675, 5939950.049999999813735 ], [ 24927.675, 5939949.674999999813735 ], [ 24927.599999999998545, 5939949.674999999813735 ], [ 24927.599999999998545, 5939949.299999999813735 ], [ 24927.525000000001455, 5939949.299999999813735 ], [ 24927.525000000001455, 5939948.849999999627471 ], [ 24927.45, 5939948.849999999627471 ], [ 24927.45, 5939948.25 ], [ 24927.375, 5939948.25 ], [ 24927.375, 5939947.650000000372529 ], [ 24927.3, 5939947.650000000372529 ], [ 24927.3, 5939946.974999999627471 ], [ 24927.224999999998545, 5939946.974999999627471 ], [ 24927.224999999998545, 5939946.150000000372529 ], [ 24927.150000000001455, 5939946.150000000372529 ], [ 24927.150000000001455, 5939945.325000000186265 ], [ 24927.075, 5939945.325000000186265 ], [ 24927.075, 5939944.275000000372529 ], [ 24927.0, 5939944.275000000372529 ], [ 24927.0, 5939942.099999999627471 ], [ 24927.075, 5939942.099999999627471 ], [ 24927.075, 5939941.125 ], [ 24927.150000000001455, 5939941.125 ], [ 24927.150000000001455, 5939940.674999999813735 ], [ 24927.224999999998545, 5939940.674999999813735 ], [ 24927.224999999998545, 5939940.224999999627471 ], [ 24927.3, 5939940.224999999627471 ], [ 24927.3, 5939939.700000000186265 ], [ 24927.375, 5939939.700000000186265 ], [ 24927.375, 5939939.174999999813735 ], [ 24927.45, 5939939.174999999813735 ], [ 24927.45, 5939938.724999999627471 ], [ 24927.525000000001455, 5939938.724999999627471 ], [ 24927.525000000001455, 5939938.200000000186265 ], [ 24927.599999999998545, 5939938.200000000186265 ], [ 24927.599999999998545, 5939937.674999999813735 ], [ 24927.675, 5939937.674999999813735 ], [ 24927.675, 5939937.150000000372529 ], [ 24927.75, 5939937.150000000372529 ], [ 24927.75, 5939936.625 ], [ 24927.825, 5939936.625 ], [ 24927.825, 5939936.099999999627471 ], [ 24927.900000000001455, 5939936.099999999627471 ], [ 24927.900000000001455, 5939935.575000000186265 ], [ 24927.974999999998545, 5939935.575000000186265 ], [ 24927.974999999998545, 5939933.625 ], [ 24928.05, 5939933.625 ], [ 24928.05, 5939933.400000000372529 ], [ 24927.974999999998545, 5939933.400000000372529 ], [ 24927.974999999998545, 5939932.424999999813735 ], [ 24927.900000000001455, 5939932.424999999813735 ], [ 24927.900000000001455, 5939931.450000000186265 ], [ 24927.825, 5939931.450000000186265 ], [ 24927.825, 5939930.400000000372529 ], [ 24927.75, 5939930.400000000372529 ], [ 24927.75, 5939929.424999999813735 ], [ 24927.675, 5939929.424999999813735 ], [ 24927.675, 5939928.450000000186265 ], [ 24927.599999999998545, 5939928.450000000186265 ], [ 24927.599999999998545, 5939927.25 ], [ 24927.525000000001455, 5939927.25 ], [ 24927.525000000001455, 5939925.0 ], [ 24927.599999999998545, 5939925.0 ], [ 24927.599999999998545, 5939923.424999999813735 ], [ 24927.675, 5939923.424999999813735 ], [ 24927.675, 5939921.849999999627471 ], [ 24927.75, 5939921.849999999627471 ], [ 24927.75, 5939920.349999999627471 ], [ 24927.825, 5939920.349999999627471 ], [ 24927.825, 5939917.875 ], [ 24927.75, 5939917.875 ], [ 24927.75, 5939916.75 ], [ 24927.675, 5939916.75 ], [ 24927.675, 5939915.549999999813735 ], [ 24927.599999999998545, 5939915.549999999813735 ], [ 24927.599999999998545, 5939914.125 ], [ 24927.525000000001455, 5939914.125 ], [ 24927.525000000001455, 5939912.549999999813735 ], [ 24927.45, 5939912.549999999813735 ], [ 24927.45, 5939910.450000000186265 ], [ 24927.525000000001455, 5939910.450000000186265 ], [ 24927.525000000001455, 5939909.174999999813735 ], [ 24927.599999999998545, 5939909.174999999813735 ], [ 24927.599999999998545, 5939908.275000000372529 ], [ 24927.675, 5939908.275000000372529 ], [ 24927.675, 5939907.450000000186265 ], [ 24927.75, 5939907.450000000186265 ], [ 24927.75, 5939906.625 ], [ 24927.825, 5939906.625 ], [ 24927.825, 5939905.950000000186265 ], [ 24927.900000000001455, 5939905.950000000186265 ], [ 24927.900000000001455, 5939905.275000000372529 ], [ 24927.974999999998545, 5939905.275000000372529 ], [ 24927.974999999998545, 5939904.674999999813735 ], [ 24928.05, 5939904.674999999813735 ], [ 24928.05, 5939904.075000000186265 ], [ 24928.125, 5939904.075000000186265 ], [ 24928.125, 5939903.549999999813735 ], [ 24928.2, 5939903.549999999813735 ], [ 24928.2, 5939903.099999999627471 ], [ 24928.275000000001455, 5939903.099999999627471 ], [ 24928.275000000001455, 5939902.724999999627471 ], [ 24928.349999999998545, 5939902.724999999627471 ], [ 24928.349999999998545, 5939902.349999999627471 ], [ 24928.425, 5939902.349999999627471 ], [ 24928.425, 5939901.900000000372529 ], [ 24928.5, 5939901.900000000372529 ], [ 24928.5, 5939901.450000000186265 ], [ 24928.575, 5939901.450000000186265 ], [ 24928.575, 5939901.0 ], [ 24928.650000000001455, 5939901.0 ], [ 24928.650000000001455, 5939900.549999999813735 ], [ 24928.724999999998545, 5939900.549999999813735 ], [ 24928.724999999998545, 5939900.099999999627471 ], [ 24928.8, 5939900.099999999627471 ], [ 24928.8, 5939899.650000000372529 ], [ 24928.875, 5939899.650000000372529 ], [ 24928.875, 5939899.275000000372529 ], [ 24928.95, 5939899.275000000372529 ], [ 24928.95, 5939898.825000000186265 ], [ 24929.025000000001455, 5939898.825000000186265 ], [ 24929.025000000001455, 5939898.450000000186265 ], [ 24929.099999999998545, 5939898.450000000186265 ], [ 24929.099999999998545, 5939898.075000000186265 ], [ 24929.175, 5939898.075000000186265 ], [ 24929.175, 5939897.625 ], [ 24929.25, 5939897.625 ], [ 24929.25, 5939897.25 ], [ 24929.325, 5939897.25 ], [ 24929.325, 5939896.875 ], [ 24929.400000000001455, 5939896.875 ], [ 24929.400000000001455, 5939896.5 ], [ 24929.474999999998545, 5939896.5 ], [ 24929.474999999998545, 5939896.125 ], [ 24929.400000000001455, 5939896.125 ], [ 24929.400000000001455, 5939895.375 ], [ 24929.325, 5939895.375 ], [ 24929.325, 5939894.625 ], [ 24929.25, 5939894.625 ], [ 24929.25, 5939894.25 ], [ 24929.175, 5939894.25 ], [ 24929.175, 5939894.099999999627471 ], [ 24929.099999999998545, 5939894.099999999627471 ], [ 24929.099999999998545, 5939893.875 ], [ 24929.025000000001455, 5939893.875 ], [ 24929.025000000001455, 5939893.724999999627471 ], [ 24928.95, 5939893.724999999627471 ], [ 24928.95, 5939893.5 ], [ 24928.875, 5939893.5 ], [ 24928.875, 5939893.349999999627471 ], [ 24928.8, 5939893.349999999627471 ], [ 24928.8, 5939893.125 ], [ 24928.724999999998545, 5939893.125 ], [ 24928.724999999998545, 5939892.974999999627471 ], [ 24928.650000000001455, 5939892.974999999627471 ], [ 24928.650000000001455, 5939892.75 ], [ 24928.575, 5939892.75 ], [ 24928.575, 5939892.599999999627471 ], [ 24928.5, 5939892.599999999627471 ], [ 24928.5, 5939892.375 ], [ 24928.425, 5939892.375 ], [ 24928.425, 5939892.150000000372529 ], [ 24928.349999999998545, 5939892.150000000372529 ], [ 24928.349999999998545, 5939892.0 ], [ 24928.275000000001455, 5939892.0 ], [ 24928.275000000001455, 5939891.775000000372529 ], [ 24928.2, 5939891.775000000372529 ], [ 24928.2, 5939891.625 ], [ 24928.125, 5939891.625 ], [ 24928.125, 5939891.325000000186265 ], [ 24928.05, 5939891.325000000186265 ], [ 24928.05, 5939891.025000000372529 ], [ 24927.974999999998545, 5939891.025000000372529 ], [ 24927.974999999998545, 5939890.650000000372529 ], [ 24927.900000000001455, 5939890.650000000372529 ], [ 24927.900000000001455, 5939890.275000000372529 ], [ 24927.825, 5939890.275000000372529 ], [ 24927.825, 5939889.825000000186265 ], [ 24927.75, 5939889.825000000186265 ], [ 24927.75, 5939889.450000000186265 ], [ 24927.675, 5939889.450000000186265 ], [ 24927.675, 5939889.075000000186265 ], [ 24927.599999999998545, 5939889.075000000186265 ], [ 24927.599999999998545, 5939888.625 ], [ 24927.525000000001455, 5939888.625 ], [ 24927.525000000001455, 5939887.950000000186265 ], [ 24927.45, 5939887.950000000186265 ], [ 24927.45, 5939887.125 ], [ 24927.375, 5939887.125 ], [ 24927.375, 5939884.349999999627471 ], [ 24927.3, 5939884.349999999627471 ], [ 24927.3, 5939876.174999999813735 ], [ 24927.375, 5939876.174999999813735 ], [ 24927.375, 5939870.924999999813735 ], [ 24927.3, 5939870.924999999813735 ], [ 24927.3, 5939870.025000000372529 ], [ 24927.224999999998545, 5939870.025000000372529 ], [ 24927.224999999998545, 5939869.125 ], [ 24927.150000000001455, 5939869.125 ], [ 24927.150000000001455, 5939868.075000000186265 ], [ 24927.075, 5939868.075000000186265 ], [ 24927.075, 5939867.099999999627471 ], [ 24927.0, 5939867.099999999627471 ], [ 24927.0, 5939865.974999999627471 ], [ 24926.925, 5939865.974999999627471 ], [ 24926.925, 5939862.674999999813735 ], [ 24927.0, 5939862.674999999813735 ], [ 24927.0, 5939861.849999999627471 ], [ 24927.075, 5939861.849999999627471 ], [ 24927.075, 5939860.950000000186265 ], [ 24927.150000000001455, 5939860.950000000186265 ], [ 24927.150000000001455, 5939860.049999999813735 ], [ 24927.224999999998545, 5939860.049999999813735 ], [ 24927.224999999998545, 5939859.224999999627471 ], [ 24927.3, 5939859.224999999627471 ], [ 24927.3, 5939858.400000000372529 ], [ 24927.375, 5939858.400000000372529 ], [ 24927.375, 5939857.650000000372529 ], [ 24927.45, 5939857.650000000372529 ], [ 24927.45, 5939856.450000000186265 ], [ 24927.525000000001455, 5939856.450000000186265 ], [ 24927.525000000001455, 5939850.525000000372529 ], [ 24927.45, 5939850.525000000372529 ], [ 24927.45, 5939849.400000000372529 ], [ 24927.525000000001455, 5939849.400000000372529 ], [ 24927.525000000001455, 5939848.575000000186265 ], [ 24927.599999999998545, 5939848.575000000186265 ], [ 24927.599999999998545, 5939847.75 ], [ 24927.675, 5939847.75 ], [ 24927.675, 5939847.299999999813735 ], [ 24927.75, 5939847.299999999813735 ], [ 24927.75, 5939847.0 ], [ 24927.825, 5939847.0 ], [ 24927.825, 5939846.625 ], [ 24927.900000000001455, 5939846.625 ], [ 24927.900000000001455, 5939846.400000000372529 ], [ 24927.974999999998545, 5939846.400000000372529 ], [ 24927.974999999998545, 5939846.099999999627471 ], [ 24928.05, 5939846.099999999627471 ], [ 24928.05, 5939845.875 ], [ 24928.125, 5939845.875 ], [ 24928.125, 5939845.650000000372529 ], [ 24928.2, 5939845.650000000372529 ], [ 24928.2, 5939845.5 ], [ 24928.275000000001455, 5939845.5 ], [ 24928.275000000001455, 5939845.349999999627471 ], [ 24928.349999999998545, 5939845.349999999627471 ], [ 24928.349999999998545, 5939845.200000000186265 ], [ 24928.425, 5939845.200000000186265 ], [ 24928.425, 5939845.049999999813735 ], [ 24928.5, 5939845.049999999813735 ], [ 24928.5, 5939844.900000000372529 ], [ 24928.575, 5939844.900000000372529 ], [ 24928.575, 5939844.75 ], [ 24928.650000000001455, 5939844.75 ], [ 24928.650000000001455, 5939844.599999999627471 ], [ 24928.724999999998545, 5939844.599999999627471 ], [ 24928.724999999998545, 5939844.450000000186265 ], [ 24928.8, 5939844.450000000186265 ], [ 24928.8, 5939844.299999999813735 ], [ 24928.875, 5939844.299999999813735 ], [ 24928.875, 5939844.150000000372529 ], [ 24928.95, 5939844.150000000372529 ], [ 24928.95, 5939844.0 ], [ 24929.025000000001455, 5939844.0 ], [ 24929.025000000001455, 5939843.849999999627471 ], [ 24929.099999999998545, 5939843.849999999627471 ], [ 24929.099999999998545, 5939843.700000000186265 ], [ 24929.175, 5939843.700000000186265 ], [ 24929.175, 5939843.549999999813735 ], [ 24929.25, 5939843.549999999813735 ], [ 24929.25, 5939843.400000000372529 ], [ 24929.325, 5939843.400000000372529 ], [ 24929.325, 5939843.25 ], [ 24929.400000000001455, 5939843.25 ], [ 24929.400000000001455, 5939843.099999999627471 ], [ 24929.474999999998545, 5939843.099999999627471 ], [ 24929.474999999998545, 5939843.025000000372529 ], [ 24929.55, 5939843.025000000372529 ], [ 24929.55, 5939842.875 ], [ 24929.625, 5939842.875 ], [ 24929.625, 5939842.724999999627471 ], [ 24929.7, 5939842.724999999627471 ], [ 24929.7, 5939842.650000000372529 ], [ 24929.775000000001455, 5939842.650000000372529 ], [ 24929.775000000001455, 5939842.5 ], [ 24929.849999999998545, 5939842.5 ], [ 24929.849999999998545, 5939842.349999999627471 ], [ 24929.925, 5939842.349999999627471 ], [ 24929.925, 5939842.275000000372529 ], [ 24930.0, 5939842.275000000372529 ], [ 24930.0, 5939842.125 ], [ 24933.0, 5939842.125 ], [ 24933.0, 5939988.375 ], [ 24930.075, 5939988.375 ] ] ] } },
{ "type": "Feature", "properties": { "value": 1.0, "building_id": 5, "area": 5204.4975000019131 }, "geometry": { "type": "Polygon", "coordinates": [ [ [ 24808.8, 5939897.400000000372529 ], [ 24808.8, 5939897.325000000186265 ], [ 24802.349999999998545, 5939897.325000000186265 ], [ 24802.349999999998545, 5939897.25 ], [ 24799.8, 5939897.25 ], [ 24799.8, 5939897.174999999813735 ], [ 24797.625, 5939897.174999999813735 ], [ 24797.625, 5939897.099999999627471 ], [ 24793.05, 5939897.099999999627471 ], [ 24793.05, 5939897.174999999813735 ], [ 24790.349999999998545, 5939897.174999999813735 ], [ 24790.349999999998545, 5939897.25 ], [ 24788.625, 5939897.25 ], [ 24788.625, 5939897.174999999813735 ], [ 24786.974999999998545, 5939897.174999999813735 ], [ 24786.974999999998545, 5939897.099999999627471 ], [ 24785.849999999998545, 5939897.099999999627471 ], [ 24785.849999999998545, 5939897.025000000372529 ], [ 24783.900000000001455, 5939897.025000000372529 ], [ 24783.900000000001455, 5939896.950000000186265 ], [ 24778.95, 5939896.950000000186265 ], [ 24778.95, 5939897.025000000372529 ], [ 24777.599999999998545, 5939897.025000000372529 ], [ 24777.599999999998545, 5939897.099999999627471 ], [ 24776.175, 5939897.099999999627471 ], [ 24776.175, 5939897.174999999813735 ], [ 24774.825, 5939897.174999999813735 ], [ 24774.825, 5939897.25 ], [ 24772.875, 5939897.25 ], [ 24772.875, 5939897.174999999813735 ], [ 24771.825, 5939897.174999999813735 ], [ 24771.825, 5939897.099999999627471 ], [ 24771.599999999998545, 5939897.099999999627471 ], [ 24771.599999999998545, 5939897.025000000372529 ], [ 24771.3, 5939897.025000000372529 ], [ 24771.3, 5939896.950000000186265 ], [ 24771.075, 5939896.950000000186265 ], [ 24771.075, 5939896.875 ], [ 24770.849999999998545, 5939896.875 ], [ 24770.849999999998545, 5939896.799999999813735 ], [ 24770.7, 5939896.799999999813735 ], [ 24770.7, 5939896.724999999627471 ], [ 24770.474999999998545, 5939896.724999999627471 ], [ 24770.474999999998545, 5939896.650000000372529 ], [ 24770.325, 5939896.650000000372529 ], [ 24770.325, 5939896.575000000186265 ], [ 24770.175, 5939896.575000000186265 ], [ 24770.175, 5939896.5 ], [ 24770.025000000001455, 5939896.5 ], [ 24770.025000000001455, 5939896.424999999813735 ], [ 24769.875, 5939896.424999999813735 ], [ 24769.875, 5939896.349999999627471 ], [ 24769.8, 5939896.349999999627471 ], [ 24769.8, 5939896.275000000372529 ], [ 24769.650000000001455, 5939896.275000000372529 ], [ 24769.650000000001455, 5939896.200000000186265 ], [ 24769.575, 5939896.200000000186265 ], [ 24769.575, 5939896.125 ], [ 24769.425, 5939896.125 ], [ 24769.425, 5939896.049999999813735 ], [ 24769.349999999998545, 5939896.049999999813735 ], [ 24769.349999999998545, 5939895.974999999627471 ], [ 24769.275000000001455, 5939895.974999999627471 ], [ 24769.275000000001455, 5939895.900000000372529 ], [ 24769.2, 5939895.900000000372529 ], [ 24769.2, 5939895.825000000186265 ], [ 24769.05, 5939895.825000000186265 ], [ 24769.05, 5939895.75 ], [ 24768.974999999998545, 5939895.75 ], [ 24768.974999999998545, 5939895.674999999813735 ], [ 24768.900000000001455, 5939895.674999999813735 ], [ 24768.900000000001455, 5939895.599999999627471 ], [ 24768.825, 5939895.599999999627471 ], [ 24768.825, 5939895.525000000372529 ], [ 24768.75, 5939895.525000000372529 ], [ 24768.75, 5939895.450000000186265 ], [ 24768.675, 5939895.450000000186265 ], [ 24768.675, 5939895.375 ], [ 24768.525000000001455, 5939895.375 ], [ 24768.525000000001455, 5939895.299999999813735 ], [ 24768.45, 5939895.299999999813735 ], [ 24768.45, 5939895.224999999627471 ], [ 24768.375, 5939895.224999999627471 ], [ 24768.375, 5939895.150000000372529 ], [ 24768.3, 5939895.150000000372529 ], [ 24768.3, 5939895.075000000186265 ], [ 24768.224999999998545, 5939895.075000000186265 ], [ 24768.224999999998545, 5939895.0 ], [ 24768.150000000001455, 5939895.0 ], [ 24768.150000000001455, 5939894.924999999813735 ], [ 24768.075, 5939894.924999999813735 ], [ 24768.075, 5939894.849999999627471 ], [ 24768.0, 5939894.849999999627471 ], [ 24768.0, 5939894.775000000372529 ], [ 24767.925, 5939894.775000000372529 ], [ 24767.925, 5939894.700000000186265 ], [ 24767.849999999998545, 5939894.700000000186265 ], [ 24767.849999999998545, 5939894.549999999813735 ], [ 24767.775000000001455, 5939894.549999999813735 ], [ 24767.775000000001455, 5939894.474999999627471 ], [ 24767.7, 5939894.474999999627471 ], [ 24767.7, 5939894.325000000186265 ], [ 24767.625, 5939894.325000000186265 ], [ 24767.625, 5939894.099999999627471 ], [ 24767.55, 5939894.099999999627471 ], [ 24767.55, 5939893.950000000186265 ], [ 24767.474999999998545, 5939893.950000000186265 ], [ 24767.474999999998545, 5939893.650000000372529 ], [ 24767.400000000001455, 5939893.650000000372529 ], [ 24767.400000000001455, 5939893.424999999813735 ], [ 24767.325, 5939893.424999999813735 ], [ 24767.325, 5939893.125 ], [ 24767.25, 5939893.125 ], [ 24767.25, 5939892.825000000186265 ], [ 24767.175, 5939892.825000000186265 ], [ 24767.175, 5939892.450000000186265 ], [ 24767.099999999998545, 5939892.450000000186265 ], [ 24767.099999999998545, 5939892.0 ], [ 24767.025000000001455, 5939892.0 ], [ 24767.025000000001455, 5939891.474999999627471 ], [ 24766.95, 5939891.474999999627471 ], [ 24766.95, 5939890.950000000186265 ], [ 24766.875, 5939890.950000000186265 ], [ 24766.875, 5939890.200000000186265 ], [ 24766.8, 5939890.200000000186265 ], [ 24766.8, 5939889.299999999813735 ], [ 24766.724999999998545, 5939889.299999999813735 ], [ 24766.724999999998545, 5939887.950000000186265 ], [ 24766.650000000001455, 5939887.950000000186265 ], [ 24766.650000000001455, 5939884.049999999813735 ], [ 24766.575, 5939884.049999999813735 ], [ 24766.575, 5939875.200000000186265 ], [ 24766.650000000001455, 5939875.200000000186265 ], [ 24766.650000000001455, 5939870.099999999627471 ], [ 24766.724999999998545, 5939870.099999999627471 ], [ 24766.724999999998545, 5939863.424999999813735 ], [ 24766.650000000001455, 5939863.424999999813735 ], [ 24766.650000000001455, 5939862.375 ], [ 24766.575, 5939862.375 ], [ 24766.575, 5939861.474999999627471 ], [ 24766.5, 5939861.474999999627471 ], [ 24766.5, 5939860.724999999627471 ], [ 24766.425, 5939860.724999999627471 ], [ 24766.425, 5939860.049999999813735 ], [ 24766.349999999998545, 5939860.049999999813735 ], [ 24766.349999999998545, 5939859.375 ], [ 24766.275000000001455, 5939859.375 ], [ 24766.275000000001455, 5939858.849999999627471 ], [ 24766.2, 5939858.849999999627471 ], [ 24766.2, 5939858.25 ], [ 24766.125, 5939858.25 ], [ 24766.125, 5939857.799999999813735 ], [ 24766.05, 5939857.799999999813735 ], [ 24766.05, 5939857.275000000372529 ], [ 24765.974999999998545, 5939857.275000000372529 ], [ 24765.974999999998545, 5939856.825000000186265 ], [ 24765.900000000001455, 5939856.825000000186265 ], [ 24765.900000000001455, 5939856.299999999813735 ], [ 24765.825, 5939856.299999999813735 ], [ 24765.825, 5939855.775000000372529 ], [ 24765.75, 5939855.775000000372529 ], [ 24765.75, 5939855.174999999813735 ], [ 24765.675, 5939855.174999999813735 ], [ 24765.675, 5939854.349999999627471 ], [ 24765.599999999998545, 5939854.349999999627471 ], [ 24765.599999999998545, 5939853.599999999627471 ], [ 24765.525000000001455, 5939853.599999999627471 ], [ 24765.525000000001455, 5939852.700000000186265 ], [ 24765.45, 5939852.700000000186265 ], [ 24765.45, 5939851.724999999627471 ], [ 24765.375, 5939851.724999999627471 ], [ 24765.375, 5939850.599999999627471 ], [ 24765.3, 5939850.599999999627471 ], [ 24765.3, 5939849.400000000372529 ], [ 24765.224999999998545, 5939849.400000000372529 ], [ 24765.224999999998545, 5939847.525000000372529 ], [ 24765.150000000001455, 5939847.525000000372529 ], [ 24765.150000000001455, 5939844.375 ], [ 24765.075, 5939844.375 ], [ 24765.075, 5939840.025000000372529 ], [ 24765.150000000001455, 5939840.025000000372529 ], [ 24765.150000000001455, 5939839.049999999813735 ], [ 24765.224999999998545, 5939839.049999999813735 ], [ 24765.224999999998545, 5939838.299999999813735 ], [ 24765.3, 5939838.299999999813735 ], [ 24765.3, 5939837.474999999627471 ], [ 24765.375, 5939837.474999999627471 ], [ 24765.375, 5939836.799999999813735 ], [ 24765.45, 5939836.799999999813735 ], [ 24765.45, 5939836.125 ], [ 24765.525000000001455, 5939836.125 ], [ 24765.525000000001455, 5939835.450000000186265 ], [ 24765.599999999998545, 5939835.450000000186265 ], [ 24765.599999999998545, 5939834.849999999627471 ], [ 24765.675, 5939834.849999999627471 ], [ 24765.675, 5939834.25 ], [ 24765.75, 5939834.25 ], [ 24765.75, 5939833.5 ], [ 24765.825, 5939833.5 ], [ 24765.825, 5939832.525000000372529 ], [ 24765.900000000001455, 5939832.525000000372529 ], [ 24765.900000000001455, 5939829.0 ], [ 24843.075, 5939829.0 ], [ 24843.075, 5939833.950000000186265 ], [ 24843.150000000001455, 5939833.950000000186265 ], [ 24843.150000000001455, 5939836.575000000186265 ], [ 24843.224999999998545, 5939836.575000000186265 ], [ 24843.224999999998545, 5939848.650000000372529 ], [ 24843.150000000001455, 5939848.650000000372529 ], [ 24843.150000000001455, 5939849.700000000186265 ], [ 24843.075, 5939849.700000000186265 ], [ 24843.075, 5939850.375 ], [ 24843.0, 5939850.375 ], [ 24843.0, 5939850.974999999627471 ], [ 24842.925, 5939850.974999999627471 ], [ 24842.925, 5939851.575000000186265 ], [ 24842.849999999998545, 5939851.575000000186265 ], [ 24842.849999999998545, 5939852.099999999627471 ], [ 24842.775000000001455, 5939852.099999999627471 ], [ 24842.775000000001455, 5939852.625 ], [ 24842.7, 5939852.625 ], [ 24842.7, 5939853.150000000372529 ], [ 24842.625, 5939853.150000000372529 ], [ 24842.625, 5939853.599999999627471 ], [ 24842.55, 5939853.599999999627471 ], [ 24842.55, 5939854.049999999813735 ], [ 24842.474999999998545, 5939854.049999999813735 ], [ 24842.474999999998545, 5939854.5 ], [ 24842.400000000001455, 5939854.5 ], [ 24842.400000000001455, 5939854.875 ], [ 24842.325, 5939854.875 ], [ 24842.325, 5939855.25 ], [ 24842.25, 5939855.25 ], [ 24842.25, 5939857.799999999813735 ], [ 24842.325, 5939857.799999999813735 ], [ 24842.325, 5939858.325000000186265 ], [ 24842.400000000001455, 5939858.325000000186265 ], [ 24842.400000000001455, 5939858.924999999813735 ], [ 24842.474999999998545, 5939858.924999999813735 ], [ 24842.474999999998545, 5939859.525000000372529 ], [ 24842.55, 5939859.525000000372529 ], [ 24842.55, 5939860.125 ], [ 24842.625, 5939860.125 ], [ 24842.625, 5939860.799999999813735 ], [ 24842.7, 5939860.799999999813735 ], [ 24842.7, 5939861.549999999813735 ], [ 24842.775000000001455, 5939861.549999999813735 ], [ 24842.775000000001455, 5939862.299999999813735 ], [ 24842.849999999998545, 5939862.299999999813735 ], [ 24842.849999999998545, 5939863.049999999813735 ], [ 24842.925, 5939863.049999999813735 ], [ 24842.925, 5939863.950000000186265 ], [ 24843.0, 5939863.950000000186265 ], [ 24843.0, 5939864.775000000372529 ], [ 24843.075, 5939864.775000000372529 ], [ 24843.075, 5939865.75 ], [ 24843.150000000001455, 5939865.75 ], [ 24843.150000000001455, 5939866.799999999813735 ], [ 24843.224999999998545, 5939866.799999999813735 ], [ 24843.224999999998545, 5939868.0 ], [ 24843.3, 5939868.0 ], [ 24843.3, 5939869.349999999627471 ], [ 24843.375, 5939869.349999999627471 ], [ 24843.375, 5939870.775000000372529 ], [ 24843.45, 5939870.775000000372529 ], [ 24843.45, 5939872.950000000186265 ], [ 24843.525000000001455, 5939872.950000000186265 ], [ 24843.525000000001455, 5939876.849999999627471 ], [ 24843.599999999998545, 5939876.849999999627471 ], [ 24843.599999999998545, 5939881.125 ], [ 24843.525000000001455, 5939881.125 ], [ 24843.525000000001455, 5939882.549999999813735 ], [ 24843.45, 5939882.549999999813735 ], [ 24843.45, 5939884.125 ], [ 24843.375, 5939884.125 ], [ 24843.375, 5939885.549999999813735 ], [ 24843.3, 5939885.549999999813735 ], [ 24843.3, 5939886.75 ], [ 24843.224999999998545, 5939886.75 ], [ 24843.224999999998545, 5939887.125 ], [ 24843.150000000001455, 5939887.125 ], [ 24843.150000000001455, 5939887.5 ], [ 24843.075, 5939887.5 ], [ 24843.075, 5939887.875 ], [ 24843.0, 5939887.875 ], [ 24843.0, 5939888.25 ], [ 24842.925, 5939888.25 ], [ 24842.925, 5939888.549999999813735 ], [ 24842.849999999998545, 5939888.549999999813735 ], [ 24842.849999999998545, 5939888.775000000372529 ], [ 24842.775000000001455, 5939888.775000000372529 ], [ 24842.775000000001455, 5939888.924999999813735 ], [ 24842.7, 5939888.924999999813735 ], [ 24842.7, 5939889.075000000186265 ], [ 24842.625, 5939889.075000000186265 ], [ 24842.625, 5939889.150000000372529 ], [ 24842.55, 5939889.150000000372529 ], [ 24842.55, 5939889.299999999813735 ], [ 24842.474999999998545, 5939889.299999999813735 ], [ 24842.474999999998545, 5939889.450000000186265 ], [ 24842.400000000001455, 5939889.450000000186265 ], [ 24842.400000000001455, 5939889.525000000372529 ], [ 24842.325, 5939889.525000000372529 ], [ 24842.325, 5939889.674999999813735 ], [ 24842.25, 5939889.674999999813735 ], [ 24842.25, 5939889.75 ], [ 24842.175, 5939889.75 ], [ 24842.175, 5939889.825000000186265 ], [ 24842.099999999998545, 5939889.825000000186265 ], [ 24842.099999999998545, 5939889.974999999627471 ], [ 24842.025000000001455, 5939889.974999999627471 ], [ 24842.025000000001455, 5939890.125 ], [ 24841.95, 5939890.125 ], [ 24841.95, 5939890.200000000186265 ], [ 24841.875, 5939890.200000000186265 ], [ 24841.875, 5939890.349999999627471 ], [ 24841.8, 5939890.349999999627471 ], [ 24841.8, 5939890.5 ], [ 24841.724999999998545, 5939890.5 ], [ 24841.724999999998545, 5939890.650000000372529 ], [ 24841.650000000001455, 5939890.650000000372529 ], [ 24841.650000000001455, 5939890.799999999813735 ], [ 24841.575, 5939890.799999999813735 ], [ 24841.575, 5939890.950000000186265 ], [ 24841.5, 5939890.950000000186265 ], [ 24841.5, 5939891.099999999627471 ], [ 24841.425, 5939891.099999999627471 ], [ 24841.425, 5939891.25 ], [ 24841.349999999998545, 5939891.25 ], [ 24841.349999999998545, 5939891.400000000372529 ], [ 24841.275000000001455, 5939891.400000000372529 ], [ 24841.275000000001455, 5939891.549999999813735 ], [ 24841.2, 5939891.549999999813735 ], [ 24841.2, 5939891.625 ], [ 24841.125, 5939891.625 ], [ 24841.125, 5939891.775000000372529 ], [ 24841.05, 5939891.775000000372529 ], [ 24841.05, 5939891.924999999813735 ], [ 24840.974999999998545, 5939891.924999999813735 ], [ 24840.974999999998545, 5939892.0 ], [ 24840.900000000001455, 5939892.0 ], [ 24840.900000000001455, 5939892.150000000372529 ], [ 24840.825, 5939892.150000000372529 ], [ 24840.825, 5939892.224999999627471 ], [ 24840.75, 5939892.224999999627471 ], [ 24840.75, 5939892.375 ], [ 24840.675, 5939892.375 ], [ 24840.675, 5939892.450000000186265 ], [ 24840.599999999998545, 5939892.450000000186265 ], [ 24840.599999999998545, 5939892.599999999627471 ], [ 24840.525000000001455, 5939892.599999999627471 ], [ 24840.525000000001455, 5939892.674999999813735 ], [ 24840.45, 5939892.674999999813735 ], [ 24840.45, 5939892.75 ], [ 24840.375, 5939892.75 ], [ 24840.375, 5939892.825000000186265 ], [ 24840.3, 5939892.825000000186265 ], [ 24840.3, 5939892.900000000372529 ], [ 24840.224999999998545, 5939892.900000000372529 ], [ 24840.224999999998545, 5939892.974999999627471 ], [ 24840.150000000001455, 5939892.974999999627471 ], [ 24840.150000000001455, 5939893.049999999813735 ], [ 24840.075, 5939893.049999999813735 ], [ 24840.075, 5939893.125 ], [ 24839.925, 5939893.125 ], [ 24839.925, 5939893.200000000186265 ], [ 24839.849999999998545, 5939893.200000000186265 ], [ 24839.849999999998545, 5939893.275000000372529 ], [ 24839.775000000001455, 5939893.275000000372529 ], [ 24839.775000000001455, 5939893.349999999627471 ], [ 24839.7, 5939893.349999999627471 ], [ 24839.7, 5939893.424999999813735 ], [ 24839.625, 5939893.424999999813735 ], [ 24839.625, 5939893.5 ], [ 24839.474999999998545, 5939893.5 ], [ 24839.474999999998545, 5939893.575000000186265 ], [ 24839.400000000001455, 5939893.575000000186265 ], [ 24839.400000000001455, 5939893.650000000372529 ], [ 24839.325, 5939893.650000000372529 ], [ 24839.325, 5939893.724999999627471 ], [ 24839.25, 5939893.724999999627471 ], [ 24839.25, 5939893.799999999813735 ], [ 24839.175, 5939893.799999999813735 ], [ 24839.175, 5939893.875 ], [ 24839.099999999998545, 5939893.875 ], [ 24839.099999999998545, 5939893.950000000186265 ], [ 24838.95, 5939893.950000000186265 ], [ 24838.95, 5939894.025000000372529 ], [ 24838.875, 5939894.025000000372529 ], [ 24838.875, 5939894.099999999627471 ], [ 24838.8, 5939894.099999999627471 ], [ 24838.8, 5939894.174999999813735 ], [ 24838.724999999998545, 5939894.174999999813735 ], [ 24838.724999999998545, 5939894.25 ], [ 24838.650000000001455, 5939894.25 ], [ 24838.650000000001455, 5939894.325000000186265 ], [ 24838.575, 5939894.325000000186265 ], [ 24838.575, 5939894.400000000372529 ], [ 24838.5, 5939894.400000000372529 ], [ 24838.5, 5939894.474999999627471 ], [ 24838.349999999998545, 5939894.474999999627471 ], [ 24838.349999999998545, 5939894.549999999813735 ], [ 24838.275000000001455, 5939894.549999999813735 ], [ 24838.275000000001455, 5939894.625 ], [ 24838.125, 5939894.625 ], [ 24838.125, 5939894.700000000186265 ], [ 24837.974999999998545, 5939894.700000000186265 ], [ 24837.974999999998545, 5939894.775000000372529 ], [ 24837.900000000001455, 5939894.775000000372529 ], [ 24837.900000000001455, 5939894.849999999627471 ], [ 24837.75, 5939894.849999999627471 ], [ 24837.75, 5939894.924999999813735 ], [ 24837.599999999998545, 5939894.924999999813735 ], [ 24837.599999999998545, 5939895.0 ], [ 24837.45, 5939895.0 ], [ 24837.45, 5939895.075000000186265 ], [ 24837.3, 5939895.075000000186265 ], [ 24837.3, 5939895.150000000372529 ], [ 24837.075, 5939895.150000000372529 ], [ 24837.075, 5939895.224999999627471 ], [ 24836.925, 5939895.224999999627471 ], [ 24836.925, 5939895.299999999813735 ], [ 24836.775000000001455, 5939895.299999999813735 ], [ 24836.775000000001455, 5939895.375 ], [ 24836.55, 5939895.375 ], [ 24836.55, 5939895.450000000186265 ], [ 24836.325, 5939895.450000000186265 ], [ 24836.325, 5939895.525000000372529 ], [ 24836.025000000001455, 5939895.525000000372529 ], [ 24836.025000000001455, 5939895.599999999627471 ], [ 24835.724999999998545, 5939895.599999999627471 ], [ 24835.724999999998545, 5939895.674999999813735 ], [ 24835.349999999998545, 5939895.674999999813735 ], [ 24835.349999999998545, 5939895.75 ], [ 24835.05, 5939895.75 ], [ 24835.05, 5939895.825000000186265 ], [ 24834.75, 5939895.825000000186265 ], [ 24834.75, 5939895.900000000372529 ], [ 24834.45, 5939895.900000000372529 ], [ 24834.45, 5939895.974999999627471 ], [ 24834.075, 5939895.974999999627471 ], [ 24834.075, 5939896.049999999813735 ], [ 24833.55, 5939896.049999999813735 ], [ 24833.55, 5939896.125 ], [ 24833.099999999998545, 5939896.125 ], [ 24833.099999999998545, 5939896.200000000186265 ], [ 24832.650000000001455, 5939896.200000000186265 ], [ 24832.650000000001455, 5939896.275000000372529 ], [ 24832.2, 5939896.275000000372529 ], [ 24832.2, 5939896.349999999627471 ], [ 24831.825, 5939896.349999999627471 ], [ 24831.825, 5939896.424999999813735 ], [ 24831.375, 5939896.424999999813735 ], [ 24831.375, 5939896.5 ], [ 24830.925, 5939896.5 ], [ 24830.925, 5939896.575000000186265 ], [ 24830.474999999998545, 5939896.575000000186265 ], [ 24830.474999999998545, 5939896.650000000372529 ], [ 24829.875, 5939896.650000000372529 ], [ 24829.875, 5939896.724999999627471 ], [ 24829.349999999998545, 5939896.724999999627471 ], [ 24829.349999999998545, 5939896.799999999813735 ], [ 24828.675, 5939896.799999999813735 ], [ 24828.675, 5939896.875 ], [ 24827.925, 5939896.875 ], [ 24827.925, 5939896.950000000186265 ], [ 24827.025000000001455, 5939896.950000000186265 ], [ 24827.025000000001455, 5939897.025000000372529 ], [ 24825.900000000001455, 5939897.025000000372529 ], [ 24825.900000000001455, 5939897.099999999627471 ], [ 24824.474999999998545, 5939897.099999999627471 ], [ 24824.474999999998545, 5939897.174999999813735 ], [ 24822.75, 5939897.174999999813735 ], [ 24822.75, 5939897.25 ], [ 24820.650000000001455, 5939897.25 ], [ 24820.650000000001455, 5939897.325000000186265 ], [ 24814.724999999998545, 5939897.325000000186265 ], [ 24814.724999999998545, 5939897.400000000372529 ], [ 24808.8, 5939897.400000000372529 ] ] ] } }
]
}
