{
"type": "FeatureCollection",
"name": "24183E592482N_buildings",
"crs": { "type": "name", "properties": { "name": "urn:ogc:def:crs:EPSG::3776" } },
"features": [
{ "type": "Feature", "properties": { "value": 1.0, "building_id": 0, "area": 314.10000000027958 }, "geometry": { "type": "Polygon", "coordinates": [ [ [ 24326.474999999998545, 5925553.5 ], [ 24326.474999999998545, 5925553.424999999813735 ], [ 24325.8, 5925553.424999999813735 ], [ 24325.8, 5925553.349999999627471 ], [ 24325.2, 5925553.349999999627471 ], [ 24325.2, 5925553.275000000372529 ], [ 24324.675, 5925553.275000000372529 ], [ 24324.675, 5925553.200000000186265 ], [ 24324.150000000001455, 5925553.200000000186265 ], [ 24324.150000000001455, 5925553.125 ], [ 24323.7, 5925553.125 ], [ 24323.7, 5925553.049999999813735 ], [ 24323.25, 5925553.049999999813735 ], [ 24323.25, 5925552.974999999627471 ], [ 24322.8, 5925552.974999999627471 ], [ 24322.8, 5925552.900000000372529 ], [ 24322.425, 5925552.900000000372529 ], [ 24322.425, 5925552.825000000186265 ], [ 24322.05, 5925552.825000000186265 ], [ 24322.05, 5925552.75 ], [ 24321.75, 5925552.75 ], [ 24321.75, 5925552.674999999813735 ], [ 24321.375, 5925552.674999999813735 ], [ 24321.375, 5925552.599999999627471 ], [ 24321.075, 5925552.599999999627471 ], [ 24321.075, 5925552.525000000372529 ], [ 24320.849999999998545, 5925552.525000000372529 ], [ 24320.849999999998545, 5925552.450000000186265 ], [ 24320.400000000001455, 5925552.450000000186265 ], [ 24320.400000000001455, 5925552.375 ], [ 24319.8, 5925552.375 ], [ 24319.8, 5925552.299999999813735 ], [ 24319.2, 5925552.299999999813735 ], [ 24319.2, 5925552.224999999627471 ], [ 24317.175, 5925552.224999999627471 ], [ 24317.175, 5925552.150000000372529 ], [ 24313.575, 5925552.150000000372529 ], [ 24313.575, 5925552.075000000186265 ], [ 24312.675, 5925552.075000000186265 ], [ 24312.675, 5925552.0 ], [ 24312.375, 5925552.0 ], [ 24312.375, 5925551.924999999813735 ], [ 24312.075, 5925551.924999999813735 ], [ 24312.075, 5925551.849999999627471 ], [ 24311.775000000001455, 5925551.849999999627471 ], [ 24311.775000000001455, 5925551.775000000372529 ], [ 24311.55, 5925551.775000000372529 ], [ 24311.55, 5925551.700000000186265 ], [ 24311.325, 5925551.700000000186265 ], [ 24311.325, 5925551.625 ], [ 24311.099999999998545, 5925551.625 ], [ 24311.099999999998545, 5925551.549999999813735 ], [ 24310.875, 5925551.549999999813735 ], [ 24310.875, 5925551.474999999627471 ], [ 24310.8, 5925551.474999999627471 ], [ 24310.8, 5925551.400000000372529 ], [ 24310.650000000001455, 5925551.400000000372529 ], [ 24310.650000000001455, 5925551.325000000186265 ], [ 24310.575, 5925551.325000000186265 ], [ 24310.575, 5925551.25 ], [ 24310.425, 5925551.25 ], [ 24310.425, 5925551.174999999813735 ], [ 24310.349999999998545, 5925551.174999999813735 ], [ 24310.349999999998545, 5925551.099999999627471 ], [ 24310.2, 5925551.099999999627471 ], [ 24310.2, 5925551.025000000372529 ], [ 24310.125, 5925551.025000000372529 ], [ 24310.125, 5925550.950000000186265 ], [ 24310.05, 5925550.950000000186265 ], [ 24310.05, 5925550.875 ], [ 24309.974999999998545, 5925550.875 ], [ 24309.974999999998545, 5925550.799999999813735 ], [ 24309.900000000001455, 5925550.799999999813735 ], [ 24309.900000000001455, 5925550.724999999627471 ], [ 24309.75, 5925550.724999999627471 ], [ 24309.75, 5925550.650000000372529 ], [ 24309.825, 5925550.650000000372529 ], [ 24309.825, 5925550.5 ], [ 24309.900000000001455, 5925550.5 ], [ 24309.900000000001455, 5925550.349999999627471 ], [ 24309.974999999998545, 5925550.349999999627471 ], [ 24309.974999999998545, 5925550.125 ], [ 24310.05, 5925550.125 ], [ 24310.05, 5925549.974999999627471 ], [ 24310.125, 5925549.974999999627471 ], [ 24310.125, 5925549.75 ], [ 24310.2, 5925549.75 ], [ 24310.2, 5925549.525000000372529 ], [ 24310.275000000001455, 5925549.525000000372529 ], [ 24310.275000000001455, 5925549.299999999813735 ], [ 24310.349999999998545, 5925549.299999999813735 ], [ 24310.349999999998545, 5925549.0 ], [ 24310.425, 5925549.0 ], [ 24310.425, 5925548.700000000186265 ], [ 24310.5, 5925548.700000000186265 ], [ 24310.5, 5925548.474999999627471 ], [ 24310.575, 5925548.474999999627471 ], [ 24310.575, 5925548.099999999627471 ], [ 24310.650000000001455, 5925548.099999999627471 ], [ 24310.650000000001455, 5925547.724999999627471 ], [ 24310.724999999998545, 5925547.724999999627471 ], [ 24310.724999999998545, 5925547.349999999627471 ], [ 24310.8, 5925547.349999999627471 ], [ 24310.8, 5925546.900000000372529 ], [ 24310.875, 5925546.900000000372529 ], [ 24310.875, 5925546.375 ], [ 24310.95, 5925546.375 ], [ 24310.95, 5925545.775000000372529 ], [ 24311.025000000001455, 5925545.775000000372529 ], [ 24311.025000000001455, 5925545.174999999813735 ], [ 24311.099999999998545, 5925545.174999999813735 ], [ 24311.099999999998545, 5925544.650000000372529 ], [ 24311.175, 5925544.650000000372529 ], [ 24311.175, 5925544.349999999627471 ], [ 24311.25, 5925544.349999999627471 ], [ 24311.25, 5925544.125 ], [ 24311.325, 5925544.125 ], [ 24311.325, 5925543.825000000186265 ], [ 24311.400000000001455, 5925543.825000000186265 ], [ 24311.400000000001455, 5925543.450000000186265 ], [ 24311.474999999998545, 5925543.450000000186265 ], [ 24311.474999999998545, 5925543.150000000372529 ], [ 24311.55, 5925543.150000000372529 ], [ 24311.55, 5925542.849999999627471 ], [ 24311.625, 5925542.849999999627471 ], [ 24311.625, 5925542.700000000186265 ], [ 24311.7, 5925542.700000000186265 ], [ 24311.7, 5925542.625 ], [ 24311.775000000001455, 5925542.625 ], [ 24311.775000000001455, 5925542.474999999627471 ], [ 24311.849999999998545, 5925542.474999999627471 ], [ 24311.849999999998545, 5925542.325000000186265 ], [ 24311.925, 5925542.325000000186265 ], [ 24311.925, 5925542.25 ], [ 24312.0, 5925542.25 ], [ 24312.0, 5925542.099999999627471 ], [ 24312.075, 5925542.099999999627471 ], [ 24312.075, 5925541.950000000186265 ], [ 24312.150000000001455, 5925541.950000000186265 ], [ 24312.150000000001455, 5925541.799999999813735 ], [ 24312.224999999998545, 5925541.799999999813735 ], [ 24312.224999999998545, 5925541.724999999627471 ], [ 24312.3, 5925541.724999999627471 ], [ 24312.3, 5925541.575000000186265 ], [ 24312.375, 5925541.575000000186265 ], [ 24312.375, 5925541.424999999813735 ], [ 24312.45, 5925541.424999999813735 ], [ 24312.45, 5925541.349999999627471 ], [ 24312.525000000001455, 5925541.349999999627471 ], [ 24312.525000000001455, 5925541.200000000186265 ], [ 24312.599999999998545, 5925541.200000000186265 ], [ 24312.599999999998545, 5925541.049999999813735 ], [ 24312.675, 5925541.049999999813735 ], [ 24312.675, 5925540.974999999627471 ], [ 24312.75, 5925540.974999999627471 ], [ 24312.75, 5925540.825000000186265 ], [ 24312.825, 5925540.825000000186265 ], [ 24312.825, 5925540.75 ], [ 24312.900000000001455, 5925540.75 ], [ 24312.900000000001455, 5925540.674999999813735 ], [ 24312.974999999998545, 5925540.674999999813735 ], [ 24312.974999999998545, 5925540.525000000372529 ], [ 24313.05, 5925540.525000000372529 ], [ 24313.05, 5925540.375 ], [ 24313.125, 5925540.375 ], [ 24313.125, 5925540.299999999813735 ], [ 24313.2, 5925540.299999999813735 ], [ 24313.2, 5925540.150000000372529 ], [ 24313.275000000001455, 5925540.150000000372529 ], [ 24313.275000000001455, 5925540.0 ], [ 24313.349999999998545, 5925540.0 ], [ 24313.349999999998545, 5925539.924999999813735 ], [ 24313.425, 5925539.924999999813735 ], [ 24313.425, 5925539.775000000372529 ], [ 24313.5, 5925539.775000000372529 ], [ 24313.5, 5925539.625 ], [ 24313.575, 5925539.625 ], [ 24313.575, 5925539.474999999627471 ], [ 24313.650000000001455, 5925539.474999999627471 ], [ 24313.650000000001455, 5925539.325000000186265 ], [ 24313.724999999998545, 5925539.325000000186265 ], [ 24313.724999999998545, 5925539.174999999813735 ], [ 24313.8, 5925539.174999999813735 ], [ 24313.8, 5925539.025000000372529 ], [ 24313.875, 5925539.025000000372529 ], [ 24313.875, 5925538.950000000186265 ], [ 24313.95, 5925538.950000000186265 ], [ 24313.95, 5925538.799999999813735 ], [ 24314.025000000001455, 5925538.799999999813735 ], [ 24314.025000000001455, 5925538.650000000372529 ], [ 24314.099999999998545, 5925538.650000000372529 ], [ 24314.099999999998545, 5925538.575000000186265 ], [ 24314.175, 5925538.575000000186265 ], [ 24314.175, 5925538.424999999813735 ], [ 24314.25, 5925538.424999999813735 ], [ 24314.25, 5925538.275000000372529 ], [ 24314.325, 5925538.275000000372529 ], [ 24314.325, 5925538.200000000186265 ], [ 24314.400000000001455, 5925538.200000000186265 ], [ 24314.400000000001455, 5925538.049999999813735 ], [ 24314.474999999998545, 5925538.049999999813735 ], [ 24314.474999999998545, 5925537.900000000372529 ], [ 24314.55, 5925537.900000000372529 ], [ 24314.55, 5925537.75 ], [ 24314.625, 5925537.75 ], [ 24314.625, 5925537.599999999627471 ], [ 24314.7, 5925537.599999999627471 ], [ 24314.7, 5925537.450000000186265 ], [ 24314.775000000001455, 5925537.450000000186265 ], [ 24314.775000000001455, 5925537.299999999813735 ], [ 24314.849999999998545, 5925537.299999999813735 ], [ 24314.849999999998545, 5925537.150000000372529 ], [ 24314.925, 5925537.150000000372529 ], [ 24314.925, 5925537.0 ], [ 24315.0, 5925537.0 ], [ 24315.0, 5925536.849999999627471 ], [ 24315.075, 5925536.849999999627471 ], [ 24315.075, 5925536.775000000372529 ], [ 24315.150000000001455, 5925536.775000000372529 ], [ 24315.150000000001455, 5925536.625 ], [ 24315.224999999998545, 5925536.625 ], [ 24315.224999999998545, 5925536.549999999813735 ], [ 24315.3, 5925536.549999999813735 ], [ 24315.3, 5925536.400000000372529 ], [ 24315.375, 5925536.400000000372529 ], [ 24315.375, 5925536.325000000186265 ], [ 24315.45, 5925536.325000000186265 ], [ 24315.45, 5925536.174999999813735 ], [ 24315.525000000001455, 5925536.174999999813735 ], [ 24315.525000000001455, 5925536.025000000372529 ], [ 24315.599999999998545, 5925536.025000000372529 ], [ 24315.599999999998545, 5925535.875 ], [ 24315.675, 5925535.875 ], [ 24315.675, 5925535.799999999813735 ], [ 24315.75, 5925535.799999999813735 ], [ 24315.75, 5925535.650000000372529 ], [ 24315.825, 5925535.650000000372529 ], [ 24315.825, 5925535.5 ], [ 24315.900000000001455, 5925535.5 ], [ 24315.900000000001455, 5925535.349999999627471 ], [ 24315.974999999998545, 5925535.349999999627471 ], [ 24315.974999999998545, 5925535.200000000186265 ], [ 24316.05, 5925535.200000000186265 ], [ 24316.05, 5925535.049999999813735 ], [ 24316.125, 5925535.049999999813735 ], [ 24316.125, 5925534.974999999627471 ], [ 24316.2, 5925534.974999999627471 ], [ 24316.2, 5925534.900000000372529 ], [ 24316.275000000001455, 5925534.900000000372529 ], [ 24316.275000000001455, 5925534.825000000186265 ], [ 24316.349999999998545, 5925534.825000000186265 ], [ 24316.349999999998545, 5925534.75 ], [ 24316.425, 5925534.75 ], [ 24316.425, 5925534.674999999813735 ], [ 24316.5, 5925534.674999999813735 ], [ 24316.5, 5925534.525000000372529 ], [ 24316.575, 5925534.525000000372529 ], [ 24316.575, 5925534.450000000186265 ], [ 24316.650000000001455, 5925534.450000000186265 ], [ 24316.650000000001455, 5925534.375 ], [ 24316.724999999998545, 5925534.375 ], [ 24316.724999999998545, 5925534.299999999813735 ], [ 24316.8, 5925534.299999999813735 ], [ 24316.8, 5925534.224999999627471 ], [ 24316.875, 5925534.224999999627471 ], [ 24316.875, 5925534.150000000372529 ], [ 24316.95, 5925534.150000000372529 ], [ 24316.95, 5925534.075000000186265 ], [ 24317.025000000001455, 5925534.075000000186265 ], [ 24317.025000000001455, 5925534.0 ], [ 24317.099999999998545, 5925534.0 ], [ 24317.099999999998545, 5925533.924999999813735 ], [ 24317.175, 5925533.924999999813735 ], [ 24317.175, 5925533.849999999627471 ], [ 24317.25, 5925533.849999999627471 ], [ 24317.25, 5925533.775000000372529 ], [ 24317.325, 5925533.775000000372529 ], [ 24317.325, 5925533.700000000186265 ], [ 24317.400000000001455, 5925533.700000000186265 ], [ 24317.400000000001455, 5925533.625 ], [ 24317.474999999998545, 5925533.625 ], [ 24317.474999999998545, 5925533.474999999627471 ], [ 24317.55, 5925533.474999999627471 ], [ 24317.55, 5925533.400000000372529 ], [ 24317.625, 5925533.400000000372529 ], [ 24317.625, 5925533.325000000186265 ], [ 24317.7, 5925533.325000000186265 ], [ 24317.7, 5925533.25 ], [ 24317.775000000001455, 5925533.25 ], [ 24317.775000000001455, 5925533.174999999813735 ], [ 24317.849999999998545, 5925533.174999999813735 ], [ 24317.849999999998545, 5925533.099999999627471 ], [ 24317.925, 5925533.099999999627471 ], [ 24317.925, 5925533.025000000372529 ], [ 24318.0, 5925533.025000000372529 ], [ 24318.0, 5925532.950000000186265 ], [ 24318.150000000001455, 5925532.950000000186265 ], [ 24318.150000000001455, 5925532.875 ], [ 24318.224999999998545, 5925532.875 ], [ 24318.224999999998545, 5925532.799999999813735 ], [ 24318.375, 5925532.799999999813735 ], [ 24318.375, 5925532.724999999627471 ], [ 24318.45, 5925532.724999999627471 ], [ 24318.45, 5925532.650000000372529 ], [ 24318.599999999998545, 5925532.650000000372529 ], [ 24318.599999999998545, 5925532.575000000186265 ], [ 24318.75, 5925532.575000000186265 ], [ 24318.75, 5925532.5 ], [ 24319.275000000001455, 5925532.5 ], [ 24319.275000000001455, 5925532.424999999813735 ], [ 24319.8, 5925532.424999999813735 ], [ 24319.8, 5925532.349999999627471 ], [ 24320.325, 5925532.349999999627471 ], [ 24320.325, 5925532.275000000372529 ], [ 24320.849999999998545, 5925532.275000000372529 ], [ 24320.849999999998545, 5925532.349999999627471 ], [ 24321.075, 5925532.349999999627471 ], [ 24321.075, 5925532.424999999813735 ], [ 24321.3, 5925532.424999999813735 ], [ 24321.3, 5925532.5 ], [ 24321.45, 5925532.5 ], [ 24321.45, 5925532.575000000186265 ], [ 24321.675, 5925532.575000000186265 ], [ 24321.675, 5925532.650000000372529 ], [ 24321.900000000001455, 5925532.650000000372529 ], [ 24321.900000000001455, 5925532.724999999627471 ], [ 24322.05, 5925532.724999999627471 ], [ 24322.05, 5925532.799999999813735 ], [ 24322.275000000001455, 5925532.799999999813735 ], [ 24322.275000000001455, 5925532.875 ], [ 24322.425, 5925532.875 ], [ 24322.425, 5925532.950000000186265 ], [ 24322.575, 5925532.950000000186265 ], [ 24322.575, 5925533.025000000372529 ], [ 24322.724999999998545, 5925533.025000000372529 ], [ 24322.724999999998545, 5925533.099999999627471 ], [ 24322.875, 5925533.099999999627471 ], [ 24322.875, 5925533.174999999813735 ], [ 24322.95, 5925533.174999999813735 ], [ 24322.95, 5925533.25 ], [ 24323.025000000001455, 5925533.25 ], [ 24323.025000000001455, 5925533.325000000186265 ], [ 24323.099999999998545, 5925533.325000000186265 ], [ 24323.099999999998545, 5925533.400000000372529 ], [ 24323.175, 5925533.400000000372529 ], [ 24323.175, 5925533.474999999627471 ], [ 24323.325, 5925533.474999999627471 ], [ 24323.325, 5925533.549999999813735 ], [ 24323.400000000001455, 5925533.549999999813735 ], [ 24323.400000000001455, 5925533.625 ], [ 24323.474999999998545, 5925533.625 ], [ 24323.474999999998545, 5925533.700000000186265 ], [ 24323.55, 5925533.700000000186265 ], [ 24323.55, 5925533.775000000372529 ], [ 24323.625, 5925533.775000000372529 ], [ 24323.625, 5925533.849999999627471 ], [ 24323.7, 5925533.849999999627471 ], [ 24323.7, 5925533.924999999813735 ], [ 24323.849999999998545, 5925533.924999999813735 ], [ 24323.849999999998545, 5925534.0 ], [ 24323.925, 5925534.0 ], [ 24323.925, 5925534.075000000186265 ], [ 24324.0, 5925534.075000000186265 ], [ 24324.0, 5925534.150000000372529 ], [ 24324.075, 5925534.150000000372529 ], [ 24324.075, 5925534.224999999627471 ], [ 24324.150000000001455, 5925534.224999999627471 ], [ 24324.150000000001455, 5925534.299999999813735 ], [ 24324.3, 5925534.299999999813735 ], [ 24324.3, 5925534.375 ], [ 24324.375, 5925534.375 ], [ 24324.375, 5925534.450000000186265 ], [ 24324.45, 5925534.450000000186265 ], [ 24324.45, 5925534.525000000372529 ], [ 24324.525000000001455, 5925534.525000000372529 ], [ 24324.525000000001455, 5925534.599999999627471 ], [ 24324.675, 5925534.599999999627471 ], [ 24324.675, 5925534.674999999813735 ], [ 24324.75, 5925534.674999999813735 ], [ 24324.75, 5925534.75 ], [ 24324.825, 5925534.75 ], [ 24324.825, 5925534.825000000186265 ], [ 24324.900000000001455, 5925534.825000000186265 ], [ 24324.900000000001455, 5925534.900000000372529 ], [ 24324.974999999998545, 5925534.900000000372529 ], [ 24324.974999999998545, 5925534.974999999627471 ], [ 24325.125, 5925534.974999999627471 ], [ 24325.125, 5925535.049999999813735 ], [ 24325.2, 5925535.049999999813735 ], [ 24325.2, 5925535.200000000186265 ], [ 24325.275000000001455, 5925535.200000000186265 ], [ 24325.275000000001455, 5925535.275000000372529 ], [ 24325.349999999998545, 5925535.275000000372529 ], [ 24325.349999999998545, 5925535.349999999627471 ], [ 24325.425, 5925535.349999999627471 ], [ 24325.425, 5925535.5 ], [ 24325.5, 5925535.5 ], [ 24325.5, 5925535.575000000186265 ], [ 24325.575, 5925535.575000000186265 ], [ 24325.575, 5925535.650000000372529 ], [ 24325.650000000001455, 5925535.650000000372529 ], [ 24325.650000000001455, 5925535.724999999627471 ], [ 24325.724999999998545, 5925535.724999999627471 ], [ 24325.724999999998545, 5925535.875 ], [ 24325.8, 5925535.875 ], [ 24325.8, 5925535.950000000186265 ], [ 24325.875, 5925535.950000000186265 ], [ 24325.875, 5925536.025000000372529 ], [ 24325.95, 5925536.025000000372529 ], [ 24325.95, 5925536.099999999627471 ], [ 24326.025000000001455, 5925536.099999999627471 ], [ 24326.025000000001455, 5925536.174999999813735 ], [ 24326.099999999998545, 5925536.174999999813735 ], [ 24326.099999999998545, 5925536.25 ], [ 24326.175, 5925536.25 ], [ 24326.175, 5925536.325000000186265 ], [ 24326.25, 5925536.325000000186265 ], [ 24326.25, 5925536.400000000372529 ], [ 24326.325, 5925536.400000000372529 ], [ 24326.325, 5925536.474999999627471 ], [ 24326.400000000001455, 5925536.474999999627471 ], [ 24326.400000000001455, 5925536.549999999813735 ], [ 24326.474999999998545, 5925536.549999999813735 ], [ 24326.474999999998545, 5925536.625 ], [ 24326.55, 5925536.625 ], [ 24326.55, 5925536.700000000186265 ], [ 24326.625, 5925536.700000000186265 ], [ 24326.625, 5925536.775000000372529 ], [ 24326.7, 5925536.775000000372529 ], [ 24326.7, 5925536.849999999627471 ], [ 24326.775000000001455, 5925536.849999999627471 ], [ 24326.775000000001455, 5925536.924999999813735 ], [ 24326.849999999998545, 5925536.924999999813735 ], [ 24326.849999999998545, 5925537.0 ], [ 24326.925, 5925537.0 ], [ 24326.925, 5925537.075000000186265 ], [ 24327.0, 5925537.075000000186265 ], [ 24327.0, 5925537.150000000372529 ], [ 24327.075, 5925537.150000000372529 ], [ 24327.075, 5925537.224999999627471 ], [ 24327.150000000001455, 5925537.224999999627471 ], [ 24327.150000000001455, 5925537.299999999813735 ], [ 24327.224999999998545, 5925537.299999999813735 ], [ 24327.224999999998545, 5925537.375 ], [ 24327.3, 5925537.375 ], [ 24327.3, 5925537.450000000186265 ], [ 24327.375, 5925537.450000000186265 ], [ 24327.375, 5925537.525000000372529 ], [ 24327.45, 5925537.525000000372529 ], [ 24327.45, 5925537.599999999627471 ], [ 24327.525000000001455, 5925537.599999999627471 ], [ 24327.525000000001455, 5925537.674999999813735 ], [ 24327.599999999998545, 5925537.674999999813735 ], [ 24327.599999999998545, 5925537.75 ], [ 24327.675, 5925537.75 ], [ 24327.675, 5925537.825000000186265 ], [ 24327.75, 5925537.825000000186265 ], [ 24327.75, 5925537.900000000372529 ], [ 24327.825, 5925537.900000000372529 ], [ 24327.825, 5925537.974999999627471 ], [ 24327.900000000001455, 5925537.974999999627471 ], [ 24327.900000000001455, 5925538.049999999813735 ], [ 24327.974999999998545, 5925538.049999999813735 ], [ 24327.974999999998545, 5925538.125 ], [ 24328.05, 5925538.125 ], [ 24328.05, 5925538.200000000186265 ], [ 24328.125, 5925538.200000000186265 ], [ 24328.125, 5925538.275000000372529 ], [ 24328.2, 5925538.275000000372529 ], [ 24328.2, 5925538.349999999627471 ], [ 24328.275000000001455, 5925538.349999999627471 ], [ 24328.275000000001455, 5925538.424999999813735 ], [ 24328.349999999998545, 5925538.424999999813735 ], [ 24328.349999999998545, 5925538.5 ], [ 24328.425, 5925538.5 ], [ 24328.425, 5925538.575000000186265 ], [ 24328.5, 5925538.575000000186265 ], [ 24328.5, 5925538.650000000372529 ], [ 24328.575, 5925538.650000000372529 ], [ 24328.575, 5925538.799999999813735 ], [ 24328.650000000001455, 5925538.799999999813735 ], [ 24328.650000000001455, 5925538.950000000186265 ], [ 24328.724999999998545, 5925538.950000000186265 ], [ 24328.724999999998545, 5925539.099999999627471 ], [ 24328.8, 5925539.099999999627471 ], [ 24328.8, 5925539.25 ], [ 24328.875, 5925539.25 ], [ 24328.875, 5925539.474999999627471 ], [ 24328.95, 5925539.474999999627471 ], [ 24328.95, 5925539.625 ], [ 24329.025000000001455, 5925539.625 ], [ 24329.025000000001455, 5925539.775000000372529 ], [ 24329.099999999998545, 5925539.775000000372529 ], [ 24329.099999999998545, 5925540.0 ], [ 24329.175, 5925540.0 ], [ 24329.175, 5925540.150000000372529 ], [ 24329.25, 5925540.150000000372529 ], [ 24329.25, 5925540.375 ], [ 24329.325, 5925540.375 ], [ 24329.325, 5925540.525000000372529 ], [ 24329.400000000001455, 5925540.525000000372529 ], [ 24329.400000000001455, 5925540.75 ], [ 24329.474999999998545, 5925540.75 ], [ 24329.474999999998545, 5925540.900000000372529 ], [ 24329.55, 5925540.900000000372529 ], [ 24329.55, 5925541.125 ], [ 24329.625, 5925541.125 ], [ 24329.625, 5925541.424999999813735 ], [ 24329.7, 5925541.424999999813735 ], [ 24329.7, 5925541.650000000372529 ], [ 24329.775000000001455, 5925541.650000000372529 ], [ 24329.775000000001455, 5925541.875 ], [ 24329.849999999998545, 5925541.875 ], [ 24329.849999999998545, 5925542.099999999627471 ], [ 24329.925, 5925542.099999999627471 ], [ 24329.925, 5925542.400000000372529 ], [ 24330.0, 5925542.400000000372529 ], [ 24330.0, 5925542.625 ], [ 24330.075, 5925542.625 ], [ 24330.075, 5925543.0 ], [ 24330.150000000001455, 5925543.0 ], [ 24330.150000000001455, 5925543.75 ], [ 24330.224999999998545, 5925543.75 ], [ 24330.224999999998545, 5925544.5 ], [ 24330.3, 5925544.5 ], [ 24330.3, 5925545.325000000186265 ], [ 24330.224999999998545, 5925545.325000000186265 ], [ 24330.224999999998545, 5925546.75 ], [ 24330.150000000001455, 5925546.75 ], [ 24330.150000000001455, 5925547.799999999813735 ], [ 24330.075, 5925547.799999999813735 ], [ 24330.075, 5925548.849999999627471 ], [ 24330.0, 5925548.849999999627471 ], [ 24330.0, 5925549.599999999627471 ], [ 24329.925, 5925549.599999999627471 ], [ 24329.925, 5925550.424999999813735 ], [ 24329.849999999998545, 5925550.424999999813735 ], [ 24329.849999999998545, 5925550.724999999627471 ], [ 24329.775000000001455, 5925550.724999999627471 ], [ 24329.775000000001455, 5925550.875 ], [ 24329.7, 5925550.875 ], [ 24329.7, 5925551.025000000372529 ], [ 24329.625, 5925551.025000000372529 ], [ 24329.625, 5925551.174999999813735 ], [ 24329.55, 5925551.174999999813735 ], [ 24329.55, 5925551.25 ], [ 24329.474999999998545, 5925551.25 ], [ 24329.474999999998545, 5925551.400000000372529 ], [ 24329.400000000001455, 5925551.400000000372529 ], [ 24329.400000000001455, 5925551.549999999813735 ], [ 24329.325, 5925551.549999999813735 ], [ 24329.325, 5925551.700000000186265 ], [ 24329.25, 5925551.700000000186265 ], [ 24329.25, 5925551.849999999627471 ], [ 24329.175, 5925551.849999999627471 ], [ 24329.175, 5925552.0 ], [ 24329.099999999998545, 5925552.0 ], [ 24329.099999999998545, 5925552.075000000186265 ], [ 24329.025000000001455, 5925552.075000000186265 ], [ 24329.025000000001455, 5925552.224999999627471 ], [ 24328.95, 5925552.224999999627471 ], [ 24328.95, 5925552.375 ], [ 24328.875, 5925552.375 ], [ 24328.875, 5925552.525000000372529 ], [ 24328.8, 5925552.525000000372529 ], [ 24328.8, 5925552.674999999813735 ], [ 24328.724999999998545, 5925552.674999999813735 ], [ 24328.724999999998545, 5925552.75 ], [ 24328.650000000001455, 5925552.75 ], [ 24328.650000000001455, 5925552.825000000186265 ], [ 24328.575, 5925552.825000000186265 ], [ 24328.575, 5925552.900000000372529 ], [ 24328.349999999998545, 5925552.900000000372529 ], [ 24328.349999999998545, 5925552.974999999627471 ], [ 24328.05, 5925552.974999999627471 ], [ 24328.05, 5925553.049999999813735 ], [ 24327.825, 5925553.049999999813735 ], [ 24327.825, 5925553.125 ], [ 24327.525000000001455, 5925553.125 ], [ 24327.525000000001455, 5925553.200000000186265 ], [ 24327.3, 5925553.200000000186265 ], [ 24327.3, 5925553.275000000372529 ], [ 24327.075, 5925553.275000000372529 ], [ 24327.075, 5925553.349999999627471 ], [ 24326.775000000001455, 5925553.349999999627471 ], [ 24326.775000000001455, 5925553.424999999813735 ], [ 24326.625, 5925553.424999999813735 ], [ 24326.625, 5925553.5 ], [ 24326.474999999998545, 5925553.5 ] ] ] } }
]
}
