{
"type": "FeatureCollection",
"name": "24933E591132N_buildings",
"crs": { "type": "name", "properties": { "name": "urn:ogc:def:crs:EPSG::3776" } },
"features": [
{ "type": "Feature", "properties": { "value": 1.0, "building_id": 0, "area": 22.983750000084427 }, "geometry": { "type": "Polygon", "coordinates": [ [ [ 25185.825, 5911801.575000000186265 ], [ 25185.825, 5911801.5 ], [ 25185.75, 5911801.5 ], [ 25185.75, 5911801.424999999813735 ], [ 25185.675, 5911801.424999999813735 ], [ 25185.675, 5911801.349999999627471 ], [ 25185.599999999998545, 5911801.349999999627471 ], [ 25185.599999999998545, 5911801.275000000372529 ], [ 25185.525000000001455, 5911801.275000000372529 ], [ 25185.525000000001455, 5911801.200000000186265 ], [ 25185.45, 5911801.200000000186265 ], [ 25185.45, 5911801.049999999813735 ], [ 25185.375, 5911801.049999999813735 ], [ 25185.375, 5911800.974999999627471 ], [ 25185.3, 5911800.974999999627471 ], [ 25185.3, 5911800.825000000186265 ], [ 25185.224999999998545, 5911800.825000000186265 ], [ 25185.224999999998545, 5911800.75 ], [ 25185.150000000001455, 5911800.75 ], [ 25185.150000000001455, 5911799.700000000186265 ], [ 25185.075, 5911799.700000000186265 ], [ 25185.075, 5911798.349999999627471 ], [ 25185.0, 5911798.349999999627471 ], [ 25185.0, 5911797.0 ], [ 25184.925, 5911797.0 ], [ 25184.925, 5911795.875 ], [ 25184.849999999998545, 5911795.875 ], [ 25184.849999999998545, 5911794.674999999813735 ], [ 25184.925, 5911794.674999999813735 ], [ 25184.925, 5911794.450000000186265 ], [ 25185.0, 5911794.450000000186265 ], [ 25185.0, 5911794.299999999813735 ], [ 25185.075, 5911794.299999999813735 ], [ 25185.075, 5911794.075000000186265 ], [ 25185.150000000001455, 5911794.075000000186265 ], [ 25185.150000000001455, 5911793.924999999813735 ], [ 25185.224999999998545, 5911793.924999999813735 ], [ 25185.224999999998545, 5911793.775000000372529 ], [ 25185.3, 5911793.775000000372529 ], [ 25185.3, 5911793.625 ], [ 25185.375, 5911793.625 ], [ 25185.375, 5911793.474999999627471 ], [ 25185.45, 5911793.474999999627471 ], [ 25185.45, 5911793.325000000186265 ], [ 25185.525000000001455, 5911793.325000000186265 ], [ 25185.525000000001455, 5911793.174999999813735 ], [ 25185.599999999998545, 5911793.174999999813735 ], [ 25185.599999999998545, 5911793.025000000372529 ], [ 25185.675, 5911793.025000000372529 ], [ 25185.675, 5911792.875 ], [ 25185.75, 5911792.875 ], [ 25185.75, 5911792.799999999813735 ], [ 25185.825, 5911792.799999999813735 ], [ 25185.825, 5911792.724999999627471 ], [ 25186.05, 5911792.724999999627471 ], [ 25186.05, 5911792.799999999813735 ], [ 25186.125, 5911792.799999999813735 ], [ 25186.125, 5911792.875 ], [ 25186.2, 5911792.875 ], [ 25186.2, 5911792.950000000186265 ], [ 25186.275000000001455, 5911792.950000000186265 ], [ 25186.275000000001455, 5911793.099999999627471 ], [ 25186.349999999998545, 5911793.099999999627471 ], [ 25186.349999999998545, 5911793.174999999813735 ], [ 25186.425, 5911793.174999999813735 ], [ 25186.425, 5911793.325000000186265 ], [ 25186.5, 5911793.325000000186265 ], [ 25186.5, 5911793.400000000372529 ], [ 25186.575, 5911793.400000000372529 ], [ 25186.575, 5911793.474999999627471 ], [ 25186.650000000001455, 5911793.474999999627471 ], [ 25186.650000000001455, 5911793.625 ], [ 25186.724999999998545, 5911793.625 ], [ 25186.724999999998545, 5911793.700000000186265 ], [ 25186.8, 5911793.700000000186265 ], [ 25186.8, 5911793.775000000372529 ], [ 25186.875, 5911793.775000000372529 ], [ 25186.875, 5911793.849999999627471 ], [ 25186.95, 5911793.849999999627471 ], [ 25186.95, 5911794.0 ], [ 25187.025000000001455, 5911794.0 ], [ 25187.025000000001455, 5911794.075000000186265 ], [ 25187.099999999998545, 5911794.075000000186265 ], [ 25187.099999999998545, 5911794.150000000372529 ], [ 25187.175, 5911794.150000000372529 ], [ 25187.175, 5911794.224999999627471 ], [ 25187.25, 5911794.224999999627471 ], [ 25187.25, 5911794.299999999813735 ], [ 25187.325, 5911794.299999999813735 ], [ 25187.325, 5911794.375 ], [ 25187.400000000001455, 5911794.375 ], [ 25187.400000000001455, 5911794.450000000186265 ], [ 25187.474999999998545, 5911794.450000000186265 ], [ 25187.474999999998545, 5911794.525000000372529 ], [ 25187.55, 5911794.525000000372529 ], [ 25187.55, 5911794.599999999627471 ], [ 25187.625, 5911794.599999999627471 ], [ 25187.625, 5911794.674999999813735 ], [ 25187.7, 5911794.674999999813735 ], [ 25187.7, 5911794.75 ], [ 25187.775000000001455, 5911794.75 ], [ 25187.775000000001455, 5911794.825000000186265 ], [ 25187.849999999998545, 5911794.825000000186265 ], [ 25187.849999999998545, 5911795.5 ], [ 25187.925, 5911795.5 ], [ 25187.925, 5911796.700000000186265 ], [ 25188.0, 5911796.700000000186265 ], [ 25188.0, 5911797.900000000372529 ], [ 25188.075, 5911797.900000000372529 ], [ 25188.075, 5911799.099999999627471 ], [ 25188.150000000001455, 5911799.099999999627471 ], [ 25188.150000000001455, 5911800.299999999813735 ], [ 25188.224999999998545, 5911800.299999999813735 ], [ 25188.224999999998545, 5911800.75 ], [ 25188.150000000001455, 5911800.75 ], [ 25188.150000000001455, 5911800.825000000186265 ], [ 25188.075, 5911800.825000000186265 ], [ 25188.075, 5911800.974999999627471 ], [ 25188.0, 5911800.974999999627471 ], [ 25188.0, 5911801.049999999813735 ], [ 25187.925, 5911801.049999999813735 ], [ 25187.925, 5911801.200000000186265 ], [ 25187.7, 5911801.200000000186265 ], [ 25187.7, 5911801.275000000372529 ], [ 25187.400000000001455, 5911801.275000000372529 ], [ 25187.400000000001455, 5911801.349999999627471 ], [ 25187.099999999998545, 5911801.349999999627471 ], [ 25187.099999999998545, 5911801.424999999813735 ], [ 25186.724999999998545, 5911801.424999999813735 ], [ 25186.724999999998545, 5911801.5 ], [ 25186.349999999998545, 5911801.5 ], [ 25186.349999999998545, 5911801.575000000186265 ], [ 25185.825, 5911801.575000000186265 ] ] ] } },
{ "type": "Feature", "properties": { "value": 1.0, "building_id": 1, "area": 245.04750000222444 }, "geometry": { "type": "Polygon", "coordinates": [ [ [ 25258.05, 5911777.650000000372529 ], [ 25258.05, 5911777.575000000186265 ], [ 25257.900000000001455, 5911777.575000000186265 ], [ 25257.900000000001455, 5911777.5 ], [ 25257.825, 5911777.5 ], [ 25257.825, 5911777.424999999813735 ], [ 25257.675, 5911777.424999999813735 ], [ 25257.675, 5911777.349999999627471 ], [ 25257.525000000001455, 5911777.349999999627471 ], [ 25257.525000000001455, 5911777.275000000372529 ], [ 25257.45, 5911777.275000000372529 ], [ 25257.45, 5911777.200000000186265 ], [ 25257.375, 5911777.200000000186265 ], [ 25257.375, 5911777.125 ], [ 25257.224999999998545, 5911777.125 ], [ 25257.224999999998545, 5911777.049999999813735 ], [ 25257.150000000001455, 5911777.049999999813735 ], [ 25257.150000000001455, 5911776.974999999627471 ], [ 25257.075, 5911776.974999999627471 ], [ 25257.075, 5911776.900000000372529 ], [ 25256.925, 5911776.900000000372529 ], [ 25256.925, 5911776.825000000186265 ], [ 25256.775000000001455, 5911776.825000000186265 ], [ 25256.775000000001455, 5911776.75 ], [ 25256.625, 5911776.75 ], [ 25256.625, 5911776.674999999813735 ], [ 25256.474999999998545, 5911776.674999999813735 ], [ 25256.474999999998545, 5911776.599999999627471 ], [ 25256.325, 5911776.599999999627471 ], [ 25256.325, 5911776.525000000372529 ], [ 25256.175, 5911776.525000000372529 ], [ 25256.175, 5911776.450000000186265 ], [ 25256.025000000001455, 5911776.450000000186265 ], [ 25256.025000000001455, 5911776.375 ], [ 25255.95, 5911776.375 ], [ 25255.95, 5911776.299999999813735 ], [ 25255.875, 5911776.299999999813735 ], [ 25255.875, 5911776.224999999627471 ], [ 25255.8, 5911776.224999999627471 ], [ 25255.8, 5911776.150000000372529 ], [ 25255.650000000001455, 5911776.150000000372529 ], [ 25255.650000000001455, 5911776.075000000186265 ], [ 25255.575, 5911776.075000000186265 ], [ 25255.575, 5911775.924999999813735 ], [ 25255.5, 5911775.924999999813735 ], [ 25255.5, 5911775.849999999627471 ], [ 25255.425, 5911775.849999999627471 ], [ 25255.425, 5911775.775000000372529 ], [ 25255.349999999998545, 5911775.775000000372529 ], [ 25255.349999999998545, 5911775.700000000186265 ], [ 25255.275000000001455, 5911775.700000000186265 ], [ 25255.275000000001455, 5911775.549999999813735 ], [ 25255.2, 5911775.549999999813735 ], [ 25255.2, 5911775.474999999627471 ], [ 25255.125, 5911775.474999999627471 ], [ 25255.125, 5911775.325000000186265 ], [ 25255.05, 5911775.325000000186265 ], [ 25255.05, 5911775.025000000372529 ], [ 25254.974999999998545, 5911775.025000000372529 ], [ 25254.974999999998545, 5911774.724999999627471 ], [ 25254.900000000001455, 5911774.724999999627471 ], [ 25254.900000000001455, 5911774.424999999813735 ], [ 25254.825, 5911774.424999999813735 ], [ 25254.825, 5911774.125 ], [ 25254.75, 5911774.125 ], [ 25254.75, 5911773.900000000372529 ], [ 25254.675, 5911773.900000000372529 ], [ 25254.675, 5911773.674999999813735 ], [ 25254.599999999998545, 5911773.674999999813735 ], [ 25254.599999999998545, 5911773.450000000186265 ], [ 25254.525000000001455, 5911773.450000000186265 ], [ 25254.525000000001455, 5911773.224999999627471 ], [ 25254.45, 5911773.224999999627471 ], [ 25254.45, 5911773.150000000372529 ], [ 25254.375, 5911773.150000000372529 ], [ 25254.375, 5911773.075000000186265 ], [ 25254.3, 5911773.075000000186265 ], [ 25254.3, 5911773.0 ], [ 25254.224999999998545, 5911773.0 ], [ 25254.224999999998545, 5911772.924999999813735 ], [ 25254.150000000001455, 5911772.924999999813735 ], [ 25254.150000000001455, 5911772.775000000372529 ], [ 25254.075, 5911772.775000000372529 ], [ 25254.075, 5911772.700000000186265 ], [ 25254.0, 5911772.700000000186265 ], [ 25254.0, 5911772.625 ], [ 25253.925, 5911772.625 ], [ 25253.925, 5911772.549999999813735 ], [ 25253.849999999998545, 5911772.549999999813735 ], [ 25253.849999999998545, 5911772.400000000372529 ], [ 25253.775000000001455, 5911772.400000000372529 ], [ 25253.775000000001455, 5911772.325000000186265 ], [ 25253.7, 5911772.325000000186265 ], [ 25253.7, 5911772.174999999813735 ], [ 25253.625, 5911772.174999999813735 ], [ 25253.625, 5911772.025000000372529 ], [ 25253.55, 5911772.025000000372529 ], [ 25253.55, 5911771.875 ], [ 25253.474999999998545, 5911771.875 ], [ 25253.474999999998545, 5911771.724999999627471 ], [ 25253.400000000001455, 5911771.724999999627471 ], [ 25253.400000000001455, 5911771.5 ], [ 25253.325, 5911771.5 ], [ 25253.325, 5911771.200000000186265 ], [ 25253.25, 5911771.200000000186265 ], [ 25253.25, 5911770.599999999627471 ], [ 25253.175, 5911770.599999999627471 ], [ 25253.175, 5911770.075000000186265 ], [ 25253.099999999998545, 5911770.075000000186265 ], [ 25253.099999999998545, 5911769.400000000372529 ], [ 25253.025000000001455, 5911769.400000000372529 ], [ 25253.025000000001455, 5911767.974999999627471 ], [ 25252.95, 5911767.974999999627471 ], [ 25252.95, 5911766.549999999813735 ], [ 25252.875, 5911766.549999999813735 ], [ 25252.875, 5911765.049999999813735 ], [ 25252.8, 5911765.049999999813735 ], [ 25252.8, 5911761.75 ], [ 25252.875, 5911761.75 ], [ 25252.875, 5911761.150000000372529 ], [ 25252.95, 5911761.150000000372529 ], [ 25252.95, 5911760.625 ], [ 25253.025000000001455, 5911760.625 ], [ 25253.025000000001455, 5911760.025000000372529 ], [ 25253.099999999998545, 5911760.025000000372529 ], [ 25253.099999999998545, 5911759.575000000186265 ], [ 25253.175, 5911759.575000000186265 ], [ 25253.175, 5911759.275000000372529 ], [ 25253.25, 5911759.275000000372529 ], [ 25253.25, 5911759.049999999813735 ], [ 25253.325, 5911759.049999999813735 ], [ 25253.325, 5911758.825000000186265 ], [ 25253.400000000001455, 5911758.825000000186265 ], [ 25253.400000000001455, 5911758.599999999627471 ], [ 25253.474999999998545, 5911758.599999999627471 ], [ 25253.474999999998545, 5911758.450000000186265 ], [ 25253.55, 5911758.450000000186265 ], [ 25253.55, 5911758.299999999813735 ], [ 25253.625, 5911758.299999999813735 ], [ 25253.625, 5911758.075000000186265 ], [ 25253.7, 5911758.075000000186265 ], [ 25253.7, 5911757.924999999813735 ], [ 25253.775000000001455, 5911757.924999999813735 ], [ 25253.775000000001455, 5911757.775000000372529 ], [ 25253.849999999998545, 5911757.775000000372529 ], [ 25253.849999999998545, 5911757.700000000186265 ], [ 25253.925, 5911757.700000000186265 ], [ 25253.925, 5911757.549999999813735 ], [ 25254.0, 5911757.549999999813735 ], [ 25254.0, 5911757.474999999627471 ], [ 25254.075, 5911757.474999999627471 ], [ 25254.075, 5911757.400000000372529 ], [ 25254.150000000001455, 5911757.400000000372529 ], [ 25254.150000000001455, 5911757.25 ], [ 25254.224999999998545, 5911757.25 ], [ 25254.224999999998545, 5911757.174999999813735 ], [ 25254.3, 5911757.174999999813735 ], [ 25254.3, 5911757.099999999627471 ], [ 25254.375, 5911757.099999999627471 ], [ 25254.375, 5911757.025000000372529 ], [ 25254.45, 5911757.025000000372529 ], [ 25254.45, 5911756.950000000186265 ], [ 25254.525000000001455, 5911756.950000000186265 ], [ 25254.525000000001455, 5911756.875 ], [ 25254.599999999998545, 5911756.875 ], [ 25254.599999999998545, 5911756.724999999627471 ], [ 25254.675, 5911756.724999999627471 ], [ 25254.675, 5911756.650000000372529 ], [ 25254.75, 5911756.650000000372529 ], [ 25254.75, 5911756.5 ], [ 25254.825, 5911756.5 ], [ 25254.825, 5911756.349999999627471 ], [ 25254.900000000001455, 5911756.349999999627471 ], [ 25254.900000000001455, 5911756.275000000372529 ], [ 25254.974999999998545, 5911756.275000000372529 ], [ 25254.974999999998545, 5911756.049999999813735 ], [ 25255.05, 5911756.049999999813735 ], [ 25255.05, 5911755.900000000372529 ], [ 25255.125, 5911755.900000000372529 ], [ 25255.125, 5911755.75 ], [ 25255.2, 5911755.75 ], [ 25255.2, 5911755.599999999627471 ], [ 25255.275000000001455, 5911755.599999999627471 ], [ 25255.275000000001455, 5911755.450000000186265 ], [ 25255.349999999998545, 5911755.450000000186265 ], [ 25255.349999999998545, 5911755.299999999813735 ], [ 25255.425, 5911755.299999999813735 ], [ 25255.425, 5911755.150000000372529 ], [ 25255.5, 5911755.150000000372529 ], [ 25255.5, 5911755.075000000186265 ], [ 25255.575, 5911755.075000000186265 ], [ 25255.575, 5911754.924999999813735 ], [ 25255.650000000001455, 5911754.924999999813735 ], [ 25255.650000000001455, 5911754.849999999627471 ], [ 25255.724999999998545, 5911754.849999999627471 ], [ 25255.724999999998545, 5911754.775000000372529 ], [ 25255.8, 5911754.775000000372529 ], [ 25255.8, 5911754.700000000186265 ], [ 25255.875, 5911754.700000000186265 ], [ 25255.875, 5911754.625 ], [ 25255.95, 5911754.625 ], [ 25255.95, 5911754.549999999813735 ], [ 25256.025000000001455, 5911754.549999999813735 ], [ 25256.025000000001455, 5911754.474999999627471 ], [ 25256.099999999998545, 5911754.474999999627471 ], [ 25256.099999999998545, 5911754.400000000372529 ], [ 25256.175, 5911754.400000000372529 ], [ 25256.175, 5911754.325000000186265 ], [ 25256.325, 5911754.325000000186265 ], [ 25256.325, 5911754.25 ], [ 25256.474999999998545, 5911754.25 ], [ 25256.474999999998545, 5911754.174999999813735 ], [ 25256.7, 5911754.174999999813735 ], [ 25256.7, 5911754.099999999627471 ], [ 25256.849999999998545, 5911754.099999999627471 ], [ 25256.849999999998545, 5911754.025000000372529 ], [ 25257.0, 5911754.025000000372529 ], [ 25257.0, 5911753.950000000186265 ], [ 25257.075, 5911753.950000000186265 ], [ 25257.075, 5911753.875 ], [ 25257.224999999998545, 5911753.875 ], [ 25257.224999999998545, 5911753.799999999813735 ], [ 25257.3, 5911753.799999999813735 ], [ 25257.3, 5911753.724999999627471 ], [ 25257.45, 5911753.724999999627471 ], [ 25257.45, 5911753.650000000372529 ], [ 25257.599999999998545, 5911753.650000000372529 ], [ 25257.599999999998545, 5911753.575000000186265 ], [ 25257.75, 5911753.575000000186265 ], [ 25257.75, 5911753.5 ], [ 25257.974999999998545, 5911753.5 ], [ 25257.974999999998545, 5911753.424999999813735 ], [ 25258.125, 5911753.424999999813735 ], [ 25258.125, 5911753.349999999627471 ], [ 25258.2, 5911753.349999999627471 ], [ 25258.2, 5911753.424999999813735 ], [ 25258.349999999998545, 5911753.424999999813735 ], [ 25258.349999999998545, 5911753.5 ], [ 25258.425, 5911753.5 ], [ 25258.425, 5911753.575000000186265 ], [ 25258.5, 5911753.575000000186265 ], [ 25258.5, 5911753.650000000372529 ], [ 25258.575, 5911753.650000000372529 ], [ 25258.575, 5911753.724999999627471 ], [ 25258.650000000001455, 5911753.724999999627471 ], [ 25258.650000000001455, 5911753.799999999813735 ], [ 25258.724999999998545, 5911753.799999999813735 ], [ 25258.724999999998545, 5911753.950000000186265 ], [ 25258.8, 5911753.950000000186265 ], [ 25258.8, 5911754.025000000372529 ], [ 25258.875, 5911754.025000000372529 ], [ 25258.875, 5911754.099999999627471 ], [ 25258.95, 5911754.099999999627471 ], [ 25258.95, 5911754.174999999813735 ], [ 25259.025000000001455, 5911754.174999999813735 ], [ 25259.025000000001455, 5911754.25 ], [ 25259.099999999998545, 5911754.25 ], [ 25259.099999999998545, 5911754.400000000372529 ], [ 25259.175, 5911754.400000000372529 ], [ 25259.175, 5911754.474999999627471 ], [ 25259.325, 5911754.474999999627471 ], [ 25259.325, 5911754.549999999813735 ], [ 25259.400000000001455, 5911754.549999999813735 ], [ 25259.400000000001455, 5911754.625 ], [ 25259.474999999998545, 5911754.625 ], [ 25259.474999999998545, 5911754.700000000186265 ], [ 25259.55, 5911754.700000000186265 ], [ 25259.55, 5911754.775000000372529 ], [ 25259.7, 5911754.775000000372529 ], [ 25259.7, 5911754.849999999627471 ], [ 25259.775000000001455, 5911754.849999999627471 ], [ 25259.775000000001455, 5911754.924999999813735 ], [ 25259.925, 5911754.924999999813735 ], [ 25259.925, 5911755.0 ], [ 25260.0, 5911755.0 ], [ 25260.0, 5911755.075000000186265 ], [ 25260.150000000001455, 5911755.075000000186265 ], [ 25260.150000000001455, 5911755.150000000372529 ], [ 25260.224999999998545, 5911755.150000000372529 ], [ 25260.224999999998545, 5911755.224999999627471 ], [ 25260.375, 5911755.224999999627471 ], [ 25260.375, 5911755.299999999813735 ], [ 25260.45, 5911755.299999999813735 ], [ 25260.45, 5911755.375 ], [ 25260.525000000001455, 5911755.375 ], [ 25260.525000000001455, 5911755.450000000186265 ], [ 25260.599999999998545, 5911755.450000000186265 ], [ 25260.599999999998545, 5911755.525000000372529 ], [ 25260.675, 5911755.525000000372529 ], [ 25260.675, 5911755.599999999627471 ], [ 25260.75, 5911755.599999999627471 ], [ 25260.75, 5911755.75 ], [ 25260.825, 5911755.75 ], [ 25260.825, 5911755.825000000186265 ], [ 25260.900000000001455, 5911755.825000000186265 ], [ 25260.900000000001455, 5911756.049999999813735 ], [ 25260.974999999998545, 5911756.049999999813735 ], [ 25260.974999999998545, 5911756.200000000186265 ], [ 25261.05, 5911756.200000000186265 ], [ 25261.05, 5911756.349999999627471 ], [ 25261.125, 5911756.349999999627471 ], [ 25261.125, 5911756.5 ], [ 25261.2, 5911756.5 ], [ 25261.2, 5911756.650000000372529 ], [ 25261.275000000001455, 5911756.650000000372529 ], [ 25261.275000000001455, 5911756.724999999627471 ], [ 25261.349999999998545, 5911756.724999999627471 ], [ 25261.349999999998545, 5911756.875 ], [ 25261.425, 5911756.875 ], [ 25261.425, 5911757.025000000372529 ], [ 25261.5, 5911757.025000000372529 ], [ 25261.5, 5911757.099999999627471 ], [ 25261.575, 5911757.099999999627471 ], [ 25261.575, 5911757.25 ], [ 25261.650000000001455, 5911757.25 ], [ 25261.650000000001455, 5911757.325000000186265 ], [ 25261.724999999998545, 5911757.325000000186265 ], [ 25261.724999999998545, 5911757.474999999627471 ], [ 25261.8, 5911757.474999999627471 ], [ 25261.8, 5911757.549999999813735 ], [ 25261.875, 5911757.549999999813735 ], [ 25261.875, 5911757.700000000186265 ], [ 25261.95, 5911757.700000000186265 ], [ 25261.95, 5911757.775000000372529 ], [ 25262.025000000001455, 5911757.775000000372529 ], [ 25262.025000000001455, 5911757.924999999813735 ], [ 25262.099999999998545, 5911757.924999999813735 ], [ 25262.099999999998545, 5911758.075000000186265 ], [ 25262.175, 5911758.075000000186265 ], [ 25262.175, 5911758.224999999627471 ], [ 25262.25, 5911758.224999999627471 ], [ 25262.25, 5911758.375 ], [ 25262.325, 5911758.375 ], [ 25262.325, 5911758.525000000372529 ], [ 25262.400000000001455, 5911758.525000000372529 ], [ 25262.400000000001455, 5911758.75 ], [ 25262.474999999998545, 5911758.75 ], [ 25262.474999999998545, 5911758.974999999627471 ], [ 25262.55, 5911758.974999999627471 ], [ 25262.55, 5911759.200000000186265 ], [ 25262.625, 5911759.200000000186265 ], [ 25262.625, 5911759.5 ], [ 25262.7, 5911759.5 ], [ 25262.7, 5911759.799999999813735 ], [ 25262.775000000001455, 5911759.799999999813735 ], [ 25262.775000000001455, 5911760.400000000372529 ], [ 25262.849999999998545, 5911760.400000000372529 ], [ 25262.849999999998545, 5911761.0 ], [ 25262.925, 5911761.0 ], [ 25262.925, 5911761.674999999813735 ], [ 25263.0, 5911761.674999999813735 ], [ 25263.0, 5911762.275000000372529 ], [ 25263.075, 5911762.275000000372529 ], [ 25263.075, 5911762.875 ], [ 25263.150000000001455, 5911762.875 ], [ 25263.150000000001455, 5911763.400000000372529 ], [ 25263.224999999998545, 5911763.400000000372529 ], [ 25263.224999999998545, 5911763.700000000186265 ], [ 25263.3, 5911763.700000000186265 ], [ 25263.3, 5911763.849999999627471 ], [ 25263.375, 5911763.849999999627471 ], [ 25263.375, 5911763.924999999813735 ], [ 25263.45, 5911763.924999999813735 ], [ 25263.45, 5911764.075000000186265 ], [ 25263.525000000001455, 5911764.075000000186265 ], [ 25263.525000000001455, 5911764.150000000372529 ], [ 25263.599999999998545, 5911764.150000000372529 ], [ 25263.599999999998545, 5911764.299999999813735 ], [ 25263.675, 5911764.299999999813735 ], [ 25263.675, 5911764.375 ], [ 25263.75, 5911764.375 ], [ 25263.75, 5911764.450000000186265 ], [ 25263.825, 5911764.450000000186265 ], [ 25263.825, 5911764.525000000372529 ], [ 25263.900000000001455, 5911764.525000000372529 ], [ 25263.900000000001455, 5911764.599999999627471 ], [ 25263.974999999998545, 5911764.599999999627471 ], [ 25263.974999999998545, 5911764.674999999813735 ], [ 25264.125, 5911764.674999999813735 ], [ 25264.125, 5911764.75 ], [ 25264.2, 5911764.75 ], [ 25264.2, 5911764.825000000186265 ], [ 25264.275000000001455, 5911764.825000000186265 ], [ 25264.275000000001455, 5911764.900000000372529 ], [ 25264.349999999998545, 5911764.900000000372529 ], [ 25264.349999999998545, 5911764.974999999627471 ], [ 25264.425, 5911764.974999999627471 ], [ 25264.425, 5911765.125 ], [ 25264.5, 5911765.125 ], [ 25264.5, 5911765.200000000186265 ], [ 25264.575, 5911765.200000000186265 ], [ 25264.575, 5911765.275000000372529 ], [ 25264.650000000001455, 5911765.275000000372529 ], [ 25264.650000000001455, 5911765.424999999813735 ], [ 25264.724999999998545, 5911765.424999999813735 ], [ 25264.724999999998545, 5911765.575000000186265 ], [ 25264.8, 5911765.575000000186265 ], [ 25264.8, 5911765.799999999813735 ], [ 25264.875, 5911765.799999999813735 ], [ 25264.875, 5911766.025000000372529 ], [ 25264.95, 5911766.025000000372529 ], [ 25264.95, 5911766.25 ], [ 25265.025000000001455, 5911766.25 ], [ 25265.025000000001455, 5911766.474999999627471 ], [ 25265.099999999998545, 5911766.474999999627471 ], [ 25265.099999999998545, 5911766.625 ], [ 25265.175, 5911766.625 ], [ 25265.175, 5911766.849999999627471 ], [ 25265.25, 5911766.849999999627471 ], [ 25265.25, 5911767.0 ], [ 25265.325, 5911767.0 ], [ 25265.325, 5911767.150000000372529 ], [ 25265.400000000001455, 5911767.150000000372529 ], [ 25265.400000000001455, 5911767.299999999813735 ], [ 25265.474999999998545, 5911767.299999999813735 ], [ 25265.474999999998545, 5911767.450000000186265 ], [ 25265.55, 5911767.450000000186265 ], [ 25265.55, 5911767.599999999627471 ], [ 25265.625, 5911767.599999999627471 ], [ 25265.625, 5911767.674999999813735 ], [ 25265.7, 5911767.674999999813735 ], [ 25265.7, 5911767.75 ], [ 25265.775000000001455, 5911767.75 ], [ 25265.775000000001455, 5911767.825000000186265 ], [ 25265.849999999998545, 5911767.825000000186265 ], [ 25265.849999999998545, 5911767.900000000372529 ], [ 25265.925, 5911767.900000000372529 ], [ 25265.925, 5911767.974999999627471 ], [ 25266.0, 5911767.974999999627471 ], [ 25266.0, 5911768.049999999813735 ], [ 25266.075, 5911768.049999999813735 ], [ 25266.075, 5911768.125 ], [ 25266.150000000001455, 5911768.125 ], [ 25266.150000000001455, 5911768.200000000186265 ], [ 25266.224999999998545, 5911768.200000000186265 ], [ 25266.224999999998545, 5911768.275000000372529 ], [ 25266.3, 5911768.275000000372529 ], [ 25266.3, 5911768.424999999813735 ], [ 25266.375, 5911768.424999999813735 ], [ 25266.375, 5911768.5 ], [ 25266.45, 5911768.5 ], [ 25266.45, 5911768.650000000372529 ], [ 25266.525000000001455, 5911768.650000000372529 ], [ 25266.525000000001455, 5911768.724999999627471 ], [ 25266.599999999998545, 5911768.724999999627471 ], [ 25266.599999999998545, 5911768.875 ], [ 25266.675, 5911768.875 ], [ 25266.675, 5911769.025000000372529 ], [ 25266.75, 5911769.025000000372529 ], [ 25266.75, 5911769.174999999813735 ], [ 25266.825, 5911769.174999999813735 ], [ 25266.825, 5911769.400000000372529 ], [ 25266.900000000001455, 5911769.400000000372529 ], [ 25266.900000000001455, 5911771.125 ], [ 25266.974999999998545, 5911771.125 ], [ 25266.974999999998545, 5911771.5 ], [ 25266.900000000001455, 5911771.5 ], [ 25266.900000000001455, 5911772.25 ], [ 25266.825, 5911772.25 ], [ 25266.825, 5911772.924999999813735 ], [ 25266.75, 5911772.924999999813735 ], [ 25266.75, 5911773.525000000372529 ], [ 25266.675, 5911773.525000000372529 ], [ 25266.675, 5911773.825000000186265 ], [ 25266.599999999998545, 5911773.825000000186265 ], [ 25266.599999999998545, 5911774.125 ], [ 25266.525000000001455, 5911774.125 ], [ 25266.525000000001455, 5911774.424999999813735 ], [ 25266.45, 5911774.424999999813735 ], [ 25266.45, 5911774.724999999627471 ], [ 25266.375, 5911774.724999999627471 ], [ 25266.375, 5911774.950000000186265 ], [ 25266.3, 5911774.950000000186265 ], [ 25266.3, 5911775.174999999813735 ], [ 25266.224999999998545, 5911775.174999999813735 ], [ 25266.224999999998545, 5911775.325000000186265 ], [ 25266.150000000001455, 5911775.325000000186265 ], [ 25266.150000000001455, 5911775.474999999627471 ], [ 25266.075, 5911775.474999999627471 ], [ 25266.075, 5911775.549999999813735 ], [ 25266.0, 5911775.549999999813735 ], [ 25266.0, 5911775.625 ], [ 25265.925, 5911775.625 ], [ 25265.925, 5911775.700000000186265 ], [ 25265.775000000001455, 5911775.700000000186265 ], [ 25265.775000000001455, 5911775.775000000372529 ], [ 25265.7, 5911775.775000000372529 ], [ 25265.7, 5911775.849999999627471 ], [ 25265.625, 5911775.849999999627471 ], [ 25265.625, 5911775.924999999813735 ], [ 25265.55, 5911775.924999999813735 ], [ 25265.55, 5911776.0 ], [ 25265.474999999998545, 5911776.0 ], [ 25265.474999999998545, 5911776.075000000186265 ], [ 25265.400000000001455, 5911776.075000000186265 ], [ 25265.400000000001455, 5911776.150000000372529 ], [ 25265.325, 5911776.150000000372529 ], [ 25265.325, 5911776.224999999627471 ], [ 25265.25, 5911776.224999999627471 ], [ 25265.25, 5911776.299999999813735 ], [ 25265.175, 5911776.299999999813735 ], [ 25265.175, 5911776.375 ], [ 25265.099999999998545, 5911776.375 ], [ 25265.099999999998545, 5911776.525000000372529 ], [ 25265.025000000001455, 5911776.525000000372529 ], [ 25265.025000000001455, 5911776.599999999627471 ], [ 25264.95, 5911776.599999999627471 ], [ 25264.95, 5911776.674999999813735 ], [ 25264.875, 5911776.674999999813735 ], [ 25264.875, 5911776.825000000186265 ], [ 25264.8, 5911776.825000000186265 ], [ 25264.8, 5911776.900000000372529 ], [ 25264.724999999998545, 5911776.900000000372529 ], [ 25264.724999999998545, 5911777.049999999813735 ], [ 25264.650000000001455, 5911777.049999999813735 ], [ 25264.650000000001455, 5911777.200000000186265 ], [ 25264.575, 5911777.200000000186265 ], [ 25264.575, 5911777.275000000372529 ], [ 25264.5, 5911777.275000000372529 ], [ 25264.5, 5911777.349999999627471 ], [ 25264.425, 5911777.349999999627471 ], [ 25264.425, 5911777.424999999813735 ], [ 25264.349999999998545, 5911777.424999999813735 ], [ 25264.349999999998545, 5911777.5 ], [ 25264.2, 5911777.5 ], [ 25264.2, 5911777.575000000186265 ], [ 25264.125, 5911777.575000000186265 ], [ 25264.125, 5911777.650000000372529 ], [ 25258.05, 5911777.650000000372529 ] ] ] } },
{ "type": "Feature", "properties": { "value": 1.0, "building_id": 2, "area": 109.48499999956266 }, "geometry": { "type": "Polygon", "coordinates": [ [ [ 25195.05, 5911764.674999999813735 ], [ 25195.05, 5911764.599999999627471 ], [ 25194.375, 5911764.599999999627471 ], [ 25194.375, 5911764.525000000372529 ], [ 25193.775000000001455, 5911764.525000000372529 ], [ 25193.775000000001455, 5911764.450000000186265 ], [ 25193.625, 5911764.450000000186265 ], [ 25193.625, 5911764.375 ], [ 25193.55, 5911764.375 ], [ 25193.55, 5911764.299999999813735 ], [ 25193.474999999998545, 5911764.299999999813735 ], [ 25193.474999999998545, 5911764.224999999627471 ], [ 25193.400000000001455, 5911764.224999999627471 ], [ 25193.400000000001455, 5911764.150000000372529 ], [ 25193.325, 5911764.150000000372529 ], [ 25193.325, 5911764.075000000186265 ], [ 25193.25, 5911764.075000000186265 ], [ 25193.25, 5911764.0 ], [ 25193.175, 5911764.0 ], [ 25193.175, 5911763.924999999813735 ], [ 25193.099999999998545, 5911763.924999999813735 ], [ 25193.099999999998545, 5911763.775000000372529 ], [ 25193.025000000001455, 5911763.775000000372529 ], [ 25193.025000000001455, 5911763.625 ], [ 25192.95, 5911763.625 ], [ 25192.95, 5911763.400000000372529 ], [ 25192.875, 5911763.400000000372529 ], [ 25192.875, 5911763.025000000372529 ], [ 25192.8, 5911763.025000000372529 ], [ 25192.8, 5911762.575000000186265 ], [ 25192.724999999998545, 5911762.575000000186265 ], [ 25192.724999999998545, 5911762.125 ], [ 25192.650000000001455, 5911762.125 ], [ 25192.650000000001455, 5911761.674999999813735 ], [ 25192.575, 5911761.674999999813735 ], [ 25192.575, 5911761.299999999813735 ], [ 25192.5, 5911761.299999999813735 ], [ 25192.5, 5911760.924999999813735 ], [ 25192.425, 5911760.924999999813735 ], [ 25192.425, 5911760.625 ], [ 25192.349999999998545, 5911760.625 ], [ 25192.349999999998545, 5911760.325000000186265 ], [ 25192.275000000001455, 5911760.325000000186265 ], [ 25192.275000000001455, 5911760.025000000372529 ], [ 25192.2, 5911760.025000000372529 ], [ 25192.2, 5911759.799999999813735 ], [ 25192.125, 5911759.799999999813735 ], [ 25192.125, 5911759.575000000186265 ], [ 25192.05, 5911759.575000000186265 ], [ 25192.05, 5911759.424999999813735 ], [ 25191.974999999998545, 5911759.424999999813735 ], [ 25191.974999999998545, 5911759.275000000372529 ], [ 25191.900000000001455, 5911759.275000000372529 ], [ 25191.900000000001455, 5911759.125 ], [ 25191.825, 5911759.125 ], [ 25191.825, 5911759.049999999813735 ], [ 25191.75, 5911759.049999999813735 ], [ 25191.75, 5911758.900000000372529 ], [ 25191.675, 5911758.900000000372529 ], [ 25191.675, 5911758.75 ], [ 25191.599999999998545, 5911758.75 ], [ 25191.599999999998545, 5911758.599999999627471 ], [ 25191.525000000001455, 5911758.599999999627471 ], [ 25191.525000000001455, 5911758.450000000186265 ], [ 25191.45, 5911758.450000000186265 ], [ 25191.45, 5911758.224999999627471 ], [ 25191.375, 5911758.224999999627471 ], [ 25191.375, 5911758.075000000186265 ], [ 25191.3, 5911758.075000000186265 ], [ 25191.3, 5911757.849999999627471 ], [ 25191.224999999998545, 5911757.849999999627471 ], [ 25191.224999999998545, 5911757.474999999627471 ], [ 25191.150000000001455, 5911757.474999999627471 ], [ 25191.150000000001455, 5911757.099999999627471 ], [ 25191.075, 5911757.099999999627471 ], [ 25191.075, 5911756.575000000186265 ], [ 25191.0, 5911756.575000000186265 ], [ 25191.0, 5911756.049999999813735 ], [ 25190.925, 5911756.049999999813735 ], [ 25190.925, 5911755.224999999627471 ], [ 25191.0, 5911755.224999999627471 ], [ 25191.0, 5911754.25 ], [ 25191.075, 5911754.25 ], [ 25191.075, 5911753.724999999627471 ], [ 25191.150000000001455, 5911753.724999999627471 ], [ 25191.150000000001455, 5911753.650000000372529 ], [ 25191.224999999998545, 5911753.650000000372529 ], [ 25191.224999999998545, 5911753.5 ], [ 25191.3, 5911753.5 ], [ 25191.3, 5911753.424999999813735 ], [ 25191.375, 5911753.424999999813735 ], [ 25191.375, 5911753.275000000372529 ], [ 25191.45, 5911753.275000000372529 ], [ 25191.45, 5911753.200000000186265 ], [ 25191.525000000001455, 5911753.200000000186265 ], [ 25191.525000000001455, 5911753.125 ], [ 25191.599999999998545, 5911753.125 ], [ 25191.599999999998545, 5911753.049999999813735 ], [ 25191.675, 5911753.049999999813735 ], [ 25191.675, 5911752.974999999627471 ], [ 25191.75, 5911752.974999999627471 ], [ 25191.75, 5911752.900000000372529 ], [ 25191.900000000001455, 5911752.900000000372529 ], [ 25191.900000000001455, 5911752.825000000186265 ], [ 25191.974999999998545, 5911752.825000000186265 ], [ 25191.974999999998545, 5911752.75 ], [ 25192.05, 5911752.75 ], [ 25192.05, 5911752.674999999813735 ], [ 25192.125, 5911752.674999999813735 ], [ 25192.125, 5911752.599999999627471 ], [ 25192.2, 5911752.599999999627471 ], [ 25192.2, 5911752.525000000372529 ], [ 25192.275000000001455, 5911752.525000000372529 ], [ 25192.275000000001455, 5911752.450000000186265 ], [ 25192.349999999998545, 5911752.450000000186265 ], [ 25192.349999999998545, 5911752.299999999813735 ], [ 25192.425, 5911752.299999999813735 ], [ 25192.425, 5911752.224999999627471 ], [ 25192.5, 5911752.224999999627471 ], [ 25192.5, 5911752.075000000186265 ], [ 25192.575, 5911752.075000000186265 ], [ 25192.575, 5911752.0 ], [ 25192.650000000001455, 5911752.0 ], [ 25192.650000000001455, 5911751.849999999627471 ], [ 25192.724999999998545, 5911751.849999999627471 ], [ 25192.724999999998545, 5911751.700000000186265 ], [ 25192.8, 5911751.700000000186265 ], [ 25192.8, 5911751.549999999813735 ], [ 25192.875, 5911751.549999999813735 ], [ 25192.875, 5911751.474999999627471 ], [ 25192.95, 5911751.474999999627471 ], [ 25192.95, 5911751.325000000186265 ], [ 25193.025000000001455, 5911751.325000000186265 ], [ 25193.025000000001455, 5911751.25 ], [ 25193.099999999998545, 5911751.25 ], [ 25193.099999999998545, 5911751.174999999813735 ], [ 25193.175, 5911751.174999999813735 ], [ 25193.175, 5911751.025000000372529 ], [ 25193.25, 5911751.025000000372529 ], [ 25193.25, 5911750.950000000186265 ], [ 25193.325, 5911750.950000000186265 ], [ 25193.325, 5911750.875 ], [ 25193.400000000001455, 5911750.875 ], [ 25193.400000000001455, 5911750.799999999813735 ], [ 25193.55, 5911750.799999999813735 ], [ 25193.55, 5911750.724999999627471 ], [ 25193.625, 5911750.724999999627471 ], [ 25193.625, 5911750.650000000372529 ], [ 25193.7, 5911750.650000000372529 ], [ 25193.7, 5911750.575000000186265 ], [ 25195.875, 5911750.575000000186265 ], [ 25195.875, 5911750.650000000372529 ], [ 25196.099999999998545, 5911750.650000000372529 ], [ 25196.099999999998545, 5911750.724999999627471 ], [ 25196.25, 5911750.724999999627471 ], [ 25196.25, 5911750.799999999813735 ], [ 25196.474999999998545, 5911750.799999999813735 ], [ 25196.474999999998545, 5911750.875 ], [ 25196.7, 5911750.875 ], [ 25196.7, 5911750.950000000186265 ], [ 25197.0, 5911750.950000000186265 ], [ 25197.0, 5911751.025000000372529 ], [ 25197.224999999998545, 5911751.025000000372529 ], [ 25197.224999999998545, 5911751.099999999627471 ], [ 25197.525000000001455, 5911751.099999999627471 ], [ 25197.525000000001455, 5911751.174999999813735 ], [ 25197.675, 5911751.174999999813735 ], [ 25197.675, 5911751.25 ], [ 25197.825, 5911751.25 ], [ 25197.825, 5911751.325000000186265 ], [ 25197.900000000001455, 5911751.325000000186265 ], [ 25197.900000000001455, 5911751.400000000372529 ], [ 25197.974999999998545, 5911751.400000000372529 ], [ 25197.974999999998545, 5911751.474999999627471 ], [ 25198.05, 5911751.474999999627471 ], [ 25198.05, 5911751.549999999813735 ], [ 25198.125, 5911751.549999999813735 ], [ 25198.125, 5911751.625 ], [ 25198.2, 5911751.625 ], [ 25198.2, 5911751.700000000186265 ], [ 25198.275000000001455, 5911751.700000000186265 ], [ 25198.275000000001455, 5911751.775000000372529 ], [ 25198.349999999998545, 5911751.775000000372529 ], [ 25198.349999999998545, 5911751.849999999627471 ], [ 25198.425, 5911751.849999999627471 ], [ 25198.425, 5911752.0 ], [ 25198.5, 5911752.0 ], [ 25198.5, 5911752.150000000372529 ], [ 25198.575, 5911752.150000000372529 ], [ 25198.575, 5911752.224999999627471 ], [ 25198.650000000001455, 5911752.224999999627471 ], [ 25198.650000000001455, 5911752.375 ], [ 25198.724999999998545, 5911752.375 ], [ 25198.724999999998545, 5911752.450000000186265 ], [ 25198.8, 5911752.450000000186265 ], [ 25198.8, 5911752.525000000372529 ], [ 25198.875, 5911752.525000000372529 ], [ 25198.875, 5911752.599999999627471 ], [ 25198.95, 5911752.599999999627471 ], [ 25198.95, 5911752.674999999813735 ], [ 25199.025000000001455, 5911752.674999999813735 ], [ 25199.025000000001455, 5911752.75 ], [ 25199.175, 5911752.75 ], [ 25199.175, 5911752.825000000186265 ], [ 25199.25, 5911752.825000000186265 ], [ 25199.25, 5911752.900000000372529 ], [ 25199.400000000001455, 5911752.900000000372529 ], [ 25199.400000000001455, 5911752.974999999627471 ], [ 25199.55, 5911752.974999999627471 ], [ 25199.55, 5911753.049999999813735 ], [ 25199.625, 5911753.049999999813735 ], [ 25199.625, 5911753.125 ], [ 25199.775000000001455, 5911753.125 ], [ 25199.775000000001455, 5911753.200000000186265 ], [ 25199.849999999998545, 5911753.200000000186265 ], [ 25199.849999999998545, 5911753.275000000372529 ], [ 25199.925, 5911753.275000000372529 ], [ 25199.925, 5911753.349999999627471 ], [ 25200.0, 5911753.349999999627471 ], [ 25200.0, 5911753.424999999813735 ], [ 25200.075, 5911753.424999999813735 ], [ 25200.075, 5911753.5 ], [ 25200.150000000001455, 5911753.5 ], [ 25200.150000000001455, 5911753.650000000372529 ], [ 25200.224999999998545, 5911753.650000000372529 ], [ 25200.224999999998545, 5911753.724999999627471 ], [ 25200.3, 5911753.724999999627471 ], [ 25200.3, 5911753.950000000186265 ], [ 25200.375, 5911753.950000000186265 ], [ 25200.375, 5911754.474999999627471 ], [ 25200.45, 5911754.474999999627471 ], [ 25200.45, 5911754.924999999813735 ], [ 25200.525000000001455, 5911754.924999999813735 ], [ 25200.525000000001455, 5911755.375 ], [ 25200.599999999998545, 5911755.375 ], [ 25200.599999999998545, 5911755.974999999627471 ], [ 25200.675, 5911755.974999999627471 ], [ 25200.675, 5911761.75 ], [ 25200.599999999998545, 5911761.75 ], [ 25200.599999999998545, 5911761.825000000186265 ], [ 25200.525000000001455, 5911761.825000000186265 ], [ 25200.525000000001455, 5911761.900000000372529 ], [ 25200.45, 5911761.900000000372529 ], [ 25200.45, 5911761.974999999627471 ], [ 25200.375, 5911761.974999999627471 ], [ 25200.375, 5911762.049999999813735 ], [ 25200.3, 5911762.049999999813735 ], [ 25200.3, 5911762.125 ], [ 25200.224999999998545, 5911762.125 ], [ 25200.224999999998545, 5911762.200000000186265 ], [ 25200.150000000001455, 5911762.200000000186265 ], [ 25200.150000000001455, 5911762.275000000372529 ], [ 25200.075, 5911762.275000000372529 ], [ 25200.075, 5911762.349999999627471 ], [ 25200.0, 5911762.349999999627471 ], [ 25200.0, 5911762.424999999813735 ], [ 25199.925, 5911762.424999999813735 ], [ 25199.925, 5911762.5 ], [ 25199.849999999998545, 5911762.5 ], [ 25199.849999999998545, 5911762.575000000186265 ], [ 25199.775000000001455, 5911762.575000000186265 ], [ 25199.775000000001455, 5911762.650000000372529 ], [ 25199.625, 5911762.650000000372529 ], [ 25199.625, 5911762.724999999627471 ], [ 25199.55, 5911762.724999999627471 ], [ 25199.55, 5911762.799999999813735 ], [ 25199.400000000001455, 5911762.799999999813735 ], [ 25199.400000000001455, 5911762.875 ], [ 25199.325, 5911762.875 ], [ 25199.325, 5911762.950000000186265 ], [ 25199.25, 5911762.950000000186265 ], [ 25199.25, 5911763.025000000372529 ], [ 25199.175, 5911763.025000000372529 ], [ 25199.175, 5911763.099999999627471 ], [ 25199.099999999998545, 5911763.099999999627471 ], [ 25199.099999999998545, 5911763.174999999813735 ], [ 25199.025000000001455, 5911763.174999999813735 ], [ 25199.025000000001455, 5911763.25 ], [ 25198.95, 5911763.25 ], [ 25198.95, 5911763.325000000186265 ], [ 25198.875, 5911763.325000000186265 ], [ 25198.875, 5911763.400000000372529 ], [ 25198.8, 5911763.400000000372529 ], [ 25198.8, 5911763.474999999627471 ], [ 25198.724999999998545, 5911763.474999999627471 ], [ 25198.724999999998545, 5911763.625 ], [ 25198.650000000001455, 5911763.625 ], [ 25198.650000000001455, 5911763.700000000186265 ], [ 25198.575, 5911763.700000000186265 ], [ 25198.575, 5911763.775000000372529 ], [ 25198.5, 5911763.775000000372529 ], [ 25198.5, 5911763.849999999627471 ], [ 25198.425, 5911763.849999999627471 ], [ 25198.425, 5911763.924999999813735 ], [ 25198.349999999998545, 5911763.924999999813735 ], [ 25198.349999999998545, 5911764.0 ], [ 25198.275000000001455, 5911764.0 ], [ 25198.275000000001455, 5911764.075000000186265 ], [ 25198.125, 5911764.075000000186265 ], [ 25198.125, 5911764.150000000372529 ], [ 25198.05, 5911764.150000000372529 ], [ 25198.05, 5911764.224999999627471 ], [ 25197.900000000001455, 5911764.224999999627471 ], [ 25197.900000000001455, 5911764.299999999813735 ], [ 25197.825, 5911764.299999999813735 ], [ 25197.825, 5911764.375 ], [ 25197.599999999998545, 5911764.375 ], [ 25197.599999999998545, 5911764.450000000186265 ], [ 25197.224999999998545, 5911764.450000000186265 ], [ 25197.224999999998545, 5911764.525000000372529 ], [ 25196.7, 5911764.525000000372529 ], [ 25196.7, 5911764.599999999627471 ], [ 25196.175, 5911764.599999999627471 ], [ 25196.175, 5911764.674999999813735 ], [ 25195.05, 5911764.674999999813735 ] ] ] } },
{ "type": "Feature", "properties": { "value": 1.0, "building_id": 3, "area": 330.81187500036248 }, "geometry": { "type": "Polygon", "coordinates": [ [ [ 25196.25, 5911668.75 ], [ 25196.25, 5911668.674999999813735 ], [ 25196.175, 5911668.674999999813735 ], [ 25196.175, 5911668.599999999627471 ], [ 25196.099999999998545, 5911668.599999999627471 ], [ 25196.099999999998545, 5911668.525000000372529 ], [ 25196.025000000001455, 5911668.525000000372529 ], [ 25196.025000000001455, 5911668.450000000186265 ], [ 25195.95, 5911668.450000000186265 ], [ 25195.95, 5911668.375 ], [ 25195.875, 5911668.375 ], [ 25195.875, 5911668.299999999813735 ], [ 25195.8, 5911668.299999999813735 ], [ 25195.8, 5911668.224999999627471 ], [ 25195.650000000001455, 5911668.224999999627471 ], [ 25195.650000000001455, 5911668.075000000186265 ], [ 25195.575, 5911668.075000000186265 ], [ 25195.575, 5911668.0 ], [ 25195.5, 5911668.0 ], [ 25195.5, 5911667.849999999627471 ], [ 25195.425, 5911667.849999999627471 ], [ 25195.425, 5911667.700000000186265 ], [ 25195.349999999998545, 5911667.700000000186265 ], [ 25195.349999999998545, 5911667.474999999627471 ], [ 25195.275000000001455, 5911667.474999999627471 ], [ 25195.275000000001455, 5911667.325000000186265 ], [ 25195.2, 5911667.325000000186265 ], [ 25195.2, 5911667.099999999627471 ], [ 25195.125, 5911667.099999999627471 ], [ 25195.125, 5911666.875 ], [ 25195.05, 5911666.875 ], [ 25195.05, 5911666.650000000372529 ], [ 25194.974999999998545, 5911666.650000000372529 ], [ 25194.974999999998545, 5911666.349999999627471 ], [ 25194.900000000001455, 5911666.349999999627471 ], [ 25194.900000000001455, 5911666.125 ], [ 25194.825, 5911666.125 ], [ 25194.825, 5911665.825000000186265 ], [ 25194.75, 5911665.825000000186265 ], [ 25194.75, 5911665.299999999813735 ], [ 25194.675, 5911665.299999999813735 ], [ 25194.675, 5911664.849999999627471 ], [ 25194.599999999998545, 5911664.849999999627471 ], [ 25194.599999999998545, 5911664.474999999627471 ], [ 25194.525000000001455, 5911664.474999999627471 ], [ 25194.525000000001455, 5911664.099999999627471 ], [ 25194.45, 5911664.099999999627471 ], [ 25194.45, 5911663.650000000372529 ], [ 25194.375, 5911663.650000000372529 ], [ 25194.375, 5911663.275000000372529 ], [ 25194.3, 5911663.275000000372529 ], [ 25194.3, 5911662.900000000372529 ], [ 25194.224999999998545, 5911662.900000000372529 ], [ 25194.224999999998545, 5911662.525000000372529 ], [ 25194.150000000001455, 5911662.525000000372529 ], [ 25194.150000000001455, 5911662.224999999627471 ], [ 25194.075, 5911662.224999999627471 ], [ 25194.075, 5911661.400000000372529 ], [ 25194.0, 5911661.400000000372529 ], [ 25194.0, 5911659.599999999627471 ], [ 25194.075, 5911659.599999999627471 ], [ 25194.075, 5911658.924999999813735 ], [ 25194.150000000001455, 5911658.924999999813735 ], [ 25194.150000000001455, 5911658.325000000186265 ], [ 25194.224999999998545, 5911658.325000000186265 ], [ 25194.224999999998545, 5911657.799999999813735 ], [ 25194.3, 5911657.799999999813735 ], [ 25194.3, 5911657.275000000372529 ], [ 25194.375, 5911657.275000000372529 ], [ 25194.375, 5911656.75 ], [ 25194.45, 5911656.75 ], [ 25194.45, 5911656.224999999627471 ], [ 25194.525000000001455, 5911656.224999999627471 ], [ 25194.525000000001455, 5911655.775000000372529 ], [ 25194.599999999998545, 5911655.775000000372529 ], [ 25194.599999999998545, 5911655.325000000186265 ], [ 25194.675, 5911655.325000000186265 ], [ 25194.675, 5911654.799999999813735 ], [ 25194.75, 5911654.799999999813735 ], [ 25194.75, 5911654.275000000372529 ], [ 25194.825, 5911654.275000000372529 ], [ 25194.825, 5911654.049999999813735 ], [ 25194.900000000001455, 5911654.049999999813735 ], [ 25194.900000000001455, 5911653.825000000186265 ], [ 25194.974999999998545, 5911653.825000000186265 ], [ 25194.974999999998545, 5911653.599999999627471 ], [ 25195.05, 5911653.599999999627471 ], [ 25195.05, 5911653.375 ], [ 25195.125, 5911653.375 ], [ 25195.125, 5911653.150000000372529 ], [ 25195.2, 5911653.150000000372529 ], [ 25195.2, 5911652.849999999627471 ], [ 25195.275000000001455, 5911652.849999999627471 ], [ 25195.275000000001455, 5911652.474999999627471 ], [ 25195.349999999998545, 5911652.474999999627471 ], [ 25195.349999999998545, 5911652.25 ], [ 25195.425, 5911652.25 ], [ 25195.425, 5911652.099999999627471 ], [ 25195.5, 5911652.099999999627471 ], [ 25195.5, 5911652.025000000372529 ], [ 25195.575, 5911652.025000000372529 ], [ 25195.575, 5911651.950000000186265 ], [ 25195.650000000001455, 5911651.950000000186265 ], [ 25195.650000000001455, 5911651.875 ], [ 25195.875, 5911651.875 ], [ 25195.875, 5911651.799999999813735 ], [ 25196.025000000001455, 5911651.799999999813735 ], [ 25196.025000000001455, 5911651.724999999627471 ], [ 25196.25, 5911651.724999999627471 ], [ 25196.25, 5911651.650000000372529 ], [ 25196.474999999998545, 5911651.650000000372529 ], [ 25196.474999999998545, 5911651.575000000186265 ], [ 25196.7, 5911651.575000000186265 ], [ 25196.7, 5911651.5 ], [ 25196.925, 5911651.5 ], [ 25196.925, 5911651.424999999813735 ], [ 25197.150000000001455, 5911651.424999999813735 ], [ 25197.150000000001455, 5911651.349999999627471 ], [ 25197.375, 5911651.349999999627471 ], [ 25197.375, 5911651.275000000372529 ], [ 25197.599999999998545, 5911651.275000000372529 ], [ 25197.599999999998545, 5911651.200000000186265 ], [ 25197.825, 5911651.200000000186265 ], [ 25197.825, 5911651.125 ], [ 25198.05, 5911651.125 ], [ 25198.05, 5911651.049999999813735 ], [ 25198.275000000001455, 5911651.049999999813735 ], [ 25198.275000000001455, 5911650.974999999627471 ], [ 25198.575, 5911650.974999999627471 ], [ 25198.575, 5911650.900000000372529 ], [ 25198.8, 5911650.900000000372529 ], [ 25198.8, 5911650.825000000186265 ], [ 25199.025000000001455, 5911650.825000000186265 ], [ 25199.025000000001455, 5911650.900000000372529 ], [ 25199.775000000001455, 5911650.900000000372529 ], [ 25199.775000000001455, 5911650.974999999627471 ], [ 25200.45, 5911650.974999999627471 ], [ 25200.45, 5911651.049999999813735 ], [ 25201.2, 5911651.049999999813735 ], [ 25201.2, 5911651.125 ], [ 25201.724999999998545, 5911651.125 ], [ 25201.724999999998545, 5911651.200000000186265 ], [ 25202.175, 5911651.200000000186265 ], [ 25202.175, 5911651.275000000372529 ], [ 25202.55, 5911651.275000000372529 ], [ 25202.55, 5911651.349999999627471 ], [ 25202.925, 5911651.349999999627471 ], [ 25202.925, 5911651.424999999813735 ], [ 25203.375, 5911651.424999999813735 ], [ 25203.375, 5911651.5 ], [ 25203.599999999998545, 5911651.5 ], [ 25203.599999999998545, 5911651.575000000186265 ], [ 25203.75, 5911651.575000000186265 ], [ 25203.75, 5911651.650000000372529 ], [ 25203.900000000001455, 5911651.650000000372529 ], [ 25203.900000000001455, 5911651.724999999627471 ], [ 25203.974999999998545, 5911651.724999999627471 ], [ 25203.974999999998545, 5911651.799999999813735 ], [ 25204.125, 5911651.799999999813735 ], [ 25204.125, 5911651.875 ], [ 25204.2, 5911651.875 ], [ 25204.2, 5911651.950000000186265 ], [ 25204.349999999998545, 5911651.950000000186265 ], [ 25204.349999999998545, 5911652.025000000372529 ], [ 25204.425, 5911652.025000000372529 ], [ 25204.425, 5911652.099999999627471 ], [ 25204.5, 5911652.099999999627471 ], [ 25204.5, 5911652.174999999813735 ], [ 25204.575, 5911652.174999999813735 ], [ 25204.575, 5911652.25 ], [ 25204.650000000001455, 5911652.25 ], [ 25204.650000000001455, 5911652.325000000186265 ], [ 25204.724999999998545, 5911652.325000000186265 ], [ 25204.724999999998545, 5911652.400000000372529 ], [ 25204.875, 5911652.400000000372529 ], [ 25204.875, 5911652.474999999627471 ], [ 25204.95, 5911652.474999999627471 ], [ 25204.95, 5911652.549999999813735 ], [ 25205.025000000001455, 5911652.549999999813735 ], [ 25205.025000000001455, 5911652.625 ], [ 25205.175, 5911652.625 ], [ 25205.175, 5911652.700000000186265 ], [ 25205.325, 5911652.700000000186265 ], [ 25205.325, 5911652.775000000372529 ], [ 25205.400000000001455, 5911652.775000000372529 ], [ 25205.400000000001455, 5911652.849999999627471 ], [ 25205.625, 5911652.849999999627471 ], [ 25205.625, 5911652.924999999813735 ], [ 25205.849999999998545, 5911652.924999999813735 ], [ 25205.849999999998545, 5911653.0 ], [ 25206.075, 5911653.0 ], [ 25206.075, 5911653.075000000186265 ], [ 25206.3, 5911653.075000000186265 ], [ 25206.3, 5911653.150000000372529 ], [ 25206.599999999998545, 5911653.150000000372529 ], [ 25206.599999999998545, 5911653.224999999627471 ], [ 25206.900000000001455, 5911653.224999999627471 ], [ 25206.900000000001455, 5911653.299999999813735 ], [ 25207.2, 5911653.299999999813735 ], [ 25207.2, 5911653.375 ], [ 25207.575, 5911653.375 ], [ 25207.575, 5911653.450000000186265 ], [ 25207.95, 5911653.450000000186265 ], [ 25207.95, 5911653.525000000372529 ], [ 25208.400000000001455, 5911653.525000000372529 ], [ 25208.400000000001455, 5911653.599999999627471 ], [ 25208.7, 5911653.599999999627471 ], [ 25208.7, 5911653.674999999813735 ], [ 25209.075, 5911653.674999999813735 ], [ 25209.075, 5911653.75 ], [ 25209.375, 5911653.75 ], [ 25209.375, 5911653.825000000186265 ], [ 25209.599999999998545, 5911653.825000000186265 ], [ 25209.599999999998545, 5911653.900000000372529 ], [ 25209.75, 5911653.900000000372529 ], [ 25209.75, 5911653.974999999627471 ], [ 25209.974999999998545, 5911653.974999999627471 ], [ 25209.974999999998545, 5911654.049999999813735 ], [ 25210.125, 5911654.049999999813735 ], [ 25210.125, 5911654.125 ], [ 25210.275000000001455, 5911654.125 ], [ 25210.275000000001455, 5911654.200000000186265 ], [ 25210.425, 5911654.200000000186265 ], [ 25210.425, 5911654.275000000372529 ], [ 25210.575, 5911654.275000000372529 ], [ 25210.575, 5911654.349999999627471 ], [ 25210.724999999998545, 5911654.349999999627471 ], [ 25210.724999999998545, 5911654.424999999813735 ], [ 25210.875, 5911654.424999999813735 ], [ 25210.875, 5911654.5 ], [ 25211.099999999998545, 5911654.5 ], [ 25211.099999999998545, 5911654.575000000186265 ], [ 25211.25, 5911654.575000000186265 ], [ 25211.25, 5911654.650000000372529 ], [ 25211.775000000001455, 5911654.650000000372529 ], [ 25211.775000000001455, 5911654.724999999627471 ], [ 25212.224999999998545, 5911654.724999999627471 ], [ 25212.224999999998545, 5911654.799999999813735 ], [ 25212.825, 5911654.799999999813735 ], [ 25212.825, 5911654.875 ], [ 25213.349999999998545, 5911654.875 ], [ 25213.349999999998545, 5911654.950000000186265 ], [ 25213.724999999998545, 5911654.950000000186265 ], [ 25213.724999999998545, 5911655.025000000372529 ], [ 25214.099999999998545, 5911655.025000000372529 ], [ 25214.099999999998545, 5911655.099999999627471 ], [ 25214.400000000001455, 5911655.099999999627471 ], [ 25214.400000000001455, 5911655.174999999813735 ], [ 25214.7, 5911655.174999999813735 ], [ 25214.7, 5911655.25 ], [ 25215.0, 5911655.25 ], [ 25215.0, 5911655.325000000186265 ], [ 25215.3, 5911655.325000000186265 ], [ 25215.3, 5911655.400000000372529 ], [ 25215.375, 5911655.400000000372529 ], [ 25215.375, 5911655.474999999627471 ], [ 25215.525000000001455, 5911655.474999999627471 ], [ 25215.525000000001455, 5911655.549999999813735 ], [ 25215.599999999998545, 5911655.549999999813735 ], [ 25215.599999999998545, 5911655.625 ], [ 25215.675, 5911655.625 ], [ 25215.675, 5911655.700000000186265 ], [ 25215.75, 5911655.700000000186265 ], [ 25215.75, 5911655.775000000372529 ], [ 25215.825, 5911655.775000000372529 ], [ 25215.825, 5911655.849999999627471 ], [ 25215.900000000001455, 5911655.849999999627471 ], [ 25215.900000000001455, 5911655.924999999813735 ], [ 25215.974999999998545, 5911655.924999999813735 ], [ 25215.974999999998545, 5911656.0 ], [ 25216.05, 5911656.0 ], [ 25216.05, 5911656.075000000186265 ], [ 25216.125, 5911656.075000000186265 ], [ 25216.125, 5911656.224999999627471 ], [ 25216.2, 5911656.224999999627471 ], [ 25216.2, 5911656.375 ], [ 25216.275000000001455, 5911656.375 ], [ 25216.275000000001455, 5911656.599999999627471 ], [ 25216.349999999998545, 5911656.599999999627471 ], [ 25216.349999999998545, 5911656.825000000186265 ], [ 25216.425, 5911656.825000000186265 ], [ 25216.425, 5911657.049999999813735 ], [ 25216.5, 5911657.049999999813735 ], [ 25216.5, 5911657.275000000372529 ], [ 25216.575, 5911657.275000000372529 ], [ 25216.575, 5911657.424999999813735 ], [ 25216.650000000001455, 5911657.424999999813735 ], [ 25216.650000000001455, 5911657.650000000372529 ], [ 25216.724999999998545, 5911657.650000000372529 ], [ 25216.724999999998545, 5911657.875 ], [ 25216.8, 5911657.875 ], [ 25216.8, 5911658.099999999627471 ], [ 25216.875, 5911658.099999999627471 ], [ 25216.875, 5911658.400000000372529 ], [ 25216.95, 5911658.400000000372529 ], [ 25216.95, 5911658.625 ], [ 25217.025000000001455, 5911658.625 ], [ 25217.025000000001455, 5911658.924999999813735 ], [ 25217.099999999998545, 5911658.924999999813735 ], [ 25217.099999999998545, 5911659.150000000372529 ], [ 25217.175, 5911659.150000000372529 ], [ 25217.175, 5911659.375 ], [ 25217.25, 5911659.375 ], [ 25217.25, 5911659.674999999813735 ], [ 25217.325, 5911659.674999999813735 ], [ 25217.325, 5911659.974999999627471 ], [ 25217.400000000001455, 5911659.974999999627471 ], [ 25217.400000000001455, 5911660.125 ], [ 25217.325, 5911660.125 ], [ 25217.325, 5911660.275000000372529 ], [ 25217.25, 5911660.275000000372529 ], [ 25217.25, 5911660.424999999813735 ], [ 25217.175, 5911660.424999999813735 ], [ 25217.175, 5911660.575000000186265 ], [ 25217.099999999998545, 5911660.575000000186265 ], [ 25217.099999999998545, 5911660.724999999627471 ], [ 25217.025000000001455, 5911660.724999999627471 ], [ 25217.025000000001455, 5911660.875 ], [ 25216.95, 5911660.875 ], [ 25216.95, 5911661.025000000372529 ], [ 25216.875, 5911661.025000000372529 ], [ 25216.875, 5911661.174999999813735 ], [ 25216.8, 5911661.174999999813735 ], [ 25216.8, 5911661.400000000372529 ], [ 25216.724999999998545, 5911661.400000000372529 ], [ 25216.724999999998545, 5911661.625 ], [ 25216.650000000001455, 5911661.625 ], [ 25216.650000000001455, 5911661.849999999627471 ], [ 25216.575, 5911661.849999999627471 ], [ 25216.575, 5911662.075000000186265 ], [ 25216.5, 5911662.075000000186265 ], [ 25216.5, 5911662.375 ], [ 25216.425, 5911662.375 ], [ 25216.425, 5911662.599999999627471 ], [ 25216.349999999998545, 5911662.599999999627471 ], [ 25216.349999999998545, 5911662.900000000372529 ], [ 25216.275000000001455, 5911662.900000000372529 ], [ 25216.275000000001455, 5911663.275000000372529 ], [ 25216.2, 5911663.275000000372529 ], [ 25216.2, 5911663.575000000186265 ], [ 25216.125, 5911663.575000000186265 ], [ 25216.125, 5911663.950000000186265 ], [ 25216.05, 5911663.950000000186265 ], [ 25216.05, 5911664.099999999627471 ], [ 25215.974999999998545, 5911664.099999999627471 ], [ 25215.974999999998545, 5911664.25 ], [ 25215.900000000001455, 5911664.25 ], [ 25215.900000000001455, 5911664.325000000186265 ], [ 25215.825, 5911664.325000000186265 ], [ 25215.825, 5911664.400000000372529 ], [ 25215.75, 5911664.400000000372529 ], [ 25215.75, 5911664.549999999813735 ], [ 25215.675, 5911664.549999999813735 ], [ 25215.675, 5911664.625 ], [ 25215.599999999998545, 5911664.625 ], [ 25215.599999999998545, 5911664.700000000186265 ], [ 25215.525000000001455, 5911664.700000000186265 ], [ 25215.525000000001455, 5911664.775000000372529 ], [ 25215.45, 5911664.775000000372529 ], [ 25215.45, 5911664.849999999627471 ], [ 25215.3, 5911664.849999999627471 ], [ 25215.3, 5911664.924999999813735 ], [ 25215.224999999998545, 5911664.924999999813735 ], [ 25215.224999999998545, 5911665.0 ], [ 25215.075, 5911665.0 ], [ 25215.075, 5911665.075000000186265 ], [ 25215.0, 5911665.075000000186265 ], [ 25215.0, 5911665.150000000372529 ], [ 25214.925, 5911665.150000000372529 ], [ 25214.925, 5911665.224999999627471 ], [ 25214.849999999998545, 5911665.224999999627471 ], [ 25214.849999999998545, 5911665.299999999813735 ], [ 25214.775000000001455, 5911665.299999999813735 ], [ 25214.775000000001455, 5911665.375 ], [ 25214.7, 5911665.375 ], [ 25214.7, 5911665.450000000186265 ], [ 25214.625, 5911665.450000000186265 ], [ 25214.625, 5911665.525000000372529 ], [ 25214.55, 5911665.525000000372529 ], [ 25214.55, 5911665.599999999627471 ], [ 25214.474999999998545, 5911665.599999999627471 ], [ 25214.474999999998545, 5911665.75 ], [ 25214.400000000001455, 5911665.75 ], [ 25214.400000000001455, 5911665.825000000186265 ], [ 25214.325, 5911665.825000000186265 ], [ 25214.325, 5911665.974999999627471 ], [ 25214.25, 5911665.974999999627471 ], [ 25214.25, 5911666.049999999813735 ], [ 25214.175, 5911666.049999999813735 ], [ 25214.175, 5911666.200000000186265 ], [ 25214.099999999998545, 5911666.200000000186265 ], [ 25214.099999999998545, 5911666.275000000372529 ], [ 25214.025000000001455, 5911666.275000000372529 ], [ 25214.025000000001455, 5911666.349999999627471 ], [ 25213.95, 5911666.349999999627471 ], [ 25213.95, 5911666.424999999813735 ], [ 25213.875, 5911666.424999999813735 ], [ 25213.875, 5911666.5 ], [ 25213.8, 5911666.5 ], [ 25213.8, 5911666.575000000186265 ], [ 25213.724999999998545, 5911666.575000000186265 ], [ 25213.724999999998545, 5911666.650000000372529 ], [ 25213.575, 5911666.650000000372529 ], [ 25213.575, 5911666.724999999627471 ], [ 25213.5, 5911666.724999999627471 ], [ 25213.5, 5911666.799999999813735 ], [ 25213.349999999998545, 5911666.799999999813735 ], [ 25213.349999999998545, 5911666.875 ], [ 25213.2, 5911666.875 ], [ 25213.2, 5911666.950000000186265 ], [ 25213.05, 5911666.950000000186265 ], [ 25213.05, 5911667.025000000372529 ], [ 25212.900000000001455, 5911667.025000000372529 ], [ 25212.900000000001455, 5911667.099999999627471 ], [ 25212.825, 5911667.099999999627471 ], [ 25212.825, 5911667.174999999813735 ], [ 25212.675, 5911667.174999999813735 ], [ 25212.675, 5911667.25 ], [ 25212.599999999998545, 5911667.25 ], [ 25212.599999999998545, 5911667.325000000186265 ], [ 25212.45, 5911667.325000000186265 ], [ 25212.45, 5911667.400000000372529 ], [ 25212.375, 5911667.400000000372529 ], [ 25212.375, 5911667.474999999627471 ], [ 25212.3, 5911667.474999999627471 ], [ 25212.3, 5911667.549999999813735 ], [ 25212.224999999998545, 5911667.549999999813735 ], [ 25212.224999999998545, 5911667.625 ], [ 25212.150000000001455, 5911667.625 ], [ 25212.150000000001455, 5911667.700000000186265 ], [ 25212.075, 5911667.700000000186265 ], [ 25212.075, 5911667.849999999627471 ], [ 25212.0, 5911667.849999999627471 ], [ 25212.0, 5911667.924999999813735 ], [ 25211.925, 5911667.924999999813735 ], [ 25211.925, 5911668.0 ], [ 25211.849999999998545, 5911668.0 ], [ 25211.849999999998545, 5911668.075000000186265 ], [ 25211.775000000001455, 5911668.075000000186265 ], [ 25211.775000000001455, 5911668.150000000372529 ], [ 25211.7, 5911668.150000000372529 ], [ 25211.7, 5911668.224999999627471 ], [ 25211.625, 5911668.224999999627471 ], [ 25211.625, 5911668.299999999813735 ], [ 25211.474999999998545, 5911668.299999999813735 ], [ 25211.474999999998545, 5911668.375 ], [ 25211.400000000001455, 5911668.375 ], [ 25211.400000000001455, 5911668.450000000186265 ], [ 25211.099999999998545, 5911668.450000000186265 ], [ 25211.099999999998545, 5911668.525000000372529 ], [ 25210.125, 5911668.525000000372529 ], [ 25210.125, 5911668.599999999627471 ], [ 25208.099999999998545, 5911668.599999999627471 ], [ 25208.099999999998545, 5911668.525000000372529 ], [ 25206.45, 5911668.525000000372529 ], [ 25206.45, 5911668.450000000186265 ], [ 25204.95, 5911668.450000000186265 ], [ 25204.95, 5911668.375 ], [ 25203.599999999998545, 5911668.375 ], [ 25203.599999999998545, 5911668.299999999813735 ], [ 25201.275000000001455, 5911668.299999999813735 ], [ 25201.275000000001455, 5911668.375 ], [ 25200.150000000001455, 5911668.375 ], [ 25200.150000000001455, 5911668.450000000186265 ], [ 25199.099999999998545, 5911668.450000000186265 ], [ 25199.099999999998545, 5911668.525000000372529 ], [ 25198.2, 5911668.525000000372529 ], [ 25198.2, 5911668.599999999627471 ], [ 25197.375, 5911668.599999999627471 ], [ 25197.375, 5911668.674999999813735 ], [ 25196.775000000001455, 5911668.674999999813735 ], [ 25196.775000000001455, 5911668.75 ], [ 25196.25, 5911668.75 ] ] ] } }
]
}
