{
"type": "FeatureCollection",
"name": "25683E591207N_buildings",
"crs": { "type": "name", "properties": { "name": "urn:ogc:def:crs:EPSG::3776" } },
"features": [
{ "type": "Feature", "properties": { "value": 1.0, "building_id": 0, "area": 73.85625000034878 }, "geometry": { "type": "Polygon", "coordinates": [ [ [ 26054.775000000001455, 5912812.049999999813735 ], [ 26054.775000000001455, 5912811.974999999627471 ], [ 26054.400000000001455, 5912811.974999999627471 ], [ 26054.400000000001455, 5912811.900000000372529 ], [ 26054.025000000001455, 5912811.900000000372529 ], [ 26054.025000000001455, 5912811.825000000186265 ], [ 26053.575, 5912811.825000000186265 ], [ 26053.575, 5912811.75 ], [ 26053.125, 5912811.75 ], [ 26053.125, 5912811.674999999813735 ], [ 26052.900000000001455, 5912811.674999999813735 ], [ 26052.900000000001455, 5912811.599999999627471 ], [ 26052.675, 5912811.599999999627471 ], [ 26052.675, 5912811.525000000372529 ], [ 26052.525000000001455, 5912811.525000000372529 ], [ 26052.525000000001455, 5912811.450000000186265 ], [ 26052.375, 5912811.450000000186265 ], [ 26052.375, 5912811.375 ], [ 26052.224999999998545, 5912811.375 ], [ 26052.224999999998545, 5912811.299999999813735 ], [ 26052.075, 5912811.299999999813735 ], [ 26052.075, 5912811.224999999627471 ], [ 26051.925, 5912811.224999999627471 ], [ 26051.925, 5912811.150000000372529 ], [ 26051.849999999998545, 5912811.150000000372529 ], [ 26051.849999999998545, 5912811.075000000186265 ], [ 26051.7, 5912811.075000000186265 ], [ 26051.7, 5912811.0 ], [ 26051.625, 5912811.0 ], [ 26051.625, 5912810.924999999813735 ], [ 26051.55, 5912810.924999999813735 ], [ 26051.55, 5912810.849999999627471 ], [ 26051.400000000001455, 5912810.849999999627471 ], [ 26051.400000000001455, 5912810.775000000372529 ], [ 26051.325, 5912810.775000000372529 ], [ 26051.325, 5912810.700000000186265 ], [ 26051.25, 5912810.700000000186265 ], [ 26051.25, 5912810.625 ], [ 26051.175, 5912810.625 ], [ 26051.175, 5912810.549999999813735 ], [ 26051.099999999998545, 5912810.549999999813735 ], [ 26051.099999999998545, 5912810.474999999627471 ], [ 26051.025000000001455, 5912810.474999999627471 ], [ 26051.025000000001455, 5912810.325000000186265 ], [ 26050.95, 5912810.325000000186265 ], [ 26050.95, 5912810.099999999627471 ], [ 26050.875, 5912810.099999999627471 ], [ 26050.875, 5912809.875 ], [ 26050.8, 5912809.875 ], [ 26050.8, 5912809.575000000186265 ], [ 26050.724999999998545, 5912809.575000000186265 ], [ 26050.724999999998545, 5912809.349999999627471 ], [ 26050.650000000001455, 5912809.349999999627471 ], [ 26050.650000000001455, 5912809.049999999813735 ], [ 26050.575, 5912809.049999999813735 ], [ 26050.575, 5912808.75 ], [ 26050.5, 5912808.75 ], [ 26050.5, 5912808.375 ], [ 26050.575, 5912808.375 ], [ 26050.575, 5912808.299999999813735 ], [ 26050.650000000001455, 5912808.299999999813735 ], [ 26050.650000000001455, 5912808.150000000372529 ], [ 26050.724999999998545, 5912808.150000000372529 ], [ 26050.724999999998545, 5912808.075000000186265 ], [ 26050.8, 5912808.075000000186265 ], [ 26050.8, 5912808.0 ], [ 26050.875, 5912808.0 ], [ 26050.875, 5912807.924999999813735 ], [ 26050.95, 5912807.924999999813735 ], [ 26050.95, 5912807.849999999627471 ], [ 26051.025000000001455, 5912807.849999999627471 ], [ 26051.025000000001455, 5912807.775000000372529 ], [ 26051.099999999998545, 5912807.775000000372529 ], [ 26051.099999999998545, 5912807.700000000186265 ], [ 26051.175, 5912807.700000000186265 ], [ 26051.175, 5912807.625 ], [ 26051.25, 5912807.625 ], [ 26051.25, 5912807.549999999813735 ], [ 26051.400000000001455, 5912807.549999999813735 ], [ 26051.400000000001455, 5912807.474999999627471 ], [ 26051.474999999998545, 5912807.474999999627471 ], [ 26051.474999999998545, 5912807.400000000372529 ], [ 26051.55, 5912807.400000000372529 ], [ 26051.55, 5912807.325000000186265 ], [ 26051.625, 5912807.325000000186265 ], [ 26051.625, 5912807.25 ], [ 26051.7, 5912807.25 ], [ 26051.7, 5912807.174999999813735 ], [ 26051.849999999998545, 5912807.174999999813735 ], [ 26051.849999999998545, 5912807.099999999627471 ], [ 26051.925, 5912807.099999999627471 ], [ 26051.925, 5912807.025000000372529 ], [ 26052.0, 5912807.025000000372529 ], [ 26052.0, 5912806.950000000186265 ], [ 26052.075, 5912806.950000000186265 ], [ 26052.075, 5912806.875 ], [ 26052.150000000001455, 5912806.875 ], [ 26052.150000000001455, 5912806.799999999813735 ], [ 26052.224999999998545, 5912806.799999999813735 ], [ 26052.224999999998545, 5912806.724999999627471 ], [ 26052.3, 5912806.724999999627471 ], [ 26052.3, 5912806.650000000372529 ], [ 26052.375, 5912806.650000000372529 ], [ 26052.375, 5912806.575000000186265 ], [ 26052.45, 5912806.575000000186265 ], [ 26052.45, 5912806.424999999813735 ], [ 26052.525000000001455, 5912806.424999999813735 ], [ 26052.525000000001455, 5912806.349999999627471 ], [ 26052.599999999998545, 5912806.349999999627471 ], [ 26052.599999999998545, 5912806.275000000372529 ], [ 26052.675, 5912806.275000000372529 ], [ 26052.675, 5912806.200000000186265 ], [ 26052.75, 5912806.200000000186265 ], [ 26052.75, 5912806.125 ], [ 26052.825, 5912806.125 ], [ 26052.825, 5912806.049999999813735 ], [ 26052.900000000001455, 5912806.049999999813735 ], [ 26052.900000000001455, 5912805.974999999627471 ], [ 26052.974999999998545, 5912805.974999999627471 ], [ 26052.974999999998545, 5912805.900000000372529 ], [ 26053.05, 5912805.900000000372529 ], [ 26053.05, 5912805.825000000186265 ], [ 26053.2, 5912805.825000000186265 ], [ 26053.2, 5912805.75 ], [ 26053.349999999998545, 5912805.75 ], [ 26053.349999999998545, 5912805.674999999813735 ], [ 26053.575, 5912805.674999999813735 ], [ 26053.575, 5912805.599999999627471 ], [ 26053.8, 5912805.599999999627471 ], [ 26053.8, 5912805.525000000372529 ], [ 26054.025000000001455, 5912805.525000000372529 ], [ 26054.025000000001455, 5912805.450000000186265 ], [ 26054.25, 5912805.450000000186265 ], [ 26054.25, 5912805.375 ], [ 26054.55, 5912805.375 ], [ 26054.55, 5912805.299999999813735 ], [ 26054.925, 5912805.299999999813735 ], [ 26054.925, 5912805.224999999627471 ], [ 26055.675, 5912805.224999999627471 ], [ 26055.675, 5912805.299999999813735 ], [ 26057.025000000001455, 5912805.299999999813735 ], [ 26057.025000000001455, 5912805.375 ], [ 26058.150000000001455, 5912805.375 ], [ 26058.150000000001455, 5912805.450000000186265 ], [ 26059.125, 5912805.450000000186265 ], [ 26059.125, 5912805.525000000372529 ], [ 26059.8, 5912805.525000000372529 ], [ 26059.8, 5912805.599999999627471 ], [ 26060.474999999998545, 5912805.599999999627471 ], [ 26060.474999999998545, 5912805.674999999813735 ], [ 26061.0, 5912805.674999999813735 ], [ 26061.0, 5912805.75 ], [ 26061.075, 5912805.75 ], [ 26061.075, 5912805.825000000186265 ], [ 26061.224999999998545, 5912805.825000000186265 ], [ 26061.224999999998545, 5912805.900000000372529 ], [ 26061.3, 5912805.900000000372529 ], [ 26061.3, 5912805.974999999627471 ], [ 26061.45, 5912805.974999999627471 ], [ 26061.45, 5912806.049999999813735 ], [ 26061.525000000001455, 5912806.049999999813735 ], [ 26061.525000000001455, 5912806.125 ], [ 26061.599999999998545, 5912806.125 ], [ 26061.599999999998545, 5912806.200000000186265 ], [ 26061.675, 5912806.200000000186265 ], [ 26061.675, 5912806.275000000372529 ], [ 26061.75, 5912806.275000000372529 ], [ 26061.75, 5912806.349999999627471 ], [ 26061.825, 5912806.349999999627471 ], [ 26061.825, 5912806.424999999813735 ], [ 26061.900000000001455, 5912806.424999999813735 ], [ 26061.900000000001455, 5912806.575000000186265 ], [ 26061.974999999998545, 5912806.575000000186265 ], [ 26061.974999999998545, 5912806.650000000372529 ], [ 26062.05, 5912806.650000000372529 ], [ 26062.05, 5912806.724999999627471 ], [ 26062.125, 5912806.724999999627471 ], [ 26062.125, 5912806.799999999813735 ], [ 26062.275000000001455, 5912806.799999999813735 ], [ 26062.275000000001455, 5912806.875 ], [ 26062.349999999998545, 5912806.875 ], [ 26062.349999999998545, 5912806.950000000186265 ], [ 26062.425, 5912806.950000000186265 ], [ 26062.425, 5912807.025000000372529 ], [ 26062.575, 5912807.025000000372529 ], [ 26062.575, 5912807.099999999627471 ], [ 26062.650000000001455, 5912807.099999999627471 ], [ 26062.650000000001455, 5912807.174999999813735 ], [ 26062.8, 5912807.174999999813735 ], [ 26062.8, 5912807.25 ], [ 26062.95, 5912807.25 ], [ 26062.95, 5912807.325000000186265 ], [ 26063.099999999998545, 5912807.325000000186265 ], [ 26063.099999999998545, 5912807.400000000372529 ], [ 26063.175, 5912807.400000000372529 ], [ 26063.175, 5912807.474999999627471 ], [ 26063.325, 5912807.474999999627471 ], [ 26063.325, 5912807.549999999813735 ], [ 26063.400000000001455, 5912807.549999999813735 ], [ 26063.400000000001455, 5912807.625 ], [ 26063.474999999998545, 5912807.625 ], [ 26063.474999999998545, 5912807.700000000186265 ], [ 26063.55, 5912807.700000000186265 ], [ 26063.55, 5912807.775000000372529 ], [ 26063.625, 5912807.775000000372529 ], [ 26063.625, 5912807.849999999627471 ], [ 26063.7, 5912807.849999999627471 ], [ 26063.7, 5912807.924999999813735 ], [ 26063.775000000001455, 5912807.924999999813735 ], [ 26063.775000000001455, 5912808.0 ], [ 26063.849999999998545, 5912808.0 ], [ 26063.849999999998545, 5912808.150000000372529 ], [ 26063.925, 5912808.150000000372529 ], [ 26063.925, 5912808.224999999627471 ], [ 26064.0, 5912808.224999999627471 ], [ 26064.0, 5912808.375 ], [ 26064.075, 5912808.375 ], [ 26064.075, 5912809.349999999627471 ], [ 26064.0, 5912809.349999999627471 ], [ 26064.0, 5912810.474999999627471 ], [ 26063.925, 5912810.474999999627471 ], [ 26063.925, 5912810.625 ], [ 26063.849999999998545, 5912810.625 ], [ 26063.849999999998545, 5912810.700000000186265 ], [ 26063.775000000001455, 5912810.700000000186265 ], [ 26063.775000000001455, 5912810.775000000372529 ], [ 26063.7, 5912810.775000000372529 ], [ 26063.7, 5912810.849999999627471 ], [ 26063.625, 5912810.849999999627471 ], [ 26063.625, 5912810.924999999813735 ], [ 26063.55, 5912810.924999999813735 ], [ 26063.55, 5912811.0 ], [ 26063.474999999998545, 5912811.0 ], [ 26063.474999999998545, 5912811.075000000186265 ], [ 26063.400000000001455, 5912811.075000000186265 ], [ 26063.400000000001455, 5912811.150000000372529 ], [ 26063.325, 5912811.150000000372529 ], [ 26063.325, 5912811.224999999627471 ], [ 26063.175, 5912811.224999999627471 ], [ 26063.175, 5912811.299999999813735 ], [ 26063.099999999998545, 5912811.299999999813735 ], [ 26063.099999999998545, 5912811.375 ], [ 26062.95, 5912811.375 ], [ 26062.95, 5912811.450000000186265 ], [ 26062.575, 5912811.450000000186265 ], [ 26062.575, 5912811.525000000372529 ], [ 26061.974999999998545, 5912811.525000000372529 ], [ 26061.974999999998545, 5912811.599999999627471 ], [ 26061.375, 5912811.599999999627471 ], [ 26061.375, 5912811.674999999813735 ], [ 26060.474999999998545, 5912811.674999999813735 ], [ 26060.474999999998545, 5912811.75 ], [ 26059.05, 5912811.75 ], [ 26059.05, 5912811.825000000186265 ], [ 26057.775000000001455, 5912811.825000000186265 ], [ 26057.775000000001455, 5912811.900000000372529 ], [ 26056.724999999998545, 5912811.900000000372529 ], [ 26056.724999999998545, 5912811.974999999627471 ], [ 26055.825, 5912811.974999999627471 ], [ 26055.825, 5912812.049999999813735 ], [ 26054.775000000001455, 5912812.049999999813735 ] ] ] } },
{ "type": "Feature", "properties": { "value": 1.0, "building_id": 1, "area": 22.381874999846293 }, "geometry": { "type": "Polygon", "coordinates": [ [ [ 26031.45, 5912811.299999999813735 ], [ 26031.45, 5912811.224999999627471 ], [ 26031.3, 5912811.224999999627471 ], [ 26031.3, 5912811.150000000372529 ], [ 26031.150000000001455, 5912811.150000000372529 ], [ 26031.150000000001455, 5912811.075000000186265 ], [ 26031.0, 5912811.075000000186265 ], [ 26031.0, 5912811.0 ], [ 26030.925, 5912811.0 ], [ 26030.925, 5912810.924999999813735 ], [ 26030.775000000001455, 5912810.924999999813735 ], [ 26030.775000000001455, 5912810.849999999627471 ], [ 26030.7, 5912810.849999999627471 ], [ 26030.7, 5912810.775000000372529 ], [ 26030.625, 5912810.775000000372529 ], [ 26030.625, 5912810.700000000186265 ], [ 26030.55, 5912810.700000000186265 ], [ 26030.55, 5912810.625 ], [ 26030.474999999998545, 5912810.625 ], [ 26030.474999999998545, 5912810.549999999813735 ], [ 26030.400000000001455, 5912810.549999999813735 ], [ 26030.400000000001455, 5912810.474999999627471 ], [ 26030.325, 5912810.474999999627471 ], [ 26030.325, 5912810.400000000372529 ], [ 26030.25, 5912810.400000000372529 ], [ 26030.25, 5912810.25 ], [ 26030.175, 5912810.25 ], [ 26030.175, 5912810.174999999813735 ], [ 26030.099999999998545, 5912810.174999999813735 ], [ 26030.099999999998545, 5912810.025000000372529 ], [ 26030.025000000001455, 5912810.025000000372529 ], [ 26030.025000000001455, 5912809.950000000186265 ], [ 26029.95, 5912809.950000000186265 ], [ 26029.95, 5912809.875 ], [ 26029.875, 5912809.875 ], [ 26029.875, 5912809.799999999813735 ], [ 26029.8, 5912809.799999999813735 ], [ 26029.8, 5912809.724999999627471 ], [ 26029.724999999998545, 5912809.724999999627471 ], [ 26029.724999999998545, 5912809.650000000372529 ], [ 26029.650000000001455, 5912809.650000000372529 ], [ 26029.650000000001455, 5912809.575000000186265 ], [ 26029.575, 5912809.575000000186265 ], [ 26029.575, 5912809.5 ], [ 26029.425, 5912809.5 ], [ 26029.425, 5912809.424999999813735 ], [ 26029.349999999998545, 5912809.424999999813735 ], [ 26029.349999999998545, 5912809.349999999627471 ], [ 26029.275000000001455, 5912809.349999999627471 ], [ 26029.275000000001455, 5912809.275000000372529 ], [ 26029.2, 5912809.275000000372529 ], [ 26029.2, 5912809.200000000186265 ], [ 26029.125, 5912809.200000000186265 ], [ 26029.125, 5912809.125 ], [ 26029.05, 5912809.125 ], [ 26029.05, 5912809.049999999813735 ], [ 26028.974999999998545, 5912809.049999999813735 ], [ 26028.974999999998545, 5912808.974999999627471 ], [ 26028.900000000001455, 5912808.974999999627471 ], [ 26028.900000000001455, 5912808.825000000186265 ], [ 26028.825, 5912808.825000000186265 ], [ 26028.825, 5912808.75 ], [ 26028.75, 5912808.75 ], [ 26028.75, 5912808.599999999627471 ], [ 26028.675, 5912808.599999999627471 ], [ 26028.675, 5912808.299999999813735 ], [ 26028.75, 5912808.299999999813735 ], [ 26028.75, 5912808.150000000372529 ], [ 26028.825, 5912808.150000000372529 ], [ 26028.825, 5912808.0 ], [ 26028.900000000001455, 5912808.0 ], [ 26028.900000000001455, 5912807.849999999627471 ], [ 26028.974999999998545, 5912807.849999999627471 ], [ 26028.974999999998545, 5912807.700000000186265 ], [ 26029.05, 5912807.700000000186265 ], [ 26029.05, 5912807.625 ], [ 26029.125, 5912807.625 ], [ 26029.125, 5912807.474999999627471 ], [ 26029.2, 5912807.474999999627471 ], [ 26029.2, 5912807.400000000372529 ], [ 26029.275000000001455, 5912807.400000000372529 ], [ 26029.275000000001455, 5912807.325000000186265 ], [ 26029.349999999998545, 5912807.325000000186265 ], [ 26029.349999999998545, 5912807.25 ], [ 26029.425, 5912807.25 ], [ 26029.425, 5912807.174999999813735 ], [ 26029.5, 5912807.174999999813735 ], [ 26029.5, 5912807.099999999627471 ], [ 26029.575, 5912807.099999999627471 ], [ 26029.575, 5912807.025000000372529 ], [ 26029.724999999998545, 5912807.025000000372529 ], [ 26029.724999999998545, 5912806.875 ], [ 26029.8, 5912806.875 ], [ 26029.8, 5912806.799999999813735 ], [ 26029.875, 5912806.799999999813735 ], [ 26029.875, 5912806.650000000372529 ], [ 26029.95, 5912806.650000000372529 ], [ 26029.95, 5912806.5 ], [ 26030.025000000001455, 5912806.5 ], [ 26030.025000000001455, 5912806.275000000372529 ], [ 26030.099999999998545, 5912806.275000000372529 ], [ 26030.099999999998545, 5912806.125 ], [ 26030.175, 5912806.125 ], [ 26030.175, 5912805.974999999627471 ], [ 26030.25, 5912805.974999999627471 ], [ 26030.25, 5912805.825000000186265 ], [ 26030.325, 5912805.825000000186265 ], [ 26030.325, 5912805.674999999813735 ], [ 26030.400000000001455, 5912805.674999999813735 ], [ 26030.400000000001455, 5912805.599999999627471 ], [ 26030.474999999998545, 5912805.599999999627471 ], [ 26030.474999999998545, 5912805.450000000186265 ], [ 26030.55, 5912805.450000000186265 ], [ 26030.55, 5912805.375 ], [ 26030.625, 5912805.375 ], [ 26030.625, 5912805.299999999813735 ], [ 26030.7, 5912805.299999999813735 ], [ 26030.7, 5912805.224999999627471 ], [ 26030.775000000001455, 5912805.224999999627471 ], [ 26030.775000000001455, 5912805.150000000372529 ], [ 26030.849999999998545, 5912805.150000000372529 ], [ 26030.849999999998545, 5912805.075000000186265 ], [ 26030.925, 5912805.075000000186265 ], [ 26030.925, 5912805.0 ], [ 26031.075, 5912805.0 ], [ 26031.075, 5912804.924999999813735 ], [ 26031.150000000001455, 5912804.924999999813735 ], [ 26031.150000000001455, 5912804.849999999627471 ], [ 26031.3, 5912804.849999999627471 ], [ 26031.3, 5912804.775000000372529 ], [ 26031.45, 5912804.775000000372529 ], [ 26031.45, 5912804.700000000186265 ], [ 26031.599999999998545, 5912804.700000000186265 ], [ 26031.599999999998545, 5912804.625 ], [ 26031.675, 5912804.625 ], [ 26031.675, 5912804.700000000186265 ], [ 26031.75, 5912804.700000000186265 ], [ 26031.75, 5912804.775000000372529 ], [ 26031.825, 5912804.775000000372529 ], [ 26031.825, 5912804.849999999627471 ], [ 26031.900000000001455, 5912804.849999999627471 ], [ 26031.900000000001455, 5912804.924999999813735 ], [ 26031.974999999998545, 5912804.924999999813735 ], [ 26031.974999999998545, 5912805.0 ], [ 26032.05, 5912805.0 ], [ 26032.05, 5912805.075000000186265 ], [ 26032.125, 5912805.075000000186265 ], [ 26032.125, 5912805.150000000372529 ], [ 26032.2, 5912805.150000000372529 ], [ 26032.2, 5912805.224999999627471 ], [ 26032.275000000001455, 5912805.224999999627471 ], [ 26032.275000000001455, 5912805.299999999813735 ], [ 26032.349999999998545, 5912805.299999999813735 ], [ 26032.349999999998545, 5912805.450000000186265 ], [ 26032.425, 5912805.450000000186265 ], [ 26032.425, 5912805.525000000372529 ], [ 26032.5, 5912805.525000000372529 ], [ 26032.5, 5912805.674999999813735 ], [ 26032.575, 5912805.674999999813735 ], [ 26032.575, 5912805.75 ], [ 26032.650000000001455, 5912805.75 ], [ 26032.650000000001455, 5912805.900000000372529 ], [ 26032.724999999998545, 5912805.900000000372529 ], [ 26032.724999999998545, 5912806.049999999813735 ], [ 26032.8, 5912806.049999999813735 ], [ 26032.8, 5912806.200000000186265 ], [ 26032.875, 5912806.200000000186265 ], [ 26032.875, 5912806.349999999627471 ], [ 26032.95, 5912806.349999999627471 ], [ 26032.95, 5912806.5 ], [ 26033.025000000001455, 5912806.5 ], [ 26033.025000000001455, 5912806.650000000372529 ], [ 26033.099999999998545, 5912806.650000000372529 ], [ 26033.099999999998545, 5912806.724999999627471 ], [ 26033.175, 5912806.724999999627471 ], [ 26033.175, 5912806.875 ], [ 26033.25, 5912806.875 ], [ 26033.25, 5912806.950000000186265 ], [ 26033.325, 5912806.950000000186265 ], [ 26033.325, 5912807.025000000372529 ], [ 26033.400000000001455, 5912807.025000000372529 ], [ 26033.400000000001455, 5912807.099999999627471 ], [ 26033.474999999998545, 5912807.099999999627471 ], [ 26033.474999999998545, 5912807.174999999813735 ], [ 26033.55, 5912807.174999999813735 ], [ 26033.55, 5912807.25 ], [ 26033.625, 5912807.25 ], [ 26033.625, 5912807.325000000186265 ], [ 26033.7, 5912807.325000000186265 ], [ 26033.7, 5912807.400000000372529 ], [ 26033.775000000001455, 5912807.400000000372529 ], [ 26033.775000000001455, 5912807.474999999627471 ], [ 26033.849999999998545, 5912807.474999999627471 ], [ 26033.849999999998545, 5912807.549999999813735 ], [ 26033.925, 5912807.549999999813735 ], [ 26033.925, 5912807.625 ], [ 26034.0, 5912807.625 ], [ 26034.0, 5912807.700000000186265 ], [ 26034.075, 5912807.700000000186265 ], [ 26034.075, 5912807.775000000372529 ], [ 26034.150000000001455, 5912807.775000000372529 ], [ 26034.150000000001455, 5912807.849999999627471 ], [ 26034.224999999998545, 5912807.849999999627471 ], [ 26034.224999999998545, 5912808.0 ], [ 26034.3, 5912808.0 ], [ 26034.3, 5912808.075000000186265 ], [ 26034.375, 5912808.075000000186265 ], [ 26034.375, 5912808.224999999627471 ], [ 26034.45, 5912808.224999999627471 ], [ 26034.45, 5912808.299999999813735 ], [ 26034.525000000001455, 5912808.299999999813735 ], [ 26034.525000000001455, 5912808.450000000186265 ], [ 26034.599999999998545, 5912808.450000000186265 ], [ 26034.599999999998545, 5912808.525000000372529 ], [ 26034.525000000001455, 5912808.525000000372529 ], [ 26034.525000000001455, 5912808.674999999813735 ], [ 26034.45, 5912808.674999999813735 ], [ 26034.45, 5912808.75 ], [ 26034.375, 5912808.75 ], [ 26034.375, 5912808.900000000372529 ], [ 26034.3, 5912808.900000000372529 ], [ 26034.3, 5912809.049999999813735 ], [ 26034.224999999998545, 5912809.049999999813735 ], [ 26034.224999999998545, 5912809.125 ], [ 26034.150000000001455, 5912809.125 ], [ 26034.150000000001455, 5912809.200000000186265 ], [ 26034.075, 5912809.200000000186265 ], [ 26034.075, 5912809.275000000372529 ], [ 26034.0, 5912809.275000000372529 ], [ 26034.0, 5912809.349999999627471 ], [ 26033.925, 5912809.349999999627471 ], [ 26033.925, 5912809.424999999813735 ], [ 26033.849999999998545, 5912809.424999999813735 ], [ 26033.849999999998545, 5912809.5 ], [ 26033.775000000001455, 5912809.5 ], [ 26033.775000000001455, 5912809.575000000186265 ], [ 26033.7, 5912809.575000000186265 ], [ 26033.7, 5912809.650000000372529 ], [ 26033.625, 5912809.650000000372529 ], [ 26033.625, 5912809.724999999627471 ], [ 26033.55, 5912809.724999999627471 ], [ 26033.55, 5912809.799999999813735 ], [ 26033.474999999998545, 5912809.799999999813735 ], [ 26033.474999999998545, 5912809.875 ], [ 26033.400000000001455, 5912809.875 ], [ 26033.400000000001455, 5912809.950000000186265 ], [ 26033.325, 5912809.950000000186265 ], [ 26033.325, 5912810.025000000372529 ], [ 26033.25, 5912810.025000000372529 ], [ 26033.25, 5912810.099999999627471 ], [ 26033.175, 5912810.099999999627471 ], [ 26033.175, 5912810.174999999813735 ], [ 26033.099999999998545, 5912810.174999999813735 ], [ 26033.099999999998545, 5912810.25 ], [ 26033.025000000001455, 5912810.25 ], [ 26033.025000000001455, 5912810.325000000186265 ], [ 26032.95, 5912810.325000000186265 ], [ 26032.95, 5912810.474999999627471 ], [ 26032.875, 5912810.474999999627471 ], [ 26032.875, 5912810.549999999813735 ], [ 26032.8, 5912810.549999999813735 ], [ 26032.8, 5912810.625 ], [ 26032.724999999998545, 5912810.625 ], [ 26032.724999999998545, 5912810.700000000186265 ], [ 26032.650000000001455, 5912810.700000000186265 ], [ 26032.650000000001455, 5912810.775000000372529 ], [ 26032.5, 5912810.775000000372529 ], [ 26032.5, 5912810.849999999627471 ], [ 26032.425, 5912810.849999999627471 ], [ 26032.425, 5912810.924999999813735 ], [ 26032.349999999998545, 5912810.924999999813735 ], [ 26032.349999999998545, 5912811.0 ], [ 26032.2, 5912811.0 ], [ 26032.2, 5912811.075000000186265 ], [ 26032.05, 5912811.075000000186265 ], [ 26032.05, 5912811.150000000372529 ], [ 26031.974999999998545, 5912811.150000000372529 ], [ 26031.974999999998545, 5912811.224999999627471 ], [ 26031.75, 5912811.224999999627471 ], [ 26031.75, 5912811.299999999813735 ], [ 26031.45, 5912811.299999999813735 ] ] ] } },
{ "type": "Feature", "properties": { "value": 1.0, "building_id": 2, "area": 735.61500000014905 }, "geometry": { "type": "Polygon", "coordinates": [ [ [ 25982.474999999998545, 5912806.575000000186265 ], [ 25982.474999999998545, 5912806.5 ], [ 25982.175, 5912806.5 ], [ 25982.175, 5912806.424999999813735 ], [ 25981.875, 5912806.424999999813735 ], [ 25981.875, 5912806.349999999627471 ], [ 25981.5, 5912806.349999999627471 ], [ 25981.5, 5912806.275000000372529 ], [ 25981.05, 5912806.275000000372529 ], [ 25981.05, 5912806.200000000186265 ], [ 25980.525000000001455, 5912806.200000000186265 ], [ 25980.525000000001455, 5912806.125 ], [ 25979.925, 5912806.125 ], [ 25979.925, 5912806.049999999813735 ], [ 25979.175, 5912806.049999999813735 ], [ 25979.175, 5912805.974999999627471 ], [ 25978.05, 5912805.974999999627471 ], [ 25978.05, 5912805.900000000372529 ], [ 25976.849999999998545, 5912805.900000000372529 ], [ 25976.849999999998545, 5912805.825000000186265 ], [ 25976.400000000001455, 5912805.825000000186265 ], [ 25976.400000000001455, 5912805.75 ], [ 25975.875, 5912805.75 ], [ 25975.875, 5912805.674999999813735 ], [ 25975.425, 5912805.674999999813735 ], [ 25975.425, 5912805.599999999627471 ], [ 25974.974999999998545, 5912805.599999999627471 ], [ 25974.974999999998545, 5912805.525000000372529 ], [ 25974.825, 5912805.525000000372529 ], [ 25974.825, 5912805.450000000186265 ], [ 25974.75, 5912805.450000000186265 ], [ 25974.75, 5912805.375 ], [ 25974.599999999998545, 5912805.375 ], [ 25974.599999999998545, 5912805.299999999813735 ], [ 25974.525000000001455, 5912805.299999999813735 ], [ 25974.525000000001455, 5912805.224999999627471 ], [ 25974.45, 5912805.224999999627471 ], [ 25974.45, 5912805.150000000372529 ], [ 25974.375, 5912805.150000000372529 ], [ 25974.375, 5912805.075000000186265 ], [ 25974.3, 5912805.075000000186265 ], [ 25974.3, 5912805.0 ], [ 25974.224999999998545, 5912805.0 ], [ 25974.224999999998545, 5912804.924999999813735 ], [ 25974.150000000001455, 5912804.924999999813735 ], [ 25974.150000000001455, 5912804.849999999627471 ], [ 25974.075, 5912804.849999999627471 ], [ 25974.075, 5912804.775000000372529 ], [ 25974.0, 5912804.775000000372529 ], [ 25974.0, 5912804.625 ], [ 25973.925, 5912804.625 ], [ 25973.925, 5912804.474999999627471 ], [ 25973.849999999998545, 5912804.474999999627471 ], [ 25973.849999999998545, 5912804.400000000372529 ], [ 25973.775000000001455, 5912804.400000000372529 ], [ 25973.775000000001455, 5912804.25 ], [ 25973.7, 5912804.25 ], [ 25973.7, 5912804.174999999813735 ], [ 25973.625, 5912804.174999999813735 ], [ 25973.625, 5912804.099999999627471 ], [ 25973.55, 5912804.099999999627471 ], [ 25973.55, 5912804.025000000372529 ], [ 25973.474999999998545, 5912804.025000000372529 ], [ 25973.474999999998545, 5912803.950000000186265 ], [ 25973.400000000001455, 5912803.950000000186265 ], [ 25973.400000000001455, 5912803.875 ], [ 25973.325, 5912803.875 ], [ 25973.325, 5912803.799999999813735 ], [ 25973.25, 5912803.799999999813735 ], [ 25973.25, 5912803.724999999627471 ], [ 25973.175, 5912803.724999999627471 ], [ 25973.175, 5912803.650000000372529 ], [ 25973.099999999998545, 5912803.650000000372529 ], [ 25973.099999999998545, 5912803.575000000186265 ], [ 25972.95, 5912803.575000000186265 ], [ 25972.95, 5912803.5 ], [ 25972.875, 5912803.5 ], [ 25972.875, 5912803.424999999813735 ], [ 25972.8, 5912803.424999999813735 ], [ 25972.8, 5912803.349999999627471 ], [ 25972.724999999998545, 5912803.349999999627471 ], [ 25972.724999999998545, 5912803.275000000372529 ], [ 25972.650000000001455, 5912803.275000000372529 ], [ 25972.650000000001455, 5912803.125 ], [ 25972.575, 5912803.125 ], [ 25972.575, 5912803.049999999813735 ], [ 25972.5, 5912803.049999999813735 ], [ 25972.5, 5912802.974999999627471 ], [ 25972.425, 5912802.974999999627471 ], [ 25972.425, 5912802.825000000186265 ], [ 25972.349999999998545, 5912802.825000000186265 ], [ 25972.349999999998545, 5912802.674999999813735 ], [ 25972.275000000001455, 5912802.674999999813735 ], [ 25972.275000000001455, 5912802.150000000372529 ], [ 25972.2, 5912802.150000000372529 ], [ 25972.2, 5912801.325000000186265 ], [ 25972.125, 5912801.325000000186265 ], [ 25972.125, 5912790.674999999813735 ], [ 25972.05, 5912790.674999999813735 ], [ 25972.05, 5912781.599999999627471 ], [ 25972.125, 5912781.599999999627471 ], [ 25972.125, 5912774.924999999813735 ], [ 25972.2, 5912774.924999999813735 ], [ 25972.2, 5912767.724999999627471 ], [ 25972.125, 5912767.724999999627471 ], [ 25972.125, 5912763.150000000372529 ], [ 25972.2, 5912763.150000000372529 ], [ 25972.2, 5912762.474999999627471 ], [ 25972.275000000001455, 5912762.474999999627471 ], [ 25972.275000000001455, 5912761.875 ], [ 25972.349999999998545, 5912761.875 ], [ 25972.349999999998545, 5912761.5 ], [ 25972.425, 5912761.5 ], [ 25972.425, 5912761.424999999813735 ], [ 25972.5, 5912761.424999999813735 ], [ 25972.5, 5912761.275000000372529 ], [ 25972.575, 5912761.275000000372529 ], [ 25972.575, 5912761.200000000186265 ], [ 25972.650000000001455, 5912761.200000000186265 ], [ 25972.650000000001455, 5912761.049999999813735 ], [ 25972.724999999998545, 5912761.049999999813735 ], [ 25972.724999999998545, 5912760.974999999627471 ], [ 25972.8, 5912760.974999999627471 ], [ 25972.8, 5912760.900000000372529 ], [ 25972.875, 5912760.900000000372529 ], [ 25972.875, 5912760.825000000186265 ], [ 25972.95, 5912760.825000000186265 ], [ 25972.95, 5912760.75 ], [ 25973.025000000001455, 5912760.75 ], [ 25973.025000000001455, 5912760.674999999813735 ], [ 25973.099999999998545, 5912760.674999999813735 ], [ 25973.099999999998545, 5912760.599999999627471 ], [ 25973.175, 5912760.599999999627471 ], [ 25973.175, 5912760.525000000372529 ], [ 25973.25, 5912760.525000000372529 ], [ 25973.25, 5912760.450000000186265 ], [ 25973.325, 5912760.450000000186265 ], [ 25973.325, 5912760.375 ], [ 25973.400000000001455, 5912760.375 ], [ 25973.400000000001455, 5912760.299999999813735 ], [ 25973.474999999998545, 5912760.299999999813735 ], [ 25973.474999999998545, 5912760.150000000372529 ], [ 25973.55, 5912760.150000000372529 ], [ 25973.55, 5912760.075000000186265 ], [ 25973.625, 5912760.075000000186265 ], [ 25973.625, 5912759.924999999813735 ], [ 25973.7, 5912759.924999999813735 ], [ 25973.7, 5912759.849999999627471 ], [ 25973.775000000001455, 5912759.849999999627471 ], [ 25973.775000000001455, 5912759.700000000186265 ], [ 25973.849999999998545, 5912759.700000000186265 ], [ 25973.849999999998545, 5912759.474999999627471 ], [ 25973.925, 5912759.474999999627471 ], [ 25973.925, 5912759.325000000186265 ], [ 25974.0, 5912759.325000000186265 ], [ 25974.0, 5912759.174999999813735 ], [ 25974.075, 5912759.174999999813735 ], [ 25974.075, 5912759.025000000372529 ], [ 25974.150000000001455, 5912759.025000000372529 ], [ 25974.150000000001455, 5912758.875 ], [ 25974.224999999998545, 5912758.875 ], [ 25974.224999999998545, 5912758.724999999627471 ], [ 25974.3, 5912758.724999999627471 ], [ 25974.3, 5912758.650000000372529 ], [ 25974.375, 5912758.650000000372529 ], [ 25974.375, 5912758.5 ], [ 25974.45, 5912758.5 ], [ 25974.45, 5912758.424999999813735 ], [ 25974.525000000001455, 5912758.424999999813735 ], [ 25974.525000000001455, 5912758.275000000372529 ], [ 25974.599999999998545, 5912758.275000000372529 ], [ 25974.599999999998545, 5912758.200000000186265 ], [ 25974.675, 5912758.200000000186265 ], [ 25974.675, 5912758.125 ], [ 25974.75, 5912758.125 ], [ 25974.75, 5912758.049999999813735 ], [ 25974.825, 5912758.049999999813735 ], [ 25974.825, 5912757.974999999627471 ], [ 25974.900000000001455, 5912757.974999999627471 ], [ 25974.900000000001455, 5912757.900000000372529 ], [ 25974.974999999998545, 5912757.900000000372529 ], [ 25974.974999999998545, 5912757.825000000186265 ], [ 25975.05, 5912757.825000000186265 ], [ 25975.05, 5912757.75 ], [ 25975.125, 5912757.75 ], [ 25975.125, 5912757.674999999813735 ], [ 25975.2, 5912757.674999999813735 ], [ 25975.2, 5912757.599999999627471 ], [ 25975.349999999998545, 5912757.599999999627471 ], [ 25975.349999999998545, 5912757.525000000372529 ], [ 25975.425, 5912757.525000000372529 ], [ 25975.425, 5912757.450000000186265 ], [ 25975.575, 5912757.450000000186265 ], [ 25975.575, 5912757.375 ], [ 25975.724999999998545, 5912757.375 ], [ 25975.724999999998545, 5912757.299999999813735 ], [ 25975.875, 5912757.299999999813735 ], [ 25975.875, 5912757.224999999627471 ], [ 25976.025000000001455, 5912757.224999999627471 ], [ 25976.025000000001455, 5912757.150000000372529 ], [ 25976.175, 5912757.150000000372529 ], [ 25976.175, 5912757.075000000186265 ], [ 25976.400000000001455, 5912757.075000000186265 ], [ 25976.400000000001455, 5912757.0 ], [ 25976.625, 5912757.0 ], [ 25976.625, 5912756.924999999813735 ], [ 25976.849999999998545, 5912756.924999999813735 ], [ 25976.849999999998545, 5912756.849999999627471 ], [ 25977.375, 5912756.849999999627471 ], [ 25977.375, 5912756.924999999813735 ], [ 25978.275000000001455, 5912756.924999999813735 ], [ 25978.275000000001455, 5912757.0 ], [ 25979.25, 5912757.0 ], [ 25979.25, 5912757.075000000186265 ], [ 25980.224999999998545, 5912757.075000000186265 ], [ 25980.224999999998545, 5912757.150000000372529 ], [ 25981.2, 5912757.150000000372529 ], [ 25981.2, 5912757.224999999627471 ], [ 25982.25, 5912757.224999999627471 ], [ 25982.25, 5912757.299999999813735 ], [ 25982.849999999998545, 5912757.299999999813735 ], [ 25982.849999999998545, 5912757.375 ], [ 25983.0, 5912757.375 ], [ 25983.0, 5912757.450000000186265 ], [ 25983.075, 5912757.450000000186265 ], [ 25983.075, 5912757.525000000372529 ], [ 25983.224999999998545, 5912757.525000000372529 ], [ 25983.224999999998545, 5912757.599999999627471 ], [ 25983.3, 5912757.599999999627471 ], [ 25983.3, 5912757.674999999813735 ], [ 25983.375, 5912757.674999999813735 ], [ 25983.375, 5912757.75 ], [ 25983.45, 5912757.75 ], [ 25983.45, 5912757.825000000186265 ], [ 25983.525000000001455, 5912757.825000000186265 ], [ 25983.525000000001455, 5912757.900000000372529 ], [ 25983.599999999998545, 5912757.900000000372529 ], [ 25983.599999999998545, 5912757.974999999627471 ], [ 25983.675, 5912757.974999999627471 ], [ 25983.675, 5912758.049999999813735 ], [ 25983.75, 5912758.049999999813735 ], [ 25983.75, 5912758.125 ], [ 25983.900000000001455, 5912758.125 ], [ 25983.900000000001455, 5912758.200000000186265 ], [ 25983.974999999998545, 5912758.200000000186265 ], [ 25983.974999999998545, 5912758.275000000372529 ], [ 25984.125, 5912758.275000000372529 ], [ 25984.125, 5912758.349999999627471 ], [ 25984.275000000001455, 5912758.349999999627471 ], [ 25984.275000000001455, 5912758.424999999813735 ], [ 25984.349999999998545, 5912758.424999999813735 ], [ 25984.349999999998545, 5912758.5 ], [ 25984.575, 5912758.5 ], [ 25984.575, 5912758.575000000186265 ], [ 25984.724999999998545, 5912758.575000000186265 ], [ 25984.724999999998545, 5912758.650000000372529 ], [ 25984.875, 5912758.650000000372529 ], [ 25984.875, 5912758.724999999627471 ], [ 25984.95, 5912758.724999999627471 ], [ 25984.95, 5912758.799999999813735 ], [ 25985.025000000001455, 5912758.799999999813735 ], [ 25985.025000000001455, 5912758.875 ], [ 25985.099999999998545, 5912758.875 ], [ 25985.099999999998545, 5912758.950000000186265 ], [ 25985.175, 5912758.950000000186265 ], [ 25985.175, 5912759.025000000372529 ], [ 25985.25, 5912759.025000000372529 ], [ 25985.25, 5912759.099999999627471 ], [ 25985.325, 5912759.099999999627471 ], [ 25985.325, 5912759.174999999813735 ], [ 25985.400000000001455, 5912759.174999999813735 ], [ 25985.400000000001455, 5912759.25 ], [ 25985.474999999998545, 5912759.25 ], [ 25985.474999999998545, 5912759.400000000372529 ], [ 25985.55, 5912759.400000000372529 ], [ 25985.55, 5912759.474999999627471 ], [ 25985.625, 5912759.474999999627471 ], [ 25985.625, 5912759.625 ], [ 25985.7, 5912759.625 ], [ 25985.7, 5912759.775000000372529 ], [ 25985.775000000001455, 5912759.775000000372529 ], [ 25985.775000000001455, 5912760.0 ], [ 25985.849999999998545, 5912760.0 ], [ 25985.849999999998545, 5912760.075000000186265 ], [ 25985.925, 5912760.075000000186265 ], [ 25985.925, 5912760.224999999627471 ], [ 25986.0, 5912760.224999999627471 ], [ 25986.0, 5912760.375 ], [ 25986.075, 5912760.375 ], [ 25986.075, 5912760.450000000186265 ], [ 25986.150000000001455, 5912760.450000000186265 ], [ 25986.150000000001455, 5912760.599999999627471 ], [ 25986.224999999998545, 5912760.599999999627471 ], [ 25986.224999999998545, 5912760.674999999813735 ], [ 25986.3, 5912760.674999999813735 ], [ 25986.3, 5912760.75 ], [ 25986.375, 5912760.75 ], [ 25986.375, 5912760.825000000186265 ], [ 25986.45, 5912760.825000000186265 ], [ 25986.45, 5912760.900000000372529 ], [ 25986.525000000001455, 5912760.900000000372529 ], [ 25986.525000000001455, 5912760.974999999627471 ], [ 25986.599999999998545, 5912760.974999999627471 ], [ 25986.599999999998545, 5912761.049999999813735 ], [ 25986.675, 5912761.049999999813735 ], [ 25986.675, 5912761.125 ], [ 25986.75, 5912761.125 ], [ 25986.75, 5912761.200000000186265 ], [ 25986.825, 5912761.200000000186265 ], [ 25986.825, 5912761.275000000372529 ], [ 25986.900000000001455, 5912761.275000000372529 ], [ 25986.900000000001455, 5912761.349999999627471 ], [ 25986.974999999998545, 5912761.349999999627471 ], [ 25986.974999999998545, 5912761.424999999813735 ], [ 25987.05, 5912761.424999999813735 ], [ 25987.05, 5912761.5 ], [ 25987.125, 5912761.5 ], [ 25987.125, 5912761.650000000372529 ], [ 25987.2, 5912761.650000000372529 ], [ 25987.2, 5912761.950000000186265 ], [ 25987.275000000001455, 5912761.950000000186265 ], [ 25987.275000000001455, 5912762.25 ], [ 25987.349999999998545, 5912762.25 ], [ 25987.349999999998545, 5912762.625 ], [ 25987.425, 5912762.625 ], [ 25987.425, 5912763.075000000186265 ], [ 25987.5, 5912763.075000000186265 ], [ 25987.5, 5912763.525000000372529 ], [ 25987.575, 5912763.525000000372529 ], [ 25987.575, 5912764.275000000372529 ], [ 25987.5, 5912764.275000000372529 ], [ 25987.5, 5912769.450000000186265 ], [ 25987.425, 5912769.450000000186265 ], [ 25987.425, 5912771.400000000372529 ], [ 25987.349999999998545, 5912771.400000000372529 ], [ 25987.349999999998545, 5912772.375 ], [ 25987.275000000001455, 5912772.375 ], [ 25987.275000000001455, 5912773.275000000372529 ], [ 25987.2, 5912773.275000000372529 ], [ 25987.2, 5912773.875 ], [ 25987.125, 5912773.875 ], [ 25987.125, 5912774.474999999627471 ], [ 25987.05, 5912774.474999999627471 ], [ 25987.05, 5912775.0 ], [ 25986.974999999998545, 5912775.0 ], [ 25986.974999999998545, 5912775.450000000186265 ], [ 25986.900000000001455, 5912775.450000000186265 ], [ 25986.900000000001455, 5912775.900000000372529 ], [ 25986.825, 5912775.900000000372529 ], [ 25986.825, 5912776.275000000372529 ], [ 25986.75, 5912776.275000000372529 ], [ 25986.75, 5912776.650000000372529 ], [ 25986.675, 5912776.650000000372529 ], [ 25986.675, 5912777.025000000372529 ], [ 25986.599999999998545, 5912777.025000000372529 ], [ 25986.599999999998545, 5912779.5 ], [ 25986.675, 5912779.5 ], [ 25986.675, 5912779.875 ], [ 25986.75, 5912779.875 ], [ 25986.75, 5912780.325000000186265 ], [ 25986.825, 5912780.325000000186265 ], [ 25986.825, 5912780.775000000372529 ], [ 25986.900000000001455, 5912780.775000000372529 ], [ 25986.900000000001455, 5912781.224999999627471 ], [ 25986.974999999998545, 5912781.224999999627471 ], [ 25986.974999999998545, 5912781.75 ], [ 25987.05, 5912781.75 ], [ 25987.05, 5912782.275000000372529 ], [ 25987.125, 5912782.275000000372529 ], [ 25987.125, 5912782.950000000186265 ], [ 25987.2, 5912782.950000000186265 ], [ 25987.2, 5912783.625 ], [ 25987.275000000001455, 5912783.625 ], [ 25987.275000000001455, 5912784.450000000186265 ], [ 25987.349999999998545, 5912784.450000000186265 ], [ 25987.349999999998545, 5912787.075000000186265 ], [ 25987.275000000001455, 5912787.075000000186265 ], [ 25987.275000000001455, 5912787.525000000372529 ], [ 25987.2, 5912787.525000000372529 ], [ 25987.2, 5912787.974999999627471 ], [ 25987.125, 5912787.974999999627471 ], [ 25987.125, 5912788.349999999627471 ], [ 25987.05, 5912788.349999999627471 ], [ 25987.05, 5912788.724999999627471 ], [ 25986.974999999998545, 5912788.724999999627471 ], [ 25986.974999999998545, 5912789.025000000372529 ], [ 25986.900000000001455, 5912789.025000000372529 ], [ 25986.900000000001455, 5912789.325000000186265 ], [ 25986.825, 5912789.325000000186265 ], [ 25986.825, 5912789.625 ], [ 25986.75, 5912789.625 ], [ 25986.75, 5912789.849999999627471 ], [ 25986.675, 5912789.849999999627471 ], [ 25986.675, 5912790.075000000186265 ], [ 25986.599999999998545, 5912790.075000000186265 ], [ 25986.599999999998545, 5912790.299999999813735 ], [ 25986.525000000001455, 5912790.299999999813735 ], [ 25986.525000000001455, 5912790.525000000372529 ], [ 25986.45, 5912790.525000000372529 ], [ 25986.45, 5912790.825000000186265 ], [ 25986.375, 5912790.825000000186265 ], [ 25986.375, 5912791.200000000186265 ], [ 25986.3, 5912791.200000000186265 ], [ 25986.3, 5912791.575000000186265 ], [ 25986.224999999998545, 5912791.575000000186265 ], [ 25986.224999999998545, 5912792.025000000372529 ], [ 25986.150000000001455, 5912792.025000000372529 ], [ 25986.150000000001455, 5912792.474999999627471 ], [ 25986.075, 5912792.474999999627471 ], [ 25986.075, 5912793.224999999627471 ], [ 25986.150000000001455, 5912793.224999999627471 ], [ 25986.150000000001455, 5912793.599999999627471 ], [ 25986.224999999998545, 5912793.599999999627471 ], [ 25986.224999999998545, 5912793.900000000372529 ], [ 25986.3, 5912793.900000000372529 ], [ 25986.3, 5912794.275000000372529 ], [ 25986.375, 5912794.275000000372529 ], [ 25986.375, 5912794.5 ], [ 25986.45, 5912794.5 ], [ 25986.45, 5912794.799999999813735 ], [ 25986.525000000001455, 5912794.799999999813735 ], [ 25986.525000000001455, 5912794.950000000186265 ], [ 25986.599999999998545, 5912794.950000000186265 ], [ 25986.599999999998545, 5912795.025000000372529 ], [ 25986.675, 5912795.025000000372529 ], [ 25986.675, 5912795.099999999627471 ], [ 25986.75, 5912795.099999999627471 ], [ 25986.75, 5912795.174999999813735 ], [ 25986.825, 5912795.174999999813735 ], [ 25986.825, 5912795.325000000186265 ], [ 25986.900000000001455, 5912795.325000000186265 ], [ 25986.900000000001455, 5912795.400000000372529 ], [ 25986.974999999998545, 5912795.400000000372529 ], [ 25986.974999999998545, 5912795.549999999813735 ], [ 25987.05, 5912795.549999999813735 ], [ 25987.05, 5912795.700000000186265 ], [ 25987.125, 5912795.700000000186265 ], [ 25987.125, 5912795.775000000372529 ], [ 25987.2, 5912795.775000000372529 ], [ 25987.2, 5912795.924999999813735 ], [ 25987.275000000001455, 5912795.924999999813735 ], [ 25987.275000000001455, 5912796.075000000186265 ], [ 25987.349999999998545, 5912796.075000000186265 ], [ 25987.349999999998545, 5912796.299999999813735 ], [ 25987.425, 5912796.299999999813735 ], [ 25987.425, 5912796.450000000186265 ], [ 25987.5, 5912796.450000000186265 ], [ 25987.5, 5912796.674999999813735 ], [ 25987.575, 5912796.674999999813735 ], [ 25987.575, 5912796.900000000372529 ], [ 25987.650000000001455, 5912796.900000000372529 ], [ 25987.650000000001455, 5912797.049999999813735 ], [ 25987.724999999998545, 5912797.049999999813735 ], [ 25987.724999999998545, 5912797.275000000372529 ], [ 25987.8, 5912797.275000000372529 ], [ 25987.8, 5912797.424999999813735 ], [ 25987.875, 5912797.424999999813735 ], [ 25987.875, 5912797.575000000186265 ], [ 25987.95, 5912797.575000000186265 ], [ 25987.95, 5912797.650000000372529 ], [ 25988.025000000001455, 5912797.650000000372529 ], [ 25988.025000000001455, 5912797.799999999813735 ], [ 25988.099999999998545, 5912797.799999999813735 ], [ 25988.099999999998545, 5912797.875 ], [ 25988.175, 5912797.875 ], [ 25988.175, 5912798.025000000372529 ], [ 25988.25, 5912798.025000000372529 ], [ 25988.25, 5912798.099999999627471 ], [ 25988.325, 5912798.099999999627471 ], [ 25988.325, 5912798.174999999813735 ], [ 25988.400000000001455, 5912798.174999999813735 ], [ 25988.400000000001455, 5912798.25 ], [ 25988.474999999998545, 5912798.25 ], [ 25988.474999999998545, 5912798.325000000186265 ], [ 25988.55, 5912798.325000000186265 ], [ 25988.55, 5912798.400000000372529 ], [ 25988.625, 5912798.400000000372529 ], [ 25988.625, 5912798.474999999627471 ], [ 25988.7, 5912798.474999999627471 ], [ 25988.7, 5912798.549999999813735 ], [ 25988.775000000001455, 5912798.549999999813735 ], [ 25988.775000000001455, 5912798.625 ], [ 25988.849999999998545, 5912798.625 ], [ 25988.849999999998545, 5912798.700000000186265 ], [ 25988.925, 5912798.700000000186265 ], [ 25988.925, 5912798.775000000372529 ], [ 25989.0, 5912798.775000000372529 ], [ 25989.0, 5912798.849999999627471 ], [ 25989.075, 5912798.849999999627471 ], [ 25989.075, 5912798.924999999813735 ], [ 25989.150000000001455, 5912798.924999999813735 ], [ 25989.150000000001455, 5912799.0 ], [ 25989.224999999998545, 5912799.0 ], [ 25989.224999999998545, 5912799.075000000186265 ], [ 25989.375, 5912799.075000000186265 ], [ 25989.375, 5912799.150000000372529 ], [ 25989.45, 5912799.150000000372529 ], [ 25989.45, 5912799.224999999627471 ], [ 25989.525000000001455, 5912799.224999999627471 ], [ 25989.525000000001455, 5912799.299999999813735 ], [ 25989.675, 5912799.299999999813735 ], [ 25989.675, 5912799.375 ], [ 25989.825, 5912799.375 ], [ 25989.825, 5912799.450000000186265 ], [ 25989.900000000001455, 5912799.450000000186265 ], [ 25989.900000000001455, 5912799.525000000372529 ], [ 25990.05, 5912799.525000000372529 ], [ 25990.05, 5912799.599999999627471 ], [ 25990.275000000001455, 5912799.599999999627471 ], [ 25990.275000000001455, 5912799.674999999813735 ], [ 25990.425, 5912799.674999999813735 ], [ 25990.425, 5912799.75 ], [ 25990.650000000001455, 5912799.75 ], [ 25990.650000000001455, 5912799.825000000186265 ], [ 25990.875, 5912799.825000000186265 ], [ 25990.875, 5912799.900000000372529 ], [ 25991.025000000001455, 5912799.900000000372529 ], [ 25991.025000000001455, 5912799.974999999627471 ], [ 25991.175, 5912799.974999999627471 ], [ 25991.175, 5912800.049999999813735 ], [ 25991.325, 5912800.049999999813735 ], [ 25991.325, 5912800.125 ], [ 25991.474999999998545, 5912800.125 ], [ 25991.474999999998545, 5912800.200000000186265 ], [ 25991.625, 5912800.200000000186265 ], [ 25991.625, 5912800.275000000372529 ], [ 25991.7, 5912800.275000000372529 ], [ 25991.7, 5912800.349999999627471 ], [ 25991.849999999998545, 5912800.349999999627471 ], [ 25991.849999999998545, 5912800.424999999813735 ], [ 25991.925, 5912800.424999999813735 ], [ 25991.925, 5912800.5 ], [ 25992.0, 5912800.5 ], [ 25992.0, 5912800.575000000186265 ], [ 25992.150000000001455, 5912800.575000000186265 ], [ 25992.150000000001455, 5912800.650000000372529 ], [ 25992.224999999998545, 5912800.650000000372529 ], [ 25992.224999999998545, 5912800.799999999813735 ], [ 25992.3, 5912800.799999999813735 ], [ 25992.3, 5912801.025000000372529 ], [ 25992.375, 5912801.025000000372529 ], [ 25992.375, 5912801.174999999813735 ], [ 25992.45, 5912801.174999999813735 ], [ 25992.45, 5912801.25 ], [ 25992.525000000001455, 5912801.25 ], [ 25992.525000000001455, 5912801.400000000372529 ], [ 25992.599999999998545, 5912801.400000000372529 ], [ 25992.599999999998545, 5912801.549999999813735 ], [ 25992.675, 5912801.549999999813735 ], [ 25992.675, 5912801.700000000186265 ], [ 25992.75, 5912801.700000000186265 ], [ 25992.75, 5912801.849999999627471 ], [ 25992.825, 5912801.849999999627471 ], [ 25992.825, 5912802.0 ], [ 25992.900000000001455, 5912802.0 ], [ 25992.900000000001455, 5912802.150000000372529 ], [ 25992.974999999998545, 5912802.150000000372529 ], [ 25992.974999999998545, 5912802.375 ], [ 25993.05, 5912802.375 ], [ 25993.05, 5912802.599999999627471 ], [ 25993.125, 5912802.599999999627471 ], [ 25993.125, 5912802.674999999813735 ], [ 25993.05, 5912802.674999999813735 ], [ 25993.05, 5912802.75 ], [ 25992.974999999998545, 5912802.75 ], [ 25992.974999999998545, 5912802.825000000186265 ], [ 25992.900000000001455, 5912802.825000000186265 ], [ 25992.900000000001455, 5912802.900000000372529 ], [ 25992.75, 5912802.900000000372529 ], [ 25992.75, 5912802.974999999627471 ], [ 25992.675, 5912802.974999999627471 ], [ 25992.675, 5912803.049999999813735 ], [ 25992.599999999998545, 5912803.049999999813735 ], [ 25992.599999999998545, 5912803.125 ], [ 25992.375, 5912803.125 ], [ 25992.375, 5912803.200000000186265 ], [ 25992.224999999998545, 5912803.200000000186265 ], [ 25992.224999999998545, 5912803.275000000372529 ], [ 25992.0, 5912803.275000000372529 ], [ 25992.0, 5912803.349999999627471 ], [ 25991.775000000001455, 5912803.349999999627471 ], [ 25991.775000000001455, 5912803.424999999813735 ], [ 25991.55, 5912803.424999999813735 ], [ 25991.55, 5912803.5 ], [ 25991.25, 5912803.5 ], [ 25991.25, 5912803.575000000186265 ], [ 25991.025000000001455, 5912803.575000000186265 ], [ 25991.025000000001455, 5912803.650000000372529 ], [ 25990.724999999998545, 5912803.650000000372529 ], [ 25990.724999999998545, 5912803.724999999627471 ], [ 25990.425, 5912803.724999999627471 ], [ 25990.425, 5912803.799999999813735 ], [ 25990.2, 5912803.799999999813735 ], [ 25990.2, 5912803.875 ], [ 25989.900000000001455, 5912803.875 ], [ 25989.900000000001455, 5912803.950000000186265 ], [ 25989.675, 5912803.950000000186265 ], [ 25989.675, 5912804.025000000372529 ], [ 25989.525000000001455, 5912804.025000000372529 ], [ 25989.525000000001455, 5912804.099999999627471 ], [ 25989.3, 5912804.099999999627471 ], [ 25989.3, 5912804.174999999813735 ], [ 25989.150000000001455, 5912804.174999999813735 ], [ 25989.150000000001455, 5912804.25 ], [ 25988.925, 5912804.25 ], [ 25988.925, 5912804.325000000186265 ], [ 25988.775000000001455, 5912804.325000000186265 ], [ 25988.775000000001455, 5912804.400000000372529 ], [ 25988.7, 5912804.400000000372529 ], [ 25988.7, 5912804.474999999627471 ], [ 25988.55, 5912804.474999999627471 ], [ 25988.55, 5912804.549999999813735 ], [ 25988.474999999998545, 5912804.549999999813735 ], [ 25988.474999999998545, 5912804.625 ], [ 25988.325, 5912804.625 ], [ 25988.325, 5912804.700000000186265 ], [ 25988.25, 5912804.700000000186265 ], [ 25988.25, 5912804.775000000372529 ], [ 25988.099999999998545, 5912804.775000000372529 ], [ 25988.099999999998545, 5912804.849999999627471 ], [ 25988.025000000001455, 5912804.849999999627471 ], [ 25988.025000000001455, 5912804.924999999813735 ], [ 25987.875, 5912804.924999999813735 ], [ 25987.875, 5912805.0 ], [ 25987.724999999998545, 5912805.0 ], [ 25987.724999999998545, 5912805.075000000186265 ], [ 25987.575, 5912805.075000000186265 ], [ 25987.575, 5912805.150000000372529 ], [ 25987.349999999998545, 5912805.150000000372529 ], [ 25987.349999999998545, 5912805.224999999627471 ], [ 25987.2, 5912805.224999999627471 ], [ 25987.2, 5912805.299999999813735 ], [ 25986.974999999998545, 5912805.299999999813735 ], [ 25986.974999999998545, 5912805.375 ], [ 25986.75, 5912805.375 ], [ 25986.75, 5912805.450000000186265 ], [ 25986.45, 5912805.450000000186265 ], [ 25986.45, 5912805.525000000372529 ], [ 25986.150000000001455, 5912805.525000000372529 ], [ 25986.150000000001455, 5912805.599999999627471 ], [ 25985.849999999998545, 5912805.599999999627471 ], [ 25985.849999999998545, 5912805.674999999813735 ], [ 25985.625, 5912805.674999999813735 ], [ 25985.625, 5912805.75 ], [ 25985.325, 5912805.75 ], [ 25985.325, 5912805.825000000186265 ], [ 25985.099999999998545, 5912805.825000000186265 ], [ 25985.099999999998545, 5912805.900000000372529 ], [ 25984.875, 5912805.900000000372529 ], [ 25984.875, 5912805.974999999627471 ], [ 25984.575, 5912805.974999999627471 ], [ 25984.575, 5912806.049999999813735 ], [ 25984.275000000001455, 5912806.049999999813735 ], [ 25984.275000000001455, 5912806.125 ], [ 25984.05, 5912806.125 ], [ 25984.05, 5912806.200000000186265 ], [ 25983.825, 5912806.200000000186265 ], [ 25983.825, 5912806.275000000372529 ], [ 25983.599999999998545, 5912806.275000000372529 ], [ 25983.599999999998545, 5912806.349999999627471 ], [ 25983.375, 5912806.349999999627471 ], [ 25983.375, 5912806.424999999813735 ], [ 25983.150000000001455, 5912806.424999999813735 ], [ 25983.150000000001455, 5912806.5 ], [ 25983.0, 5912806.5 ], [ 25983.0, 5912806.575000000186265 ], [ 25982.474999999998545, 5912806.575000000186265 ] ] ] } },
{ "type": "Feature", "properties": { "value": 1.0, "building_id": 3, "area": 25.751250000531289 }, "geometry": { "type": "Polygon", "coordinates": [ [ [ 25683.0, 5912633.325000000186265 ], [ 25683.0, 5912628.375 ], [ 25686.0, 5912628.375 ], [ 25686.0, 5912628.450000000186265 ], [ 25686.375, 5912628.450000000186265 ], [ 25686.375, 5912628.525000000372529 ], [ 25686.825, 5912628.525000000372529 ], [ 25686.825, 5912628.599999999627471 ], [ 25687.275000000001455, 5912628.599999999627471 ], [ 25687.275000000001455, 5912628.674999999813735 ], [ 25687.650000000001455, 5912628.674999999813735 ], [ 25687.650000000001455, 5912628.75 ], [ 25687.95, 5912628.75 ], [ 25687.95, 5912628.825000000186265 ], [ 25688.025000000001455, 5912628.825000000186265 ], [ 25688.025000000001455, 5912628.974999999627471 ], [ 25688.099999999998545, 5912628.974999999627471 ], [ 25688.099999999998545, 5912629.049999999813735 ], [ 25688.175, 5912629.049999999813735 ], [ 25688.175, 5912629.200000000186265 ], [ 25688.25, 5912629.200000000186265 ], [ 25688.25, 5912629.349999999627471 ], [ 25688.325, 5912629.349999999627471 ], [ 25688.325, 5912629.5 ], [ 25688.400000000001455, 5912629.5 ], [ 25688.400000000001455, 5912629.650000000372529 ], [ 25688.474999999998545, 5912629.650000000372529 ], [ 25688.474999999998545, 5912629.799999999813735 ], [ 25688.55, 5912629.799999999813735 ], [ 25688.55, 5912630.025000000372529 ], [ 25688.625, 5912630.025000000372529 ], [ 25688.625, 5912630.25 ], [ 25688.7, 5912630.25 ], [ 25688.7, 5912630.549999999813735 ], [ 25688.775000000001455, 5912630.549999999813735 ], [ 25688.775000000001455, 5912631.375 ], [ 25688.849999999998545, 5912631.375 ], [ 25688.849999999998545, 5912632.125 ], [ 25688.925, 5912632.125 ], [ 25688.925, 5912632.275000000372529 ], [ 25688.775000000001455, 5912632.275000000372529 ], [ 25688.775000000001455, 5912632.349999999627471 ], [ 25688.55, 5912632.349999999627471 ], [ 25688.55, 5912632.424999999813735 ], [ 25688.325, 5912632.424999999813735 ], [ 25688.325, 5912632.5 ], [ 25688.099999999998545, 5912632.5 ], [ 25688.099999999998545, 5912632.575000000186265 ], [ 25687.875, 5912632.575000000186265 ], [ 25687.875, 5912632.650000000372529 ], [ 25687.575, 5912632.650000000372529 ], [ 25687.575, 5912632.724999999627471 ], [ 25687.349999999998545, 5912632.724999999627471 ], [ 25687.349999999998545, 5912632.799999999813735 ], [ 25687.2, 5912632.799999999813735 ], [ 25687.2, 5912632.875 ], [ 25687.05, 5912632.875 ], [ 25687.05, 5912632.950000000186265 ], [ 25686.825, 5912632.950000000186265 ], [ 25686.825, 5912633.025000000372529 ], [ 25686.599999999998545, 5912633.025000000372529 ], [ 25686.599999999998545, 5912633.099999999627471 ], [ 25686.375, 5912633.099999999627471 ], [ 25686.375, 5912633.174999999813735 ], [ 25686.150000000001455, 5912633.174999999813735 ], [ 25686.150000000001455, 5912633.25 ], [ 25685.925, 5912633.25 ], [ 25685.925, 5912633.325000000186265 ], [ 25683.0, 5912633.325000000186265 ] ] ] } }
]
}
