{
"type": "FeatureCollection",
"name": "25683E591282N_buildings",
"crs": { "type": "name", "properties": { "name": "urn:ogc:def:crs:EPSG::3776" } },
"features": [
{ "type": "Feature", "properties": { "value": 1.0, "building_id": 0, "area": 41.130000000238702 }, "geometry": { "type": "Polygon", "coordinates": [ [ [ 25693.575, 5913546.525000000372529 ], [ 25693.575, 5913546.450000000186265 ], [ 25693.349999999998545, 5913546.450000000186265 ], [ 25693.349999999998545, 5913546.375 ], [ 25693.125, 5913546.375 ], [ 25693.125, 5913546.299999999813735 ], [ 25692.900000000001455, 5913546.299999999813735 ], [ 25692.900000000001455, 5913546.224999999627471 ], [ 25692.675, 5913546.224999999627471 ], [ 25692.675, 5913546.150000000372529 ], [ 25692.45, 5913546.150000000372529 ], [ 25692.45, 5913546.075000000186265 ], [ 25692.224999999998545, 5913546.075000000186265 ], [ 25692.224999999998545, 5913546.0 ], [ 25692.0, 5913546.0 ], [ 25692.0, 5913545.924999999813735 ], [ 25691.775000000001455, 5913545.924999999813735 ], [ 25691.775000000001455, 5913545.849999999627471 ], [ 25691.7, 5913545.849999999627471 ], [ 25691.7, 5913545.775000000372529 ], [ 25691.55, 5913545.775000000372529 ], [ 25691.55, 5913545.700000000186265 ], [ 25691.474999999998545, 5913545.700000000186265 ], [ 25691.474999999998545, 5913545.625 ], [ 25691.400000000001455, 5913545.625 ], [ 25691.400000000001455, 5913545.549999999813735 ], [ 25691.25, 5913545.549999999813735 ], [ 25691.25, 5913545.474999999627471 ], [ 25691.175, 5913545.474999999627471 ], [ 25691.175, 5913545.325000000186265 ], [ 25691.099999999998545, 5913545.325000000186265 ], [ 25691.099999999998545, 5913545.25 ], [ 25691.025000000001455, 5913545.25 ], [ 25691.025000000001455, 5913545.174999999813735 ], [ 25690.95, 5913545.174999999813735 ], [ 25690.95, 5913545.099999999627471 ], [ 25690.875, 5913545.099999999627471 ], [ 25690.875, 5913544.950000000186265 ], [ 25690.8, 5913544.950000000186265 ], [ 25690.8, 5913544.799999999813735 ], [ 25690.724999999998545, 5913544.799999999813735 ], [ 25690.724999999998545, 5913544.275000000372529 ], [ 25690.650000000001455, 5913544.275000000372529 ], [ 25690.650000000001455, 5913543.75 ], [ 25690.575, 5913543.75 ], [ 25690.575, 5913543.150000000372529 ], [ 25690.5, 5913543.150000000372529 ], [ 25690.5, 5913542.700000000186265 ], [ 25690.575, 5913542.700000000186265 ], [ 25690.575, 5913542.400000000372529 ], [ 25690.650000000001455, 5913542.400000000372529 ], [ 25690.650000000001455, 5913542.174999999813735 ], [ 25690.724999999998545, 5913542.174999999813735 ], [ 25690.724999999998545, 5913542.025000000372529 ], [ 25690.8, 5913542.025000000372529 ], [ 25690.8, 5913541.875 ], [ 25690.875, 5913541.875 ], [ 25690.875, 5913541.799999999813735 ], [ 25690.95, 5913541.799999999813735 ], [ 25690.95, 5913541.650000000372529 ], [ 25691.025000000001455, 5913541.650000000372529 ], [ 25691.025000000001455, 5913541.575000000186265 ], [ 25691.099999999998545, 5913541.575000000186265 ], [ 25691.099999999998545, 5913541.5 ], [ 25691.25, 5913541.5 ], [ 25691.25, 5913541.424999999813735 ], [ 25691.325, 5913541.424999999813735 ], [ 25691.325, 5913541.349999999627471 ], [ 25691.474999999998545, 5913541.349999999627471 ], [ 25691.474999999998545, 5913541.275000000372529 ], [ 25691.625, 5913541.275000000372529 ], [ 25691.625, 5913541.200000000186265 ], [ 25691.775000000001455, 5913541.200000000186265 ], [ 25691.775000000001455, 5913541.125 ], [ 25691.849999999998545, 5913541.125 ], [ 25691.849999999998545, 5913541.049999999813735 ], [ 25691.925, 5913541.049999999813735 ], [ 25691.925, 5913540.974999999627471 ], [ 25692.0, 5913540.974999999627471 ], [ 25692.0, 5913540.75 ], [ 25692.075, 5913540.75 ], [ 25692.075, 5913540.375 ], [ 25692.150000000001455, 5913540.375 ], [ 25692.150000000001455, 5913540.150000000372529 ], [ 25692.224999999998545, 5913540.150000000372529 ], [ 25692.224999999998545, 5913540.0 ], [ 25692.3, 5913540.0 ], [ 25692.3, 5913539.849999999627471 ], [ 25692.375, 5913539.849999999627471 ], [ 25692.375, 5913539.775000000372529 ], [ 25692.45, 5913539.775000000372529 ], [ 25692.45, 5913539.700000000186265 ], [ 25692.525000000001455, 5913539.700000000186265 ], [ 25692.525000000001455, 5913539.625 ], [ 25692.599999999998545, 5913539.625 ], [ 25692.599999999998545, 5913539.549999999813735 ], [ 25692.675, 5913539.549999999813735 ], [ 25692.675, 5913539.474999999627471 ], [ 25692.825, 5913539.474999999627471 ], [ 25692.825, 5913539.400000000372529 ], [ 25692.974999999998545, 5913539.400000000372529 ], [ 25692.974999999998545, 5913539.325000000186265 ], [ 25693.2, 5913539.325000000186265 ], [ 25693.2, 5913539.25 ], [ 25693.5, 5913539.25 ], [ 25693.5, 5913539.174999999813735 ], [ 25694.325, 5913539.174999999813735 ], [ 25694.325, 5913539.25 ], [ 25695.150000000001455, 5913539.25 ], [ 25695.150000000001455, 5913539.325000000186265 ], [ 25695.75, 5913539.325000000186265 ], [ 25695.75, 5913539.400000000372529 ], [ 25695.974999999998545, 5913539.400000000372529 ], [ 25695.974999999998545, 5913539.474999999627471 ], [ 25696.125, 5913539.474999999627471 ], [ 25696.125, 5913539.549999999813735 ], [ 25696.2, 5913539.549999999813735 ], [ 25696.2, 5913539.625 ], [ 25696.349999999998545, 5913539.625 ], [ 25696.349999999998545, 5913539.700000000186265 ], [ 25696.425, 5913539.700000000186265 ], [ 25696.425, 5913539.775000000372529 ], [ 25696.5, 5913539.775000000372529 ], [ 25696.5, 5913539.849999999627471 ], [ 25696.575, 5913539.849999999627471 ], [ 25696.575, 5913539.924999999813735 ], [ 25696.650000000001455, 5913539.924999999813735 ], [ 25696.650000000001455, 5913540.0 ], [ 25696.724999999998545, 5913540.0 ], [ 25696.724999999998545, 5913540.075000000186265 ], [ 25696.8, 5913540.075000000186265 ], [ 25696.8, 5913540.150000000372529 ], [ 25696.875, 5913540.150000000372529 ], [ 25696.875, 5913540.299999999813735 ], [ 25696.95, 5913540.299999999813735 ], [ 25696.95, 5913540.375 ], [ 25697.025000000001455, 5913540.375 ], [ 25697.025000000001455, 5913540.525000000372529 ], [ 25697.099999999998545, 5913540.525000000372529 ], [ 25697.099999999998545, 5913540.75 ], [ 25697.175, 5913540.75 ], [ 25697.175, 5913541.049999999813735 ], [ 25697.25, 5913541.049999999813735 ], [ 25697.25, 5913541.5 ], [ 25697.325, 5913541.5 ], [ 25697.325, 5913542.099999999627471 ], [ 25697.400000000001455, 5913542.099999999627471 ], [ 25697.400000000001455, 5913542.700000000186265 ], [ 25697.474999999998545, 5913542.700000000186265 ], [ 25697.474999999998545, 5913543.375 ], [ 25697.400000000001455, 5913543.375 ], [ 25697.400000000001455, 5913544.799999999813735 ], [ 25697.325, 5913544.799999999813735 ], [ 25697.325, 5913545.025000000372529 ], [ 25697.25, 5913545.025000000372529 ], [ 25697.25, 5913545.174999999813735 ], [ 25697.175, 5913545.174999999813735 ], [ 25697.175, 5913545.325000000186265 ], [ 25697.099999999998545, 5913545.325000000186265 ], [ 25697.099999999998545, 5913545.474999999627471 ], [ 25697.025000000001455, 5913545.474999999627471 ], [ 25697.025000000001455, 5913545.549999999813735 ], [ 25696.95, 5913545.549999999813735 ], [ 25696.95, 5913545.625 ], [ 25696.875, 5913545.625 ], [ 25696.875, 5913545.700000000186265 ], [ 25696.8, 5913545.700000000186265 ], [ 25696.8, 5913545.775000000372529 ], [ 25696.724999999998545, 5913545.775000000372529 ], [ 25696.724999999998545, 5913545.849999999627471 ], [ 25696.650000000001455, 5913545.849999999627471 ], [ 25696.650000000001455, 5913545.924999999813735 ], [ 25696.575, 5913545.924999999813735 ], [ 25696.575, 5913546.0 ], [ 25696.425, 5913546.0 ], [ 25696.425, 5913546.075000000186265 ], [ 25696.349999999998545, 5913546.075000000186265 ], [ 25696.349999999998545, 5913546.150000000372529 ], [ 25696.2, 5913546.150000000372529 ], [ 25696.2, 5913546.224999999627471 ], [ 25695.974999999998545, 5913546.224999999627471 ], [ 25695.974999999998545, 5913546.299999999813735 ], [ 25695.825, 5913546.299999999813735 ], [ 25695.825, 5913546.375 ], [ 25695.150000000001455, 5913546.375 ], [ 25695.150000000001455, 5913546.450000000186265 ], [ 25694.25, 5913546.450000000186265 ], [ 25694.25, 5913546.525000000372529 ], [ 25693.575, 5913546.525000000372529 ] ] ] } },
{ "type": "Feature", "properties": { "value": 1.0, "building_id": 1, "area": 310.43249999990121 }, "geometry": { "type": "Polygon", "coordinates": [ [ [ 25697.625, 5913526.424999999813735 ], [ 25697.625, 5913526.349999999627471 ], [ 25696.724999999998545, 5913526.349999999627471 ], [ 25696.724999999998545, 5913526.275000000372529 ], [ 25696.125, 5913526.275000000372529 ], [ 25696.125, 5913526.200000000186265 ], [ 25695.675, 5913526.200000000186265 ], [ 25695.675, 5913526.125 ], [ 25695.45, 5913526.125 ], [ 25695.45, 5913526.049999999813735 ], [ 25695.224999999998545, 5913526.049999999813735 ], [ 25695.224999999998545, 5913525.974999999627471 ], [ 25695.075, 5913525.974999999627471 ], [ 25695.075, 5913525.900000000372529 ], [ 25694.925, 5913525.900000000372529 ], [ 25694.925, 5913525.825000000186265 ], [ 25694.775000000001455, 5913525.825000000186265 ], [ 25694.775000000001455, 5913525.75 ], [ 25694.625, 5913525.75 ], [ 25694.625, 5913525.674999999813735 ], [ 25694.474999999998545, 5913525.674999999813735 ], [ 25694.474999999998545, 5913525.599999999627471 ], [ 25694.325, 5913525.599999999627471 ], [ 25694.325, 5913525.525000000372529 ], [ 25694.25, 5913525.525000000372529 ], [ 25694.25, 5913525.450000000186265 ], [ 25694.099999999998545, 5913525.450000000186265 ], [ 25694.099999999998545, 5913525.299999999813735 ], [ 25694.025000000001455, 5913525.299999999813735 ], [ 25694.025000000001455, 5913525.224999999627471 ], [ 25693.875, 5913525.224999999627471 ], [ 25693.875, 5913525.150000000372529 ], [ 25693.5, 5913525.150000000372529 ], [ 25693.5, 5913525.075000000186265 ], [ 25693.275000000001455, 5913525.075000000186265 ], [ 25693.275000000001455, 5913525.0 ], [ 25693.05, 5913525.0 ], [ 25693.05, 5913524.924999999813735 ], [ 25692.900000000001455, 5913524.924999999813735 ], [ 25692.900000000001455, 5913524.849999999627471 ], [ 25692.825, 5913524.849999999627471 ], [ 25692.825, 5913524.775000000372529 ], [ 25692.675, 5913524.775000000372529 ], [ 25692.675, 5913524.700000000186265 ], [ 25692.599999999998545, 5913524.700000000186265 ], [ 25692.599999999998545, 5913524.625 ], [ 25692.525000000001455, 5913524.625 ], [ 25692.525000000001455, 5913524.549999999813735 ], [ 25692.45, 5913524.549999999813735 ], [ 25692.45, 5913524.474999999627471 ], [ 25692.375, 5913524.474999999627471 ], [ 25692.375, 5913524.400000000372529 ], [ 25692.3, 5913524.400000000372529 ], [ 25692.3, 5913524.325000000186265 ], [ 25692.224999999998545, 5913524.325000000186265 ], [ 25692.224999999998545, 5913524.25 ], [ 25692.150000000001455, 5913524.25 ], [ 25692.150000000001455, 5913524.099999999627471 ], [ 25692.075, 5913524.099999999627471 ], [ 25692.075, 5913523.950000000186265 ], [ 25692.0, 5913523.950000000186265 ], [ 25692.0, 5913523.424999999813735 ], [ 25691.925, 5913523.424999999813735 ], [ 25691.925, 5913523.200000000186265 ], [ 25691.849999999998545, 5913523.200000000186265 ], [ 25691.849999999998545, 5913523.049999999813735 ], [ 25691.7, 5913523.049999999813735 ], [ 25691.7, 5913522.974999999627471 ], [ 25691.55, 5913522.974999999627471 ], [ 25691.55, 5913522.900000000372529 ], [ 25691.474999999998545, 5913522.900000000372529 ], [ 25691.474999999998545, 5913522.825000000186265 ], [ 25691.325, 5913522.825000000186265 ], [ 25691.325, 5913522.75 ], [ 25691.25, 5913522.75 ], [ 25691.25, 5913522.674999999813735 ], [ 25691.175, 5913522.674999999813735 ], [ 25691.175, 5913522.599999999627471 ], [ 25691.099999999998545, 5913522.599999999627471 ], [ 25691.099999999998545, 5913522.450000000186265 ], [ 25691.025000000001455, 5913522.450000000186265 ], [ 25691.025000000001455, 5913522.375 ], [ 25690.95, 5913522.375 ], [ 25690.95, 5913522.224999999627471 ], [ 25690.875, 5913522.224999999627471 ], [ 25690.875, 5913522.075000000186265 ], [ 25690.8, 5913522.075000000186265 ], [ 25690.8, 5913521.924999999813735 ], [ 25690.724999999998545, 5913521.924999999813735 ], [ 25690.724999999998545, 5913521.700000000186265 ], [ 25690.650000000001455, 5913521.700000000186265 ], [ 25690.650000000001455, 5913521.325000000186265 ], [ 25690.575, 5913521.325000000186265 ], [ 25690.575, 5913520.650000000372529 ], [ 25690.5, 5913520.650000000372529 ], [ 25690.5, 5913519.450000000186265 ], [ 25690.425, 5913519.450000000186265 ], [ 25690.425, 5913519.375 ], [ 25690.5, 5913519.375 ], [ 25690.5, 5913518.549999999813735 ], [ 25690.575, 5913518.549999999813735 ], [ 25690.575, 5913517.575000000186265 ], [ 25690.650000000001455, 5913517.575000000186265 ], [ 25690.650000000001455, 5913516.674999999813735 ], [ 25690.724999999998545, 5913516.674999999813735 ], [ 25690.724999999998545, 5913515.625 ], [ 25690.8, 5913515.625 ], [ 25690.8, 5913514.575000000186265 ], [ 25690.875, 5913514.575000000186265 ], [ 25690.875, 5913513.525000000372529 ], [ 25690.95, 5913513.525000000372529 ], [ 25690.95, 5913513.299999999813735 ], [ 25691.025000000001455, 5913513.299999999813735 ], [ 25691.025000000001455, 5913513.075000000186265 ], [ 25691.099999999998545, 5913513.075000000186265 ], [ 25691.099999999998545, 5913512.849999999627471 ], [ 25691.175, 5913512.849999999627471 ], [ 25691.175, 5913512.625 ], [ 25691.25, 5913512.625 ], [ 25691.25, 5913512.400000000372529 ], [ 25691.325, 5913512.400000000372529 ], [ 25691.325, 5913512.25 ], [ 25691.400000000001455, 5913512.25 ], [ 25691.400000000001455, 5913512.099999999627471 ], [ 25691.474999999998545, 5913512.099999999627471 ], [ 25691.474999999998545, 5913511.950000000186265 ], [ 25691.55, 5913511.950000000186265 ], [ 25691.55, 5913511.875 ], [ 25691.625, 5913511.875 ], [ 25691.625, 5913511.724999999627471 ], [ 25691.7, 5913511.724999999627471 ], [ 25691.7, 5913511.575000000186265 ], [ 25691.775000000001455, 5913511.575000000186265 ], [ 25691.775000000001455, 5913511.5 ], [ 25691.849999999998545, 5913511.5 ], [ 25691.849999999998545, 5913511.424999999813735 ], [ 25691.925, 5913511.424999999813735 ], [ 25691.925, 5913511.275000000372529 ], [ 25692.0, 5913511.275000000372529 ], [ 25692.0, 5913511.125 ], [ 25692.075, 5913511.125 ], [ 25692.075, 5913510.974999999627471 ], [ 25692.150000000001455, 5913510.974999999627471 ], [ 25692.150000000001455, 5913510.825000000186265 ], [ 25692.224999999998545, 5913510.825000000186265 ], [ 25692.224999999998545, 5913510.674999999813735 ], [ 25692.3, 5913510.674999999813735 ], [ 25692.3, 5913510.525000000372529 ], [ 25692.375, 5913510.525000000372529 ], [ 25692.375, 5913510.375 ], [ 25692.45, 5913510.375 ], [ 25692.45, 5913510.150000000372529 ], [ 25692.525000000001455, 5913510.150000000372529 ], [ 25692.525000000001455, 5913509.924999999813735 ], [ 25692.599999999998545, 5913509.924999999813735 ], [ 25692.599999999998545, 5913509.625 ], [ 25692.675, 5913509.625 ], [ 25692.675, 5913509.174999999813735 ], [ 25692.75, 5913509.174999999813735 ], [ 25692.75, 5913508.724999999627471 ], [ 25692.825, 5913508.724999999627471 ], [ 25692.825, 5913508.275000000372529 ], [ 25692.900000000001455, 5913508.275000000372529 ], [ 25692.900000000001455, 5913507.825000000186265 ], [ 25692.974999999998545, 5913507.825000000186265 ], [ 25692.974999999998545, 5913507.599999999627471 ], [ 25693.05, 5913507.599999999627471 ], [ 25693.05, 5913507.525000000372529 ], [ 25693.125, 5913507.525000000372529 ], [ 25693.125, 5913507.375 ], [ 25693.2, 5913507.375 ], [ 25693.2, 5913507.299999999813735 ], [ 25693.275000000001455, 5913507.299999999813735 ], [ 25693.275000000001455, 5913507.224999999627471 ], [ 25693.349999999998545, 5913507.224999999627471 ], [ 25693.349999999998545, 5913507.150000000372529 ], [ 25693.425, 5913507.150000000372529 ], [ 25693.425, 5913507.075000000186265 ], [ 25693.5, 5913507.075000000186265 ], [ 25693.5, 5913507.0 ], [ 25693.575, 5913507.0 ], [ 25693.575, 5913506.924999999813735 ], [ 25693.650000000001455, 5913506.924999999813735 ], [ 25693.650000000001455, 5913506.849999999627471 ], [ 25693.8, 5913506.849999999627471 ], [ 25693.8, 5913506.775000000372529 ], [ 25693.95, 5913506.775000000372529 ], [ 25693.95, 5913506.700000000186265 ], [ 25694.025000000001455, 5913506.700000000186265 ], [ 25694.025000000001455, 5913506.625 ], [ 25694.099999999998545, 5913506.625 ], [ 25694.099999999998545, 5913506.549999999813735 ], [ 25694.25, 5913506.549999999813735 ], [ 25694.25, 5913506.474999999627471 ], [ 25694.325, 5913506.474999999627471 ], [ 25694.325, 5913506.400000000372529 ], [ 25694.400000000001455, 5913506.400000000372529 ], [ 25694.400000000001455, 5913506.325000000186265 ], [ 25694.474999999998545, 5913506.325000000186265 ], [ 25694.474999999998545, 5913506.25 ], [ 25694.55, 5913506.25 ], [ 25694.55, 5913506.174999999813735 ], [ 25694.625, 5913506.174999999813735 ], [ 25694.625, 5913506.099999999627471 ], [ 25694.7, 5913506.099999999627471 ], [ 25694.7, 5913506.025000000372529 ], [ 25694.775000000001455, 5913506.025000000372529 ], [ 25694.775000000001455, 5913505.875 ], [ 25694.849999999998545, 5913505.875 ], [ 25694.849999999998545, 5913505.799999999813735 ], [ 25694.925, 5913505.799999999813735 ], [ 25694.925, 5913505.724999999627471 ], [ 25695.0, 5913505.724999999627471 ], [ 25695.0, 5913505.575000000186265 ], [ 25695.075, 5913505.575000000186265 ], [ 25695.075, 5913505.5 ], [ 25695.150000000001455, 5913505.5 ], [ 25695.150000000001455, 5913505.424999999813735 ], [ 25695.224999999998545, 5913505.424999999813735 ], [ 25695.224999999998545, 5913505.349999999627471 ], [ 25695.375, 5913505.349999999627471 ], [ 25695.375, 5913505.275000000372529 ], [ 25695.45, 5913505.275000000372529 ], [ 25695.45, 5913505.200000000186265 ], [ 25695.525000000001455, 5913505.200000000186265 ], [ 25695.525000000001455, 5913505.125 ], [ 25695.675, 5913505.125 ], [ 25695.675, 5913505.049999999813735 ], [ 25696.425, 5913505.049999999813735 ], [ 25696.425, 5913504.974999999627471 ], [ 25697.55, 5913504.974999999627471 ], [ 25697.55, 5913504.900000000372529 ], [ 25699.349999999998545, 5913504.900000000372529 ], [ 25699.349999999998545, 5913504.825000000186265 ], [ 25701.375, 5913504.825000000186265 ], [ 25701.375, 5913504.75 ], [ 25701.675, 5913504.75 ], [ 25701.675, 5913504.825000000186265 ], [ 25702.5, 5913504.825000000186265 ], [ 25702.5, 5913504.900000000372529 ], [ 25703.25, 5913504.900000000372529 ], [ 25703.25, 5913504.974999999627471 ], [ 25703.625, 5913504.974999999627471 ], [ 25703.625, 5913505.049999999813735 ], [ 25703.7, 5913505.049999999813735 ], [ 25703.7, 5913505.125 ], [ 25703.775000000001455, 5913505.125 ], [ 25703.775000000001455, 5913505.200000000186265 ], [ 25703.925, 5913505.200000000186265 ], [ 25703.925, 5913505.275000000372529 ], [ 25704.0, 5913505.275000000372529 ], [ 25704.0, 5913505.349999999627471 ], [ 25704.075, 5913505.349999999627471 ], [ 25704.075, 5913505.424999999813735 ], [ 25704.150000000001455, 5913505.424999999813735 ], [ 25704.150000000001455, 5913505.5 ], [ 25704.224999999998545, 5913505.5 ], [ 25704.224999999998545, 5913505.650000000372529 ], [ 25704.3, 5913505.650000000372529 ], [ 25704.3, 5913505.724999999627471 ], [ 25704.375, 5913505.724999999627471 ], [ 25704.375, 5913505.875 ], [ 25704.45, 5913505.875 ], [ 25704.45, 5913506.025000000372529 ], [ 25704.525000000001455, 5913506.025000000372529 ], [ 25704.525000000001455, 5913506.174999999813735 ], [ 25704.599999999998545, 5913506.174999999813735 ], [ 25704.599999999998545, 5913506.325000000186265 ], [ 25704.675, 5913506.325000000186265 ], [ 25704.675, 5913506.474999999627471 ], [ 25704.75, 5913506.474999999627471 ], [ 25704.75, 5913506.625 ], [ 25704.825, 5913506.625 ], [ 25704.825, 5913506.775000000372529 ], [ 25704.900000000001455, 5913506.775000000372529 ], [ 25704.900000000001455, 5913506.849999999627471 ], [ 25704.974999999998545, 5913506.849999999627471 ], [ 25704.974999999998545, 5913507.0 ], [ 25705.05, 5913507.0 ], [ 25705.05, 5913507.150000000372529 ], [ 25705.125, 5913507.150000000372529 ], [ 25705.125, 5913507.224999999627471 ], [ 25705.2, 5913507.224999999627471 ], [ 25705.2, 5913507.375 ], [ 25705.275000000001455, 5913507.375 ], [ 25705.275000000001455, 5913507.450000000186265 ], [ 25705.349999999998545, 5913507.450000000186265 ], [ 25705.349999999998545, 5913507.525000000372529 ], [ 25705.425, 5913507.525000000372529 ], [ 25705.425, 5913507.674999999813735 ], [ 25705.5, 5913507.674999999813735 ], [ 25705.5, 5913507.75 ], [ 25705.650000000001455, 5913507.75 ], [ 25705.650000000001455, 5913507.825000000186265 ], [ 25705.724999999998545, 5913507.825000000186265 ], [ 25705.724999999998545, 5913507.900000000372529 ], [ 25705.8, 5913507.900000000372529 ], [ 25705.8, 5913507.974999999627471 ], [ 25705.875, 5913507.974999999627471 ], [ 25705.875, 5913508.049999999813735 ], [ 25705.95, 5913508.049999999813735 ], [ 25705.95, 5913508.125 ], [ 25706.025000000001455, 5913508.125 ], [ 25706.025000000001455, 5913508.275000000372529 ], [ 25706.099999999998545, 5913508.275000000372529 ], [ 25706.099999999998545, 5913508.349999999627471 ], [ 25706.175, 5913508.349999999627471 ], [ 25706.175, 5913508.424999999813735 ], [ 25706.25, 5913508.424999999813735 ], [ 25706.25, 5913508.575000000186265 ], [ 25706.325, 5913508.575000000186265 ], [ 25706.325, 5913508.650000000372529 ], [ 25706.400000000001455, 5913508.650000000372529 ], [ 25706.400000000001455, 5913508.799999999813735 ], [ 25706.474999999998545, 5913508.799999999813735 ], [ 25706.474999999998545, 5913508.950000000186265 ], [ 25706.55, 5913508.950000000186265 ], [ 25706.55, 5913509.099999999627471 ], [ 25706.625, 5913509.099999999627471 ], [ 25706.625, 5913509.25 ], [ 25706.7, 5913509.25 ], [ 25706.7, 5913509.474999999627471 ], [ 25706.775000000001455, 5913509.474999999627471 ], [ 25706.775000000001455, 5913509.625 ], [ 25706.849999999998545, 5913509.625 ], [ 25706.849999999998545, 5913509.775000000372529 ], [ 25706.925, 5913509.775000000372529 ], [ 25706.925, 5913509.924999999813735 ], [ 25707.0, 5913509.924999999813735 ], [ 25707.0, 5913510.075000000186265 ], [ 25707.075, 5913510.075000000186265 ], [ 25707.075, 5913510.150000000372529 ], [ 25707.150000000001455, 5913510.150000000372529 ], [ 25707.150000000001455, 5913510.224999999627471 ], [ 25707.224999999998545, 5913510.224999999627471 ], [ 25707.224999999998545, 5913510.375 ], [ 25707.3, 5913510.375 ], [ 25707.3, 5913510.450000000186265 ], [ 25707.375, 5913510.450000000186265 ], [ 25707.375, 5913510.525000000372529 ], [ 25707.45, 5913510.525000000372529 ], [ 25707.45, 5913510.599999999627471 ], [ 25707.525000000001455, 5913510.599999999627471 ], [ 25707.525000000001455, 5913510.674999999813735 ], [ 25707.599999999998545, 5913510.674999999813735 ], [ 25707.599999999998545, 5913510.75 ], [ 25707.675, 5913510.75 ], [ 25707.675, 5913510.825000000186265 ], [ 25707.75, 5913510.825000000186265 ], [ 25707.75, 5913510.900000000372529 ], [ 25707.825, 5913510.900000000372529 ], [ 25707.825, 5913510.974999999627471 ], [ 25707.900000000001455, 5913510.974999999627471 ], [ 25707.900000000001455, 5913511.125 ], [ 25707.974999999998545, 5913511.125 ], [ 25707.974999999998545, 5913511.200000000186265 ], [ 25708.05, 5913511.200000000186265 ], [ 25708.05, 5913511.349999999627471 ], [ 25708.125, 5913511.349999999627471 ], [ 25708.125, 5913511.5 ], [ 25708.2, 5913511.5 ], [ 25708.2, 5913511.650000000372529 ], [ 25708.275000000001455, 5913511.650000000372529 ], [ 25708.275000000001455, 5913512.25 ], [ 25708.349999999998545, 5913512.25 ], [ 25708.349999999998545, 5913512.924999999813735 ], [ 25708.425, 5913512.924999999813735 ], [ 25708.425, 5913513.825000000186265 ], [ 25708.349999999998545, 5913513.825000000186265 ], [ 25708.349999999998545, 5913514.125 ], [ 25708.275000000001455, 5913514.125 ], [ 25708.275000000001455, 5913514.349999999627471 ], [ 25708.2, 5913514.349999999627471 ], [ 25708.2, 5913514.575000000186265 ], [ 25708.125, 5913514.575000000186265 ], [ 25708.125, 5913514.799999999813735 ], [ 25708.05, 5913514.799999999813735 ], [ 25708.05, 5913515.025000000372529 ], [ 25707.974999999998545, 5913515.025000000372529 ], [ 25707.974999999998545, 5913515.174999999813735 ], [ 25707.900000000001455, 5913515.174999999813735 ], [ 25707.900000000001455, 5913515.400000000372529 ], [ 25707.825, 5913515.400000000372529 ], [ 25707.825, 5913515.549999999813735 ], [ 25707.75, 5913515.549999999813735 ], [ 25707.75, 5913515.700000000186265 ], [ 25707.675, 5913515.700000000186265 ], [ 25707.675, 5913515.849999999627471 ], [ 25707.599999999998545, 5913515.849999999627471 ], [ 25707.599999999998545, 5913516.0 ], [ 25707.525000000001455, 5913516.0 ], [ 25707.525000000001455, 5913516.075000000186265 ], [ 25707.45, 5913516.075000000186265 ], [ 25707.45, 5913516.224999999627471 ], [ 25707.375, 5913516.224999999627471 ], [ 25707.375, 5913516.375 ], [ 25707.3, 5913516.375 ], [ 25707.3, 5913516.525000000372529 ], [ 25707.224999999998545, 5913516.525000000372529 ], [ 25707.224999999998545, 5913516.674999999813735 ], [ 25707.150000000001455, 5913516.674999999813735 ], [ 25707.150000000001455, 5913516.900000000372529 ], [ 25707.075, 5913516.900000000372529 ], [ 25707.075, 5913517.049999999813735 ], [ 25707.0, 5913517.049999999813735 ], [ 25707.0, 5913517.275000000372529 ], [ 25706.925, 5913517.275000000372529 ], [ 25706.925, 5913517.575000000186265 ], [ 25706.849999999998545, 5913517.575000000186265 ], [ 25706.849999999998545, 5913518.174999999813735 ], [ 25706.775000000001455, 5913518.174999999813735 ], [ 25706.775000000001455, 5913518.849999999627471 ], [ 25706.7, 5913518.849999999627471 ], [ 25706.7, 5913519.674999999813735 ], [ 25706.625, 5913519.674999999813735 ], [ 25706.625, 5913520.575000000186265 ], [ 25706.55, 5913520.575000000186265 ], [ 25706.55, 5913521.400000000372529 ], [ 25706.474999999998545, 5913521.400000000372529 ], [ 25706.474999999998545, 5913521.625 ], [ 25706.400000000001455, 5913521.625 ], [ 25706.400000000001455, 5913521.775000000372529 ], [ 25706.325, 5913521.775000000372529 ], [ 25706.325, 5913521.924999999813735 ], [ 25706.25, 5913521.924999999813735 ], [ 25706.25, 5913522.075000000186265 ], [ 25706.175, 5913522.075000000186265 ], [ 25706.175, 5913522.224999999627471 ], [ 25706.099999999998545, 5913522.224999999627471 ], [ 25706.099999999998545, 5913522.299999999813735 ], [ 25706.025000000001455, 5913522.299999999813735 ], [ 25706.025000000001455, 5913522.375 ], [ 25705.95, 5913522.375 ], [ 25705.95, 5913522.525000000372529 ], [ 25705.875, 5913522.525000000372529 ], [ 25705.875, 5913522.599999999627471 ], [ 25705.8, 5913522.599999999627471 ], [ 25705.8, 5913522.674999999813735 ], [ 25705.724999999998545, 5913522.674999999813735 ], [ 25705.724999999998545, 5913522.75 ], [ 25705.650000000001455, 5913522.75 ], [ 25705.650000000001455, 5913522.825000000186265 ], [ 25705.5, 5913522.825000000186265 ], [ 25705.5, 5913522.900000000372529 ], [ 25705.425, 5913522.900000000372529 ], [ 25705.425, 5913522.974999999627471 ], [ 25705.349999999998545, 5913522.974999999627471 ], [ 25705.349999999998545, 5913523.049999999813735 ], [ 25705.275000000001455, 5913523.049999999813735 ], [ 25705.275000000001455, 5913523.125 ], [ 25705.2, 5913523.125 ], [ 25705.2, 5913523.200000000186265 ], [ 25705.125, 5913523.200000000186265 ], [ 25705.125, 5913523.349999999627471 ], [ 25705.05, 5913523.349999999627471 ], [ 25705.05, 5913523.650000000372529 ], [ 25704.974999999998545, 5913523.650000000372529 ], [ 25704.974999999998545, 5913523.950000000186265 ], [ 25704.900000000001455, 5913523.950000000186265 ], [ 25704.900000000001455, 5913524.325000000186265 ], [ 25704.825, 5913524.325000000186265 ], [ 25704.825, 5913524.700000000186265 ], [ 25704.75, 5913524.700000000186265 ], [ 25704.75, 5913525.150000000372529 ], [ 25704.675, 5913525.150000000372529 ], [ 25704.675, 5913525.375 ], [ 25704.599999999998545, 5913525.375 ], [ 25704.599999999998545, 5913525.525000000372529 ], [ 25704.525000000001455, 5913525.525000000372529 ], [ 25704.525000000001455, 5913525.674999999813735 ], [ 25704.45, 5913525.674999999813735 ], [ 25704.45, 5913525.825000000186265 ], [ 25704.375, 5913525.825000000186265 ], [ 25704.375, 5913525.900000000372529 ], [ 25704.3, 5913525.900000000372529 ], [ 25704.3, 5913525.974999999627471 ], [ 25704.224999999998545, 5913525.974999999627471 ], [ 25704.224999999998545, 5913526.049999999813735 ], [ 25704.0, 5913526.049999999813735 ], [ 25704.0, 5913526.125 ], [ 25703.7, 5913526.125 ], [ 25703.7, 5913526.200000000186265 ], [ 25702.2, 5913526.200000000186265 ], [ 25702.2, 5913526.275000000372529 ], [ 25699.575, 5913526.275000000372529 ], [ 25699.575, 5913526.349999999627471 ], [ 25697.7, 5913526.349999999627471 ], [ 25697.7, 5913526.424999999813735 ], [ 25697.625, 5913526.424999999813735 ] ] ] } },
{ "type": "Feature", "properties": { "value": 1.0, "building_id": 2, "area": 340.6668750006678 }, "geometry": { "type": "Polygon", "coordinates": [ [ [ 25818.599999999998545, 5913120.525000000372529 ], [ 25818.599999999998545, 5913120.450000000186265 ], [ 25818.075, 5913120.450000000186265 ], [ 25818.075, 5913120.375 ], [ 25817.625, 5913120.375 ], [ 25817.625, 5913120.299999999813735 ], [ 25817.099999999998545, 5913120.299999999813735 ], [ 25817.099999999998545, 5913120.224999999627471 ], [ 25816.724999999998545, 5913120.224999999627471 ], [ 25816.724999999998545, 5913120.150000000372529 ], [ 25816.425, 5913120.150000000372529 ], [ 25816.425, 5913120.075000000186265 ], [ 25816.2, 5913120.075000000186265 ], [ 25816.2, 5913120.0 ], [ 25816.05, 5913120.0 ], [ 25816.05, 5913119.924999999813735 ], [ 25815.825, 5913119.924999999813735 ], [ 25815.825, 5913119.849999999627471 ], [ 25815.675, 5913119.849999999627471 ], [ 25815.675, 5913119.775000000372529 ], [ 25815.525000000001455, 5913119.775000000372529 ], [ 25815.525000000001455, 5913119.700000000186265 ], [ 25815.375, 5913119.700000000186265 ], [ 25815.375, 5913119.625 ], [ 25815.224999999998545, 5913119.625 ], [ 25815.224999999998545, 5913119.549999999813735 ], [ 25815.075, 5913119.549999999813735 ], [ 25815.075, 5913119.474999999627471 ], [ 25815.0, 5913119.474999999627471 ], [ 25815.0, 5913119.400000000372529 ], [ 25814.849999999998545, 5913119.400000000372529 ], [ 25814.849999999998545, 5913119.325000000186265 ], [ 25814.7, 5913119.325000000186265 ], [ 25814.7, 5913119.25 ], [ 25814.625, 5913119.25 ], [ 25814.625, 5913119.174999999813735 ], [ 25814.474999999998545, 5913119.174999999813735 ], [ 25814.474999999998545, 5913119.099999999627471 ], [ 25814.400000000001455, 5913119.099999999627471 ], [ 25814.400000000001455, 5913119.025000000372529 ], [ 25814.25, 5913119.025000000372529 ], [ 25814.25, 5913118.950000000186265 ], [ 25814.099999999998545, 5913118.950000000186265 ], [ 25814.099999999998545, 5913118.875 ], [ 25813.95, 5913118.875 ], [ 25813.95, 5913118.799999999813735 ], [ 25813.724999999998545, 5913118.799999999813735 ], [ 25813.724999999998545, 5913118.724999999627471 ], [ 25813.575, 5913118.724999999627471 ], [ 25813.575, 5913118.650000000372529 ], [ 25813.349999999998545, 5913118.650000000372529 ], [ 25813.349999999998545, 5913118.575000000186265 ], [ 25813.125, 5913118.575000000186265 ], [ 25813.125, 5913118.5 ], [ 25812.900000000001455, 5913118.5 ], [ 25812.900000000001455, 5913118.424999999813735 ], [ 25812.75, 5913118.424999999813735 ], [ 25812.75, 5913118.349999999627471 ], [ 25812.599999999998545, 5913118.349999999627471 ], [ 25812.599999999998545, 5913118.275000000372529 ], [ 25812.45, 5913118.275000000372529 ], [ 25812.45, 5913118.200000000186265 ], [ 25812.3, 5913118.200000000186265 ], [ 25812.3, 5913118.125 ], [ 25812.224999999998545, 5913118.125 ], [ 25812.224999999998545, 5913118.049999999813735 ], [ 25812.075, 5913118.049999999813735 ], [ 25812.075, 5913117.974999999627471 ], [ 25812.0, 5913117.974999999627471 ], [ 25812.0, 5913117.900000000372529 ], [ 25811.925, 5913117.900000000372529 ], [ 25811.925, 5913117.825000000186265 ], [ 25811.849999999998545, 5913117.825000000186265 ], [ 25811.849999999998545, 5913117.75 ], [ 25811.775000000001455, 5913117.75 ], [ 25811.775000000001455, 5913117.674999999813735 ], [ 25811.7, 5913117.674999999813735 ], [ 25811.7, 5913117.599999999627471 ], [ 25811.625, 5913117.599999999627471 ], [ 25811.625, 5913117.525000000372529 ], [ 25811.55, 5913117.525000000372529 ], [ 25811.55, 5913117.450000000186265 ], [ 25811.474999999998545, 5913117.450000000186265 ], [ 25811.474999999998545, 5913117.299999999813735 ], [ 25811.400000000001455, 5913117.299999999813735 ], [ 25811.400000000001455, 5913117.224999999627471 ], [ 25811.325, 5913117.224999999627471 ], [ 25811.325, 5913117.075000000186265 ], [ 25811.25, 5913117.075000000186265 ], [ 25811.25, 5913117.0 ], [ 25811.175, 5913117.0 ], [ 25811.175, 5913116.924999999813735 ], [ 25811.099999999998545, 5913116.924999999813735 ], [ 25811.099999999998545, 5913116.849999999627471 ], [ 25811.025000000001455, 5913116.849999999627471 ], [ 25811.025000000001455, 5913116.775000000372529 ], [ 25810.95, 5913116.775000000372529 ], [ 25810.95, 5913116.700000000186265 ], [ 25810.875, 5913116.700000000186265 ], [ 25810.875, 5913116.625 ], [ 25810.8, 5913116.625 ], [ 25810.8, 5913116.549999999813735 ], [ 25810.650000000001455, 5913116.549999999813735 ], [ 25810.650000000001455, 5913116.474999999627471 ], [ 25810.575, 5913116.474999999627471 ], [ 25810.575, 5913116.400000000372529 ], [ 25810.5, 5913116.400000000372529 ], [ 25810.5, 5913116.25 ], [ 25810.425, 5913116.25 ], [ 25810.425, 5913116.174999999813735 ], [ 25810.349999999998545, 5913116.174999999813735 ], [ 25810.349999999998545, 5913116.099999999627471 ], [ 25810.275000000001455, 5913116.099999999627471 ], [ 25810.275000000001455, 5913115.950000000186265 ], [ 25810.2, 5913115.950000000186265 ], [ 25810.2, 5913115.875 ], [ 25810.125, 5913115.875 ], [ 25810.125, 5913115.724999999627471 ], [ 25810.05, 5913115.724999999627471 ], [ 25810.05, 5913115.575000000186265 ], [ 25809.974999999998545, 5913115.575000000186265 ], [ 25809.974999999998545, 5913115.349999999627471 ], [ 25809.900000000001455, 5913115.349999999627471 ], [ 25809.900000000001455, 5913115.200000000186265 ], [ 25809.825, 5913115.200000000186265 ], [ 25809.825, 5913113.325000000186265 ], [ 25809.75, 5913113.325000000186265 ], [ 25809.75, 5913113.025000000372529 ], [ 25809.825, 5913113.025000000372529 ], [ 25809.825, 5913110.625 ], [ 25809.900000000001455, 5913110.625 ], [ 25809.900000000001455, 5913108.150000000372529 ], [ 25809.974999999998545, 5913108.150000000372529 ], [ 25809.974999999998545, 5913106.5 ], [ 25810.05, 5913106.5 ], [ 25810.05, 5913105.450000000186265 ], [ 25810.125, 5913105.450000000186265 ], [ 25810.125, 5913105.224999999627471 ], [ 25810.2, 5913105.224999999627471 ], [ 25810.2, 5913105.075000000186265 ], [ 25810.275000000001455, 5913105.075000000186265 ], [ 25810.275000000001455, 5913104.924999999813735 ], [ 25810.349999999998545, 5913104.924999999813735 ], [ 25810.349999999998545, 5913104.849999999627471 ], [ 25810.425, 5913104.849999999627471 ], [ 25810.425, 5913104.700000000186265 ], [ 25810.5, 5913104.700000000186265 ], [ 25810.5, 5913104.625 ], [ 25810.575, 5913104.625 ], [ 25810.575, 5913104.549999999813735 ], [ 25810.650000000001455, 5913104.549999999813735 ], [ 25810.650000000001455, 5913104.474999999627471 ], [ 25810.724999999998545, 5913104.474999999627471 ], [ 25810.724999999998545, 5913104.400000000372529 ], [ 25810.8, 5913104.400000000372529 ], [ 25810.8, 5913104.325000000186265 ], [ 25810.875, 5913104.325000000186265 ], [ 25810.875, 5913104.25 ], [ 25810.95, 5913104.25 ], [ 25810.95, 5913104.174999999813735 ], [ 25811.025000000001455, 5913104.174999999813735 ], [ 25811.025000000001455, 5913104.099999999627471 ], [ 25811.099999999998545, 5913104.099999999627471 ], [ 25811.099999999998545, 5913104.025000000372529 ], [ 25811.175, 5913104.025000000372529 ], [ 25811.175, 5913103.950000000186265 ], [ 25811.25, 5913103.950000000186265 ], [ 25811.25, 5913103.875 ], [ 25811.325, 5913103.875 ], [ 25811.325, 5913103.724999999627471 ], [ 25811.400000000001455, 5913103.724999999627471 ], [ 25811.400000000001455, 5913103.650000000372529 ], [ 25811.474999999998545, 5913103.650000000372529 ], [ 25811.474999999998545, 5913103.575000000186265 ], [ 25811.55, 5913103.575000000186265 ], [ 25811.55, 5913103.424999999813735 ], [ 25811.625, 5913103.424999999813735 ], [ 25811.625, 5913103.125 ], [ 25811.7, 5913103.125 ], [ 25811.7, 5913102.825000000186265 ], [ 25811.775000000001455, 5913102.825000000186265 ], [ 25811.775000000001455, 5913102.599999999627471 ], [ 25811.849999999998545, 5913102.599999999627471 ], [ 25811.849999999998545, 5913102.299999999813735 ], [ 25811.925, 5913102.299999999813735 ], [ 25811.925, 5913102.075000000186265 ], [ 25812.0, 5913102.075000000186265 ], [ 25812.0, 5913101.849999999627471 ], [ 25812.075, 5913101.849999999627471 ], [ 25812.075, 5913101.625 ], [ 25812.150000000001455, 5913101.625 ], [ 25812.150000000001455, 5913101.400000000372529 ], [ 25812.224999999998545, 5913101.400000000372529 ], [ 25812.224999999998545, 5913101.325000000186265 ], [ 25812.3, 5913101.325000000186265 ], [ 25812.3, 5913101.174999999813735 ], [ 25812.375, 5913101.174999999813735 ], [ 25812.375, 5913101.099999999627471 ], [ 25812.45, 5913101.099999999627471 ], [ 25812.45, 5913100.950000000186265 ], [ 25812.525000000001455, 5913100.950000000186265 ], [ 25812.525000000001455, 5913100.875 ], [ 25812.599999999998545, 5913100.875 ], [ 25812.599999999998545, 5913100.799999999813735 ], [ 25812.675, 5913100.799999999813735 ], [ 25812.675, 5913100.724999999627471 ], [ 25812.75, 5913100.724999999627471 ], [ 25812.75, 5913100.650000000372529 ], [ 25812.825, 5913100.650000000372529 ], [ 25812.825, 5913100.575000000186265 ], [ 25812.900000000001455, 5913100.575000000186265 ], [ 25812.900000000001455, 5913100.5 ], [ 25812.974999999998545, 5913100.5 ], [ 25812.974999999998545, 5913100.424999999813735 ], [ 25813.125, 5913100.424999999813735 ], [ 25813.125, 5913100.349999999627471 ], [ 25813.2, 5913100.349999999627471 ], [ 25813.2, 5913100.275000000372529 ], [ 25813.275000000001455, 5913100.275000000372529 ], [ 25813.275000000001455, 5913100.200000000186265 ], [ 25813.349999999998545, 5913100.200000000186265 ], [ 25813.349999999998545, 5913100.125 ], [ 25813.425, 5913100.125 ], [ 25813.425, 5913100.049999999813735 ], [ 25813.5, 5913100.049999999813735 ], [ 25813.5, 5913099.974999999627471 ], [ 25813.575, 5913099.974999999627471 ], [ 25813.575, 5913099.900000000372529 ], [ 25813.650000000001455, 5913099.900000000372529 ], [ 25813.650000000001455, 5913099.825000000186265 ], [ 25813.724999999998545, 5913099.825000000186265 ], [ 25813.724999999998545, 5913099.75 ], [ 25813.8, 5913099.75 ], [ 25813.8, 5913099.599999999627471 ], [ 25813.875, 5913099.599999999627471 ], [ 25813.875, 5913099.525000000372529 ], [ 25813.95, 5913099.525000000372529 ], [ 25813.95, 5913099.375 ], [ 25814.025000000001455, 5913099.375 ], [ 25814.025000000001455, 5913099.224999999627471 ], [ 25814.099999999998545, 5913099.224999999627471 ], [ 25814.099999999998545, 5913099.075000000186265 ], [ 25814.175, 5913099.075000000186265 ], [ 25814.175, 5913098.924999999813735 ], [ 25814.25, 5913098.924999999813735 ], [ 25814.25, 5913098.849999999627471 ], [ 25814.325, 5913098.849999999627471 ], [ 25814.325, 5913098.775000000372529 ], [ 25814.400000000001455, 5913098.775000000372529 ], [ 25814.400000000001455, 5913098.625 ], [ 25814.474999999998545, 5913098.625 ], [ 25814.474999999998545, 5913098.549999999813735 ], [ 25814.55, 5913098.549999999813735 ], [ 25814.55, 5913098.474999999627471 ], [ 25814.625, 5913098.474999999627471 ], [ 25814.625, 5913098.400000000372529 ], [ 25814.7, 5913098.400000000372529 ], [ 25814.7, 5913098.325000000186265 ], [ 25814.775000000001455, 5913098.325000000186265 ], [ 25814.775000000001455, 5913098.25 ], [ 25814.925, 5913098.25 ], [ 25814.925, 5913098.174999999813735 ], [ 25815.0, 5913098.174999999813735 ], [ 25815.0, 5913098.099999999627471 ], [ 25815.150000000001455, 5913098.099999999627471 ], [ 25815.150000000001455, 5913098.025000000372529 ], [ 25815.224999999998545, 5913098.025000000372529 ], [ 25815.224999999998545, 5913097.950000000186265 ], [ 25815.375, 5913097.950000000186265 ], [ 25815.375, 5913097.875 ], [ 25815.45, 5913097.875 ], [ 25815.45, 5913097.799999999813735 ], [ 25815.599999999998545, 5913097.799999999813735 ], [ 25815.599999999998545, 5913097.724999999627471 ], [ 25815.75, 5913097.724999999627471 ], [ 25815.75, 5913097.650000000372529 ], [ 25815.825, 5913097.650000000372529 ], [ 25815.825, 5913097.575000000186265 ], [ 25815.974999999998545, 5913097.575000000186265 ], [ 25815.974999999998545, 5913097.424999999813735 ], [ 25816.05, 5913097.424999999813735 ], [ 25816.05, 5913097.275000000372529 ], [ 25816.349999999998545, 5913097.275000000372529 ], [ 25816.349999999998545, 5913097.200000000186265 ], [ 25816.8, 5913097.200000000186265 ], [ 25816.8, 5913097.125 ], [ 25816.95, 5913097.125 ], [ 25816.95, 5913097.049999999813735 ], [ 25817.099999999998545, 5913097.049999999813735 ], [ 25817.099999999998545, 5913096.974999999627471 ], [ 25817.325, 5913096.974999999627471 ], [ 25817.325, 5913096.900000000372529 ], [ 25817.55, 5913096.900000000372529 ], [ 25817.55, 5913096.825000000186265 ], [ 25817.775000000001455, 5913096.825000000186265 ], [ 25817.775000000001455, 5913096.75 ], [ 25818.075, 5913096.75 ], [ 25818.075, 5913096.674999999813735 ], [ 25818.45, 5913096.674999999813735 ], [ 25818.45, 5913096.599999999627471 ], [ 25819.2, 5913096.599999999627471 ], [ 25819.2, 5913096.674999999813735 ], [ 25819.95, 5913096.674999999813735 ], [ 25819.95, 5913096.75 ], [ 25820.625, 5913096.75 ], [ 25820.625, 5913096.825000000186265 ], [ 25821.0, 5913096.825000000186265 ], [ 25821.0, 5913096.900000000372529 ], [ 25821.3, 5913096.900000000372529 ], [ 25821.3, 5913096.974999999627471 ], [ 25821.599999999998545, 5913096.974999999627471 ], [ 25821.599999999998545, 5913097.049999999813735 ], [ 25821.825, 5913097.049999999813735 ], [ 25821.825, 5913097.125 ], [ 25822.05, 5913097.125 ], [ 25822.05, 5913097.200000000186265 ], [ 25822.275000000001455, 5913097.200000000186265 ], [ 25822.275000000001455, 5913097.275000000372529 ], [ 25822.425, 5913097.275000000372529 ], [ 25822.425, 5913097.349999999627471 ], [ 25822.650000000001455, 5913097.349999999627471 ], [ 25822.650000000001455, 5913097.424999999813735 ], [ 25822.724999999998545, 5913097.424999999813735 ], [ 25822.724999999998545, 5913097.5 ], [ 25822.875, 5913097.5 ], [ 25822.875, 5913097.575000000186265 ], [ 25822.95, 5913097.575000000186265 ], [ 25822.95, 5913097.650000000372529 ], [ 25823.025000000001455, 5913097.650000000372529 ], [ 25823.025000000001455, 5913097.724999999627471 ], [ 25823.099999999998545, 5913097.724999999627471 ], [ 25823.099999999998545, 5913097.799999999813735 ], [ 25823.25, 5913097.799999999813735 ], [ 25823.25, 5913097.875 ], [ 25823.325, 5913097.875 ], [ 25823.325, 5913097.950000000186265 ], [ 25823.400000000001455, 5913097.950000000186265 ], [ 25823.400000000001455, 5913098.025000000372529 ], [ 25823.55, 5913098.025000000372529 ], [ 25823.55, 5913098.099999999627471 ], [ 25823.625, 5913098.099999999627471 ], [ 25823.625, 5913098.174999999813735 ], [ 25823.775000000001455, 5913098.174999999813735 ], [ 25823.775000000001455, 5913098.25 ], [ 25823.849999999998545, 5913098.25 ], [ 25823.849999999998545, 5913098.325000000186265 ], [ 25824.0, 5913098.325000000186265 ], [ 25824.0, 5913098.400000000372529 ], [ 25824.075, 5913098.400000000372529 ], [ 25824.075, 5913098.474999999627471 ], [ 25824.224999999998545, 5913098.474999999627471 ], [ 25824.224999999998545, 5913098.549999999813735 ], [ 25824.375, 5913098.549999999813735 ], [ 25824.375, 5913098.625 ], [ 25824.45, 5913098.625 ], [ 25824.45, 5913098.700000000186265 ], [ 25824.599999999998545, 5913098.700000000186265 ], [ 25824.599999999998545, 5913098.775000000372529 ], [ 25824.825, 5913098.775000000372529 ], [ 25824.825, 5913098.849999999627471 ], [ 25825.05, 5913098.849999999627471 ], [ 25825.05, 5913098.924999999813735 ], [ 25825.275000000001455, 5913098.924999999813735 ], [ 25825.275000000001455, 5913099.0 ], [ 25825.5, 5913099.0 ], [ 25825.5, 5913099.075000000186265 ], [ 25825.724999999998545, 5913099.075000000186265 ], [ 25825.724999999998545, 5913099.150000000372529 ], [ 25825.95, 5913099.150000000372529 ], [ 25825.95, 5913099.224999999627471 ], [ 25826.175, 5913099.224999999627471 ], [ 25826.175, 5913099.299999999813735 ], [ 25826.400000000001455, 5913099.299999999813735 ], [ 25826.400000000001455, 5913099.375 ], [ 25826.775000000001455, 5913099.375 ], [ 25826.775000000001455, 5913099.450000000186265 ], [ 25827.150000000001455, 5913099.450000000186265 ], [ 25827.150000000001455, 5913099.525000000372529 ], [ 25827.3, 5913099.525000000372529 ], [ 25827.3, 5913099.599999999627471 ], [ 25827.375, 5913099.599999999627471 ], [ 25827.375, 5913099.674999999813735 ], [ 25827.525000000001455, 5913099.674999999813735 ], [ 25827.525000000001455, 5913099.75 ], [ 25827.599999999998545, 5913099.75 ], [ 25827.599999999998545, 5913099.825000000186265 ], [ 25827.675, 5913099.825000000186265 ], [ 25827.675, 5913099.900000000372529 ], [ 25827.75, 5913099.900000000372529 ], [ 25827.75, 5913099.974999999627471 ], [ 25827.825, 5913099.974999999627471 ], [ 25827.825, 5913100.049999999813735 ], [ 25827.974999999998545, 5913100.049999999813735 ], [ 25827.974999999998545, 5913100.200000000186265 ], [ 25828.05, 5913100.200000000186265 ], [ 25828.05, 5913100.275000000372529 ], [ 25828.125, 5913100.275000000372529 ], [ 25828.125, 5913100.349999999627471 ], [ 25828.2, 5913100.349999999627471 ], [ 25828.2, 5913100.424999999813735 ], [ 25828.275000000001455, 5913100.424999999813735 ], [ 25828.275000000001455, 5913100.5 ], [ 25828.349999999998545, 5913100.5 ], [ 25828.349999999998545, 5913100.650000000372529 ], [ 25828.425, 5913100.650000000372529 ], [ 25828.425, 5913100.724999999627471 ], [ 25828.5, 5913100.724999999627471 ], [ 25828.5, 5913100.875 ], [ 25828.575, 5913100.875 ], [ 25828.575, 5913101.025000000372529 ], [ 25828.650000000001455, 5913101.025000000372529 ], [ 25828.650000000001455, 5913101.174999999813735 ], [ 25828.724999999998545, 5913101.174999999813735 ], [ 25828.724999999998545, 5913101.325000000186265 ], [ 25828.8, 5913101.325000000186265 ], [ 25828.8, 5913101.400000000372529 ], [ 25828.875, 5913101.400000000372529 ], [ 25828.875, 5913101.474999999627471 ], [ 25828.95, 5913101.474999999627471 ], [ 25828.95, 5913101.625 ], [ 25829.025000000001455, 5913101.625 ], [ 25829.025000000001455, 5913101.700000000186265 ], [ 25829.099999999998545, 5913101.700000000186265 ], [ 25829.099999999998545, 5913101.775000000372529 ], [ 25829.175, 5913101.775000000372529 ], [ 25829.175, 5913101.849999999627471 ], [ 25829.25, 5913101.849999999627471 ], [ 25829.25, 5913101.924999999813735 ], [ 25829.325, 5913101.924999999813735 ], [ 25829.325, 5913102.0 ], [ 25829.400000000001455, 5913102.0 ], [ 25829.400000000001455, 5913102.150000000372529 ], [ 25829.474999999998545, 5913102.150000000372529 ], [ 25829.474999999998545, 5913102.224999999627471 ], [ 25829.55, 5913102.224999999627471 ], [ 25829.55, 5913102.299999999813735 ], [ 25829.625, 5913102.299999999813735 ], [ 25829.625, 5913102.450000000186265 ], [ 25829.7, 5913102.450000000186265 ], [ 25829.7, 5913102.525000000372529 ], [ 25829.775000000001455, 5913102.525000000372529 ], [ 25829.775000000001455, 5913102.674999999813735 ], [ 25829.849999999998545, 5913102.674999999813735 ], [ 25829.849999999998545, 5913102.825000000186265 ], [ 25829.925, 5913102.825000000186265 ], [ 25829.925, 5913102.900000000372529 ], [ 25830.0, 5913102.900000000372529 ], [ 25830.0, 5913103.125 ], [ 25829.925, 5913103.125 ], [ 25829.925, 5913103.5 ], [ 25829.849999999998545, 5913103.5 ], [ 25829.849999999998545, 5913103.724999999627471 ], [ 25829.775000000001455, 5913103.724999999627471 ], [ 25829.775000000001455, 5913104.025000000372529 ], [ 25829.7, 5913104.025000000372529 ], [ 25829.7, 5913104.25 ], [ 25829.625, 5913104.25 ], [ 25829.625, 5913104.400000000372529 ], [ 25829.55, 5913104.400000000372529 ], [ 25829.55, 5913104.625 ], [ 25829.474999999998545, 5913104.625 ], [ 25829.474999999998545, 5913104.849999999627471 ], [ 25829.400000000001455, 5913104.849999999627471 ], [ 25829.400000000001455, 5913105.075000000186265 ], [ 25829.325, 5913105.075000000186265 ], [ 25829.325, 5913105.224999999627471 ], [ 25829.25, 5913105.224999999627471 ], [ 25829.25, 5913105.375 ], [ 25829.175, 5913105.375 ], [ 25829.175, 5913105.450000000186265 ], [ 25829.099999999998545, 5913105.450000000186265 ], [ 25829.099999999998545, 5913105.525000000372529 ], [ 25829.025000000001455, 5913105.525000000372529 ], [ 25829.025000000001455, 5913105.599999999627471 ], [ 25828.95, 5913105.599999999627471 ], [ 25828.95, 5913105.674999999813735 ], [ 25828.875, 5913105.674999999813735 ], [ 25828.875, 5913105.75 ], [ 25828.8, 5913105.75 ], [ 25828.8, 5913105.825000000186265 ], [ 25828.724999999998545, 5913105.825000000186265 ], [ 25828.724999999998545, 5913105.900000000372529 ], [ 25828.575, 5913105.900000000372529 ], [ 25828.575, 5913105.974999999627471 ], [ 25828.5, 5913105.974999999627471 ], [ 25828.5, 5913106.049999999813735 ], [ 25828.425, 5913106.049999999813735 ], [ 25828.425, 5913106.125 ], [ 25828.349999999998545, 5913106.125 ], [ 25828.349999999998545, 5913106.275000000372529 ], [ 25828.275000000001455, 5913106.275000000372529 ], [ 25828.275000000001455, 5913106.349999999627471 ], [ 25828.2, 5913106.349999999627471 ], [ 25828.2, 5913106.5 ], [ 25828.125, 5913106.5 ], [ 25828.125, 5913106.650000000372529 ], [ 25828.05, 5913106.650000000372529 ], [ 25828.05, 5913106.724999999627471 ], [ 25827.974999999998545, 5913106.724999999627471 ], [ 25827.974999999998545, 5913106.875 ], [ 25827.900000000001455, 5913106.875 ], [ 25827.900000000001455, 5913107.025000000372529 ], [ 25827.825, 5913107.025000000372529 ], [ 25827.825, 5913107.25 ], [ 25827.75, 5913107.25 ], [ 25827.75, 5913107.400000000372529 ], [ 25827.675, 5913107.400000000372529 ], [ 25827.675, 5913107.549999999813735 ], [ 25827.599999999998545, 5913107.549999999813735 ], [ 25827.599999999998545, 5913107.700000000186265 ], [ 25827.525000000001455, 5913107.700000000186265 ], [ 25827.525000000001455, 5913107.849999999627471 ], [ 25827.45, 5913107.849999999627471 ], [ 25827.45, 5913107.924999999813735 ], [ 25827.375, 5913107.924999999813735 ], [ 25827.375, 5913108.075000000186265 ], [ 25827.3, 5913108.075000000186265 ], [ 25827.3, 5913108.150000000372529 ], [ 25827.224999999998545, 5913108.150000000372529 ], [ 25827.224999999998545, 5913108.224999999627471 ], [ 25827.150000000001455, 5913108.224999999627471 ], [ 25827.150000000001455, 5913108.299999999813735 ], [ 25827.075, 5913108.299999999813735 ], [ 25827.075, 5913108.375 ], [ 25827.0, 5913108.375 ], [ 25827.0, 5913108.450000000186265 ], [ 25826.925, 5913108.450000000186265 ], [ 25826.925, 5913108.525000000372529 ], [ 25826.849999999998545, 5913108.525000000372529 ], [ 25826.849999999998545, 5913108.599999999627471 ], [ 25826.775000000001455, 5913108.599999999627471 ], [ 25826.775000000001455, 5913108.674999999813735 ], [ 25826.7, 5913108.674999999813735 ], [ 25826.7, 5913108.75 ], [ 25826.55, 5913108.75 ], [ 25826.55, 5913108.825000000186265 ], [ 25826.474999999998545, 5913108.825000000186265 ], [ 25826.474999999998545, 5913108.900000000372529 ], [ 25826.400000000001455, 5913108.900000000372529 ], [ 25826.400000000001455, 5913108.974999999627471 ], [ 25826.325, 5913108.974999999627471 ], [ 25826.325, 5913109.125 ], [ 25826.25, 5913109.125 ], [ 25826.25, 5913109.200000000186265 ], [ 25826.175, 5913109.200000000186265 ], [ 25826.175, 5913109.349999999627471 ], [ 25826.099999999998545, 5913109.349999999627471 ], [ 25826.099999999998545, 5913109.650000000372529 ], [ 25826.025000000001455, 5913109.650000000372529 ], [ 25826.025000000001455, 5913110.025000000372529 ], [ 25825.95, 5913110.025000000372529 ], [ 25825.95, 5913110.400000000372529 ], [ 25825.875, 5913110.400000000372529 ], [ 25825.875, 5913110.849999999627471 ], [ 25825.8, 5913110.849999999627471 ], [ 25825.8, 5913111.224999999627471 ], [ 25825.724999999998545, 5913111.224999999627471 ], [ 25825.724999999998545, 5913111.525000000372529 ], [ 25825.650000000001455, 5913111.525000000372529 ], [ 25825.650000000001455, 5913111.825000000186265 ], [ 25825.575, 5913111.825000000186265 ], [ 25825.575, 5913112.049999999813735 ], [ 25825.5, 5913112.049999999813735 ], [ 25825.5, 5913112.349999999627471 ], [ 25825.425, 5913112.349999999627471 ], [ 25825.425, 5913112.575000000186265 ], [ 25825.349999999998545, 5913112.575000000186265 ], [ 25825.349999999998545, 5913112.724999999627471 ], [ 25825.275000000001455, 5913112.724999999627471 ], [ 25825.275000000001455, 5913112.950000000186265 ], [ 25825.2, 5913112.950000000186265 ], [ 25825.2, 5913113.099999999627471 ], [ 25825.125, 5913113.099999999627471 ], [ 25825.125, 5913113.325000000186265 ], [ 25825.05, 5913113.325000000186265 ], [ 25825.05, 5913113.549999999813735 ], [ 25824.974999999998545, 5913113.549999999813735 ], [ 25824.974999999998545, 5913113.700000000186265 ], [ 25824.900000000001455, 5913113.700000000186265 ], [ 25824.900000000001455, 5913113.849999999627471 ], [ 25824.825, 5913113.849999999627471 ], [ 25824.825, 5913114.0 ], [ 25824.75, 5913114.0 ], [ 25824.75, 5913114.150000000372529 ], [ 25824.675, 5913114.150000000372529 ], [ 25824.675, 5913114.299999999813735 ], [ 25824.599999999998545, 5913114.299999999813735 ], [ 25824.599999999998545, 5913114.450000000186265 ], [ 25824.525000000001455, 5913114.450000000186265 ], [ 25824.525000000001455, 5913114.599999999627471 ], [ 25824.45, 5913114.599999999627471 ], [ 25824.45, 5913114.75 ], [ 25824.375, 5913114.75 ], [ 25824.375, 5913114.974999999627471 ], [ 25824.3, 5913114.974999999627471 ], [ 25824.3, 5913115.200000000186265 ], [ 25824.224999999998545, 5913115.200000000186265 ], [ 25824.224999999998545, 5913115.575000000186265 ], [ 25824.150000000001455, 5913115.575000000186265 ], [ 25824.150000000001455, 5913115.950000000186265 ], [ 25824.075, 5913115.950000000186265 ], [ 25824.075, 5913116.325000000186265 ], [ 25824.0, 5913116.325000000186265 ], [ 25824.0, 5913116.775000000372529 ], [ 25823.925, 5913116.775000000372529 ], [ 25823.925, 5913117.075000000186265 ], [ 25823.849999999998545, 5913117.075000000186265 ], [ 25823.849999999998545, 5913117.299999999813735 ], [ 25823.775000000001455, 5913117.299999999813735 ], [ 25823.775000000001455, 5913117.450000000186265 ], [ 25823.7, 5913117.450000000186265 ], [ 25823.7, 5913117.525000000372529 ], [ 25823.625, 5913117.525000000372529 ], [ 25823.625, 5913117.674999999813735 ], [ 25823.55, 5913117.674999999813735 ], [ 25823.55, 5913117.75 ], [ 25823.474999999998545, 5913117.75 ], [ 25823.474999999998545, 5913117.900000000372529 ], [ 25823.400000000001455, 5913117.900000000372529 ], [ 25823.400000000001455, 5913117.974999999627471 ], [ 25823.325, 5913117.974999999627471 ], [ 25823.325, 5913118.049999999813735 ], [ 25823.25, 5913118.049999999813735 ], [ 25823.25, 5913118.125 ], [ 25823.175, 5913118.125 ], [ 25823.175, 5913118.200000000186265 ], [ 25823.099999999998545, 5913118.200000000186265 ], [ 25823.099999999998545, 5913118.275000000372529 ], [ 25823.025000000001455, 5913118.275000000372529 ], [ 25823.025000000001455, 5913118.349999999627471 ], [ 25822.95, 5913118.349999999627471 ], [ 25822.95, 5913118.424999999813735 ], [ 25822.8, 5913118.424999999813735 ], [ 25822.8, 5913118.5 ], [ 25822.724999999998545, 5913118.5 ], [ 25822.724999999998545, 5913118.575000000186265 ], [ 25822.575, 5913118.575000000186265 ], [ 25822.575, 5913118.650000000372529 ], [ 25822.5, 5913118.650000000372529 ], [ 25822.5, 5913118.724999999627471 ], [ 25822.425, 5913118.724999999627471 ], [ 25822.425, 5913118.799999999813735 ], [ 25822.349999999998545, 5913118.799999999813735 ], [ 25822.349999999998545, 5913118.875 ], [ 25822.275000000001455, 5913118.875 ], [ 25822.275000000001455, 5913119.025000000372529 ], [ 25822.2, 5913119.025000000372529 ], [ 25822.2, 5913119.099999999627471 ], [ 25822.125, 5913119.099999999627471 ], [ 25822.125, 5913119.25 ], [ 25822.05, 5913119.25 ], [ 25822.05, 5913119.325000000186265 ], [ 25821.974999999998545, 5913119.325000000186265 ], [ 25821.974999999998545, 5913119.400000000372529 ], [ 25821.900000000001455, 5913119.400000000372529 ], [ 25821.900000000001455, 5913119.549999999813735 ], [ 25821.825, 5913119.549999999813735 ], [ 25821.825, 5913119.625 ], [ 25821.75, 5913119.625 ], [ 25821.75, 5913119.700000000186265 ], [ 25821.675, 5913119.700000000186265 ], [ 25821.675, 5913119.775000000372529 ], [ 25821.599999999998545, 5913119.775000000372529 ], [ 25821.599999999998545, 5913119.849999999627471 ], [ 25821.525000000001455, 5913119.849999999627471 ], [ 25821.525000000001455, 5913119.924999999813735 ], [ 25821.375, 5913119.924999999813735 ], [ 25821.375, 5913120.0 ], [ 25821.3, 5913120.0 ], [ 25821.3, 5913120.075000000186265 ], [ 25821.150000000001455, 5913120.075000000186265 ], [ 25821.150000000001455, 5913120.150000000372529 ], [ 25821.075, 5913120.150000000372529 ], [ 25821.075, 5913120.224999999627471 ], [ 25820.925, 5913120.224999999627471 ], [ 25820.925, 5913120.299999999813735 ], [ 25820.775000000001455, 5913120.299999999813735 ], [ 25820.775000000001455, 5913120.375 ], [ 25820.175, 5913120.375 ], [ 25820.175, 5913120.450000000186265 ], [ 25819.05, 5913120.450000000186265 ], [ 25819.05, 5913120.525000000372529 ], [ 25818.599999999998545, 5913120.525000000372529 ] ] ] } },
{ "type": "Feature", "properties": { "value": 1.0, "building_id": 3, "area": 252.70874999973356 }, "geometry": { "type": "Polygon", "coordinates": [ [ [ 25809.675, 5913065.174999999813735 ], [ 25809.675, 5913065.099999999627471 ], [ 25808.925, 5913065.099999999627471 ], [ 25808.925, 5913065.025000000372529 ], [ 25808.7, 5913065.025000000372529 ], [ 25808.7, 5913064.950000000186265 ], [ 25808.55, 5913064.950000000186265 ], [ 25808.55, 5913064.875 ], [ 25808.325, 5913064.875 ], [ 25808.325, 5913064.799999999813735 ], [ 25808.25, 5913064.799999999813735 ], [ 25808.25, 5913064.724999999627471 ], [ 25808.099999999998545, 5913064.724999999627471 ], [ 25808.099999999998545, 5913064.650000000372529 ], [ 25807.95, 5913064.650000000372529 ], [ 25807.95, 5913064.575000000186265 ], [ 25807.875, 5913064.575000000186265 ], [ 25807.875, 5913064.5 ], [ 25807.724999999998545, 5913064.5 ], [ 25807.724999999998545, 5913064.424999999813735 ], [ 25807.650000000001455, 5913064.424999999813735 ], [ 25807.650000000001455, 5913064.349999999627471 ], [ 25807.575, 5913064.349999999627471 ], [ 25807.575, 5913064.275000000372529 ], [ 25807.5, 5913064.275000000372529 ], [ 25807.5, 5913064.200000000186265 ], [ 25807.349999999998545, 5913064.200000000186265 ], [ 25807.349999999998545, 5913064.125 ], [ 25807.275000000001455, 5913064.125 ], [ 25807.275000000001455, 5913064.049999999813735 ], [ 25807.125, 5913064.049999999813735 ], [ 25807.125, 5913063.974999999627471 ], [ 25807.05, 5913063.974999999627471 ], [ 25807.05, 5913063.900000000372529 ], [ 25806.675, 5913063.900000000372529 ], [ 25806.675, 5913063.825000000186265 ], [ 25806.3, 5913063.825000000186265 ], [ 25806.3, 5913063.75 ], [ 25805.849999999998545, 5913063.75 ], [ 25805.849999999998545, 5913063.674999999813735 ], [ 25805.400000000001455, 5913063.674999999813735 ], [ 25805.400000000001455, 5913063.599999999627471 ], [ 25804.650000000001455, 5913063.599999999627471 ], [ 25804.650000000001455, 5913063.525000000372529 ], [ 25803.525000000001455, 5913063.525000000372529 ], [ 25803.525000000001455, 5913063.450000000186265 ], [ 25803.0, 5913063.450000000186265 ], [ 25803.0, 5913063.375 ], [ 25802.849999999998545, 5913063.375 ], [ 25802.849999999998545, 5913063.299999999813735 ], [ 25802.7, 5913063.299999999813735 ], [ 25802.7, 5913063.224999999627471 ], [ 25802.55, 5913063.224999999627471 ], [ 25802.55, 5913063.150000000372529 ], [ 25802.400000000001455, 5913063.150000000372529 ], [ 25802.400000000001455, 5913063.075000000186265 ], [ 25802.325, 5913063.075000000186265 ], [ 25802.325, 5913063.0 ], [ 25802.175, 5913063.0 ], [ 25802.175, 5913062.924999999813735 ], [ 25802.099999999998545, 5913062.924999999813735 ], [ 25802.099999999998545, 5913062.849999999627471 ], [ 25802.025000000001455, 5913062.849999999627471 ], [ 25802.025000000001455, 5913062.775000000372529 ], [ 25801.95, 5913062.775000000372529 ], [ 25801.95, 5913062.700000000186265 ], [ 25801.875, 5913062.700000000186265 ], [ 25801.875, 5913062.625 ], [ 25801.8, 5913062.625 ], [ 25801.8, 5913062.474999999627471 ], [ 25801.724999999998545, 5913062.474999999627471 ], [ 25801.724999999998545, 5913062.400000000372529 ], [ 25801.650000000001455, 5913062.400000000372529 ], [ 25801.650000000001455, 5913062.325000000186265 ], [ 25801.575, 5913062.325000000186265 ], [ 25801.575, 5913062.25 ], [ 25801.5, 5913062.25 ], [ 25801.5, 5913062.174999999813735 ], [ 25801.425, 5913062.174999999813735 ], [ 25801.425, 5913062.099999999627471 ], [ 25801.349999999998545, 5913062.099999999627471 ], [ 25801.349999999998545, 5913062.025000000372529 ], [ 25801.275000000001455, 5913062.025000000372529 ], [ 25801.275000000001455, 5913061.950000000186265 ], [ 25801.2, 5913061.950000000186265 ], [ 25801.2, 5913061.875 ], [ 25800.974999999998545, 5913061.875 ], [ 25800.974999999998545, 5913061.799999999813735 ], [ 25800.825, 5913061.799999999813735 ], [ 25800.825, 5913061.724999999627471 ], [ 25800.675, 5913061.724999999627471 ], [ 25800.675, 5913061.650000000372529 ], [ 25800.525000000001455, 5913061.650000000372529 ], [ 25800.525000000001455, 5913061.575000000186265 ], [ 25800.375, 5913061.575000000186265 ], [ 25800.375, 5913061.5 ], [ 25800.224999999998545, 5913061.5 ], [ 25800.224999999998545, 5913061.424999999813735 ], [ 25800.150000000001455, 5913061.424999999813735 ], [ 25800.150000000001455, 5913061.349999999627471 ], [ 25800.0, 5913061.349999999627471 ], [ 25800.0, 5913061.275000000372529 ], [ 25799.925, 5913061.275000000372529 ], [ 25799.925, 5913061.200000000186265 ], [ 25799.775000000001455, 5913061.200000000186265 ], [ 25799.775000000001455, 5913061.125 ], [ 25799.7, 5913061.125 ], [ 25799.7, 5913061.049999999813735 ], [ 25799.55, 5913061.049999999813735 ], [ 25799.55, 5913060.974999999627471 ], [ 25799.474999999998545, 5913060.974999999627471 ], [ 25799.474999999998545, 5913060.900000000372529 ], [ 25799.400000000001455, 5913060.900000000372529 ], [ 25799.400000000001455, 5913060.825000000186265 ], [ 25799.25, 5913060.825000000186265 ], [ 25799.25, 5913060.75 ], [ 25799.175, 5913060.75 ], [ 25799.175, 5913060.674999999813735 ], [ 25799.099999999998545, 5913060.674999999813735 ], [ 25799.099999999998545, 5913060.525000000372529 ], [ 25799.025000000001455, 5913060.525000000372529 ], [ 25799.025000000001455, 5913060.450000000186265 ], [ 25798.95, 5913060.450000000186265 ], [ 25798.95, 5913060.299999999813735 ], [ 25798.875, 5913060.299999999813735 ], [ 25798.875, 5913060.075000000186265 ], [ 25798.8, 5913060.075000000186265 ], [ 25798.8, 5913059.849999999627471 ], [ 25798.724999999998545, 5913059.849999999627471 ], [ 25798.724999999998545, 5913059.625 ], [ 25798.650000000001455, 5913059.625 ], [ 25798.650000000001455, 5913059.325000000186265 ], [ 25798.575, 5913059.325000000186265 ], [ 25798.575, 5913059.025000000372529 ], [ 25798.5, 5913059.025000000372529 ], [ 25798.5, 5913058.724999999627471 ], [ 25798.425, 5913058.724999999627471 ], [ 25798.425, 5913058.125 ], [ 25798.5, 5913058.125 ], [ 25798.5, 5913057.599999999627471 ], [ 25798.575, 5913057.599999999627471 ], [ 25798.575, 5913057.075000000186265 ], [ 25798.650000000001455, 5913057.075000000186265 ], [ 25798.650000000001455, 5913056.700000000186265 ], [ 25798.724999999998545, 5913056.700000000186265 ], [ 25798.724999999998545, 5913056.400000000372529 ], [ 25798.8, 5913056.400000000372529 ], [ 25798.8, 5913056.25 ], [ 25798.875, 5913056.25 ], [ 25798.875, 5913056.099999999627471 ], [ 25798.95, 5913056.099999999627471 ], [ 25798.95, 5913055.950000000186265 ], [ 25799.025000000001455, 5913055.950000000186265 ], [ 25799.025000000001455, 5913055.799999999813735 ], [ 25799.099999999998545, 5913055.799999999813735 ], [ 25799.099999999998545, 5913055.724999999627471 ], [ 25799.175, 5913055.724999999627471 ], [ 25799.175, 5913055.575000000186265 ], [ 25799.25, 5913055.575000000186265 ], [ 25799.25, 5913055.5 ], [ 25799.325, 5913055.5 ], [ 25799.325, 5913055.349999999627471 ], [ 25799.400000000001455, 5913055.349999999627471 ], [ 25799.400000000001455, 5913055.200000000186265 ], [ 25799.474999999998545, 5913055.200000000186265 ], [ 25799.474999999998545, 5913055.049999999813735 ], [ 25799.55, 5913055.049999999813735 ], [ 25799.55, 5913054.900000000372529 ], [ 25799.625, 5913054.900000000372529 ], [ 25799.625, 5913054.75 ], [ 25799.7, 5913054.75 ], [ 25799.7, 5913054.450000000186265 ], [ 25799.775000000001455, 5913054.450000000186265 ], [ 25799.775000000001455, 5913053.924999999813735 ], [ 25799.849999999998545, 5913053.924999999813735 ], [ 25799.849999999998545, 5913053.400000000372529 ], [ 25799.925, 5913053.400000000372529 ], [ 25799.925, 5913052.875 ], [ 25800.0, 5913052.875 ], [ 25800.0, 5913052.5 ], [ 25800.075, 5913052.5 ], [ 25800.075, 5913052.275000000372529 ], [ 25800.150000000001455, 5913052.275000000372529 ], [ 25800.150000000001455, 5913052.049999999813735 ], [ 25800.224999999998545, 5913052.049999999813735 ], [ 25800.224999999998545, 5913051.900000000372529 ], [ 25800.3, 5913051.900000000372529 ], [ 25800.3, 5913051.75 ], [ 25800.375, 5913051.75 ], [ 25800.375, 5913051.674999999813735 ], [ 25800.525000000001455, 5913051.674999999813735 ], [ 25800.525000000001455, 5913051.599999999627471 ], [ 25800.75, 5913051.599999999627471 ], [ 25800.75, 5913051.525000000372529 ], [ 25800.974999999998545, 5913051.525000000372529 ], [ 25800.974999999998545, 5913051.450000000186265 ], [ 25801.8, 5913051.450000000186265 ], [ 25801.8, 5913051.375 ], [ 25803.150000000001455, 5913051.375 ], [ 25803.150000000001455, 5913051.299999999813735 ], [ 25803.3, 5913051.299999999813735 ], [ 25803.3, 5913051.224999999627471 ], [ 25803.375, 5913051.224999999627471 ], [ 25803.375, 5913051.150000000372529 ], [ 25803.525000000001455, 5913051.150000000372529 ], [ 25803.525000000001455, 5913051.075000000186265 ], [ 25803.599999999998545, 5913051.075000000186265 ], [ 25803.599999999998545, 5913051.0 ], [ 25803.75, 5913051.0 ], [ 25803.75, 5913050.924999999813735 ], [ 25803.825, 5913050.924999999813735 ], [ 25803.825, 5913050.849999999627471 ], [ 25803.900000000001455, 5913050.849999999627471 ], [ 25803.900000000001455, 5913050.775000000372529 ], [ 25803.974999999998545, 5913050.775000000372529 ], [ 25803.974999999998545, 5913050.700000000186265 ], [ 25804.05, 5913050.700000000186265 ], [ 25804.05, 5913050.625 ], [ 25804.125, 5913050.625 ], [ 25804.125, 5913050.549999999813735 ], [ 25804.2, 5913050.549999999813735 ], [ 25804.2, 5913050.474999999627471 ], [ 25804.275000000001455, 5913050.474999999627471 ], [ 25804.275000000001455, 5913050.400000000372529 ], [ 25804.425, 5913050.400000000372529 ], [ 25804.425, 5913050.325000000186265 ], [ 25804.5, 5913050.325000000186265 ], [ 25804.5, 5913050.25 ], [ 25804.650000000001455, 5913050.25 ], [ 25804.650000000001455, 5913050.174999999813735 ], [ 25804.8, 5913050.174999999813735 ], [ 25804.8, 5913050.099999999627471 ], [ 25804.875, 5913050.099999999627471 ], [ 25804.875, 5913050.025000000372529 ], [ 25805.099999999998545, 5913050.025000000372529 ], [ 25805.099999999998545, 5913049.950000000186265 ], [ 25805.325, 5913049.950000000186265 ], [ 25805.325, 5913049.875 ], [ 25805.55, 5913049.875 ], [ 25805.55, 5913049.799999999813735 ], [ 25805.849999999998545, 5913049.799999999813735 ], [ 25805.849999999998545, 5913049.724999999627471 ], [ 25806.075, 5913049.724999999627471 ], [ 25806.075, 5913049.650000000372529 ], [ 25806.3, 5913049.650000000372529 ], [ 25806.3, 5913049.575000000186265 ], [ 25806.525000000001455, 5913049.575000000186265 ], [ 25806.525000000001455, 5913049.5 ], [ 25806.75, 5913049.5 ], [ 25806.75, 5913049.424999999813735 ], [ 25806.974999999998545, 5913049.424999999813735 ], [ 25806.974999999998545, 5913049.349999999627471 ], [ 25807.275000000001455, 5913049.349999999627471 ], [ 25807.275000000001455, 5913049.275000000372529 ], [ 25807.575, 5913049.275000000372529 ], [ 25807.575, 5913049.200000000186265 ], [ 25807.875, 5913049.200000000186265 ], [ 25807.875, 5913049.125 ], [ 25808.175, 5913049.125 ], [ 25808.175, 5913049.049999999813735 ], [ 25808.400000000001455, 5913049.049999999813735 ], [ 25808.400000000001455, 5913048.974999999627471 ], [ 25809.075, 5913048.974999999627471 ], [ 25809.075, 5913049.049999999813735 ], [ 25809.675, 5913049.049999999813735 ], [ 25809.675, 5913049.125 ], [ 25810.275000000001455, 5913049.125 ], [ 25810.275000000001455, 5913049.200000000186265 ], [ 25810.95, 5913049.200000000186265 ], [ 25810.95, 5913049.275000000372529 ], [ 25811.474999999998545, 5913049.275000000372529 ], [ 25811.474999999998545, 5913049.349999999627471 ], [ 25812.0, 5913049.349999999627471 ], [ 25812.0, 5913049.424999999813735 ], [ 25812.599999999998545, 5913049.424999999813735 ], [ 25812.599999999998545, 5913049.5 ], [ 25813.125, 5913049.5 ], [ 25813.125, 5913049.575000000186265 ], [ 25813.575, 5913049.575000000186265 ], [ 25813.575, 5913049.650000000372529 ], [ 25814.025000000001455, 5913049.650000000372529 ], [ 25814.025000000001455, 5913049.724999999627471 ], [ 25814.474999999998545, 5913049.724999999627471 ], [ 25814.474999999998545, 5913049.799999999813735 ], [ 25814.849999999998545, 5913049.799999999813735 ], [ 25814.849999999998545, 5913049.875 ], [ 25815.0, 5913049.875 ], [ 25815.0, 5913049.950000000186265 ], [ 25815.150000000001455, 5913049.950000000186265 ], [ 25815.150000000001455, 5913050.025000000372529 ], [ 25815.224999999998545, 5913050.025000000372529 ], [ 25815.224999999998545, 5913050.099999999627471 ], [ 25815.3, 5913050.099999999627471 ], [ 25815.3, 5913050.174999999813735 ], [ 25815.375, 5913050.174999999813735 ], [ 25815.375, 5913050.25 ], [ 25815.525000000001455, 5913050.25 ], [ 25815.525000000001455, 5913050.325000000186265 ], [ 25815.599999999998545, 5913050.325000000186265 ], [ 25815.599999999998545, 5913050.474999999627471 ], [ 25815.675, 5913050.474999999627471 ], [ 25815.675, 5913050.549999999813735 ], [ 25815.75, 5913050.549999999813735 ], [ 25815.75, 5913050.625 ], [ 25815.825, 5913050.625 ], [ 25815.825, 5913050.775000000372529 ], [ 25815.900000000001455, 5913050.775000000372529 ], [ 25815.900000000001455, 5913050.849999999627471 ], [ 25815.974999999998545, 5913050.849999999627471 ], [ 25815.974999999998545, 5913051.0 ], [ 25816.05, 5913051.0 ], [ 25816.05, 5913051.075000000186265 ], [ 25816.125, 5913051.075000000186265 ], [ 25816.125, 5913051.150000000372529 ], [ 25816.2, 5913051.150000000372529 ], [ 25816.2, 5913051.224999999627471 ], [ 25816.275000000001455, 5913051.224999999627471 ], [ 25816.275000000001455, 5913051.299999999813735 ], [ 25816.349999999998545, 5913051.299999999813735 ], [ 25816.349999999998545, 5913051.375 ], [ 25816.425, 5913051.375 ], [ 25816.425, 5913051.450000000186265 ], [ 25816.5, 5913051.450000000186265 ], [ 25816.5, 5913051.525000000372529 ], [ 25816.575, 5913051.525000000372529 ], [ 25816.575, 5913051.599999999627471 ], [ 25816.724999999998545, 5913051.599999999627471 ], [ 25816.724999999998545, 5913051.674999999813735 ], [ 25816.8, 5913051.674999999813735 ], [ 25816.8, 5913051.75 ], [ 25816.875, 5913051.75 ], [ 25816.875, 5913051.825000000186265 ], [ 25817.025000000001455, 5913051.825000000186265 ], [ 25817.025000000001455, 5913051.900000000372529 ], [ 25817.099999999998545, 5913051.900000000372529 ], [ 25817.099999999998545, 5913051.974999999627471 ], [ 25817.175, 5913051.974999999627471 ], [ 25817.175, 5913052.049999999813735 ], [ 25817.25, 5913052.049999999813735 ], [ 25817.25, 5913052.125 ], [ 25817.325, 5913052.125 ], [ 25817.325, 5913052.200000000186265 ], [ 25817.400000000001455, 5913052.200000000186265 ], [ 25817.400000000001455, 5913052.275000000372529 ], [ 25817.474999999998545, 5913052.275000000372529 ], [ 25817.474999999998545, 5913052.424999999813735 ], [ 25817.55, 5913052.424999999813735 ], [ 25817.55, 5913052.5 ], [ 25817.625, 5913052.5 ], [ 25817.625, 5913052.650000000372529 ], [ 25817.7, 5913052.650000000372529 ], [ 25817.7, 5913052.950000000186265 ], [ 25817.775000000001455, 5913052.950000000186265 ], [ 25817.775000000001455, 5913053.25 ], [ 25817.849999999998545, 5913053.25 ], [ 25817.849999999998545, 5913053.549999999813735 ], [ 25817.925, 5913053.549999999813735 ], [ 25817.925, 5913053.775000000372529 ], [ 25818.0, 5913053.775000000372529 ], [ 25818.0, 5913054.0 ], [ 25818.075, 5913054.0 ], [ 25818.075, 5913054.224999999627471 ], [ 25818.150000000001455, 5913054.224999999627471 ], [ 25818.150000000001455, 5913054.450000000186265 ], [ 25818.224999999998545, 5913054.450000000186265 ], [ 25818.224999999998545, 5913054.599999999627471 ], [ 25818.3, 5913054.599999999627471 ], [ 25818.3, 5913054.75 ], [ 25818.375, 5913054.75 ], [ 25818.375, 5913054.900000000372529 ], [ 25818.45, 5913054.900000000372529 ], [ 25818.45, 5913055.049999999813735 ], [ 25818.525000000001455, 5913055.049999999813735 ], [ 25818.525000000001455, 5913055.200000000186265 ], [ 25818.599999999998545, 5913055.200000000186265 ], [ 25818.599999999998545, 5913055.275000000372529 ], [ 25818.675, 5913055.275000000372529 ], [ 25818.675, 5913055.424999999813735 ], [ 25818.75, 5913055.424999999813735 ], [ 25818.75, 5913055.575000000186265 ], [ 25818.825, 5913055.575000000186265 ], [ 25818.825, 5913055.650000000372529 ], [ 25818.900000000001455, 5913055.650000000372529 ], [ 25818.900000000001455, 5913055.799999999813735 ], [ 25818.974999999998545, 5913055.799999999813735 ], [ 25818.974999999998545, 5913056.025000000372529 ], [ 25819.05, 5913056.025000000372529 ], [ 25819.05, 5913056.174999999813735 ], [ 25819.125, 5913056.174999999813735 ], [ 25819.125, 5913056.400000000372529 ], [ 25819.2, 5913056.400000000372529 ], [ 25819.2, 5913056.625 ], [ 25819.275000000001455, 5913056.625 ], [ 25819.275000000001455, 5913057.224999999627471 ], [ 25819.349999999998545, 5913057.224999999627471 ], [ 25819.349999999998545, 5913057.825000000186265 ], [ 25819.425, 5913057.825000000186265 ], [ 25819.425, 5913058.424999999813735 ], [ 25819.5, 5913058.424999999813735 ], [ 25819.5, 5913058.5 ], [ 25819.425, 5913058.5 ], [ 25819.425, 5913058.650000000372529 ], [ 25819.349999999998545, 5913058.650000000372529 ], [ 25819.349999999998545, 5913058.724999999627471 ], [ 25819.275000000001455, 5913058.724999999627471 ], [ 25819.275000000001455, 5913058.875 ], [ 25819.2, 5913058.875 ], [ 25819.2, 5913058.950000000186265 ], [ 25819.125, 5913058.950000000186265 ], [ 25819.125, 5913059.025000000372529 ], [ 25819.05, 5913059.025000000372529 ], [ 25819.05, 5913059.174999999813735 ], [ 25818.974999999998545, 5913059.174999999813735 ], [ 25818.974999999998545, 5913059.25 ], [ 25818.900000000001455, 5913059.25 ], [ 25818.900000000001455, 5913059.325000000186265 ], [ 25818.75, 5913059.325000000186265 ], [ 25818.75, 5913059.400000000372529 ], [ 25818.675, 5913059.400000000372529 ], [ 25818.675, 5913059.474999999627471 ], [ 25818.599999999998545, 5913059.474999999627471 ], [ 25818.599999999998545, 5913059.549999999813735 ], [ 25818.525000000001455, 5913059.549999999813735 ], [ 25818.525000000001455, 5913059.625 ], [ 25818.45, 5913059.625 ], [ 25818.45, 5913059.700000000186265 ], [ 25818.375, 5913059.700000000186265 ], [ 25818.375, 5913059.775000000372529 ], [ 25818.3, 5913059.775000000372529 ], [ 25818.3, 5913059.849999999627471 ], [ 25818.224999999998545, 5913059.849999999627471 ], [ 25818.224999999998545, 5913059.924999999813735 ], [ 25818.150000000001455, 5913059.924999999813735 ], [ 25818.150000000001455, 5913060.075000000186265 ], [ 25818.075, 5913060.075000000186265 ], [ 25818.075, 5913060.150000000372529 ], [ 25818.0, 5913060.150000000372529 ], [ 25818.0, 5913060.299999999813735 ], [ 25817.925, 5913060.299999999813735 ], [ 25817.925, 5913060.450000000186265 ], [ 25817.849999999998545, 5913060.450000000186265 ], [ 25817.849999999998545, 5913060.525000000372529 ], [ 25817.775000000001455, 5913060.525000000372529 ], [ 25817.775000000001455, 5913060.674999999813735 ], [ 25817.7, 5913060.674999999813735 ], [ 25817.7, 5913060.75 ], [ 25817.625, 5913060.75 ], [ 25817.625, 5913060.825000000186265 ], [ 25817.55, 5913060.825000000186265 ], [ 25817.55, 5913060.900000000372529 ], [ 25817.474999999998545, 5913060.900000000372529 ], [ 25817.474999999998545, 5913060.974999999627471 ], [ 25817.400000000001455, 5913060.974999999627471 ], [ 25817.400000000001455, 5913061.049999999813735 ], [ 25817.25, 5913061.049999999813735 ], [ 25817.25, 5913061.125 ], [ 25817.175, 5913061.125 ], [ 25817.175, 5913061.200000000186265 ], [ 25817.025000000001455, 5913061.200000000186265 ], [ 25817.025000000001455, 5913061.275000000372529 ], [ 25816.95, 5913061.275000000372529 ], [ 25816.95, 5913061.349999999627471 ], [ 25816.8, 5913061.349999999627471 ], [ 25816.8, 5913061.424999999813735 ], [ 25816.650000000001455, 5913061.424999999813735 ], [ 25816.650000000001455, 5913061.5 ], [ 25816.5, 5913061.5 ], [ 25816.5, 5913061.575000000186265 ], [ 25816.425, 5913061.575000000186265 ], [ 25816.425, 5913061.650000000372529 ], [ 25816.349999999998545, 5913061.650000000372529 ], [ 25816.349999999998545, 5913061.724999999627471 ], [ 25816.2, 5913061.724999999627471 ], [ 25816.2, 5913061.799999999813735 ], [ 25816.125, 5913061.799999999813735 ], [ 25816.125, 5913061.875 ], [ 25816.05, 5913061.875 ], [ 25816.05, 5913061.950000000186265 ], [ 25815.974999999998545, 5913061.950000000186265 ], [ 25815.974999999998545, 5913062.025000000372529 ], [ 25815.900000000001455, 5913062.025000000372529 ], [ 25815.900000000001455, 5913062.174999999813735 ], [ 25815.825, 5913062.174999999813735 ], [ 25815.825, 5913062.25 ], [ 25815.75, 5913062.25 ], [ 25815.75, 5913062.325000000186265 ], [ 25815.675, 5913062.325000000186265 ], [ 25815.675, 5913062.474999999627471 ], [ 25815.599999999998545, 5913062.474999999627471 ], [ 25815.599999999998545, 5913062.549999999813735 ], [ 25815.525000000001455, 5913062.549999999813735 ], [ 25815.525000000001455, 5913062.625 ], [ 25815.45, 5913062.625 ], [ 25815.45, 5913062.775000000372529 ], [ 25815.375, 5913062.775000000372529 ], [ 25815.375, 5913062.849999999627471 ], [ 25815.3, 5913062.849999999627471 ], [ 25815.3, 5913062.924999999813735 ], [ 25815.150000000001455, 5913062.924999999813735 ], [ 25815.150000000001455, 5913063.0 ], [ 25815.075, 5913063.0 ], [ 25815.075, 5913063.075000000186265 ], [ 25815.0, 5913063.075000000186265 ], [ 25815.0, 5913063.150000000372529 ], [ 25814.849999999998545, 5913063.150000000372529 ], [ 25814.849999999998545, 5913063.224999999627471 ], [ 25814.7, 5913063.224999999627471 ], [ 25814.7, 5913063.299999999813735 ], [ 25814.55, 5913063.299999999813735 ], [ 25814.55, 5913063.375 ], [ 25814.474999999998545, 5913063.375 ], [ 25814.474999999998545, 5913063.450000000186265 ], [ 25814.325, 5913063.450000000186265 ], [ 25814.325, 5913063.525000000372529 ], [ 25814.25, 5913063.525000000372529 ], [ 25814.25, 5913063.599999999627471 ], [ 25814.175, 5913063.599999999627471 ], [ 25814.175, 5913063.674999999813735 ], [ 25814.099999999998545, 5913063.674999999813735 ], [ 25814.099999999998545, 5913063.75 ], [ 25813.95, 5913063.75 ], [ 25813.95, 5913063.825000000186265 ], [ 25813.875, 5913063.825000000186265 ], [ 25813.875, 5913063.974999999627471 ], [ 25813.8, 5913063.974999999627471 ], [ 25813.8, 5913064.049999999813735 ], [ 25813.724999999998545, 5913064.049999999813735 ], [ 25813.724999999998545, 5913064.125 ], [ 25813.650000000001455, 5913064.125 ], [ 25813.650000000001455, 5913064.200000000186265 ], [ 25813.575, 5913064.200000000186265 ], [ 25813.575, 5913064.349999999627471 ], [ 25813.5, 5913064.349999999627471 ], [ 25813.5, 5913064.424999999813735 ], [ 25813.425, 5913064.424999999813735 ], [ 25813.425, 5913064.5 ], [ 25813.349999999998545, 5913064.5 ], [ 25813.349999999998545, 5913064.650000000372529 ], [ 25813.275000000001455, 5913064.650000000372529 ], [ 25813.275000000001455, 5913064.724999999627471 ], [ 25813.125, 5913064.724999999627471 ], [ 25813.125, 5913064.799999999813735 ], [ 25813.05, 5913064.799999999813735 ], [ 25813.05, 5913064.875 ], [ 25812.974999999998545, 5913064.875 ], [ 25812.974999999998545, 5913064.950000000186265 ], [ 25812.75, 5913064.950000000186265 ], [ 25812.75, 5913065.025000000372529 ], [ 25812.150000000001455, 5913065.025000000372529 ], [ 25812.150000000001455, 5913065.099999999627471 ], [ 25811.55, 5913065.099999999627471 ], [ 25811.55, 5913065.174999999813735 ], [ 25809.675, 5913065.174999999813735 ] ] ] } }
]
}
