{
"type": "FeatureCollection",
"name": "25683E591132N_buildings",
"crs": { "type": "name", "properties": { "name": "urn:ogc:def:crs:EPSG::3776" } },
"features": [
{ "type": "Feature", "properties": { "value": 1.0, "building_id": 0, "area": 65.773124999830401 }, "geometry": { "type": "Polygon", "coordinates": [ [ [ 26029.575, 5911961.849999999627471 ], [ 26029.575, 5911961.775000000372529 ], [ 26029.425, 5911961.775000000372529 ], [ 26029.425, 5911961.700000000186265 ], [ 26029.275000000001455, 5911961.700000000186265 ], [ 26029.275000000001455, 5911961.625 ], [ 26029.125, 5911961.625 ], [ 26029.125, 5911961.549999999813735 ], [ 26028.974999999998545, 5911961.549999999813735 ], [ 26028.974999999998545, 5911961.474999999627471 ], [ 26028.825, 5911961.474999999627471 ], [ 26028.825, 5911961.400000000372529 ], [ 26028.75, 5911961.400000000372529 ], [ 26028.75, 5911961.325000000186265 ], [ 26028.675, 5911961.325000000186265 ], [ 26028.675, 5911961.25 ], [ 26028.599999999998545, 5911961.25 ], [ 26028.599999999998545, 5911961.174999999813735 ], [ 26028.45, 5911961.174999999813735 ], [ 26028.45, 5911961.099999999627471 ], [ 26028.375, 5911961.099999999627471 ], [ 26028.375, 5911960.950000000186265 ], [ 26028.3, 5911960.950000000186265 ], [ 26028.3, 5911960.875 ], [ 26028.224999999998545, 5911960.875 ], [ 26028.224999999998545, 5911960.799999999813735 ], [ 26028.150000000001455, 5911960.799999999813735 ], [ 26028.150000000001455, 5911960.724999999627471 ], [ 26028.0, 5911960.724999999627471 ], [ 26028.0, 5911960.650000000372529 ], [ 26027.849999999998545, 5911960.650000000372529 ], [ 26027.849999999998545, 5911960.575000000186265 ], [ 26027.775000000001455, 5911960.575000000186265 ], [ 26027.775000000001455, 5911960.5 ], [ 26027.55, 5911960.5 ], [ 26027.55, 5911960.424999999813735 ], [ 26027.325, 5911960.424999999813735 ], [ 26027.325, 5911960.349999999627471 ], [ 26027.099999999998545, 5911960.349999999627471 ], [ 26027.099999999998545, 5911960.275000000372529 ], [ 26026.95, 5911960.275000000372529 ], [ 26026.95, 5911960.200000000186265 ], [ 26026.8, 5911960.200000000186265 ], [ 26026.8, 5911960.125 ], [ 26026.724999999998545, 5911960.125 ], [ 26026.724999999998545, 5911960.049999999813735 ], [ 26026.575, 5911960.049999999813735 ], [ 26026.575, 5911959.974999999627471 ], [ 26026.5, 5911959.974999999627471 ], [ 26026.5, 5911959.900000000372529 ], [ 26026.425, 5911959.900000000372529 ], [ 26026.425, 5911959.825000000186265 ], [ 26026.349999999998545, 5911959.825000000186265 ], [ 26026.349999999998545, 5911959.75 ], [ 26026.275000000001455, 5911959.75 ], [ 26026.275000000001455, 5911959.674999999813735 ], [ 26026.2, 5911959.674999999813735 ], [ 26026.2, 5911959.599999999627471 ], [ 26026.125, 5911959.599999999627471 ], [ 26026.125, 5911959.450000000186265 ], [ 26026.05, 5911959.450000000186265 ], [ 26026.05, 5911959.299999999813735 ], [ 26025.974999999998545, 5911959.299999999813735 ], [ 26025.974999999998545, 5911959.150000000372529 ], [ 26025.900000000001455, 5911959.150000000372529 ], [ 26025.900000000001455, 5911959.0 ], [ 26025.825, 5911959.0 ], [ 26025.825, 5911958.775000000372529 ], [ 26025.75, 5911958.775000000372529 ], [ 26025.75, 5911958.549999999813735 ], [ 26025.675, 5911958.549999999813735 ], [ 26025.675, 5911958.474999999627471 ], [ 26025.599999999998545, 5911958.474999999627471 ], [ 26025.599999999998545, 5911958.325000000186265 ], [ 26025.525000000001455, 5911958.325000000186265 ], [ 26025.525000000001455, 5911958.174999999813735 ], [ 26025.45, 5911958.174999999813735 ], [ 26025.45, 5911958.025000000372529 ], [ 26025.375, 5911958.025000000372529 ], [ 26025.375, 5911957.875 ], [ 26025.3, 5911957.875 ], [ 26025.3, 5911957.724999999627471 ], [ 26025.224999999998545, 5911957.724999999627471 ], [ 26025.224999999998545, 5911957.5 ], [ 26025.150000000001455, 5911957.5 ], [ 26025.150000000001455, 5911957.349999999627471 ], [ 26025.075, 5911957.349999999627471 ], [ 26025.075, 5911957.200000000186265 ], [ 26025.0, 5911957.200000000186265 ], [ 26025.0, 5911956.974999999627471 ], [ 26024.925, 5911956.974999999627471 ], [ 26024.925, 5911956.900000000372529 ], [ 26025.0, 5911956.900000000372529 ], [ 26025.0, 5911956.75 ], [ 26025.075, 5911956.75 ], [ 26025.075, 5911956.525000000372529 ], [ 26025.150000000001455, 5911956.525000000372529 ], [ 26025.150000000001455, 5911956.450000000186265 ], [ 26025.224999999998545, 5911956.450000000186265 ], [ 26025.224999999998545, 5911956.299999999813735 ], [ 26025.3, 5911956.299999999813735 ], [ 26025.3, 5911956.224999999627471 ], [ 26025.375, 5911956.224999999627471 ], [ 26025.375, 5911956.075000000186265 ], [ 26025.45, 5911956.075000000186265 ], [ 26025.45, 5911956.0 ], [ 26025.525000000001455, 5911956.0 ], [ 26025.525000000001455, 5911955.924999999813735 ], [ 26025.599999999998545, 5911955.924999999813735 ], [ 26025.599999999998545, 5911955.849999999627471 ], [ 26025.675, 5911955.849999999627471 ], [ 26025.675, 5911955.775000000372529 ], [ 26025.75, 5911955.775000000372529 ], [ 26025.75, 5911955.700000000186265 ], [ 26025.825, 5911955.700000000186265 ], [ 26025.825, 5911955.549999999813735 ], [ 26025.900000000001455, 5911955.549999999813735 ], [ 26025.900000000001455, 5911955.400000000372529 ], [ 26025.974999999998545, 5911955.400000000372529 ], [ 26025.974999999998545, 5911955.25 ], [ 26026.05, 5911955.25 ], [ 26026.05, 5911955.174999999813735 ], [ 26026.125, 5911955.174999999813735 ], [ 26026.125, 5911955.025000000372529 ], [ 26026.2, 5911955.025000000372529 ], [ 26026.2, 5911954.950000000186265 ], [ 26026.275000000001455, 5911954.950000000186265 ], [ 26026.275000000001455, 5911954.724999999627471 ], [ 26026.349999999998545, 5911954.724999999627471 ], [ 26026.349999999998545, 5911954.5 ], [ 26026.425, 5911954.5 ], [ 26026.425, 5911954.349999999627471 ], [ 26026.5, 5911954.349999999627471 ], [ 26026.5, 5911954.275000000372529 ], [ 26026.575, 5911954.275000000372529 ], [ 26026.575, 5911954.125 ], [ 26026.650000000001455, 5911954.125 ], [ 26026.650000000001455, 5911954.049999999813735 ], [ 26026.724999999998545, 5911954.049999999813735 ], [ 26026.724999999998545, 5911953.974999999627471 ], [ 26026.8, 5911953.974999999627471 ], [ 26026.8, 5911953.900000000372529 ], [ 26026.875, 5911953.900000000372529 ], [ 26026.875, 5911953.825000000186265 ], [ 26026.95, 5911953.825000000186265 ], [ 26026.95, 5911953.75 ], [ 26027.025000000001455, 5911953.75 ], [ 26027.025000000001455, 5911953.674999999813735 ], [ 26027.175, 5911953.674999999813735 ], [ 26027.175, 5911953.599999999627471 ], [ 26027.25, 5911953.599999999627471 ], [ 26027.25, 5911953.525000000372529 ], [ 26027.400000000001455, 5911953.525000000372529 ], [ 26027.400000000001455, 5911953.450000000186265 ], [ 26027.625, 5911953.450000000186265 ], [ 26027.625, 5911953.375 ], [ 26027.775000000001455, 5911953.375 ], [ 26027.775000000001455, 5911953.299999999813735 ], [ 26027.849999999998545, 5911953.299999999813735 ], [ 26027.849999999998545, 5911953.224999999627471 ], [ 26027.925, 5911953.224999999627471 ], [ 26027.925, 5911953.150000000372529 ], [ 26028.075, 5911953.150000000372529 ], [ 26028.075, 5911953.075000000186265 ], [ 26028.224999999998545, 5911953.075000000186265 ], [ 26028.224999999998545, 5911952.924999999813735 ], [ 26028.3, 5911952.924999999813735 ], [ 26028.3, 5911952.775000000372529 ], [ 26028.375, 5911952.775000000372529 ], [ 26028.375, 5911952.700000000186265 ], [ 26028.45, 5911952.700000000186265 ], [ 26028.45, 5911952.549999999813735 ], [ 26028.525000000001455, 5911952.549999999813735 ], [ 26028.525000000001455, 5911952.474999999627471 ], [ 26028.599999999998545, 5911952.474999999627471 ], [ 26028.599999999998545, 5911952.400000000372529 ], [ 26028.675, 5911952.400000000372529 ], [ 26028.675, 5911952.325000000186265 ], [ 26028.75, 5911952.325000000186265 ], [ 26028.75, 5911952.25 ], [ 26028.825, 5911952.25 ], [ 26028.825, 5911952.174999999813735 ], [ 26028.900000000001455, 5911952.174999999813735 ], [ 26028.900000000001455, 5911952.099999999627471 ], [ 26028.974999999998545, 5911952.099999999627471 ], [ 26028.974999999998545, 5911952.025000000372529 ], [ 26029.125, 5911952.025000000372529 ], [ 26029.125, 5911951.950000000186265 ], [ 26029.275000000001455, 5911951.950000000186265 ], [ 26029.275000000001455, 5911951.875 ], [ 26029.425, 5911951.875 ], [ 26029.425, 5911951.799999999813735 ], [ 26029.575, 5911951.799999999813735 ], [ 26029.575, 5911951.724999999627471 ], [ 26030.925, 5911951.724999999627471 ], [ 26030.925, 5911951.650000000372529 ], [ 26031.75, 5911951.650000000372529 ], [ 26031.75, 5911951.724999999627471 ], [ 26031.974999999998545, 5911951.724999999627471 ], [ 26031.974999999998545, 5911951.799999999813735 ], [ 26032.125, 5911951.799999999813735 ], [ 26032.125, 5911951.875 ], [ 26032.275000000001455, 5911951.875 ], [ 26032.275000000001455, 5911951.950000000186265 ], [ 26032.425, 5911951.950000000186265 ], [ 26032.425, 5911952.025000000372529 ], [ 26032.5, 5911952.025000000372529 ], [ 26032.5, 5911952.099999999627471 ], [ 26032.650000000001455, 5911952.099999999627471 ], [ 26032.650000000001455, 5911952.174999999813735 ], [ 26032.724999999998545, 5911952.174999999813735 ], [ 26032.724999999998545, 5911952.25 ], [ 26032.8, 5911952.25 ], [ 26032.8, 5911952.325000000186265 ], [ 26032.875, 5911952.325000000186265 ], [ 26032.875, 5911952.474999999627471 ], [ 26032.95, 5911952.474999999627471 ], [ 26032.95, 5911952.549999999813735 ], [ 26033.025000000001455, 5911952.549999999813735 ], [ 26033.025000000001455, 5911952.700000000186265 ], [ 26033.099999999998545, 5911952.700000000186265 ], [ 26033.099999999998545, 5911953.0 ], [ 26033.175, 5911953.0 ], [ 26033.175, 5911953.150000000372529 ], [ 26033.25, 5911953.150000000372529 ], [ 26033.25, 5911953.299999999813735 ], [ 26033.325, 5911953.299999999813735 ], [ 26033.325, 5911953.525000000372529 ], [ 26033.400000000001455, 5911953.525000000372529 ], [ 26033.400000000001455, 5911953.75 ], [ 26033.474999999998545, 5911953.75 ], [ 26033.474999999998545, 5911954.200000000186265 ], [ 26033.55, 5911954.200000000186265 ], [ 26033.55, 5911954.724999999627471 ], [ 26033.625, 5911954.724999999627471 ], [ 26033.625, 5911955.025000000372529 ], [ 26033.7, 5911955.025000000372529 ], [ 26033.7, 5911955.174999999813735 ], [ 26033.775000000001455, 5911955.174999999813735 ], [ 26033.775000000001455, 5911955.325000000186265 ], [ 26033.849999999998545, 5911955.325000000186265 ], [ 26033.849999999998545, 5911955.549999999813735 ], [ 26033.925, 5911955.549999999813735 ], [ 26033.925, 5911955.775000000372529 ], [ 26034.0, 5911955.775000000372529 ], [ 26034.0, 5911956.0 ], [ 26034.075, 5911956.0 ], [ 26034.075, 5911956.224999999627471 ], [ 26034.150000000001455, 5911956.224999999627471 ], [ 26034.150000000001455, 5911956.525000000372529 ], [ 26034.224999999998545, 5911956.525000000372529 ], [ 26034.224999999998545, 5911956.900000000372529 ], [ 26034.3, 5911956.900000000372529 ], [ 26034.3, 5911956.974999999627471 ], [ 26034.224999999998545, 5911956.974999999627471 ], [ 26034.224999999998545, 5911957.349999999627471 ], [ 26034.150000000001455, 5911957.349999999627471 ], [ 26034.150000000001455, 5911957.650000000372529 ], [ 26034.075, 5911957.650000000372529 ], [ 26034.075, 5911957.950000000186265 ], [ 26034.0, 5911957.950000000186265 ], [ 26034.0, 5911958.099999999627471 ], [ 26033.925, 5911958.099999999627471 ], [ 26033.925, 5911958.25 ], [ 26033.849999999998545, 5911958.25 ], [ 26033.849999999998545, 5911958.400000000372529 ], [ 26033.775000000001455, 5911958.400000000372529 ], [ 26033.775000000001455, 5911958.474999999627471 ], [ 26033.7, 5911958.474999999627471 ], [ 26033.7, 5911958.549999999813735 ], [ 26033.625, 5911958.549999999813735 ], [ 26033.625, 5911958.700000000186265 ], [ 26033.55, 5911958.700000000186265 ], [ 26033.55, 5911958.849999999627471 ], [ 26033.474999999998545, 5911958.849999999627471 ], [ 26033.474999999998545, 5911959.525000000372529 ], [ 26033.400000000001455, 5911959.525000000372529 ], [ 26033.400000000001455, 5911959.75 ], [ 26033.325, 5911959.75 ], [ 26033.325, 5911959.825000000186265 ], [ 26033.25, 5911959.825000000186265 ], [ 26033.25, 5911959.900000000372529 ], [ 26033.175, 5911959.900000000372529 ], [ 26033.175, 5911959.974999999627471 ], [ 26033.099999999998545, 5911959.974999999627471 ], [ 26033.099999999998545, 5911960.049999999813735 ], [ 26033.025000000001455, 5911960.049999999813735 ], [ 26033.025000000001455, 5911960.125 ], [ 26032.875, 5911960.125 ], [ 26032.875, 5911960.200000000186265 ], [ 26032.8, 5911960.200000000186265 ], [ 26032.8, 5911960.275000000372529 ], [ 26032.724999999998545, 5911960.275000000372529 ], [ 26032.724999999998545, 5911960.349999999627471 ], [ 26032.575, 5911960.349999999627471 ], [ 26032.575, 5911960.424999999813735 ], [ 26032.425, 5911960.424999999813735 ], [ 26032.425, 5911960.5 ], [ 26032.349999999998545, 5911960.5 ], [ 26032.349999999998545, 5911960.575000000186265 ], [ 26032.2, 5911960.575000000186265 ], [ 26032.2, 5911960.650000000372529 ], [ 26032.05, 5911960.650000000372529 ], [ 26032.05, 5911960.724999999627471 ], [ 26031.825, 5911960.724999999627471 ], [ 26031.825, 5911960.799999999813735 ], [ 26031.675, 5911960.799999999813735 ], [ 26031.675, 5911960.875 ], [ 26031.599999999998545, 5911960.875 ], [ 26031.599999999998545, 5911960.950000000186265 ], [ 26031.45, 5911960.950000000186265 ], [ 26031.45, 5911961.025000000372529 ], [ 26031.375, 5911961.025000000372529 ], [ 26031.375, 5911961.099999999627471 ], [ 26031.224999999998545, 5911961.099999999627471 ], [ 26031.224999999998545, 5911961.174999999813735 ], [ 26031.150000000001455, 5911961.174999999813735 ], [ 26031.150000000001455, 5911961.25 ], [ 26031.0, 5911961.25 ], [ 26031.0, 5911961.325000000186265 ], [ 26030.849999999998545, 5911961.325000000186265 ], [ 26030.849999999998545, 5911961.400000000372529 ], [ 26030.7, 5911961.400000000372529 ], [ 26030.7, 5911961.474999999627471 ], [ 26030.55, 5911961.474999999627471 ], [ 26030.55, 5911961.549999999813735 ], [ 26030.400000000001455, 5911961.549999999813735 ], [ 26030.400000000001455, 5911961.625 ], [ 26030.175, 5911961.625 ], [ 26030.175, 5911961.700000000186265 ], [ 26030.025000000001455, 5911961.700000000186265 ], [ 26030.025000000001455, 5911961.775000000372529 ], [ 26029.8, 5911961.775000000372529 ], [ 26029.8, 5911961.849999999627471 ], [ 26029.575, 5911961.849999999627471 ] ] ] } },
{ "type": "Feature", "properties": { "value": 1.0, "building_id": 1, "area": 21.076875000100067 }, "geometry": { "type": "Polygon", "coordinates": [ [ [ 26015.925, 5911953.224999999627471 ], [ 26015.925, 5911953.150000000372529 ], [ 26015.849999999998545, 5911953.150000000372529 ], [ 26015.849999999998545, 5911953.075000000186265 ], [ 26015.775000000001455, 5911953.075000000186265 ], [ 26015.775000000001455, 5911953.0 ], [ 26015.625, 5911953.0 ], [ 26015.625, 5911952.924999999813735 ], [ 26015.400000000001455, 5911952.924999999813735 ], [ 26015.400000000001455, 5911952.849999999627471 ], [ 26015.25, 5911952.849999999627471 ], [ 26015.25, 5911952.775000000372529 ], [ 26015.099999999998545, 5911952.775000000372529 ], [ 26015.099999999998545, 5911952.700000000186265 ], [ 26014.95, 5911952.700000000186265 ], [ 26014.95, 5911952.625 ], [ 26014.8, 5911952.625 ], [ 26014.8, 5911952.549999999813735 ], [ 26014.650000000001455, 5911952.549999999813735 ], [ 26014.650000000001455, 5911952.474999999627471 ], [ 26014.5, 5911952.474999999627471 ], [ 26014.5, 5911952.400000000372529 ], [ 26014.349999999998545, 5911952.400000000372529 ], [ 26014.349999999998545, 5911952.325000000186265 ], [ 26014.2, 5911952.325000000186265 ], [ 26014.2, 5911952.25 ], [ 26014.05, 5911952.25 ], [ 26014.05, 5911952.174999999813735 ], [ 26013.974999999998545, 5911952.174999999813735 ], [ 26013.974999999998545, 5911952.099999999627471 ], [ 26013.900000000001455, 5911952.099999999627471 ], [ 26013.900000000001455, 5911952.025000000372529 ], [ 26013.825, 5911952.025000000372529 ], [ 26013.825, 5911951.950000000186265 ], [ 26013.75, 5911951.950000000186265 ], [ 26013.75, 5911951.875 ], [ 26013.675, 5911951.875 ], [ 26013.675, 5911951.799999999813735 ], [ 26013.599999999998545, 5911951.799999999813735 ], [ 26013.599999999998545, 5911951.650000000372529 ], [ 26013.525000000001455, 5911951.650000000372529 ], [ 26013.525000000001455, 5911951.575000000186265 ], [ 26013.45, 5911951.575000000186265 ], [ 26013.45, 5911951.424999999813735 ], [ 26013.375, 5911951.424999999813735 ], [ 26013.375, 5911951.275000000372529 ], [ 26013.3, 5911951.275000000372529 ], [ 26013.3, 5911951.125 ], [ 26013.224999999998545, 5911951.125 ], [ 26013.224999999998545, 5911950.75 ], [ 26013.3, 5911950.75 ], [ 26013.3, 5911950.224999999627471 ], [ 26013.375, 5911950.224999999627471 ], [ 26013.375, 5911949.625 ], [ 26013.45, 5911949.625 ], [ 26013.45, 5911949.174999999813735 ], [ 26013.525000000001455, 5911949.174999999813735 ], [ 26013.525000000001455, 5911949.025000000372529 ], [ 26013.599999999998545, 5911949.025000000372529 ], [ 26013.599999999998545, 5911948.950000000186265 ], [ 26013.675, 5911948.950000000186265 ], [ 26013.675, 5911948.799999999813735 ], [ 26013.75, 5911948.799999999813735 ], [ 26013.75, 5911948.724999999627471 ], [ 26013.825, 5911948.724999999627471 ], [ 26013.825, 5911948.650000000372529 ], [ 26013.900000000001455, 5911948.650000000372529 ], [ 26013.900000000001455, 5911948.575000000186265 ], [ 26013.974999999998545, 5911948.575000000186265 ], [ 26013.974999999998545, 5911948.5 ], [ 26014.05, 5911948.5 ], [ 26014.05, 5911948.424999999813735 ], [ 26014.125, 5911948.424999999813735 ], [ 26014.125, 5911948.349999999627471 ], [ 26014.275000000001455, 5911948.349999999627471 ], [ 26014.275000000001455, 5911948.275000000372529 ], [ 26014.349999999998545, 5911948.275000000372529 ], [ 26014.349999999998545, 5911948.200000000186265 ], [ 26014.425, 5911948.200000000186265 ], [ 26014.425, 5911948.125 ], [ 26014.575, 5911948.125 ], [ 26014.575, 5911948.049999999813735 ], [ 26014.650000000001455, 5911948.049999999813735 ], [ 26014.650000000001455, 5911947.974999999627471 ], [ 26014.724999999998545, 5911947.974999999627471 ], [ 26014.724999999998545, 5911947.900000000372529 ], [ 26014.875, 5911947.900000000372529 ], [ 26014.875, 5911947.825000000186265 ], [ 26014.95, 5911947.825000000186265 ], [ 26014.95, 5911947.75 ], [ 26015.099999999998545, 5911947.75 ], [ 26015.099999999998545, 5911947.674999999813735 ], [ 26015.175, 5911947.674999999813735 ], [ 26015.175, 5911947.599999999627471 ], [ 26015.325, 5911947.599999999627471 ], [ 26015.325, 5911947.525000000372529 ], [ 26015.474999999998545, 5911947.525000000372529 ], [ 26015.474999999998545, 5911947.450000000186265 ], [ 26015.55, 5911947.450000000186265 ], [ 26015.55, 5911947.375 ], [ 26015.7, 5911947.375 ], [ 26015.7, 5911947.299999999813735 ], [ 26015.849999999998545, 5911947.299999999813735 ], [ 26015.849999999998545, 5911947.224999999627471 ], [ 26016.0, 5911947.224999999627471 ], [ 26016.0, 5911947.150000000372529 ], [ 26016.075, 5911947.150000000372529 ], [ 26016.075, 5911947.224999999627471 ], [ 26016.3, 5911947.224999999627471 ], [ 26016.3, 5911947.299999999813735 ], [ 26016.45, 5911947.299999999813735 ], [ 26016.45, 5911947.375 ], [ 26016.599999999998545, 5911947.375 ], [ 26016.599999999998545, 5911947.450000000186265 ], [ 26016.75, 5911947.450000000186265 ], [ 26016.75, 5911947.525000000372529 ], [ 26016.900000000001455, 5911947.525000000372529 ], [ 26016.900000000001455, 5911947.599999999627471 ], [ 26016.974999999998545, 5911947.599999999627471 ], [ 26016.974999999998545, 5911947.674999999813735 ], [ 26017.125, 5911947.674999999813735 ], [ 26017.125, 5911947.75 ], [ 26017.2, 5911947.75 ], [ 26017.2, 5911947.825000000186265 ], [ 26017.275000000001455, 5911947.825000000186265 ], [ 26017.275000000001455, 5911947.900000000372529 ], [ 26017.349999999998545, 5911947.900000000372529 ], [ 26017.349999999998545, 5911948.049999999813735 ], [ 26017.425, 5911948.049999999813735 ], [ 26017.425, 5911948.125 ], [ 26017.5, 5911948.125 ], [ 26017.5, 5911948.275000000372529 ], [ 26017.575, 5911948.275000000372529 ], [ 26017.575, 5911948.349999999627471 ], [ 26017.650000000001455, 5911948.349999999627471 ], [ 26017.650000000001455, 5911948.5 ], [ 26017.724999999998545, 5911948.5 ], [ 26017.724999999998545, 5911948.724999999627471 ], [ 26017.8, 5911948.724999999627471 ], [ 26017.8, 5911948.950000000186265 ], [ 26017.875, 5911948.950000000186265 ], [ 26017.875, 5911949.549999999813735 ], [ 26017.95, 5911949.549999999813735 ], [ 26017.95, 5911950.674999999813735 ], [ 26018.025000000001455, 5911950.674999999813735 ], [ 26018.025000000001455, 5911951.125 ], [ 26017.95, 5911951.125 ], [ 26017.95, 5911951.349999999627471 ], [ 26017.875, 5911951.349999999627471 ], [ 26017.875, 5911951.575000000186265 ], [ 26017.8, 5911951.575000000186265 ], [ 26017.8, 5911951.799999999813735 ], [ 26017.724999999998545, 5911951.799999999813735 ], [ 26017.724999999998545, 5911951.950000000186265 ], [ 26017.650000000001455, 5911951.950000000186265 ], [ 26017.650000000001455, 5911952.099999999627471 ], [ 26017.575, 5911952.099999999627471 ], [ 26017.575, 5911952.174999999813735 ], [ 26017.5, 5911952.174999999813735 ], [ 26017.5, 5911952.325000000186265 ], [ 26017.425, 5911952.325000000186265 ], [ 26017.425, 5911952.400000000372529 ], [ 26017.349999999998545, 5911952.400000000372529 ], [ 26017.349999999998545, 5911952.474999999627471 ], [ 26017.275000000001455, 5911952.474999999627471 ], [ 26017.275000000001455, 5911952.549999999813735 ], [ 26017.2, 5911952.549999999813735 ], [ 26017.2, 5911952.625 ], [ 26017.125, 5911952.625 ], [ 26017.125, 5911952.700000000186265 ], [ 26016.974999999998545, 5911952.700000000186265 ], [ 26016.974999999998545, 5911952.775000000372529 ], [ 26016.900000000001455, 5911952.775000000372529 ], [ 26016.900000000001455, 5911952.849999999627471 ], [ 26016.75, 5911952.849999999627471 ], [ 26016.75, 5911952.924999999813735 ], [ 26016.525000000001455, 5911952.924999999813735 ], [ 26016.525000000001455, 5911953.0 ], [ 26016.375, 5911953.0 ], [ 26016.375, 5911953.075000000186265 ], [ 26016.224999999998545, 5911953.075000000186265 ], [ 26016.224999999998545, 5911953.150000000372529 ], [ 26016.150000000001455, 5911953.150000000372529 ], [ 26016.150000000001455, 5911953.224999999627471 ], [ 26015.925, 5911953.224999999627471 ] ] ] } },
{ "type": "Feature", "properties": { "value": 1.0, "building_id": 2, "area": 149.00625000132763 }, "geometry": { "type": "Polygon", "coordinates": [ [ [ 25683.0, 5911653.075000000186265 ], [ 25683.0, 5911637.924999999813735 ], [ 25687.724999999998545, 5911637.924999999813735 ], [ 25687.724999999998545, 5911638.0 ], [ 25688.175, 5911638.0 ], [ 25688.175, 5911638.075000000186265 ], [ 25688.474999999998545, 5911638.075000000186265 ], [ 25688.474999999998545, 5911638.150000000372529 ], [ 25688.7, 5911638.150000000372529 ], [ 25688.7, 5911638.224999999627471 ], [ 25688.925, 5911638.224999999627471 ], [ 25688.925, 5911638.299999999813735 ], [ 25689.150000000001455, 5911638.299999999813735 ], [ 25689.150000000001455, 5911638.375 ], [ 25689.3, 5911638.375 ], [ 25689.3, 5911638.450000000186265 ], [ 25689.45, 5911638.450000000186265 ], [ 25689.45, 5911638.525000000372529 ], [ 25689.599999999998545, 5911638.525000000372529 ], [ 25689.599999999998545, 5911638.599999999627471 ], [ 25689.75, 5911638.599999999627471 ], [ 25689.75, 5911638.674999999813735 ], [ 25689.900000000001455, 5911638.674999999813735 ], [ 25689.900000000001455, 5911638.75 ], [ 25690.05, 5911638.75 ], [ 25690.05, 5911638.825000000186265 ], [ 25690.125, 5911638.825000000186265 ], [ 25690.125, 5911638.900000000372529 ], [ 25690.275000000001455, 5911638.900000000372529 ], [ 25690.275000000001455, 5911638.974999999627471 ], [ 25690.425, 5911638.974999999627471 ], [ 25690.425, 5911639.049999999813735 ], [ 25690.575, 5911639.049999999813735 ], [ 25690.575, 5911639.125 ], [ 25690.724999999998545, 5911639.125 ], [ 25690.724999999998545, 5911639.200000000186265 ], [ 25690.875, 5911639.200000000186265 ], [ 25690.875, 5911639.275000000372529 ], [ 25691.025000000001455, 5911639.275000000372529 ], [ 25691.025000000001455, 5911639.349999999627471 ], [ 25691.175, 5911639.349999999627471 ], [ 25691.175, 5911639.424999999813735 ], [ 25691.400000000001455, 5911639.424999999813735 ], [ 25691.400000000001455, 5911639.5 ], [ 25691.625, 5911639.5 ], [ 25691.625, 5911639.575000000186265 ], [ 25691.775000000001455, 5911639.575000000186265 ], [ 25691.775000000001455, 5911639.650000000372529 ], [ 25692.0, 5911639.650000000372529 ], [ 25692.0, 5911639.724999999627471 ], [ 25692.150000000001455, 5911639.724999999627471 ], [ 25692.150000000001455, 5911639.799999999813735 ], [ 25692.224999999998545, 5911639.799999999813735 ], [ 25692.224999999998545, 5911639.875 ], [ 25692.375, 5911639.875 ], [ 25692.375, 5911639.950000000186265 ], [ 25692.525000000001455, 5911639.950000000186265 ], [ 25692.525000000001455, 5911640.025000000372529 ], [ 25692.599999999998545, 5911640.025000000372529 ], [ 25692.599999999998545, 5911640.099999999627471 ], [ 25692.675, 5911640.099999999627471 ], [ 25692.675, 5911640.174999999813735 ], [ 25692.75, 5911640.174999999813735 ], [ 25692.75, 5911640.25 ], [ 25692.825, 5911640.25 ], [ 25692.825, 5911640.325000000186265 ], [ 25692.900000000001455, 5911640.325000000186265 ], [ 25692.900000000001455, 5911640.400000000372529 ], [ 25692.974999999998545, 5911640.400000000372529 ], [ 25692.974999999998545, 5911640.474999999627471 ], [ 25693.05, 5911640.474999999627471 ], [ 25693.05, 5911640.549999999813735 ], [ 25693.125, 5911640.549999999813735 ], [ 25693.125, 5911640.625 ], [ 25693.2, 5911640.625 ], [ 25693.2, 5911640.700000000186265 ], [ 25693.275000000001455, 5911640.700000000186265 ], [ 25693.275000000001455, 5911640.775000000372529 ], [ 25693.349999999998545, 5911640.775000000372529 ], [ 25693.349999999998545, 5911640.849999999627471 ], [ 25693.425, 5911640.849999999627471 ], [ 25693.425, 5911640.924999999813735 ], [ 25693.5, 5911640.924999999813735 ], [ 25693.5, 5911641.0 ], [ 25693.650000000001455, 5911641.0 ], [ 25693.650000000001455, 5911641.075000000186265 ], [ 25693.724999999998545, 5911641.075000000186265 ], [ 25693.724999999998545, 5911641.150000000372529 ], [ 25693.8, 5911641.150000000372529 ], [ 25693.8, 5911641.224999999627471 ], [ 25693.875, 5911641.224999999627471 ], [ 25693.875, 5911641.299999999813735 ], [ 25693.95, 5911641.299999999813735 ], [ 25693.95, 5911641.375 ], [ 25694.025000000001455, 5911641.375 ], [ 25694.025000000001455, 5911641.450000000186265 ], [ 25694.099999999998545, 5911641.450000000186265 ], [ 25694.099999999998545, 5911641.525000000372529 ], [ 25694.175, 5911641.525000000372529 ], [ 25694.175, 5911641.599999999627471 ], [ 25694.25, 5911641.599999999627471 ], [ 25694.25, 5911641.674999999813735 ], [ 25694.325, 5911641.674999999813735 ], [ 25694.325, 5911641.75 ], [ 25694.400000000001455, 5911641.75 ], [ 25694.400000000001455, 5911641.900000000372529 ], [ 25694.474999999998545, 5911641.900000000372529 ], [ 25694.474999999998545, 5911642.049999999813735 ], [ 25694.55, 5911642.049999999813735 ], [ 25694.55, 5911642.125 ], [ 25694.625, 5911642.125 ], [ 25694.625, 5911642.275000000372529 ], [ 25694.7, 5911642.275000000372529 ], [ 25694.7, 5911642.5 ], [ 25694.775000000001455, 5911642.5 ], [ 25694.775000000001455, 5911642.724999999627471 ], [ 25694.849999999998545, 5911642.724999999627471 ], [ 25694.849999999998545, 5911642.950000000186265 ], [ 25694.925, 5911642.950000000186265 ], [ 25694.925, 5911643.174999999813735 ], [ 25695.0, 5911643.174999999813735 ], [ 25695.0, 5911643.325000000186265 ], [ 25695.075, 5911643.325000000186265 ], [ 25695.075, 5911643.549999999813735 ], [ 25695.150000000001455, 5911643.549999999813735 ], [ 25695.150000000001455, 5911643.700000000186265 ], [ 25695.224999999998545, 5911643.700000000186265 ], [ 25695.224999999998545, 5911643.849999999627471 ], [ 25695.3, 5911643.849999999627471 ], [ 25695.3, 5911644.0 ], [ 25695.375, 5911644.0 ], [ 25695.375, 5911644.150000000372529 ], [ 25695.45, 5911644.150000000372529 ], [ 25695.45, 5911644.299999999813735 ], [ 25695.525000000001455, 5911644.299999999813735 ], [ 25695.525000000001455, 5911644.375 ], [ 25695.599999999998545, 5911644.375 ], [ 25695.599999999998545, 5911644.525000000372529 ], [ 25695.525000000001455, 5911644.525000000372529 ], [ 25695.525000000001455, 5911644.825000000186265 ], [ 25695.45, 5911644.825000000186265 ], [ 25695.45, 5911645.200000000186265 ], [ 25695.375, 5911645.200000000186265 ], [ 25695.375, 5911645.575000000186265 ], [ 25695.3, 5911645.575000000186265 ], [ 25695.3, 5911645.950000000186265 ], [ 25695.224999999998545, 5911645.950000000186265 ], [ 25695.224999999998545, 5911646.400000000372529 ], [ 25695.150000000001455, 5911646.400000000372529 ], [ 25695.150000000001455, 5911646.549999999813735 ], [ 25695.075, 5911646.549999999813735 ], [ 25695.075, 5911646.700000000186265 ], [ 25695.0, 5911646.700000000186265 ], [ 25695.0, 5911646.849999999627471 ], [ 25694.925, 5911646.849999999627471 ], [ 25694.925, 5911646.924999999813735 ], [ 25694.849999999998545, 5911646.924999999813735 ], [ 25694.849999999998545, 5911647.075000000186265 ], [ 25694.775000000001455, 5911647.075000000186265 ], [ 25694.775000000001455, 5911647.224999999627471 ], [ 25694.7, 5911647.224999999627471 ], [ 25694.7, 5911647.375 ], [ 25694.625, 5911647.375 ], [ 25694.625, 5911647.450000000186265 ], [ 25694.55, 5911647.450000000186265 ], [ 25694.55, 5911647.599999999627471 ], [ 25694.474999999998545, 5911647.599999999627471 ], [ 25694.474999999998545, 5911647.75 ], [ 25694.400000000001455, 5911647.75 ], [ 25694.400000000001455, 5911647.825000000186265 ], [ 25694.325, 5911647.825000000186265 ], [ 25694.325, 5911647.974999999627471 ], [ 25694.25, 5911647.974999999627471 ], [ 25694.25, 5911648.049999999813735 ], [ 25694.175, 5911648.049999999813735 ], [ 25694.175, 5911648.200000000186265 ], [ 25694.099999999998545, 5911648.200000000186265 ], [ 25694.099999999998545, 5911648.275000000372529 ], [ 25694.025000000001455, 5911648.275000000372529 ], [ 25694.025000000001455, 5911648.349999999627471 ], [ 25693.95, 5911648.349999999627471 ], [ 25693.95, 5911648.424999999813735 ], [ 25693.875, 5911648.424999999813735 ], [ 25693.875, 5911648.5 ], [ 25693.8, 5911648.5 ], [ 25693.8, 5911648.575000000186265 ], [ 25693.724999999998545, 5911648.575000000186265 ], [ 25693.724999999998545, 5911648.650000000372529 ], [ 25693.650000000001455, 5911648.650000000372529 ], [ 25693.650000000001455, 5911648.724999999627471 ], [ 25693.5, 5911648.724999999627471 ], [ 25693.5, 5911648.799999999813735 ], [ 25693.425, 5911648.799999999813735 ], [ 25693.425, 5911648.875 ], [ 25693.275000000001455, 5911648.875 ], [ 25693.275000000001455, 5911648.950000000186265 ], [ 25693.2, 5911648.950000000186265 ], [ 25693.2, 5911649.025000000372529 ], [ 25693.05, 5911649.025000000372529 ], [ 25693.05, 5911649.099999999627471 ], [ 25692.900000000001455, 5911649.099999999627471 ], [ 25692.900000000001455, 5911649.174999999813735 ], [ 25692.825, 5911649.174999999813735 ], [ 25692.825, 5911649.25 ], [ 25692.675, 5911649.25 ], [ 25692.675, 5911649.325000000186265 ], [ 25692.525000000001455, 5911649.325000000186265 ], [ 25692.525000000001455, 5911649.400000000372529 ], [ 25692.45, 5911649.400000000372529 ], [ 25692.45, 5911649.474999999627471 ], [ 25692.3, 5911649.474999999627471 ], [ 25692.3, 5911649.549999999813735 ], [ 25692.150000000001455, 5911649.549999999813735 ], [ 25692.150000000001455, 5911649.625 ], [ 25692.075, 5911649.625 ], [ 25692.075, 5911649.700000000186265 ], [ 25691.925, 5911649.700000000186265 ], [ 25691.925, 5911649.775000000372529 ], [ 25691.775000000001455, 5911649.775000000372529 ], [ 25691.775000000001455, 5911649.849999999627471 ], [ 25691.7, 5911649.849999999627471 ], [ 25691.7, 5911649.924999999813735 ], [ 25691.625, 5911649.924999999813735 ], [ 25691.625, 5911650.0 ], [ 25691.474999999998545, 5911650.0 ], [ 25691.474999999998545, 5911650.075000000186265 ], [ 25691.400000000001455, 5911650.075000000186265 ], [ 25691.400000000001455, 5911650.150000000372529 ], [ 25691.325, 5911650.150000000372529 ], [ 25691.325, 5911650.224999999627471 ], [ 25691.25, 5911650.224999999627471 ], [ 25691.25, 5911650.375 ], [ 25691.175, 5911650.375 ], [ 25691.175, 5911650.450000000186265 ], [ 25691.099999999998545, 5911650.450000000186265 ], [ 25691.099999999998545, 5911650.525000000372529 ], [ 25691.025000000001455, 5911650.525000000372529 ], [ 25691.025000000001455, 5911650.599999999627471 ], [ 25690.875, 5911650.599999999627471 ], [ 25690.875, 5911650.674999999813735 ], [ 25690.8, 5911650.674999999813735 ], [ 25690.8, 5911650.75 ], [ 25690.724999999998545, 5911650.75 ], [ 25690.724999999998545, 5911650.825000000186265 ], [ 25690.650000000001455, 5911650.825000000186265 ], [ 25690.650000000001455, 5911650.900000000372529 ], [ 25690.5, 5911650.900000000372529 ], [ 25690.5, 5911650.974999999627471 ], [ 25690.425, 5911650.974999999627471 ], [ 25690.425, 5911651.049999999813735 ], [ 25690.275000000001455, 5911651.049999999813735 ], [ 25690.275000000001455, 5911651.125 ], [ 25690.125, 5911651.125 ], [ 25690.125, 5911651.200000000186265 ], [ 25689.974999999998545, 5911651.200000000186265 ], [ 25689.974999999998545, 5911651.275000000372529 ], [ 25689.825, 5911651.275000000372529 ], [ 25689.825, 5911651.349999999627471 ], [ 25689.675, 5911651.349999999627471 ], [ 25689.675, 5911651.424999999813735 ], [ 25689.525000000001455, 5911651.424999999813735 ], [ 25689.525000000001455, 5911651.5 ], [ 25689.45, 5911651.5 ], [ 25689.45, 5911651.575000000186265 ], [ 25689.3, 5911651.575000000186265 ], [ 25689.3, 5911651.650000000372529 ], [ 25689.224999999998545, 5911651.650000000372529 ], [ 25689.224999999998545, 5911651.724999999627471 ], [ 25689.075, 5911651.724999999627471 ], [ 25689.075, 5911651.799999999813735 ], [ 25689.0, 5911651.799999999813735 ], [ 25689.0, 5911651.875 ], [ 25688.925, 5911651.875 ], [ 25688.925, 5911651.950000000186265 ], [ 25688.849999999998545, 5911651.950000000186265 ], [ 25688.849999999998545, 5911652.025000000372529 ], [ 25688.775000000001455, 5911652.025000000372529 ], [ 25688.775000000001455, 5911652.099999999627471 ], [ 25688.7, 5911652.099999999627471 ], [ 25688.7, 5911652.25 ], [ 25688.625, 5911652.25 ], [ 25688.625, 5911652.325000000186265 ], [ 25688.55, 5911652.325000000186265 ], [ 25688.55, 5911652.400000000372529 ], [ 25688.474999999998545, 5911652.400000000372529 ], [ 25688.474999999998545, 5911652.474999999627471 ], [ 25688.400000000001455, 5911652.474999999627471 ], [ 25688.400000000001455, 5911652.549999999813735 ], [ 25688.325, 5911652.549999999813735 ], [ 25688.325, 5911652.625 ], [ 25688.175, 5911652.625 ], [ 25688.175, 5911652.700000000186265 ], [ 25688.099999999998545, 5911652.700000000186265 ], [ 25688.099999999998545, 5911652.775000000372529 ], [ 25688.025000000001455, 5911652.775000000372529 ], [ 25688.025000000001455, 5911652.849999999627471 ], [ 25687.8, 5911652.849999999627471 ], [ 25687.8, 5911652.924999999813735 ], [ 25687.2, 5911652.924999999813735 ], [ 25687.2, 5911653.0 ], [ 25686.525000000001455, 5911653.0 ], [ 25686.525000000001455, 5911653.075000000186265 ], [ 25683.0, 5911653.075000000186265 ] ] ] } },
{ "type": "Feature", "properties": { "value": 1.0, "building_id": 3, "area": 200.42437499986966 }, "geometry": { "type": "Polygon", "coordinates": [ [ [ 25789.425, 5911608.825000000186265 ], [ 25789.425, 5911608.599999999627471 ], [ 25789.349999999998545, 5911608.599999999627471 ], [ 25789.349999999998545, 5911608.450000000186265 ], [ 25789.275000000001455, 5911608.450000000186265 ], [ 25789.275000000001455, 5911608.299999999813735 ], [ 25789.2, 5911608.299999999813735 ], [ 25789.2, 5911608.224999999627471 ], [ 25789.125, 5911608.224999999627471 ], [ 25789.125, 5911608.150000000372529 ], [ 25789.05, 5911608.150000000372529 ], [ 25789.05, 5911608.075000000186265 ], [ 25788.974999999998545, 5911608.075000000186265 ], [ 25788.974999999998545, 5911608.0 ], [ 25788.825, 5911608.0 ], [ 25788.825, 5911607.924999999813735 ], [ 25788.599999999998545, 5911607.924999999813735 ], [ 25788.599999999998545, 5911607.849999999627471 ], [ 25788.224999999998545, 5911607.849999999627471 ], [ 25788.224999999998545, 5911607.775000000372529 ], [ 25787.625, 5911607.775000000372529 ], [ 25787.625, 5911607.700000000186265 ], [ 25787.474999999998545, 5911607.700000000186265 ], [ 25787.474999999998545, 5911607.549999999813735 ], [ 25787.400000000001455, 5911607.549999999813735 ], [ 25787.400000000001455, 5911607.400000000372529 ], [ 25787.325, 5911607.400000000372529 ], [ 25787.325, 5911607.099999999627471 ], [ 25787.25, 5911607.099999999627471 ], [ 25787.25, 5911606.799999999813735 ], [ 25787.175, 5911606.799999999813735 ], [ 25787.175, 5911606.575000000186265 ], [ 25787.099999999998545, 5911606.575000000186265 ], [ 25787.099999999998545, 5911606.424999999813735 ], [ 25787.025000000001455, 5911606.424999999813735 ], [ 25787.025000000001455, 5911606.275000000372529 ], [ 25786.95, 5911606.275000000372529 ], [ 25786.95, 5911606.200000000186265 ], [ 25786.875, 5911606.200000000186265 ], [ 25786.875, 5911606.049999999813735 ], [ 25786.8, 5911606.049999999813735 ], [ 25786.8, 5911605.974999999627471 ], [ 25786.724999999998545, 5911605.974999999627471 ], [ 25786.724999999998545, 5911605.900000000372529 ], [ 25786.575, 5911605.900000000372529 ], [ 25786.575, 5911605.825000000186265 ], [ 25786.5, 5911605.825000000186265 ], [ 25786.5, 5911605.75 ], [ 25786.349999999998545, 5911605.75 ], [ 25786.349999999998545, 5911605.674999999813735 ], [ 25786.2, 5911605.674999999813735 ], [ 25786.2, 5911605.599999999627471 ], [ 25785.974999999998545, 5911605.599999999627471 ], [ 25785.974999999998545, 5911605.525000000372529 ], [ 25785.675, 5911605.525000000372529 ], [ 25785.675, 5911605.450000000186265 ], [ 25785.0, 5911605.450000000186265 ], [ 25785.0, 5911605.375 ], [ 25784.849999999998545, 5911605.375 ], [ 25784.849999999998545, 5911605.150000000372529 ], [ 25784.925, 5911605.150000000372529 ], [ 25784.925, 5911604.700000000186265 ], [ 25785.0, 5911604.700000000186265 ], [ 25785.0, 5911604.25 ], [ 25785.075, 5911604.25 ], [ 25785.075, 5911603.875 ], [ 25785.150000000001455, 5911603.875 ], [ 25785.150000000001455, 5911603.5 ], [ 25785.224999999998545, 5911603.5 ], [ 25785.224999999998545, 5911603.049999999813735 ], [ 25785.3, 5911603.049999999813735 ], [ 25785.3, 5911602.674999999813735 ], [ 25785.375, 5911602.674999999813735 ], [ 25785.375, 5911602.224999999627471 ], [ 25785.45, 5911602.224999999627471 ], [ 25785.45, 5911601.849999999627471 ], [ 25785.525000000001455, 5911601.849999999627471 ], [ 25785.525000000001455, 5911601.400000000372529 ], [ 25785.599999999998545, 5911601.400000000372529 ], [ 25785.599999999998545, 5911600.799999999813735 ], [ 25785.675, 5911600.799999999813735 ], [ 25785.675, 5911600.049999999813735 ], [ 25785.75, 5911600.049999999813735 ], [ 25785.75, 5911599.375 ], [ 25785.825, 5911599.375 ], [ 25785.825, 5911598.924999999813735 ], [ 25785.900000000001455, 5911598.924999999813735 ], [ 25785.900000000001455, 5911598.400000000372529 ], [ 25785.974999999998545, 5911598.400000000372529 ], [ 25785.974999999998545, 5911597.799999999813735 ], [ 25786.05, 5911597.799999999813735 ], [ 25786.05, 5911597.349999999627471 ], [ 25786.125, 5911597.349999999627471 ], [ 25786.125, 5911597.049999999813735 ], [ 25786.2, 5911597.049999999813735 ], [ 25786.2, 5911596.674999999813735 ], [ 25786.275000000001455, 5911596.674999999813735 ], [ 25786.275000000001455, 5911596.375 ], [ 25786.349999999998545, 5911596.375 ], [ 25786.349999999998545, 5911596.075000000186265 ], [ 25786.425, 5911596.075000000186265 ], [ 25786.425, 5911595.775000000372529 ], [ 25786.5, 5911595.775000000372529 ], [ 25786.5, 5911595.549999999813735 ], [ 25786.575, 5911595.549999999813735 ], [ 25786.575, 5911595.400000000372529 ], [ 25786.650000000001455, 5911595.400000000372529 ], [ 25786.650000000001455, 5911595.25 ], [ 25786.724999999998545, 5911595.25 ], [ 25786.724999999998545, 5911595.174999999813735 ], [ 25786.8, 5911595.174999999813735 ], [ 25786.8, 5911595.025000000372529 ], [ 25786.875, 5911595.025000000372529 ], [ 25786.875, 5911594.950000000186265 ], [ 25786.95, 5911594.950000000186265 ], [ 25786.95, 5911594.875 ], [ 25787.025000000001455, 5911594.875 ], [ 25787.025000000001455, 5911594.799999999813735 ], [ 25787.099999999998545, 5911594.799999999813735 ], [ 25787.099999999998545, 5911594.650000000372529 ], [ 25787.25, 5911594.650000000372529 ], [ 25787.25, 5911594.575000000186265 ], [ 25787.325, 5911594.575000000186265 ], [ 25787.325, 5911594.5 ], [ 25787.400000000001455, 5911594.5 ], [ 25787.400000000001455, 5911594.424999999813735 ], [ 25787.474999999998545, 5911594.424999999813735 ], [ 25787.474999999998545, 5911594.349999999627471 ], [ 25787.55, 5911594.349999999627471 ], [ 25787.55, 5911594.275000000372529 ], [ 25787.625, 5911594.275000000372529 ], [ 25787.625, 5911594.200000000186265 ], [ 25787.7, 5911594.200000000186265 ], [ 25787.7, 5911594.125 ], [ 25787.775000000001455, 5911594.125 ], [ 25787.775000000001455, 5911594.049999999813735 ], [ 25787.849999999998545, 5911594.049999999813735 ], [ 25787.849999999998545, 5911593.974999999627471 ], [ 25787.925, 5911593.974999999627471 ], [ 25787.925, 5911593.900000000372529 ], [ 25788.0, 5911593.900000000372529 ], [ 25788.0, 5911593.825000000186265 ], [ 25788.075, 5911593.825000000186265 ], [ 25788.075, 5911593.674999999813735 ], [ 25788.150000000001455, 5911593.674999999813735 ], [ 25788.150000000001455, 5911593.525000000372529 ], [ 25788.224999999998545, 5911593.525000000372529 ], [ 25788.224999999998545, 5911593.450000000186265 ], [ 25788.3, 5911593.450000000186265 ], [ 25788.3, 5911593.299999999813735 ], [ 25788.375, 5911593.299999999813735 ], [ 25788.375, 5911593.150000000372529 ], [ 25788.45, 5911593.150000000372529 ], [ 25788.45, 5911593.075000000186265 ], [ 25788.525000000001455, 5911593.075000000186265 ], [ 25788.525000000001455, 5911593.0 ], [ 25788.599999999998545, 5911593.0 ], [ 25788.599999999998545, 5911592.849999999627471 ], [ 25788.675, 5911592.849999999627471 ], [ 25788.675, 5911592.775000000372529 ], [ 25788.75, 5911592.775000000372529 ], [ 25788.75, 5911592.700000000186265 ], [ 25788.825, 5911592.700000000186265 ], [ 25788.825, 5911592.625 ], [ 25788.900000000001455, 5911592.625 ], [ 25788.900000000001455, 5911592.549999999813735 ], [ 25788.974999999998545, 5911592.549999999813735 ], [ 25788.974999999998545, 5911592.474999999627471 ], [ 25789.05, 5911592.474999999627471 ], [ 25789.05, 5911592.400000000372529 ], [ 25789.2, 5911592.400000000372529 ], [ 25789.2, 5911592.325000000186265 ], [ 25789.275000000001455, 5911592.325000000186265 ], [ 25789.275000000001455, 5911592.25 ], [ 25789.349999999998545, 5911592.25 ], [ 25789.349999999998545, 5911592.174999999813735 ], [ 25789.5, 5911592.174999999813735 ], [ 25789.5, 5911592.099999999627471 ], [ 25789.650000000001455, 5911592.099999999627471 ], [ 25789.650000000001455, 5911592.025000000372529 ], [ 25789.8, 5911592.025000000372529 ], [ 25789.8, 5911591.950000000186265 ], [ 25789.95, 5911591.950000000186265 ], [ 25789.95, 5911591.875 ], [ 25790.099999999998545, 5911591.875 ], [ 25790.099999999998545, 5911591.799999999813735 ], [ 25790.175, 5911591.799999999813735 ], [ 25790.175, 5911591.724999999627471 ], [ 25790.325, 5911591.724999999627471 ], [ 25790.325, 5911591.650000000372529 ], [ 25790.400000000001455, 5911591.650000000372529 ], [ 25790.400000000001455, 5911591.575000000186265 ], [ 25790.55, 5911591.575000000186265 ], [ 25790.55, 5911591.5 ], [ 25790.7, 5911591.5 ], [ 25790.7, 5911591.424999999813735 ], [ 25790.775000000001455, 5911591.424999999813735 ], [ 25790.775000000001455, 5911591.349999999627471 ], [ 25790.925, 5911591.349999999627471 ], [ 25790.925, 5911591.275000000372529 ], [ 25791.075, 5911591.275000000372529 ], [ 25791.075, 5911591.200000000186265 ], [ 25791.3, 5911591.200000000186265 ], [ 25791.3, 5911591.125 ], [ 25791.45, 5911591.125 ], [ 25791.45, 5911591.049999999813735 ], [ 25791.75, 5911591.049999999813735 ], [ 25791.75, 5911590.974999999627471 ], [ 25792.125, 5911590.974999999627471 ], [ 25792.125, 5911590.900000000372529 ], [ 25792.425, 5911590.900000000372529 ], [ 25792.425, 5911590.825000000186265 ], [ 25792.8, 5911590.825000000186265 ], [ 25792.8, 5911590.75 ], [ 25793.175, 5911590.75 ], [ 25793.175, 5911590.674999999813735 ], [ 25793.625, 5911590.674999999813735 ], [ 25793.625, 5911590.599999999627471 ], [ 25793.775000000001455, 5911590.599999999627471 ], [ 25793.775000000001455, 5911590.674999999813735 ], [ 25794.150000000001455, 5911590.674999999813735 ], [ 25794.150000000001455, 5911590.75 ], [ 25794.525000000001455, 5911590.75 ], [ 25794.525000000001455, 5911590.825000000186265 ], [ 25794.974999999998545, 5911590.825000000186265 ], [ 25794.974999999998545, 5911590.900000000372529 ], [ 25795.425, 5911590.900000000372529 ], [ 25795.425, 5911590.974999999627471 ], [ 25796.025000000001455, 5911590.974999999627471 ], [ 25796.025000000001455, 5911591.049999999813735 ], [ 25796.474999999998545, 5911591.049999999813735 ], [ 25796.474999999998545, 5911591.125 ], [ 25796.849999999998545, 5911591.125 ], [ 25796.849999999998545, 5911591.200000000186265 ], [ 25797.075, 5911591.200000000186265 ], [ 25797.075, 5911591.275000000372529 ], [ 25797.3, 5911591.275000000372529 ], [ 25797.3, 5911591.349999999627471 ], [ 25797.675, 5911591.349999999627471 ], [ 25797.675, 5911591.5 ], [ 25797.75, 5911591.5 ], [ 25797.75, 5911591.575000000186265 ], [ 25797.825, 5911591.575000000186265 ], [ 25797.825, 5911591.650000000372529 ], [ 25797.900000000001455, 5911591.650000000372529 ], [ 25797.900000000001455, 5911591.950000000186265 ], [ 25797.974999999998545, 5911591.950000000186265 ], [ 25797.974999999998545, 5911592.325000000186265 ], [ 25798.05, 5911592.325000000186265 ], [ 25798.05, 5911592.700000000186265 ], [ 25798.125, 5911592.700000000186265 ], [ 25798.125, 5911593.075000000186265 ], [ 25798.2, 5911593.075000000186265 ], [ 25798.2, 5911593.599999999627471 ], [ 25798.275000000001455, 5911593.599999999627471 ], [ 25798.275000000001455, 5911594.724999999627471 ], [ 25798.349999999998545, 5911594.724999999627471 ], [ 25798.349999999998545, 5911596.825000000186265 ], [ 25798.425, 5911596.825000000186265 ], [ 25798.425, 5911601.400000000372529 ], [ 25798.349999999998545, 5911601.400000000372529 ], [ 25798.349999999998545, 5911603.650000000372529 ], [ 25798.275000000001455, 5911603.650000000372529 ], [ 25798.275000000001455, 5911604.549999999813735 ], [ 25798.2, 5911604.549999999813735 ], [ 25798.2, 5911605.299999999813735 ], [ 25798.125, 5911605.299999999813735 ], [ 25798.125, 5911605.599999999627471 ], [ 25798.05, 5911605.599999999627471 ], [ 25798.05, 5911605.75 ], [ 25797.974999999998545, 5911605.75 ], [ 25797.974999999998545, 5911605.974999999627471 ], [ 25797.900000000001455, 5911605.974999999627471 ], [ 25797.900000000001455, 5911606.125 ], [ 25797.825, 5911606.125 ], [ 25797.825, 5911606.275000000372529 ], [ 25797.75, 5911606.275000000372529 ], [ 25797.75, 5911606.424999999813735 ], [ 25797.675, 5911606.424999999813735 ], [ 25797.675, 5911606.5 ], [ 25797.599999999998545, 5911606.5 ], [ 25797.599999999998545, 5911606.650000000372529 ], [ 25797.525000000001455, 5911606.650000000372529 ], [ 25797.525000000001455, 5911606.724999999627471 ], [ 25797.45, 5911606.724999999627471 ], [ 25797.45, 5911606.875 ], [ 25797.375, 5911606.875 ], [ 25797.375, 5911606.950000000186265 ], [ 25797.3, 5911606.950000000186265 ], [ 25797.3, 5911607.025000000372529 ], [ 25797.224999999998545, 5911607.025000000372529 ], [ 25797.224999999998545, 5911607.174999999813735 ], [ 25797.150000000001455, 5911607.174999999813735 ], [ 25797.150000000001455, 5911607.25 ], [ 25797.075, 5911607.25 ], [ 25797.075, 5911607.474999999627471 ], [ 25797.0, 5911607.474999999627471 ], [ 25797.0, 5911607.700000000186265 ], [ 25796.925, 5911607.700000000186265 ], [ 25796.925, 5911607.849999999627471 ], [ 25796.849999999998545, 5911607.849999999627471 ], [ 25796.849999999998545, 5911607.924999999813735 ], [ 25796.775000000001455, 5911607.924999999813735 ], [ 25796.775000000001455, 5911608.0 ], [ 25796.7, 5911608.0 ], [ 25796.7, 5911608.075000000186265 ], [ 25796.55, 5911608.075000000186265 ], [ 25796.55, 5911608.150000000372529 ], [ 25796.400000000001455, 5911608.150000000372529 ], [ 25796.400000000001455, 5911608.224999999627471 ], [ 25796.25, 5911608.224999999627471 ], [ 25796.25, 5911608.299999999813735 ], [ 25796.099999999998545, 5911608.299999999813735 ], [ 25796.099999999998545, 5911608.375 ], [ 25795.95, 5911608.375 ], [ 25795.95, 5911608.450000000186265 ], [ 25795.724999999998545, 5911608.450000000186265 ], [ 25795.724999999998545, 5911608.525000000372529 ], [ 25795.575, 5911608.525000000372529 ], [ 25795.575, 5911608.599999999627471 ], [ 25795.349999999998545, 5911608.599999999627471 ], [ 25795.349999999998545, 5911608.674999999813735 ], [ 25794.675, 5911608.674999999813735 ], [ 25794.675, 5911608.599999999627471 ], [ 25793.625, 5911608.599999999627471 ], [ 25793.625, 5911608.525000000372529 ], [ 25791.825, 5911608.525000000372529 ], [ 25791.825, 5911608.599999999627471 ], [ 25790.55, 5911608.599999999627471 ], [ 25790.55, 5911608.674999999813735 ], [ 25789.95, 5911608.674999999813735 ], [ 25789.95, 5911608.75 ], [ 25789.575, 5911608.75 ], [ 25789.575, 5911608.825000000186265 ], [ 25789.425, 5911608.825000000186265 ] ] ] } },
{ "type": "Feature", "properties": { "value": 1.0, "building_id": 4, "area": 15.030000000099804 }, "geometry": { "type": "Polygon", "coordinates": [ [ [ 25734.75, 5911544.099999999627471 ], [ 25734.75, 5911544.025000000372529 ], [ 25734.675, 5911544.025000000372529 ], [ 25734.675, 5911543.875 ], [ 25734.599999999998545, 5911543.875 ], [ 25734.599999999998545, 5911543.724999999627471 ], [ 25734.525000000001455, 5911543.724999999627471 ], [ 25734.525000000001455, 5911543.5 ], [ 25734.45, 5911543.5 ], [ 25734.45, 5911543.349999999627471 ], [ 25734.375, 5911543.349999999627471 ], [ 25734.375, 5911543.049999999813735 ], [ 25734.3, 5911543.049999999813735 ], [ 25734.3, 5911542.674999999813735 ], [ 25734.224999999998545, 5911542.674999999813735 ], [ 25734.224999999998545, 5911541.400000000372529 ], [ 25734.150000000001455, 5911541.400000000372529 ], [ 25734.150000000001455, 5911539.599999999627471 ], [ 25734.075, 5911539.599999999627471 ], [ 25734.075, 5911538.025000000372529 ], [ 25734.0, 5911538.025000000372529 ], [ 25734.0, 5911536.974999999627471 ], [ 25734.075, 5911536.974999999627471 ], [ 25734.075, 5911536.900000000372529 ], [ 25734.150000000001455, 5911536.900000000372529 ], [ 25734.150000000001455, 5911536.825000000186265 ], [ 25734.3, 5911536.825000000186265 ], [ 25734.3, 5911536.75 ], [ 25734.375, 5911536.75 ], [ 25734.375, 5911536.674999999813735 ], [ 25734.525000000001455, 5911536.674999999813735 ], [ 25734.525000000001455, 5911536.599999999627471 ], [ 25734.675, 5911536.599999999627471 ], [ 25734.675, 5911536.525000000372529 ], [ 25734.900000000001455, 5911536.525000000372529 ], [ 25734.900000000001455, 5911536.599999999627471 ], [ 25735.2, 5911536.599999999627471 ], [ 25735.2, 5911536.674999999813735 ], [ 25735.425, 5911536.674999999813735 ], [ 25735.425, 5911536.75 ], [ 25735.650000000001455, 5911536.75 ], [ 25735.650000000001455, 5911536.825000000186265 ], [ 25735.875, 5911536.825000000186265 ], [ 25735.875, 5911536.900000000372529 ], [ 25736.025000000001455, 5911536.900000000372529 ], [ 25736.025000000001455, 5911536.974999999627471 ], [ 25736.175, 5911536.974999999627471 ], [ 25736.175, 5911537.5 ], [ 25736.25, 5911537.5 ], [ 25736.25, 5911539.0 ], [ 25736.325, 5911539.0 ], [ 25736.325, 5911540.799999999813735 ], [ 25736.400000000001455, 5911540.799999999813735 ], [ 25736.400000000001455, 5911542.674999999813735 ], [ 25736.474999999998545, 5911542.674999999813735 ], [ 25736.474999999998545, 5911542.900000000372529 ], [ 25736.400000000001455, 5911542.900000000372529 ], [ 25736.400000000001455, 5911542.974999999627471 ], [ 25736.325, 5911542.974999999627471 ], [ 25736.325, 5911543.049999999813735 ], [ 25736.25, 5911543.049999999813735 ], [ 25736.25, 5911543.125 ], [ 25736.175, 5911543.125 ], [ 25736.175, 5911543.200000000186265 ], [ 25736.099999999998545, 5911543.200000000186265 ], [ 25736.099999999998545, 5911543.275000000372529 ], [ 25736.025000000001455, 5911543.275000000372529 ], [ 25736.025000000001455, 5911543.349999999627471 ], [ 25735.95, 5911543.349999999627471 ], [ 25735.95, 5911543.424999999813735 ], [ 25735.8, 5911543.424999999813735 ], [ 25735.8, 5911543.5 ], [ 25735.724999999998545, 5911543.5 ], [ 25735.724999999998545, 5911543.575000000186265 ], [ 25735.650000000001455, 5911543.575000000186265 ], [ 25735.650000000001455, 5911543.650000000372529 ], [ 25735.5, 5911543.650000000372529 ], [ 25735.5, 5911543.724999999627471 ], [ 25735.425, 5911543.724999999627471 ], [ 25735.425, 5911543.799999999813735 ], [ 25735.275000000001455, 5911543.799999999813735 ], [ 25735.275000000001455, 5911543.875 ], [ 25735.2, 5911543.875 ], [ 25735.2, 5911543.950000000186265 ], [ 25735.05, 5911543.950000000186265 ], [ 25735.05, 5911544.025000000372529 ], [ 25734.900000000001455, 5911544.025000000372529 ], [ 25734.900000000001455, 5911544.099999999627471 ], [ 25734.75, 5911544.099999999627471 ] ] ] } },
{ "type": "Feature", "properties": { "value": 1.0, "building_id": 5, "area": 7.3687500002087356 }, "geometry": { "type": "Polygon", "coordinates": [ [ [ 25703.474999999998545, 5911532.700000000186265 ], [ 25703.474999999998545, 5911532.474999999627471 ], [ 25703.400000000001455, 5911532.474999999627471 ], [ 25703.400000000001455, 5911532.174999999813735 ], [ 25703.325, 5911532.174999999813735 ], [ 25703.325, 5911531.875 ], [ 25703.25, 5911531.875 ], [ 25703.25, 5911531.5 ], [ 25703.175, 5911531.5 ], [ 25703.175, 5911531.125 ], [ 25703.099999999998545, 5911531.125 ], [ 25703.099999999998545, 5911530.375 ], [ 25703.025000000001455, 5911530.375 ], [ 25703.025000000001455, 5911529.625 ], [ 25702.95, 5911529.625 ], [ 25702.95, 5911529.174999999813735 ], [ 25703.025000000001455, 5911529.174999999813735 ], [ 25703.025000000001455, 5911529.025000000372529 ], [ 25703.099999999998545, 5911529.025000000372529 ], [ 25703.099999999998545, 5911528.950000000186265 ], [ 25703.175, 5911528.950000000186265 ], [ 25703.175, 5911528.875 ], [ 25703.25, 5911528.875 ], [ 25703.25, 5911528.799999999813735 ], [ 25703.400000000001455, 5911528.799999999813735 ], [ 25703.400000000001455, 5911528.724999999627471 ], [ 25703.474999999998545, 5911528.724999999627471 ], [ 25703.474999999998545, 5911528.650000000372529 ], [ 25703.775000000001455, 5911528.650000000372529 ], [ 25703.775000000001455, 5911528.724999999627471 ], [ 25704.45, 5911528.724999999627471 ], [ 25704.45, 5911528.799999999813735 ], [ 25705.05, 5911528.799999999813735 ], [ 25705.05, 5911528.875 ], [ 25705.575, 5911528.875 ], [ 25705.575, 5911528.950000000186265 ], [ 25705.875, 5911528.950000000186265 ], [ 25705.875, 5911529.025000000372529 ], [ 25706.175, 5911529.025000000372529 ], [ 25706.175, 5911529.099999999627471 ], [ 25706.474999999998545, 5911529.099999999627471 ], [ 25706.474999999998545, 5911529.174999999813735 ], [ 25706.625, 5911529.174999999813735 ], [ 25706.625, 5911529.25 ], [ 25706.55, 5911529.25 ], [ 25706.55, 5911529.325000000186265 ], [ 25706.474999999998545, 5911529.325000000186265 ], [ 25706.474999999998545, 5911529.400000000372529 ], [ 25706.325, 5911529.400000000372529 ], [ 25706.325, 5911529.474999999627471 ], [ 25706.25, 5911529.474999999627471 ], [ 25706.25, 5911529.549999999813735 ], [ 25706.175, 5911529.549999999813735 ], [ 25706.175, 5911529.625 ], [ 25706.099999999998545, 5911529.625 ], [ 25706.099999999998545, 5911529.700000000186265 ], [ 25706.025000000001455, 5911529.700000000186265 ], [ 25706.025000000001455, 5911529.775000000372529 ], [ 25705.95, 5911529.775000000372529 ], [ 25705.95, 5911529.849999999627471 ], [ 25705.875, 5911529.849999999627471 ], [ 25705.875, 5911529.924999999813735 ], [ 25705.8, 5911529.924999999813735 ], [ 25705.8, 5911530.0 ], [ 25705.724999999998545, 5911530.0 ], [ 25705.724999999998545, 5911530.075000000186265 ], [ 25705.650000000001455, 5911530.075000000186265 ], [ 25705.650000000001455, 5911530.150000000372529 ], [ 25705.575, 5911530.150000000372529 ], [ 25705.575, 5911530.224999999627471 ], [ 25705.5, 5911530.224999999627471 ], [ 25705.5, 5911530.299999999813735 ], [ 25705.425, 5911530.299999999813735 ], [ 25705.425, 5911530.375 ], [ 25705.349999999998545, 5911530.375 ], [ 25705.349999999998545, 5911530.450000000186265 ], [ 25705.275000000001455, 5911530.450000000186265 ], [ 25705.275000000001455, 5911530.525000000372529 ], [ 25705.2, 5911530.525000000372529 ], [ 25705.2, 5911530.599999999627471 ], [ 25705.125, 5911530.599999999627471 ], [ 25705.125, 5911530.674999999813735 ], [ 25705.05, 5911530.674999999813735 ], [ 25705.05, 5911530.75 ], [ 25704.974999999998545, 5911530.75 ], [ 25704.974999999998545, 5911530.900000000372529 ], [ 25704.900000000001455, 5911530.900000000372529 ], [ 25704.900000000001455, 5911530.974999999627471 ], [ 25704.825, 5911530.974999999627471 ], [ 25704.825, 5911531.049999999813735 ], [ 25704.75, 5911531.049999999813735 ], [ 25704.75, 5911531.125 ], [ 25704.675, 5911531.125 ], [ 25704.675, 5911531.200000000186265 ], [ 25704.599999999998545, 5911531.200000000186265 ], [ 25704.599999999998545, 5911531.275000000372529 ], [ 25704.525000000001455, 5911531.275000000372529 ], [ 25704.525000000001455, 5911531.349999999627471 ], [ 25704.45, 5911531.349999999627471 ], [ 25704.45, 5911531.424999999813735 ], [ 25704.375, 5911531.424999999813735 ], [ 25704.375, 5911531.575000000186265 ], [ 25704.3, 5911531.575000000186265 ], [ 25704.3, 5911531.650000000372529 ], [ 25704.224999999998545, 5911531.650000000372529 ], [ 25704.224999999998545, 5911531.724999999627471 ], [ 25704.150000000001455, 5911531.724999999627471 ], [ 25704.150000000001455, 5911531.799999999813735 ], [ 25704.075, 5911531.799999999813735 ], [ 25704.075, 5911531.875 ], [ 25704.0, 5911531.875 ], [ 25704.0, 5911532.025000000372529 ], [ 25703.925, 5911532.025000000372529 ], [ 25703.925, 5911532.099999999627471 ], [ 25703.849999999998545, 5911532.099999999627471 ], [ 25703.849999999998545, 5911532.25 ], [ 25703.775000000001455, 5911532.25 ], [ 25703.775000000001455, 5911532.325000000186265 ], [ 25703.7, 5911532.325000000186265 ], [ 25703.7, 5911532.474999999627471 ], [ 25703.625, 5911532.474999999627471 ], [ 25703.625, 5911532.549999999813735 ], [ 25703.55, 5911532.549999999813735 ], [ 25703.55, 5911532.700000000186265 ], [ 25703.474999999998545, 5911532.700000000186265 ] ] ] } }
]
}
