{
"type": "FeatureCollection",
"name": "25683E594132N_buildings",
"crs": { "type": "name", "properties": { "name": "urn:ogc:def:crs:EPSG::3776" } },
"features": [
{ "type": "Feature", "properties": { "value": 1.0, "building_id": 0, "area": 1198.3949999978081 }, "geometry": { "type": "Polygon", "coordinates": [ [ [ 26388.974999999998545, 5941545.900000000372529 ], [ 26388.974999999998545, 5941545.825000000186265 ], [ 26388.375, 5941545.825000000186265 ], [ 26388.375, 5941545.75 ], [ 26387.775000000001455, 5941545.75 ], [ 26387.775000000001455, 5941545.674999999813735 ], [ 26387.099999999998545, 5941545.674999999813735 ], [ 26387.099999999998545, 5941545.599999999627471 ], [ 26386.349999999998545, 5941545.599999999627471 ], [ 26386.349999999998545, 5941545.525000000372529 ], [ 26385.525000000001455, 5941545.525000000372529 ], [ 26385.525000000001455, 5941545.450000000186265 ], [ 26384.775000000001455, 5941545.450000000186265 ], [ 26384.775000000001455, 5941545.375 ], [ 26384.025000000001455, 5941545.375 ], [ 26384.025000000001455, 5941545.299999999813735 ], [ 26383.349999999998545, 5941545.299999999813735 ], [ 26383.349999999998545, 5941545.224999999627471 ], [ 26382.3, 5941545.224999999627471 ], [ 26382.3, 5941545.150000000372529 ], [ 26380.275000000001455, 5941545.150000000372529 ], [ 26380.275000000001455, 5941545.075000000186265 ], [ 26369.7, 5941545.075000000186265 ], [ 26369.7, 5941545.0 ], [ 26365.575, 5941545.0 ], [ 26365.575, 5941544.924999999813735 ], [ 26363.849999999998545, 5941544.924999999813735 ], [ 26363.849999999998545, 5941544.849999999627471 ], [ 26362.275000000001455, 5941544.849999999627471 ], [ 26362.275000000001455, 5941544.775000000372529 ], [ 26360.849999999998545, 5941544.775000000372529 ], [ 26360.849999999998545, 5941544.700000000186265 ], [ 26359.5, 5941544.700000000186265 ], [ 26359.5, 5941544.625 ], [ 26358.599999999998545, 5941544.625 ], [ 26358.599999999998545, 5941544.549999999813735 ], [ 26357.7, 5941544.549999999813735 ], [ 26357.7, 5941544.474999999627471 ], [ 26356.95, 5941544.474999999627471 ], [ 26356.95, 5941544.400000000372529 ], [ 26356.125, 5941544.400000000372529 ], [ 26356.125, 5941544.325000000186265 ], [ 26355.224999999998545, 5941544.325000000186265 ], [ 26355.224999999998545, 5941544.25 ], [ 26354.325, 5941544.25 ], [ 26354.325, 5941544.174999999813735 ], [ 26353.349999999998545, 5941544.174999999813735 ], [ 26353.349999999998545, 5941544.099999999627471 ], [ 26352.45, 5941544.099999999627471 ], [ 26352.45, 5941544.025000000372529 ], [ 26351.849999999998545, 5941544.025000000372529 ], [ 26351.849999999998545, 5941543.950000000186265 ], [ 26351.625, 5941543.950000000186265 ], [ 26351.625, 5941543.875 ], [ 26351.474999999998545, 5941543.875 ], [ 26351.474999999998545, 5941543.799999999813735 ], [ 26351.25, 5941543.799999999813735 ], [ 26351.25, 5941543.724999999627471 ], [ 26351.099999999998545, 5941543.724999999627471 ], [ 26351.099999999998545, 5941543.650000000372529 ], [ 26350.95, 5941543.650000000372529 ], [ 26350.95, 5941543.575000000186265 ], [ 26350.8, 5941543.575000000186265 ], [ 26350.8, 5941543.5 ], [ 26350.724999999998545, 5941543.5 ], [ 26350.724999999998545, 5941542.825000000186265 ], [ 26350.8, 5941542.825000000186265 ], [ 26350.8, 5941542.674999999813735 ], [ 26350.875, 5941542.674999999813735 ], [ 26350.875, 5941542.599999999627471 ], [ 26350.95, 5941542.599999999627471 ], [ 26350.95, 5941542.450000000186265 ], [ 26351.025000000001455, 5941542.450000000186265 ], [ 26351.025000000001455, 5941542.375 ], [ 26351.099999999998545, 5941542.375 ], [ 26351.099999999998545, 5941542.224999999627471 ], [ 26351.175, 5941542.224999999627471 ], [ 26351.175, 5941542.075000000186265 ], [ 26351.25, 5941542.075000000186265 ], [ 26351.25, 5941542.0 ], [ 26351.325, 5941542.0 ], [ 26351.325, 5941541.849999999627471 ], [ 26351.400000000001455, 5941541.849999999627471 ], [ 26351.400000000001455, 5941541.700000000186265 ], [ 26351.474999999998545, 5941541.700000000186265 ], [ 26351.474999999998545, 5941541.625 ], [ 26351.55, 5941541.625 ], [ 26351.55, 5941541.474999999627471 ], [ 26351.625, 5941541.474999999627471 ], [ 26351.625, 5941541.325000000186265 ], [ 26351.7, 5941541.325000000186265 ], [ 26351.7, 5941541.25 ], [ 26351.775000000001455, 5941541.25 ], [ 26351.775000000001455, 5941541.099999999627471 ], [ 26351.849999999998545, 5941541.099999999627471 ], [ 26351.849999999998545, 5941540.950000000186265 ], [ 26351.925, 5941540.950000000186265 ], [ 26351.925, 5941540.799999999813735 ], [ 26352.0, 5941540.799999999813735 ], [ 26352.0, 5941540.724999999627471 ], [ 26352.075, 5941540.724999999627471 ], [ 26352.075, 5941540.575000000186265 ], [ 26352.150000000001455, 5941540.575000000186265 ], [ 26352.150000000001455, 5941540.5 ], [ 26352.224999999998545, 5941540.5 ], [ 26352.224999999998545, 5941540.349999999627471 ], [ 26352.3, 5941540.349999999627471 ], [ 26352.3, 5941540.200000000186265 ], [ 26352.375, 5941540.200000000186265 ], [ 26352.375, 5941540.049999999813735 ], [ 26352.45, 5941540.049999999813735 ], [ 26352.45, 5941539.900000000372529 ], [ 26352.525000000001455, 5941539.900000000372529 ], [ 26352.525000000001455, 5941539.75 ], [ 26352.599999999998545, 5941539.75 ], [ 26352.599999999998545, 5941539.599999999627471 ], [ 26352.675, 5941539.599999999627471 ], [ 26352.675, 5941539.375 ], [ 26352.75, 5941539.375 ], [ 26352.75, 5941539.224999999627471 ], [ 26352.825, 5941539.224999999627471 ], [ 26352.825, 5941539.0 ], [ 26352.900000000001455, 5941539.0 ], [ 26352.900000000001455, 5941538.700000000186265 ], [ 26352.974999999998545, 5941538.700000000186265 ], [ 26352.974999999998545, 5941538.400000000372529 ], [ 26353.05, 5941538.400000000372529 ], [ 26353.05, 5941538.099999999627471 ], [ 26353.125, 5941538.099999999627471 ], [ 26353.125, 5941537.799999999813735 ], [ 26353.2, 5941537.799999999813735 ], [ 26353.2, 5941537.424999999813735 ], [ 26353.275000000001455, 5941537.424999999813735 ], [ 26353.275000000001455, 5941537.200000000186265 ], [ 26353.349999999998545, 5941537.200000000186265 ], [ 26353.349999999998545, 5941537.049999999813735 ], [ 26353.425, 5941537.049999999813735 ], [ 26353.425, 5941536.825000000186265 ], [ 26353.5, 5941536.825000000186265 ], [ 26353.5, 5941536.599999999627471 ], [ 26353.575, 5941536.599999999627471 ], [ 26353.575, 5941536.375 ], [ 26353.650000000001455, 5941536.375 ], [ 26353.650000000001455, 5941536.150000000372529 ], [ 26353.724999999998545, 5941536.150000000372529 ], [ 26353.724999999998545, 5941535.924999999813735 ], [ 26353.8, 5941535.924999999813735 ], [ 26353.8, 5941535.700000000186265 ], [ 26353.875, 5941535.700000000186265 ], [ 26353.875, 5941535.549999999813735 ], [ 26353.95, 5941535.549999999813735 ], [ 26353.95, 5941535.325000000186265 ], [ 26354.025000000001455, 5941535.325000000186265 ], [ 26354.025000000001455, 5941535.099999999627471 ], [ 26354.099999999998545, 5941535.099999999627471 ], [ 26354.099999999998545, 5941534.5 ], [ 26354.175, 5941534.5 ], [ 26354.175, 5941534.349999999627471 ], [ 26354.25, 5941534.349999999627471 ], [ 26354.25, 5941534.200000000186265 ], [ 26354.325, 5941534.200000000186265 ], [ 26354.325, 5941534.049999999813735 ], [ 26354.400000000001455, 5941534.049999999813735 ], [ 26354.400000000001455, 5941533.900000000372529 ], [ 26354.474999999998545, 5941533.900000000372529 ], [ 26354.474999999998545, 5941533.75 ], [ 26354.55, 5941533.75 ], [ 26354.55, 5941533.599999999627471 ], [ 26354.625, 5941533.599999999627471 ], [ 26354.625, 5941533.525000000372529 ], [ 26354.7, 5941533.525000000372529 ], [ 26354.7, 5941533.375 ], [ 26354.775000000001455, 5941533.375 ], [ 26354.775000000001455, 5941533.224999999627471 ], [ 26354.849999999998545, 5941533.224999999627471 ], [ 26354.849999999998545, 5941533.150000000372529 ], [ 26354.925, 5941533.150000000372529 ], [ 26354.925, 5941533.0 ], [ 26355.0, 5941533.0 ], [ 26355.0, 5941532.849999999627471 ], [ 26355.075, 5941532.849999999627471 ], [ 26355.075, 5941532.700000000186265 ], [ 26355.150000000001455, 5941532.700000000186265 ], [ 26355.150000000001455, 5941532.549999999813735 ], [ 26355.224999999998545, 5941532.549999999813735 ], [ 26355.224999999998545, 5941532.474999999627471 ], [ 26355.3, 5941532.474999999627471 ], [ 26355.3, 5941532.325000000186265 ], [ 26355.375, 5941532.325000000186265 ], [ 26355.375, 5941532.25 ], [ 26355.45, 5941532.25 ], [ 26355.45, 5941532.174999999813735 ], [ 26355.525000000001455, 5941532.174999999813735 ], [ 26355.525000000001455, 5941532.099999999627471 ], [ 26355.599999999998545, 5941532.099999999627471 ], [ 26355.599999999998545, 5941531.950000000186265 ], [ 26355.675, 5941531.950000000186265 ], [ 26355.675, 5941531.875 ], [ 26355.75, 5941531.875 ], [ 26355.75, 5941531.799999999813735 ], [ 26355.900000000001455, 5941531.799999999813735 ], [ 26355.900000000001455, 5941531.724999999627471 ], [ 26355.974999999998545, 5941531.724999999627471 ], [ 26355.974999999998545, 5941531.650000000372529 ], [ 26356.05, 5941531.650000000372529 ], [ 26356.05, 5941531.575000000186265 ], [ 26356.2, 5941531.575000000186265 ], [ 26356.2, 5941531.5 ], [ 26356.275000000001455, 5941531.5 ], [ 26356.275000000001455, 5941531.424999999813735 ], [ 26356.425, 5941531.424999999813735 ], [ 26356.425, 5941531.349999999627471 ], [ 26356.575, 5941531.349999999627471 ], [ 26356.575, 5941531.275000000372529 ], [ 26356.724999999998545, 5941531.275000000372529 ], [ 26356.724999999998545, 5941531.200000000186265 ], [ 26356.875, 5941531.200000000186265 ], [ 26356.875, 5941531.125 ], [ 26356.95, 5941531.125 ], [ 26356.95, 5941531.049999999813735 ], [ 26357.025000000001455, 5941531.049999999813735 ], [ 26357.025000000001455, 5941530.974999999627471 ], [ 26357.099999999998545, 5941530.974999999627471 ], [ 26357.099999999998545, 5941530.900000000372529 ], [ 26357.25, 5941530.900000000372529 ], [ 26357.25, 5941530.825000000186265 ], [ 26357.325, 5941530.825000000186265 ], [ 26357.325, 5941530.75 ], [ 26357.55, 5941530.75 ], [ 26357.55, 5941530.674999999813735 ], [ 26357.925, 5941530.674999999813735 ], [ 26357.925, 5941530.599999999627471 ], [ 26358.3, 5941530.599999999627471 ], [ 26358.3, 5941530.525000000372529 ], [ 26358.675, 5941530.525000000372529 ], [ 26358.675, 5941530.450000000186265 ], [ 26359.05, 5941530.450000000186265 ], [ 26359.05, 5941530.375 ], [ 26359.5, 5941530.375 ], [ 26359.5, 5941530.299999999813735 ], [ 26360.025000000001455, 5941530.299999999813735 ], [ 26360.025000000001455, 5941530.224999999627471 ], [ 26360.625, 5941530.224999999627471 ], [ 26360.625, 5941530.150000000372529 ], [ 26361.3, 5941530.150000000372529 ], [ 26361.3, 5941530.075000000186265 ], [ 26362.05, 5941530.075000000186265 ], [ 26362.05, 5941530.0 ], [ 26362.8, 5941530.0 ], [ 26362.8, 5941529.924999999813735 ], [ 26363.7, 5941529.924999999813735 ], [ 26363.7, 5941529.849999999627471 ], [ 26364.599999999998545, 5941529.849999999627471 ], [ 26364.599999999998545, 5941529.775000000372529 ], [ 26365.5, 5941529.775000000372529 ], [ 26365.5, 5941529.700000000186265 ], [ 26385.224999999998545, 5941529.700000000186265 ], [ 26385.224999999998545, 5941529.775000000372529 ], [ 26389.95, 5941529.775000000372529 ], [ 26389.95, 5941529.849999999627471 ], [ 26391.974999999998545, 5941529.849999999627471 ], [ 26391.974999999998545, 5941529.924999999813735 ], [ 26393.7, 5941529.924999999813735 ], [ 26393.7, 5941530.0 ], [ 26395.349999999998545, 5941530.0 ], [ 26395.349999999998545, 5941530.075000000186265 ], [ 26397.0, 5941530.075000000186265 ], [ 26397.0, 5941530.150000000372529 ], [ 26398.575, 5941530.150000000372529 ], [ 26398.575, 5941530.224999999627471 ], [ 26400.224999999998545, 5941530.224999999627471 ], [ 26400.224999999998545, 5941530.299999999813735 ], [ 26401.8, 5941530.299999999813735 ], [ 26401.8, 5941530.375 ], [ 26403.375, 5941530.375 ], [ 26403.375, 5941530.450000000186265 ], [ 26405.099999999998545, 5941530.450000000186265 ], [ 26405.099999999998545, 5941530.525000000372529 ], [ 26411.025000000001455, 5941530.525000000372529 ], [ 26411.025000000001455, 5941530.450000000186265 ], [ 26413.349999999998545, 5941530.450000000186265 ], [ 26413.349999999998545, 5941530.525000000372529 ], [ 26416.275000000001455, 5941530.525000000372529 ], [ 26416.275000000001455, 5941530.599999999627471 ], [ 26418.45, 5941530.599999999627471 ], [ 26418.45, 5941530.674999999813735 ], [ 26420.7, 5941530.674999999813735 ], [ 26420.7, 5941530.75 ], [ 26423.849999999998545, 5941530.75 ], [ 26423.849999999998545, 5941530.674999999813735 ], [ 26433.0, 5941530.674999999813735 ], [ 26433.0, 5941545.525000000372529 ], [ 26427.900000000001455, 5941545.525000000372529 ], [ 26427.900000000001455, 5941545.450000000186265 ], [ 26426.7, 5941545.450000000186265 ], [ 26426.7, 5941545.375 ], [ 26425.650000000001455, 5941545.375 ], [ 26425.650000000001455, 5941545.299999999813735 ], [ 26424.675, 5941545.299999999813735 ], [ 26424.675, 5941545.224999999627471 ], [ 26423.775000000001455, 5941545.224999999627471 ], [ 26423.775000000001455, 5941545.150000000372529 ], [ 26423.025000000001455, 5941545.150000000372529 ], [ 26423.025000000001455, 5941545.075000000186265 ], [ 26422.2, 5941545.075000000186265 ], [ 26422.2, 5941545.0 ], [ 26418.900000000001455, 5941545.0 ], [ 26418.900000000001455, 5941545.075000000186265 ], [ 26417.025000000001455, 5941545.075000000186265 ], [ 26417.025000000001455, 5941545.150000000372529 ], [ 26415.0, 5941545.150000000372529 ], [ 26415.0, 5941545.224999999627471 ], [ 26413.5, 5941545.224999999627471 ], [ 26413.5, 5941545.299999999813735 ], [ 26412.224999999998545, 5941545.299999999813735 ], [ 26412.224999999998545, 5941545.375 ], [ 26411.099999999998545, 5941545.375 ], [ 26411.099999999998545, 5941545.450000000186265 ], [ 26409.825, 5941545.450000000186265 ], [ 26409.825, 5941545.525000000372529 ], [ 26408.25, 5941545.525000000372529 ], [ 26408.25, 5941545.599999999627471 ], [ 26405.775000000001455, 5941545.599999999627471 ], [ 26405.775000000001455, 5941545.674999999813735 ], [ 26403.900000000001455, 5941545.674999999813735 ], [ 26403.900000000001455, 5941545.599999999627471 ], [ 26399.474999999998545, 5941545.599999999627471 ], [ 26399.474999999998545, 5941545.525000000372529 ], [ 26397.825, 5941545.525000000372529 ], [ 26397.825, 5941545.599999999627471 ], [ 26395.5, 5941545.599999999627471 ], [ 26395.5, 5941545.674999999813735 ], [ 26394.0, 5941545.674999999813735 ], [ 26394.0, 5941545.75 ], [ 26392.724999999998545, 5941545.75 ], [ 26392.724999999998545, 5941545.825000000186265 ], [ 26391.825, 5941545.825000000186265 ], [ 26391.825, 5941545.900000000372529 ], [ 26388.974999999998545, 5941545.900000000372529 ] ] ] } },
{ "type": "Feature", "properties": { "value": 1.0, "building_id": 1, "area": 7767.5850000010978 }, "geometry": { "type": "Polygon", "coordinates": [ [ [ 26194.5, 5941383.224999999627471 ], [ 26194.5, 5941383.150000000372529 ], [ 26193.150000000001455, 5941383.150000000372529 ], [ 26193.150000000001455, 5941383.075000000186265 ], [ 26192.400000000001455, 5941383.075000000186265 ], [ 26192.400000000001455, 5941383.0 ], [ 26191.650000000001455, 5941383.0 ], [ 26191.650000000001455, 5941382.924999999813735 ], [ 26191.05, 5941382.924999999813735 ], [ 26191.05, 5941382.849999999627471 ], [ 26190.45, 5941382.849999999627471 ], [ 26190.45, 5941382.775000000372529 ], [ 26189.849999999998545, 5941382.775000000372529 ], [ 26189.849999999998545, 5941382.700000000186265 ], [ 26189.325, 5941382.700000000186265 ], [ 26189.325, 5941382.625 ], [ 26188.724999999998545, 5941382.625 ], [ 26188.724999999998545, 5941382.549999999813735 ], [ 26188.05, 5941382.549999999813735 ], [ 26188.05, 5941382.474999999627471 ], [ 26186.400000000001455, 5941382.474999999627471 ], [ 26186.400000000001455, 5941382.400000000372529 ], [ 26185.349999999998545, 5941382.400000000372529 ], [ 26185.349999999998545, 5941382.474999999627471 ], [ 26182.5, 5941382.474999999627471 ], [ 26182.5, 5941382.549999999813735 ], [ 26179.5, 5941382.549999999813735 ], [ 26179.5, 5941382.625 ], [ 26177.775000000001455, 5941382.625 ], [ 26177.775000000001455, 5941382.549999999813735 ], [ 26173.349999999998545, 5941382.549999999813735 ], [ 26173.349999999998545, 5941382.474999999627471 ], [ 26168.925, 5941382.474999999627471 ], [ 26168.925, 5941382.549999999813735 ], [ 26163.675, 5941382.549999999813735 ], [ 26163.675, 5941382.474999999627471 ], [ 26162.775000000001455, 5941382.474999999627471 ], [ 26162.775000000001455, 5941382.400000000372529 ], [ 26161.95, 5941382.400000000372529 ], [ 26161.95, 5941382.325000000186265 ], [ 26161.125, 5941382.325000000186265 ], [ 26161.125, 5941382.25 ], [ 26159.925, 5941382.25 ], [ 26159.925, 5941382.174999999813735 ], [ 26156.775000000001455, 5941382.174999999813735 ], [ 26156.775000000001455, 5941382.099999999627471 ], [ 26154.0, 5941382.099999999627471 ], [ 26154.0, 5941382.025000000372529 ], [ 26151.974999999998545, 5941382.025000000372529 ], [ 26151.974999999998545, 5941381.950000000186265 ], [ 26149.875, 5941381.950000000186265 ], [ 26149.875, 5941381.875 ], [ 26146.349999999998545, 5941381.875 ], [ 26146.349999999998545, 5941381.950000000186265 ], [ 26144.7, 5941381.950000000186265 ], [ 26144.7, 5941382.025000000372529 ], [ 26143.2, 5941382.025000000372529 ], [ 26143.2, 5941382.099999999627471 ], [ 26141.849999999998545, 5941382.099999999627471 ], [ 26141.849999999998545, 5941382.174999999813735 ], [ 26140.275000000001455, 5941382.174999999813735 ], [ 26140.275000000001455, 5941382.25 ], [ 26136.525000000001455, 5941382.25 ], [ 26136.525000000001455, 5941382.325000000186265 ], [ 26132.775000000001455, 5941382.325000000186265 ], [ 26132.775000000001455, 5941382.25 ], [ 26132.099999999998545, 5941382.25 ], [ 26132.099999999998545, 5941382.174999999813735 ], [ 26131.275000000001455, 5941382.174999999813735 ], [ 26131.275000000001455, 5941382.099999999627471 ], [ 26130.900000000001455, 5941382.099999999627471 ], [ 26130.900000000001455, 5941382.025000000372529 ], [ 26130.525000000001455, 5941382.025000000372529 ], [ 26130.525000000001455, 5941381.950000000186265 ], [ 26130.075, 5941381.950000000186265 ], [ 26130.075, 5941381.875 ], [ 26129.7, 5941381.875 ], [ 26129.7, 5941381.799999999813735 ], [ 26129.25, 5941381.799999999813735 ], [ 26129.25, 5941381.724999999627471 ], [ 26129.025000000001455, 5941381.724999999627471 ], [ 26129.025000000001455, 5941381.650000000372529 ], [ 26128.8, 5941381.650000000372529 ], [ 26128.8, 5941381.575000000186265 ], [ 26128.575, 5941381.575000000186265 ], [ 26128.575, 5941381.5 ], [ 26128.425, 5941381.5 ], [ 26128.425, 5941381.424999999813735 ], [ 26128.2, 5941381.424999999813735 ], [ 26128.2, 5941381.349999999627471 ], [ 26128.05, 5941381.349999999627471 ], [ 26128.05, 5941381.275000000372529 ], [ 26127.900000000001455, 5941381.275000000372529 ], [ 26127.900000000001455, 5941381.200000000186265 ], [ 26127.75, 5941381.200000000186265 ], [ 26127.75, 5941381.125 ], [ 26127.599999999998545, 5941381.125 ], [ 26127.599999999998545, 5941381.049999999813735 ], [ 26127.45, 5941381.049999999813735 ], [ 26127.45, 5941380.974999999627471 ], [ 26127.375, 5941380.974999999627471 ], [ 26127.375, 5941380.900000000372529 ], [ 26127.224999999998545, 5941380.900000000372529 ], [ 26127.224999999998545, 5941380.825000000186265 ], [ 26127.150000000001455, 5941380.825000000186265 ], [ 26127.150000000001455, 5941380.75 ], [ 26127.0, 5941380.75 ], [ 26127.0, 5941380.674999999813735 ], [ 26126.925, 5941380.674999999813735 ], [ 26126.925, 5941380.599999999627471 ], [ 26126.775000000001455, 5941380.599999999627471 ], [ 26126.775000000001455, 5941380.525000000372529 ], [ 26126.7, 5941380.525000000372529 ], [ 26126.7, 5941380.450000000186265 ], [ 26126.55, 5941380.450000000186265 ], [ 26126.55, 5941380.375 ], [ 26126.400000000001455, 5941380.375 ], [ 26126.400000000001455, 5941380.299999999813735 ], [ 26126.25, 5941380.299999999813735 ], [ 26126.25, 5941380.224999999627471 ], [ 26126.025000000001455, 5941380.224999999627471 ], [ 26126.025000000001455, 5941380.150000000372529 ], [ 26125.875, 5941380.150000000372529 ], [ 26125.875, 5941380.075000000186265 ], [ 26125.650000000001455, 5941380.075000000186265 ], [ 26125.650000000001455, 5941380.0 ], [ 26125.425, 5941380.0 ], [ 26125.425, 5941379.924999999813735 ], [ 26123.25, 5941379.924999999813735 ], [ 26123.25, 5941380.0 ], [ 26122.95, 5941380.0 ], [ 26122.95, 5941380.075000000186265 ], [ 26122.650000000001455, 5941380.075000000186265 ], [ 26122.650000000001455, 5941380.150000000372529 ], [ 26122.425, 5941380.150000000372529 ], [ 26122.425, 5941380.224999999627471 ], [ 26122.2, 5941380.224999999627471 ], [ 26122.2, 5941380.299999999813735 ], [ 26121.974999999998545, 5941380.299999999813735 ], [ 26121.974999999998545, 5941380.375 ], [ 26121.825, 5941380.375 ], [ 26121.825, 5941380.450000000186265 ], [ 26121.599999999998545, 5941380.450000000186265 ], [ 26121.599999999998545, 5941380.525000000372529 ], [ 26121.45, 5941380.525000000372529 ], [ 26121.45, 5941380.599999999627471 ], [ 26121.3, 5941380.599999999627471 ], [ 26121.3, 5941380.674999999813735 ], [ 26121.224999999998545, 5941380.674999999813735 ], [ 26121.224999999998545, 5941380.75 ], [ 26121.075, 5941380.75 ], [ 26121.075, 5941380.825000000186265 ], [ 26121.0, 5941380.825000000186265 ], [ 26121.0, 5941380.900000000372529 ], [ 26120.849999999998545, 5941380.900000000372529 ], [ 26120.849999999998545, 5941380.974999999627471 ], [ 26120.7, 5941380.974999999627471 ], [ 26120.7, 5941381.049999999813735 ], [ 26120.625, 5941381.049999999813735 ], [ 26120.625, 5941381.125 ], [ 26120.474999999998545, 5941381.125 ], [ 26120.474999999998545, 5941381.200000000186265 ], [ 26120.325, 5941381.200000000186265 ], [ 26120.325, 5941381.275000000372529 ], [ 26120.175, 5941381.275000000372529 ], [ 26120.175, 5941381.349999999627471 ], [ 26119.95, 5941381.349999999627471 ], [ 26119.95, 5941381.424999999813735 ], [ 26119.8, 5941381.424999999813735 ], [ 26119.8, 5941381.5 ], [ 26119.575, 5941381.5 ], [ 26119.575, 5941381.575000000186265 ], [ 26119.2, 5941381.575000000186265 ], [ 26119.2, 5941381.650000000372529 ], [ 26118.825, 5941381.650000000372529 ], [ 26118.825, 5941381.724999999627471 ], [ 26118.375, 5941381.724999999627471 ], [ 26118.375, 5941381.799999999813735 ], [ 26117.925, 5941381.799999999813735 ], [ 26117.925, 5941381.875 ], [ 26117.400000000001455, 5941381.875 ], [ 26117.400000000001455, 5941381.950000000186265 ], [ 26116.05, 5941381.950000000186265 ], [ 26116.05, 5941382.025000000372529 ], [ 26114.025000000001455, 5941382.025000000372529 ], [ 26114.025000000001455, 5941381.950000000186265 ], [ 26100.375, 5941381.950000000186265 ], [ 26100.375, 5941382.025000000372529 ], [ 26089.8, 5941382.025000000372529 ], [ 26089.8, 5941382.099999999627471 ], [ 26083.275000000001455, 5941382.099999999627471 ], [ 26083.275000000001455, 5941382.025000000372529 ], [ 26081.474999999998545, 5941382.025000000372529 ], [ 26081.474999999998545, 5941381.950000000186265 ], [ 26079.75, 5941381.950000000186265 ], [ 26079.75, 5941381.875 ], [ 26078.400000000001455, 5941381.875 ], [ 26078.400000000001455, 5941381.799999999813735 ], [ 26078.025000000001455, 5941381.799999999813735 ], [ 26078.025000000001455, 5941381.724999999627471 ], [ 26077.724999999998545, 5941381.724999999627471 ], [ 26077.724999999998545, 5941381.650000000372529 ], [ 26077.349999999998545, 5941381.650000000372529 ], [ 26077.349999999998545, 5941381.575000000186265 ], [ 26077.05, 5941381.575000000186265 ], [ 26077.05, 5941381.5 ], [ 26076.75, 5941381.5 ], [ 26076.75, 5941381.424999999813735 ], [ 26076.525000000001455, 5941381.424999999813735 ], [ 26076.525000000001455, 5941381.349999999627471 ], [ 26076.375, 5941381.349999999627471 ], [ 26076.375, 5941381.275000000372529 ], [ 26076.3, 5941381.275000000372529 ], [ 26076.3, 5941381.200000000186265 ], [ 26076.224999999998545, 5941381.200000000186265 ], [ 26076.224999999998545, 5941381.125 ], [ 26076.150000000001455, 5941381.125 ], [ 26076.150000000001455, 5941381.049999999813735 ], [ 26076.075, 5941381.049999999813735 ], [ 26076.075, 5941380.974999999627471 ], [ 26076.0, 5941380.974999999627471 ], [ 26076.0, 5941380.900000000372529 ], [ 26075.925, 5941380.900000000372529 ], [ 26075.925, 5941380.825000000186265 ], [ 26075.849999999998545, 5941380.825000000186265 ], [ 26075.849999999998545, 5941380.75 ], [ 26075.775000000001455, 5941380.75 ], [ 26075.775000000001455, 5941380.599999999627471 ], [ 26075.7, 5941380.599999999627471 ], [ 26075.7, 5941380.450000000186265 ], [ 26075.625, 5941380.450000000186265 ], [ 26075.625, 5941380.299999999813735 ], [ 26075.55, 5941380.299999999813735 ], [ 26075.55, 5941380.150000000372529 ], [ 26075.474999999998545, 5941380.150000000372529 ], [ 26075.474999999998545, 5941380.075000000186265 ], [ 26075.400000000001455, 5941380.075000000186265 ], [ 26075.400000000001455, 5941379.924999999813735 ], [ 26075.325, 5941379.924999999813735 ], [ 26075.325, 5941379.849999999627471 ], [ 26075.25, 5941379.849999999627471 ], [ 26075.25, 5941379.700000000186265 ], [ 26075.175, 5941379.700000000186265 ], [ 26075.175, 5941379.625 ], [ 26075.099999999998545, 5941379.625 ], [ 26075.099999999998545, 5941379.474999999627471 ], [ 26075.025000000001455, 5941379.474999999627471 ], [ 26075.025000000001455, 5941379.400000000372529 ], [ 26074.95, 5941379.400000000372529 ], [ 26074.95, 5941379.325000000186265 ], [ 26074.875, 5941379.325000000186265 ], [ 26074.875, 5941379.25 ], [ 26074.8, 5941379.25 ], [ 26074.8, 5941379.099999999627471 ], [ 26074.724999999998545, 5941379.099999999627471 ], [ 26074.724999999998545, 5941379.025000000372529 ], [ 26074.650000000001455, 5941379.025000000372529 ], [ 26074.650000000001455, 5941378.950000000186265 ], [ 26074.575, 5941378.950000000186265 ], [ 26074.575, 5941378.875 ], [ 26074.5, 5941378.875 ], [ 26074.5, 5941378.799999999813735 ], [ 26074.425, 5941378.799999999813735 ], [ 26074.425, 5941378.575000000186265 ], [ 26074.349999999998545, 5941378.575000000186265 ], [ 26074.349999999998545, 5941378.424999999813735 ], [ 26074.275000000001455, 5941378.424999999813735 ], [ 26074.275000000001455, 5941378.200000000186265 ], [ 26074.2, 5941378.200000000186265 ], [ 26074.2, 5941378.049999999813735 ], [ 26074.125, 5941378.049999999813735 ], [ 26074.125, 5941377.825000000186265 ], [ 26074.05, 5941377.825000000186265 ], [ 26074.05, 5941377.599999999627471 ], [ 26073.974999999998545, 5941377.599999999627471 ], [ 26073.974999999998545, 5941377.375 ], [ 26073.900000000001455, 5941377.375 ], [ 26073.900000000001455, 5941377.075000000186265 ], [ 26073.825, 5941377.075000000186265 ], [ 26073.825, 5941376.775000000372529 ], [ 26073.75, 5941376.775000000372529 ], [ 26073.75, 5941376.325000000186265 ], [ 26073.675, 5941376.325000000186265 ], [ 26073.675, 5941375.950000000186265 ], [ 26073.599999999998545, 5941375.950000000186265 ], [ 26073.599999999998545, 5941375.5 ], [ 26073.525000000001455, 5941375.5 ], [ 26073.525000000001455, 5941375.049999999813735 ], [ 26073.45, 5941375.049999999813735 ], [ 26073.45, 5941374.599999999627471 ], [ 26073.375, 5941374.599999999627471 ], [ 26073.375, 5941374.150000000372529 ], [ 26073.3, 5941374.150000000372529 ], [ 26073.3, 5941373.625 ], [ 26073.224999999998545, 5941373.625 ], [ 26073.224999999998545, 5941373.25 ], [ 26073.150000000001455, 5941373.25 ], [ 26073.150000000001455, 5941372.875 ], [ 26073.075, 5941372.875 ], [ 26073.075, 5941372.650000000372529 ], [ 26073.0, 5941372.650000000372529 ], [ 26073.0, 5941372.5 ], [ 26072.925, 5941372.5 ], [ 26072.925, 5941372.275000000372529 ], [ 26072.849999999998545, 5941372.275000000372529 ], [ 26072.849999999998545, 5941372.125 ], [ 26072.775000000001455, 5941372.125 ], [ 26072.775000000001455, 5941371.974999999627471 ], [ 26072.7, 5941371.974999999627471 ], [ 26072.7, 5941371.825000000186265 ], [ 26072.625, 5941371.825000000186265 ], [ 26072.625, 5941371.674999999813735 ], [ 26072.55, 5941371.674999999813735 ], [ 26072.55, 5941371.599999999627471 ], [ 26072.474999999998545, 5941371.599999999627471 ], [ 26072.474999999998545, 5941371.450000000186265 ], [ 26072.400000000001455, 5941371.450000000186265 ], [ 26072.400000000001455, 5941371.299999999813735 ], [ 26072.325, 5941371.299999999813735 ], [ 26072.325, 5941371.150000000372529 ], [ 26072.25, 5941371.150000000372529 ], [ 26072.25, 5941371.0 ], [ 26072.175, 5941371.0 ], [ 26072.175, 5941370.849999999627471 ], [ 26072.099999999998545, 5941370.849999999627471 ], [ 26072.099999999998545, 5941370.775000000372529 ], [ 26072.025000000001455, 5941370.775000000372529 ], [ 26072.025000000001455, 5941370.625 ], [ 26071.95, 5941370.625 ], [ 26071.95, 5941370.549999999813735 ], [ 26071.875, 5941370.549999999813735 ], [ 26071.875, 5941370.400000000372529 ], [ 26071.8, 5941370.400000000372529 ], [ 26071.8, 5941370.325000000186265 ], [ 26071.724999999998545, 5941370.325000000186265 ], [ 26071.724999999998545, 5941370.25 ], [ 26071.650000000001455, 5941370.25 ], [ 26071.650000000001455, 5941370.099999999627471 ], [ 26071.575, 5941370.099999999627471 ], [ 26071.575, 5941370.025000000372529 ], [ 26071.5, 5941370.025000000372529 ], [ 26071.5, 5941369.875 ], [ 26071.425, 5941369.875 ], [ 26071.425, 5941369.799999999813735 ], [ 26071.349999999998545, 5941369.799999999813735 ], [ 26071.349999999998545, 5941369.724999999627471 ], [ 26071.275000000001455, 5941369.724999999627471 ], [ 26071.275000000001455, 5941369.575000000186265 ], [ 26071.2, 5941369.575000000186265 ], [ 26071.2, 5941369.5 ], [ 26071.125, 5941369.5 ], [ 26071.125, 5941369.349999999627471 ], [ 26071.05, 5941369.349999999627471 ], [ 26071.05, 5941369.275000000372529 ], [ 26070.974999999998545, 5941369.275000000372529 ], [ 26070.974999999998545, 5941369.200000000186265 ], [ 26070.900000000001455, 5941369.200000000186265 ], [ 26070.900000000001455, 5941369.049999999813735 ], [ 26070.825, 5941369.049999999813735 ], [ 26070.825, 5941368.974999999627471 ], [ 26070.75, 5941368.974999999627471 ], [ 26070.75, 5941368.900000000372529 ], [ 26070.599999999998545, 5941368.900000000372529 ], [ 26070.599999999998545, 5941368.825000000186265 ], [ 26070.375, 5941368.825000000186265 ], [ 26070.375, 5941368.75 ], [ 26070.150000000001455, 5941368.75 ], [ 26070.150000000001455, 5941368.674999999813735 ], [ 26069.849999999998545, 5941368.674999999813735 ], [ 26069.849999999998545, 5941368.599999999627471 ], [ 26069.625, 5941368.599999999627471 ], [ 26069.625, 5941368.525000000372529 ], [ 26069.325, 5941368.525000000372529 ], [ 26069.325, 5941368.450000000186265 ], [ 26069.025000000001455, 5941368.450000000186265 ], [ 26069.025000000001455, 5941368.375 ], [ 26068.425, 5941368.375 ], [ 26068.425, 5941368.450000000186265 ], [ 26068.05, 5941368.450000000186265 ], [ 26068.05, 5941368.525000000372529 ], [ 26067.75, 5941368.525000000372529 ], [ 26067.75, 5941368.599999999627471 ], [ 26067.45, 5941368.599999999627471 ], [ 26067.45, 5941368.674999999813735 ], [ 26067.224999999998545, 5941368.674999999813735 ], [ 26067.224999999998545, 5941368.75 ], [ 26066.925, 5941368.75 ], [ 26066.925, 5941368.825000000186265 ], [ 26066.7, 5941368.825000000186265 ], [ 26066.7, 5941368.900000000372529 ], [ 26066.55, 5941368.900000000372529 ], [ 26066.55, 5941368.974999999627471 ], [ 26066.400000000001455, 5941368.974999999627471 ], [ 26066.400000000001455, 5941369.049999999813735 ], [ 26066.325, 5941369.049999999813735 ], [ 26066.325, 5941369.125 ], [ 26066.175, 5941369.125 ], [ 26066.175, 5941369.200000000186265 ], [ 26066.025000000001455, 5941369.200000000186265 ], [ 26066.025000000001455, 5941369.275000000372529 ], [ 26065.875, 5941369.275000000372529 ], [ 26065.875, 5941369.349999999627471 ], [ 26065.724999999998545, 5941369.349999999627471 ], [ 26065.724999999998545, 5941369.424999999813735 ], [ 26065.575, 5941369.424999999813735 ], [ 26065.575, 5941369.5 ], [ 26065.349999999998545, 5941369.5 ], [ 26065.349999999998545, 5941369.575000000186265 ], [ 26065.2, 5941369.575000000186265 ], [ 26065.2, 5941369.650000000372529 ], [ 26064.974999999998545, 5941369.650000000372529 ], [ 26064.974999999998545, 5941369.724999999627471 ], [ 26064.75, 5941369.724999999627471 ], [ 26064.75, 5941369.799999999813735 ], [ 26064.525000000001455, 5941369.799999999813735 ], [ 26064.525000000001455, 5941369.875 ], [ 26064.3, 5941369.875 ], [ 26064.3, 5941369.950000000186265 ], [ 26064.075, 5941369.950000000186265 ], [ 26064.075, 5941370.025000000372529 ], [ 26063.925, 5941370.025000000372529 ], [ 26063.925, 5941370.099999999627471 ], [ 26063.7, 5941370.099999999627471 ], [ 26063.7, 5941370.174999999813735 ], [ 26063.55, 5941370.174999999813735 ], [ 26063.55, 5941370.25 ], [ 26063.325, 5941370.25 ], [ 26063.325, 5941370.325000000186265 ], [ 26063.099999999998545, 5941370.325000000186265 ], [ 26063.099999999998545, 5941370.400000000372529 ], [ 26062.95, 5941370.400000000372529 ], [ 26062.95, 5941370.474999999627471 ], [ 26062.2, 5941370.474999999627471 ], [ 26062.2, 5941370.549999999813735 ], [ 26061.3, 5941370.549999999813735 ], [ 26061.3, 5941370.625 ], [ 26060.849999999998545, 5941370.625 ], [ 26060.849999999998545, 5941370.549999999813735 ], [ 26060.775000000001455, 5941370.549999999813735 ], [ 26060.775000000001455, 5941370.474999999627471 ], [ 26060.625, 5941370.474999999627471 ], [ 26060.625, 5941370.400000000372529 ], [ 26060.474999999998545, 5941370.400000000372529 ], [ 26060.474999999998545, 5941370.325000000186265 ], [ 26060.400000000001455, 5941370.325000000186265 ], [ 26060.400000000001455, 5941370.25 ], [ 26060.25, 5941370.25 ], [ 26060.25, 5941370.174999999813735 ], [ 26060.175, 5941370.174999999813735 ], [ 26060.175, 5941370.099999999627471 ], [ 26060.025000000001455, 5941370.099999999627471 ], [ 26060.025000000001455, 5941370.025000000372529 ], [ 26059.95, 5941370.025000000372529 ], [ 26059.95, 5941369.950000000186265 ], [ 26059.875, 5941369.950000000186265 ], [ 26059.875, 5941369.875 ], [ 26059.724999999998545, 5941369.875 ], [ 26059.724999999998545, 5941369.799999999813735 ], [ 26059.650000000001455, 5941369.799999999813735 ], [ 26059.650000000001455, 5941369.724999999627471 ], [ 26059.575, 5941369.724999999627471 ], [ 26059.575, 5941369.650000000372529 ], [ 26059.5, 5941369.650000000372529 ], [ 26059.5, 5941369.575000000186265 ], [ 26059.425, 5941369.575000000186265 ], [ 26059.425, 5941369.5 ], [ 26059.275000000001455, 5941369.5 ], [ 26059.275000000001455, 5941369.424999999813735 ], [ 26059.2, 5941369.424999999813735 ], [ 26059.2, 5941369.349999999627471 ], [ 26059.125, 5941369.349999999627471 ], [ 26059.125, 5941369.275000000372529 ], [ 26059.05, 5941369.275000000372529 ], [ 26059.05, 5941369.200000000186265 ], [ 26058.974999999998545, 5941369.200000000186265 ], [ 26058.974999999998545, 5941369.125 ], [ 26058.900000000001455, 5941369.125 ], [ 26058.900000000001455, 5941368.974999999627471 ], [ 26058.825, 5941368.974999999627471 ], [ 26058.825, 5941368.900000000372529 ], [ 26058.75, 5941368.900000000372529 ], [ 26058.75, 5941368.825000000186265 ], [ 26058.675, 5941368.825000000186265 ], [ 26058.675, 5941368.674999999813735 ], [ 26058.599999999998545, 5941368.674999999813735 ], [ 26058.599999999998545, 5941368.599999999627471 ], [ 26058.525000000001455, 5941368.599999999627471 ], [ 26058.525000000001455, 5941368.450000000186265 ], [ 26058.45, 5941368.450000000186265 ], [ 26058.45, 5941368.299999999813735 ], [ 26058.375, 5941368.299999999813735 ], [ 26058.375, 5941368.224999999627471 ], [ 26058.3, 5941368.224999999627471 ], [ 26058.3, 5941368.075000000186265 ], [ 26058.224999999998545, 5941368.075000000186265 ], [ 26058.224999999998545, 5941367.924999999813735 ], [ 26058.150000000001455, 5941367.924999999813735 ], [ 26058.150000000001455, 5941367.775000000372529 ], [ 26058.075, 5941367.775000000372529 ], [ 26058.075, 5941367.549999999813735 ], [ 26058.0, 5941367.549999999813735 ], [ 26058.0, 5941367.400000000372529 ], [ 26057.925, 5941367.400000000372529 ], [ 26057.925, 5941367.25 ], [ 26057.849999999998545, 5941367.25 ], [ 26057.849999999998545, 5941367.025000000372529 ], [ 26057.775000000001455, 5941367.025000000372529 ], [ 26057.775000000001455, 5941366.724999999627471 ], [ 26057.7, 5941366.724999999627471 ], [ 26057.7, 5941366.5 ], [ 26057.625, 5941366.5 ], [ 26057.625, 5941366.275000000372529 ], [ 26057.55, 5941366.275000000372529 ], [ 26057.55, 5941366.049999999813735 ], [ 26057.474999999998545, 5941366.049999999813735 ], [ 26057.474999999998545, 5941365.75 ], [ 26057.400000000001455, 5941365.75 ], [ 26057.400000000001455, 5941365.525000000372529 ], [ 26057.325, 5941365.525000000372529 ], [ 26057.325, 5941365.299999999813735 ], [ 26057.25, 5941365.299999999813735 ], [ 26057.25, 5941365.075000000186265 ], [ 26057.175, 5941365.075000000186265 ], [ 26057.175, 5941364.775000000372529 ], [ 26057.099999999998545, 5941364.775000000372529 ], [ 26057.099999999998545, 5941364.474999999627471 ], [ 26057.025000000001455, 5941364.474999999627471 ], [ 26057.025000000001455, 5941364.25 ], [ 26056.95, 5941364.25 ], [ 26056.95, 5941363.950000000186265 ], [ 26056.875, 5941363.950000000186265 ], [ 26056.875, 5941363.650000000372529 ], [ 26056.8, 5941363.650000000372529 ], [ 26056.8, 5941363.349999999627471 ], [ 26056.724999999998545, 5941363.349999999627471 ], [ 26056.724999999998545, 5941362.900000000372529 ], [ 26056.650000000001455, 5941362.900000000372529 ], [ 26056.650000000001455, 5941362.375 ], [ 26056.575, 5941362.375 ], [ 26056.575, 5941361.775000000372529 ], [ 26056.5, 5941361.775000000372529 ], [ 26056.5, 5941361.099999999627471 ], [ 26056.425, 5941361.099999999627471 ], [ 26056.425, 5941360.349999999627471 ], [ 26056.349999999998545, 5941360.349999999627471 ], [ 26056.349999999998545, 5941359.525000000372529 ], [ 26056.275000000001455, 5941359.525000000372529 ], [ 26056.275000000001455, 5941358.474999999627471 ], [ 26056.2, 5941358.474999999627471 ], [ 26056.2, 5941357.349999999627471 ], [ 26056.125, 5941357.349999999627471 ], [ 26056.125, 5941356.0 ], [ 26056.05, 5941356.0 ], [ 26056.05, 5941354.650000000372529 ], [ 26055.974999999998545, 5941354.650000000372529 ], [ 26055.974999999998545, 5941353.224999999627471 ], [ 26055.900000000001455, 5941353.224999999627471 ], [ 26055.900000000001455, 5941351.724999999627471 ], [ 26055.825, 5941351.724999999627471 ], [ 26055.825, 5941350.375 ], [ 26055.75, 5941350.375 ], [ 26055.75, 5941348.200000000186265 ], [ 26055.675, 5941348.200000000186265 ], [ 26055.675, 5941347.299999999813735 ], [ 26055.75, 5941347.299999999813735 ], [ 26055.75, 5941345.424999999813735 ], [ 26055.825, 5941345.424999999813735 ], [ 26055.825, 5941343.775000000372529 ], [ 26055.900000000001455, 5941343.775000000372529 ], [ 26055.900000000001455, 5941342.424999999813735 ], [ 26055.974999999998545, 5941342.424999999813735 ], [ 26055.974999999998545, 5941341.375 ], [ 26056.05, 5941341.375 ], [ 26056.05, 5941340.549999999813735 ], [ 26056.125, 5941340.549999999813735 ], [ 26056.125, 5941339.799999999813735 ], [ 26056.2, 5941339.799999999813735 ], [ 26056.2, 5941339.200000000186265 ], [ 26056.275000000001455, 5941339.200000000186265 ], [ 26056.275000000001455, 5941338.599999999627471 ], [ 26056.349999999998545, 5941338.599999999627471 ], [ 26056.349999999998545, 5941338.0 ], [ 26056.425, 5941338.0 ], [ 26056.425, 5941337.474999999627471 ], [ 26056.5, 5941337.474999999627471 ], [ 26056.5, 5941337.025000000372529 ], [ 26056.575, 5941337.025000000372529 ], [ 26056.575, 5941336.575000000186265 ], [ 26056.650000000001455, 5941336.575000000186265 ], [ 26056.650000000001455, 5941336.200000000186265 ], [ 26056.724999999998545, 5941336.200000000186265 ], [ 26056.724999999998545, 5941335.825000000186265 ], [ 26056.8, 5941335.825000000186265 ], [ 26056.8, 5941335.525000000372529 ], [ 26056.875, 5941335.525000000372529 ], [ 26056.875, 5941335.224999999627471 ], [ 26056.95, 5941335.224999999627471 ], [ 26056.95, 5941334.924999999813735 ], [ 26057.025000000001455, 5941334.924999999813735 ], [ 26057.025000000001455, 5941334.625 ], [ 26057.099999999998545, 5941334.625 ], [ 26057.099999999998545, 5941334.400000000372529 ], [ 26057.175, 5941334.400000000372529 ], [ 26057.175, 5941334.025000000372529 ], [ 26057.25, 5941334.025000000372529 ], [ 26057.25, 5941333.575000000186265 ], [ 26057.325, 5941333.575000000186265 ], [ 26057.325, 5941332.900000000372529 ], [ 26057.400000000001455, 5941332.900000000372529 ], [ 26057.400000000001455, 5941332.075000000186265 ], [ 26057.474999999998545, 5941332.075000000186265 ], [ 26057.474999999998545, 5941329.0 ], [ 26207.175, 5941329.0 ], [ 26207.175, 5941333.5 ], [ 26207.25, 5941333.5 ], [ 26207.25, 5941334.400000000372529 ], [ 26207.325, 5941334.400000000372529 ], [ 26207.325, 5941335.0 ], [ 26207.400000000001455, 5941335.0 ], [ 26207.400000000001455, 5941335.599999999627471 ], [ 26207.474999999998545, 5941335.599999999627471 ], [ 26207.474999999998545, 5941336.125 ], [ 26207.55, 5941336.125 ], [ 26207.55, 5941336.724999999627471 ], [ 26207.625, 5941336.724999999627471 ], [ 26207.625, 5941337.400000000372529 ], [ 26207.7, 5941337.400000000372529 ], [ 26207.7, 5941338.075000000186265 ], [ 26207.775000000001455, 5941338.075000000186265 ], [ 26207.775000000001455, 5941338.900000000372529 ], [ 26207.849999999998545, 5941338.900000000372529 ], [ 26207.849999999998545, 5941339.724999999627471 ], [ 26207.925, 5941339.724999999627471 ], [ 26207.925, 5941339.799999999813735 ], [ 26207.849999999998545, 5941339.799999999813735 ], [ 26207.849999999998545, 5941340.325000000186265 ], [ 26207.775000000001455, 5941340.325000000186265 ], [ 26207.775000000001455, 5941340.924999999813735 ], [ 26207.7, 5941340.924999999813735 ], [ 26207.7, 5941341.375 ], [ 26207.625, 5941341.375 ], [ 26207.625, 5941341.75 ], [ 26207.55, 5941341.75 ], [ 26207.55, 5941341.974999999627471 ], [ 26207.474999999998545, 5941341.974999999627471 ], [ 26207.474999999998545, 5941342.200000000186265 ], [ 26207.400000000001455, 5941342.200000000186265 ], [ 26207.400000000001455, 5941342.349999999627471 ], [ 26207.325, 5941342.349999999627471 ], [ 26207.325, 5941342.575000000186265 ], [ 26207.25, 5941342.575000000186265 ], [ 26207.25, 5941342.799999999813735 ], [ 26207.175, 5941342.799999999813735 ], [ 26207.175, 5941343.025000000372529 ], [ 26207.099999999998545, 5941343.025000000372529 ], [ 26207.099999999998545, 5941343.325000000186265 ], [ 26207.025000000001455, 5941343.325000000186265 ], [ 26207.025000000001455, 5941343.549999999813735 ], [ 26206.95, 5941343.549999999813735 ], [ 26206.95, 5941344.525000000372529 ], [ 26206.875, 5941344.525000000372529 ], [ 26206.875, 5941346.025000000372529 ], [ 26206.8, 5941346.025000000372529 ], [ 26206.8, 5941351.424999999813735 ], [ 26206.875, 5941351.424999999813735 ], [ 26206.875, 5941355.775000000372529 ], [ 26206.95, 5941355.775000000372529 ], [ 26206.95, 5941358.25 ], [ 26206.875, 5941358.25 ], [ 26206.875, 5941361.700000000186265 ], [ 26206.8, 5941361.700000000186265 ], [ 26206.8, 5941364.700000000186265 ], [ 26206.724999999998545, 5941364.700000000186265 ], [ 26206.724999999998545, 5941369.049999999813735 ], [ 26206.650000000001455, 5941369.049999999813735 ], [ 26206.650000000001455, 5941372.950000000186265 ], [ 26206.575, 5941372.950000000186265 ], [ 26206.575, 5941374.224999999627471 ], [ 26206.5, 5941374.224999999627471 ], [ 26206.5, 5941375.424999999813735 ], [ 26206.425, 5941375.424999999813735 ], [ 26206.425, 5941376.549999999813735 ], [ 26206.349999999998545, 5941376.549999999813735 ], [ 26206.349999999998545, 5941377.450000000186265 ], [ 26206.275000000001455, 5941377.450000000186265 ], [ 26206.275000000001455, 5941378.275000000372529 ], [ 26206.2, 5941378.275000000372529 ], [ 26206.2, 5941378.875 ], [ 26206.125, 5941378.875 ], [ 26206.125, 5941379.099999999627471 ], [ 26206.05, 5941379.099999999627471 ], [ 26206.05, 5941379.325000000186265 ], [ 26205.974999999998545, 5941379.325000000186265 ], [ 26205.974999999998545, 5941379.549999999813735 ], [ 26205.900000000001455, 5941379.549999999813735 ], [ 26205.900000000001455, 5941379.700000000186265 ], [ 26205.825, 5941379.700000000186265 ], [ 26205.825, 5941379.849999999627471 ], [ 26205.75, 5941379.849999999627471 ], [ 26205.75, 5941380.0 ], [ 26205.675, 5941380.0 ], [ 26205.675, 5941380.150000000372529 ], [ 26205.599999999998545, 5941380.150000000372529 ], [ 26205.599999999998545, 5941380.299999999813735 ], [ 26205.525000000001455, 5941380.299999999813735 ], [ 26205.525000000001455, 5941380.450000000186265 ], [ 26205.45, 5941380.450000000186265 ], [ 26205.45, 5941380.525000000372529 ], [ 26205.375, 5941380.525000000372529 ], [ 26205.375, 5941380.599999999627471 ], [ 26205.3, 5941380.599999999627471 ], [ 26205.3, 5941380.75 ], [ 26205.224999999998545, 5941380.75 ], [ 26205.224999999998545, 5941380.825000000186265 ], [ 26205.150000000001455, 5941380.825000000186265 ], [ 26205.150000000001455, 5941380.900000000372529 ], [ 26205.075, 5941380.900000000372529 ], [ 26205.075, 5941380.974999999627471 ], [ 26205.0, 5941380.974999999627471 ], [ 26205.0, 5941381.049999999813735 ], [ 26204.925, 5941381.049999999813735 ], [ 26204.925, 5941381.125 ], [ 26204.849999999998545, 5941381.125 ], [ 26204.849999999998545, 5941381.200000000186265 ], [ 26204.775000000001455, 5941381.200000000186265 ], [ 26204.775000000001455, 5941381.275000000372529 ], [ 26204.7, 5941381.275000000372529 ], [ 26204.7, 5941381.349999999627471 ], [ 26204.55, 5941381.349999999627471 ], [ 26204.55, 5941381.424999999813735 ], [ 26204.474999999998545, 5941381.424999999813735 ], [ 26204.474999999998545, 5941381.5 ], [ 26204.400000000001455, 5941381.5 ], [ 26204.400000000001455, 5941381.575000000186265 ], [ 26204.25, 5941381.575000000186265 ], [ 26204.25, 5941381.650000000372529 ], [ 26204.175, 5941381.650000000372529 ], [ 26204.175, 5941381.724999999627471 ], [ 26204.025000000001455, 5941381.724999999627471 ], [ 26204.025000000001455, 5941381.799999999813735 ], [ 26203.95, 5941381.799999999813735 ], [ 26203.95, 5941381.875 ], [ 26203.8, 5941381.875 ], [ 26203.8, 5941381.950000000186265 ], [ 26203.724999999998545, 5941381.950000000186265 ], [ 26203.724999999998545, 5941382.025000000372529 ], [ 26203.575, 5941382.025000000372529 ], [ 26203.575, 5941382.099999999627471 ], [ 26203.349999999998545, 5941382.099999999627471 ], [ 26203.349999999998545, 5941382.174999999813735 ], [ 26203.2, 5941382.174999999813735 ], [ 26203.2, 5941382.25 ], [ 26202.974999999998545, 5941382.25 ], [ 26202.974999999998545, 5941382.325000000186265 ], [ 26202.825, 5941382.325000000186265 ], [ 26202.825, 5941382.400000000372529 ], [ 26202.675, 5941382.400000000372529 ], [ 26202.675, 5941382.474999999627471 ], [ 26202.525000000001455, 5941382.474999999627471 ], [ 26202.525000000001455, 5941382.549999999813735 ], [ 26202.375, 5941382.549999999813735 ], [ 26202.375, 5941382.625 ], [ 26202.3, 5941382.625 ], [ 26202.3, 5941382.700000000186265 ], [ 26202.150000000001455, 5941382.700000000186265 ], [ 26202.150000000001455, 5941382.775000000372529 ], [ 26202.0, 5941382.775000000372529 ], [ 26202.0, 5941382.849999999627471 ], [ 26201.849999999998545, 5941382.849999999627471 ], [ 26201.849999999998545, 5941382.924999999813735 ], [ 26201.7, 5941382.924999999813735 ], [ 26201.7, 5941383.0 ], [ 26201.400000000001455, 5941383.0 ], [ 26201.400000000001455, 5941383.075000000186265 ], [ 26199.3, 5941383.075000000186265 ], [ 26199.3, 5941383.150000000372529 ], [ 26196.900000000001455, 5941383.150000000372529 ], [ 26196.900000000001455, 5941383.224999999627471 ], [ 26194.5, 5941383.224999999627471 ] ] ] } }
]
}
