{
"type": "FeatureCollection",
"name": "26433E591657N_buildings",
"crs": { "type": "name", "properties": { "name": "urn:ogc:def:crs:EPSG::3776" } },
"features": [
{ "type": "Feature", "properties": { "value": 1.0, "building_id": 0, "area": 158.10187500052021 }, "geometry": { "type": "Polygon", "coordinates": [ [ [ 26623.349999999998545, 5917035.974999999627471 ], [ 26623.349999999998545, 5917035.900000000372529 ], [ 26622.375, 5917035.900000000372529 ], [ 26622.375, 5917035.825000000186265 ], [ 26621.55, 5917035.825000000186265 ], [ 26621.55, 5917035.75 ], [ 26621.175, 5917035.75 ], [ 26621.175, 5917035.674999999813735 ], [ 26620.875, 5917035.674999999813735 ], [ 26620.875, 5917035.599999999627471 ], [ 26620.650000000001455, 5917035.599999999627471 ], [ 26620.650000000001455, 5917035.525000000372529 ], [ 26620.349999999998545, 5917035.525000000372529 ], [ 26620.349999999998545, 5917035.450000000186265 ], [ 26620.2, 5917035.450000000186265 ], [ 26620.2, 5917035.375 ], [ 26619.974999999998545, 5917035.375 ], [ 26619.974999999998545, 5917035.299999999813735 ], [ 26619.825, 5917035.299999999813735 ], [ 26619.825, 5917035.224999999627471 ], [ 26619.599999999998545, 5917035.224999999627471 ], [ 26619.599999999998545, 5917035.150000000372529 ], [ 26619.45, 5917035.150000000372529 ], [ 26619.45, 5917035.075000000186265 ], [ 26619.375, 5917035.075000000186265 ], [ 26619.375, 5917035.0 ], [ 26619.3, 5917035.0 ], [ 26619.3, 5917034.924999999813735 ], [ 26619.150000000001455, 5917034.924999999813735 ], [ 26619.150000000001455, 5917034.849999999627471 ], [ 26619.0, 5917034.849999999627471 ], [ 26619.0, 5917034.775000000372529 ], [ 26618.925, 5917034.775000000372529 ], [ 26618.925, 5917034.700000000186265 ], [ 26618.775000000001455, 5917034.700000000186265 ], [ 26618.775000000001455, 5917034.625 ], [ 26618.625, 5917034.625 ], [ 26618.625, 5917034.549999999813735 ], [ 26618.474999999998545, 5917034.549999999813735 ], [ 26618.474999999998545, 5917034.474999999627471 ], [ 26618.325, 5917034.474999999627471 ], [ 26618.325, 5917034.400000000372529 ], [ 26618.175, 5917034.400000000372529 ], [ 26618.175, 5917034.325000000186265 ], [ 26618.025000000001455, 5917034.325000000186265 ], [ 26618.025000000001455, 5917034.25 ], [ 26617.875, 5917034.25 ], [ 26617.875, 5917034.174999999813735 ], [ 26617.650000000001455, 5917034.174999999813735 ], [ 26617.650000000001455, 5917034.099999999627471 ], [ 26617.5, 5917034.099999999627471 ], [ 26617.5, 5917034.025000000372529 ], [ 26617.425, 5917034.025000000372529 ], [ 26617.425, 5917033.950000000186265 ], [ 26617.349999999998545, 5917033.950000000186265 ], [ 26617.349999999998545, 5917033.875 ], [ 26617.2, 5917033.875 ], [ 26617.2, 5917033.799999999813735 ], [ 26617.125, 5917033.799999999813735 ], [ 26617.125, 5917033.724999999627471 ], [ 26617.05, 5917033.724999999627471 ], [ 26617.05, 5917033.650000000372529 ], [ 26616.974999999998545, 5917033.650000000372529 ], [ 26616.974999999998545, 5917033.5 ], [ 26616.900000000001455, 5917033.5 ], [ 26616.900000000001455, 5917033.424999999813735 ], [ 26616.825, 5917033.424999999813735 ], [ 26616.825, 5917033.349999999627471 ], [ 26616.75, 5917033.349999999627471 ], [ 26616.75, 5917033.200000000186265 ], [ 26616.675, 5917033.200000000186265 ], [ 26616.675, 5917033.125 ], [ 26616.599999999998545, 5917033.125 ], [ 26616.599999999998545, 5917032.974999999627471 ], [ 26616.525000000001455, 5917032.974999999627471 ], [ 26616.525000000001455, 5917032.825000000186265 ], [ 26616.45, 5917032.825000000186265 ], [ 26616.45, 5917032.674999999813735 ], [ 26616.375, 5917032.674999999813735 ], [ 26616.375, 5917032.599999999627471 ], [ 26616.3, 5917032.599999999627471 ], [ 26616.3, 5917032.450000000186265 ], [ 26616.224999999998545, 5917032.450000000186265 ], [ 26616.224999999998545, 5917032.375 ], [ 26616.150000000001455, 5917032.375 ], [ 26616.150000000001455, 5917032.224999999627471 ], [ 26616.075, 5917032.224999999627471 ], [ 26616.075, 5917032.150000000372529 ], [ 26616.0, 5917032.150000000372529 ], [ 26616.0, 5917032.075000000186265 ], [ 26615.925, 5917032.075000000186265 ], [ 26615.925, 5917032.0 ], [ 26615.849999999998545, 5917032.0 ], [ 26615.849999999998545, 5917031.924999999813735 ], [ 26615.775000000001455, 5917031.924999999813735 ], [ 26615.775000000001455, 5917031.849999999627471 ], [ 26615.625, 5917031.849999999627471 ], [ 26615.625, 5917031.775000000372529 ], [ 26615.55, 5917031.775000000372529 ], [ 26615.55, 5917031.700000000186265 ], [ 26615.474999999998545, 5917031.700000000186265 ], [ 26615.474999999998545, 5917031.625 ], [ 26615.400000000001455, 5917031.625 ], [ 26615.400000000001455, 5917031.549999999813735 ], [ 26615.325, 5917031.549999999813735 ], [ 26615.325, 5917031.400000000372529 ], [ 26615.25, 5917031.400000000372529 ], [ 26615.25, 5917031.325000000186265 ], [ 26615.175, 5917031.325000000186265 ], [ 26615.175, 5917031.25 ], [ 26615.099999999998545, 5917031.25 ], [ 26615.099999999998545, 5917031.025000000372529 ], [ 26615.025000000001455, 5917031.025000000372529 ], [ 26615.025000000001455, 5917030.650000000372529 ], [ 26614.95, 5917030.650000000372529 ], [ 26614.95, 5917030.200000000186265 ], [ 26614.875, 5917030.200000000186265 ], [ 26614.875, 5917029.825000000186265 ], [ 26614.8, 5917029.825000000186265 ], [ 26614.8, 5917029.299999999813735 ], [ 26614.724999999998545, 5917029.299999999813735 ], [ 26614.724999999998545, 5917028.625 ], [ 26614.8, 5917028.625 ], [ 26614.8, 5917027.200000000186265 ], [ 26614.875, 5917027.200000000186265 ], [ 26614.875, 5917027.049999999813735 ], [ 26614.95, 5917027.049999999813735 ], [ 26614.95, 5917026.974999999627471 ], [ 26615.025000000001455, 5917026.974999999627471 ], [ 26615.025000000001455, 5917026.900000000372529 ], [ 26615.099999999998545, 5917026.900000000372529 ], [ 26615.099999999998545, 5917026.75 ], [ 26615.175, 5917026.75 ], [ 26615.175, 5917026.674999999813735 ], [ 26615.25, 5917026.674999999813735 ], [ 26615.25, 5917026.599999999627471 ], [ 26615.325, 5917026.599999999627471 ], [ 26615.325, 5917026.525000000372529 ], [ 26615.400000000001455, 5917026.525000000372529 ], [ 26615.400000000001455, 5917026.450000000186265 ], [ 26615.55, 5917026.450000000186265 ], [ 26615.55, 5917026.375 ], [ 26615.625, 5917026.375 ], [ 26615.625, 5917026.299999999813735 ], [ 26615.775000000001455, 5917026.299999999813735 ], [ 26615.775000000001455, 5917026.224999999627471 ], [ 26615.849999999998545, 5917026.224999999627471 ], [ 26615.849999999998545, 5917026.150000000372529 ], [ 26615.925, 5917026.150000000372529 ], [ 26615.925, 5917026.075000000186265 ], [ 26616.0, 5917026.075000000186265 ], [ 26616.0, 5917026.0 ], [ 26616.075, 5917026.0 ], [ 26616.075, 5917025.924999999813735 ], [ 26616.150000000001455, 5917025.924999999813735 ], [ 26616.150000000001455, 5917025.849999999627471 ], [ 26616.224999999998545, 5917025.849999999627471 ], [ 26616.224999999998545, 5917025.775000000372529 ], [ 26616.3, 5917025.775000000372529 ], [ 26616.3, 5917025.625 ], [ 26616.375, 5917025.625 ], [ 26616.375, 5917025.549999999813735 ], [ 26616.45, 5917025.549999999813735 ], [ 26616.45, 5917025.400000000372529 ], [ 26616.525000000001455, 5917025.400000000372529 ], [ 26616.525000000001455, 5917025.25 ], [ 26616.599999999998545, 5917025.25 ], [ 26616.599999999998545, 5917025.174999999813735 ], [ 26616.675, 5917025.174999999813735 ], [ 26616.675, 5917025.025000000372529 ], [ 26616.75, 5917025.025000000372529 ], [ 26616.75, 5917024.950000000186265 ], [ 26616.825, 5917024.950000000186265 ], [ 26616.825, 5917024.875 ], [ 26616.900000000001455, 5917024.875 ], [ 26616.900000000001455, 5917024.799999999813735 ], [ 26616.974999999998545, 5917024.799999999813735 ], [ 26616.974999999998545, 5917024.724999999627471 ], [ 26617.05, 5917024.724999999627471 ], [ 26617.05, 5917024.650000000372529 ], [ 26617.125, 5917024.650000000372529 ], [ 26617.125, 5917024.575000000186265 ], [ 26617.2, 5917024.575000000186265 ], [ 26617.2, 5917024.5 ], [ 26617.275000000001455, 5917024.5 ], [ 26617.275000000001455, 5917024.424999999813735 ], [ 26617.425, 5917024.424999999813735 ], [ 26617.425, 5917024.349999999627471 ], [ 26617.5, 5917024.349999999627471 ], [ 26617.5, 5917024.275000000372529 ], [ 26617.8, 5917024.275000000372529 ], [ 26617.8, 5917024.200000000186265 ], [ 26618.099999999998545, 5917024.200000000186265 ], [ 26618.099999999998545, 5917024.125 ], [ 26618.400000000001455, 5917024.125 ], [ 26618.400000000001455, 5917024.049999999813735 ], [ 26618.7, 5917024.049999999813735 ], [ 26618.7, 5917023.974999999627471 ], [ 26619.0, 5917023.974999999627471 ], [ 26619.0, 5917023.900000000372529 ], [ 26619.224999999998545, 5917023.900000000372529 ], [ 26619.224999999998545, 5917023.825000000186265 ], [ 26619.525000000001455, 5917023.825000000186265 ], [ 26619.525000000001455, 5917023.75 ], [ 26619.675, 5917023.75 ], [ 26619.675, 5917023.674999999813735 ], [ 26619.75, 5917023.674999999813735 ], [ 26619.75, 5917023.599999999627471 ], [ 26619.900000000001455, 5917023.599999999627471 ], [ 26619.900000000001455, 5917023.525000000372529 ], [ 26619.974999999998545, 5917023.525000000372529 ], [ 26619.974999999998545, 5917023.450000000186265 ], [ 26620.125, 5917023.450000000186265 ], [ 26620.125, 5917023.375 ], [ 26620.2, 5917023.375 ], [ 26620.2, 5917023.299999999813735 ], [ 26620.275000000001455, 5917023.299999999813735 ], [ 26620.275000000001455, 5917023.224999999627471 ], [ 26620.425, 5917023.224999999627471 ], [ 26620.425, 5917023.150000000372529 ], [ 26620.5, 5917023.150000000372529 ], [ 26620.5, 5917023.075000000186265 ], [ 26620.575, 5917023.075000000186265 ], [ 26620.575, 5917023.0 ], [ 26620.724999999998545, 5917023.0 ], [ 26620.724999999998545, 5917022.924999999813735 ], [ 26620.875, 5917022.924999999813735 ], [ 26620.875, 5917022.849999999627471 ], [ 26621.025000000001455, 5917022.849999999627471 ], [ 26621.025000000001455, 5917022.775000000372529 ], [ 26621.175, 5917022.775000000372529 ], [ 26621.175, 5917022.700000000186265 ], [ 26621.325, 5917022.700000000186265 ], [ 26621.325, 5917022.625 ], [ 26621.625, 5917022.625 ], [ 26621.625, 5917022.549999999813735 ], [ 26622.075, 5917022.549999999813735 ], [ 26622.075, 5917022.474999999627471 ], [ 26622.599999999998545, 5917022.474999999627471 ], [ 26622.599999999998545, 5917022.400000000372529 ], [ 26623.125, 5917022.400000000372529 ], [ 26623.125, 5917022.325000000186265 ], [ 26623.8, 5917022.325000000186265 ], [ 26623.8, 5917022.400000000372529 ], [ 26624.625, 5917022.400000000372529 ], [ 26624.625, 5917022.474999999627471 ], [ 26625.3, 5917022.474999999627471 ], [ 26625.3, 5917022.549999999813735 ], [ 26625.525000000001455, 5917022.549999999813735 ], [ 26625.525000000001455, 5917022.625 ], [ 26625.75, 5917022.625 ], [ 26625.75, 5917022.700000000186265 ], [ 26625.900000000001455, 5917022.700000000186265 ], [ 26625.900000000001455, 5917022.775000000372529 ], [ 26626.05, 5917022.775000000372529 ], [ 26626.05, 5917022.849999999627471 ], [ 26626.2, 5917022.849999999627471 ], [ 26626.2, 5917022.924999999813735 ], [ 26626.275000000001455, 5917022.924999999813735 ], [ 26626.275000000001455, 5917023.0 ], [ 26626.425, 5917023.0 ], [ 26626.425, 5917023.075000000186265 ], [ 26626.5, 5917023.075000000186265 ], [ 26626.5, 5917023.150000000372529 ], [ 26626.575, 5917023.150000000372529 ], [ 26626.575, 5917023.224999999627471 ], [ 26626.724999999998545, 5917023.224999999627471 ], [ 26626.724999999998545, 5917023.299999999813735 ], [ 26626.8, 5917023.299999999813735 ], [ 26626.8, 5917023.375 ], [ 26626.875, 5917023.375 ], [ 26626.875, 5917023.450000000186265 ], [ 26626.95, 5917023.450000000186265 ], [ 26626.95, 5917023.525000000372529 ], [ 26627.025000000001455, 5917023.525000000372529 ], [ 26627.025000000001455, 5917023.599999999627471 ], [ 26627.175, 5917023.599999999627471 ], [ 26627.175, 5917023.674999999813735 ], [ 26627.25, 5917023.674999999813735 ], [ 26627.25, 5917023.75 ], [ 26627.400000000001455, 5917023.75 ], [ 26627.400000000001455, 5917023.825000000186265 ], [ 26627.55, 5917023.825000000186265 ], [ 26627.55, 5917023.900000000372529 ], [ 26627.7, 5917023.900000000372529 ], [ 26627.7, 5917023.974999999627471 ], [ 26627.775000000001455, 5917023.974999999627471 ], [ 26627.775000000001455, 5917024.049999999813735 ], [ 26627.849999999998545, 5917024.049999999813735 ], [ 26627.849999999998545, 5917024.125 ], [ 26628.0, 5917024.125 ], [ 26628.0, 5917024.200000000186265 ], [ 26628.075, 5917024.200000000186265 ], [ 26628.075, 5917024.275000000372529 ], [ 26628.150000000001455, 5917024.275000000372529 ], [ 26628.150000000001455, 5917024.349999999627471 ], [ 26628.224999999998545, 5917024.349999999627471 ], [ 26628.224999999998545, 5917024.424999999813735 ], [ 26628.3, 5917024.424999999813735 ], [ 26628.3, 5917024.5 ], [ 26628.375, 5917024.5 ], [ 26628.375, 5917024.575000000186265 ], [ 26628.45, 5917024.575000000186265 ], [ 26628.45, 5917024.650000000372529 ], [ 26628.525000000001455, 5917024.650000000372529 ], [ 26628.525000000001455, 5917024.724999999627471 ], [ 26628.599999999998545, 5917024.724999999627471 ], [ 26628.599999999998545, 5917024.799999999813735 ], [ 26628.675, 5917024.799999999813735 ], [ 26628.675, 5917024.950000000186265 ], [ 26628.75, 5917024.950000000186265 ], [ 26628.75, 5917025.025000000372529 ], [ 26628.825, 5917025.025000000372529 ], [ 26628.825, 5917025.174999999813735 ], [ 26628.900000000001455, 5917025.174999999813735 ], [ 26628.900000000001455, 5917025.25 ], [ 26628.974999999998545, 5917025.25 ], [ 26628.974999999998545, 5917025.400000000372529 ], [ 26629.05, 5917025.400000000372529 ], [ 26629.05, 5917025.474999999627471 ], [ 26629.125, 5917025.474999999627471 ], [ 26629.125, 5917025.549999999813735 ], [ 26629.2, 5917025.549999999813735 ], [ 26629.2, 5917025.625 ], [ 26629.349999999998545, 5917025.625 ], [ 26629.349999999998545, 5917025.700000000186265 ], [ 26629.425, 5917025.700000000186265 ], [ 26629.425, 5917025.775000000372529 ], [ 26629.5, 5917025.775000000372529 ], [ 26629.5, 5917025.849999999627471 ], [ 26629.575, 5917025.849999999627471 ], [ 26629.575, 5917025.924999999813735 ], [ 26629.650000000001455, 5917025.924999999813735 ], [ 26629.650000000001455, 5917026.0 ], [ 26629.724999999998545, 5917026.0 ], [ 26629.724999999998545, 5917026.075000000186265 ], [ 26629.8, 5917026.075000000186265 ], [ 26629.8, 5917026.224999999627471 ], [ 26629.875, 5917026.224999999627471 ], [ 26629.875, 5917026.299999999813735 ], [ 26629.95, 5917026.299999999813735 ], [ 26629.95, 5917026.450000000186265 ], [ 26630.025000000001455, 5917026.450000000186265 ], [ 26630.025000000001455, 5917026.525000000372529 ], [ 26630.099999999998545, 5917026.525000000372529 ], [ 26630.099999999998545, 5917026.674999999813735 ], [ 26630.175, 5917026.674999999813735 ], [ 26630.175, 5917026.825000000186265 ], [ 26630.25, 5917026.825000000186265 ], [ 26630.25, 5917027.049999999813735 ], [ 26630.325, 5917027.049999999813735 ], [ 26630.325, 5917029.299999999813735 ], [ 26630.25, 5917029.299999999813735 ], [ 26630.25, 5917029.525000000372529 ], [ 26630.175, 5917029.525000000372529 ], [ 26630.175, 5917029.75 ], [ 26630.099999999998545, 5917029.75 ], [ 26630.099999999998545, 5917029.900000000372529 ], [ 26630.025000000001455, 5917029.900000000372529 ], [ 26630.025000000001455, 5917030.049999999813735 ], [ 26629.95, 5917030.049999999813735 ], [ 26629.95, 5917030.200000000186265 ], [ 26629.875, 5917030.200000000186265 ], [ 26629.875, 5917030.275000000372529 ], [ 26629.8, 5917030.275000000372529 ], [ 26629.8, 5917030.424999999813735 ], [ 26629.724999999998545, 5917030.424999999813735 ], [ 26629.724999999998545, 5917030.5 ], [ 26629.650000000001455, 5917030.5 ], [ 26629.650000000001455, 5917030.575000000186265 ], [ 26629.575, 5917030.575000000186265 ], [ 26629.575, 5917030.650000000372529 ], [ 26629.5, 5917030.650000000372529 ], [ 26629.5, 5917030.724999999627471 ], [ 26629.425, 5917030.724999999627471 ], [ 26629.425, 5917030.799999999813735 ], [ 26629.349999999998545, 5917030.799999999813735 ], [ 26629.349999999998545, 5917030.875 ], [ 26629.275000000001455, 5917030.875 ], [ 26629.275000000001455, 5917030.950000000186265 ], [ 26629.2, 5917030.950000000186265 ], [ 26629.2, 5917031.025000000372529 ], [ 26629.125, 5917031.025000000372529 ], [ 26629.125, 5917031.099999999627471 ], [ 26629.05, 5917031.099999999627471 ], [ 26629.05, 5917031.25 ], [ 26628.974999999998545, 5917031.25 ], [ 26628.974999999998545, 5917031.400000000372529 ], [ 26628.900000000001455, 5917031.400000000372529 ], [ 26628.900000000001455, 5917031.474999999627471 ], [ 26628.825, 5917031.474999999627471 ], [ 26628.825, 5917031.625 ], [ 26628.75, 5917031.625 ], [ 26628.75, 5917031.775000000372529 ], [ 26628.675, 5917031.775000000372529 ], [ 26628.675, 5917032.0 ], [ 26628.599999999998545, 5917032.0 ], [ 26628.599999999998545, 5917032.150000000372529 ], [ 26628.525000000001455, 5917032.150000000372529 ], [ 26628.525000000001455, 5917032.299999999813735 ], [ 26628.45, 5917032.299999999813735 ], [ 26628.45, 5917032.525000000372529 ], [ 26628.375, 5917032.525000000372529 ], [ 26628.375, 5917032.75 ], [ 26628.3, 5917032.75 ], [ 26628.3, 5917032.900000000372529 ], [ 26628.224999999998545, 5917032.900000000372529 ], [ 26628.224999999998545, 5917033.125 ], [ 26628.150000000001455, 5917033.125 ], [ 26628.150000000001455, 5917033.275000000372529 ], [ 26628.075, 5917033.275000000372529 ], [ 26628.075, 5917033.349999999627471 ], [ 26628.0, 5917033.349999999627471 ], [ 26628.0, 5917033.424999999813735 ], [ 26627.925, 5917033.424999999813735 ], [ 26627.925, 5917033.5 ], [ 26627.849999999998545, 5917033.5 ], [ 26627.849999999998545, 5917033.575000000186265 ], [ 26627.775000000001455, 5917033.575000000186265 ], [ 26627.775000000001455, 5917033.650000000372529 ], [ 26627.7, 5917033.650000000372529 ], [ 26627.7, 5917033.724999999627471 ], [ 26627.625, 5917033.724999999627471 ], [ 26627.625, 5917033.799999999813735 ], [ 26627.474999999998545, 5917033.799999999813735 ], [ 26627.474999999998545, 5917033.875 ], [ 26627.400000000001455, 5917033.875 ], [ 26627.400000000001455, 5917033.950000000186265 ], [ 26627.25, 5917033.950000000186265 ], [ 26627.25, 5917034.025000000372529 ], [ 26627.099999999998545, 5917034.025000000372529 ], [ 26627.099999999998545, 5917034.099999999627471 ], [ 26626.95, 5917034.099999999627471 ], [ 26626.95, 5917034.174999999813735 ], [ 26626.8, 5917034.174999999813735 ], [ 26626.8, 5917034.25 ], [ 26626.724999999998545, 5917034.25 ], [ 26626.724999999998545, 5917034.325000000186265 ], [ 26626.575, 5917034.325000000186265 ], [ 26626.575, 5917034.400000000372529 ], [ 26626.5, 5917034.400000000372529 ], [ 26626.5, 5917034.474999999627471 ], [ 26626.425, 5917034.474999999627471 ], [ 26626.425, 5917034.549999999813735 ], [ 26626.349999999998545, 5917034.549999999813735 ], [ 26626.349999999998545, 5917034.625 ], [ 26626.275000000001455, 5917034.625 ], [ 26626.275000000001455, 5917034.700000000186265 ], [ 26626.2, 5917034.700000000186265 ], [ 26626.2, 5917034.775000000372529 ], [ 26626.125, 5917034.775000000372529 ], [ 26626.125, 5917034.849999999627471 ], [ 26626.05, 5917034.849999999627471 ], [ 26626.05, 5917034.924999999813735 ], [ 26625.974999999998545, 5917034.924999999813735 ], [ 26625.974999999998545, 5917035.0 ], [ 26625.900000000001455, 5917035.0 ], [ 26625.900000000001455, 5917035.150000000372529 ], [ 26625.825, 5917035.150000000372529 ], [ 26625.825, 5917035.224999999627471 ], [ 26625.75, 5917035.224999999627471 ], [ 26625.75, 5917035.299999999813735 ], [ 26625.675, 5917035.299999999813735 ], [ 26625.675, 5917035.375 ], [ 26625.599999999998545, 5917035.375 ], [ 26625.599999999998545, 5917035.450000000186265 ], [ 26625.525000000001455, 5917035.450000000186265 ], [ 26625.525000000001455, 5917035.525000000372529 ], [ 26625.375, 5917035.525000000372529 ], [ 26625.375, 5917035.599999999627471 ], [ 26625.075, 5917035.599999999627471 ], [ 26625.075, 5917035.674999999813735 ], [ 26624.7, 5917035.674999999813735 ], [ 26624.7, 5917035.75 ], [ 26624.325, 5917035.75 ], [ 26624.325, 5917035.825000000186265 ], [ 26623.95, 5917035.825000000186265 ], [ 26623.95, 5917035.900000000372529 ], [ 26623.425, 5917035.900000000372529 ], [ 26623.425, 5917035.974999999627471 ], [ 26623.349999999998545, 5917035.974999999627471 ] ] ] } },
{ "type": "Feature", "properties": { "value": 1.0, "building_id": 1, "area": 0.63562499983116139 }, "geometry": { "type": "Polygon", "coordinates": [ [ [ 26687.775000000001455, 5916982.349999999627471 ], [ 26687.775000000001455, 5916980.549999999813735 ], [ 26687.7, 5916980.549999999813735 ], [ 26687.7, 5916980.400000000372529 ], [ 26687.775000000001455, 5916980.400000000372529 ], [ 26687.775000000001455, 5916980.325000000186265 ], [ 26687.849999999998545, 5916980.325000000186265 ], [ 26687.849999999998545, 5916980.25 ], [ 26687.925, 5916980.25 ], [ 26687.925, 5916980.325000000186265 ], [ 26688.150000000001455, 5916980.325000000186265 ], [ 26688.150000000001455, 5916980.924999999813735 ], [ 26688.075, 5916980.924999999813735 ], [ 26688.075, 5916981.900000000372529 ], [ 26688.0, 5916981.900000000372529 ], [ 26688.0, 5916982.349999999627471 ], [ 26687.775000000001455, 5916982.349999999627471 ] ] ] } },
{ "type": "Feature", "properties": { "value": 1.0, "building_id": 2, "area": 215.43187500025655 }, "geometry": { "type": "Polygon", "coordinates": [ [ [ 26638.575, 5916999.599999999627471 ], [ 26638.575, 5916999.525000000372529 ], [ 26637.974999999998545, 5916999.525000000372529 ], [ 26637.974999999998545, 5916999.450000000186265 ], [ 26637.45, 5916999.450000000186265 ], [ 26637.45, 5916999.375 ], [ 26636.849999999998545, 5916999.375 ], [ 26636.849999999998545, 5916999.299999999813735 ], [ 26636.25, 5916999.299999999813735 ], [ 26636.25, 5916999.224999999627471 ], [ 26635.724999999998545, 5916999.224999999627471 ], [ 26635.724999999998545, 5916999.150000000372529 ], [ 26635.125, 5916999.150000000372529 ], [ 26635.125, 5916999.075000000186265 ], [ 26634.900000000001455, 5916999.075000000186265 ], [ 26634.900000000001455, 5916999.0 ], [ 26634.675, 5916999.0 ], [ 26634.675, 5916998.924999999813735 ], [ 26634.45, 5916998.924999999813735 ], [ 26634.45, 5916998.849999999627471 ], [ 26634.3, 5916998.849999999627471 ], [ 26634.3, 5916998.775000000372529 ], [ 26634.075, 5916998.775000000372529 ], [ 26634.075, 5916998.700000000186265 ], [ 26633.925, 5916998.700000000186265 ], [ 26633.925, 5916998.625 ], [ 26633.775000000001455, 5916998.625 ], [ 26633.775000000001455, 5916998.549999999813735 ], [ 26633.625, 5916998.549999999813735 ], [ 26633.625, 5916998.474999999627471 ], [ 26633.55, 5916998.474999999627471 ], [ 26633.55, 5916998.400000000372529 ], [ 26633.400000000001455, 5916998.400000000372529 ], [ 26633.400000000001455, 5916998.325000000186265 ], [ 26633.325, 5916998.325000000186265 ], [ 26633.325, 5916998.25 ], [ 26633.175, 5916998.25 ], [ 26633.175, 5916998.174999999813735 ], [ 26633.099999999998545, 5916998.174999999813735 ], [ 26633.099999999998545, 5916998.099999999627471 ], [ 26633.025000000001455, 5916998.099999999627471 ], [ 26633.025000000001455, 5916998.025000000372529 ], [ 26632.95, 5916998.025000000372529 ], [ 26632.95, 5916997.875 ], [ 26632.875, 5916997.875 ], [ 26632.875, 5916997.799999999813735 ], [ 26632.8, 5916997.799999999813735 ], [ 26632.8, 5916997.650000000372529 ], [ 26632.724999999998545, 5916997.650000000372529 ], [ 26632.724999999998545, 5916997.5 ], [ 26632.650000000001455, 5916997.5 ], [ 26632.650000000001455, 5916997.349999999627471 ], [ 26632.575, 5916997.349999999627471 ], [ 26632.575, 5916997.200000000186265 ], [ 26632.5, 5916997.200000000186265 ], [ 26632.5, 5916996.974999999627471 ], [ 26632.425, 5916996.974999999627471 ], [ 26632.425, 5916996.825000000186265 ], [ 26632.349999999998545, 5916996.825000000186265 ], [ 26632.349999999998545, 5916996.599999999627471 ], [ 26632.275000000001455, 5916996.599999999627471 ], [ 26632.275000000001455, 5916996.299999999813735 ], [ 26632.2, 5916996.299999999813735 ], [ 26632.2, 5916996.0 ], [ 26632.125, 5916996.0 ], [ 26632.125, 5916995.700000000186265 ], [ 26632.2, 5916995.700000000186265 ], [ 26632.2, 5916991.125 ], [ 26632.275000000001455, 5916991.125 ], [ 26632.275000000001455, 5916988.575000000186265 ], [ 26632.349999999998545, 5916988.575000000186265 ], [ 26632.349999999998545, 5916987.75 ], [ 26632.425, 5916987.75 ], [ 26632.425, 5916987.299999999813735 ], [ 26632.5, 5916987.299999999813735 ], [ 26632.5, 5916986.849999999627471 ], [ 26632.575, 5916986.849999999627471 ], [ 26632.575, 5916986.474999999627471 ], [ 26632.650000000001455, 5916986.474999999627471 ], [ 26632.650000000001455, 5916986.174999999813735 ], [ 26632.724999999998545, 5916986.174999999813735 ], [ 26632.724999999998545, 5916986.099999999627471 ], [ 26632.8, 5916986.099999999627471 ], [ 26632.8, 5916985.950000000186265 ], [ 26632.875, 5916985.950000000186265 ], [ 26632.875, 5916985.875 ], [ 26632.95, 5916985.875 ], [ 26632.95, 5916985.799999999813735 ], [ 26633.025000000001455, 5916985.799999999813735 ], [ 26633.025000000001455, 5916985.724999999627471 ], [ 26633.099999999998545, 5916985.724999999627471 ], [ 26633.099999999998545, 5916985.650000000372529 ], [ 26633.175, 5916985.650000000372529 ], [ 26633.175, 5916985.575000000186265 ], [ 26633.25, 5916985.575000000186265 ], [ 26633.25, 5916985.5 ], [ 26633.325, 5916985.5 ], [ 26633.325, 5916985.424999999813735 ], [ 26633.400000000001455, 5916985.424999999813735 ], [ 26633.400000000001455, 5916985.349999999627471 ], [ 26633.474999999998545, 5916985.349999999627471 ], [ 26633.474999999998545, 5916985.275000000372529 ], [ 26633.55, 5916985.275000000372529 ], [ 26633.55, 5916985.200000000186265 ], [ 26633.625, 5916985.200000000186265 ], [ 26633.625, 5916985.049999999813735 ], [ 26633.7, 5916985.049999999813735 ], [ 26633.7, 5916984.974999999627471 ], [ 26633.775000000001455, 5916984.974999999627471 ], [ 26633.775000000001455, 5916984.825000000186265 ], [ 26633.849999999998545, 5916984.825000000186265 ], [ 26633.849999999998545, 5916984.75 ], [ 26633.925, 5916984.75 ], [ 26633.925, 5916984.599999999627471 ], [ 26634.0, 5916984.599999999627471 ], [ 26634.0, 5916984.450000000186265 ], [ 26634.075, 5916984.450000000186265 ], [ 26634.075, 5916984.299999999813735 ], [ 26634.150000000001455, 5916984.299999999813735 ], [ 26634.150000000001455, 5916984.075000000186265 ], [ 26634.224999999998545, 5916984.075000000186265 ], [ 26634.224999999998545, 5916983.924999999813735 ], [ 26634.3, 5916983.924999999813735 ], [ 26634.3, 5916983.849999999627471 ], [ 26634.375, 5916983.849999999627471 ], [ 26634.375, 5916983.700000000186265 ], [ 26634.45, 5916983.700000000186265 ], [ 26634.45, 5916983.549999999813735 ], [ 26634.525000000001455, 5916983.549999999813735 ], [ 26634.525000000001455, 5916983.474999999627471 ], [ 26634.599999999998545, 5916983.474999999627471 ], [ 26634.599999999998545, 5916983.400000000372529 ], [ 26634.675, 5916983.400000000372529 ], [ 26634.675, 5916983.325000000186265 ], [ 26634.75, 5916983.325000000186265 ], [ 26634.75, 5916983.174999999813735 ], [ 26634.825, 5916983.174999999813735 ], [ 26634.825, 5916983.099999999627471 ], [ 26634.900000000001455, 5916983.099999999627471 ], [ 26634.900000000001455, 5916983.025000000372529 ], [ 26635.05, 5916983.025000000372529 ], [ 26635.05, 5916982.950000000186265 ], [ 26635.125, 5916982.950000000186265 ], [ 26635.125, 5916982.875 ], [ 26635.2, 5916982.875 ], [ 26635.2, 5916982.799999999813735 ], [ 26635.275000000001455, 5916982.799999999813735 ], [ 26635.275000000001455, 5916982.724999999627471 ], [ 26635.425, 5916982.724999999627471 ], [ 26635.425, 5916982.650000000372529 ], [ 26635.5, 5916982.650000000372529 ], [ 26635.5, 5916982.575000000186265 ], [ 26635.575, 5916982.575000000186265 ], [ 26635.575, 5916982.5 ], [ 26635.650000000001455, 5916982.5 ], [ 26635.650000000001455, 5916982.349999999627471 ], [ 26635.724999999998545, 5916982.349999999627471 ], [ 26635.724999999998545, 5916982.275000000372529 ], [ 26635.8, 5916982.275000000372529 ], [ 26635.8, 5916982.200000000186265 ], [ 26635.875, 5916982.200000000186265 ], [ 26635.875, 5916982.125 ], [ 26635.95, 5916982.125 ], [ 26635.95, 5916982.049999999813735 ], [ 26636.025000000001455, 5916982.049999999813735 ], [ 26636.025000000001455, 5916981.974999999627471 ], [ 26636.099999999998545, 5916981.974999999627471 ], [ 26636.099999999998545, 5916981.900000000372529 ], [ 26636.175, 5916981.900000000372529 ], [ 26636.175, 5916981.825000000186265 ], [ 26636.325, 5916981.825000000186265 ], [ 26636.325, 5916981.75 ], [ 26636.400000000001455, 5916981.75 ], [ 26636.400000000001455, 5916981.674999999813735 ], [ 26636.55, 5916981.674999999813735 ], [ 26636.55, 5916981.599999999627471 ], [ 26636.625, 5916981.599999999627471 ], [ 26636.625, 5916981.525000000372529 ], [ 26636.775000000001455, 5916981.525000000372529 ], [ 26636.775000000001455, 5916981.450000000186265 ], [ 26636.925, 5916981.450000000186265 ], [ 26636.925, 5916981.375 ], [ 26637.075, 5916981.375 ], [ 26637.075, 5916981.299999999813735 ], [ 26637.3, 5916981.299999999813735 ], [ 26637.3, 5916981.224999999627471 ], [ 26637.45, 5916981.224999999627471 ], [ 26637.45, 5916981.150000000372529 ], [ 26637.675, 5916981.150000000372529 ], [ 26637.675, 5916981.075000000186265 ], [ 26637.825, 5916981.075000000186265 ], [ 26637.825, 5916981.0 ], [ 26637.900000000001455, 5916981.0 ], [ 26637.900000000001455, 5916980.924999999813735 ], [ 26638.05, 5916980.924999999813735 ], [ 26638.05, 5916980.849999999627471 ], [ 26638.2, 5916980.849999999627471 ], [ 26638.2, 5916980.775000000372529 ], [ 26638.275000000001455, 5916980.775000000372529 ], [ 26638.275000000001455, 5916980.700000000186265 ], [ 26638.349999999998545, 5916980.700000000186265 ], [ 26638.349999999998545, 5916980.625 ], [ 26638.5, 5916980.625 ], [ 26638.5, 5916980.549999999813735 ], [ 26638.575, 5916980.549999999813735 ], [ 26638.575, 5916980.474999999627471 ], [ 26638.650000000001455, 5916980.474999999627471 ], [ 26638.650000000001455, 5916980.400000000372529 ], [ 26638.724999999998545, 5916980.400000000372529 ], [ 26638.724999999998545, 5916980.325000000186265 ], [ 26638.8, 5916980.325000000186265 ], [ 26638.8, 5916980.25 ], [ 26638.875, 5916980.25 ], [ 26638.875, 5916980.174999999813735 ], [ 26638.95, 5916980.174999999813735 ], [ 26638.95, 5916980.099999999627471 ], [ 26639.325, 5916980.099999999627471 ], [ 26639.325, 5916980.174999999813735 ], [ 26639.55, 5916980.174999999813735 ], [ 26639.55, 5916980.25 ], [ 26639.775000000001455, 5916980.25 ], [ 26639.775000000001455, 5916980.325000000186265 ], [ 26640.0, 5916980.325000000186265 ], [ 26640.0, 5916980.400000000372529 ], [ 26640.3, 5916980.400000000372529 ], [ 26640.3, 5916980.474999999627471 ], [ 26640.525000000001455, 5916980.474999999627471 ], [ 26640.525000000001455, 5916980.549999999813735 ], [ 26640.825, 5916980.549999999813735 ], [ 26640.825, 5916980.625 ], [ 26641.05, 5916980.625 ], [ 26641.05, 5916980.700000000186265 ], [ 26641.2, 5916980.700000000186265 ], [ 26641.2, 5916980.775000000372529 ], [ 26641.275000000001455, 5916980.775000000372529 ], [ 26641.275000000001455, 5916980.849999999627471 ], [ 26641.425, 5916980.849999999627471 ], [ 26641.425, 5916980.924999999813735 ], [ 26641.5, 5916980.924999999813735 ], [ 26641.5, 5916981.0 ], [ 26641.650000000001455, 5916981.0 ], [ 26641.650000000001455, 5916981.075000000186265 ], [ 26641.8, 5916981.075000000186265 ], [ 26641.8, 5916981.150000000372529 ], [ 26641.95, 5916981.150000000372529 ], [ 26641.95, 5916981.224999999627471 ], [ 26642.099999999998545, 5916981.224999999627471 ], [ 26642.099999999998545, 5916981.299999999813735 ], [ 26642.25, 5916981.299999999813735 ], [ 26642.25, 5916981.375 ], [ 26642.325, 5916981.375 ], [ 26642.325, 5916981.450000000186265 ], [ 26642.474999999998545, 5916981.450000000186265 ], [ 26642.474999999998545, 5916981.525000000372529 ], [ 26642.7, 5916981.525000000372529 ], [ 26642.7, 5916981.599999999627471 ], [ 26642.849999999998545, 5916981.599999999627471 ], [ 26642.849999999998545, 5916981.674999999813735 ], [ 26643.0, 5916981.674999999813735 ], [ 26643.0, 5916981.75 ], [ 26643.075, 5916981.75 ], [ 26643.075, 5916981.825000000186265 ], [ 26643.150000000001455, 5916981.825000000186265 ], [ 26643.150000000001455, 5916981.900000000372529 ], [ 26643.224999999998545, 5916981.900000000372529 ], [ 26643.224999999998545, 5916981.974999999627471 ], [ 26643.3, 5916981.974999999627471 ], [ 26643.3, 5916982.049999999813735 ], [ 26643.375, 5916982.049999999813735 ], [ 26643.375, 5916982.125 ], [ 26643.45, 5916982.125 ], [ 26643.45, 5916982.200000000186265 ], [ 26643.525000000001455, 5916982.200000000186265 ], [ 26643.525000000001455, 5916982.349999999627471 ], [ 26643.599999999998545, 5916982.349999999627471 ], [ 26643.599999999998545, 5916982.5 ], [ 26643.675, 5916982.5 ], [ 26643.675, 5916982.650000000372529 ], [ 26643.75, 5916982.650000000372529 ], [ 26643.75, 5916982.799999999813735 ], [ 26643.825, 5916982.799999999813735 ], [ 26643.825, 5916982.950000000186265 ], [ 26643.900000000001455, 5916982.950000000186265 ], [ 26643.900000000001455, 5916983.099999999627471 ], [ 26643.974999999998545, 5916983.099999999627471 ], [ 26643.974999999998545, 5916983.25 ], [ 26644.05, 5916983.25 ], [ 26644.05, 5916983.400000000372529 ], [ 26644.125, 5916983.400000000372529 ], [ 26644.125, 5916983.549999999813735 ], [ 26644.2, 5916983.549999999813735 ], [ 26644.2, 5916983.700000000186265 ], [ 26644.275000000001455, 5916983.700000000186265 ], [ 26644.275000000001455, 5916983.849999999627471 ], [ 26644.349999999998545, 5916983.849999999627471 ], [ 26644.349999999998545, 5916984.0 ], [ 26644.425, 5916984.0 ], [ 26644.425, 5916984.150000000372529 ], [ 26644.5, 5916984.150000000372529 ], [ 26644.5, 5916984.299999999813735 ], [ 26644.575, 5916984.299999999813735 ], [ 26644.575, 5916984.375 ], [ 26644.650000000001455, 5916984.375 ], [ 26644.650000000001455, 5916984.450000000186265 ], [ 26644.724999999998545, 5916984.450000000186265 ], [ 26644.724999999998545, 5916984.525000000372529 ], [ 26644.8, 5916984.525000000372529 ], [ 26644.8, 5916984.599999999627471 ], [ 26644.875, 5916984.599999999627471 ], [ 26644.875, 5916984.674999999813735 ], [ 26644.95, 5916984.674999999813735 ], [ 26644.95, 5916984.75 ], [ 26645.025000000001455, 5916984.75 ], [ 26645.025000000001455, 5916984.825000000186265 ], [ 26645.099999999998545, 5916984.825000000186265 ], [ 26645.099999999998545, 5916984.900000000372529 ], [ 26645.175, 5916984.900000000372529 ], [ 26645.175, 5916985.049999999813735 ], [ 26645.25, 5916985.049999999813735 ], [ 26645.25, 5916985.125 ], [ 26645.325, 5916985.125 ], [ 26645.325, 5916985.200000000186265 ], [ 26645.400000000001455, 5916985.200000000186265 ], [ 26645.400000000001455, 5916985.349999999627471 ], [ 26645.474999999998545, 5916985.349999999627471 ], [ 26645.474999999998545, 5916985.424999999813735 ], [ 26645.55, 5916985.424999999813735 ], [ 26645.55, 5916985.575000000186265 ], [ 26645.625, 5916985.575000000186265 ], [ 26645.625, 5916985.724999999627471 ], [ 26645.7, 5916985.724999999627471 ], [ 26645.7, 5916985.950000000186265 ], [ 26645.775000000001455, 5916985.950000000186265 ], [ 26645.775000000001455, 5916986.099999999627471 ], [ 26645.849999999998545, 5916986.099999999627471 ], [ 26645.849999999998545, 5916986.775000000372529 ], [ 26645.925, 5916986.775000000372529 ], [ 26645.925, 5916987.674999999813735 ], [ 26646.0, 5916987.674999999813735 ], [ 26646.0, 5916991.575000000186265 ], [ 26645.925, 5916991.575000000186265 ], [ 26645.925, 5916992.474999999627471 ], [ 26645.849999999998545, 5916992.474999999627471 ], [ 26645.849999999998545, 5916993.0 ], [ 26645.775000000001455, 5916993.0 ], [ 26645.775000000001455, 5916993.450000000186265 ], [ 26645.7, 5916993.450000000186265 ], [ 26645.7, 5916993.900000000372529 ], [ 26645.625, 5916993.900000000372529 ], [ 26645.625, 5916994.125 ], [ 26645.55, 5916994.125 ], [ 26645.55, 5916994.275000000372529 ], [ 26645.474999999998545, 5916994.275000000372529 ], [ 26645.474999999998545, 5916994.349999999627471 ], [ 26645.400000000001455, 5916994.349999999627471 ], [ 26645.400000000001455, 5916994.5 ], [ 26645.325, 5916994.5 ], [ 26645.325, 5916994.575000000186265 ], [ 26645.25, 5916994.575000000186265 ], [ 26645.25, 5916994.650000000372529 ], [ 26645.175, 5916994.650000000372529 ], [ 26645.175, 5916994.724999999627471 ], [ 26645.099999999998545, 5916994.724999999627471 ], [ 26645.099999999998545, 5916994.799999999813735 ], [ 26645.025000000001455, 5916994.799999999813735 ], [ 26645.025000000001455, 5916994.875 ], [ 26644.95, 5916994.875 ], [ 26644.95, 5916994.950000000186265 ], [ 26644.875, 5916994.950000000186265 ], [ 26644.875, 5916995.025000000372529 ], [ 26644.724999999998545, 5916995.025000000372529 ], [ 26644.724999999998545, 5916995.099999999627471 ], [ 26644.650000000001455, 5916995.099999999627471 ], [ 26644.650000000001455, 5916995.174999999813735 ], [ 26644.575, 5916995.174999999813735 ], [ 26644.575, 5916995.25 ], [ 26644.5, 5916995.25 ], [ 26644.5, 5916995.400000000372529 ], [ 26644.425, 5916995.400000000372529 ], [ 26644.425, 5916995.474999999627471 ], [ 26644.349999999998545, 5916995.474999999627471 ], [ 26644.349999999998545, 5916995.549999999813735 ], [ 26644.275000000001455, 5916995.549999999813735 ], [ 26644.275000000001455, 5916995.700000000186265 ], [ 26644.2, 5916995.700000000186265 ], [ 26644.2, 5916995.849999999627471 ], [ 26644.125, 5916995.849999999627471 ], [ 26644.125, 5916995.924999999813735 ], [ 26644.05, 5916995.924999999813735 ], [ 26644.05, 5916996.150000000372529 ], [ 26643.974999999998545, 5916996.150000000372529 ], [ 26643.974999999998545, 5916996.299999999813735 ], [ 26643.900000000001455, 5916996.299999999813735 ], [ 26643.900000000001455, 5916996.450000000186265 ], [ 26643.825, 5916996.450000000186265 ], [ 26643.825, 5916996.599999999627471 ], [ 26643.75, 5916996.599999999627471 ], [ 26643.75, 5916996.674999999813735 ], [ 26643.675, 5916996.674999999813735 ], [ 26643.675, 5916996.825000000186265 ], [ 26643.599999999998545, 5916996.825000000186265 ], [ 26643.599999999998545, 5916996.900000000372529 ], [ 26643.525000000001455, 5916996.900000000372529 ], [ 26643.525000000001455, 5916996.974999999627471 ], [ 26643.45, 5916996.974999999627471 ], [ 26643.45, 5916997.049999999813735 ], [ 26643.375, 5916997.049999999813735 ], [ 26643.375, 5916997.125 ], [ 26643.3, 5916997.125 ], [ 26643.3, 5916997.200000000186265 ], [ 26643.224999999998545, 5916997.200000000186265 ], [ 26643.224999999998545, 5916997.275000000372529 ], [ 26643.150000000001455, 5916997.275000000372529 ], [ 26643.150000000001455, 5916997.349999999627471 ], [ 26643.0, 5916997.349999999627471 ], [ 26643.0, 5916997.424999999813735 ], [ 26642.925, 5916997.424999999813735 ], [ 26642.925, 5916997.5 ], [ 26642.849999999998545, 5916997.5 ], [ 26642.849999999998545, 5916997.575000000186265 ], [ 26642.775000000001455, 5916997.575000000186265 ], [ 26642.775000000001455, 5916997.650000000372529 ], [ 26642.7, 5916997.650000000372529 ], [ 26642.7, 5916997.724999999627471 ], [ 26642.625, 5916997.724999999627471 ], [ 26642.625, 5916997.799999999813735 ], [ 26642.55, 5916997.799999999813735 ], [ 26642.55, 5916997.875 ], [ 26642.474999999998545, 5916997.875 ], [ 26642.474999999998545, 5916998.025000000372529 ], [ 26642.400000000001455, 5916998.025000000372529 ], [ 26642.400000000001455, 5916998.25 ], [ 26642.325, 5916998.25 ], [ 26642.325, 5916998.400000000372529 ], [ 26642.25, 5916998.400000000372529 ], [ 26642.25, 5916998.549999999813735 ], [ 26642.175, 5916998.549999999813735 ], [ 26642.175, 5916998.625 ], [ 26642.099999999998545, 5916998.625 ], [ 26642.099999999998545, 5916998.775000000372529 ], [ 26642.025000000001455, 5916998.775000000372529 ], [ 26642.025000000001455, 5916998.849999999627471 ], [ 26641.95, 5916998.849999999627471 ], [ 26641.95, 5916998.924999999813735 ], [ 26641.875, 5916998.924999999813735 ], [ 26641.875, 5916999.0 ], [ 26641.8, 5916999.0 ], [ 26641.8, 5916999.075000000186265 ], [ 26641.724999999998545, 5916999.075000000186265 ], [ 26641.724999999998545, 5916999.150000000372529 ], [ 26641.650000000001455, 5916999.150000000372529 ], [ 26641.650000000001455, 5916999.224999999627471 ], [ 26641.5, 5916999.224999999627471 ], [ 26641.5, 5916999.299999999813735 ], [ 26641.349999999998545, 5916999.299999999813735 ], [ 26641.349999999998545, 5916999.375 ], [ 26641.2, 5916999.375 ], [ 26641.2, 5916999.450000000186265 ], [ 26641.05, 5916999.450000000186265 ], [ 26641.05, 5916999.525000000372529 ], [ 26640.150000000001455, 5916999.525000000372529 ], [ 26640.150000000001455, 5916999.599999999627471 ], [ 26638.575, 5916999.599999999627471 ] ] ] } },
{ "type": "Feature", "properties": { "value": 1.0, "building_id": 3, "area": 8.1506250006850145 }, "geometry": { "type": "Polygon", "coordinates": [ [ [ 26586.224999999998545, 5916959.775000000372529 ], [ 26586.224999999998545, 5916959.700000000186265 ], [ 26586.0, 5916959.700000000186265 ], [ 26586.0, 5916959.625 ], [ 26585.849999999998545, 5916959.625 ], [ 26585.849999999998545, 5916959.549999999813735 ], [ 26585.625, 5916959.549999999813735 ], [ 26585.625, 5916959.474999999627471 ], [ 26585.474999999998545, 5916959.474999999627471 ], [ 26585.474999999998545, 5916959.400000000372529 ], [ 26585.25, 5916959.400000000372529 ], [ 26585.25, 5916959.325000000186265 ], [ 26585.099999999998545, 5916959.325000000186265 ], [ 26585.099999999998545, 5916959.25 ], [ 26584.875, 5916959.25 ], [ 26584.875, 5916959.174999999813735 ], [ 26584.724999999998545, 5916959.174999999813735 ], [ 26584.724999999998545, 5916959.099999999627471 ], [ 26584.575, 5916959.099999999627471 ], [ 26584.575, 5916959.025000000372529 ], [ 26584.425, 5916959.025000000372529 ], [ 26584.425, 5916958.950000000186265 ], [ 26584.349999999998545, 5916958.950000000186265 ], [ 26584.349999999998545, 5916958.799999999813735 ], [ 26584.425, 5916958.799999999813735 ], [ 26584.425, 5916958.724999999627471 ], [ 26584.575, 5916958.724999999627471 ], [ 26584.575, 5916958.650000000372529 ], [ 26584.650000000001455, 5916958.650000000372529 ], [ 26584.650000000001455, 5916958.575000000186265 ], [ 26584.8, 5916958.575000000186265 ], [ 26584.8, 5916958.5 ], [ 26585.025000000001455, 5916958.5 ], [ 26585.025000000001455, 5916958.424999999813735 ], [ 26585.175, 5916958.424999999813735 ], [ 26585.175, 5916958.349999999627471 ], [ 26585.325, 5916958.349999999627471 ], [ 26585.325, 5916958.275000000372529 ], [ 26585.474999999998545, 5916958.275000000372529 ], [ 26585.474999999998545, 5916958.200000000186265 ], [ 26585.7, 5916958.200000000186265 ], [ 26585.7, 5916958.125 ], [ 26585.925, 5916958.125 ], [ 26585.925, 5916958.049999999813735 ], [ 26586.150000000001455, 5916958.049999999813735 ], [ 26586.150000000001455, 5916957.974999999627471 ], [ 26586.825, 5916957.974999999627471 ], [ 26586.825, 5916958.049999999813735 ], [ 26587.425, 5916958.049999999813735 ], [ 26587.425, 5916958.125 ], [ 26588.025000000001455, 5916958.125 ], [ 26588.025000000001455, 5916958.200000000186265 ], [ 26588.625, 5916958.200000000186265 ], [ 26588.625, 5916958.275000000372529 ], [ 26589.075, 5916958.275000000372529 ], [ 26589.075, 5916958.349999999627471 ], [ 26589.599999999998545, 5916958.349999999627471 ], [ 26589.599999999998545, 5916958.424999999813735 ], [ 26589.974999999998545, 5916958.424999999813735 ], [ 26589.974999999998545, 5916958.5 ], [ 26590.349999999998545, 5916958.5 ], [ 26590.349999999998545, 5916958.575000000186265 ], [ 26590.650000000001455, 5916958.575000000186265 ], [ 26590.650000000001455, 5916958.650000000372529 ], [ 26590.95, 5916958.650000000372529 ], [ 26590.95, 5916958.724999999627471 ], [ 26591.175, 5916958.724999999627471 ], [ 26591.175, 5916958.799999999813735 ], [ 26591.400000000001455, 5916958.799999999813735 ], [ 26591.400000000001455, 5916958.875 ], [ 26591.474999999998545, 5916958.875 ], [ 26591.474999999998545, 5916958.950000000186265 ], [ 26591.325, 5916958.950000000186265 ], [ 26591.325, 5916959.025000000372529 ], [ 26591.175, 5916959.025000000372529 ], [ 26591.175, 5916959.099999999627471 ], [ 26590.95, 5916959.099999999627471 ], [ 26590.95, 5916959.174999999813735 ], [ 26590.724999999998545, 5916959.174999999813735 ], [ 26590.724999999998545, 5916959.25 ], [ 26590.425, 5916959.25 ], [ 26590.425, 5916959.325000000186265 ], [ 26590.125, 5916959.325000000186265 ], [ 26590.125, 5916959.400000000372529 ], [ 26589.75, 5916959.400000000372529 ], [ 26589.75, 5916959.474999999627471 ], [ 26589.224999999998545, 5916959.474999999627471 ], [ 26589.224999999998545, 5916959.549999999813735 ], [ 26588.7, 5916959.549999999813735 ], [ 26588.7, 5916959.625 ], [ 26587.95, 5916959.625 ], [ 26587.95, 5916959.700000000186265 ], [ 26586.825, 5916959.700000000186265 ], [ 26586.825, 5916959.775000000372529 ], [ 26586.224999999998545, 5916959.775000000372529 ] ] ] } }
]
}
