{
"type": "FeatureCollection",
"name": "26433E591207N_buildings",
"crs": { "type": "name", "properties": { "name": "urn:ogc:def:crs:EPSG::3776" } },
"features": [
{ "type": "Feature", "properties": { "value": 1.0, "building_id": 0, "area": 24.457500000043453 }, "geometry": { "type": "Polygon", "coordinates": [ [ [ 27014.025000000001455, 5912405.474999999627471 ], [ 27014.025000000001455, 5912405.400000000372529 ], [ 27013.875, 5912405.400000000372529 ], [ 27013.875, 5912405.325000000186265 ], [ 27013.650000000001455, 5912405.325000000186265 ], [ 27013.650000000001455, 5912405.25 ], [ 27013.5, 5912405.25 ], [ 27013.5, 5912405.174999999813735 ], [ 27013.349999999998545, 5912405.174999999813735 ], [ 27013.349999999998545, 5912405.099999999627471 ], [ 27013.2, 5912405.099999999627471 ], [ 27013.2, 5912405.025000000372529 ], [ 27012.974999999998545, 5912405.025000000372529 ], [ 27012.974999999998545, 5912404.950000000186265 ], [ 27012.75, 5912404.950000000186265 ], [ 27012.75, 5912404.875 ], [ 27012.599999999998545, 5912404.875 ], [ 27012.599999999998545, 5912404.799999999813735 ], [ 27012.375, 5912404.799999999813735 ], [ 27012.375, 5912404.724999999627471 ], [ 27012.150000000001455, 5912404.724999999627471 ], [ 27012.150000000001455, 5912404.650000000372529 ], [ 27012.075, 5912404.650000000372529 ], [ 27012.075, 5912404.575000000186265 ], [ 27012.0, 5912404.575000000186265 ], [ 27012.0, 5912404.5 ], [ 27011.925, 5912404.5 ], [ 27011.925, 5912404.424999999813735 ], [ 27011.849999999998545, 5912404.424999999813735 ], [ 27011.849999999998545, 5912404.349999999627471 ], [ 27011.775000000001455, 5912404.349999999627471 ], [ 27011.775000000001455, 5912404.275000000372529 ], [ 27011.7, 5912404.275000000372529 ], [ 27011.7, 5912404.200000000186265 ], [ 27011.625, 5912404.200000000186265 ], [ 27011.625, 5912403.150000000372529 ], [ 27011.55, 5912403.150000000372529 ], [ 27011.55, 5912402.174999999813735 ], [ 27011.625, 5912402.174999999813735 ], [ 27011.625, 5912402.025000000372529 ], [ 27011.7, 5912402.025000000372529 ], [ 27011.7, 5912401.950000000186265 ], [ 27011.775000000001455, 5912401.950000000186265 ], [ 27011.775000000001455, 5912401.875 ], [ 27011.849999999998545, 5912401.875 ], [ 27011.849999999998545, 5912401.799999999813735 ], [ 27011.925, 5912401.799999999813735 ], [ 27011.925, 5912401.724999999627471 ], [ 27012.0, 5912401.724999999627471 ], [ 27012.0, 5912401.650000000372529 ], [ 27012.075, 5912401.650000000372529 ], [ 27012.075, 5912401.575000000186265 ], [ 27012.150000000001455, 5912401.575000000186265 ], [ 27012.150000000001455, 5912401.5 ], [ 27012.3, 5912401.5 ], [ 27012.3, 5912401.424999999813735 ], [ 27012.45, 5912401.424999999813735 ], [ 27012.45, 5912401.349999999627471 ], [ 27012.525000000001455, 5912401.349999999627471 ], [ 27012.525000000001455, 5912401.275000000372529 ], [ 27012.675, 5912401.275000000372529 ], [ 27012.675, 5912401.200000000186265 ], [ 27012.75, 5912401.200000000186265 ], [ 27012.75, 5912401.125 ], [ 27012.825, 5912401.125 ], [ 27012.825, 5912401.049999999813735 ], [ 27012.900000000001455, 5912401.049999999813735 ], [ 27012.900000000001455, 5912400.974999999627471 ], [ 27012.974999999998545, 5912400.974999999627471 ], [ 27012.974999999998545, 5912400.900000000372529 ], [ 27013.05, 5912400.900000000372529 ], [ 27013.05, 5912400.825000000186265 ], [ 27013.125, 5912400.825000000186265 ], [ 27013.125, 5912400.75 ], [ 27013.2, 5912400.75 ], [ 27013.2, 5912400.674999999813735 ], [ 27013.275000000001455, 5912400.674999999813735 ], [ 27013.275000000001455, 5912400.599999999627471 ], [ 27013.349999999998545, 5912400.599999999627471 ], [ 27013.349999999998545, 5912400.525000000372529 ], [ 27013.425, 5912400.525000000372529 ], [ 27013.425, 5912400.375 ], [ 27013.5, 5912400.375 ], [ 27013.5, 5912400.299999999813735 ], [ 27013.575, 5912400.299999999813735 ], [ 27013.575, 5912400.224999999627471 ], [ 27013.650000000001455, 5912400.224999999627471 ], [ 27013.650000000001455, 5912400.150000000372529 ], [ 27013.724999999998545, 5912400.150000000372529 ], [ 27013.724999999998545, 5912400.075000000186265 ], [ 27013.8, 5912400.075000000186265 ], [ 27013.8, 5912400.0 ], [ 27013.875, 5912400.0 ], [ 27013.875, 5912399.924999999813735 ], [ 27014.025000000001455, 5912399.924999999813735 ], [ 27014.025000000001455, 5912399.849999999627471 ], [ 27014.175, 5912399.849999999627471 ], [ 27014.175, 5912399.924999999813735 ], [ 27014.400000000001455, 5912399.924999999813735 ], [ 27014.400000000001455, 5912400.0 ], [ 27014.625, 5912400.0 ], [ 27014.625, 5912400.075000000186265 ], [ 27014.849999999998545, 5912400.075000000186265 ], [ 27014.849999999998545, 5912400.150000000372529 ], [ 27015.0, 5912400.150000000372529 ], [ 27015.0, 5912400.224999999627471 ], [ 27015.150000000001455, 5912400.224999999627471 ], [ 27015.150000000001455, 5912400.299999999813735 ], [ 27015.3, 5912400.299999999813735 ], [ 27015.3, 5912400.375 ], [ 27015.375, 5912400.375 ], [ 27015.375, 5912400.450000000186265 ], [ 27015.525000000001455, 5912400.450000000186265 ], [ 27015.525000000001455, 5912400.525000000372529 ], [ 27015.675, 5912400.525000000372529 ], [ 27015.675, 5912400.599999999627471 ], [ 27015.825, 5912400.599999999627471 ], [ 27015.825, 5912400.674999999813735 ], [ 27016.05, 5912400.674999999813735 ], [ 27016.05, 5912400.75 ], [ 27016.125, 5912400.75 ], [ 27016.125, 5912400.825000000186265 ], [ 27016.2, 5912400.825000000186265 ], [ 27016.2, 5912400.900000000372529 ], [ 27016.275000000001455, 5912400.900000000372529 ], [ 27016.275000000001455, 5912400.974999999627471 ], [ 27016.349999999998545, 5912400.974999999627471 ], [ 27016.349999999998545, 5912401.049999999813735 ], [ 27016.425, 5912401.049999999813735 ], [ 27016.425, 5912401.125 ], [ 27016.5, 5912401.125 ], [ 27016.5, 5912401.200000000186265 ], [ 27016.575, 5912401.200000000186265 ], [ 27016.575, 5912401.275000000372529 ], [ 27016.650000000001455, 5912401.275000000372529 ], [ 27016.650000000001455, 5912401.349999999627471 ], [ 27016.724999999998545, 5912401.349999999627471 ], [ 27016.724999999998545, 5912401.424999999813735 ], [ 27016.8, 5912401.424999999813735 ], [ 27016.8, 5912401.5 ], [ 27016.875, 5912401.5 ], [ 27016.875, 5912401.575000000186265 ], [ 27016.95, 5912401.575000000186265 ], [ 27016.95, 5912401.724999999627471 ], [ 27017.025000000001455, 5912401.724999999627471 ], [ 27017.025000000001455, 5912401.799999999813735 ], [ 27017.099999999998545, 5912401.799999999813735 ], [ 27017.099999999998545, 5912401.950000000186265 ], [ 27017.175, 5912401.950000000186265 ], [ 27017.175, 5912402.025000000372529 ], [ 27017.25, 5912402.025000000372529 ], [ 27017.25, 5912402.174999999813735 ], [ 27017.325, 5912402.174999999813735 ], [ 27017.325, 5912404.275000000372529 ], [ 27017.25, 5912404.275000000372529 ], [ 27017.25, 5912404.349999999627471 ], [ 27017.175, 5912404.349999999627471 ], [ 27017.175, 5912404.424999999813735 ], [ 27017.099999999998545, 5912404.424999999813735 ], [ 27017.099999999998545, 5912404.575000000186265 ], [ 27017.025000000001455, 5912404.575000000186265 ], [ 27017.025000000001455, 5912404.650000000372529 ], [ 27016.95, 5912404.650000000372529 ], [ 27016.95, 5912404.724999999627471 ], [ 27016.875, 5912404.724999999627471 ], [ 27016.875, 5912404.799999999813735 ], [ 27016.8, 5912404.799999999813735 ], [ 27016.8, 5912404.875 ], [ 27016.724999999998545, 5912404.875 ], [ 27016.724999999998545, 5912404.950000000186265 ], [ 27016.650000000001455, 5912404.950000000186265 ], [ 27016.650000000001455, 5912405.025000000372529 ], [ 27016.575, 5912405.025000000372529 ], [ 27016.575, 5912405.099999999627471 ], [ 27016.425, 5912405.099999999627471 ], [ 27016.425, 5912405.174999999813735 ], [ 27016.349999999998545, 5912405.174999999813735 ], [ 27016.349999999998545, 5912405.25 ], [ 27016.2, 5912405.25 ], [ 27016.2, 5912405.325000000186265 ], [ 27016.125, 5912405.325000000186265 ], [ 27016.125, 5912405.400000000372529 ], [ 27015.224999999998545, 5912405.400000000372529 ], [ 27015.224999999998545, 5912405.474999999627471 ], [ 27014.025000000001455, 5912405.474999999627471 ] ] ] } }
]
}
