{
"type": "FeatureCollection",
"name": "27183E591207N_buildings",
"crs": { "type": "name", "properties": { "name": "urn:ogc:def:crs:EPSG::3776" } },
"features": [
{ "type": "Feature", "properties": { "value": 1.0, "building_id": 0, "area": 33.530624998478103 }, "geometry": { "type": "Polygon", "coordinates": [ [ [ 27593.849999999998545, 5912124.375 ], [ 27593.849999999998545, 5912124.299999999813735 ], [ 27592.425, 5912124.299999999813735 ], [ 27592.425, 5912124.224999999627471 ], [ 27591.599999999998545, 5912124.224999999627471 ], [ 27591.599999999998545, 5912124.150000000372529 ], [ 27590.849999999998545, 5912124.150000000372529 ], [ 27590.849999999998545, 5912124.075000000186265 ], [ 27590.175, 5912124.075000000186265 ], [ 27590.175, 5912124.0 ], [ 27589.5, 5912124.0 ], [ 27589.5, 5912123.924999999813735 ], [ 27588.900000000001455, 5912123.924999999813735 ], [ 27588.900000000001455, 5912123.849999999627471 ], [ 27588.224999999998545, 5912123.849999999627471 ], [ 27588.224999999998545, 5912123.775000000372529 ], [ 27587.625, 5912123.775000000372529 ], [ 27587.625, 5912123.700000000186265 ], [ 27587.025000000001455, 5912123.700000000186265 ], [ 27587.025000000001455, 5912123.625 ], [ 27586.425, 5912123.625 ], [ 27586.425, 5912123.549999999813735 ], [ 27586.2, 5912123.549999999813735 ], [ 27586.2, 5912123.474999999627471 ], [ 27586.125, 5912123.474999999627471 ], [ 27586.125, 5912123.400000000372529 ], [ 27586.05, 5912123.400000000372529 ], [ 27586.05, 5912123.325000000186265 ], [ 27585.900000000001455, 5912123.325000000186265 ], [ 27585.900000000001455, 5912123.25 ], [ 27585.825, 5912123.25 ], [ 27585.825, 5912123.174999999813735 ], [ 27585.75, 5912123.174999999813735 ], [ 27585.75, 5912123.099999999627471 ], [ 27585.675, 5912123.099999999627471 ], [ 27585.675, 5912123.025000000372529 ], [ 27585.599999999998545, 5912123.025000000372529 ], [ 27585.599999999998545, 5912122.799999999813735 ], [ 27585.675, 5912122.799999999813735 ], [ 27585.675, 5912122.575000000186265 ], [ 27585.75, 5912122.575000000186265 ], [ 27585.75, 5912122.424999999813735 ], [ 27585.825, 5912122.424999999813735 ], [ 27585.825, 5912122.200000000186265 ], [ 27585.900000000001455, 5912122.200000000186265 ], [ 27585.900000000001455, 5912121.974999999627471 ], [ 27585.974999999998545, 5912121.974999999627471 ], [ 27585.974999999998545, 5912121.825000000186265 ], [ 27586.05, 5912121.825000000186265 ], [ 27586.05, 5912121.674999999813735 ], [ 27586.125, 5912121.674999999813735 ], [ 27586.125, 5912121.450000000186265 ], [ 27586.2, 5912121.450000000186265 ], [ 27586.2, 5912121.299999999813735 ], [ 27586.275000000001455, 5912121.299999999813735 ], [ 27586.275000000001455, 5912121.150000000372529 ], [ 27587.7, 5912121.150000000372529 ], [ 27587.7, 5912121.075000000186265 ], [ 27591.150000000001455, 5912121.075000000186265 ], [ 27591.150000000001455, 5912121.150000000372529 ], [ 27591.3, 5912121.150000000372529 ], [ 27591.3, 5912121.224999999627471 ], [ 27591.525000000001455, 5912121.224999999627471 ], [ 27591.525000000001455, 5912121.299999999813735 ], [ 27591.675, 5912121.299999999813735 ], [ 27591.675, 5912121.375 ], [ 27591.825, 5912121.375 ], [ 27591.825, 5912121.450000000186265 ], [ 27592.05, 5912121.450000000186265 ], [ 27592.05, 5912121.525000000372529 ], [ 27592.2, 5912121.525000000372529 ], [ 27592.2, 5912121.599999999627471 ], [ 27592.5, 5912121.599999999627471 ], [ 27592.5, 5912121.674999999813735 ], [ 27592.8, 5912121.674999999813735 ], [ 27592.8, 5912121.75 ], [ 27593.175, 5912121.75 ], [ 27593.175, 5912121.825000000186265 ], [ 27593.55, 5912121.825000000186265 ], [ 27593.55, 5912121.900000000372529 ], [ 27593.925, 5912121.900000000372529 ], [ 27593.925, 5912121.974999999627471 ], [ 27594.375, 5912121.974999999627471 ], [ 27594.375, 5912122.049999999813735 ], [ 27594.974999999998545, 5912122.049999999813735 ], [ 27594.974999999998545, 5912122.125 ], [ 27595.650000000001455, 5912122.125 ], [ 27595.650000000001455, 5912122.200000000186265 ], [ 27596.325, 5912122.200000000186265 ], [ 27596.325, 5912122.275000000372529 ], [ 27597.0, 5912122.275000000372529 ], [ 27597.0, 5912122.349999999627471 ], [ 27597.599999999998545, 5912122.349999999627471 ], [ 27597.599999999998545, 5912122.424999999813735 ], [ 27598.125, 5912122.424999999813735 ], [ 27598.125, 5912122.5 ], [ 27598.575, 5912122.5 ], [ 27598.575, 5912122.575000000186265 ], [ 27598.95, 5912122.575000000186265 ], [ 27598.95, 5912122.650000000372529 ], [ 27599.25, 5912122.650000000372529 ], [ 27599.25, 5912122.724999999627471 ], [ 27599.55, 5912122.724999999627471 ], [ 27599.55, 5912122.799999999813735 ], [ 27599.849999999998545, 5912122.799999999813735 ], [ 27599.849999999998545, 5912122.875 ], [ 27600.075, 5912122.875 ], [ 27600.075, 5912122.950000000186265 ], [ 27600.224999999998545, 5912122.950000000186265 ], [ 27600.224999999998545, 5912123.099999999627471 ], [ 27600.150000000001455, 5912123.099999999627471 ], [ 27600.150000000001455, 5912123.775000000372529 ], [ 27600.075, 5912123.775000000372529 ], [ 27600.075, 5912124.0 ], [ 27599.925, 5912124.0 ], [ 27599.925, 5912124.075000000186265 ], [ 27599.25, 5912124.075000000186265 ], [ 27599.25, 5912124.150000000372529 ], [ 27598.425, 5912124.150000000372529 ], [ 27598.425, 5912124.224999999627471 ], [ 27597.3, 5912124.224999999627471 ], [ 27597.3, 5912124.299999999813735 ], [ 27595.875, 5912124.299999999813735 ], [ 27595.875, 5912124.375 ], [ 27593.849999999998545, 5912124.375 ] ] ] } }
]
}
