{
"type": "FeatureCollection",
"name": "27183E591282N_buildings",
"crs": { "type": "name", "properties": { "name": "urn:ogc:def:crs:EPSG::3776" } },
"features": [
{ "type": "Feature", "properties": { "value": 1.0, "building_id": 0, "area": 168.32812500223409 }, "geometry": { "type": "Polygon", "coordinates": [ [ [ 27352.575, 5913579.0 ], [ 27352.575, 5913575.924999999813735 ], [ 27352.650000000001455, 5913575.924999999813735 ], [ 27352.650000000001455, 5913575.625 ], [ 27352.724999999998545, 5913575.625 ], [ 27352.724999999998545, 5913575.325000000186265 ], [ 27352.8, 5913575.325000000186265 ], [ 27352.8, 5913575.025000000372529 ], [ 27352.875, 5913575.025000000372529 ], [ 27352.875, 5913574.724999999627471 ], [ 27352.95, 5913574.724999999627471 ], [ 27352.95, 5913574.424999999813735 ], [ 27353.025000000001455, 5913574.424999999813735 ], [ 27353.025000000001455, 5913574.125 ], [ 27353.099999999998545, 5913574.125 ], [ 27353.099999999998545, 5913573.974999999627471 ], [ 27353.175, 5913573.974999999627471 ], [ 27353.175, 5913573.900000000372529 ], [ 27353.25, 5913573.900000000372529 ], [ 27353.25, 5913573.75 ], [ 27353.325, 5913573.75 ], [ 27353.325, 5913573.674999999813735 ], [ 27353.400000000001455, 5913573.674999999813735 ], [ 27353.400000000001455, 5913573.599999999627471 ], [ 27353.474999999998545, 5913573.599999999627471 ], [ 27353.474999999998545, 5913573.525000000372529 ], [ 27353.55, 5913573.525000000372529 ], [ 27353.55, 5913573.450000000186265 ], [ 27353.625, 5913573.450000000186265 ], [ 27353.625, 5913573.375 ], [ 27353.775000000001455, 5913573.375 ], [ 27353.775000000001455, 5913573.299999999813735 ], [ 27353.849999999998545, 5913573.299999999813735 ], [ 27353.849999999998545, 5913573.224999999627471 ], [ 27354.0, 5913573.224999999627471 ], [ 27354.0, 5913573.150000000372529 ], [ 27354.224999999998545, 5913573.150000000372529 ], [ 27354.224999999998545, 5913573.075000000186265 ], [ 27354.375, 5913573.075000000186265 ], [ 27354.375, 5913573.0 ], [ 27354.525000000001455, 5913573.0 ], [ 27354.525000000001455, 5913572.924999999813735 ], [ 27354.599999999998545, 5913572.924999999813735 ], [ 27354.599999999998545, 5913572.849999999627471 ], [ 27354.75, 5913572.849999999627471 ], [ 27354.75, 5913572.775000000372529 ], [ 27354.900000000001455, 5913572.775000000372529 ], [ 27354.900000000001455, 5913572.700000000186265 ], [ 27354.974999999998545, 5913572.700000000186265 ], [ 27354.974999999998545, 5913572.625 ], [ 27355.125, 5913572.625 ], [ 27355.125, 5913572.549999999813735 ], [ 27355.2, 5913572.549999999813735 ], [ 27355.2, 5913572.474999999627471 ], [ 27355.349999999998545, 5913572.474999999627471 ], [ 27355.349999999998545, 5913572.400000000372529 ], [ 27355.425, 5913572.400000000372529 ], [ 27355.425, 5913572.325000000186265 ], [ 27355.5, 5913572.325000000186265 ], [ 27355.5, 5913572.25 ], [ 27355.575, 5913572.25 ], [ 27355.575, 5913572.174999999813735 ], [ 27355.650000000001455, 5913572.174999999813735 ], [ 27355.650000000001455, 5913572.099999999627471 ], [ 27355.724999999998545, 5913572.099999999627471 ], [ 27355.724999999998545, 5913572.025000000372529 ], [ 27355.8, 5913572.025000000372529 ], [ 27355.8, 5913571.950000000186265 ], [ 27355.875, 5913571.950000000186265 ], [ 27355.875, 5913571.875 ], [ 27355.95, 5913571.875 ], [ 27355.95, 5913571.799999999813735 ], [ 27356.025000000001455, 5913571.799999999813735 ], [ 27356.025000000001455, 5913571.724999999627471 ], [ 27356.175, 5913571.724999999627471 ], [ 27356.175, 5913571.650000000372529 ], [ 27356.25, 5913571.650000000372529 ], [ 27356.25, 5913571.575000000186265 ], [ 27356.325, 5913571.575000000186265 ], [ 27356.325, 5913571.5 ], [ 27356.400000000001455, 5913571.5 ], [ 27356.400000000001455, 5913571.424999999813735 ], [ 27356.55, 5913571.424999999813735 ], [ 27356.55, 5913571.349999999627471 ], [ 27356.625, 5913571.349999999627471 ], [ 27356.625, 5913571.275000000372529 ], [ 27356.7, 5913571.275000000372529 ], [ 27356.7, 5913571.200000000186265 ], [ 27356.849999999998545, 5913571.200000000186265 ], [ 27356.849999999998545, 5913571.125 ], [ 27356.925, 5913571.125 ], [ 27356.925, 5913571.049999999813735 ], [ 27357.075, 5913571.049999999813735 ], [ 27357.075, 5913570.974999999627471 ], [ 27357.224999999998545, 5913570.974999999627471 ], [ 27357.224999999998545, 5913570.900000000372529 ], [ 27357.675, 5913570.900000000372529 ], [ 27357.675, 5913570.974999999627471 ], [ 27358.5, 5913570.974999999627471 ], [ 27358.5, 5913571.049999999813735 ], [ 27359.400000000001455, 5913571.049999999813735 ], [ 27359.400000000001455, 5913571.125 ], [ 27361.425, 5913571.125 ], [ 27361.425, 5913571.049999999813735 ], [ 27365.325, 5913571.049999999813735 ], [ 27365.325, 5913570.974999999627471 ], [ 27367.650000000001455, 5913570.974999999627471 ], [ 27367.650000000001455, 5913571.049999999813735 ], [ 27369.375, 5913571.049999999813735 ], [ 27369.375, 5913571.125 ], [ 27369.974999999998545, 5913571.125 ], [ 27369.974999999998545, 5913571.200000000186265 ], [ 27370.425, 5913571.200000000186265 ], [ 27370.425, 5913571.275000000372529 ], [ 27370.875, 5913571.275000000372529 ], [ 27370.875, 5913571.349999999627471 ], [ 27371.25, 5913571.349999999627471 ], [ 27371.25, 5913571.424999999813735 ], [ 27371.55, 5913571.424999999813735 ], [ 27371.55, 5913571.5 ], [ 27371.775000000001455, 5913571.5 ], [ 27371.775000000001455, 5913571.575000000186265 ], [ 27372.0, 5913571.575000000186265 ], [ 27372.0, 5913571.650000000372529 ], [ 27372.224999999998545, 5913571.650000000372529 ], [ 27372.224999999998545, 5913571.724999999627471 ], [ 27372.375, 5913571.724999999627471 ], [ 27372.375, 5913571.799999999813735 ], [ 27372.599999999998545, 5913571.799999999813735 ], [ 27372.599999999998545, 5913571.875 ], [ 27372.75, 5913571.875 ], [ 27372.75, 5913571.950000000186265 ], [ 27372.900000000001455, 5913571.950000000186265 ], [ 27372.900000000001455, 5913572.025000000372529 ], [ 27372.974999999998545, 5913572.025000000372529 ], [ 27372.974999999998545, 5913572.099999999627471 ], [ 27373.125, 5913572.099999999627471 ], [ 27373.125, 5913572.174999999813735 ], [ 27373.275000000001455, 5913572.174999999813735 ], [ 27373.275000000001455, 5913572.25 ], [ 27373.425, 5913572.25 ], [ 27373.425, 5913572.325000000186265 ], [ 27373.875, 5913572.325000000186265 ], [ 27373.875, 5913572.400000000372529 ], [ 27374.099999999998545, 5913572.400000000372529 ], [ 27374.099999999998545, 5913572.474999999627471 ], [ 27374.25, 5913572.474999999627471 ], [ 27374.25, 5913572.549999999813735 ], [ 27374.400000000001455, 5913572.549999999813735 ], [ 27374.400000000001455, 5913572.625 ], [ 27374.474999999998545, 5913572.625 ], [ 27374.474999999998545, 5913572.700000000186265 ], [ 27374.625, 5913572.700000000186265 ], [ 27374.625, 5913572.775000000372529 ], [ 27374.7, 5913572.775000000372529 ], [ 27374.7, 5913572.849999999627471 ], [ 27374.775000000001455, 5913572.849999999627471 ], [ 27374.775000000001455, 5913573.0 ], [ 27374.849999999998545, 5913573.0 ], [ 27374.849999999998545, 5913573.075000000186265 ], [ 27374.925, 5913573.075000000186265 ], [ 27374.925, 5913573.224999999627471 ], [ 27375.0, 5913573.224999999627471 ], [ 27375.0, 5913573.450000000186265 ], [ 27375.075, 5913573.450000000186265 ], [ 27375.075, 5913573.674999999813735 ], [ 27375.150000000001455, 5913573.674999999813735 ], [ 27375.150000000001455, 5913574.049999999813735 ], [ 27375.224999999998545, 5913574.049999999813735 ], [ 27375.224999999998545, 5913574.724999999627471 ], [ 27375.3, 5913574.724999999627471 ], [ 27375.3, 5913575.549999999813735 ], [ 27375.375, 5913575.549999999813735 ], [ 27375.375, 5913576.0 ], [ 27375.45, 5913576.0 ], [ 27375.45, 5913579.0 ], [ 27352.575, 5913579.0 ] ] ] } },
{ "type": "Feature", "properties": { "value": 1.0, "building_id": 1, "area": 449.0437499968578 }, "geometry": { "type": "Polygon", "coordinates": [ [ [ 27428.025000000001455, 5913329.25 ], [ 27428.025000000001455, 5913329.174999999813735 ], [ 27426.974999999998545, 5913329.174999999813735 ], [ 27426.974999999998545, 5913329.099999999627471 ], [ 27425.775000000001455, 5913329.099999999627471 ], [ 27425.775000000001455, 5913329.025000000372529 ], [ 27424.575, 5913329.025000000372529 ], [ 27424.575, 5913328.950000000186265 ], [ 27423.3, 5913328.950000000186265 ], [ 27423.3, 5913328.875 ], [ 27421.8, 5913328.875 ], [ 27421.8, 5913328.799999999813735 ], [ 27416.400000000001455, 5913328.799999999813735 ], [ 27416.400000000001455, 5913328.724999999627471 ], [ 27413.849999999998545, 5913328.724999999627471 ], [ 27413.849999999998545, 5913328.799999999813735 ], [ 27411.675, 5913328.799999999813735 ], [ 27411.675, 5913328.875 ], [ 27406.275000000001455, 5913328.875 ], [ 27406.275000000001455, 5913328.799999999813735 ], [ 27405.675, 5913328.799999999813735 ], [ 27405.675, 5913328.724999999627471 ], [ 27405.150000000001455, 5913328.724999999627471 ], [ 27405.150000000001455, 5913328.650000000372529 ], [ 27404.7, 5913328.650000000372529 ], [ 27404.7, 5913328.575000000186265 ], [ 27404.55, 5913328.575000000186265 ], [ 27404.55, 5913328.5 ], [ 27404.474999999998545, 5913328.5 ], [ 27404.474999999998545, 5913328.424999999813735 ], [ 27404.325, 5913328.424999999813735 ], [ 27404.325, 5913328.349999999627471 ], [ 27404.25, 5913328.349999999627471 ], [ 27404.25, 5913328.275000000372529 ], [ 27404.175, 5913328.275000000372529 ], [ 27404.175, 5913328.200000000186265 ], [ 27404.099999999998545, 5913328.200000000186265 ], [ 27404.099999999998545, 5913328.125 ], [ 27404.025000000001455, 5913328.125 ], [ 27404.025000000001455, 5913328.049999999813735 ], [ 27403.95, 5913328.049999999813735 ], [ 27403.95, 5913327.974999999627471 ], [ 27403.875, 5913327.974999999627471 ], [ 27403.875, 5913327.825000000186265 ], [ 27403.8, 5913327.825000000186265 ], [ 27403.8, 5913327.75 ], [ 27403.724999999998545, 5913327.75 ], [ 27403.724999999998545, 5913327.674999999813735 ], [ 27403.650000000001455, 5913327.674999999813735 ], [ 27403.650000000001455, 5913327.599999999627471 ], [ 27403.575, 5913327.599999999627471 ], [ 27403.575, 5913327.525000000372529 ], [ 27403.5, 5913327.525000000372529 ], [ 27403.5, 5913327.450000000186265 ], [ 27403.425, 5913327.450000000186265 ], [ 27403.425, 5913327.375 ], [ 27403.349999999998545, 5913327.375 ], [ 27403.349999999998545, 5913327.299999999813735 ], [ 27403.275000000001455, 5913327.299999999813735 ], [ 27403.275000000001455, 5913327.224999999627471 ], [ 27403.125, 5913327.224999999627471 ], [ 27403.125, 5913327.150000000372529 ], [ 27403.05, 5913327.150000000372529 ], [ 27403.05, 5913327.075000000186265 ], [ 27402.974999999998545, 5913327.075000000186265 ], [ 27402.974999999998545, 5913327.0 ], [ 27402.825, 5913327.0 ], [ 27402.825, 5913326.924999999813735 ], [ 27402.675, 5913326.924999999813735 ], [ 27402.675, 5913326.849999999627471 ], [ 27402.599999999998545, 5913326.849999999627471 ], [ 27402.599999999998545, 5913326.775000000372529 ], [ 27402.525000000001455, 5913326.775000000372529 ], [ 27402.525000000001455, 5913326.700000000186265 ], [ 27402.45, 5913326.700000000186265 ], [ 27402.45, 5913326.625 ], [ 27402.375, 5913326.625 ], [ 27402.375, 5913326.549999999813735 ], [ 27402.3, 5913326.549999999813735 ], [ 27402.3, 5913326.474999999627471 ], [ 27402.224999999998545, 5913326.474999999627471 ], [ 27402.224999999998545, 5913326.400000000372529 ], [ 27402.150000000001455, 5913326.400000000372529 ], [ 27402.150000000001455, 5913326.325000000186265 ], [ 27402.075, 5913326.325000000186265 ], [ 27402.075, 5913326.174999999813735 ], [ 27402.0, 5913326.174999999813735 ], [ 27402.0, 5913326.099999999627471 ], [ 27401.925, 5913326.099999999627471 ], [ 27401.925, 5913325.5 ], [ 27401.849999999998545, 5913325.5 ], [ 27401.849999999998545, 5913324.674999999813735 ], [ 27401.775000000001455, 5913324.674999999813735 ], [ 27401.775000000001455, 5913322.950000000186265 ], [ 27401.849999999998545, 5913322.950000000186265 ], [ 27401.849999999998545, 5913321.150000000372529 ], [ 27401.925, 5913321.150000000372529 ], [ 27401.925, 5913319.049999999813735 ], [ 27402.0, 5913319.049999999813735 ], [ 27402.0, 5913318.075000000186265 ], [ 27402.075, 5913318.075000000186265 ], [ 27402.075, 5913317.775000000372529 ], [ 27402.150000000001455, 5913317.775000000372529 ], [ 27402.150000000001455, 5913317.474999999627471 ], [ 27402.224999999998545, 5913317.474999999627471 ], [ 27402.224999999998545, 5913317.25 ], [ 27402.3, 5913317.25 ], [ 27402.3, 5913317.025000000372529 ], [ 27402.375, 5913317.025000000372529 ], [ 27402.375, 5913316.799999999813735 ], [ 27402.45, 5913316.799999999813735 ], [ 27402.45, 5913316.575000000186265 ], [ 27402.525000000001455, 5913316.575000000186265 ], [ 27402.525000000001455, 5913316.424999999813735 ], [ 27402.599999999998545, 5913316.424999999813735 ], [ 27402.599999999998545, 5913316.275000000372529 ], [ 27402.675, 5913316.275000000372529 ], [ 27402.675, 5913316.200000000186265 ], [ 27402.75, 5913316.200000000186265 ], [ 27402.75, 5913316.125 ], [ 27402.825, 5913316.125 ], [ 27402.825, 5913316.049999999813735 ], [ 27402.900000000001455, 5913316.049999999813735 ], [ 27402.900000000001455, 5913315.974999999627471 ], [ 27402.974999999998545, 5913315.974999999627471 ], [ 27402.974999999998545, 5913315.900000000372529 ], [ 27403.05, 5913315.900000000372529 ], [ 27403.05, 5913315.825000000186265 ], [ 27403.125, 5913315.825000000186265 ], [ 27403.125, 5913315.75 ], [ 27403.2, 5913315.75 ], [ 27403.2, 5913315.599999999627471 ], [ 27403.275000000001455, 5913315.599999999627471 ], [ 27403.275000000001455, 5913315.525000000372529 ], [ 27403.349999999998545, 5913315.525000000372529 ], [ 27403.349999999998545, 5913315.450000000186265 ], [ 27403.425, 5913315.450000000186265 ], [ 27403.425, 5913315.299999999813735 ], [ 27403.5, 5913315.299999999813735 ], [ 27403.5, 5913315.224999999627471 ], [ 27403.575, 5913315.224999999627471 ], [ 27403.575, 5913315.075000000186265 ], [ 27403.650000000001455, 5913315.075000000186265 ], [ 27403.650000000001455, 5913314.924999999813735 ], [ 27403.724999999998545, 5913314.924999999813735 ], [ 27403.724999999998545, 5913314.849999999627471 ], [ 27403.8, 5913314.849999999627471 ], [ 27403.8, 5913314.700000000186265 ], [ 27403.875, 5913314.700000000186265 ], [ 27403.875, 5913314.549999999813735 ], [ 27403.95, 5913314.549999999813735 ], [ 27403.95, 5913314.325000000186265 ], [ 27404.025000000001455, 5913314.325000000186265 ], [ 27404.025000000001455, 5913314.25 ], [ 27404.099999999998545, 5913314.25 ], [ 27404.099999999998545, 5913314.174999999813735 ], [ 27404.175, 5913314.174999999813735 ], [ 27404.175, 5913314.099999999627471 ], [ 27404.25, 5913314.099999999627471 ], [ 27404.25, 5913314.025000000372529 ], [ 27404.325, 5913314.025000000372529 ], [ 27404.325, 5913313.950000000186265 ], [ 27404.400000000001455, 5913313.950000000186265 ], [ 27404.400000000001455, 5913313.875 ], [ 27404.474999999998545, 5913313.875 ], [ 27404.474999999998545, 5913313.799999999813735 ], [ 27404.55, 5913313.799999999813735 ], [ 27404.55, 5913313.724999999627471 ], [ 27404.625, 5913313.724999999627471 ], [ 27404.625, 5913313.650000000372529 ], [ 27404.925, 5913313.650000000372529 ], [ 27404.925, 5913313.575000000186265 ], [ 27405.224999999998545, 5913313.575000000186265 ], [ 27405.224999999998545, 5913313.5 ], [ 27405.525000000001455, 5913313.5 ], [ 27405.525000000001455, 5913313.424999999813735 ], [ 27405.825, 5913313.424999999813735 ], [ 27405.825, 5913313.349999999627471 ], [ 27406.05, 5913313.349999999627471 ], [ 27406.05, 5913313.275000000372529 ], [ 27406.349999999998545, 5913313.275000000372529 ], [ 27406.349999999998545, 5913313.200000000186265 ], [ 27406.724999999998545, 5913313.200000000186265 ], [ 27406.724999999998545, 5913313.125 ], [ 27407.325, 5913313.125 ], [ 27407.325, 5913313.049999999813735 ], [ 27407.925, 5913313.049999999813735 ], [ 27407.925, 5913312.974999999627471 ], [ 27408.525000000001455, 5913312.974999999627471 ], [ 27408.525000000001455, 5913312.900000000372529 ], [ 27409.2, 5913312.900000000372529 ], [ 27409.2, 5913312.825000000186265 ], [ 27409.8, 5913312.825000000186265 ], [ 27409.8, 5913312.75 ], [ 27410.400000000001455, 5913312.75 ], [ 27410.400000000001455, 5913312.674999999813735 ], [ 27411.0, 5913312.674999999813735 ], [ 27411.0, 5913312.599999999627471 ], [ 27411.525000000001455, 5913312.599999999627471 ], [ 27411.525000000001455, 5913312.525000000372529 ], [ 27412.05, 5913312.525000000372529 ], [ 27412.05, 5913312.450000000186265 ], [ 27413.025000000001455, 5913312.450000000186265 ], [ 27413.025000000001455, 5913312.525000000372529 ], [ 27413.7, 5913312.525000000372529 ], [ 27413.7, 5913312.599999999627471 ], [ 27414.375, 5913312.599999999627471 ], [ 27414.375, 5913312.674999999813735 ], [ 27414.825, 5913312.674999999813735 ], [ 27414.825, 5913312.75 ], [ 27415.275000000001455, 5913312.75 ], [ 27415.275000000001455, 5913312.825000000186265 ], [ 27415.8, 5913312.825000000186265 ], [ 27415.8, 5913312.900000000372529 ], [ 27416.325, 5913312.900000000372529 ], [ 27416.325, 5913312.974999999627471 ], [ 27417.224999999998545, 5913312.974999999627471 ], [ 27417.224999999998545, 5913313.049999999813735 ], [ 27418.2, 5913313.049999999813735 ], [ 27418.2, 5913313.125 ], [ 27419.325, 5913313.125 ], [ 27419.325, 5913313.200000000186265 ], [ 27420.45, 5913313.200000000186265 ], [ 27420.45, 5913313.275000000372529 ], [ 27421.349999999998545, 5913313.275000000372529 ], [ 27421.349999999998545, 5913313.349999999627471 ], [ 27422.25, 5913313.349999999627471 ], [ 27422.25, 5913313.424999999813735 ], [ 27422.7, 5913313.424999999813735 ], [ 27422.7, 5913313.5 ], [ 27423.224999999998545, 5913313.5 ], [ 27423.224999999998545, 5913313.575000000186265 ], [ 27423.599999999998545, 5913313.575000000186265 ], [ 27423.599999999998545, 5913313.650000000372529 ], [ 27424.05, 5913313.650000000372529 ], [ 27424.05, 5913313.724999999627471 ], [ 27424.349999999998545, 5913313.724999999627471 ], [ 27424.349999999998545, 5913313.799999999813735 ], [ 27424.575, 5913313.799999999813735 ], [ 27424.575, 5913313.875 ], [ 27424.724999999998545, 5913313.875 ], [ 27424.724999999998545, 5913313.950000000186265 ], [ 27424.95, 5913313.950000000186265 ], [ 27424.95, 5913314.025000000372529 ], [ 27425.099999999998545, 5913314.025000000372529 ], [ 27425.099999999998545, 5913314.099999999627471 ], [ 27425.25, 5913314.099999999627471 ], [ 27425.25, 5913314.174999999813735 ], [ 27425.400000000001455, 5913314.174999999813735 ], [ 27425.400000000001455, 5913314.25 ], [ 27425.474999999998545, 5913314.25 ], [ 27425.474999999998545, 5913314.325000000186265 ], [ 27425.625, 5913314.325000000186265 ], [ 27425.625, 5913314.400000000372529 ], [ 27425.775000000001455, 5913314.400000000372529 ], [ 27425.775000000001455, 5913314.474999999627471 ], [ 27425.925, 5913314.474999999627471 ], [ 27425.925, 5913314.549999999813735 ], [ 27426.075, 5913314.549999999813735 ], [ 27426.075, 5913314.625 ], [ 27426.224999999998545, 5913314.625 ], [ 27426.224999999998545, 5913314.700000000186265 ], [ 27426.45, 5913314.700000000186265 ], [ 27426.45, 5913314.775000000372529 ], [ 27426.75, 5913314.775000000372529 ], [ 27426.75, 5913314.849999999627471 ], [ 27427.05, 5913314.849999999627471 ], [ 27427.05, 5913314.924999999813735 ], [ 27427.425, 5913314.924999999813735 ], [ 27427.425, 5913315.0 ], [ 27427.8, 5913315.0 ], [ 27427.8, 5913315.075000000186265 ], [ 27428.325, 5913315.075000000186265 ], [ 27428.325, 5913315.150000000372529 ], [ 27429.75, 5913315.150000000372529 ], [ 27429.75, 5913315.224999999627471 ], [ 27430.349999999998545, 5913315.224999999627471 ], [ 27430.349999999998545, 5913315.299999999813735 ], [ 27430.650000000001455, 5913315.299999999813735 ], [ 27430.650000000001455, 5913315.375 ], [ 27430.8, 5913315.375 ], [ 27430.8, 5913315.525000000372529 ], [ 27430.875, 5913315.525000000372529 ], [ 27430.875, 5913315.825000000186265 ], [ 27430.95, 5913315.825000000186265 ], [ 27430.95, 5913316.125 ], [ 27431.025000000001455, 5913316.125 ], [ 27431.025000000001455, 5913316.950000000186265 ], [ 27431.099999999998545, 5913316.950000000186265 ], [ 27431.099999999998545, 5913318.375 ], [ 27431.175, 5913318.375 ], [ 27431.175, 5913318.900000000372529 ], [ 27431.25, 5913318.900000000372529 ], [ 27431.25, 5913319.424999999813735 ], [ 27431.325, 5913319.424999999813735 ], [ 27431.325, 5913319.950000000186265 ], [ 27431.400000000001455, 5913319.950000000186265 ], [ 27431.400000000001455, 5913320.325000000186265 ], [ 27431.474999999998545, 5913320.325000000186265 ], [ 27431.474999999998545, 5913320.549999999813735 ], [ 27431.55, 5913320.549999999813735 ], [ 27431.55, 5913320.775000000372529 ], [ 27431.625, 5913320.775000000372529 ], [ 27431.625, 5913320.924999999813735 ], [ 27431.7, 5913320.924999999813735 ], [ 27431.7, 5913321.150000000372529 ], [ 27431.775000000001455, 5913321.150000000372529 ], [ 27431.775000000001455, 5913321.299999999813735 ], [ 27431.849999999998545, 5913321.299999999813735 ], [ 27431.849999999998545, 5913321.450000000186265 ], [ 27431.925, 5913321.450000000186265 ], [ 27431.925, 5913321.599999999627471 ], [ 27432.0, 5913321.599999999627471 ], [ 27432.0, 5913321.75 ], [ 27432.075, 5913321.75 ], [ 27432.075, 5913321.825000000186265 ], [ 27432.150000000001455, 5913321.825000000186265 ], [ 27432.150000000001455, 5913321.974999999627471 ], [ 27432.224999999998545, 5913321.974999999627471 ], [ 27432.224999999998545, 5913322.125 ], [ 27432.3, 5913322.125 ], [ 27432.3, 5913322.349999999627471 ], [ 27432.375, 5913322.349999999627471 ], [ 27432.375, 5913322.650000000372529 ], [ 27432.45, 5913322.650000000372529 ], [ 27432.45, 5913322.875 ], [ 27432.525000000001455, 5913322.875 ], [ 27432.525000000001455, 5913323.174999999813735 ], [ 27432.599999999998545, 5913323.174999999813735 ], [ 27432.599999999998545, 5913323.474999999627471 ], [ 27432.675, 5913323.474999999627471 ], [ 27432.675, 5913323.849999999627471 ], [ 27432.75, 5913323.849999999627471 ], [ 27432.75, 5913326.400000000372529 ], [ 27432.675, 5913326.400000000372529 ], [ 27432.675, 5913326.700000000186265 ], [ 27432.599999999998545, 5913326.700000000186265 ], [ 27432.599999999998545, 5913327.0 ], [ 27432.525000000001455, 5913327.0 ], [ 27432.525000000001455, 5913327.150000000372529 ], [ 27432.45, 5913327.150000000372529 ], [ 27432.45, 5913327.299999999813735 ], [ 27432.224999999998545, 5913327.299999999813735 ], [ 27432.224999999998545, 5913327.375 ], [ 27432.075, 5913327.375 ], [ 27432.075, 5913327.450000000186265 ], [ 27431.925, 5913327.450000000186265 ], [ 27431.925, 5913327.525000000372529 ], [ 27431.775000000001455, 5913327.525000000372529 ], [ 27431.775000000001455, 5913327.599999999627471 ], [ 27431.7, 5913327.599999999627471 ], [ 27431.7, 5913327.674999999813735 ], [ 27431.625, 5913327.674999999813735 ], [ 27431.625, 5913327.75 ], [ 27431.474999999998545, 5913327.75 ], [ 27431.474999999998545, 5913327.825000000186265 ], [ 27431.400000000001455, 5913327.825000000186265 ], [ 27431.400000000001455, 5913327.900000000372529 ], [ 27431.325, 5913327.900000000372529 ], [ 27431.325, 5913327.974999999627471 ], [ 27431.25, 5913327.974999999627471 ], [ 27431.25, 5913328.049999999813735 ], [ 27431.175, 5913328.049999999813735 ], [ 27431.175, 5913328.125 ], [ 27431.099999999998545, 5913328.125 ], [ 27431.099999999998545, 5913328.200000000186265 ], [ 27431.025000000001455, 5913328.200000000186265 ], [ 27431.025000000001455, 5913328.275000000372529 ], [ 27430.95, 5913328.275000000372529 ], [ 27430.95, 5913328.349999999627471 ], [ 27430.875, 5913328.349999999627471 ], [ 27430.875, 5913328.424999999813735 ], [ 27430.8, 5913328.424999999813735 ], [ 27430.8, 5913328.5 ], [ 27430.650000000001455, 5913328.5 ], [ 27430.650000000001455, 5913328.575000000186265 ], [ 27430.575, 5913328.575000000186265 ], [ 27430.575, 5913328.650000000372529 ], [ 27430.425, 5913328.650000000372529 ], [ 27430.425, 5913328.724999999627471 ], [ 27430.349999999998545, 5913328.724999999627471 ], [ 27430.349999999998545, 5913328.799999999813735 ], [ 27430.2, 5913328.799999999813735 ], [ 27430.2, 5913328.875 ], [ 27429.974999999998545, 5913328.875 ], [ 27429.974999999998545, 5913328.950000000186265 ], [ 27429.599999999998545, 5913328.950000000186265 ], [ 27429.599999999998545, 5913329.025000000372529 ], [ 27429.224999999998545, 5913329.025000000372529 ], [ 27429.224999999998545, 5913329.099999999627471 ], [ 27428.7, 5913329.099999999627471 ], [ 27428.7, 5913329.174999999813735 ], [ 27428.175, 5913329.174999999813735 ], [ 27428.175, 5913329.25 ], [ 27428.025000000001455, 5913329.25 ] ] ] } },
{ "type": "Feature", "properties": { "value": 1.0, "building_id": 2, "area": 620.24624999994921 }, "geometry": { "type": "Polygon", "coordinates": [ [ [ 27440.775000000001455, 5913284.625 ], [ 27440.775000000001455, 5913284.549999999813735 ], [ 27439.95, 5913284.549999999813735 ], [ 27439.95, 5913284.474999999627471 ], [ 27439.125, 5913284.474999999627471 ], [ 27439.125, 5913284.400000000372529 ], [ 27438.224999999998545, 5913284.400000000372529 ], [ 27438.224999999998545, 5913284.325000000186265 ], [ 27437.325, 5913284.325000000186265 ], [ 27437.325, 5913284.25 ], [ 27436.349999999998545, 5913284.25 ], [ 27436.349999999998545, 5913284.174999999813735 ], [ 27435.599999999998545, 5913284.174999999813735 ], [ 27435.599999999998545, 5913284.099999999627471 ], [ 27435.0, 5913284.099999999627471 ], [ 27435.0, 5913284.025000000372529 ], [ 27434.474999999998545, 5913284.025000000372529 ], [ 27434.474999999998545, 5913283.950000000186265 ], [ 27433.95, 5913283.950000000186265 ], [ 27433.95, 5913283.875 ], [ 27433.724999999998545, 5913283.875 ], [ 27433.724999999998545, 5913283.799999999813735 ], [ 27433.425, 5913283.799999999813735 ], [ 27433.425, 5913283.724999999627471 ], [ 27433.2, 5913283.724999999627471 ], [ 27433.2, 5913283.650000000372529 ], [ 27432.974999999998545, 5913283.650000000372529 ], [ 27432.974999999998545, 5913283.575000000186265 ], [ 27432.825, 5913283.575000000186265 ], [ 27432.825, 5913283.5 ], [ 27432.599999999998545, 5913283.5 ], [ 27432.599999999998545, 5913283.424999999813735 ], [ 27432.45, 5913283.424999999813735 ], [ 27432.45, 5913283.349999999627471 ], [ 27432.3, 5913283.349999999627471 ], [ 27432.3, 5913283.275000000372529 ], [ 27432.150000000001455, 5913283.275000000372529 ], [ 27432.150000000001455, 5913283.200000000186265 ], [ 27432.0, 5913283.200000000186265 ], [ 27432.0, 5913283.125 ], [ 27431.925, 5913283.125 ], [ 27431.925, 5913283.049999999813735 ], [ 27431.849999999998545, 5913283.049999999813735 ], [ 27431.849999999998545, 5913282.974999999627471 ], [ 27431.775000000001455, 5913282.974999999627471 ], [ 27431.775000000001455, 5913282.900000000372529 ], [ 27431.625, 5913282.900000000372529 ], [ 27431.625, 5913282.825000000186265 ], [ 27431.55, 5913282.825000000186265 ], [ 27431.55, 5913282.75 ], [ 27431.474999999998545, 5913282.75 ], [ 27431.474999999998545, 5913282.674999999813735 ], [ 27431.400000000001455, 5913282.674999999813735 ], [ 27431.400000000001455, 5913282.599999999627471 ], [ 27431.325, 5913282.599999999627471 ], [ 27431.325, 5913282.525000000372529 ], [ 27431.25, 5913282.525000000372529 ], [ 27431.25, 5913282.450000000186265 ], [ 27431.099999999998545, 5913282.450000000186265 ], [ 27431.099999999998545, 5913282.375 ], [ 27431.025000000001455, 5913282.375 ], [ 27431.025000000001455, 5913282.299999999813735 ], [ 27430.95, 5913282.299999999813735 ], [ 27430.95, 5913282.224999999627471 ], [ 27430.875, 5913282.224999999627471 ], [ 27430.875, 5913282.150000000372529 ], [ 27430.724999999998545, 5913282.150000000372529 ], [ 27430.724999999998545, 5913282.075000000186265 ], [ 27430.650000000001455, 5913282.075000000186265 ], [ 27430.650000000001455, 5913282.0 ], [ 27430.575, 5913282.0 ], [ 27430.575, 5913281.924999999813735 ], [ 27430.425, 5913281.924999999813735 ], [ 27430.425, 5913281.849999999627471 ], [ 27430.349999999998545, 5913281.849999999627471 ], [ 27430.349999999998545, 5913281.775000000372529 ], [ 27430.2, 5913281.775000000372529 ], [ 27430.2, 5913281.700000000186265 ], [ 27430.125, 5913281.700000000186265 ], [ 27430.125, 5913281.625 ], [ 27430.05, 5913281.625 ], [ 27430.05, 5913281.549999999813735 ], [ 27429.974999999998545, 5913281.549999999813735 ], [ 27429.974999999998545, 5913281.474999999627471 ], [ 27429.900000000001455, 5913281.474999999627471 ], [ 27429.900000000001455, 5913281.325000000186265 ], [ 27429.825, 5913281.325000000186265 ], [ 27429.825, 5913281.25 ], [ 27429.75, 5913281.25 ], [ 27429.75, 5913281.099999999627471 ], [ 27429.675, 5913281.099999999627471 ], [ 27429.675, 5913280.799999999813735 ], [ 27429.599999999998545, 5913280.799999999813735 ], [ 27429.599999999998545, 5913280.5 ], [ 27429.525000000001455, 5913280.5 ], [ 27429.525000000001455, 5913280.200000000186265 ], [ 27429.45, 5913280.200000000186265 ], [ 27429.45, 5913279.974999999627471 ], [ 27429.375, 5913279.974999999627471 ], [ 27429.375, 5913279.674999999813735 ], [ 27429.3, 5913279.674999999813735 ], [ 27429.3, 5913279.450000000186265 ], [ 27429.224999999998545, 5913279.450000000186265 ], [ 27429.224999999998545, 5913279.150000000372529 ], [ 27429.150000000001455, 5913279.150000000372529 ], [ 27429.150000000001455, 5913278.849999999627471 ], [ 27429.075, 5913278.849999999627471 ], [ 27429.075, 5913278.625 ], [ 27429.0, 5913278.625 ], [ 27429.0, 5913278.400000000372529 ], [ 27428.925, 5913278.400000000372529 ], [ 27428.925, 5913278.174999999813735 ], [ 27428.849999999998545, 5913278.174999999813735 ], [ 27428.849999999998545, 5913277.950000000186265 ], [ 27428.775000000001455, 5913277.950000000186265 ], [ 27428.775000000001455, 5913277.724999999627471 ], [ 27428.7, 5913277.724999999627471 ], [ 27428.7, 5913277.5 ], [ 27428.625, 5913277.5 ], [ 27428.625, 5913277.349999999627471 ], [ 27428.55, 5913277.349999999627471 ], [ 27428.55, 5913276.974999999627471 ], [ 27428.474999999998545, 5913276.974999999627471 ], [ 27428.474999999998545, 5913276.299999999813735 ], [ 27428.400000000001455, 5913276.299999999813735 ], [ 27428.400000000001455, 5913275.625 ], [ 27428.325, 5913275.625 ], [ 27428.325, 5913274.950000000186265 ], [ 27428.25, 5913274.950000000186265 ], [ 27428.25, 5913274.200000000186265 ], [ 27428.175, 5913274.200000000186265 ], [ 27428.175, 5913273.450000000186265 ], [ 27428.099999999998545, 5913273.450000000186265 ], [ 27428.099999999998545, 5913272.549999999813735 ], [ 27428.025000000001455, 5913272.549999999813735 ], [ 27428.025000000001455, 5913271.575000000186265 ], [ 27427.95, 5913271.575000000186265 ], [ 27427.95, 5913270.75 ], [ 27427.875, 5913270.75 ], [ 27427.875, 5913269.924999999813735 ], [ 27427.8, 5913269.924999999813735 ], [ 27427.8, 5913269.099999999627471 ], [ 27427.724999999998545, 5913269.099999999627471 ], [ 27427.724999999998545, 5913268.275000000372529 ], [ 27427.650000000001455, 5913268.275000000372529 ], [ 27427.650000000001455, 5913267.375 ], [ 27427.575, 5913267.375 ], [ 27427.575, 5913266.400000000372529 ], [ 27427.5, 5913266.400000000372529 ], [ 27427.5, 5913265.349999999627471 ], [ 27427.425, 5913265.349999999627471 ], [ 27427.425, 5913264.150000000372529 ], [ 27427.349999999998545, 5913264.150000000372529 ], [ 27427.349999999998545, 5913261.224999999627471 ], [ 27427.425, 5913261.224999999627471 ], [ 27427.425, 5913260.25 ], [ 27427.5, 5913260.25 ], [ 27427.5, 5913259.424999999813735 ], [ 27427.575, 5913259.424999999813735 ], [ 27427.575, 5913258.900000000372529 ], [ 27427.650000000001455, 5913258.900000000372529 ], [ 27427.650000000001455, 5913258.375 ], [ 27427.724999999998545, 5913258.375 ], [ 27427.724999999998545, 5913257.924999999813735 ], [ 27427.8, 5913257.924999999813735 ], [ 27427.8, 5913257.549999999813735 ], [ 27427.875, 5913257.549999999813735 ], [ 27427.875, 5913257.25 ], [ 27427.95, 5913257.25 ], [ 27427.95, 5913257.025000000372529 ], [ 27428.025000000001455, 5913257.025000000372529 ], [ 27428.025000000001455, 5913256.799999999813735 ], [ 27428.099999999998545, 5913256.799999999813735 ], [ 27428.099999999998545, 5913256.575000000186265 ], [ 27428.175, 5913256.575000000186265 ], [ 27428.175, 5913256.349999999627471 ], [ 27428.25, 5913256.349999999627471 ], [ 27428.25, 5913256.125 ], [ 27428.325, 5913256.125 ], [ 27428.325, 5913255.900000000372529 ], [ 27428.400000000001455, 5913255.900000000372529 ], [ 27428.400000000001455, 5913255.674999999813735 ], [ 27428.474999999998545, 5913255.674999999813735 ], [ 27428.474999999998545, 5913255.525000000372529 ], [ 27428.55, 5913255.525000000372529 ], [ 27428.55, 5913255.375 ], [ 27428.625, 5913255.375 ], [ 27428.625, 5913255.224999999627471 ], [ 27428.7, 5913255.224999999627471 ], [ 27428.7, 5913255.0 ], [ 27428.775000000001455, 5913255.0 ], [ 27428.775000000001455, 5913254.775000000372529 ], [ 27428.849999999998545, 5913254.775000000372529 ], [ 27428.849999999998545, 5913254.549999999813735 ], [ 27428.925, 5913254.549999999813735 ], [ 27428.925, 5913254.325000000186265 ], [ 27429.0, 5913254.325000000186265 ], [ 27429.0, 5913254.099999999627471 ], [ 27429.075, 5913254.099999999627471 ], [ 27429.075, 5913253.799999999813735 ], [ 27429.150000000001455, 5913253.799999999813735 ], [ 27429.150000000001455, 5913253.650000000372529 ], [ 27429.224999999998545, 5913253.650000000372529 ], [ 27429.224999999998545, 5913253.424999999813735 ], [ 27429.3, 5913253.424999999813735 ], [ 27429.3, 5913253.275000000372529 ], [ 27429.375, 5913253.275000000372529 ], [ 27429.375, 5913253.200000000186265 ], [ 27429.45, 5913253.200000000186265 ], [ 27429.45, 5913253.049999999813735 ], [ 27429.525000000001455, 5913253.049999999813735 ], [ 27429.525000000001455, 5913252.974999999627471 ], [ 27429.599999999998545, 5913252.974999999627471 ], [ 27429.599999999998545, 5913252.825000000186265 ], [ 27429.675, 5913252.825000000186265 ], [ 27429.675, 5913252.75 ], [ 27429.75, 5913252.75 ], [ 27429.75, 5913252.674999999813735 ], [ 27429.825, 5913252.674999999813735 ], [ 27429.825, 5913252.599999999627471 ], [ 27429.900000000001455, 5913252.599999999627471 ], [ 27429.900000000001455, 5913252.525000000372529 ], [ 27429.974999999998545, 5913252.525000000372529 ], [ 27429.974999999998545, 5913252.450000000186265 ], [ 27430.05, 5913252.450000000186265 ], [ 27430.05, 5913252.375 ], [ 27430.125, 5913252.375 ], [ 27430.125, 5913252.299999999813735 ], [ 27430.2, 5913252.299999999813735 ], [ 27430.2, 5913252.224999999627471 ], [ 27430.275000000001455, 5913252.224999999627471 ], [ 27430.275000000001455, 5913252.150000000372529 ], [ 27430.349999999998545, 5913252.150000000372529 ], [ 27430.349999999998545, 5913252.075000000186265 ], [ 27430.425, 5913252.075000000186265 ], [ 27430.425, 5913252.0 ], [ 27430.5, 5913252.0 ], [ 27430.5, 5913251.849999999627471 ], [ 27430.575, 5913251.849999999627471 ], [ 27430.575, 5913251.700000000186265 ], [ 27430.650000000001455, 5913251.700000000186265 ], [ 27430.650000000001455, 5913251.625 ], [ 27430.724999999998545, 5913251.625 ], [ 27430.724999999998545, 5913251.474999999627471 ], [ 27430.8, 5913251.474999999627471 ], [ 27430.8, 5913251.400000000372529 ], [ 27430.875, 5913251.400000000372529 ], [ 27430.875, 5913251.25 ], [ 27430.95, 5913251.25 ], [ 27430.95, 5913251.174999999813735 ], [ 27431.025000000001455, 5913251.174999999813735 ], [ 27431.025000000001455, 5913251.099999999627471 ], [ 27431.099999999998545, 5913251.099999999627471 ], [ 27431.099999999998545, 5913250.950000000186265 ], [ 27431.175, 5913250.950000000186265 ], [ 27431.175, 5913250.875 ], [ 27431.25, 5913250.875 ], [ 27431.25, 5913250.799999999813735 ], [ 27431.325, 5913250.799999999813735 ], [ 27431.325, 5913250.724999999627471 ], [ 27431.474999999998545, 5913250.724999999627471 ], [ 27431.474999999998545, 5913250.650000000372529 ], [ 27431.55, 5913250.650000000372529 ], [ 27431.55, 5913250.575000000186265 ], [ 27431.625, 5913250.575000000186265 ], [ 27431.625, 5913250.5 ], [ 27431.7, 5913250.5 ], [ 27431.7, 5913250.424999999813735 ], [ 27431.849999999998545, 5913250.424999999813735 ], [ 27431.849999999998545, 5913250.349999999627471 ], [ 27431.925, 5913250.349999999627471 ], [ 27431.925, 5913250.275000000372529 ], [ 27432.075, 5913250.275000000372529 ], [ 27432.075, 5913250.200000000186265 ], [ 27432.150000000001455, 5913250.200000000186265 ], [ 27432.150000000001455, 5913250.125 ], [ 27432.224999999998545, 5913250.125 ], [ 27432.224999999998545, 5913250.049999999813735 ], [ 27432.3, 5913250.049999999813735 ], [ 27432.3, 5913249.974999999627471 ], [ 27432.375, 5913249.974999999627471 ], [ 27432.375, 5913249.900000000372529 ], [ 27432.45, 5913249.900000000372529 ], [ 27432.45, 5913249.825000000186265 ], [ 27432.525000000001455, 5913249.825000000186265 ], [ 27432.525000000001455, 5913249.75 ], [ 27432.599999999998545, 5913249.75 ], [ 27432.599999999998545, 5913249.599999999627471 ], [ 27432.75, 5913249.599999999627471 ], [ 27432.75, 5913249.525000000372529 ], [ 27432.825, 5913249.525000000372529 ], [ 27432.825, 5913249.450000000186265 ], [ 27432.900000000001455, 5913249.450000000186265 ], [ 27432.900000000001455, 5913249.375 ], [ 27432.974999999998545, 5913249.375 ], [ 27432.974999999998545, 5913249.299999999813735 ], [ 27433.125, 5913249.299999999813735 ], [ 27433.125, 5913249.224999999627471 ], [ 27433.2, 5913249.224999999627471 ], [ 27433.2, 5913249.150000000372529 ], [ 27433.349999999998545, 5913249.150000000372529 ], [ 27433.349999999998545, 5913249.075000000186265 ], [ 27433.5, 5913249.075000000186265 ], [ 27433.5, 5913249.0 ], [ 27433.650000000001455, 5913249.0 ], [ 27433.650000000001455, 5913248.924999999813735 ], [ 27433.875, 5913248.924999999813735 ], [ 27433.875, 5913248.849999999627471 ], [ 27434.099999999998545, 5913248.849999999627471 ], [ 27434.099999999998545, 5913248.775000000372529 ], [ 27434.25, 5913248.775000000372529 ], [ 27434.25, 5913248.700000000186265 ], [ 27434.400000000001455, 5913248.700000000186265 ], [ 27434.400000000001455, 5913248.625 ], [ 27434.55, 5913248.625 ], [ 27434.55, 5913248.549999999813735 ], [ 27434.7, 5913248.549999999813735 ], [ 27434.7, 5913248.474999999627471 ], [ 27434.849999999998545, 5913248.474999999627471 ], [ 27434.849999999998545, 5913248.400000000372529 ], [ 27434.925, 5913248.400000000372529 ], [ 27434.925, 5913248.325000000186265 ], [ 27435.075, 5913248.325000000186265 ], [ 27435.075, 5913248.25 ], [ 27435.150000000001455, 5913248.25 ], [ 27435.150000000001455, 5913248.174999999813735 ], [ 27435.224999999998545, 5913248.174999999813735 ], [ 27435.224999999998545, 5913248.099999999627471 ], [ 27435.3, 5913248.099999999627471 ], [ 27435.3, 5913248.025000000372529 ], [ 27435.45, 5913248.025000000372529 ], [ 27435.45, 5913247.875 ], [ 27435.599999999998545, 5913247.875 ], [ 27435.599999999998545, 5913247.799999999813735 ], [ 27435.675, 5913247.799999999813735 ], [ 27435.675, 5913247.724999999627471 ], [ 27435.75, 5913247.724999999627471 ], [ 27435.75, 5913247.650000000372529 ], [ 27435.825, 5913247.650000000372529 ], [ 27435.825, 5913247.575000000186265 ], [ 27436.275000000001455, 5913247.575000000186265 ], [ 27436.275000000001455, 5913247.650000000372529 ], [ 27436.650000000001455, 5913247.650000000372529 ], [ 27436.650000000001455, 5913247.724999999627471 ], [ 27437.099999999998545, 5913247.724999999627471 ], [ 27437.099999999998545, 5913247.799999999813735 ], [ 27437.400000000001455, 5913247.799999999813735 ], [ 27437.400000000001455, 5913247.875 ], [ 27437.775000000001455, 5913247.875 ], [ 27437.775000000001455, 5913247.950000000186265 ], [ 27437.925, 5913247.950000000186265 ], [ 27437.925, 5913248.025000000372529 ], [ 27438.0, 5913248.025000000372529 ], [ 27438.0, 5913248.099999999627471 ], [ 27438.075, 5913248.099999999627471 ], [ 27438.075, 5913248.174999999813735 ], [ 27438.150000000001455, 5913248.174999999813735 ], [ 27438.150000000001455, 5913248.25 ], [ 27438.3, 5913248.25 ], [ 27438.3, 5913248.325000000186265 ], [ 27438.375, 5913248.325000000186265 ], [ 27438.375, 5913248.400000000372529 ], [ 27438.45, 5913248.400000000372529 ], [ 27438.45, 5913248.474999999627471 ], [ 27438.599999999998545, 5913248.474999999627471 ], [ 27438.599999999998545, 5913248.549999999813735 ], [ 27438.675, 5913248.549999999813735 ], [ 27438.675, 5913248.625 ], [ 27438.825, 5913248.625 ], [ 27438.825, 5913248.700000000186265 ], [ 27438.974999999998545, 5913248.700000000186265 ], [ 27438.974999999998545, 5913248.775000000372529 ], [ 27439.125, 5913248.775000000372529 ], [ 27439.125, 5913248.849999999627471 ], [ 27439.275000000001455, 5913248.849999999627471 ], [ 27439.275000000001455, 5913248.924999999813735 ], [ 27439.425, 5913248.924999999813735 ], [ 27439.425, 5913249.0 ], [ 27439.575, 5913249.0 ], [ 27439.575, 5913249.075000000186265 ], [ 27439.8, 5913249.075000000186265 ], [ 27439.8, 5913249.150000000372529 ], [ 27439.95, 5913249.150000000372529 ], [ 27439.95, 5913249.224999999627471 ], [ 27440.025000000001455, 5913249.224999999627471 ], [ 27440.025000000001455, 5913249.299999999813735 ], [ 27440.175, 5913249.299999999813735 ], [ 27440.175, 5913249.375 ], [ 27440.25, 5913249.375 ], [ 27440.25, 5913249.450000000186265 ], [ 27440.325, 5913249.450000000186265 ], [ 27440.325, 5913249.525000000372529 ], [ 27440.400000000001455, 5913249.525000000372529 ], [ 27440.400000000001455, 5913249.599999999627471 ], [ 27440.474999999998545, 5913249.599999999627471 ], [ 27440.474999999998545, 5913249.674999999813735 ], [ 27440.55, 5913249.674999999813735 ], [ 27440.55, 5913249.75 ], [ 27440.625, 5913249.75 ], [ 27440.625, 5913249.900000000372529 ], [ 27440.7, 5913249.900000000372529 ], [ 27440.7, 5913249.974999999627471 ], [ 27440.775000000001455, 5913249.974999999627471 ], [ 27440.775000000001455, 5913250.125 ], [ 27440.849999999998545, 5913250.125 ], [ 27440.849999999998545, 5913250.200000000186265 ], [ 27440.925, 5913250.200000000186265 ], [ 27440.925, 5913250.275000000372529 ], [ 27441.0, 5913250.275000000372529 ], [ 27441.0, 5913250.349999999627471 ], [ 27441.075, 5913250.349999999627471 ], [ 27441.075, 5913250.424999999813735 ], [ 27441.150000000001455, 5913250.424999999813735 ], [ 27441.150000000001455, 5913250.5 ], [ 27441.224999999998545, 5913250.5 ], [ 27441.224999999998545, 5913250.575000000186265 ], [ 27441.3, 5913250.575000000186265 ], [ 27441.3, 5913250.650000000372529 ], [ 27441.375, 5913250.650000000372529 ], [ 27441.375, 5913250.724999999627471 ], [ 27441.525000000001455, 5913250.724999999627471 ], [ 27441.525000000001455, 5913250.799999999813735 ], [ 27441.675, 5913250.799999999813735 ], [ 27441.675, 5913250.875 ], [ 27441.75, 5913250.875 ], [ 27441.75, 5913250.950000000186265 ], [ 27441.900000000001455, 5913250.950000000186265 ], [ 27441.900000000001455, 5913251.025000000372529 ], [ 27442.05, 5913251.025000000372529 ], [ 27442.05, 5913251.099999999627471 ], [ 27442.125, 5913251.099999999627471 ], [ 27442.125, 5913251.174999999813735 ], [ 27442.2, 5913251.174999999813735 ], [ 27442.2, 5913251.25 ], [ 27442.275000000001455, 5913251.25 ], [ 27442.275000000001455, 5913251.325000000186265 ], [ 27442.349999999998545, 5913251.325000000186265 ], [ 27442.349999999998545, 5913251.400000000372529 ], [ 27442.425, 5913251.400000000372529 ], [ 27442.425, 5913251.474999999627471 ], [ 27442.5, 5913251.474999999627471 ], [ 27442.5, 5913251.549999999813735 ], [ 27442.575, 5913251.549999999813735 ], [ 27442.575, 5913251.625 ], [ 27442.650000000001455, 5913251.625 ], [ 27442.650000000001455, 5913251.775000000372529 ], [ 27442.724999999998545, 5913251.775000000372529 ], [ 27442.724999999998545, 5913251.924999999813735 ], [ 27442.8, 5913251.924999999813735 ], [ 27442.8, 5913252.0 ], [ 27442.875, 5913252.0 ], [ 27442.875, 5913252.150000000372529 ], [ 27442.95, 5913252.150000000372529 ], [ 27442.95, 5913252.224999999627471 ], [ 27443.025000000001455, 5913252.224999999627471 ], [ 27443.025000000001455, 5913252.375 ], [ 27443.099999999998545, 5913252.375 ], [ 27443.099999999998545, 5913252.450000000186265 ], [ 27443.175, 5913252.450000000186265 ], [ 27443.175, 5913252.525000000372529 ], [ 27443.25, 5913252.525000000372529 ], [ 27443.25, 5913252.599999999627471 ], [ 27443.325, 5913252.599999999627471 ], [ 27443.325, 5913252.674999999813735 ], [ 27443.474999999998545, 5913252.674999999813735 ], [ 27443.474999999998545, 5913252.75 ], [ 27443.55, 5913252.75 ], [ 27443.55, 5913252.825000000186265 ], [ 27443.625, 5913252.825000000186265 ], [ 27443.625, 5913252.900000000372529 ], [ 27443.775000000001455, 5913252.900000000372529 ], [ 27443.775000000001455, 5913252.974999999627471 ], [ 27443.849999999998545, 5913252.974999999627471 ], [ 27443.849999999998545, 5913253.049999999813735 ], [ 27444.0, 5913253.049999999813735 ], [ 27444.0, 5913253.125 ], [ 27444.075, 5913253.125 ], [ 27444.075, 5913253.200000000186265 ], [ 27444.150000000001455, 5913253.200000000186265 ], [ 27444.150000000001455, 5913253.275000000372529 ], [ 27444.224999999998545, 5913253.275000000372529 ], [ 27444.224999999998545, 5913253.349999999627471 ], [ 27444.3, 5913253.349999999627471 ], [ 27444.3, 5913253.424999999813735 ], [ 27444.375, 5913253.424999999813735 ], [ 27444.375, 5913253.5 ], [ 27444.45, 5913253.5 ], [ 27444.45, 5913253.575000000186265 ], [ 27444.525000000001455, 5913253.575000000186265 ], [ 27444.525000000001455, 5913253.650000000372529 ], [ 27444.599999999998545, 5913253.650000000372529 ], [ 27444.599999999998545, 5913253.799999999813735 ], [ 27444.675, 5913253.799999999813735 ], [ 27444.675, 5913253.950000000186265 ], [ 27444.75, 5913253.950000000186265 ], [ 27444.75, 5913254.099999999627471 ], [ 27444.825, 5913254.099999999627471 ], [ 27444.825, 5913254.174999999813735 ], [ 27444.900000000001455, 5913254.174999999813735 ], [ 27444.900000000001455, 5913254.325000000186265 ], [ 27444.974999999998545, 5913254.325000000186265 ], [ 27444.974999999998545, 5913254.400000000372529 ], [ 27445.05, 5913254.400000000372529 ], [ 27445.05, 5913254.474999999627471 ], [ 27445.125, 5913254.474999999627471 ], [ 27445.125, 5913254.625 ], [ 27445.2, 5913254.625 ], [ 27445.2, 5913254.700000000186265 ], [ 27445.275000000001455, 5913254.700000000186265 ], [ 27445.275000000001455, 5913254.775000000372529 ], [ 27445.349999999998545, 5913254.775000000372529 ], [ 27445.349999999998545, 5913254.849999999627471 ], [ 27445.425, 5913254.849999999627471 ], [ 27445.425, 5913254.924999999813735 ], [ 27445.575, 5913254.924999999813735 ], [ 27445.575, 5913255.0 ], [ 27445.650000000001455, 5913255.0 ], [ 27445.650000000001455, 5913255.075000000186265 ], [ 27445.724999999998545, 5913255.075000000186265 ], [ 27445.724999999998545, 5913255.150000000372529 ], [ 27445.8, 5913255.150000000372529 ], [ 27445.8, 5913255.224999999627471 ], [ 27445.875, 5913255.224999999627471 ], [ 27445.875, 5913255.299999999813735 ], [ 27445.95, 5913255.299999999813735 ], [ 27445.95, 5913255.375 ], [ 27446.025000000001455, 5913255.375 ], [ 27446.025000000001455, 5913255.450000000186265 ], [ 27446.099999999998545, 5913255.450000000186265 ], [ 27446.099999999998545, 5913255.525000000372529 ], [ 27446.175, 5913255.525000000372529 ], [ 27446.175, 5913255.599999999627471 ], [ 27446.25, 5913255.599999999627471 ], [ 27446.25, 5913255.75 ], [ 27446.325, 5913255.75 ], [ 27446.325, 5913255.974999999627471 ], [ 27446.400000000001455, 5913255.974999999627471 ], [ 27446.400000000001455, 5913256.275000000372529 ], [ 27446.474999999998545, 5913256.275000000372529 ], [ 27446.474999999998545, 5913256.650000000372529 ], [ 27446.55, 5913256.650000000372529 ], [ 27446.55, 5913256.950000000186265 ], [ 27446.625, 5913256.950000000186265 ], [ 27446.625, 5913257.325000000186265 ], [ 27446.7, 5913257.325000000186265 ], [ 27446.7, 5913257.700000000186265 ], [ 27446.775000000001455, 5913257.700000000186265 ], [ 27446.775000000001455, 5913258.075000000186265 ], [ 27446.849999999998545, 5913258.075000000186265 ], [ 27446.849999999998545, 5913258.375 ], [ 27446.925, 5913258.375 ], [ 27446.925, 5913258.674999999813735 ], [ 27447.0, 5913258.674999999813735 ], [ 27447.0, 5913258.974999999627471 ], [ 27447.075, 5913258.974999999627471 ], [ 27447.075, 5913259.275000000372529 ], [ 27447.150000000001455, 5913259.275000000372529 ], [ 27447.150000000001455, 5913259.5 ], [ 27447.224999999998545, 5913259.5 ], [ 27447.224999999998545, 5913259.724999999627471 ], [ 27447.3, 5913259.724999999627471 ], [ 27447.3, 5913259.875 ], [ 27447.375, 5913259.875 ], [ 27447.375, 5913259.950000000186265 ], [ 27447.45, 5913259.950000000186265 ], [ 27447.45, 5913260.099999999627471 ], [ 27447.525000000001455, 5913260.099999999627471 ], [ 27447.525000000001455, 5913260.174999999813735 ], [ 27447.599999999998545, 5913260.174999999813735 ], [ 27447.599999999998545, 5913260.325000000186265 ], [ 27447.675, 5913260.325000000186265 ], [ 27447.675, 5913260.400000000372529 ], [ 27447.75, 5913260.400000000372529 ], [ 27447.75, 5913260.474999999627471 ], [ 27447.825, 5913260.474999999627471 ], [ 27447.825, 5913260.625 ], [ 27447.900000000001455, 5913260.625 ], [ 27447.900000000001455, 5913260.700000000186265 ], [ 27447.974999999998545, 5913260.700000000186265 ], [ 27447.974999999998545, 5913260.849999999627471 ], [ 27448.05, 5913260.849999999627471 ], [ 27448.05, 5913261.0 ], [ 27448.125, 5913261.0 ], [ 27448.125, 5913261.150000000372529 ], [ 27448.2, 5913261.150000000372529 ], [ 27448.2, 5913261.299999999813735 ], [ 27448.275000000001455, 5913261.299999999813735 ], [ 27448.275000000001455, 5913261.525000000372529 ], [ 27448.349999999998545, 5913261.525000000372529 ], [ 27448.349999999998545, 5913262.424999999813735 ], [ 27448.275000000001455, 5913262.424999999813735 ], [ 27448.275000000001455, 5913263.625 ], [ 27448.2, 5913263.625 ], [ 27448.2, 5913263.775000000372529 ], [ 27448.125, 5913263.775000000372529 ], [ 27448.125, 5913263.924999999813735 ], [ 27448.05, 5913263.924999999813735 ], [ 27448.05, 5913264.075000000186265 ], [ 27447.974999999998545, 5913264.075000000186265 ], [ 27447.974999999998545, 5913264.150000000372529 ], [ 27447.900000000001455, 5913264.150000000372529 ], [ 27447.900000000001455, 5913264.299999999813735 ], [ 27447.825, 5913264.299999999813735 ], [ 27447.825, 5913264.375 ], [ 27447.75, 5913264.375 ], [ 27447.75, 5913264.525000000372529 ], [ 27447.675, 5913264.525000000372529 ], [ 27447.675, 5913264.599999999627471 ], [ 27447.599999999998545, 5913264.599999999627471 ], [ 27447.599999999998545, 5913264.674999999813735 ], [ 27447.525000000001455, 5913264.674999999813735 ], [ 27447.525000000001455, 5913264.825000000186265 ], [ 27447.45, 5913264.825000000186265 ], [ 27447.45, 5913264.900000000372529 ], [ 27447.375, 5913264.900000000372529 ], [ 27447.375, 5913265.049999999813735 ], [ 27447.3, 5913265.049999999813735 ], [ 27447.3, 5913265.200000000186265 ], [ 27447.224999999998545, 5913265.200000000186265 ], [ 27447.224999999998545, 5913265.349999999627471 ], [ 27447.150000000001455, 5913265.349999999627471 ], [ 27447.150000000001455, 5913265.5 ], [ 27447.075, 5913265.5 ], [ 27447.075, 5913265.875 ], [ 27447.0, 5913265.875 ], [ 27447.0, 5913266.325000000186265 ], [ 27446.925, 5913266.325000000186265 ], [ 27446.925, 5913266.775000000372529 ], [ 27446.849999999998545, 5913266.775000000372529 ], [ 27446.849999999998545, 5913267.299999999813735 ], [ 27446.775000000001455, 5913267.299999999813735 ], [ 27446.775000000001455, 5913267.674999999813735 ], [ 27446.7, 5913267.674999999813735 ], [ 27446.7, 5913267.974999999627471 ], [ 27446.625, 5913267.974999999627471 ], [ 27446.625, 5913268.200000000186265 ], [ 27446.55, 5913268.200000000186265 ], [ 27446.55, 5913268.5 ], [ 27446.474999999998545, 5913268.5 ], [ 27446.474999999998545, 5913268.724999999627471 ], [ 27446.400000000001455, 5913268.724999999627471 ], [ 27446.400000000001455, 5913268.950000000186265 ], [ 27446.325, 5913268.950000000186265 ], [ 27446.325, 5913269.099999999627471 ], [ 27446.25, 5913269.099999999627471 ], [ 27446.25, 5913269.325000000186265 ], [ 27446.175, 5913269.325000000186265 ], [ 27446.175, 5913269.700000000186265 ], [ 27446.099999999998545, 5913269.700000000186265 ], [ 27446.099999999998545, 5913270.599999999627471 ], [ 27446.025000000001455, 5913270.599999999627471 ], [ 27446.025000000001455, 5913271.5 ], [ 27446.099999999998545, 5913271.5 ], [ 27446.099999999998545, 5913271.650000000372529 ], [ 27446.175, 5913271.650000000372529 ], [ 27446.175, 5913271.799999999813735 ], [ 27446.25, 5913271.799999999813735 ], [ 27446.25, 5913271.950000000186265 ], [ 27446.325, 5913271.950000000186265 ], [ 27446.325, 5913272.099999999627471 ], [ 27446.400000000001455, 5913272.099999999627471 ], [ 27446.400000000001455, 5913272.325000000186265 ], [ 27446.474999999998545, 5913272.325000000186265 ], [ 27446.474999999998545, 5913272.474999999627471 ], [ 27446.55, 5913272.474999999627471 ], [ 27446.55, 5913272.700000000186265 ], [ 27446.625, 5913272.700000000186265 ], [ 27446.625, 5913272.924999999813735 ], [ 27446.7, 5913272.924999999813735 ], [ 27446.7, 5913273.150000000372529 ], [ 27446.775000000001455, 5913273.150000000372529 ], [ 27446.775000000001455, 5913273.450000000186265 ], [ 27446.849999999998545, 5913273.450000000186265 ], [ 27446.849999999998545, 5913273.825000000186265 ], [ 27446.925, 5913273.825000000186265 ], [ 27446.925, 5913274.125 ], [ 27447.0, 5913274.125 ], [ 27447.0, 5913274.5 ], [ 27447.075, 5913274.5 ], [ 27447.075, 5913274.799999999813735 ], [ 27447.150000000001455, 5913274.799999999813735 ], [ 27447.150000000001455, 5913275.099999999627471 ], [ 27447.224999999998545, 5913275.099999999627471 ], [ 27447.224999999998545, 5913275.325000000186265 ], [ 27447.3, 5913275.325000000186265 ], [ 27447.3, 5913275.474999999627471 ], [ 27447.375, 5913275.474999999627471 ], [ 27447.375, 5913275.625 ], [ 27447.45, 5913275.625 ], [ 27447.45, 5913275.700000000186265 ], [ 27447.525000000001455, 5913275.700000000186265 ], [ 27447.525000000001455, 5913275.849999999627471 ], [ 27447.599999999998545, 5913275.849999999627471 ], [ 27447.599999999998545, 5913275.924999999813735 ], [ 27447.675, 5913275.924999999813735 ], [ 27447.675, 5913276.0 ], [ 27447.75, 5913276.0 ], [ 27447.75, 5913276.075000000186265 ], [ 27447.825, 5913276.075000000186265 ], [ 27447.825, 5913276.224999999627471 ], [ 27447.900000000001455, 5913276.224999999627471 ], [ 27447.900000000001455, 5913276.299999999813735 ], [ 27447.974999999998545, 5913276.299999999813735 ], [ 27447.974999999998545, 5913276.375 ], [ 27448.05, 5913276.375 ], [ 27448.05, 5913276.525000000372529 ], [ 27448.125, 5913276.525000000372529 ], [ 27448.125, 5913276.674999999813735 ], [ 27448.2, 5913276.674999999813735 ], [ 27448.2, 5913276.75 ], [ 27448.275000000001455, 5913276.75 ], [ 27448.275000000001455, 5913276.900000000372529 ], [ 27448.349999999998545, 5913276.900000000372529 ], [ 27448.349999999998545, 5913277.049999999813735 ], [ 27448.425, 5913277.049999999813735 ], [ 27448.425, 5913277.349999999627471 ], [ 27448.5, 5913277.349999999627471 ], [ 27448.5, 5913278.625 ], [ 27448.575, 5913278.625 ], [ 27448.575, 5913279.0 ], [ 27448.5, 5913279.0 ], [ 27448.5, 5913279.150000000372529 ], [ 27448.425, 5913279.150000000372529 ], [ 27448.425, 5913279.224999999627471 ], [ 27448.349999999998545, 5913279.224999999627471 ], [ 27448.349999999998545, 5913279.299999999813735 ], [ 27448.275000000001455, 5913279.299999999813735 ], [ 27448.275000000001455, 5913279.375 ], [ 27448.2, 5913279.375 ], [ 27448.2, 5913279.450000000186265 ], [ 27448.05, 5913279.450000000186265 ], [ 27448.05, 5913279.525000000372529 ], [ 27447.900000000001455, 5913279.525000000372529 ], [ 27447.900000000001455, 5913279.599999999627471 ], [ 27447.825, 5913279.599999999627471 ], [ 27447.825, 5913279.674999999813735 ], [ 27447.675, 5913279.674999999813735 ], [ 27447.675, 5913279.75 ], [ 27447.525000000001455, 5913279.75 ], [ 27447.525000000001455, 5913279.825000000186265 ], [ 27447.45, 5913279.825000000186265 ], [ 27447.45, 5913279.900000000372529 ], [ 27447.375, 5913279.900000000372529 ], [ 27447.375, 5913279.974999999627471 ], [ 27447.3, 5913279.974999999627471 ], [ 27447.3, 5913280.049999999813735 ], [ 27447.224999999998545, 5913280.049999999813735 ], [ 27447.224999999998545, 5913280.125 ], [ 27447.150000000001455, 5913280.125 ], [ 27447.150000000001455, 5913280.200000000186265 ], [ 27447.075, 5913280.200000000186265 ], [ 27447.075, 5913280.275000000372529 ], [ 27447.0, 5913280.275000000372529 ], [ 27447.0, 5913280.349999999627471 ], [ 27446.925, 5913280.349999999627471 ], [ 27446.925, 5913280.424999999813735 ], [ 27446.849999999998545, 5913280.424999999813735 ], [ 27446.849999999998545, 5913280.5 ], [ 27446.775000000001455, 5913280.5 ], [ 27446.775000000001455, 5913280.650000000372529 ], [ 27446.7, 5913280.650000000372529 ], [ 27446.7, 5913280.724999999627471 ], [ 27446.625, 5913280.724999999627471 ], [ 27446.625, 5913280.875 ], [ 27446.55, 5913280.875 ], [ 27446.55, 5913280.950000000186265 ], [ 27446.474999999998545, 5913280.950000000186265 ], [ 27446.474999999998545, 5913281.099999999627471 ], [ 27446.400000000001455, 5913281.099999999627471 ], [ 27446.400000000001455, 5913281.25 ], [ 27446.325, 5913281.25 ], [ 27446.325, 5913281.325000000186265 ], [ 27446.25, 5913281.325000000186265 ], [ 27446.25, 5913281.400000000372529 ], [ 27446.175, 5913281.400000000372529 ], [ 27446.175, 5913281.474999999627471 ], [ 27446.099999999998545, 5913281.474999999627471 ], [ 27446.099999999998545, 5913281.549999999813735 ], [ 27446.025000000001455, 5913281.549999999813735 ], [ 27446.025000000001455, 5913281.625 ], [ 27445.95, 5913281.625 ], [ 27445.95, 5913281.700000000186265 ], [ 27445.875, 5913281.700000000186265 ], [ 27445.875, 5913281.775000000372529 ], [ 27445.8, 5913281.775000000372529 ], [ 27445.8, 5913281.849999999627471 ], [ 27445.650000000001455, 5913281.849999999627471 ], [ 27445.650000000001455, 5913281.924999999813735 ], [ 27445.575, 5913281.924999999813735 ], [ 27445.575, 5913282.0 ], [ 27445.425, 5913282.0 ], [ 27445.425, 5913282.075000000186265 ], [ 27445.349999999998545, 5913282.075000000186265 ], [ 27445.349999999998545, 5913282.150000000372529 ], [ 27445.2, 5913282.150000000372529 ], [ 27445.2, 5913282.224999999627471 ], [ 27445.125, 5913282.224999999627471 ], [ 27445.125, 5913282.299999999813735 ], [ 27445.05, 5913282.299999999813735 ], [ 27445.05, 5913282.375 ], [ 27444.974999999998545, 5913282.375 ], [ 27444.974999999998545, 5913282.450000000186265 ], [ 27444.900000000001455, 5913282.450000000186265 ], [ 27444.900000000001455, 5913282.525000000372529 ], [ 27444.825, 5913282.525000000372529 ], [ 27444.825, 5913282.599999999627471 ], [ 27444.75, 5913282.599999999627471 ], [ 27444.75, 5913282.674999999813735 ], [ 27444.675, 5913282.674999999813735 ], [ 27444.675, 5913282.75 ], [ 27444.599999999998545, 5913282.75 ], [ 27444.599999999998545, 5913282.825000000186265 ], [ 27444.525000000001455, 5913282.825000000186265 ], [ 27444.525000000001455, 5913282.900000000372529 ], [ 27444.45, 5913282.900000000372529 ], [ 27444.45, 5913283.049999999813735 ], [ 27444.375, 5913283.049999999813735 ], [ 27444.375, 5913283.125 ], [ 27444.3, 5913283.125 ], [ 27444.3, 5913283.275000000372529 ], [ 27444.224999999998545, 5913283.275000000372529 ], [ 27444.224999999998545, 5913283.349999999627471 ], [ 27444.150000000001455, 5913283.349999999627471 ], [ 27444.150000000001455, 5913283.424999999813735 ], [ 27444.075, 5913283.424999999813735 ], [ 27444.075, 5913283.5 ], [ 27444.0, 5913283.5 ], [ 27444.0, 5913283.575000000186265 ], [ 27443.925, 5913283.575000000186265 ], [ 27443.925, 5913283.650000000372529 ], [ 27443.849999999998545, 5913283.650000000372529 ], [ 27443.849999999998545, 5913283.724999999627471 ], [ 27443.7, 5913283.724999999627471 ], [ 27443.7, 5913283.799999999813735 ], [ 27443.474999999998545, 5913283.799999999813735 ], [ 27443.474999999998545, 5913283.875 ], [ 27443.325, 5913283.875 ], [ 27443.325, 5913283.950000000186265 ], [ 27443.099999999998545, 5913283.950000000186265 ], [ 27443.099999999998545, 5913284.025000000372529 ], [ 27442.95, 5913284.025000000372529 ], [ 27442.95, 5913284.099999999627471 ], [ 27442.8, 5913284.099999999627471 ], [ 27442.8, 5913284.174999999813735 ], [ 27442.575, 5913284.174999999813735 ], [ 27442.575, 5913284.25 ], [ 27442.425, 5913284.25 ], [ 27442.425, 5913284.325000000186265 ], [ 27442.2, 5913284.325000000186265 ], [ 27442.2, 5913284.400000000372529 ], [ 27442.05, 5913284.400000000372529 ], [ 27442.05, 5913284.474999999627471 ], [ 27441.900000000001455, 5913284.474999999627471 ], [ 27441.900000000001455, 5913284.549999999813735 ], [ 27441.599999999998545, 5913284.549999999813735 ], [ 27441.599999999998545, 5913284.625 ], [ 27440.775000000001455, 5913284.625 ] ] ] } }
]
}
