{
"type": "FeatureCollection",
"name": "27183E594207N_buildings",
"crs": { "type": "name", "properties": { "name": "urn:ogc:def:crs:EPSG::3776" } },
"features": [
{ "type": "Feature", "properties": { "value": 1.0, "building_id": 0, "area": 0.85500000009789789 }, "geometry": { "type": "Polygon", "coordinates": [ [ [ 27234.599999999998545, 5942488.875 ], [ 27234.599999999998545, 5942488.799999999813735 ], [ 27234.525000000001455, 5942488.799999999813735 ], [ 27234.525000000001455, 5942488.724999999627471 ], [ 27234.45, 5942488.724999999627471 ], [ 27234.45, 5942488.650000000372529 ], [ 27234.375, 5942488.650000000372529 ], [ 27234.375, 5942488.575000000186265 ], [ 27234.3, 5942488.575000000186265 ], [ 27234.3, 5942488.5 ], [ 27234.224999999998545, 5942488.5 ], [ 27234.224999999998545, 5942488.424999999813735 ], [ 27234.150000000001455, 5942488.424999999813735 ], [ 27234.150000000001455, 5942488.349999999627471 ], [ 27234.075, 5942488.349999999627471 ], [ 27234.075, 5942488.275000000372529 ], [ 27234.0, 5942488.275000000372529 ], [ 27234.0, 5942488.200000000186265 ], [ 27233.925, 5942488.200000000186265 ], [ 27233.925, 5942488.125 ], [ 27234.0, 5942488.125 ], [ 27234.0, 5942488.049999999813735 ], [ 27234.075, 5942488.049999999813735 ], [ 27234.075, 5942487.974999999627471 ], [ 27234.150000000001455, 5942487.974999999627471 ], [ 27234.150000000001455, 5942487.900000000372529 ], [ 27234.224999999998545, 5942487.900000000372529 ], [ 27234.224999999998545, 5942487.825000000186265 ], [ 27234.3, 5942487.825000000186265 ], [ 27234.3, 5942487.75 ], [ 27234.45, 5942487.75 ], [ 27234.45, 5942487.674999999813735 ], [ 27234.599999999998545, 5942487.674999999813735 ], [ 27234.599999999998545, 5942487.599999999627471 ], [ 27234.825, 5942487.599999999627471 ], [ 27234.825, 5942487.75 ], [ 27234.900000000001455, 5942487.75 ], [ 27234.900000000001455, 5942487.900000000372529 ], [ 27234.974999999998545, 5942487.900000000372529 ], [ 27234.974999999998545, 5942488.049999999813735 ], [ 27235.05, 5942488.049999999813735 ], [ 27235.05, 5942488.275000000372529 ], [ 27234.974999999998545, 5942488.275000000372529 ], [ 27234.974999999998545, 5942488.5 ], [ 27234.900000000001455, 5942488.5 ], [ 27234.900000000001455, 5942488.724999999627471 ], [ 27234.825, 5942488.724999999627471 ], [ 27234.825, 5942488.875 ], [ 27234.599999999998545, 5942488.875 ] ] ] } },
{ "type": "Feature", "properties": { "value": 1.0, "building_id": 1, "area": 21.155624999665857 }, "geometry": { "type": "Polygon", "coordinates": [ [ [ 27271.875, 5942490.75 ], [ 27271.875, 5942490.674999999813735 ], [ 27271.8, 5942490.674999999813735 ], [ 27271.8, 5942490.599999999627471 ], [ 27271.724999999998545, 5942490.599999999627471 ], [ 27271.724999999998545, 5942490.525000000372529 ], [ 27271.650000000001455, 5942490.525000000372529 ], [ 27271.650000000001455, 5942490.450000000186265 ], [ 27271.575, 5942490.450000000186265 ], [ 27271.575, 5942490.375 ], [ 27271.5, 5942490.375 ], [ 27271.5, 5942490.224999999627471 ], [ 27271.425, 5942490.224999999627471 ], [ 27271.425, 5942490.150000000372529 ], [ 27271.349999999998545, 5942490.150000000372529 ], [ 27271.349999999998545, 5942489.625 ], [ 27271.275000000001455, 5942489.625 ], [ 27271.275000000001455, 5942489.099999999627471 ], [ 27271.2, 5942489.099999999627471 ], [ 27271.2, 5942488.650000000372529 ], [ 27271.125, 5942488.650000000372529 ], [ 27271.125, 5942488.200000000186265 ], [ 27271.05, 5942488.200000000186265 ], [ 27271.05, 5942488.125 ], [ 27271.125, 5942488.125 ], [ 27271.125, 5942487.674999999813735 ], [ 27271.2, 5942487.674999999813735 ], [ 27271.2, 5942487.224999999627471 ], [ 27271.275000000001455, 5942487.224999999627471 ], [ 27271.275000000001455, 5942486.775000000372529 ], [ 27271.349999999998545, 5942486.775000000372529 ], [ 27271.349999999998545, 5942486.400000000372529 ], [ 27271.425, 5942486.400000000372529 ], [ 27271.425, 5942485.875 ], [ 27271.5, 5942485.875 ], [ 27271.5, 5942485.275000000372529 ], [ 27271.575, 5942485.275000000372529 ], [ 27271.575, 5942484.75 ], [ 27271.650000000001455, 5942484.75 ], [ 27271.650000000001455, 5942484.075000000186265 ], [ 27271.724999999998545, 5942484.075000000186265 ], [ 27271.724999999998545, 5942483.025000000372529 ], [ 27271.8, 5942483.025000000372529 ], [ 27271.8, 5942482.275000000372529 ], [ 27272.625, 5942482.275000000372529 ], [ 27272.625, 5942482.349999999627471 ], [ 27272.849999999998545, 5942482.349999999627471 ], [ 27272.849999999998545, 5942482.424999999813735 ], [ 27272.925, 5942482.424999999813735 ], [ 27272.925, 5942482.5 ], [ 27273.0, 5942482.5 ], [ 27273.0, 5942482.575000000186265 ], [ 27273.075, 5942482.575000000186265 ], [ 27273.075, 5942482.650000000372529 ], [ 27273.150000000001455, 5942482.650000000372529 ], [ 27273.150000000001455, 5942482.724999999627471 ], [ 27273.224999999998545, 5942482.724999999627471 ], [ 27273.224999999998545, 5942482.799999999813735 ], [ 27273.375, 5942482.799999999813735 ], [ 27273.375, 5942482.875 ], [ 27273.45, 5942482.875 ], [ 27273.45, 5942482.950000000186265 ], [ 27273.525000000001455, 5942482.950000000186265 ], [ 27273.525000000001455, 5942483.025000000372529 ], [ 27273.599999999998545, 5942483.025000000372529 ], [ 27273.599999999998545, 5942483.099999999627471 ], [ 27273.675, 5942483.099999999627471 ], [ 27273.675, 5942483.174999999813735 ], [ 27273.75, 5942483.174999999813735 ], [ 27273.75, 5942483.25 ], [ 27273.825, 5942483.25 ], [ 27273.825, 5942484.075000000186265 ], [ 27273.900000000001455, 5942484.075000000186265 ], [ 27273.900000000001455, 5942484.825000000186265 ], [ 27273.974999999998545, 5942484.825000000186265 ], [ 27273.974999999998545, 5942485.575000000186265 ], [ 27274.05, 5942485.575000000186265 ], [ 27274.05, 5942486.25 ], [ 27274.125, 5942486.25 ], [ 27274.125, 5942486.700000000186265 ], [ 27274.2, 5942486.700000000186265 ], [ 27274.2, 5942487.224999999627471 ], [ 27274.275000000001455, 5942487.224999999627471 ], [ 27274.275000000001455, 5942487.75 ], [ 27274.349999999998545, 5942487.75 ], [ 27274.349999999998545, 5942488.650000000372529 ], [ 27274.275000000001455, 5942488.650000000372529 ], [ 27274.275000000001455, 5942489.174999999813735 ], [ 27274.2, 5942489.174999999813735 ], [ 27274.2, 5942489.625 ], [ 27274.125, 5942489.625 ], [ 27274.125, 5942490.075000000186265 ], [ 27274.05, 5942490.075000000186265 ], [ 27274.05, 5942490.224999999627471 ], [ 27273.974999999998545, 5942490.224999999627471 ], [ 27273.974999999998545, 5942490.299999999813735 ], [ 27273.900000000001455, 5942490.299999999813735 ], [ 27273.900000000001455, 5942490.375 ], [ 27273.825, 5942490.375 ], [ 27273.825, 5942490.450000000186265 ], [ 27273.599999999998545, 5942490.450000000186265 ], [ 27273.599999999998545, 5942490.525000000372529 ], [ 27273.075, 5942490.525000000372529 ], [ 27273.075, 5942490.599999999627471 ], [ 27272.625, 5942490.599999999627471 ], [ 27272.625, 5942490.674999999813735 ], [ 27272.099999999998545, 5942490.674999999813735 ], [ 27272.099999999998545, 5942490.75 ], [ 27271.875, 5942490.75 ] ] ] } },
{ "type": "Feature", "properties": { "value": 1.0, "building_id": 2, "area": 330.82312500166773 }, "geometry": { "type": "Polygon", "coordinates": [ [ [ 27214.05, 5942487.450000000186265 ], [ 27214.05, 5942487.375 ], [ 27213.675, 5942487.375 ], [ 27213.675, 5942487.299999999813735 ], [ 27213.224999999998545, 5942487.299999999813735 ], [ 27213.224999999998545, 5942487.224999999627471 ], [ 27212.775000000001455, 5942487.224999999627471 ], [ 27212.775000000001455, 5942487.150000000372529 ], [ 27212.325, 5942487.150000000372529 ], [ 27212.325, 5942487.075000000186265 ], [ 27211.8, 5942487.075000000186265 ], [ 27211.8, 5942487.0 ], [ 27211.2, 5942487.0 ], [ 27211.2, 5942486.924999999813735 ], [ 27210.224999999998545, 5942486.924999999813735 ], [ 27210.224999999998545, 5942486.849999999627471 ], [ 27209.25, 5942486.849999999627471 ], [ 27209.25, 5942486.775000000372529 ], [ 27206.7, 5942486.775000000372529 ], [ 27206.7, 5942486.700000000186265 ], [ 27204.75, 5942486.700000000186265 ], [ 27204.75, 5942486.625 ], [ 27203.474999999998545, 5942486.625 ], [ 27203.474999999998545, 5942486.549999999813735 ], [ 27202.95, 5942486.549999999813735 ], [ 27202.95, 5942486.474999999627471 ], [ 27202.5, 5942486.474999999627471 ], [ 27202.5, 5942486.400000000372529 ], [ 27202.125, 5942486.400000000372529 ], [ 27202.125, 5942486.325000000186265 ], [ 27201.825, 5942486.325000000186265 ], [ 27201.825, 5942486.25 ], [ 27201.45, 5942486.25 ], [ 27201.45, 5942486.174999999813735 ], [ 27201.0, 5942486.174999999813735 ], [ 27201.0, 5942486.099999999627471 ], [ 27200.775000000001455, 5942486.099999999627471 ], [ 27200.775000000001455, 5942486.025000000372529 ], [ 27200.55, 5942486.025000000372529 ], [ 27200.55, 5942485.950000000186265 ], [ 27200.400000000001455, 5942485.950000000186265 ], [ 27200.400000000001455, 5942485.875 ], [ 27200.325, 5942485.875 ], [ 27200.325, 5942485.424999999813735 ], [ 27200.25, 5942485.424999999813735 ], [ 27200.25, 5942484.75 ], [ 27200.175, 5942484.75 ], [ 27200.175, 5942483.099999999627471 ], [ 27200.099999999998545, 5942483.099999999627471 ], [ 27200.099999999998545, 5942481.674999999813735 ], [ 27200.025000000001455, 5942481.674999999813735 ], [ 27200.025000000001455, 5942480.924999999813735 ], [ 27199.95, 5942480.924999999813735 ], [ 27199.95, 5942480.325000000186265 ], [ 27199.875, 5942480.325000000186265 ], [ 27199.875, 5942480.025000000372529 ], [ 27199.8, 5942480.025000000372529 ], [ 27199.8, 5942479.799999999813735 ], [ 27199.724999999998545, 5942479.799999999813735 ], [ 27199.724999999998545, 5942479.575000000186265 ], [ 27199.650000000001455, 5942479.575000000186265 ], [ 27199.650000000001455, 5942479.424999999813735 ], [ 27199.575, 5942479.424999999813735 ], [ 27199.575, 5942479.200000000186265 ], [ 27199.5, 5942479.200000000186265 ], [ 27199.5, 5942478.974999999627471 ], [ 27199.425, 5942478.974999999627471 ], [ 27199.425, 5942478.75 ], [ 27199.349999999998545, 5942478.75 ], [ 27199.349999999998545, 5942478.525000000372529 ], [ 27199.275000000001455, 5942478.525000000372529 ], [ 27199.275000000001455, 5942478.150000000372529 ], [ 27199.2, 5942478.150000000372529 ], [ 27199.2, 5942477.700000000186265 ], [ 27199.125, 5942477.700000000186265 ], [ 27199.125, 5942477.099999999627471 ], [ 27199.05, 5942477.099999999627471 ], [ 27199.05, 5942476.5 ], [ 27198.974999999998545, 5942476.5 ], [ 27198.974999999998545, 5942474.625 ], [ 27198.900000000001455, 5942474.625 ], [ 27198.900000000001455, 5942474.325000000186265 ], [ 27198.974999999998545, 5942474.325000000186265 ], [ 27198.974999999998545, 5942472.525000000372529 ], [ 27199.05, 5942472.525000000372529 ], [ 27199.05, 5942472.375 ], [ 27199.125, 5942472.375 ], [ 27199.125, 5942472.224999999627471 ], [ 27199.2, 5942472.224999999627471 ], [ 27199.2, 5942472.075000000186265 ], [ 27199.275000000001455, 5942472.075000000186265 ], [ 27199.275000000001455, 5942471.924999999813735 ], [ 27199.349999999998545, 5942471.924999999813735 ], [ 27199.349999999998545, 5942471.849999999627471 ], [ 27199.425, 5942471.849999999627471 ], [ 27199.425, 5942471.775000000372529 ], [ 27199.5, 5942471.775000000372529 ], [ 27199.5, 5942471.625 ], [ 27199.575, 5942471.625 ], [ 27199.575, 5942471.549999999813735 ], [ 27199.650000000001455, 5942471.549999999813735 ], [ 27199.650000000001455, 5942471.474999999627471 ], [ 27199.724999999998545, 5942471.474999999627471 ], [ 27199.724999999998545, 5942471.400000000372529 ], [ 27199.8, 5942471.400000000372529 ], [ 27199.8, 5942471.325000000186265 ], [ 27199.875, 5942471.325000000186265 ], [ 27199.875, 5942471.174999999813735 ], [ 27199.95, 5942471.174999999813735 ], [ 27199.95, 5942471.099999999627471 ], [ 27200.025000000001455, 5942471.099999999627471 ], [ 27200.025000000001455, 5942470.950000000186265 ], [ 27200.099999999998545, 5942470.950000000186265 ], [ 27200.099999999998545, 5942470.799999999813735 ], [ 27200.175, 5942470.799999999813735 ], [ 27200.175, 5942470.650000000372529 ], [ 27200.25, 5942470.650000000372529 ], [ 27200.25, 5942470.424999999813735 ], [ 27200.325, 5942470.424999999813735 ], [ 27200.325, 5942470.200000000186265 ], [ 27200.400000000001455, 5942470.200000000186265 ], [ 27200.400000000001455, 5942469.974999999627471 ], [ 27200.474999999998545, 5942469.974999999627471 ], [ 27200.474999999998545, 5942469.825000000186265 ], [ 27200.55, 5942469.825000000186265 ], [ 27200.55, 5942469.674999999813735 ], [ 27200.625, 5942469.674999999813735 ], [ 27200.625, 5942469.525000000372529 ], [ 27200.7, 5942469.525000000372529 ], [ 27200.7, 5942469.450000000186265 ], [ 27201.0, 5942469.450000000186265 ], [ 27201.0, 5942469.375 ], [ 27201.3, 5942469.375 ], [ 27201.3, 5942469.299999999813735 ], [ 27201.675, 5942469.299999999813735 ], [ 27201.675, 5942469.224999999627471 ], [ 27201.900000000001455, 5942469.224999999627471 ], [ 27201.900000000001455, 5942469.150000000372529 ], [ 27202.05, 5942469.150000000372529 ], [ 27202.05, 5942469.075000000186265 ], [ 27202.2, 5942469.075000000186265 ], [ 27202.2, 5942469.0 ], [ 27202.349999999998545, 5942469.0 ], [ 27202.349999999998545, 5942468.924999999813735 ], [ 27202.5, 5942468.924999999813735 ], [ 27202.5, 5942468.849999999627471 ], [ 27202.650000000001455, 5942468.849999999627471 ], [ 27202.650000000001455, 5942468.775000000372529 ], [ 27202.724999999998545, 5942468.775000000372529 ], [ 27202.724999999998545, 5942468.700000000186265 ], [ 27202.875, 5942468.700000000186265 ], [ 27202.875, 5942468.625 ], [ 27202.95, 5942468.625 ], [ 27202.95, 5942468.549999999813735 ], [ 27203.099999999998545, 5942468.549999999813735 ], [ 27203.099999999998545, 5942468.474999999627471 ], [ 27203.25, 5942468.474999999627471 ], [ 27203.25, 5942468.400000000372529 ], [ 27203.325, 5942468.400000000372529 ], [ 27203.325, 5942468.325000000186265 ], [ 27203.55, 5942468.325000000186265 ], [ 27203.55, 5942468.25 ], [ 27203.775000000001455, 5942468.25 ], [ 27203.775000000001455, 5942468.174999999813735 ], [ 27204.075, 5942468.174999999813735 ], [ 27204.075, 5942468.099999999627471 ], [ 27204.45, 5942468.099999999627471 ], [ 27204.45, 5942468.025000000372529 ], [ 27204.75, 5942468.025000000372529 ], [ 27204.75, 5942467.950000000186265 ], [ 27205.125, 5942467.950000000186265 ], [ 27205.125, 5942467.875 ], [ 27205.575, 5942467.875 ], [ 27205.575, 5942467.799999999813735 ], [ 27206.099999999998545, 5942467.799999999813735 ], [ 27206.099999999998545, 5942467.724999999627471 ], [ 27206.625, 5942467.724999999627471 ], [ 27206.625, 5942467.650000000372529 ], [ 27207.224999999998545, 5942467.650000000372529 ], [ 27207.224999999998545, 5942467.575000000186265 ], [ 27207.974999999998545, 5942467.575000000186265 ], [ 27207.974999999998545, 5942467.5 ], [ 27208.8, 5942467.5 ], [ 27208.8, 5942467.424999999813735 ], [ 27210.150000000001455, 5942467.424999999813735 ], [ 27210.150000000001455, 5942467.349999999627471 ], [ 27212.175, 5942467.349999999627471 ], [ 27212.175, 5942467.424999999813735 ], [ 27213.45, 5942467.424999999813735 ], [ 27213.45, 5942467.5 ], [ 27214.05, 5942467.5 ], [ 27214.05, 5942467.575000000186265 ], [ 27214.575, 5942467.575000000186265 ], [ 27214.575, 5942467.650000000372529 ], [ 27215.025000000001455, 5942467.650000000372529 ], [ 27215.025000000001455, 5942467.724999999627471 ], [ 27215.325, 5942467.724999999627471 ], [ 27215.325, 5942467.799999999813735 ], [ 27215.625, 5942467.799999999813735 ], [ 27215.625, 5942467.875 ], [ 27215.849999999998545, 5942467.875 ], [ 27215.849999999998545, 5942467.950000000186265 ], [ 27216.075, 5942467.950000000186265 ], [ 27216.075, 5942468.025000000372529 ], [ 27216.224999999998545, 5942468.025000000372529 ], [ 27216.224999999998545, 5942468.099999999627471 ], [ 27216.3, 5942468.099999999627471 ], [ 27216.3, 5942468.174999999813735 ], [ 27216.375, 5942468.174999999813735 ], [ 27216.375, 5942468.325000000186265 ], [ 27216.45, 5942468.325000000186265 ], [ 27216.45, 5942468.400000000372529 ], [ 27216.525000000001455, 5942468.400000000372529 ], [ 27216.525000000001455, 5942468.549999999813735 ], [ 27216.599999999998545, 5942468.549999999813735 ], [ 27216.599999999998545, 5942468.700000000186265 ], [ 27216.675, 5942468.700000000186265 ], [ 27216.675, 5942468.849999999627471 ], [ 27216.75, 5942468.849999999627471 ], [ 27216.75, 5942468.924999999813735 ], [ 27216.825, 5942468.924999999813735 ], [ 27216.825, 5942469.075000000186265 ], [ 27216.900000000001455, 5942469.075000000186265 ], [ 27216.900000000001455, 5942469.224999999627471 ], [ 27216.974999999998545, 5942469.224999999627471 ], [ 27216.974999999998545, 5942469.375 ], [ 27217.05, 5942469.375 ], [ 27217.05, 5942469.525000000372529 ], [ 27217.125, 5942469.525000000372529 ], [ 27217.125, 5942469.75 ], [ 27217.2, 5942469.75 ], [ 27217.2, 5942469.900000000372529 ], [ 27217.275000000001455, 5942469.900000000372529 ], [ 27217.275000000001455, 5942470.200000000186265 ], [ 27217.349999999998545, 5942470.200000000186265 ], [ 27217.349999999998545, 5942470.5 ], [ 27217.425, 5942470.5 ], [ 27217.425, 5942470.950000000186265 ], [ 27217.5, 5942470.950000000186265 ], [ 27217.5, 5942471.549999999813735 ], [ 27217.575, 5942471.549999999813735 ], [ 27217.575, 5942472.375 ], [ 27217.650000000001455, 5942472.375 ], [ 27217.650000000001455, 5942480.849999999627471 ], [ 27217.575, 5942480.849999999627471 ], [ 27217.575, 5942481.974999999627471 ], [ 27217.5, 5942481.974999999627471 ], [ 27217.5, 5942482.5 ], [ 27217.425, 5942482.5 ], [ 27217.425, 5942482.724999999627471 ], [ 27217.349999999998545, 5942482.724999999627471 ], [ 27217.349999999998545, 5942483.025000000372529 ], [ 27217.275000000001455, 5942483.025000000372529 ], [ 27217.275000000001455, 5942483.25 ], [ 27217.2, 5942483.25 ], [ 27217.2, 5942483.400000000372529 ], [ 27217.125, 5942483.400000000372529 ], [ 27217.125, 5942483.625 ], [ 27217.05, 5942483.625 ], [ 27217.05, 5942483.775000000372529 ], [ 27216.974999999998545, 5942483.775000000372529 ], [ 27216.974999999998545, 5942483.924999999813735 ], [ 27216.900000000001455, 5942483.924999999813735 ], [ 27216.900000000001455, 5942484.150000000372529 ], [ 27216.825, 5942484.150000000372529 ], [ 27216.825, 5942484.299999999813735 ], [ 27216.75, 5942484.299999999813735 ], [ 27216.75, 5942484.450000000186265 ], [ 27216.675, 5942484.450000000186265 ], [ 27216.675, 5942484.599999999627471 ], [ 27216.599999999998545, 5942484.599999999627471 ], [ 27216.599999999998545, 5942484.75 ], [ 27216.525000000001455, 5942484.75 ], [ 27216.525000000001455, 5942484.900000000372529 ], [ 27216.45, 5942484.900000000372529 ], [ 27216.45, 5942484.974999999627471 ], [ 27216.375, 5942484.974999999627471 ], [ 27216.375, 5942485.125 ], [ 27216.3, 5942485.125 ], [ 27216.3, 5942485.275000000372529 ], [ 27216.224999999998545, 5942485.275000000372529 ], [ 27216.224999999998545, 5942485.349999999627471 ], [ 27216.150000000001455, 5942485.349999999627471 ], [ 27216.150000000001455, 5942485.5 ], [ 27216.075, 5942485.5 ], [ 27216.075, 5942485.650000000372529 ], [ 27216.0, 5942485.650000000372529 ], [ 27216.0, 5942485.724999999627471 ], [ 27215.925, 5942485.724999999627471 ], [ 27215.925, 5942485.875 ], [ 27215.849999999998545, 5942485.875 ], [ 27215.849999999998545, 5942485.950000000186265 ], [ 27215.775000000001455, 5942485.950000000186265 ], [ 27215.775000000001455, 5942486.099999999627471 ], [ 27215.7, 5942486.099999999627471 ], [ 27215.7, 5942486.174999999813735 ], [ 27215.625, 5942486.174999999813735 ], [ 27215.625, 5942486.25 ], [ 27215.55, 5942486.25 ], [ 27215.55, 5942486.400000000372529 ], [ 27215.474999999998545, 5942486.400000000372529 ], [ 27215.474999999998545, 5942486.474999999627471 ], [ 27215.400000000001455, 5942486.474999999627471 ], [ 27215.400000000001455, 5942486.549999999813735 ], [ 27215.325, 5942486.549999999813735 ], [ 27215.325, 5942486.625 ], [ 27215.25, 5942486.625 ], [ 27215.25, 5942486.700000000186265 ], [ 27215.175, 5942486.700000000186265 ], [ 27215.175, 5942486.775000000372529 ], [ 27215.099999999998545, 5942486.775000000372529 ], [ 27215.099999999998545, 5942486.849999999627471 ], [ 27215.025000000001455, 5942486.849999999627471 ], [ 27215.025000000001455, 5942486.924999999813735 ], [ 27214.875, 5942486.924999999813735 ], [ 27214.875, 5942487.0 ], [ 27214.8, 5942487.0 ], [ 27214.8, 5942487.075000000186265 ], [ 27214.724999999998545, 5942487.075000000186265 ], [ 27214.724999999998545, 5942487.150000000372529 ], [ 27214.575, 5942487.150000000372529 ], [ 27214.575, 5942487.224999999627471 ], [ 27214.5, 5942487.224999999627471 ], [ 27214.5, 5942487.299999999813735 ], [ 27214.349999999998545, 5942487.299999999813735 ], [ 27214.349999999998545, 5942487.375 ], [ 27214.2, 5942487.375 ], [ 27214.2, 5942487.450000000186265 ], [ 27214.05, 5942487.450000000186265 ] ] ] } },
{ "type": "Feature", "properties": { "value": 1.0, "building_id": 3, "area": 46.158749998616777 }, "geometry": { "type": "Polygon", "coordinates": [ [ [ 27443.325, 5942437.049999999813735 ], [ 27443.325, 5942436.974999999627471 ], [ 27441.900000000001455, 5942436.974999999627471 ], [ 27441.900000000001455, 5942436.900000000372529 ], [ 27440.849999999998545, 5942436.900000000372529 ], [ 27440.849999999998545, 5942436.825000000186265 ], [ 27439.8, 5942436.825000000186265 ], [ 27439.8, 5942436.75 ], [ 27438.974999999998545, 5942436.75 ], [ 27438.974999999998545, 5942436.674999999813735 ], [ 27438.224999999998545, 5942436.674999999813735 ], [ 27438.224999999998545, 5942436.599999999627471 ], [ 27437.775000000001455, 5942436.599999999627471 ], [ 27437.775000000001455, 5942436.525000000372529 ], [ 27437.474999999998545, 5942436.525000000372529 ], [ 27437.474999999998545, 5942436.450000000186265 ], [ 27437.25, 5942436.450000000186265 ], [ 27437.25, 5942436.375 ], [ 27437.099999999998545, 5942436.375 ], [ 27437.099999999998545, 5942436.299999999813735 ], [ 27436.875, 5942436.299999999813735 ], [ 27436.875, 5942436.224999999627471 ], [ 27436.724999999998545, 5942436.224999999627471 ], [ 27436.724999999998545, 5942436.150000000372529 ], [ 27436.575, 5942436.150000000372529 ], [ 27436.575, 5942436.075000000186265 ], [ 27436.425, 5942436.075000000186265 ], [ 27436.425, 5942436.0 ], [ 27436.349999999998545, 5942436.0 ], [ 27436.349999999998545, 5942435.924999999813735 ], [ 27436.2, 5942435.924999999813735 ], [ 27436.2, 5942435.849999999627471 ], [ 27436.05, 5942435.849999999627471 ], [ 27436.05, 5942435.775000000372529 ], [ 27435.974999999998545, 5942435.775000000372529 ], [ 27435.974999999998545, 5942435.700000000186265 ], [ 27435.900000000001455, 5942435.700000000186265 ], [ 27435.900000000001455, 5942435.625 ], [ 27435.825, 5942435.625 ], [ 27435.825, 5942435.549999999813735 ], [ 27435.75, 5942435.549999999813735 ], [ 27435.75, 5942435.400000000372529 ], [ 27435.825, 5942435.400000000372529 ], [ 27435.825, 5942435.325000000186265 ], [ 27435.900000000001455, 5942435.325000000186265 ], [ 27435.900000000001455, 5942435.25 ], [ 27436.05, 5942435.25 ], [ 27436.05, 5942435.174999999813735 ], [ 27436.125, 5942435.174999999813735 ], [ 27436.125, 5942435.099999999627471 ], [ 27436.275000000001455, 5942435.099999999627471 ], [ 27436.275000000001455, 5942435.025000000372529 ], [ 27436.349999999998545, 5942435.025000000372529 ], [ 27436.349999999998545, 5942434.950000000186265 ], [ 27436.425, 5942434.950000000186265 ], [ 27436.425, 5942434.875 ], [ 27436.575, 5942434.875 ], [ 27436.575, 5942434.799999999813735 ], [ 27436.650000000001455, 5942434.799999999813735 ], [ 27436.650000000001455, 5942434.724999999627471 ], [ 27436.724999999998545, 5942434.724999999627471 ], [ 27436.724999999998545, 5942434.650000000372529 ], [ 27436.8, 5942434.650000000372529 ], [ 27436.8, 5942434.575000000186265 ], [ 27436.875, 5942434.575000000186265 ], [ 27436.875, 5942434.5 ], [ 27436.95, 5942434.5 ], [ 27436.95, 5942434.424999999813735 ], [ 27437.025000000001455, 5942434.424999999813735 ], [ 27437.025000000001455, 5942434.275000000372529 ], [ 27437.099999999998545, 5942434.275000000372529 ], [ 27437.099999999998545, 5942434.200000000186265 ], [ 27437.175, 5942434.200000000186265 ], [ 27437.175, 5942434.125 ], [ 27437.25, 5942434.125 ], [ 27437.25, 5942433.974999999627471 ], [ 27437.325, 5942433.974999999627471 ], [ 27437.325, 5942433.900000000372529 ], [ 27437.400000000001455, 5942433.900000000372529 ], [ 27437.400000000001455, 5942433.75 ], [ 27437.474999999998545, 5942433.75 ], [ 27437.474999999998545, 5942433.674999999813735 ], [ 27437.55, 5942433.674999999813735 ], [ 27437.55, 5942433.525000000372529 ], [ 27437.625, 5942433.525000000372529 ], [ 27437.625, 5942433.450000000186265 ], [ 27437.7, 5942433.450000000186265 ], [ 27437.7, 5942433.375 ], [ 27437.775000000001455, 5942433.375 ], [ 27437.775000000001455, 5942433.299999999813735 ], [ 27437.849999999998545, 5942433.299999999813735 ], [ 27437.849999999998545, 5942433.224999999627471 ], [ 27438.150000000001455, 5942433.224999999627471 ], [ 27438.150000000001455, 5942433.150000000372529 ], [ 27438.525000000001455, 5942433.150000000372529 ], [ 27438.525000000001455, 5942433.075000000186265 ], [ 27438.900000000001455, 5942433.075000000186265 ], [ 27438.900000000001455, 5942433.0 ], [ 27439.275000000001455, 5942433.0 ], [ 27439.275000000001455, 5942432.924999999813735 ], [ 27439.650000000001455, 5942432.924999999813735 ], [ 27439.650000000001455, 5942432.849999999627471 ], [ 27440.175, 5942432.849999999627471 ], [ 27440.175, 5942432.775000000372529 ], [ 27440.7, 5942432.775000000372529 ], [ 27440.7, 5942432.700000000186265 ], [ 27441.3, 5942432.700000000186265 ], [ 27441.3, 5942432.625 ], [ 27441.900000000001455, 5942432.625 ], [ 27441.900000000001455, 5942432.549999999813735 ], [ 27442.5, 5942432.549999999813735 ], [ 27442.5, 5942432.474999999627471 ], [ 27443.099999999998545, 5942432.474999999627471 ], [ 27443.099999999998545, 5942432.400000000372529 ], [ 27443.625, 5942432.400000000372529 ], [ 27443.625, 5942432.325000000186265 ], [ 27444.45, 5942432.325000000186265 ], [ 27444.45, 5942432.400000000372529 ], [ 27445.875, 5942432.400000000372529 ], [ 27445.875, 5942432.474999999627471 ], [ 27446.099999999998545, 5942432.474999999627471 ], [ 27446.099999999998545, 5942432.549999999813735 ], [ 27446.325, 5942432.549999999813735 ], [ 27446.325, 5942432.625 ], [ 27446.55, 5942432.625 ], [ 27446.55, 5942432.700000000186265 ], [ 27446.775000000001455, 5942432.700000000186265 ], [ 27446.775000000001455, 5942432.775000000372529 ], [ 27446.925, 5942432.775000000372529 ], [ 27446.925, 5942432.849999999627471 ], [ 27447.075, 5942432.849999999627471 ], [ 27447.075, 5942432.924999999813735 ], [ 27447.3, 5942432.924999999813735 ], [ 27447.3, 5942433.0 ], [ 27447.45, 5942433.0 ], [ 27447.45, 5942433.075000000186265 ], [ 27447.525000000001455, 5942433.075000000186265 ], [ 27447.525000000001455, 5942433.150000000372529 ], [ 27447.675, 5942433.150000000372529 ], [ 27447.675, 5942433.224999999627471 ], [ 27447.75, 5942433.224999999627471 ], [ 27447.75, 5942433.299999999813735 ], [ 27447.900000000001455, 5942433.299999999813735 ], [ 27447.900000000001455, 5942433.375 ], [ 27447.974999999998545, 5942433.375 ], [ 27447.974999999998545, 5942433.450000000186265 ], [ 27448.05, 5942433.450000000186265 ], [ 27448.05, 5942433.674999999813735 ], [ 27448.125, 5942433.674999999813735 ], [ 27448.125, 5942433.974999999627471 ], [ 27448.2, 5942433.974999999627471 ], [ 27448.2, 5942434.349999999627471 ], [ 27448.275000000001455, 5942434.349999999627471 ], [ 27448.275000000001455, 5942434.724999999627471 ], [ 27448.349999999998545, 5942434.724999999627471 ], [ 27448.349999999998545, 5942435.025000000372529 ], [ 27448.425, 5942435.025000000372529 ], [ 27448.425, 5942435.400000000372529 ], [ 27448.5, 5942435.400000000372529 ], [ 27448.5, 5942435.474999999627471 ], [ 27448.425, 5942435.474999999627471 ], [ 27448.425, 5942435.625 ], [ 27448.349999999998545, 5942435.625 ], [ 27448.349999999998545, 5942435.700000000186265 ], [ 27448.275000000001455, 5942435.700000000186265 ], [ 27448.275000000001455, 5942435.775000000372529 ], [ 27448.2, 5942435.775000000372529 ], [ 27448.2, 5942435.849999999627471 ], [ 27448.125, 5942435.849999999627471 ], [ 27448.125, 5942435.924999999813735 ], [ 27448.05, 5942435.924999999813735 ], [ 27448.05, 5942436.0 ], [ 27447.974999999998545, 5942436.0 ], [ 27447.974999999998545, 5942436.075000000186265 ], [ 27447.900000000001455, 5942436.075000000186265 ], [ 27447.900000000001455, 5942436.150000000372529 ], [ 27447.825, 5942436.150000000372529 ], [ 27447.825, 5942436.224999999627471 ], [ 27447.75, 5942436.224999999627471 ], [ 27447.75, 5942436.299999999813735 ], [ 27447.675, 5942436.299999999813735 ], [ 27447.675, 5942436.375 ], [ 27447.525000000001455, 5942436.375 ], [ 27447.525000000001455, 5942436.450000000186265 ], [ 27447.3, 5942436.450000000186265 ], [ 27447.3, 5942436.525000000372529 ], [ 27447.150000000001455, 5942436.525000000372529 ], [ 27447.150000000001455, 5942436.599999999627471 ], [ 27446.925, 5942436.599999999627471 ], [ 27446.925, 5942436.674999999813735 ], [ 27446.7, 5942436.674999999813735 ], [ 27446.7, 5942436.75 ], [ 27446.474999999998545, 5942436.75 ], [ 27446.474999999998545, 5942436.825000000186265 ], [ 27446.175, 5942436.825000000186265 ], [ 27446.175, 5942436.900000000372529 ], [ 27445.875, 5942436.900000000372529 ], [ 27445.875, 5942436.974999999627471 ], [ 27444.525000000001455, 5942436.974999999627471 ], [ 27444.525000000001455, 5942437.049999999813735 ], [ 27443.325, 5942437.049999999813735 ] ] ] } },
{ "type": "Feature", "properties": { "value": 1.0, "building_id": 4, "area": 23.74312499931581 }, "geometry": { "type": "Polygon", "coordinates": [ [ [ 27427.95, 5942374.424999999813735 ], [ 27427.95, 5942374.349999999627471 ], [ 27427.724999999998545, 5942374.349999999627471 ], [ 27427.724999999998545, 5942374.275000000372529 ], [ 27427.575, 5942374.275000000372529 ], [ 27427.575, 5942374.200000000186265 ], [ 27427.425, 5942374.200000000186265 ], [ 27427.425, 5942374.125 ], [ 27427.275000000001455, 5942374.125 ], [ 27427.275000000001455, 5942374.049999999813735 ], [ 27427.2, 5942374.049999999813735 ], [ 27427.2, 5942373.974999999627471 ], [ 27427.125, 5942373.974999999627471 ], [ 27427.125, 5942373.900000000372529 ], [ 27427.05, 5942373.900000000372529 ], [ 27427.05, 5942373.75 ], [ 27426.974999999998545, 5942373.75 ], [ 27426.974999999998545, 5942373.674999999813735 ], [ 27426.900000000001455, 5942373.674999999813735 ], [ 27426.900000000001455, 5942373.525000000372529 ], [ 27426.825, 5942373.525000000372529 ], [ 27426.825, 5942373.375 ], [ 27426.75, 5942373.375 ], [ 27426.75, 5942373.150000000372529 ], [ 27426.675, 5942373.150000000372529 ], [ 27426.675, 5942373.0 ], [ 27426.599999999998545, 5942373.0 ], [ 27426.599999999998545, 5942372.625 ], [ 27426.675, 5942372.625 ], [ 27426.675, 5942371.349999999627471 ], [ 27426.75, 5942371.349999999627471 ], [ 27426.75, 5942370.825000000186265 ], [ 27426.825, 5942370.825000000186265 ], [ 27426.825, 5942370.599999999627471 ], [ 27426.900000000001455, 5942370.599999999627471 ], [ 27426.900000000001455, 5942370.375 ], [ 27426.974999999998545, 5942370.375 ], [ 27426.974999999998545, 5942370.224999999627471 ], [ 27427.05, 5942370.224999999627471 ], [ 27427.05, 5942370.075000000186265 ], [ 27427.125, 5942370.075000000186265 ], [ 27427.125, 5942369.924999999813735 ], [ 27427.2, 5942369.924999999813735 ], [ 27427.2, 5942369.775000000372529 ], [ 27427.275000000001455, 5942369.775000000372529 ], [ 27427.275000000001455, 5942369.625 ], [ 27427.349999999998545, 5942369.625 ], [ 27427.349999999998545, 5942369.474999999627471 ], [ 27427.425, 5942369.474999999627471 ], [ 27427.425, 5942369.325000000186265 ], [ 27427.5, 5942369.325000000186265 ], [ 27427.5, 5942369.25 ], [ 27427.575, 5942369.25 ], [ 27427.575, 5942369.099999999627471 ], [ 27427.650000000001455, 5942369.099999999627471 ], [ 27427.650000000001455, 5942369.025000000372529 ], [ 27427.724999999998545, 5942369.025000000372529 ], [ 27427.724999999998545, 5942368.950000000186265 ], [ 27427.8, 5942368.950000000186265 ], [ 27427.8, 5942368.799999999813735 ], [ 27427.875, 5942368.799999999813735 ], [ 27427.875, 5942368.724999999627471 ], [ 27427.95, 5942368.724999999627471 ], [ 27427.95, 5942368.650000000372529 ], [ 27428.099999999998545, 5942368.650000000372529 ], [ 27428.099999999998545, 5942368.575000000186265 ], [ 27430.125, 5942368.575000000186265 ], [ 27430.125, 5942368.650000000372529 ], [ 27430.2, 5942368.650000000372529 ], [ 27430.2, 5942368.724999999627471 ], [ 27430.275000000001455, 5942368.724999999627471 ], [ 27430.275000000001455, 5942368.799999999813735 ], [ 27430.349999999998545, 5942368.799999999813735 ], [ 27430.349999999998545, 5942368.875 ], [ 27430.425, 5942368.875 ], [ 27430.425, 5942368.950000000186265 ], [ 27430.5, 5942368.950000000186265 ], [ 27430.5, 5942369.099999999627471 ], [ 27430.575, 5942369.099999999627471 ], [ 27430.575, 5942369.174999999813735 ], [ 27430.650000000001455, 5942369.174999999813735 ], [ 27430.650000000001455, 5942369.325000000186265 ], [ 27430.724999999998545, 5942369.325000000186265 ], [ 27430.724999999998545, 5942369.400000000372529 ], [ 27430.8, 5942369.400000000372529 ], [ 27430.8, 5942369.549999999813735 ], [ 27430.875, 5942369.549999999813735 ], [ 27430.875, 5942369.700000000186265 ], [ 27430.95, 5942369.700000000186265 ], [ 27430.95, 5942369.849999999627471 ], [ 27431.025000000001455, 5942369.849999999627471 ], [ 27431.025000000001455, 5942370.0 ], [ 27431.099999999998545, 5942370.0 ], [ 27431.099999999998545, 5942370.224999999627471 ], [ 27431.175, 5942370.224999999627471 ], [ 27431.175, 5942370.375 ], [ 27431.25, 5942370.375 ], [ 27431.25, 5942370.599999999627471 ], [ 27431.325, 5942370.599999999627471 ], [ 27431.325, 5942370.825000000186265 ], [ 27431.400000000001455, 5942370.825000000186265 ], [ 27431.400000000001455, 5942371.424999999813735 ], [ 27431.474999999998545, 5942371.424999999813735 ], [ 27431.474999999998545, 5942373.0 ], [ 27431.400000000001455, 5942373.0 ], [ 27431.400000000001455, 5942373.150000000372529 ], [ 27431.325, 5942373.150000000372529 ], [ 27431.325, 5942373.299999999813735 ], [ 27431.25, 5942373.299999999813735 ], [ 27431.25, 5942373.450000000186265 ], [ 27431.175, 5942373.450000000186265 ], [ 27431.175, 5942373.525000000372529 ], [ 27431.099999999998545, 5942373.525000000372529 ], [ 27431.099999999998545, 5942373.599999999627471 ], [ 27431.025000000001455, 5942373.599999999627471 ], [ 27431.025000000001455, 5942373.674999999813735 ], [ 27430.95, 5942373.674999999813735 ], [ 27430.95, 5942373.825000000186265 ], [ 27430.875, 5942373.825000000186265 ], [ 27430.875, 5942373.900000000372529 ], [ 27430.724999999998545, 5942373.900000000372529 ], [ 27430.724999999998545, 5942373.974999999627471 ], [ 27430.650000000001455, 5942373.974999999627471 ], [ 27430.650000000001455, 5942374.049999999813735 ], [ 27430.575, 5942374.049999999813735 ], [ 27430.575, 5942374.125 ], [ 27430.425, 5942374.125 ], [ 27430.425, 5942374.200000000186265 ], [ 27430.349999999998545, 5942374.200000000186265 ], [ 27430.349999999998545, 5942374.275000000372529 ], [ 27430.2, 5942374.275000000372529 ], [ 27430.2, 5942374.349999999627471 ], [ 27429.45, 5942374.349999999627471 ], [ 27429.45, 5942374.424999999813735 ], [ 27427.95, 5942374.424999999813735 ] ] ] } },
{ "type": "Feature", "properties": { "value": 1.0, "building_id": 5, "area": 17.713124998449558 }, "geometry": { "type": "Polygon", "coordinates": [ [ [ 27183.0, 5942232.599999999627471 ], [ 27183.0, 5942227.575000000186265 ], [ 27186.0, 5942227.575000000186265 ], [ 27186.0, 5942227.724999999627471 ], [ 27186.075, 5942227.724999999627471 ], [ 27186.075, 5942227.799999999813735 ], [ 27186.150000000001455, 5942227.799999999813735 ], [ 27186.150000000001455, 5942227.950000000186265 ], [ 27186.224999999998545, 5942227.950000000186265 ], [ 27186.224999999998545, 5942228.025000000372529 ], [ 27186.3, 5942228.025000000372529 ], [ 27186.3, 5942228.174999999813735 ], [ 27186.375, 5942228.174999999813735 ], [ 27186.375, 5942228.325000000186265 ], [ 27186.45, 5942228.325000000186265 ], [ 27186.45, 5942228.549999999813735 ], [ 27186.525000000001455, 5942228.549999999813735 ], [ 27186.525000000001455, 5942228.849999999627471 ], [ 27186.599999999998545, 5942228.849999999627471 ], [ 27186.599999999998545, 5942229.150000000372529 ], [ 27186.675, 5942229.150000000372529 ], [ 27186.675, 5942229.525000000372529 ], [ 27186.75, 5942229.525000000372529 ], [ 27186.75, 5942229.974999999627471 ], [ 27186.825, 5942229.974999999627471 ], [ 27186.825, 5942230.650000000372529 ], [ 27186.75, 5942230.650000000372529 ], [ 27186.75, 5942230.950000000186265 ], [ 27186.675, 5942230.950000000186265 ], [ 27186.675, 5942231.174999999813735 ], [ 27186.599999999998545, 5942231.174999999813735 ], [ 27186.599999999998545, 5942231.400000000372529 ], [ 27186.525000000001455, 5942231.400000000372529 ], [ 27186.525000000001455, 5942231.625 ], [ 27186.45, 5942231.625 ], [ 27186.45, 5942231.849999999627471 ], [ 27186.375, 5942231.849999999627471 ], [ 27186.375, 5942232.075000000186265 ], [ 27186.3, 5942232.075000000186265 ], [ 27186.3, 5942232.224999999627471 ], [ 27186.224999999998545, 5942232.224999999627471 ], [ 27186.224999999998545, 5942232.375 ], [ 27186.150000000001455, 5942232.375 ], [ 27186.150000000001455, 5942232.450000000186265 ], [ 27186.075, 5942232.450000000186265 ], [ 27186.075, 5942232.525000000372529 ], [ 27185.925, 5942232.525000000372529 ], [ 27185.925, 5942232.599999999627471 ], [ 27183.0, 5942232.599999999627471 ] ] ] } },
{ "type": "Feature", "properties": { "value": 1.0, "building_id": 6, "area": 47.90250000001457 }, "geometry": { "type": "Polygon", "coordinates": [ [ [ 27183.0, 5942218.875 ], [ 27183.0, 5942206.125 ], [ 27186.0, 5942206.125 ], [ 27186.0, 5942206.200000000186265 ], [ 27186.075, 5942206.200000000186265 ], [ 27186.075, 5942206.275000000372529 ], [ 27186.150000000001455, 5942206.275000000372529 ], [ 27186.150000000001455, 5942206.349999999627471 ], [ 27186.224999999998545, 5942206.349999999627471 ], [ 27186.224999999998545, 5942206.424999999813735 ], [ 27186.3, 5942206.424999999813735 ], [ 27186.3, 5942206.5 ], [ 27186.375, 5942206.5 ], [ 27186.375, 5942206.575000000186265 ], [ 27186.45, 5942206.575000000186265 ], [ 27186.45, 5942206.724999999627471 ], [ 27186.525000000001455, 5942206.724999999627471 ], [ 27186.525000000001455, 5942206.799999999813735 ], [ 27186.599999999998545, 5942206.799999999813735 ], [ 27186.599999999998545, 5942206.950000000186265 ], [ 27186.675, 5942206.950000000186265 ], [ 27186.675, 5942207.174999999813735 ], [ 27186.75, 5942207.174999999813735 ], [ 27186.75, 5942207.400000000372529 ], [ 27186.825, 5942207.400000000372529 ], [ 27186.825, 5942207.625 ], [ 27186.900000000001455, 5942207.625 ], [ 27186.900000000001455, 5942207.849999999627471 ], [ 27186.974999999998545, 5942207.849999999627471 ], [ 27186.974999999998545, 5942208.075000000186265 ], [ 27187.05, 5942208.075000000186265 ], [ 27187.05, 5942208.375 ], [ 27187.125, 5942208.375 ], [ 27187.125, 5942208.674999999813735 ], [ 27187.2, 5942208.674999999813735 ], [ 27187.2, 5942209.275000000372529 ], [ 27187.125, 5942209.275000000372529 ], [ 27187.125, 5942209.875 ], [ 27187.05, 5942209.875 ], [ 27187.05, 5942210.474999999627471 ], [ 27186.974999999998545, 5942210.474999999627471 ], [ 27186.974999999998545, 5942211.299999999813735 ], [ 27186.900000000001455, 5942211.299999999813735 ], [ 27186.900000000001455, 5942212.424999999813735 ], [ 27186.825, 5942212.424999999813735 ], [ 27186.825, 5942213.924999999813735 ], [ 27186.75, 5942213.924999999813735 ], [ 27186.75, 5942215.424999999813735 ], [ 27186.675, 5942215.424999999813735 ], [ 27186.675, 5942216.625 ], [ 27186.599999999998545, 5942216.625 ], [ 27186.599999999998545, 5942217.0 ], [ 27186.525000000001455, 5942217.0 ], [ 27186.525000000001455, 5942217.375 ], [ 27186.45, 5942217.375 ], [ 27186.45, 5942217.599999999627471 ], [ 27186.375, 5942217.599999999627471 ], [ 27186.375, 5942217.900000000372529 ], [ 27186.3, 5942217.900000000372529 ], [ 27186.3, 5942218.125 ], [ 27186.224999999998545, 5942218.125 ], [ 27186.224999999998545, 5942218.275000000372529 ], [ 27186.150000000001455, 5942218.275000000372529 ], [ 27186.150000000001455, 5942218.5 ], [ 27186.075, 5942218.5 ], [ 27186.075, 5942218.650000000372529 ], [ 27186.0, 5942218.650000000372529 ], [ 27186.0, 5942218.799999999813735 ], [ 27185.925, 5942218.799999999813735 ], [ 27185.925, 5942218.875 ], [ 27183.0, 5942218.875 ] ] ] } }
]
}
