{
"type": "FeatureCollection",
"name": "29433E594582N_buildings",
"crs": { "type": "name", "properties": { "name": "urn:ogc:def:crs:EPSG::3776" } },
"features": [
{ "type": "Feature", "properties": { "value": 1.0, "building_id": 0, "area": 1209.4931249943565 }, "geometry": { "type": "Polygon", "coordinates": [ [ [ 30163.8, 5946114.375 ], [ 30163.8, 5946114.299999999813735 ], [ 30162.45, 5946114.299999999813735 ], [ 30162.45, 5946114.224999999627471 ], [ 30162.075, 5946114.224999999627471 ], [ 30162.075, 5946114.150000000372529 ], [ 30161.849999999998545, 5946114.150000000372529 ], [ 30161.849999999998545, 5946114.075000000186265 ], [ 30161.625, 5946114.075000000186265 ], [ 30161.625, 5946114.0 ], [ 30161.474999999998545, 5946114.0 ], [ 30161.474999999998545, 5946113.924999999813735 ], [ 30161.325, 5946113.924999999813735 ], [ 30161.325, 5946113.849999999627471 ], [ 30161.175, 5946113.849999999627471 ], [ 30161.175, 5946113.775000000372529 ], [ 30161.099999999998545, 5946113.775000000372529 ], [ 30161.099999999998545, 5946113.700000000186265 ], [ 30160.95, 5946113.700000000186265 ], [ 30160.95, 5946113.625 ], [ 30160.875, 5946113.625 ], [ 30160.875, 5946113.549999999813735 ], [ 30160.724999999998545, 5946113.549999999813735 ], [ 30160.724999999998545, 5946113.474999999627471 ], [ 30160.650000000001455, 5946113.474999999627471 ], [ 30160.650000000001455, 5946113.400000000372529 ], [ 30160.575, 5946113.400000000372529 ], [ 30160.575, 5946113.325000000186265 ], [ 30160.5, 5946113.325000000186265 ], [ 30160.5, 5946113.25 ], [ 30160.425, 5946113.25 ], [ 30160.425, 5946113.174999999813735 ], [ 30160.349999999998545, 5946113.174999999813735 ], [ 30160.349999999998545, 5946113.099999999627471 ], [ 30160.275000000001455, 5946113.099999999627471 ], [ 30160.275000000001455, 5946113.025000000372529 ], [ 30160.2, 5946113.025000000372529 ], [ 30160.2, 5946112.950000000186265 ], [ 30160.125, 5946112.950000000186265 ], [ 30160.125, 5946112.875 ], [ 30160.05, 5946112.875 ], [ 30160.05, 5946112.799999999813735 ], [ 30159.974999999998545, 5946112.799999999813735 ], [ 30159.974999999998545, 5946112.724999999627471 ], [ 30159.900000000001455, 5946112.724999999627471 ], [ 30159.900000000001455, 5946112.650000000372529 ], [ 30159.825, 5946112.650000000372529 ], [ 30159.825, 5946112.575000000186265 ], [ 30159.75, 5946112.575000000186265 ], [ 30159.75, 5946112.5 ], [ 30159.675, 5946112.5 ], [ 30159.675, 5946112.424999999813735 ], [ 30159.599999999998545, 5946112.424999999813735 ], [ 30159.599999999998545, 5946112.349999999627471 ], [ 30159.525000000001455, 5946112.349999999627471 ], [ 30159.525000000001455, 5946112.275000000372529 ], [ 30159.45, 5946112.275000000372529 ], [ 30159.45, 5946112.125 ], [ 30159.375, 5946112.125 ], [ 30159.375, 5946112.049999999813735 ], [ 30159.3, 5946112.049999999813735 ], [ 30159.3, 5946111.974999999627471 ], [ 30159.224999999998545, 5946111.974999999627471 ], [ 30159.224999999998545, 5946111.900000000372529 ], [ 30159.150000000001455, 5946111.900000000372529 ], [ 30159.150000000001455, 5946111.75 ], [ 30159.075, 5946111.75 ], [ 30159.075, 5946111.674999999813735 ], [ 30159.0, 5946111.674999999813735 ], [ 30159.0, 5946111.525000000372529 ], [ 30158.925, 5946111.525000000372529 ], [ 30158.925, 5946111.450000000186265 ], [ 30158.849999999998545, 5946111.450000000186265 ], [ 30158.849999999998545, 5946111.299999999813735 ], [ 30158.775000000001455, 5946111.299999999813735 ], [ 30158.775000000001455, 5946111.150000000372529 ], [ 30158.7, 5946111.150000000372529 ], [ 30158.7, 5946111.075000000186265 ], [ 30158.625, 5946111.075000000186265 ], [ 30158.625, 5946111.0 ], [ 30158.55, 5946111.0 ], [ 30158.55, 5946110.849999999627471 ], [ 30158.474999999998545, 5946110.849999999627471 ], [ 30158.474999999998545, 5946110.700000000186265 ], [ 30158.400000000001455, 5946110.700000000186265 ], [ 30158.400000000001455, 5946110.625 ], [ 30158.325, 5946110.625 ], [ 30158.325, 5946110.474999999627471 ], [ 30158.25, 5946110.474999999627471 ], [ 30158.25, 5946110.325000000186265 ], [ 30158.175, 5946110.325000000186265 ], [ 30158.175, 5946110.174999999813735 ], [ 30158.099999999998545, 5946110.174999999813735 ], [ 30158.099999999998545, 5946109.950000000186265 ], [ 30158.025000000001455, 5946109.950000000186265 ], [ 30158.025000000001455, 5946109.799999999813735 ], [ 30157.95, 5946109.799999999813735 ], [ 30157.95, 5946109.575000000186265 ], [ 30157.875, 5946109.575000000186265 ], [ 30157.875, 5946109.275000000372529 ], [ 30157.8, 5946109.275000000372529 ], [ 30157.8, 5946108.825000000186265 ], [ 30157.724999999998545, 5946108.825000000186265 ], [ 30157.724999999998545, 5946108.450000000186265 ], [ 30157.650000000001455, 5946108.450000000186265 ], [ 30157.650000000001455, 5946108.0 ], [ 30157.575, 5946108.0 ], [ 30157.575, 5946107.549999999813735 ], [ 30157.5, 5946107.549999999813735 ], [ 30157.5, 5946106.349999999627471 ], [ 30157.575, 5946106.349999999627471 ], [ 30157.575, 5946105.224999999627471 ], [ 30157.650000000001455, 5946105.224999999627471 ], [ 30157.650000000001455, 5946104.849999999627471 ], [ 30157.724999999998545, 5946104.849999999627471 ], [ 30157.724999999998545, 5946104.474999999627471 ], [ 30157.8, 5946104.474999999627471 ], [ 30157.8, 5946104.099999999627471 ], [ 30157.875, 5946104.099999999627471 ], [ 30157.875, 5946103.650000000372529 ], [ 30157.95, 5946103.650000000372529 ], [ 30157.95, 5946103.200000000186265 ], [ 30158.025000000001455, 5946103.200000000186265 ], [ 30158.025000000001455, 5946102.674999999813735 ], [ 30158.099999999998545, 5946102.674999999813735 ], [ 30158.099999999998545, 5946102.224999999627471 ], [ 30158.175, 5946102.224999999627471 ], [ 30158.175, 5946101.700000000186265 ], [ 30158.25, 5946101.700000000186265 ], [ 30158.25, 5946101.25 ], [ 30158.325, 5946101.25 ], [ 30158.325, 5946100.875 ], [ 30158.400000000001455, 5946100.875 ], [ 30158.400000000001455, 5946100.5 ], [ 30158.474999999998545, 5946100.5 ], [ 30158.474999999998545, 5946100.125 ], [ 30158.55, 5946100.125 ], [ 30158.55, 5946099.75 ], [ 30158.625, 5946099.75 ], [ 30158.625, 5946099.525000000372529 ], [ 30158.7, 5946099.525000000372529 ], [ 30158.7, 5946099.375 ], [ 30158.775000000001455, 5946099.375 ], [ 30158.775000000001455, 5946099.224999999627471 ], [ 30158.849999999998545, 5946099.224999999627471 ], [ 30158.849999999998545, 5946099.075000000186265 ], [ 30158.925, 5946099.075000000186265 ], [ 30158.925, 5946098.924999999813735 ], [ 30159.0, 5946098.924999999813735 ], [ 30159.0, 5946098.775000000372529 ], [ 30159.075, 5946098.775000000372529 ], [ 30159.075, 5946098.625 ], [ 30159.150000000001455, 5946098.625 ], [ 30159.150000000001455, 5946098.400000000372529 ], [ 30159.224999999998545, 5946098.400000000372529 ], [ 30159.224999999998545, 5946098.174999999813735 ], [ 30159.3, 5946098.174999999813735 ], [ 30159.3, 5946097.950000000186265 ], [ 30159.375, 5946097.950000000186265 ], [ 30159.375, 5946097.724999999627471 ], [ 30159.45, 5946097.724999999627471 ], [ 30159.45, 5946097.5 ], [ 30159.525000000001455, 5946097.5 ], [ 30159.525000000001455, 5946097.275000000372529 ], [ 30159.599999999998545, 5946097.275000000372529 ], [ 30159.599999999998545, 5946096.974999999627471 ], [ 30159.675, 5946096.974999999627471 ], [ 30159.675, 5946096.674999999813735 ], [ 30159.75, 5946096.674999999813735 ], [ 30159.75, 5946096.375 ], [ 30159.825, 5946096.375 ], [ 30159.825, 5946096.075000000186265 ], [ 30159.900000000001455, 5946096.075000000186265 ], [ 30159.900000000001455, 5946095.700000000186265 ], [ 30159.974999999998545, 5946095.700000000186265 ], [ 30159.974999999998545, 5946095.174999999813735 ], [ 30160.05, 5946095.174999999813735 ], [ 30160.05, 5946094.724999999627471 ], [ 30160.125, 5946094.724999999627471 ], [ 30160.125, 5946094.200000000186265 ], [ 30160.2, 5946094.200000000186265 ], [ 30160.2, 5946093.674999999813735 ], [ 30160.275000000001455, 5946093.674999999813735 ], [ 30160.275000000001455, 5946093.224999999627471 ], [ 30160.349999999998545, 5946093.224999999627471 ], [ 30160.349999999998545, 5946092.775000000372529 ], [ 30160.425, 5946092.775000000372529 ], [ 30160.425, 5946092.400000000372529 ], [ 30160.5, 5946092.400000000372529 ], [ 30160.5, 5946092.025000000372529 ], [ 30160.575, 5946092.025000000372529 ], [ 30160.575, 5946091.799999999813735 ], [ 30160.650000000001455, 5946091.799999999813735 ], [ 30160.650000000001455, 5946091.575000000186265 ], [ 30160.724999999998545, 5946091.575000000186265 ], [ 30160.724999999998545, 5946091.349999999627471 ], [ 30160.8, 5946091.349999999627471 ], [ 30160.8, 5946091.125 ], [ 30160.875, 5946091.125 ], [ 30160.875, 5946090.900000000372529 ], [ 30160.95, 5946090.900000000372529 ], [ 30160.95, 5946090.674999999813735 ], [ 30161.025000000001455, 5946090.674999999813735 ], [ 30161.025000000001455, 5946090.450000000186265 ], [ 30161.099999999998545, 5946090.450000000186265 ], [ 30161.099999999998545, 5946090.150000000372529 ], [ 30161.175, 5946090.150000000372529 ], [ 30161.175, 5946089.849999999627471 ], [ 30161.25, 5946089.849999999627471 ], [ 30161.25, 5946089.474999999627471 ], [ 30161.325, 5946089.474999999627471 ], [ 30161.325, 5946089.099999999627471 ], [ 30161.400000000001455, 5946089.099999999627471 ], [ 30161.400000000001455, 5946088.724999999627471 ], [ 30161.474999999998545, 5946088.724999999627471 ], [ 30161.474999999998545, 5946088.275000000372529 ], [ 30161.55, 5946088.275000000372529 ], [ 30161.55, 5946087.825000000186265 ], [ 30161.625, 5946087.825000000186265 ], [ 30161.625, 5946087.299999999813735 ], [ 30161.7, 5946087.299999999813735 ], [ 30161.7, 5946086.775000000372529 ], [ 30161.775000000001455, 5946086.775000000372529 ], [ 30161.775000000001455, 5946086.174999999813735 ], [ 30161.849999999998545, 5946086.174999999813735 ], [ 30161.849999999998545, 5946085.5 ], [ 30161.925, 5946085.5 ], [ 30161.925, 5946084.75 ], [ 30162.0, 5946084.75 ], [ 30162.0, 5946083.924999999813735 ], [ 30162.075, 5946083.924999999813735 ], [ 30162.075, 5946082.950000000186265 ], [ 30162.150000000001455, 5946082.950000000186265 ], [ 30162.150000000001455, 5946081.900000000372529 ], [ 30162.224999999998545, 5946081.900000000372529 ], [ 30162.224999999998545, 5946081.0 ], [ 30162.3, 5946081.0 ], [ 30162.3, 5946080.099999999627471 ], [ 30162.375, 5946080.099999999627471 ], [ 30162.375, 5946079.650000000372529 ], [ 30162.45, 5946079.650000000372529 ], [ 30162.45, 5946079.200000000186265 ], [ 30162.525000000001455, 5946079.200000000186265 ], [ 30162.525000000001455, 5946078.974999999627471 ], [ 30162.599999999998545, 5946078.974999999627471 ], [ 30162.599999999998545, 5946078.75 ], [ 30162.675, 5946078.75 ], [ 30162.675, 5946078.525000000372529 ], [ 30162.75, 5946078.525000000372529 ], [ 30162.75, 5946078.224999999627471 ], [ 30162.825, 5946078.224999999627471 ], [ 30162.825, 5946078.0 ], [ 30162.900000000001455, 5946078.0 ], [ 30162.900000000001455, 5946077.775000000372529 ], [ 30162.974999999998545, 5946077.775000000372529 ], [ 30162.974999999998545, 5946077.549999999813735 ], [ 30163.05, 5946077.549999999813735 ], [ 30163.05, 5946077.325000000186265 ], [ 30163.125, 5946077.325000000186265 ], [ 30163.125, 5946077.099999999627471 ], [ 30163.2, 5946077.099999999627471 ], [ 30163.2, 5946076.799999999813735 ], [ 30163.275000000001455, 5946076.799999999813735 ], [ 30163.275000000001455, 5946076.5 ], [ 30163.349999999998545, 5946076.5 ], [ 30163.349999999998545, 5946076.200000000186265 ], [ 30163.425, 5946076.200000000186265 ], [ 30163.425, 5946075.75 ], [ 30163.5, 5946075.75 ], [ 30163.5, 5946075.299999999813735 ], [ 30163.575, 5946075.299999999813735 ], [ 30163.575, 5946074.775000000372529 ], [ 30163.650000000001455, 5946074.775000000372529 ], [ 30163.650000000001455, 5946074.25 ], [ 30163.724999999998545, 5946074.25 ], [ 30163.724999999998545, 5946073.650000000372529 ], [ 30163.8, 5946073.650000000372529 ], [ 30163.8, 5946072.974999999627471 ], [ 30163.875, 5946072.974999999627471 ], [ 30163.875, 5946072.299999999813735 ], [ 30163.95, 5946072.299999999813735 ], [ 30163.95, 5946071.625 ], [ 30164.025000000001455, 5946071.625 ], [ 30164.025000000001455, 5946070.950000000186265 ], [ 30164.099999999998545, 5946070.950000000186265 ], [ 30164.099999999998545, 5946070.275000000372529 ], [ 30164.175, 5946070.275000000372529 ], [ 30164.175, 5946069.674999999813735 ], [ 30164.25, 5946069.674999999813735 ], [ 30164.25, 5946069.150000000372529 ], [ 30164.325, 5946069.150000000372529 ], [ 30164.325, 5946068.549999999813735 ], [ 30164.400000000001455, 5946068.549999999813735 ], [ 30164.400000000001455, 5946068.099999999627471 ], [ 30164.474999999998545, 5946068.099999999627471 ], [ 30164.474999999998545, 5946067.875 ], [ 30164.55, 5946067.875 ], [ 30164.55, 5946067.650000000372529 ], [ 30164.625, 5946067.650000000372529 ], [ 30164.625, 5946067.349999999627471 ], [ 30164.7, 5946067.349999999627471 ], [ 30164.7, 5946067.125 ], [ 30164.775000000001455, 5946067.125 ], [ 30164.775000000001455, 5946066.825000000186265 ], [ 30164.849999999998545, 5946066.825000000186265 ], [ 30164.849999999998545, 5946066.525000000372529 ], [ 30164.925, 5946066.525000000372529 ], [ 30164.925, 5946066.224999999627471 ], [ 30165.0, 5946066.224999999627471 ], [ 30165.0, 5946066.0 ], [ 30165.075, 5946066.0 ], [ 30165.075, 5946065.775000000372529 ], [ 30165.150000000001455, 5946065.775000000372529 ], [ 30165.150000000001455, 5946065.474999999627471 ], [ 30165.224999999998545, 5946065.474999999627471 ], [ 30165.224999999998545, 5946065.174999999813735 ], [ 30165.3, 5946065.174999999813735 ], [ 30165.3, 5946064.799999999813735 ], [ 30165.375, 5946064.799999999813735 ], [ 30165.375, 5946064.424999999813735 ], [ 30165.45, 5946064.424999999813735 ], [ 30165.45, 5946063.75 ], [ 30165.525000000001455, 5946063.75 ], [ 30165.525000000001455, 5946063.0 ], [ 30165.599999999998545, 5946063.0 ], [ 30165.599999999998545, 5946062.174999999813735 ], [ 30165.675, 5946062.174999999813735 ], [ 30165.675, 5946061.424999999813735 ], [ 30165.75, 5946061.424999999813735 ], [ 30165.75, 5946060.75 ], [ 30165.825, 5946060.75 ], [ 30165.825, 5946060.375 ], [ 30165.900000000001455, 5946060.375 ], [ 30165.900000000001455, 5946060.224999999627471 ], [ 30165.974999999998545, 5946060.224999999627471 ], [ 30165.974999999998545, 5946060.150000000372529 ], [ 30166.05, 5946060.150000000372529 ], [ 30166.05, 5946060.075000000186265 ], [ 30166.125, 5946060.075000000186265 ], [ 30166.125, 5946059.924999999813735 ], [ 30166.2, 5946059.924999999813735 ], [ 30166.2, 5946059.849999999627471 ], [ 30166.275000000001455, 5946059.849999999627471 ], [ 30166.275000000001455, 5946059.775000000372529 ], [ 30166.349999999998545, 5946059.775000000372529 ], [ 30166.349999999998545, 5946059.700000000186265 ], [ 30166.5, 5946059.700000000186265 ], [ 30166.5, 5946059.625 ], [ 30166.575, 5946059.625 ], [ 30166.575, 5946059.549999999813735 ], [ 30166.650000000001455, 5946059.549999999813735 ], [ 30166.650000000001455, 5946059.474999999627471 ], [ 30166.724999999998545, 5946059.474999999627471 ], [ 30166.724999999998545, 5946059.400000000372529 ], [ 30166.8, 5946059.400000000372529 ], [ 30166.8, 5946059.325000000186265 ], [ 30166.875, 5946059.325000000186265 ], [ 30166.875, 5946059.25 ], [ 30166.95, 5946059.25 ], [ 30166.95, 5946059.174999999813735 ], [ 30167.025000000001455, 5946059.174999999813735 ], [ 30167.025000000001455, 5946059.099999999627471 ], [ 30167.099999999998545, 5946059.099999999627471 ], [ 30167.099999999998545, 5946059.025000000372529 ], [ 30167.175, 5946059.025000000372529 ], [ 30167.175, 5946058.875 ], [ 30167.25, 5946058.875 ], [ 30167.25, 5946058.799999999813735 ], [ 30167.325, 5946058.799999999813735 ], [ 30167.325, 5946058.724999999627471 ], [ 30167.400000000001455, 5946058.724999999627471 ], [ 30167.400000000001455, 5946058.575000000186265 ], [ 30167.474999999998545, 5946058.575000000186265 ], [ 30167.474999999998545, 5946058.5 ], [ 30167.55, 5946058.5 ], [ 30167.55, 5946058.349999999627471 ], [ 30167.625, 5946058.349999999627471 ], [ 30167.625, 5946058.275000000372529 ], [ 30167.7, 5946058.275000000372529 ], [ 30167.7, 5946058.200000000186265 ], [ 30167.775000000001455, 5946058.200000000186265 ], [ 30167.775000000001455, 5946058.125 ], [ 30167.849999999998545, 5946058.125 ], [ 30167.849999999998545, 5946058.049999999813735 ], [ 30168.0, 5946058.049999999813735 ], [ 30168.0, 5946057.974999999627471 ], [ 30168.075, 5946057.974999999627471 ], [ 30168.075, 5946057.900000000372529 ], [ 30168.224999999998545, 5946057.900000000372529 ], [ 30168.224999999998545, 5946057.825000000186265 ], [ 30168.3, 5946057.825000000186265 ], [ 30168.3, 5946057.75 ], [ 30168.599999999998545, 5946057.75 ], [ 30168.599999999998545, 5946057.674999999813735 ], [ 30168.974999999998545, 5946057.674999999813735 ], [ 30168.974999999998545, 5946057.599999999627471 ], [ 30169.425, 5946057.599999999627471 ], [ 30169.425, 5946057.525000000372529 ], [ 30169.875, 5946057.525000000372529 ], [ 30169.875, 5946057.450000000186265 ], [ 30170.849999999998545, 5946057.450000000186265 ], [ 30170.849999999998545, 5946057.375 ], [ 30173.625, 5946057.375 ], [ 30173.625, 5946057.299999999813735 ], [ 30176.25, 5946057.299999999813735 ], [ 30176.25, 5946057.224999999627471 ], [ 30177.525000000001455, 5946057.224999999627471 ], [ 30177.525000000001455, 5946057.150000000372529 ], [ 30178.875, 5946057.150000000372529 ], [ 30178.875, 5946057.075000000186265 ], [ 30183.0, 5946057.075000000186265 ], [ 30183.0, 5946114.299999999813735 ], [ 30177.900000000001455, 5946114.299999999813735 ], [ 30177.900000000001455, 5946114.224999999627471 ], [ 30168.150000000001455, 5946114.224999999627471 ], [ 30168.150000000001455, 5946114.299999999813735 ], [ 30165.45, 5946114.299999999813735 ], [ 30165.45, 5946114.375 ], [ 30163.8, 5946114.375 ] ] ] } }
]
}
