{
"type": "FeatureCollection",
"name": "29433E591132N_buildings",
"crs": { "type": "name", "properties": { "name": "urn:ogc:def:crs:EPSG::3776" } },
"features": [
{ "type": "Feature", "properties": { "value": 1.0, "building_id": 0, "area": 14.962500004400225 }, "geometry": { "type": "Polygon", "coordinates": [ [ [ 29433.0, 5911787.025000000372529 ], [ 29433.0, 5911784.849999999627471 ], [ 29439.224999999998545, 5911784.849999999627471 ], [ 29439.224999999998545, 5911784.924999999813735 ], [ 29441.7, 5911784.924999999813735 ], [ 29441.7, 5911785.0 ], [ 29443.425, 5911785.0 ], [ 29443.425, 5911785.075000000186265 ], [ 29443.349999999998545, 5911785.075000000186265 ], [ 29443.349999999998545, 5911785.150000000372529 ], [ 29442.900000000001455, 5911785.150000000372529 ], [ 29442.900000000001455, 5911785.224999999627471 ], [ 29442.45, 5911785.224999999627471 ], [ 29442.45, 5911785.299999999813735 ], [ 29442.0, 5911785.299999999813735 ], [ 29442.0, 5911785.375 ], [ 29441.625, 5911785.375 ], [ 29441.625, 5911785.450000000186265 ], [ 29441.25, 5911785.450000000186265 ], [ 29441.25, 5911785.525000000372529 ], [ 29440.95, 5911785.525000000372529 ], [ 29440.95, 5911785.599999999627471 ], [ 29440.650000000001455, 5911785.599999999627471 ], [ 29440.650000000001455, 5911785.674999999813735 ], [ 29440.349999999998545, 5911785.674999999813735 ], [ 29440.349999999998545, 5911785.75 ], [ 29440.05, 5911785.75 ], [ 29440.05, 5911785.825000000186265 ], [ 29439.825, 5911785.825000000186265 ], [ 29439.825, 5911785.900000000372529 ], [ 29439.599999999998545, 5911785.900000000372529 ], [ 29439.599999999998545, 5911785.974999999627471 ], [ 29439.375, 5911785.974999999627471 ], [ 29439.375, 5911786.049999999813735 ], [ 29439.224999999998545, 5911786.049999999813735 ], [ 29439.224999999998545, 5911786.125 ], [ 29439.075, 5911786.125 ], [ 29439.075, 5911786.200000000186265 ], [ 29438.849999999998545, 5911786.200000000186265 ], [ 29438.849999999998545, 5911786.275000000372529 ], [ 29438.7, 5911786.275000000372529 ], [ 29438.7, 5911786.349999999627471 ], [ 29438.55, 5911786.349999999627471 ], [ 29438.55, 5911786.424999999813735 ], [ 29438.400000000001455, 5911786.424999999813735 ], [ 29438.400000000001455, 5911786.5 ], [ 29438.325, 5911786.5 ], [ 29438.325, 5911786.575000000186265 ], [ 29438.175, 5911786.575000000186265 ], [ 29438.175, 5911786.650000000372529 ], [ 29438.025000000001455, 5911786.650000000372529 ], [ 29438.025000000001455, 5911786.724999999627471 ], [ 29437.875, 5911786.724999999627471 ], [ 29437.875, 5911786.799999999813735 ], [ 29437.724999999998545, 5911786.799999999813735 ], [ 29437.724999999998545, 5911786.875 ], [ 29437.5, 5911786.875 ], [ 29437.5, 5911786.950000000186265 ], [ 29437.349999999998545, 5911786.950000000186265 ], [ 29437.349999999998545, 5911787.025000000372529 ], [ 29433.0, 5911787.025000000372529 ] ] ] } },
{ "type": "Feature", "properties": { "value": 1.0, "building_id": 1, "area": 451.51875000139961 }, "geometry": { "type": "Polygon", "coordinates": [ [ [ 29461.349999999998545, 5911793.325000000186265 ], [ 29461.349999999998545, 5911793.25 ], [ 29460.900000000001455, 5911793.25 ], [ 29460.900000000001455, 5911793.174999999813735 ], [ 29460.525000000001455, 5911793.174999999813735 ], [ 29460.525000000001455, 5911793.099999999627471 ], [ 29460.224999999998545, 5911793.099999999627471 ], [ 29460.224999999998545, 5911793.025000000372529 ], [ 29459.925, 5911793.025000000372529 ], [ 29459.925, 5911792.950000000186265 ], [ 29459.7, 5911792.950000000186265 ], [ 29459.7, 5911792.875 ], [ 29459.400000000001455, 5911792.875 ], [ 29459.400000000001455, 5911792.799999999813735 ], [ 29459.25, 5911792.799999999813735 ], [ 29459.25, 5911792.724999999627471 ], [ 29459.099999999998545, 5911792.724999999627471 ], [ 29459.099999999998545, 5911792.650000000372529 ], [ 29459.025000000001455, 5911792.650000000372529 ], [ 29459.025000000001455, 5911792.575000000186265 ], [ 29458.875, 5911792.575000000186265 ], [ 29458.875, 5911792.5 ], [ 29458.724999999998545, 5911792.5 ], [ 29458.724999999998545, 5911792.424999999813735 ], [ 29458.575, 5911792.424999999813735 ], [ 29458.575, 5911792.349999999627471 ], [ 29458.5, 5911792.349999999627471 ], [ 29458.5, 5911792.275000000372529 ], [ 29458.349999999998545, 5911792.275000000372529 ], [ 29458.349999999998545, 5911792.200000000186265 ], [ 29458.2, 5911792.200000000186265 ], [ 29458.2, 5911792.125 ], [ 29458.05, 5911792.125 ], [ 29458.05, 5911792.049999999813735 ], [ 29457.974999999998545, 5911792.049999999813735 ], [ 29457.974999999998545, 5911791.974999999627471 ], [ 29457.825, 5911791.974999999627471 ], [ 29457.825, 5911791.900000000372529 ], [ 29457.675, 5911791.900000000372529 ], [ 29457.675, 5911791.825000000186265 ], [ 29457.599999999998545, 5911791.825000000186265 ], [ 29457.599999999998545, 5911791.75 ], [ 29457.45, 5911791.75 ], [ 29457.45, 5911791.674999999813735 ], [ 29457.3, 5911791.674999999813735 ], [ 29457.3, 5911791.599999999627471 ], [ 29457.224999999998545, 5911791.599999999627471 ], [ 29457.224999999998545, 5911791.525000000372529 ], [ 29457.075, 5911791.525000000372529 ], [ 29457.075, 5911791.450000000186265 ], [ 29456.925, 5911791.450000000186265 ], [ 29456.925, 5911791.375 ], [ 29456.849999999998545, 5911791.375 ], [ 29456.849999999998545, 5911791.299999999813735 ], [ 29456.7, 5911791.299999999813735 ], [ 29456.7, 5911791.224999999627471 ], [ 29456.625, 5911791.224999999627471 ], [ 29456.625, 5911791.150000000372529 ], [ 29456.474999999998545, 5911791.150000000372529 ], [ 29456.474999999998545, 5911791.075000000186265 ], [ 29456.400000000001455, 5911791.075000000186265 ], [ 29456.400000000001455, 5911791.0 ], [ 29456.25, 5911791.0 ], [ 29456.25, 5911790.924999999813735 ], [ 29456.175, 5911790.924999999813735 ], [ 29456.175, 5911790.849999999627471 ], [ 29456.099999999998545, 5911790.849999999627471 ], [ 29456.099999999998545, 5911790.775000000372529 ], [ 29456.025000000001455, 5911790.775000000372529 ], [ 29456.025000000001455, 5911790.700000000186265 ], [ 29455.95, 5911790.700000000186265 ], [ 29455.95, 5911790.625 ], [ 29455.875, 5911790.625 ], [ 29455.875, 5911790.549999999813735 ], [ 29455.8, 5911790.549999999813735 ], [ 29455.8, 5911790.474999999627471 ], [ 29455.724999999998545, 5911790.474999999627471 ], [ 29455.724999999998545, 5911790.400000000372529 ], [ 29455.650000000001455, 5911790.400000000372529 ], [ 29455.650000000001455, 5911790.325000000186265 ], [ 29455.575, 5911790.325000000186265 ], [ 29455.575, 5911790.25 ], [ 29455.5, 5911790.25 ], [ 29455.5, 5911790.174999999813735 ], [ 29455.425, 5911790.174999999813735 ], [ 29455.425, 5911790.099999999627471 ], [ 29455.349999999998545, 5911790.099999999627471 ], [ 29455.349999999998545, 5911790.025000000372529 ], [ 29455.275000000001455, 5911790.025000000372529 ], [ 29455.275000000001455, 5911789.950000000186265 ], [ 29455.2, 5911789.950000000186265 ], [ 29455.2, 5911789.875 ], [ 29455.05, 5911789.875 ], [ 29455.05, 5911789.799999999813735 ], [ 29454.974999999998545, 5911789.799999999813735 ], [ 29454.974999999998545, 5911789.724999999627471 ], [ 29454.900000000001455, 5911789.724999999627471 ], [ 29454.900000000001455, 5911789.650000000372529 ], [ 29454.825, 5911789.650000000372529 ], [ 29454.825, 5911789.575000000186265 ], [ 29454.675, 5911789.575000000186265 ], [ 29454.675, 5911789.5 ], [ 29454.599999999998545, 5911789.5 ], [ 29454.599999999998545, 5911789.424999999813735 ], [ 29454.525000000001455, 5911789.424999999813735 ], [ 29454.525000000001455, 5911789.349999999627471 ], [ 29454.375, 5911789.349999999627471 ], [ 29454.375, 5911789.275000000372529 ], [ 29454.3, 5911789.275000000372529 ], [ 29454.3, 5911789.200000000186265 ], [ 29454.150000000001455, 5911789.200000000186265 ], [ 29454.150000000001455, 5911789.125 ], [ 29454.075, 5911789.125 ], [ 29454.075, 5911789.049999999813735 ], [ 29453.925, 5911789.049999999813735 ], [ 29453.925, 5911788.974999999627471 ], [ 29453.849999999998545, 5911788.974999999627471 ], [ 29453.849999999998545, 5911788.900000000372529 ], [ 29453.775000000001455, 5911788.900000000372529 ], [ 29453.775000000001455, 5911788.674999999813735 ], [ 29453.7, 5911788.674999999813735 ], [ 29453.7, 5911788.525000000372529 ], [ 29453.625, 5911788.525000000372529 ], [ 29453.625, 5911788.375 ], [ 29453.55, 5911788.375 ], [ 29453.55, 5911788.224999999627471 ], [ 29453.474999999998545, 5911788.224999999627471 ], [ 29453.474999999998545, 5911788.150000000372529 ], [ 29453.400000000001455, 5911788.150000000372529 ], [ 29453.400000000001455, 5911788.075000000186265 ], [ 29453.325, 5911788.075000000186265 ], [ 29453.325, 5911788.0 ], [ 29453.25, 5911788.0 ], [ 29453.25, 5911787.924999999813735 ], [ 29453.175, 5911787.924999999813735 ], [ 29453.175, 5911787.849999999627471 ], [ 29453.099999999998545, 5911787.849999999627471 ], [ 29453.099999999998545, 5911787.775000000372529 ], [ 29453.025000000001455, 5911787.775000000372529 ], [ 29453.025000000001455, 5911787.700000000186265 ], [ 29452.875, 5911787.700000000186265 ], [ 29452.875, 5911787.625 ], [ 29452.8, 5911787.625 ], [ 29452.8, 5911787.549999999813735 ], [ 29452.650000000001455, 5911787.549999999813735 ], [ 29452.650000000001455, 5911787.474999999627471 ], [ 29452.575, 5911787.474999999627471 ], [ 29452.575, 5911787.400000000372529 ], [ 29452.425, 5911787.400000000372529 ], [ 29452.425, 5911787.325000000186265 ], [ 29452.275000000001455, 5911787.325000000186265 ], [ 29452.275000000001455, 5911787.25 ], [ 29452.05, 5911787.25 ], [ 29452.05, 5911787.174999999813735 ], [ 29451.825, 5911787.174999999813735 ], [ 29451.825, 5911787.099999999627471 ], [ 29451.599999999998545, 5911787.099999999627471 ], [ 29451.599999999998545, 5911787.025000000372529 ], [ 29451.0, 5911787.025000000372529 ], [ 29451.0, 5911786.950000000186265 ], [ 29450.925, 5911786.950000000186265 ], [ 29450.925, 5911786.875 ], [ 29450.849999999998545, 5911786.875 ], [ 29450.849999999998545, 5911786.799999999813735 ], [ 29450.775000000001455, 5911786.799999999813735 ], [ 29450.775000000001455, 5911786.724999999627471 ], [ 29450.7, 5911786.724999999627471 ], [ 29450.7, 5911786.650000000372529 ], [ 29450.625, 5911786.650000000372529 ], [ 29450.625, 5911786.575000000186265 ], [ 29450.55, 5911786.575000000186265 ], [ 29450.55, 5911786.5 ], [ 29450.400000000001455, 5911786.5 ], [ 29450.400000000001455, 5911786.424999999813735 ], [ 29450.325, 5911786.424999999813735 ], [ 29450.325, 5911786.349999999627471 ], [ 29450.175, 5911786.349999999627471 ], [ 29450.175, 5911786.275000000372529 ], [ 29450.099999999998545, 5911786.275000000372529 ], [ 29450.099999999998545, 5911786.200000000186265 ], [ 29449.95, 5911786.200000000186265 ], [ 29449.95, 5911786.125 ], [ 29449.8, 5911786.125 ], [ 29449.8, 5911786.049999999813735 ], [ 29449.650000000001455, 5911786.049999999813735 ], [ 29449.650000000001455, 5911785.974999999627471 ], [ 29449.5, 5911785.974999999627471 ], [ 29449.5, 5911785.900000000372529 ], [ 29449.349999999998545, 5911785.900000000372529 ], [ 29449.349999999998545, 5911785.825000000186265 ], [ 29449.125, 5911785.825000000186265 ], [ 29449.125, 5911785.75 ], [ 29448.900000000001455, 5911785.75 ], [ 29448.900000000001455, 5911785.674999999813735 ], [ 29448.675, 5911785.674999999813735 ], [ 29448.675, 5911785.599999999627471 ], [ 29448.45, 5911785.599999999627471 ], [ 29448.45, 5911785.525000000372529 ], [ 29448.150000000001455, 5911785.525000000372529 ], [ 29448.150000000001455, 5911785.450000000186265 ], [ 29447.849999999998545, 5911785.450000000186265 ], [ 29447.849999999998545, 5911785.375 ], [ 29447.474999999998545, 5911785.375 ], [ 29447.474999999998545, 5911785.299999999813735 ], [ 29447.099999999998545, 5911785.299999999813735 ], [ 29447.099999999998545, 5911785.224999999627471 ], [ 29446.724999999998545, 5911785.224999999627471 ], [ 29446.724999999998545, 5911785.150000000372529 ], [ 29446.2, 5911785.150000000372529 ], [ 29446.2, 5911785.075000000186265 ], [ 29446.05, 5911785.075000000186265 ], [ 29446.05, 5911785.0 ], [ 29446.95, 5911785.0 ], [ 29446.95, 5911784.924999999813735 ], [ 29447.625, 5911784.924999999813735 ], [ 29447.625, 5911784.849999999627471 ], [ 29448.150000000001455, 5911784.849999999627471 ], [ 29448.150000000001455, 5911784.775000000372529 ], [ 29448.599999999998545, 5911784.775000000372529 ], [ 29448.599999999998545, 5911784.700000000186265 ], [ 29448.974999999998545, 5911784.700000000186265 ], [ 29448.974999999998545, 5911784.625 ], [ 29449.275000000001455, 5911784.625 ], [ 29449.275000000001455, 5911784.549999999813735 ], [ 29449.5, 5911784.549999999813735 ], [ 29449.5, 5911784.474999999627471 ], [ 29449.724999999998545, 5911784.474999999627471 ], [ 29449.724999999998545, 5911784.400000000372529 ], [ 29449.95, 5911784.400000000372529 ], [ 29449.95, 5911784.325000000186265 ], [ 29450.175, 5911784.325000000186265 ], [ 29450.175, 5911784.25 ], [ 29450.325, 5911784.25 ], [ 29450.325, 5911784.174999999813735 ], [ 29450.474999999998545, 5911784.174999999813735 ], [ 29450.474999999998545, 5911784.099999999627471 ], [ 29450.625, 5911784.099999999627471 ], [ 29450.625, 5911784.025000000372529 ], [ 29450.7, 5911784.025000000372529 ], [ 29450.7, 5911783.950000000186265 ], [ 29450.849999999998545, 5911783.950000000186265 ], [ 29450.849999999998545, 5911783.875 ], [ 29450.925, 5911783.875 ], [ 29450.925, 5911783.799999999813735 ], [ 29451.0, 5911783.799999999813735 ], [ 29451.0, 5911783.724999999627471 ], [ 29451.150000000001455, 5911783.724999999627471 ], [ 29451.150000000001455, 5911783.650000000372529 ], [ 29451.224999999998545, 5911783.650000000372529 ], [ 29451.224999999998545, 5911783.575000000186265 ], [ 29451.3, 5911783.575000000186265 ], [ 29451.3, 5911783.5 ], [ 29451.375, 5911783.5 ], [ 29451.375, 5911783.349999999627471 ], [ 29451.45, 5911783.349999999627471 ], [ 29451.45, 5911783.275000000372529 ], [ 29451.525000000001455, 5911783.275000000372529 ], [ 29451.525000000001455, 5911783.200000000186265 ], [ 29451.599999999998545, 5911783.200000000186265 ], [ 29451.599999999998545, 5911782.974999999627471 ], [ 29451.675, 5911782.974999999627471 ], [ 29451.675, 5911782.825000000186265 ], [ 29451.75, 5911782.825000000186265 ], [ 29451.75, 5911782.599999999627471 ], [ 29451.825, 5911782.599999999627471 ], [ 29451.825, 5911782.450000000186265 ], [ 29451.900000000001455, 5911782.450000000186265 ], [ 29451.900000000001455, 5911782.299999999813735 ], [ 29451.974999999998545, 5911782.299999999813735 ], [ 29451.974999999998545, 5911782.150000000372529 ], [ 29452.05, 5911782.150000000372529 ], [ 29452.05, 5911782.0 ], [ 29452.125, 5911782.0 ], [ 29452.125, 5911781.775000000372529 ], [ 29452.2, 5911781.775000000372529 ], [ 29452.2, 5911781.625 ], [ 29452.275000000001455, 5911781.625 ], [ 29452.275000000001455, 5911781.474999999627471 ], [ 29452.349999999998545, 5911781.474999999627471 ], [ 29452.349999999998545, 5911781.325000000186265 ], [ 29452.425, 5911781.325000000186265 ], [ 29452.425, 5911781.25 ], [ 29452.5, 5911781.25 ], [ 29452.5, 5911781.025000000372529 ], [ 29452.575, 5911781.025000000372529 ], [ 29452.575, 5911780.875 ], [ 29452.650000000001455, 5911780.875 ], [ 29452.650000000001455, 5911780.724999999627471 ], [ 29452.724999999998545, 5911780.724999999627471 ], [ 29452.724999999998545, 5911780.575000000186265 ], [ 29452.8, 5911780.575000000186265 ], [ 29452.8, 5911780.424999999813735 ], [ 29452.875, 5911780.424999999813735 ], [ 29452.875, 5911780.275000000372529 ], [ 29452.95, 5911780.275000000372529 ], [ 29452.95, 5911780.125 ], [ 29453.025000000001455, 5911780.125 ], [ 29453.025000000001455, 5911779.974999999627471 ], [ 29453.099999999998545, 5911779.974999999627471 ], [ 29453.099999999998545, 5911779.825000000186265 ], [ 29453.175, 5911779.825000000186265 ], [ 29453.175, 5911779.674999999813735 ], [ 29453.25, 5911779.674999999813735 ], [ 29453.25, 5911779.525000000372529 ], [ 29453.325, 5911779.525000000372529 ], [ 29453.325, 5911779.375 ], [ 29453.400000000001455, 5911779.375 ], [ 29453.400000000001455, 5911779.224999999627471 ], [ 29453.474999999998545, 5911779.224999999627471 ], [ 29453.474999999998545, 5911779.150000000372529 ], [ 29453.55, 5911779.150000000372529 ], [ 29453.55, 5911779.075000000186265 ], [ 29453.849999999998545, 5911779.075000000186265 ], [ 29453.849999999998545, 5911779.0 ], [ 29454.224999999998545, 5911779.0 ], [ 29454.224999999998545, 5911778.924999999813735 ], [ 29454.900000000001455, 5911778.924999999813735 ], [ 29454.900000000001455, 5911778.849999999627471 ], [ 29456.625, 5911778.849999999627471 ], [ 29456.625, 5911778.775000000372529 ], [ 29458.5, 5911778.775000000372529 ], [ 29458.5, 5911778.849999999627471 ], [ 29459.400000000001455, 5911778.849999999627471 ], [ 29459.400000000001455, 5911778.775000000372529 ], [ 29460.3, 5911778.775000000372529 ], [ 29460.3, 5911778.700000000186265 ], [ 29461.2, 5911778.700000000186265 ], [ 29461.2, 5911778.625 ], [ 29461.724999999998545, 5911778.625 ], [ 29461.724999999998545, 5911778.549999999813735 ], [ 29462.099999999998545, 5911778.549999999813735 ], [ 29462.099999999998545, 5911778.474999999627471 ], [ 29462.474999999998545, 5911778.474999999627471 ], [ 29462.474999999998545, 5911778.400000000372529 ], [ 29462.775000000001455, 5911778.400000000372529 ], [ 29462.775000000001455, 5911778.325000000186265 ], [ 29463.075, 5911778.325000000186265 ], [ 29463.075, 5911778.25 ], [ 29463.3, 5911778.25 ], [ 29463.3, 5911778.174999999813735 ], [ 29463.675, 5911778.174999999813735 ], [ 29463.675, 5911778.099999999627471 ], [ 29464.05, 5911778.099999999627471 ], [ 29464.05, 5911778.025000000372529 ], [ 29464.349999999998545, 5911778.025000000372529 ], [ 29464.349999999998545, 5911777.950000000186265 ], [ 29464.575, 5911777.950000000186265 ], [ 29464.575, 5911777.875 ], [ 29464.875, 5911777.875 ], [ 29464.875, 5911777.799999999813735 ], [ 29465.025000000001455, 5911777.799999999813735 ], [ 29465.025000000001455, 5911777.724999999627471 ], [ 29465.25, 5911777.724999999627471 ], [ 29465.25, 5911777.650000000372529 ], [ 29465.55, 5911777.650000000372529 ], [ 29465.55, 5911777.575000000186265 ], [ 29465.849999999998545, 5911777.575000000186265 ], [ 29465.849999999998545, 5911777.5 ], [ 29466.150000000001455, 5911777.5 ], [ 29466.150000000001455, 5911777.424999999813735 ], [ 29466.375, 5911777.424999999813735 ], [ 29466.375, 5911777.349999999627471 ], [ 29466.599999999998545, 5911777.349999999627471 ], [ 29466.599999999998545, 5911777.275000000372529 ], [ 29466.75, 5911777.275000000372529 ], [ 29466.75, 5911777.200000000186265 ], [ 29466.900000000001455, 5911777.200000000186265 ], [ 29466.900000000001455, 5911777.125 ], [ 29466.974999999998545, 5911777.125 ], [ 29466.974999999998545, 5911777.049999999813735 ], [ 29467.05, 5911777.049999999813735 ], [ 29467.05, 5911776.900000000372529 ], [ 29467.125, 5911776.900000000372529 ], [ 29467.125, 5911776.825000000186265 ], [ 29467.2, 5911776.825000000186265 ], [ 29467.2, 5911776.75 ], [ 29467.425, 5911776.75 ], [ 29467.425, 5911776.674999999813735 ], [ 29467.575, 5911776.674999999813735 ], [ 29467.575, 5911776.599999999627471 ], [ 29467.724999999998545, 5911776.599999999627471 ], [ 29467.724999999998545, 5911776.525000000372529 ], [ 29467.875, 5911776.525000000372529 ], [ 29467.875, 5911776.450000000186265 ], [ 29468.025000000001455, 5911776.450000000186265 ], [ 29468.025000000001455, 5911776.375 ], [ 29468.175, 5911776.375 ], [ 29468.175, 5911776.299999999813735 ], [ 29468.325, 5911776.299999999813735 ], [ 29468.325, 5911776.224999999627471 ], [ 29468.400000000001455, 5911776.224999999627471 ], [ 29468.400000000001455, 5911776.150000000372529 ], [ 29468.55, 5911776.150000000372529 ], [ 29468.55, 5911776.075000000186265 ], [ 29468.625, 5911776.075000000186265 ], [ 29468.625, 5911776.0 ], [ 29468.7, 5911776.0 ], [ 29468.7, 5911775.924999999813735 ], [ 29468.849999999998545, 5911775.924999999813735 ], [ 29468.849999999998545, 5911775.849999999627471 ], [ 29468.925, 5911775.849999999627471 ], [ 29468.925, 5911775.775000000372529 ], [ 29469.0, 5911775.775000000372529 ], [ 29469.0, 5911775.700000000186265 ], [ 29469.075, 5911775.700000000186265 ], [ 29469.075, 5911775.625 ], [ 29469.224999999998545, 5911775.625 ], [ 29469.224999999998545, 5911775.700000000186265 ], [ 29469.375, 5911775.700000000186265 ], [ 29469.375, 5911775.775000000372529 ], [ 29469.599999999998545, 5911775.775000000372529 ], [ 29469.599999999998545, 5911775.849999999627471 ], [ 29469.825, 5911775.849999999627471 ], [ 29469.825, 5911775.924999999813735 ], [ 29470.05, 5911775.924999999813735 ], [ 29470.05, 5911776.0 ], [ 29470.349999999998545, 5911776.0 ], [ 29470.349999999998545, 5911776.075000000186265 ], [ 29470.650000000001455, 5911776.075000000186265 ], [ 29470.650000000001455, 5911776.150000000372529 ], [ 29470.95, 5911776.150000000372529 ], [ 29470.95, 5911776.224999999627471 ], [ 29471.325, 5911776.224999999627471 ], [ 29471.325, 5911776.299999999813735 ], [ 29471.7, 5911776.299999999813735 ], [ 29471.7, 5911776.375 ], [ 29472.150000000001455, 5911776.375 ], [ 29472.150000000001455, 5911776.450000000186265 ], [ 29472.675, 5911776.450000000186265 ], [ 29472.675, 5911776.525000000372529 ], [ 29473.275000000001455, 5911776.525000000372529 ], [ 29473.275000000001455, 5911776.599999999627471 ], [ 29473.95, 5911776.599999999627471 ], [ 29473.95, 5911776.674999999813735 ], [ 29474.775000000001455, 5911776.674999999813735 ], [ 29474.775000000001455, 5911776.75 ], [ 29475.075, 5911776.75 ], [ 29475.075, 5911776.900000000372529 ], [ 29475.150000000001455, 5911776.900000000372529 ], [ 29475.150000000001455, 5911776.974999999627471 ], [ 29475.224999999998545, 5911776.974999999627471 ], [ 29475.224999999998545, 5911777.049999999813735 ], [ 29475.3, 5911777.049999999813735 ], [ 29475.3, 5911777.125 ], [ 29475.375, 5911777.125 ], [ 29475.375, 5911777.200000000186265 ], [ 29475.45, 5911777.200000000186265 ], [ 29475.45, 5911777.275000000372529 ], [ 29475.599999999998545, 5911777.275000000372529 ], [ 29475.599999999998545, 5911777.349999999627471 ], [ 29475.675, 5911777.349999999627471 ], [ 29475.675, 5911777.424999999813735 ], [ 29475.75, 5911777.424999999813735 ], [ 29475.75, 5911777.5 ], [ 29475.900000000001455, 5911777.5 ], [ 29475.900000000001455, 5911777.575000000186265 ], [ 29475.974999999998545, 5911777.575000000186265 ], [ 29475.974999999998545, 5911777.650000000372529 ], [ 29476.125, 5911777.650000000372529 ], [ 29476.125, 5911777.724999999627471 ], [ 29476.275000000001455, 5911777.724999999627471 ], [ 29476.275000000001455, 5911777.799999999813735 ], [ 29476.349999999998545, 5911777.799999999813735 ], [ 29476.349999999998545, 5911777.875 ], [ 29476.5, 5911777.875 ], [ 29476.5, 5911777.950000000186265 ], [ 29476.575, 5911777.950000000186265 ], [ 29476.575, 5911778.025000000372529 ], [ 29476.724999999998545, 5911778.025000000372529 ], [ 29476.724999999998545, 5911778.099999999627471 ], [ 29476.875, 5911778.099999999627471 ], [ 29476.875, 5911778.174999999813735 ], [ 29476.95, 5911778.174999999813735 ], [ 29476.95, 5911778.25 ], [ 29477.025000000001455, 5911778.25 ], [ 29477.025000000001455, 5911778.400000000372529 ], [ 29477.099999999998545, 5911778.400000000372529 ], [ 29477.099999999998545, 5911778.474999999627471 ], [ 29477.175, 5911778.474999999627471 ], [ 29477.175, 5911778.549999999813735 ], [ 29477.25, 5911778.549999999813735 ], [ 29477.25, 5911778.700000000186265 ], [ 29477.325, 5911778.700000000186265 ], [ 29477.325, 5911778.775000000372529 ], [ 29477.400000000001455, 5911778.775000000372529 ], [ 29477.400000000001455, 5911778.849999999627471 ], [ 29477.474999999998545, 5911778.849999999627471 ], [ 29477.474999999998545, 5911778.924999999813735 ], [ 29477.55, 5911778.924999999813735 ], [ 29477.55, 5911779.0 ], [ 29477.625, 5911779.0 ], [ 29477.625, 5911779.150000000372529 ], [ 29477.7, 5911779.150000000372529 ], [ 29477.7, 5911779.224999999627471 ], [ 29477.849999999998545, 5911779.224999999627471 ], [ 29477.849999999998545, 5911779.299999999813735 ], [ 29477.925, 5911779.299999999813735 ], [ 29477.925, 5911779.375 ], [ 29478.075, 5911779.375 ], [ 29478.075, 5911779.450000000186265 ], [ 29478.150000000001455, 5911779.450000000186265 ], [ 29478.150000000001455, 5911779.525000000372529 ], [ 29478.3, 5911779.525000000372529 ], [ 29478.3, 5911779.599999999627471 ], [ 29478.375, 5911779.599999999627471 ], [ 29478.375, 5911779.674999999813735 ], [ 29478.525000000001455, 5911779.674999999813735 ], [ 29478.525000000001455, 5911779.75 ], [ 29478.675, 5911779.75 ], [ 29478.675, 5911779.825000000186265 ], [ 29478.75, 5911779.825000000186265 ], [ 29478.75, 5911779.900000000372529 ], [ 29478.900000000001455, 5911779.900000000372529 ], [ 29478.900000000001455, 5911779.974999999627471 ], [ 29478.974999999998545, 5911779.974999999627471 ], [ 29478.974999999998545, 5911780.049999999813735 ], [ 29479.125, 5911780.049999999813735 ], [ 29479.125, 5911780.125 ], [ 29479.2, 5911780.125 ], [ 29479.2, 5911780.200000000186265 ], [ 29479.275000000001455, 5911780.200000000186265 ], [ 29479.275000000001455, 5911780.275000000372529 ], [ 29479.425, 5911780.275000000372529 ], [ 29479.425, 5911780.349999999627471 ], [ 29479.575, 5911780.349999999627471 ], [ 29479.575, 5911780.424999999813735 ], [ 29479.650000000001455, 5911780.424999999813735 ], [ 29479.650000000001455, 5911780.5 ], [ 29479.8, 5911780.5 ], [ 29479.8, 5911780.575000000186265 ], [ 29479.95, 5911780.575000000186265 ], [ 29479.95, 5911780.650000000372529 ], [ 29480.099999999998545, 5911780.650000000372529 ], [ 29480.099999999998545, 5911780.724999999627471 ], [ 29480.25, 5911780.724999999627471 ], [ 29480.25, 5911780.799999999813735 ], [ 29480.400000000001455, 5911780.799999999813735 ], [ 29480.400000000001455, 5911780.875 ], [ 29480.55, 5911780.875 ], [ 29480.55, 5911780.950000000186265 ], [ 29480.7, 5911780.950000000186265 ], [ 29480.7, 5911781.025000000372529 ], [ 29480.925, 5911781.025000000372529 ], [ 29480.925, 5911781.099999999627471 ], [ 29481.075, 5911781.099999999627471 ], [ 29481.075, 5911781.174999999813735 ], [ 29481.224999999998545, 5911781.174999999813735 ], [ 29481.224999999998545, 5911781.25 ], [ 29481.375, 5911781.25 ], [ 29481.375, 5911781.325000000186265 ], [ 29481.525000000001455, 5911781.325000000186265 ], [ 29481.525000000001455, 5911781.400000000372529 ], [ 29481.75, 5911781.400000000372529 ], [ 29481.75, 5911781.474999999627471 ], [ 29481.900000000001455, 5911781.474999999627471 ], [ 29481.900000000001455, 5911781.549999999813735 ], [ 29482.05, 5911781.549999999813735 ], [ 29482.05, 5911781.625 ], [ 29482.2, 5911781.625 ], [ 29482.2, 5911781.700000000186265 ], [ 29482.349999999998545, 5911781.700000000186265 ], [ 29482.349999999998545, 5911781.775000000372529 ], [ 29482.575, 5911781.775000000372529 ], [ 29482.575, 5911781.849999999627471 ], [ 29482.724999999998545, 5911781.849999999627471 ], [ 29482.724999999998545, 5911781.924999999813735 ], [ 29482.8, 5911781.924999999813735 ], [ 29482.8, 5911782.0 ], [ 29482.875, 5911782.0 ], [ 29482.875, 5911782.075000000186265 ], [ 29482.95, 5911782.075000000186265 ], [ 29482.95, 5911782.150000000372529 ], [ 29483.025000000001455, 5911782.150000000372529 ], [ 29483.025000000001455, 5911782.224999999627471 ], [ 29483.099999999998545, 5911782.224999999627471 ], [ 29483.099999999998545, 5911782.375 ], [ 29483.175, 5911782.375 ], [ 29483.175, 5911782.450000000186265 ], [ 29483.325, 5911782.450000000186265 ], [ 29483.325, 5911782.525000000372529 ], [ 29483.400000000001455, 5911782.525000000372529 ], [ 29483.400000000001455, 5911782.599999999627471 ], [ 29483.474999999998545, 5911782.599999999627471 ], [ 29483.474999999998545, 5911782.674999999813735 ], [ 29483.625, 5911782.674999999813735 ], [ 29483.625, 5911782.75 ], [ 29483.7, 5911782.75 ], [ 29483.7, 5911782.825000000186265 ], [ 29483.849999999998545, 5911782.825000000186265 ], [ 29483.849999999998545, 5911782.900000000372529 ], [ 29484.0, 5911782.900000000372529 ], [ 29484.0, 5911782.974999999627471 ], [ 29484.224999999998545, 5911782.974999999627471 ], [ 29484.224999999998545, 5911783.049999999813735 ], [ 29484.45, 5911783.049999999813735 ], [ 29484.45, 5911783.125 ], [ 29484.599999999998545, 5911783.125 ], [ 29484.599999999998545, 5911783.200000000186265 ], [ 29484.75, 5911783.200000000186265 ], [ 29484.75, 5911783.424999999813735 ], [ 29484.825, 5911783.424999999813735 ], [ 29484.825, 5911783.724999999627471 ], [ 29484.900000000001455, 5911783.724999999627471 ], [ 29484.900000000001455, 5911783.950000000186265 ], [ 29484.974999999998545, 5911783.950000000186265 ], [ 29484.974999999998545, 5911784.174999999813735 ], [ 29485.05, 5911784.174999999813735 ], [ 29485.05, 5911784.400000000372529 ], [ 29485.125, 5911784.400000000372529 ], [ 29485.125, 5911784.549999999813735 ], [ 29485.2, 5911784.549999999813735 ], [ 29485.2, 5911784.700000000186265 ], [ 29485.275000000001455, 5911784.700000000186265 ], [ 29485.275000000001455, 5911784.775000000372529 ], [ 29485.349999999998545, 5911784.775000000372529 ], [ 29485.349999999998545, 5911784.924999999813735 ], [ 29485.425, 5911784.924999999813735 ], [ 29485.425, 5911785.0 ], [ 29485.5, 5911785.0 ], [ 29485.5, 5911785.150000000372529 ], [ 29485.575, 5911785.150000000372529 ], [ 29485.575, 5911785.599999999627471 ], [ 29485.650000000001455, 5911785.599999999627471 ], [ 29485.650000000001455, 5911786.125 ], [ 29485.724999999998545, 5911786.125 ], [ 29485.724999999998545, 5911786.650000000372529 ], [ 29485.8, 5911786.650000000372529 ], [ 29485.8, 5911787.025000000372529 ], [ 29485.724999999998545, 5911787.025000000372529 ], [ 29485.724999999998545, 5911787.174999999813735 ], [ 29485.650000000001455, 5911787.174999999813735 ], [ 29485.650000000001455, 5911787.25 ], [ 29485.575, 5911787.25 ], [ 29485.575, 5911787.325000000186265 ], [ 29485.5, 5911787.325000000186265 ], [ 29485.5, 5911787.474999999627471 ], [ 29485.425, 5911787.474999999627471 ], [ 29485.425, 5911787.625 ], [ 29485.349999999998545, 5911787.625 ], [ 29485.349999999998545, 5911787.849999999627471 ], [ 29485.275000000001455, 5911787.849999999627471 ], [ 29485.275000000001455, 5911788.075000000186265 ], [ 29485.2, 5911788.075000000186265 ], [ 29485.2, 5911788.299999999813735 ], [ 29485.125, 5911788.299999999813735 ], [ 29485.125, 5911788.674999999813735 ], [ 29485.05, 5911788.674999999813735 ], [ 29485.05, 5911788.974999999627471 ], [ 29484.974999999998545, 5911788.974999999627471 ], [ 29484.974999999998545, 5911789.125 ], [ 29484.900000000001455, 5911789.125 ], [ 29484.900000000001455, 5911789.200000000186265 ], [ 29484.825, 5911789.200000000186265 ], [ 29484.825, 5911789.349999999627471 ], [ 29484.675, 5911789.349999999627471 ], [ 29484.675, 5911789.424999999813735 ], [ 29484.525000000001455, 5911789.424999999813735 ], [ 29484.525000000001455, 5911789.5 ], [ 29484.375, 5911789.5 ], [ 29484.375, 5911789.575000000186265 ], [ 29484.224999999998545, 5911789.575000000186265 ], [ 29484.224999999998545, 5911789.650000000372529 ], [ 29484.075, 5911789.650000000372529 ], [ 29484.075, 5911789.724999999627471 ], [ 29483.925, 5911789.724999999627471 ], [ 29483.925, 5911789.799999999813735 ], [ 29483.849999999998545, 5911789.799999999813735 ], [ 29483.849999999998545, 5911789.875 ], [ 29483.7, 5911789.875 ], [ 29483.7, 5911789.950000000186265 ], [ 29483.625, 5911789.950000000186265 ], [ 29483.625, 5911790.025000000372529 ], [ 29483.55, 5911790.025000000372529 ], [ 29483.55, 5911790.099999999627471 ], [ 29483.474999999998545, 5911790.099999999627471 ], [ 29483.474999999998545, 5911790.174999999813735 ], [ 29483.400000000001455, 5911790.174999999813735 ], [ 29483.400000000001455, 5911790.25 ], [ 29483.325, 5911790.25 ], [ 29483.325, 5911790.325000000186265 ], [ 29483.25, 5911790.325000000186265 ], [ 29483.25, 5911790.400000000372529 ], [ 29483.175, 5911790.400000000372529 ], [ 29483.175, 5911790.474999999627471 ], [ 29483.099999999998545, 5911790.474999999627471 ], [ 29483.099999999998545, 5911790.549999999813735 ], [ 29483.025000000001455, 5911790.549999999813735 ], [ 29483.025000000001455, 5911790.700000000186265 ], [ 29482.95, 5911790.700000000186265 ], [ 29482.95, 5911790.775000000372529 ], [ 29482.875, 5911790.775000000372529 ], [ 29482.875, 5911790.924999999813735 ], [ 29482.650000000001455, 5911790.924999999813735 ], [ 29482.650000000001455, 5911791.0 ], [ 29482.2, 5911791.0 ], [ 29482.2, 5911791.075000000186265 ], [ 29481.825, 5911791.075000000186265 ], [ 29481.825, 5911791.150000000372529 ], [ 29481.375, 5911791.150000000372529 ], [ 29481.375, 5911791.224999999627471 ], [ 29481.0, 5911791.224999999627471 ], [ 29481.0, 5911791.299999999813735 ], [ 29480.625, 5911791.299999999813735 ], [ 29480.625, 5911791.375 ], [ 29480.25, 5911791.375 ], [ 29480.25, 5911791.450000000186265 ], [ 29479.875, 5911791.450000000186265 ], [ 29479.875, 5911791.525000000372529 ], [ 29479.575, 5911791.525000000372529 ], [ 29479.575, 5911791.599999999627471 ], [ 29479.2, 5911791.599999999627471 ], [ 29479.2, 5911791.674999999813735 ], [ 29478.900000000001455, 5911791.674999999813735 ], [ 29478.900000000001455, 5911791.75 ], [ 29478.599999999998545, 5911791.75 ], [ 29478.599999999998545, 5911791.825000000186265 ], [ 29478.375, 5911791.825000000186265 ], [ 29478.375, 5911791.900000000372529 ], [ 29478.075, 5911791.900000000372529 ], [ 29478.075, 5911791.974999999627471 ], [ 29477.849999999998545, 5911791.974999999627471 ], [ 29477.849999999998545, 5911792.049999999813735 ], [ 29477.55, 5911792.049999999813735 ], [ 29477.55, 5911792.125 ], [ 29477.325, 5911792.125 ], [ 29477.325, 5911792.200000000186265 ], [ 29477.099999999998545, 5911792.200000000186265 ], [ 29477.099999999998545, 5911792.275000000372529 ], [ 29476.875, 5911792.275000000372529 ], [ 29476.875, 5911792.349999999627471 ], [ 29476.575, 5911792.349999999627471 ], [ 29476.575, 5911792.424999999813735 ], [ 29476.275000000001455, 5911792.424999999813735 ], [ 29476.275000000001455, 5911792.5 ], [ 29475.974999999998545, 5911792.5 ], [ 29475.974999999998545, 5911792.575000000186265 ], [ 29475.675, 5911792.575000000186265 ], [ 29475.675, 5911792.650000000372529 ], [ 29475.45, 5911792.650000000372529 ], [ 29475.45, 5911792.724999999627471 ], [ 29475.150000000001455, 5911792.724999999627471 ], [ 29475.150000000001455, 5911792.799999999813735 ], [ 29474.849999999998545, 5911792.799999999813735 ], [ 29474.849999999998545, 5911792.875 ], [ 29474.025000000001455, 5911792.875 ], [ 29474.025000000001455, 5911792.950000000186265 ], [ 29473.125, 5911792.950000000186265 ], [ 29473.125, 5911793.025000000372529 ], [ 29472.150000000001455, 5911793.025000000372529 ], [ 29472.150000000001455, 5911793.099999999627471 ], [ 29471.099999999998545, 5911793.099999999627471 ], [ 29471.099999999998545, 5911793.174999999813735 ], [ 29470.05, 5911793.174999999813735 ], [ 29470.05, 5911793.25 ], [ 29468.7, 5911793.25 ], [ 29468.7, 5911793.325000000186265 ], [ 29461.349999999998545, 5911793.325000000186265 ] ] ] } }
]
}
