{
"type": "FeatureCollection",
"name": "31683E593757N_buildings",
"crs": { "type": "name", "properties": { "name": "urn:ogc:def:crs:EPSG::3776" } },
"features": [
{ "type": "Feature", "properties": { "value": 1.0, "building_id": 0, "area": 128.94749999984637 }, "geometry": { "type": "Polygon", "coordinates": [ [ [ 32062.575, 5937811.950000000186265 ], [ 32062.575, 5937811.875 ], [ 32062.349999999998545, 5937811.875 ], [ 32062.349999999998545, 5937811.799999999813735 ], [ 32062.2, 5937811.799999999813735 ], [ 32062.2, 5937811.724999999627471 ], [ 32061.974999999998545, 5937811.724999999627471 ], [ 32061.974999999998545, 5937811.650000000372529 ], [ 32061.825, 5937811.650000000372529 ], [ 32061.825, 5937811.575000000186265 ], [ 32061.75, 5937811.575000000186265 ], [ 32061.75, 5937811.5 ], [ 32061.675, 5937811.5 ], [ 32061.675, 5937811.424999999813735 ], [ 32061.525000000001455, 5937811.424999999813735 ], [ 32061.525000000001455, 5937811.349999999627471 ], [ 32061.45, 5937811.349999999627471 ], [ 32061.45, 5937811.275000000372529 ], [ 32061.375, 5937811.275000000372529 ], [ 32061.375, 5937811.125 ], [ 32061.3, 5937811.125 ], [ 32061.3, 5937811.049999999813735 ], [ 32061.224999999998545, 5937811.049999999813735 ], [ 32061.224999999998545, 5937810.974999999627471 ], [ 32061.150000000001455, 5937810.974999999627471 ], [ 32061.150000000001455, 5937810.825000000186265 ], [ 32061.075, 5937810.825000000186265 ], [ 32061.075, 5937810.599999999627471 ], [ 32061.0, 5937810.599999999627471 ], [ 32061.0, 5937810.450000000186265 ], [ 32060.925, 5937810.450000000186265 ], [ 32060.925, 5937810.150000000372529 ], [ 32060.849999999998545, 5937810.150000000372529 ], [ 32060.849999999998545, 5937810.075000000186265 ], [ 32060.775000000001455, 5937810.075000000186265 ], [ 32060.775000000001455, 5937809.924999999813735 ], [ 32060.7, 5937809.924999999813735 ], [ 32060.7, 5937809.775000000372529 ], [ 32060.625, 5937809.775000000372529 ], [ 32060.625, 5937809.625 ], [ 32060.55, 5937809.625 ], [ 32060.55, 5937809.400000000372529 ], [ 32060.474999999998545, 5937809.400000000372529 ], [ 32060.474999999998545, 5937809.174999999813735 ], [ 32060.400000000001455, 5937809.174999999813735 ], [ 32060.400000000001455, 5937808.950000000186265 ], [ 32060.325, 5937808.950000000186265 ], [ 32060.325, 5937808.724999999627471 ], [ 32060.25, 5937808.724999999627471 ], [ 32060.25, 5937808.424999999813735 ], [ 32060.325, 5937808.424999999813735 ], [ 32060.325, 5937808.275000000372529 ], [ 32060.400000000001455, 5937808.275000000372529 ], [ 32060.400000000001455, 5937808.200000000186265 ], [ 32060.474999999998545, 5937808.200000000186265 ], [ 32060.474999999998545, 5937808.049999999813735 ], [ 32060.55, 5937808.049999999813735 ], [ 32060.55, 5937807.974999999627471 ], [ 32060.625, 5937807.974999999627471 ], [ 32060.625, 5937807.900000000372529 ], [ 32060.7, 5937807.900000000372529 ], [ 32060.7, 5937807.75 ], [ 32060.775000000001455, 5937807.75 ], [ 32060.775000000001455, 5937807.674999999813735 ], [ 32060.849999999998545, 5937807.674999999813735 ], [ 32060.849999999998545, 5937807.599999999627471 ], [ 32060.925, 5937807.599999999627471 ], [ 32060.925, 5937807.375 ], [ 32061.0, 5937807.375 ], [ 32061.0, 5937807.075000000186265 ], [ 32061.075, 5937807.075000000186265 ], [ 32061.075, 5937806.700000000186265 ], [ 32061.150000000001455, 5937806.700000000186265 ], [ 32061.150000000001455, 5937806.325000000186265 ], [ 32061.224999999998545, 5937806.325000000186265 ], [ 32061.224999999998545, 5937805.875 ], [ 32061.3, 5937805.875 ], [ 32061.3, 5937805.5 ], [ 32061.375, 5937805.5 ], [ 32061.375, 5937805.125 ], [ 32061.45, 5937805.125 ], [ 32061.45, 5937804.75 ], [ 32061.525000000001455, 5937804.75 ], [ 32061.525000000001455, 5937804.375 ], [ 32061.599999999998545, 5937804.375 ], [ 32061.599999999998545, 5937804.075000000186265 ], [ 32061.675, 5937804.075000000186265 ], [ 32061.675, 5937803.775000000372529 ], [ 32061.75, 5937803.775000000372529 ], [ 32061.75, 5937803.474999999627471 ], [ 32061.825, 5937803.474999999627471 ], [ 32061.825, 5937803.25 ], [ 32061.900000000001455, 5937803.25 ], [ 32061.900000000001455, 5937802.950000000186265 ], [ 32061.974999999998545, 5937802.950000000186265 ], [ 32061.974999999998545, 5937802.724999999627471 ], [ 32062.05, 5937802.724999999627471 ], [ 32062.05, 5937802.575000000186265 ], [ 32062.125, 5937802.575000000186265 ], [ 32062.125, 5937802.424999999813735 ], [ 32062.2, 5937802.424999999813735 ], [ 32062.2, 5937802.275000000372529 ], [ 32062.275000000001455, 5937802.275000000372529 ], [ 32062.275000000001455, 5937802.200000000186265 ], [ 32062.349999999998545, 5937802.200000000186265 ], [ 32062.349999999998545, 5937802.049999999813735 ], [ 32062.425, 5937802.049999999813735 ], [ 32062.425, 5937801.974999999627471 ], [ 32062.5, 5937801.974999999627471 ], [ 32062.5, 5937801.825000000186265 ], [ 32062.575, 5937801.825000000186265 ], [ 32062.575, 5937801.75 ], [ 32062.650000000001455, 5937801.75 ], [ 32062.650000000001455, 5937801.674999999813735 ], [ 32062.724999999998545, 5937801.674999999813735 ], [ 32062.724999999998545, 5937801.599999999627471 ], [ 32062.8, 5937801.599999999627471 ], [ 32062.8, 5937801.525000000372529 ], [ 32062.875, 5937801.525000000372529 ], [ 32062.875, 5937801.375 ], [ 32062.95, 5937801.375 ], [ 32062.95, 5937801.224999999627471 ], [ 32063.025000000001455, 5937801.224999999627471 ], [ 32063.025000000001455, 5937801.075000000186265 ], [ 32063.099999999998545, 5937801.075000000186265 ], [ 32063.099999999998545, 5937800.849999999627471 ], [ 32063.175, 5937800.849999999627471 ], [ 32063.175, 5937800.700000000186265 ], [ 32063.25, 5937800.700000000186265 ], [ 32063.25, 5937800.549999999813735 ], [ 32063.325, 5937800.549999999813735 ], [ 32063.325, 5937800.400000000372529 ], [ 32063.400000000001455, 5937800.400000000372529 ], [ 32063.400000000001455, 5937800.325000000186265 ], [ 32063.474999999998545, 5937800.325000000186265 ], [ 32063.474999999998545, 5937800.174999999813735 ], [ 32063.55, 5937800.174999999813735 ], [ 32063.55, 5937800.099999999627471 ], [ 32063.625, 5937800.099999999627471 ], [ 32063.625, 5937800.025000000372529 ], [ 32063.7, 5937800.025000000372529 ], [ 32063.7, 5937799.950000000186265 ], [ 32063.775000000001455, 5937799.950000000186265 ], [ 32063.775000000001455, 5937799.875 ], [ 32063.849999999998545, 5937799.875 ], [ 32063.849999999998545, 5937799.799999999813735 ], [ 32063.925, 5937799.799999999813735 ], [ 32063.925, 5937799.724999999627471 ], [ 32064.0, 5937799.724999999627471 ], [ 32064.0, 5937799.650000000372529 ], [ 32064.075, 5937799.650000000372529 ], [ 32064.075, 5937799.575000000186265 ], [ 32064.150000000001455, 5937799.575000000186265 ], [ 32064.150000000001455, 5937799.5 ], [ 32064.3, 5937799.5 ], [ 32064.3, 5937799.424999999813735 ], [ 32064.45, 5937799.424999999813735 ], [ 32064.45, 5937799.349999999627471 ], [ 32064.599999999998545, 5937799.349999999627471 ], [ 32064.599999999998545, 5937799.275000000372529 ], [ 32064.75, 5937799.275000000372529 ], [ 32064.75, 5937799.200000000186265 ], [ 32064.900000000001455, 5937799.200000000186265 ], [ 32064.900000000001455, 5937799.125 ], [ 32064.974999999998545, 5937799.125 ], [ 32064.974999999998545, 5937799.049999999813735 ], [ 32065.125, 5937799.049999999813735 ], [ 32065.125, 5937798.974999999627471 ], [ 32065.275000000001455, 5937798.974999999627471 ], [ 32065.275000000001455, 5937798.900000000372529 ], [ 32065.349999999998545, 5937798.900000000372529 ], [ 32065.349999999998545, 5937798.825000000186265 ], [ 32065.5, 5937798.825000000186265 ], [ 32065.5, 5937798.75 ], [ 32065.575, 5937798.75 ], [ 32065.575, 5937798.674999999813735 ], [ 32065.650000000001455, 5937798.674999999813735 ], [ 32065.650000000001455, 5937798.599999999627471 ], [ 32065.724999999998545, 5937798.599999999627471 ], [ 32065.724999999998545, 5937798.525000000372529 ], [ 32065.8, 5937798.525000000372529 ], [ 32065.8, 5937798.450000000186265 ], [ 32065.875, 5937798.450000000186265 ], [ 32065.875, 5937798.375 ], [ 32065.95, 5937798.375 ], [ 32065.95, 5937798.299999999813735 ], [ 32066.099999999998545, 5937798.299999999813735 ], [ 32066.099999999998545, 5937798.224999999627471 ], [ 32066.175, 5937798.224999999627471 ], [ 32066.175, 5937798.150000000372529 ], [ 32066.325, 5937798.150000000372529 ], [ 32066.325, 5937798.075000000186265 ], [ 32066.474999999998545, 5937798.075000000186265 ], [ 32066.474999999998545, 5937798.0 ], [ 32066.55, 5937798.0 ], [ 32066.55, 5937797.924999999813735 ], [ 32066.775000000001455, 5937797.924999999813735 ], [ 32066.775000000001455, 5937797.849999999627471 ], [ 32066.925, 5937797.849999999627471 ], [ 32066.925, 5937797.775000000372529 ], [ 32067.224999999998545, 5937797.775000000372529 ], [ 32067.224999999998545, 5937797.700000000186265 ], [ 32067.45, 5937797.700000000186265 ], [ 32067.45, 5937797.625 ], [ 32067.75, 5937797.625 ], [ 32067.75, 5937797.549999999813735 ], [ 32068.05, 5937797.549999999813735 ], [ 32068.05, 5937797.474999999627471 ], [ 32068.425, 5937797.474999999627471 ], [ 32068.425, 5937797.400000000372529 ], [ 32069.099999999998545, 5937797.400000000372529 ], [ 32069.099999999998545, 5937797.474999999627471 ], [ 32069.400000000001455, 5937797.474999999627471 ], [ 32069.400000000001455, 5937797.549999999813735 ], [ 32069.775000000001455, 5937797.549999999813735 ], [ 32069.775000000001455, 5937797.625 ], [ 32070.075, 5937797.625 ], [ 32070.075, 5937797.700000000186265 ], [ 32070.3, 5937797.700000000186265 ], [ 32070.3, 5937797.775000000372529 ], [ 32070.525000000001455, 5937797.775000000372529 ], [ 32070.525000000001455, 5937797.849999999627471 ], [ 32070.75, 5937797.849999999627471 ], [ 32070.75, 5937797.924999999813735 ], [ 32070.825, 5937797.924999999813735 ], [ 32070.825, 5937798.0 ], [ 32070.974999999998545, 5937798.0 ], [ 32070.974999999998545, 5937798.075000000186265 ], [ 32071.05, 5937798.075000000186265 ], [ 32071.05, 5937798.150000000372529 ], [ 32071.125, 5937798.150000000372529 ], [ 32071.125, 5937798.224999999627471 ], [ 32071.275000000001455, 5937798.224999999627471 ], [ 32071.275000000001455, 5937798.299999999813735 ], [ 32071.349999999998545, 5937798.299999999813735 ], [ 32071.349999999998545, 5937798.375 ], [ 32071.425, 5937798.375 ], [ 32071.425, 5937798.450000000186265 ], [ 32071.5, 5937798.450000000186265 ], [ 32071.5, 5937798.525000000372529 ], [ 32071.575, 5937798.525000000372529 ], [ 32071.575, 5937798.599999999627471 ], [ 32071.650000000001455, 5937798.599999999627471 ], [ 32071.650000000001455, 5937798.674999999813735 ], [ 32071.724999999998545, 5937798.674999999813735 ], [ 32071.724999999998545, 5937798.825000000186265 ], [ 32071.8, 5937798.825000000186265 ], [ 32071.8, 5937798.900000000372529 ], [ 32071.875, 5937798.900000000372529 ], [ 32071.875, 5937798.974999999627471 ], [ 32071.95, 5937798.974999999627471 ], [ 32071.95, 5937799.049999999813735 ], [ 32072.025000000001455, 5937799.049999999813735 ], [ 32072.025000000001455, 5937799.125 ], [ 32072.099999999998545, 5937799.125 ], [ 32072.099999999998545, 5937799.200000000186265 ], [ 32072.175, 5937799.200000000186265 ], [ 32072.175, 5937799.275000000372529 ], [ 32072.25, 5937799.275000000372529 ], [ 32072.25, 5937799.349999999627471 ], [ 32072.325, 5937799.349999999627471 ], [ 32072.325, 5937799.424999999813735 ], [ 32072.400000000001455, 5937799.424999999813735 ], [ 32072.400000000001455, 5937799.5 ], [ 32072.474999999998545, 5937799.5 ], [ 32072.474999999998545, 5937799.575000000186265 ], [ 32072.55, 5937799.575000000186265 ], [ 32072.55, 5937799.650000000372529 ], [ 32072.625, 5937799.650000000372529 ], [ 32072.625, 5937799.724999999627471 ], [ 32072.7, 5937799.724999999627471 ], [ 32072.7, 5937799.799999999813735 ], [ 32072.775000000001455, 5937799.799999999813735 ], [ 32072.775000000001455, 5937799.875 ], [ 32072.925, 5937799.875 ], [ 32072.925, 5937799.950000000186265 ], [ 32073.0, 5937799.950000000186265 ], [ 32073.0, 5937800.025000000372529 ], [ 32073.075, 5937800.025000000372529 ], [ 32073.075, 5937800.099999999627471 ], [ 32073.150000000001455, 5937800.099999999627471 ], [ 32073.150000000001455, 5937800.174999999813735 ], [ 32073.224999999998545, 5937800.174999999813735 ], [ 32073.224999999998545, 5937800.25 ], [ 32073.3, 5937800.25 ], [ 32073.3, 5937800.325000000186265 ], [ 32073.375, 5937800.325000000186265 ], [ 32073.375, 5937800.400000000372529 ], [ 32073.45, 5937800.400000000372529 ], [ 32073.45, 5937800.474999999627471 ], [ 32073.525000000001455, 5937800.474999999627471 ], [ 32073.525000000001455, 5937800.549999999813735 ], [ 32073.599999999998545, 5937800.549999999813735 ], [ 32073.599999999998545, 5937800.625 ], [ 32073.675, 5937800.625 ], [ 32073.675, 5937800.775000000372529 ], [ 32073.75, 5937800.775000000372529 ], [ 32073.75, 5937800.924999999813735 ], [ 32073.825, 5937800.924999999813735 ], [ 32073.825, 5937801.150000000372529 ], [ 32073.900000000001455, 5937801.150000000372529 ], [ 32073.900000000001455, 5937801.375 ], [ 32073.974999999998545, 5937801.375 ], [ 32073.974999999998545, 5937801.599999999627471 ], [ 32074.05, 5937801.599999999627471 ], [ 32074.05, 5937801.900000000372529 ], [ 32074.125, 5937801.900000000372529 ], [ 32074.125, 5937802.275000000372529 ], [ 32074.2, 5937802.275000000372529 ], [ 32074.2, 5937802.950000000186265 ], [ 32074.125, 5937802.950000000186265 ], [ 32074.125, 5937803.25 ], [ 32074.05, 5937803.25 ], [ 32074.05, 5937803.474999999627471 ], [ 32073.974999999998545, 5937803.474999999627471 ], [ 32073.974999999998545, 5937803.700000000186265 ], [ 32073.900000000001455, 5937803.700000000186265 ], [ 32073.900000000001455, 5937803.849999999627471 ], [ 32073.825, 5937803.849999999627471 ], [ 32073.825, 5937804.0 ], [ 32073.75, 5937804.0 ], [ 32073.75, 5937804.150000000372529 ], [ 32073.675, 5937804.150000000372529 ], [ 32073.675, 5937804.224999999627471 ], [ 32073.599999999998545, 5937804.224999999627471 ], [ 32073.599999999998545, 5937804.299999999813735 ], [ 32073.525000000001455, 5937804.299999999813735 ], [ 32073.525000000001455, 5937804.375 ], [ 32073.45, 5937804.375 ], [ 32073.45, 5937804.450000000186265 ], [ 32073.375, 5937804.450000000186265 ], [ 32073.375, 5937804.525000000372529 ], [ 32073.3, 5937804.525000000372529 ], [ 32073.3, 5937804.674999999813735 ], [ 32073.224999999998545, 5937804.674999999813735 ], [ 32073.224999999998545, 5937804.75 ], [ 32073.150000000001455, 5937804.75 ], [ 32073.150000000001455, 5937804.900000000372529 ], [ 32073.075, 5937804.900000000372529 ], [ 32073.075, 5937805.049999999813735 ], [ 32073.0, 5937805.049999999813735 ], [ 32073.0, 5937805.125 ], [ 32072.925, 5937805.125 ], [ 32072.925, 5937805.200000000186265 ], [ 32072.849999999998545, 5937805.200000000186265 ], [ 32072.849999999998545, 5937805.349999999627471 ], [ 32072.775000000001455, 5937805.349999999627471 ], [ 32072.775000000001455, 5937805.424999999813735 ], [ 32072.7, 5937805.424999999813735 ], [ 32072.7, 5937805.5 ], [ 32072.625, 5937805.5 ], [ 32072.625, 5937805.724999999627471 ], [ 32072.55, 5937805.724999999627471 ], [ 32072.55, 5937805.875 ], [ 32072.474999999998545, 5937805.875 ], [ 32072.474999999998545, 5937806.025000000372529 ], [ 32072.400000000001455, 5937806.025000000372529 ], [ 32072.400000000001455, 5937806.25 ], [ 32072.325, 5937806.25 ], [ 32072.325, 5937806.400000000372529 ], [ 32072.25, 5937806.400000000372529 ], [ 32072.25, 5937806.549999999813735 ], [ 32072.175, 5937806.549999999813735 ], [ 32072.175, 5937806.775000000372529 ], [ 32072.099999999998545, 5937806.775000000372529 ], [ 32072.099999999998545, 5937806.924999999813735 ], [ 32072.025000000001455, 5937806.924999999813735 ], [ 32072.025000000001455, 5937807.075000000186265 ], [ 32071.95, 5937807.075000000186265 ], [ 32071.95, 5937807.224999999627471 ], [ 32071.875, 5937807.224999999627471 ], [ 32071.875, 5937807.375 ], [ 32071.8, 5937807.375 ], [ 32071.8, 5937807.450000000186265 ], [ 32071.724999999998545, 5937807.450000000186265 ], [ 32071.724999999998545, 5937807.525000000372529 ], [ 32071.650000000001455, 5937807.525000000372529 ], [ 32071.650000000001455, 5937807.599999999627471 ], [ 32071.575, 5937807.599999999627471 ], [ 32071.575, 5937807.674999999813735 ], [ 32071.5, 5937807.674999999813735 ], [ 32071.5, 5937807.75 ], [ 32071.425, 5937807.75 ], [ 32071.425, 5937807.825000000186265 ], [ 32071.349999999998545, 5937807.825000000186265 ], [ 32071.349999999998545, 5937807.900000000372529 ], [ 32071.2, 5937807.900000000372529 ], [ 32071.2, 5937807.974999999627471 ], [ 32071.125, 5937807.974999999627471 ], [ 32071.125, 5937808.049999999813735 ], [ 32070.974999999998545, 5937808.049999999813735 ], [ 32070.974999999998545, 5937808.125 ], [ 32070.75, 5937808.125 ], [ 32070.75, 5937808.200000000186265 ], [ 32070.525000000001455, 5937808.200000000186265 ], [ 32070.525000000001455, 5937808.275000000372529 ], [ 32070.224999999998545, 5937808.275000000372529 ], [ 32070.224999999998545, 5937808.349999999627471 ], [ 32069.925, 5937808.349999999627471 ], [ 32069.925, 5937808.424999999813735 ], [ 32069.325, 5937808.424999999813735 ], [ 32069.325, 5937808.5 ], [ 32068.8, 5937808.5 ], [ 32068.8, 5937808.575000000186265 ], [ 32068.724999999998545, 5937808.575000000186265 ], [ 32068.724999999998545, 5937808.724999999627471 ], [ 32068.650000000001455, 5937808.724999999627471 ], [ 32068.650000000001455, 5937808.875 ], [ 32068.575, 5937808.875 ], [ 32068.575, 5937809.025000000372529 ], [ 32068.5, 5937809.025000000372529 ], [ 32068.5, 5937809.099999999627471 ], [ 32068.425, 5937809.099999999627471 ], [ 32068.425, 5937809.25 ], [ 32068.349999999998545, 5937809.25 ], [ 32068.349999999998545, 5937809.325000000186265 ], [ 32068.275000000001455, 5937809.325000000186265 ], [ 32068.275000000001455, 5937809.400000000372529 ], [ 32068.2, 5937809.400000000372529 ], [ 32068.2, 5937809.474999999627471 ], [ 32068.05, 5937809.474999999627471 ], [ 32068.05, 5937809.549999999813735 ], [ 32067.900000000001455, 5937809.549999999813735 ], [ 32067.900000000001455, 5937809.625 ], [ 32067.675, 5937809.625 ], [ 32067.675, 5937809.700000000186265 ], [ 32067.45, 5937809.700000000186265 ], [ 32067.45, 5937809.775000000372529 ], [ 32067.224999999998545, 5937809.775000000372529 ], [ 32067.224999999998545, 5937809.849999999627471 ], [ 32066.925, 5937809.849999999627471 ], [ 32066.925, 5937809.924999999813735 ], [ 32066.7, 5937809.924999999813735 ], [ 32066.7, 5937810.0 ], [ 32066.474999999998545, 5937810.0 ], [ 32066.474999999998545, 5937810.075000000186265 ], [ 32066.25, 5937810.075000000186265 ], [ 32066.25, 5937810.150000000372529 ], [ 32066.025000000001455, 5937810.150000000372529 ], [ 32066.025000000001455, 5937810.224999999627471 ], [ 32065.724999999998545, 5937810.224999999627471 ], [ 32065.724999999998545, 5937810.299999999813735 ], [ 32065.349999999998545, 5937810.299999999813735 ], [ 32065.349999999998545, 5937810.375 ], [ 32064.974999999998545, 5937810.375 ], [ 32064.974999999998545, 5937810.450000000186265 ], [ 32064.825, 5937810.450000000186265 ], [ 32064.825, 5937810.525000000372529 ], [ 32064.75, 5937810.525000000372529 ], [ 32064.75, 5937810.75 ], [ 32064.675, 5937810.75 ], [ 32064.675, 5937810.825000000186265 ], [ 32064.599999999998545, 5937810.825000000186265 ], [ 32064.599999999998545, 5937810.974999999627471 ], [ 32064.525000000001455, 5937810.974999999627471 ], [ 32064.525000000001455, 5937811.125 ], [ 32064.45, 5937811.125 ], [ 32064.45, 5937811.200000000186265 ], [ 32064.375, 5937811.200000000186265 ], [ 32064.375, 5937811.275000000372529 ], [ 32064.3, 5937811.275000000372529 ], [ 32064.3, 5937811.349999999627471 ], [ 32064.224999999998545, 5937811.349999999627471 ], [ 32064.224999999998545, 5937811.424999999813735 ], [ 32064.150000000001455, 5937811.424999999813735 ], [ 32064.150000000001455, 5937811.5 ], [ 32064.0, 5937811.5 ], [ 32064.0, 5937811.575000000186265 ], [ 32063.925, 5937811.575000000186265 ], [ 32063.925, 5937811.650000000372529 ], [ 32063.775000000001455, 5937811.650000000372529 ], [ 32063.775000000001455, 5937811.724999999627471 ], [ 32063.625, 5937811.724999999627471 ], [ 32063.625, 5937811.799999999813735 ], [ 32063.400000000001455, 5937811.799999999813735 ], [ 32063.400000000001455, 5937811.875 ], [ 32063.175, 5937811.875 ], [ 32063.175, 5937811.950000000186265 ], [ 32062.575, 5937811.950000000186265 ] ] ] } }
]
}
