{
"type": "FeatureCollection",
"name": "32433E591807N_buildings",
"crs": { "type": "name", "properties": { "name": "urn:ogc:def:crs:EPSG::3776" } },
"features": [
{ "type": "Feature", "properties": { "value": 1.0, "building_id": 0, "area": 449.58937500009608 }, "geometry": { "type": "Polygon", "coordinates": [ [ [ 32859.67500000000291, 5918107.049999999813735 ], [ 32859.67500000000291, 5918106.974999999627471 ], [ 32859.599999999998545, 5918106.974999999627471 ], [ 32859.599999999998545, 5918106.900000000372529 ], [ 32859.44999999999709, 5918106.900000000372529 ], [ 32859.44999999999709, 5918106.825000000186265 ], [ 32859.375, 5918106.825000000186265 ], [ 32859.375, 5918106.75 ], [ 32859.30000000000291, 5918106.75 ], [ 32859.30000000000291, 5918106.674999999813735 ], [ 32859.224999999998545, 5918106.674999999813735 ], [ 32859.224999999998545, 5918106.599999999627471 ], [ 32859.150000000001455, 5918106.599999999627471 ], [ 32859.150000000001455, 5918106.525000000372529 ], [ 32859.07499999999709, 5918106.525000000372529 ], [ 32859.07499999999709, 5918106.450000000186265 ], [ 32859.0, 5918106.450000000186265 ], [ 32859.0, 5918106.375 ], [ 32858.92500000000291, 5918106.375 ], [ 32858.92500000000291, 5918106.299999999813735 ], [ 32858.849999999998545, 5918106.299999999813735 ], [ 32858.849999999998545, 5918106.150000000372529 ], [ 32858.775000000001455, 5918106.150000000372529 ], [ 32858.775000000001455, 5918106.075000000186265 ], [ 32858.69999999999709, 5918106.075000000186265 ], [ 32858.69999999999709, 5918105.924999999813735 ], [ 32858.625, 5918105.924999999813735 ], [ 32858.625, 5918105.775000000372529 ], [ 32858.55000000000291, 5918105.775000000372529 ], [ 32858.55000000000291, 5918105.625 ], [ 32858.474999999998545, 5918105.625 ], [ 32858.474999999998545, 5918105.400000000372529 ], [ 32858.400000000001455, 5918105.400000000372529 ], [ 32858.400000000001455, 5918105.25 ], [ 32858.32499999999709, 5918105.25 ], [ 32858.32499999999709, 5918105.099999999627471 ], [ 32858.25, 5918105.099999999627471 ], [ 32858.25, 5918104.950000000186265 ], [ 32858.17500000000291, 5918104.950000000186265 ], [ 32858.17500000000291, 5918104.875 ], [ 32858.099999999998545, 5918104.875 ], [ 32858.099999999998545, 5918104.724999999627471 ], [ 32858.025000000001455, 5918104.724999999627471 ], [ 32858.025000000001455, 5918104.650000000372529 ], [ 32857.94999999999709, 5918104.650000000372529 ], [ 32857.94999999999709, 5918104.575000000186265 ], [ 32857.875, 5918104.575000000186265 ], [ 32857.875, 5918104.424999999813735 ], [ 32857.80000000000291, 5918104.424999999813735 ], [ 32857.80000000000291, 5918104.349999999627471 ], [ 32857.724999999998545, 5918104.349999999627471 ], [ 32857.724999999998545, 5918104.275000000372529 ], [ 32857.650000000001455, 5918104.275000000372529 ], [ 32857.650000000001455, 5918104.125 ], [ 32857.57499999999709, 5918104.125 ], [ 32857.57499999999709, 5918104.049999999813735 ], [ 32857.5, 5918104.049999999813735 ], [ 32857.5, 5918103.900000000372529 ], [ 32857.42500000000291, 5918103.900000000372529 ], [ 32857.42500000000291, 5918103.825000000186265 ], [ 32857.349999999998545, 5918103.825000000186265 ], [ 32857.349999999998545, 5918103.674999999813735 ], [ 32857.275000000001455, 5918103.674999999813735 ], [ 32857.275000000001455, 5918103.525000000372529 ], [ 32857.19999999999709, 5918103.525000000372529 ], [ 32857.19999999999709, 5918103.299999999813735 ], [ 32857.125, 5918103.299999999813735 ], [ 32857.125, 5918103.0 ], [ 32857.05000000000291, 5918103.0 ], [ 32857.05000000000291, 5918102.700000000186265 ], [ 32856.974999999998545, 5918102.700000000186265 ], [ 32856.974999999998545, 5918102.400000000372529 ], [ 32856.900000000001455, 5918102.400000000372529 ], [ 32856.900000000001455, 5918102.025000000372529 ], [ 32856.82499999999709, 5918102.025000000372529 ], [ 32856.82499999999709, 5918101.575000000186265 ], [ 32856.75, 5918101.575000000186265 ], [ 32856.75, 5918100.674999999813735 ], [ 32856.67500000000291, 5918100.674999999813735 ], [ 32856.67500000000291, 5918099.549999999813735 ], [ 32856.599999999998545, 5918099.549999999813735 ], [ 32856.599999999998545, 5918098.724999999627471 ], [ 32856.525000000001455, 5918098.724999999627471 ], [ 32856.525000000001455, 5918097.974999999627471 ], [ 32856.44999999999709, 5918097.974999999627471 ], [ 32856.44999999999709, 5918097.375 ], [ 32856.375, 5918097.375 ], [ 32856.375, 5918097.075000000186265 ], [ 32856.30000000000291, 5918097.075000000186265 ], [ 32856.30000000000291, 5918096.700000000186265 ], [ 32856.224999999998545, 5918096.700000000186265 ], [ 32856.224999999998545, 5918096.400000000372529 ], [ 32856.150000000001455, 5918096.400000000372529 ], [ 32856.150000000001455, 5918096.099999999627471 ], [ 32856.07499999999709, 5918096.099999999627471 ], [ 32856.07499999999709, 5918095.875 ], [ 32856.0, 5918095.875 ], [ 32856.0, 5918095.650000000372529 ], [ 32855.92500000000291, 5918095.650000000372529 ], [ 32855.92500000000291, 5918095.5 ], [ 32855.849999999998545, 5918095.5 ], [ 32855.849999999998545, 5918095.424999999813735 ], [ 32855.775000000001455, 5918095.424999999813735 ], [ 32855.775000000001455, 5918095.349999999627471 ], [ 32855.625, 5918095.349999999627471 ], [ 32855.625, 5918095.275000000372529 ], [ 32855.55000000000291, 5918095.275000000372529 ], [ 32855.55000000000291, 5918095.200000000186265 ], [ 32855.474999999998545, 5918095.200000000186265 ], [ 32855.474999999998545, 5918095.125 ], [ 32855.400000000001455, 5918095.125 ], [ 32855.400000000001455, 5918095.049999999813735 ], [ 32855.32499999999709, 5918095.049999999813735 ], [ 32855.32499999999709, 5918094.974999999627471 ], [ 32855.25, 5918094.974999999627471 ], [ 32855.25, 5918094.825000000186265 ], [ 32855.17500000000291, 5918094.825000000186265 ], [ 32855.17500000000291, 5918094.75 ], [ 32855.099999999998545, 5918094.75 ], [ 32855.099999999998545, 5918094.674999999813735 ], [ 32855.025000000001455, 5918094.674999999813735 ], [ 32855.025000000001455, 5918094.599999999627471 ], [ 32854.94999999999709, 5918094.599999999627471 ], [ 32854.94999999999709, 5918094.450000000186265 ], [ 32854.875, 5918094.450000000186265 ], [ 32854.875, 5918094.375 ], [ 32854.80000000000291, 5918094.375 ], [ 32854.80000000000291, 5918094.224999999627471 ], [ 32854.724999999998545, 5918094.224999999627471 ], [ 32854.724999999998545, 5918094.075000000186265 ], [ 32854.650000000001455, 5918094.075000000186265 ], [ 32854.650000000001455, 5918094.0 ], [ 32854.57499999999709, 5918094.0 ], [ 32854.57499999999709, 5918093.849999999627471 ], [ 32854.5, 5918093.849999999627471 ], [ 32854.5, 5918093.700000000186265 ], [ 32854.42500000000291, 5918093.700000000186265 ], [ 32854.42500000000291, 5918093.549999999813735 ], [ 32854.349999999998545, 5918093.549999999813735 ], [ 32854.349999999998545, 5918093.474999999627471 ], [ 32854.275000000001455, 5918093.474999999627471 ], [ 32854.275000000001455, 5918093.400000000372529 ], [ 32854.19999999999709, 5918093.400000000372529 ], [ 32854.19999999999709, 5918093.325000000186265 ], [ 32854.125, 5918093.325000000186265 ], [ 32854.125, 5918093.25 ], [ 32853.974999999998545, 5918093.25 ], [ 32853.974999999998545, 5918093.174999999813735 ], [ 32853.900000000001455, 5918093.174999999813735 ], [ 32853.900000000001455, 5918093.099999999627471 ], [ 32853.67500000000291, 5918093.099999999627471 ], [ 32853.67500000000291, 5918093.025000000372529 ], [ 32853.525000000001455, 5918093.025000000372529 ], [ 32853.525000000001455, 5918092.950000000186265 ], [ 32853.375, 5918092.950000000186265 ], [ 32853.375, 5918092.875 ], [ 32853.150000000001455, 5918092.875 ], [ 32853.150000000001455, 5918092.799999999813735 ], [ 32853.0, 5918092.799999999813735 ], [ 32853.0, 5918092.724999999627471 ], [ 32852.775000000001455, 5918092.724999999627471 ], [ 32852.775000000001455, 5918092.650000000372529 ], [ 32852.625, 5918092.650000000372529 ], [ 32852.625, 5918092.575000000186265 ], [ 32852.400000000001455, 5918092.575000000186265 ], [ 32852.400000000001455, 5918092.5 ], [ 32852.25, 5918092.5 ], [ 32852.25, 5918092.424999999813735 ], [ 32852.099999999998545, 5918092.424999999813735 ], [ 32852.099999999998545, 5918092.349999999627471 ], [ 32851.875, 5918092.349999999627471 ], [ 32851.875, 5918092.275000000372529 ], [ 32851.80000000000291, 5918092.275000000372529 ], [ 32851.80000000000291, 5918092.200000000186265 ], [ 32851.650000000001455, 5918092.200000000186265 ], [ 32851.650000000001455, 5918092.125 ], [ 32851.57499999999709, 5918092.125 ], [ 32851.57499999999709, 5918092.049999999813735 ], [ 32851.42500000000291, 5918092.049999999813735 ], [ 32851.42500000000291, 5918091.974999999627471 ], [ 32851.349999999998545, 5918091.974999999627471 ], [ 32851.349999999998545, 5918091.900000000372529 ], [ 32851.275000000001455, 5918091.900000000372529 ], [ 32851.275000000001455, 5918091.825000000186265 ], [ 32851.19999999999709, 5918091.825000000186265 ], [ 32851.19999999999709, 5918091.75 ], [ 32851.125, 5918091.75 ], [ 32851.125, 5918091.674999999813735 ], [ 32851.05000000000291, 5918091.674999999813735 ], [ 32851.05000000000291, 5918091.599999999627471 ], [ 32850.900000000001455, 5918091.599999999627471 ], [ 32850.900000000001455, 5918091.525000000372529 ], [ 32850.82499999999709, 5918091.525000000372529 ], [ 32850.82499999999709, 5918091.450000000186265 ], [ 32850.75, 5918091.450000000186265 ], [ 32850.75, 5918091.375 ], [ 32850.599999999998545, 5918091.375 ], [ 32850.599999999998545, 5918091.299999999813735 ], [ 32850.525000000001455, 5918091.299999999813735 ], [ 32850.525000000001455, 5918091.224999999627471 ], [ 32850.375, 5918091.224999999627471 ], [ 32850.375, 5918091.150000000372529 ], [ 32850.224999999998545, 5918091.150000000372529 ], [ 32850.224999999998545, 5918091.075000000186265 ], [ 32850.07499999999709, 5918091.075000000186265 ], [ 32850.07499999999709, 5918091.0 ], [ 32849.849999999998545, 5918091.0 ], [ 32849.849999999998545, 5918090.924999999813735 ], [ 32849.69999999999709, 5918090.924999999813735 ], [ 32849.69999999999709, 5918090.849999999627471 ], [ 32849.474999999998545, 5918090.849999999627471 ], [ 32849.474999999998545, 5918090.775000000372529 ], [ 32849.32499999999709, 5918090.775000000372529 ], [ 32849.32499999999709, 5918090.700000000186265 ], [ 32849.25, 5918090.700000000186265 ], [ 32849.25, 5918090.625 ], [ 32849.099999999998545, 5918090.625 ], [ 32849.099999999998545, 5918090.549999999813735 ], [ 32849.025000000001455, 5918090.549999999813735 ], [ 32849.025000000001455, 5918090.474999999627471 ], [ 32848.94999999999709, 5918090.474999999627471 ], [ 32848.94999999999709, 5918090.400000000372529 ], [ 32848.875, 5918090.400000000372529 ], [ 32848.875, 5918090.325000000186265 ], [ 32848.80000000000291, 5918090.325000000186265 ], [ 32848.80000000000291, 5918090.25 ], [ 32848.724999999998545, 5918090.25 ], [ 32848.724999999998545, 5918090.174999999813735 ], [ 32848.650000000001455, 5918090.174999999813735 ], [ 32848.650000000001455, 5918090.099999999627471 ], [ 32848.57499999999709, 5918090.099999999627471 ], [ 32848.57499999999709, 5918089.950000000186265 ], [ 32848.5, 5918089.950000000186265 ], [ 32848.5, 5918089.799999999813735 ], [ 32848.42500000000291, 5918089.799999999813735 ], [ 32848.42500000000291, 5918089.724999999627471 ], [ 32848.349999999998545, 5918089.724999999627471 ], [ 32848.349999999998545, 5918089.575000000186265 ], [ 32848.275000000001455, 5918089.575000000186265 ], [ 32848.275000000001455, 5918089.5 ], [ 32848.19999999999709, 5918089.5 ], [ 32848.19999999999709, 5918089.424999999813735 ], [ 32848.125, 5918089.424999999813735 ], [ 32848.125, 5918089.349999999627471 ], [ 32848.05000000000291, 5918089.349999999627471 ], [ 32848.05000000000291, 5918089.275000000372529 ], [ 32847.900000000001455, 5918089.275000000372529 ], [ 32847.900000000001455, 5918089.200000000186265 ], [ 32847.82499999999709, 5918089.200000000186265 ], [ 32847.82499999999709, 5918089.125 ], [ 32847.75, 5918089.125 ], [ 32847.75, 5918089.049999999813735 ], [ 32847.599999999998545, 5918089.049999999813735 ], [ 32847.599999999998545, 5918088.974999999627471 ], [ 32847.525000000001455, 5918088.974999999627471 ], [ 32847.525000000001455, 5918088.900000000372529 ], [ 32847.44999999999709, 5918088.900000000372529 ], [ 32847.44999999999709, 5918088.825000000186265 ], [ 32847.375, 5918088.825000000186265 ], [ 32847.375, 5918088.674999999813735 ], [ 32847.30000000000291, 5918088.674999999813735 ], [ 32847.30000000000291, 5918088.599999999627471 ], [ 32847.224999999998545, 5918088.599999999627471 ], [ 32847.224999999998545, 5918088.525000000372529 ], [ 32847.150000000001455, 5918088.525000000372529 ], [ 32847.150000000001455, 5918088.375 ], [ 32847.07499999999709, 5918088.375 ], [ 32847.07499999999709, 5918088.224999999627471 ], [ 32847.0, 5918088.224999999627471 ], [ 32847.0, 5918088.075000000186265 ], [ 32846.92500000000291, 5918088.075000000186265 ], [ 32846.92500000000291, 5918087.924999999813735 ], [ 32846.849999999998545, 5918087.924999999813735 ], [ 32846.849999999998545, 5918087.625 ], [ 32846.775000000001455, 5918087.625 ], [ 32846.775000000001455, 5918087.099999999627471 ], [ 32846.69999999999709, 5918087.099999999627471 ], [ 32846.69999999999709, 5918086.5 ], [ 32846.625, 5918086.5 ], [ 32846.625, 5918085.974999999627471 ], [ 32846.55000000000291, 5918085.974999999627471 ], [ 32846.55000000000291, 5918085.525000000372529 ], [ 32846.474999999998545, 5918085.525000000372529 ], [ 32846.474999999998545, 5918085.150000000372529 ], [ 32846.400000000001455, 5918085.150000000372529 ], [ 32846.400000000001455, 5918084.849999999627471 ], [ 32846.32499999999709, 5918084.849999999627471 ], [ 32846.32499999999709, 5918084.549999999813735 ], [ 32846.25, 5918084.549999999813735 ], [ 32846.25, 5918084.25 ], [ 32846.17500000000291, 5918084.25 ], [ 32846.17500000000291, 5918084.025000000372529 ], [ 32846.099999999998545, 5918084.025000000372529 ], [ 32846.099999999998545, 5918083.799999999813735 ], [ 32846.025000000001455, 5918083.799999999813735 ], [ 32846.025000000001455, 5918083.650000000372529 ], [ 32845.94999999999709, 5918083.650000000372529 ], [ 32845.94999999999709, 5918083.424999999813735 ], [ 32845.875, 5918083.424999999813735 ], [ 32845.875, 5918083.200000000186265 ], [ 32845.80000000000291, 5918083.200000000186265 ], [ 32845.80000000000291, 5918082.974999999627471 ], [ 32845.724999999998545, 5918082.974999999627471 ], [ 32845.724999999998545, 5918082.75 ], [ 32845.650000000001455, 5918082.75 ], [ 32845.650000000001455, 5918082.450000000186265 ], [ 32845.57499999999709, 5918082.450000000186265 ], [ 32845.57499999999709, 5918082.150000000372529 ], [ 32845.5, 5918082.150000000372529 ], [ 32845.5, 5918079.0 ], [ 32866.724999999998545, 5918079.0 ], [ 32866.724999999998545, 5918082.299999999813735 ], [ 32866.80000000000291, 5918082.299999999813735 ], [ 32866.80000000000291, 5918084.325000000186265 ], [ 32866.875, 5918084.325000000186265 ], [ 32866.875, 5918085.299999999813735 ], [ 32866.94999999999709, 5918085.299999999813735 ], [ 32866.94999999999709, 5918086.049999999813735 ], [ 32867.025000000001455, 5918086.049999999813735 ], [ 32867.025000000001455, 5918086.575000000186265 ], [ 32867.099999999998545, 5918086.575000000186265 ], [ 32867.099999999998545, 5918087.099999999627471 ], [ 32867.17500000000291, 5918087.099999999627471 ], [ 32867.17500000000291, 5918087.474999999627471 ], [ 32867.25, 5918087.474999999627471 ], [ 32867.25, 5918087.849999999627471 ], [ 32867.32499999999709, 5918087.849999999627471 ], [ 32867.32499999999709, 5918088.0 ], [ 32867.400000000001455, 5918088.0 ], [ 32867.400000000001455, 5918088.224999999627471 ], [ 32867.474999999998545, 5918088.224999999627471 ], [ 32867.474999999998545, 5918088.375 ], [ 32867.55000000000291, 5918088.375 ], [ 32867.55000000000291, 5918088.525000000372529 ], [ 32867.625, 5918088.525000000372529 ], [ 32867.625, 5918088.599999999627471 ], [ 32867.775000000001455, 5918088.599999999627471 ], [ 32867.775000000001455, 5918088.674999999813735 ], [ 32867.849999999998545, 5918088.674999999813735 ], [ 32867.849999999998545, 5918088.75 ], [ 32867.92500000000291, 5918088.75 ], [ 32867.92500000000291, 5918088.825000000186265 ], [ 32868.07499999999709, 5918088.825000000186265 ], [ 32868.07499999999709, 5918088.900000000372529 ], [ 32868.224999999998545, 5918088.900000000372529 ], [ 32868.224999999998545, 5918088.974999999627471 ], [ 32868.30000000000291, 5918088.974999999627471 ], [ 32868.30000000000291, 5918089.049999999813735 ], [ 32868.44999999999709, 5918089.049999999813735 ], [ 32868.44999999999709, 5918089.125 ], [ 32868.599999999998545, 5918089.125 ], [ 32868.599999999998545, 5918089.200000000186265 ], [ 32868.75, 5918089.200000000186265 ], [ 32868.75, 5918089.275000000372529 ], [ 32868.900000000001455, 5918089.275000000372529 ], [ 32868.900000000001455, 5918089.349999999627471 ], [ 32869.05000000000291, 5918089.349999999627471 ], [ 32869.05000000000291, 5918089.424999999813735 ], [ 32869.19999999999709, 5918089.424999999813735 ], [ 32869.19999999999709, 5918089.5 ], [ 32869.349999999998545, 5918089.5 ], [ 32869.349999999998545, 5918089.575000000186265 ], [ 32869.57499999999709, 5918089.575000000186265 ], [ 32869.57499999999709, 5918089.650000000372529 ], [ 32869.724999999998545, 5918089.650000000372529 ], [ 32869.724999999998545, 5918089.724999999627471 ], [ 32869.875, 5918089.724999999627471 ], [ 32869.875, 5918089.799999999813735 ], [ 32870.025000000001455, 5918089.799999999813735 ], [ 32870.025000000001455, 5918089.875 ], [ 32870.17500000000291, 5918089.875 ], [ 32870.17500000000291, 5918089.950000000186265 ], [ 32870.25, 5918089.950000000186265 ], [ 32870.25, 5918090.025000000372529 ], [ 32870.400000000001455, 5918090.025000000372529 ], [ 32870.400000000001455, 5918090.099999999627471 ], [ 32870.474999999998545, 5918090.099999999627471 ], [ 32870.474999999998545, 5918090.174999999813735 ], [ 32870.625, 5918090.174999999813735 ], [ 32870.625, 5918090.25 ], [ 32870.69999999999709, 5918090.25 ], [ 32870.69999999999709, 5918090.325000000186265 ], [ 32870.849999999998545, 5918090.325000000186265 ], [ 32870.849999999998545, 5918090.400000000372529 ], [ 32870.92500000000291, 5918090.400000000372529 ], [ 32870.92500000000291, 5918090.474999999627471 ], [ 32871.07499999999709, 5918090.474999999627471 ], [ 32871.07499999999709, 5918090.549999999813735 ], [ 32871.150000000001455, 5918090.549999999813735 ], [ 32871.150000000001455, 5918090.625 ], [ 32871.30000000000291, 5918090.625 ], [ 32871.30000000000291, 5918090.700000000186265 ], [ 32871.375, 5918090.700000000186265 ], [ 32871.375, 5918090.775000000372529 ], [ 32871.525000000001455, 5918090.775000000372529 ], [ 32871.525000000001455, 5918090.849999999627471 ], [ 32871.67500000000291, 5918090.849999999627471 ], [ 32871.67500000000291, 5918090.924999999813735 ], [ 32871.82499999999709, 5918090.924999999813735 ], [ 32871.82499999999709, 5918091.0 ], [ 32871.974999999998545, 5918091.0 ], [ 32871.974999999998545, 5918091.075000000186265 ], [ 32872.05000000000291, 5918091.075000000186265 ], [ 32872.05000000000291, 5918091.150000000372529 ], [ 32872.19999999999709, 5918091.150000000372529 ], [ 32872.19999999999709, 5918091.224999999627471 ], [ 32872.349999999998545, 5918091.224999999627471 ], [ 32872.349999999998545, 5918091.299999999813735 ], [ 32872.5, 5918091.299999999813735 ], [ 32872.5, 5918091.375 ], [ 32872.57499999999709, 5918091.375 ], [ 32872.57499999999709, 5918091.450000000186265 ], [ 32872.724999999998545, 5918091.450000000186265 ], [ 32872.724999999998545, 5918091.525000000372529 ], [ 32872.875, 5918091.525000000372529 ], [ 32872.875, 5918091.599999999627471 ], [ 32872.94999999999709, 5918091.599999999627471 ], [ 32872.94999999999709, 5918091.674999999813735 ], [ 32873.025000000001455, 5918091.674999999813735 ], [ 32873.025000000001455, 5918091.75 ], [ 32872.80000000000291, 5918091.75 ], [ 32872.80000000000291, 5918091.825000000186265 ], [ 32872.650000000001455, 5918091.825000000186265 ], [ 32872.650000000001455, 5918091.900000000372529 ], [ 32872.5, 5918091.900000000372529 ], [ 32872.5, 5918091.974999999627471 ], [ 32872.349999999998545, 5918091.974999999627471 ], [ 32872.349999999998545, 5918092.049999999813735 ], [ 32872.19999999999709, 5918092.049999999813735 ], [ 32872.19999999999709, 5918092.125 ], [ 32872.125, 5918092.125 ], [ 32872.125, 5918092.200000000186265 ], [ 32871.974999999998545, 5918092.200000000186265 ], [ 32871.974999999998545, 5918092.275000000372529 ], [ 32871.900000000001455, 5918092.275000000372529 ], [ 32871.900000000001455, 5918092.349999999627471 ], [ 32871.82499999999709, 5918092.349999999627471 ], [ 32871.82499999999709, 5918092.424999999813735 ], [ 32871.67500000000291, 5918092.424999999813735 ], [ 32871.67500000000291, 5918092.5 ], [ 32871.599999999998545, 5918092.5 ], [ 32871.599999999998545, 5918092.575000000186265 ], [ 32871.525000000001455, 5918092.575000000186265 ], [ 32871.525000000001455, 5918092.650000000372529 ], [ 32871.44999999999709, 5918092.650000000372529 ], [ 32871.44999999999709, 5918092.799999999813735 ], [ 32871.375, 5918092.799999999813735 ], [ 32871.375, 5918092.875 ], [ 32871.30000000000291, 5918092.875 ], [ 32871.30000000000291, 5918092.950000000186265 ], [ 32871.224999999998545, 5918092.950000000186265 ], [ 32871.224999999998545, 5918093.099999999627471 ], [ 32871.150000000001455, 5918093.099999999627471 ], [ 32871.150000000001455, 5918093.25 ], [ 32871.07499999999709, 5918093.25 ], [ 32871.07499999999709, 5918093.400000000372529 ], [ 32871.0, 5918093.400000000372529 ], [ 32871.0, 5918093.549999999813735 ], [ 32870.92500000000291, 5918093.549999999813735 ], [ 32870.92500000000291, 5918093.775000000372529 ], [ 32870.849999999998545, 5918093.775000000372529 ], [ 32870.849999999998545, 5918094.0 ], [ 32870.775000000001455, 5918094.0 ], [ 32870.775000000001455, 5918094.224999999627471 ], [ 32870.69999999999709, 5918094.224999999627471 ], [ 32870.69999999999709, 5918094.450000000186265 ], [ 32870.625, 5918094.450000000186265 ], [ 32870.625, 5918094.825000000186265 ], [ 32870.55000000000291, 5918094.825000000186265 ], [ 32870.55000000000291, 5918095.125 ], [ 32870.474999999998545, 5918095.125 ], [ 32870.474999999998545, 5918095.575000000186265 ], [ 32870.400000000001455, 5918095.575000000186265 ], [ 32870.400000000001455, 5918096.400000000372529 ], [ 32870.32499999999709, 5918096.400000000372529 ], [ 32870.32499999999709, 5918097.375 ], [ 32870.25, 5918097.375 ], [ 32870.25, 5918097.674999999813735 ], [ 32870.17500000000291, 5918097.674999999813735 ], [ 32870.17500000000291, 5918097.900000000372529 ], [ 32870.099999999998545, 5918097.900000000372529 ], [ 32870.099999999998545, 5918098.049999999813735 ], [ 32870.025000000001455, 5918098.049999999813735 ], [ 32870.025000000001455, 5918098.200000000186265 ], [ 32869.94999999999709, 5918098.200000000186265 ], [ 32869.94999999999709, 5918098.349999999627471 ], [ 32869.875, 5918098.349999999627471 ], [ 32869.875, 5918098.424999999813735 ], [ 32869.80000000000291, 5918098.424999999813735 ], [ 32869.80000000000291, 5918098.575000000186265 ], [ 32869.724999999998545, 5918098.575000000186265 ], [ 32869.724999999998545, 5918098.650000000372529 ], [ 32869.650000000001455, 5918098.650000000372529 ], [ 32869.650000000001455, 5918098.799999999813735 ], [ 32869.57499999999709, 5918098.799999999813735 ], [ 32869.57499999999709, 5918098.875 ], [ 32869.5, 5918098.875 ], [ 32869.5, 5918098.950000000186265 ], [ 32869.42500000000291, 5918098.950000000186265 ], [ 32869.42500000000291, 5918099.025000000372529 ], [ 32869.349999999998545, 5918099.025000000372529 ], [ 32869.349999999998545, 5918099.174999999813735 ], [ 32869.275000000001455, 5918099.174999999813735 ], [ 32869.275000000001455, 5918099.25 ], [ 32869.19999999999709, 5918099.25 ], [ 32869.19999999999709, 5918099.400000000372529 ], [ 32869.125, 5918099.400000000372529 ], [ 32869.125, 5918099.549999999813735 ], [ 32869.05000000000291, 5918099.549999999813735 ], [ 32869.05000000000291, 5918099.700000000186265 ], [ 32868.974999999998545, 5918099.700000000186265 ], [ 32868.974999999998545, 5918099.775000000372529 ], [ 32868.900000000001455, 5918099.775000000372529 ], [ 32868.900000000001455, 5918099.924999999813735 ], [ 32868.82499999999709, 5918099.924999999813735 ], [ 32868.82499999999709, 5918100.075000000186265 ], [ 32868.75, 5918100.075000000186265 ], [ 32868.75, 5918100.299999999813735 ], [ 32868.67500000000291, 5918100.299999999813735 ], [ 32868.67500000000291, 5918100.450000000186265 ], [ 32868.599999999998545, 5918100.450000000186265 ], [ 32868.599999999998545, 5918100.599999999627471 ], [ 32868.525000000001455, 5918100.599999999627471 ], [ 32868.525000000001455, 5918100.75 ], [ 32868.44999999999709, 5918100.75 ], [ 32868.44999999999709, 5918100.900000000372529 ], [ 32868.375, 5918100.900000000372529 ], [ 32868.375, 5918101.125 ], [ 32868.30000000000291, 5918101.125 ], [ 32868.30000000000291, 5918101.275000000372529 ], [ 32868.224999999998545, 5918101.275000000372529 ], [ 32868.224999999998545, 5918101.424999999813735 ], [ 32868.150000000001455, 5918101.424999999813735 ], [ 32868.150000000001455, 5918101.575000000186265 ], [ 32868.07499999999709, 5918101.575000000186265 ], [ 32868.07499999999709, 5918101.650000000372529 ], [ 32868.0, 5918101.650000000372529 ], [ 32868.0, 5918101.799999999813735 ], [ 32867.92500000000291, 5918101.799999999813735 ], [ 32867.92500000000291, 5918101.875 ], [ 32867.849999999998545, 5918101.875 ], [ 32867.849999999998545, 5918101.950000000186265 ], [ 32867.775000000001455, 5918101.950000000186265 ], [ 32867.775000000001455, 5918102.025000000372529 ], [ 32867.69999999999709, 5918102.025000000372529 ], [ 32867.69999999999709, 5918102.099999999627471 ], [ 32867.55000000000291, 5918102.099999999627471 ], [ 32867.55000000000291, 5918102.174999999813735 ], [ 32867.474999999998545, 5918102.174999999813735 ], [ 32867.474999999998545, 5918102.25 ], [ 32867.400000000001455, 5918102.25 ], [ 32867.400000000001455, 5918102.325000000186265 ], [ 32867.25, 5918102.325000000186265 ], [ 32867.25, 5918102.400000000372529 ], [ 32867.17500000000291, 5918102.400000000372529 ], [ 32867.17500000000291, 5918102.474999999627471 ], [ 32867.099999999998545, 5918102.474999999627471 ], [ 32867.099999999998545, 5918102.549999999813735 ], [ 32867.025000000001455, 5918102.549999999813735 ], [ 32867.025000000001455, 5918102.625 ], [ 32866.94999999999709, 5918102.625 ], [ 32866.94999999999709, 5918102.700000000186265 ], [ 32866.875, 5918102.700000000186265 ], [ 32866.875, 5918102.775000000372529 ], [ 32866.80000000000291, 5918102.775000000372529 ], [ 32866.80000000000291, 5918102.849999999627471 ], [ 32866.724999999998545, 5918102.849999999627471 ], [ 32866.724999999998545, 5918103.0 ], [ 32866.650000000001455, 5918103.0 ], [ 32866.650000000001455, 5918103.075000000186265 ], [ 32866.57499999999709, 5918103.075000000186265 ], [ 32866.57499999999709, 5918103.150000000372529 ], [ 32866.5, 5918103.150000000372529 ], [ 32866.5, 5918103.299999999813735 ], [ 32866.42500000000291, 5918103.299999999813735 ], [ 32866.42500000000291, 5918103.450000000186265 ], [ 32866.349999999998545, 5918103.450000000186265 ], [ 32866.349999999998545, 5918103.525000000372529 ], [ 32866.275000000001455, 5918103.525000000372529 ], [ 32866.275000000001455, 5918103.674999999813735 ], [ 32866.19999999999709, 5918103.674999999813735 ], [ 32866.19999999999709, 5918103.75 ], [ 32866.125, 5918103.75 ], [ 32866.125, 5918103.825000000186265 ], [ 32866.05000000000291, 5918103.825000000186265 ], [ 32866.05000000000291, 5918103.900000000372529 ], [ 32865.974999999998545, 5918103.900000000372529 ], [ 32865.974999999998545, 5918103.974999999627471 ], [ 32865.900000000001455, 5918103.974999999627471 ], [ 32865.900000000001455, 5918104.049999999813735 ], [ 32865.82499999999709, 5918104.049999999813735 ], [ 32865.82499999999709, 5918104.125 ], [ 32865.75, 5918104.125 ], [ 32865.75, 5918104.200000000186265 ], [ 32865.67500000000291, 5918104.200000000186265 ], [ 32865.67500000000291, 5918104.275000000372529 ], [ 32865.525000000001455, 5918104.275000000372529 ], [ 32865.525000000001455, 5918104.349999999627471 ], [ 32865.30000000000291, 5918104.349999999627471 ], [ 32865.30000000000291, 5918104.424999999813735 ], [ 32865.150000000001455, 5918104.424999999813735 ], [ 32865.150000000001455, 5918104.5 ], [ 32864.92500000000291, 5918104.5 ], [ 32864.92500000000291, 5918104.575000000186265 ], [ 32864.775000000001455, 5918104.575000000186265 ], [ 32864.775000000001455, 5918104.650000000372529 ], [ 32864.55000000000291, 5918104.650000000372529 ], [ 32864.55000000000291, 5918104.724999999627471 ], [ 32864.400000000001455, 5918104.724999999627471 ], [ 32864.400000000001455, 5918104.799999999813735 ], [ 32864.25, 5918104.799999999813735 ], [ 32864.25, 5918104.875 ], [ 32864.099999999998545, 5918104.875 ], [ 32864.099999999998545, 5918104.950000000186265 ], [ 32863.94999999999709, 5918104.950000000186265 ], [ 32863.94999999999709, 5918105.025000000372529 ], [ 32863.80000000000291, 5918105.025000000372529 ], [ 32863.80000000000291, 5918105.099999999627471 ], [ 32863.650000000001455, 5918105.099999999627471 ], [ 32863.650000000001455, 5918105.174999999813735 ], [ 32863.57499999999709, 5918105.174999999813735 ], [ 32863.57499999999709, 5918105.25 ], [ 32863.42500000000291, 5918105.25 ], [ 32863.42500000000291, 5918105.325000000186265 ], [ 32863.349999999998545, 5918105.325000000186265 ], [ 32863.349999999998545, 5918105.400000000372529 ], [ 32863.275000000001455, 5918105.400000000372529 ], [ 32863.275000000001455, 5918105.474999999627471 ], [ 32863.125, 5918105.474999999627471 ], [ 32863.125, 5918105.549999999813735 ], [ 32863.05000000000291, 5918105.549999999813735 ], [ 32863.05000000000291, 5918105.625 ], [ 32862.974999999998545, 5918105.625 ], [ 32862.974999999998545, 5918105.700000000186265 ], [ 32862.82499999999709, 5918105.700000000186265 ], [ 32862.82499999999709, 5918105.775000000372529 ], [ 32862.75, 5918105.775000000372529 ], [ 32862.75, 5918105.849999999627471 ], [ 32862.599999999998545, 5918105.849999999627471 ], [ 32862.599999999998545, 5918105.924999999813735 ], [ 32862.525000000001455, 5918105.924999999813735 ], [ 32862.525000000001455, 5918106.0 ], [ 32862.375, 5918106.0 ], [ 32862.375, 5918106.075000000186265 ], [ 32862.30000000000291, 5918106.075000000186265 ], [ 32862.30000000000291, 5918106.150000000372529 ], [ 32862.150000000001455, 5918106.150000000372529 ], [ 32862.150000000001455, 5918106.224999999627471 ], [ 32862.0, 5918106.224999999627471 ], [ 32862.0, 5918106.299999999813735 ], [ 32861.849999999998545, 5918106.299999999813735 ], [ 32861.849999999998545, 5918106.375 ], [ 32861.69999999999709, 5918106.375 ], [ 32861.69999999999709, 5918106.450000000186265 ], [ 32861.474999999998545, 5918106.450000000186265 ], [ 32861.474999999998545, 5918106.525000000372529 ], [ 32861.32499999999709, 5918106.525000000372529 ], [ 32861.32499999999709, 5918106.599999999627471 ], [ 32861.099999999998545, 5918106.599999999627471 ], [ 32861.099999999998545, 5918106.674999999813735 ], [ 32860.94999999999709, 5918106.674999999813735 ], [ 32860.94999999999709, 5918106.75 ], [ 32860.724999999998545, 5918106.75 ], [ 32860.724999999998545, 5918106.825000000186265 ], [ 32860.5, 5918106.825000000186265 ], [ 32860.5, 5918106.900000000372529 ], [ 32860.349999999998545, 5918106.900000000372529 ], [ 32860.349999999998545, 5918106.974999999627471 ], [ 32860.125, 5918106.974999999627471 ], [ 32860.125, 5918107.049999999813735 ], [ 32859.67500000000291, 5918107.049999999813735 ] ] ] } }
]
}
