{
"type": "FeatureCollection",
"name": "33183E591882N_buildings",
"crs": { "type": "name", "properties": { "name": "urn:ogc:def:crs:EPSG::3776" } },
"features": [
{ "type": "Feature", "properties": { "value": 1.0, "building_id": 0, "area": 1190.7956249993715 }, "geometry": { "type": "Polygon", "coordinates": [ [ [ 33888.0, 5919174.974999999627471 ], [ 33888.0, 5919174.900000000372529 ], [ 33887.849999999998545, 5919174.900000000372529 ], [ 33887.849999999998545, 5919174.825000000186265 ], [ 33887.69999999999709, 5919174.825000000186265 ], [ 33887.69999999999709, 5919174.75 ], [ 33887.55000000000291, 5919174.75 ], [ 33887.55000000000291, 5919174.674999999813735 ], [ 33887.400000000001455, 5919174.674999999813735 ], [ 33887.400000000001455, 5919174.599999999627471 ], [ 33887.32499999999709, 5919174.599999999627471 ], [ 33887.32499999999709, 5919174.525000000372529 ], [ 33887.17500000000291, 5919174.525000000372529 ], [ 33887.17500000000291, 5919174.450000000186265 ], [ 33887.025000000001455, 5919174.450000000186265 ], [ 33887.025000000001455, 5919174.375 ], [ 33886.94999999999709, 5919174.375 ], [ 33886.94999999999709, 5919174.299999999813735 ], [ 33886.875, 5919174.299999999813735 ], [ 33886.875, 5919174.224999999627471 ], [ 33886.80000000000291, 5919174.224999999627471 ], [ 33886.80000000000291, 5919174.075000000186265 ], [ 33886.724999999998545, 5919174.075000000186265 ], [ 33886.724999999998545, 5919174.0 ], [ 33886.650000000001455, 5919174.0 ], [ 33886.650000000001455, 5919173.924999999813735 ], [ 33886.57499999999709, 5919173.924999999813735 ], [ 33886.57499999999709, 5919173.775000000372529 ], [ 33886.5, 5919173.775000000372529 ], [ 33886.5, 5919173.700000000186265 ], [ 33886.42500000000291, 5919173.700000000186265 ], [ 33886.42500000000291, 5919173.549999999813735 ], [ 33886.349999999998545, 5919173.549999999813735 ], [ 33886.349999999998545, 5919173.400000000372529 ], [ 33886.275000000001455, 5919173.400000000372529 ], [ 33886.275000000001455, 5919173.25 ], [ 33886.19999999999709, 5919173.25 ], [ 33886.19999999999709, 5919173.174999999813735 ], [ 33886.125, 5919173.174999999813735 ], [ 33886.125, 5919173.025000000372529 ], [ 33886.05000000000291, 5919173.025000000372529 ], [ 33886.05000000000291, 5919172.950000000186265 ], [ 33885.974999999998545, 5919172.950000000186265 ], [ 33885.974999999998545, 5919172.799999999813735 ], [ 33885.900000000001455, 5919172.799999999813735 ], [ 33885.900000000001455, 5919172.724999999627471 ], [ 33885.82499999999709, 5919172.724999999627471 ], [ 33885.82499999999709, 5919172.575000000186265 ], [ 33885.75, 5919172.575000000186265 ], [ 33885.75, 5919172.5 ], [ 33885.67500000000291, 5919172.5 ], [ 33885.67500000000291, 5919172.424999999813735 ], [ 33885.599999999998545, 5919172.424999999813735 ], [ 33885.599999999998545, 5919172.275000000372529 ], [ 33885.525000000001455, 5919172.275000000372529 ], [ 33885.525000000001455, 5919172.200000000186265 ], [ 33885.44999999999709, 5919172.200000000186265 ], [ 33885.44999999999709, 5919172.125 ], [ 33885.375, 5919172.125 ], [ 33885.375, 5919172.049999999813735 ], [ 33885.30000000000291, 5919172.049999999813735 ], [ 33885.30000000000291, 5919171.900000000372529 ], [ 33885.224999999998545, 5919171.900000000372529 ], [ 33885.224999999998545, 5919171.825000000186265 ], [ 33885.150000000001455, 5919171.825000000186265 ], [ 33885.150000000001455, 5919171.75 ], [ 33885.07499999999709, 5919171.75 ], [ 33885.07499999999709, 5919171.674999999813735 ], [ 33885.0, 5919171.674999999813735 ], [ 33885.0, 5919171.525000000372529 ], [ 33884.92500000000291, 5919171.525000000372529 ], [ 33884.92500000000291, 5919171.375 ], [ 33884.849999999998545, 5919171.375 ], [ 33884.849999999998545, 5919171.224999999627471 ], [ 33884.775000000001455, 5919171.224999999627471 ], [ 33884.775000000001455, 5919171.075000000186265 ], [ 33884.69999999999709, 5919171.075000000186265 ], [ 33884.69999999999709, 5919170.924999999813735 ], [ 33884.625, 5919170.924999999813735 ], [ 33884.625, 5919170.700000000186265 ], [ 33884.55000000000291, 5919170.700000000186265 ], [ 33884.55000000000291, 5919170.549999999813735 ], [ 33884.474999999998545, 5919170.549999999813735 ], [ 33884.474999999998545, 5919170.25 ], [ 33884.400000000001455, 5919170.25 ], [ 33884.400000000001455, 5919170.025000000372529 ], [ 33884.32499999999709, 5919170.025000000372529 ], [ 33884.32499999999709, 5919169.5 ], [ 33884.25, 5919169.5 ], [ 33884.25, 5919168.299999999813735 ], [ 33884.17500000000291, 5919168.299999999813735 ], [ 33884.17500000000291, 5919161.325000000186265 ], [ 33884.099999999998545, 5919161.325000000186265 ], [ 33884.099999999998545, 5919158.924999999813735 ], [ 33884.025000000001455, 5919158.924999999813735 ], [ 33884.025000000001455, 5919157.724999999627471 ], [ 33883.94999999999709, 5919157.724999999627471 ], [ 33883.94999999999709, 5919156.974999999627471 ], [ 33883.875, 5919156.974999999627471 ], [ 33883.875, 5919156.375 ], [ 33883.80000000000291, 5919156.375 ], [ 33883.80000000000291, 5919156.0 ], [ 33883.724999999998545, 5919156.0 ], [ 33883.724999999998545, 5919155.700000000186265 ], [ 33883.650000000001455, 5919155.700000000186265 ], [ 33883.650000000001455, 5919155.474999999627471 ], [ 33883.57499999999709, 5919155.474999999627471 ], [ 33883.57499999999709, 5919155.25 ], [ 33883.5, 5919155.25 ], [ 33883.5, 5919155.099999999627471 ], [ 33883.42500000000291, 5919155.099999999627471 ], [ 33883.42500000000291, 5919154.875 ], [ 33883.349999999998545, 5919154.875 ], [ 33883.349999999998545, 5919154.724999999627471 ], [ 33883.275000000001455, 5919154.724999999627471 ], [ 33883.275000000001455, 5919154.575000000186265 ], [ 33883.19999999999709, 5919154.575000000186265 ], [ 33883.19999999999709, 5919154.424999999813735 ], [ 33883.125, 5919154.424999999813735 ], [ 33883.125, 5919154.275000000372529 ], [ 33883.05000000000291, 5919154.275000000372529 ], [ 33883.05000000000291, 5919154.125 ], [ 33882.974999999998545, 5919154.125 ], [ 33882.974999999998545, 5919153.75 ], [ 33882.900000000001455, 5919153.75 ], [ 33882.900000000001455, 5919153.450000000186265 ], [ 33882.82499999999709, 5919153.450000000186265 ], [ 33882.82499999999709, 5919153.075000000186265 ], [ 33882.75, 5919153.075000000186265 ], [ 33882.75, 5919152.625 ], [ 33882.67500000000291, 5919152.625 ], [ 33882.67500000000291, 5919152.099999999627471 ], [ 33882.599999999998545, 5919152.099999999627471 ], [ 33882.599999999998545, 5919150.674999999813735 ], [ 33882.525000000001455, 5919150.674999999813735 ], [ 33882.525000000001455, 5919149.099999999627471 ], [ 33882.44999999999709, 5919149.099999999627471 ], [ 33882.44999999999709, 5919147.75 ], [ 33882.375, 5919147.75 ], [ 33882.375, 5919146.549999999813735 ], [ 33882.30000000000291, 5919146.549999999813735 ], [ 33882.30000000000291, 5919143.700000000186265 ], [ 33882.375, 5919143.700000000186265 ], [ 33882.375, 5919142.200000000186265 ], [ 33882.44999999999709, 5919142.200000000186265 ], [ 33882.44999999999709, 5919139.650000000372529 ], [ 33882.525000000001455, 5919139.650000000372529 ], [ 33882.525000000001455, 5919138.375 ], [ 33882.599999999998545, 5919138.375 ], [ 33882.599999999998545, 5919138.075000000186265 ], [ 33882.67500000000291, 5919138.075000000186265 ], [ 33882.67500000000291, 5919137.775000000372529 ], [ 33882.75, 5919137.775000000372529 ], [ 33882.75, 5919137.474999999627471 ], [ 33882.82499999999709, 5919137.474999999627471 ], [ 33882.82499999999709, 5919137.25 ], [ 33882.900000000001455, 5919137.25 ], [ 33882.900000000001455, 5919137.025000000372529 ], [ 33882.974999999998545, 5919137.025000000372529 ], [ 33882.974999999998545, 5919136.875 ], [ 33883.05000000000291, 5919136.875 ], [ 33883.05000000000291, 5919136.650000000372529 ], [ 33883.125, 5919136.650000000372529 ], [ 33883.125, 5919136.575000000186265 ], [ 33883.19999999999709, 5919136.575000000186265 ], [ 33883.19999999999709, 5919136.5 ], [ 33883.275000000001455, 5919136.5 ], [ 33883.275000000001455, 5919136.424999999813735 ], [ 33883.349999999998545, 5919136.424999999813735 ], [ 33883.349999999998545, 5919136.349999999627471 ], [ 33883.42500000000291, 5919136.349999999627471 ], [ 33883.42500000000291, 5919136.275000000372529 ], [ 33883.5, 5919136.275000000372529 ], [ 33883.5, 5919136.200000000186265 ], [ 33883.57499999999709, 5919136.200000000186265 ], [ 33883.57499999999709, 5919136.049999999813735 ], [ 33883.650000000001455, 5919136.049999999813735 ], [ 33883.650000000001455, 5919135.974999999627471 ], [ 33883.724999999998545, 5919135.974999999627471 ], [ 33883.724999999998545, 5919135.900000000372529 ], [ 33883.80000000000291, 5919135.900000000372529 ], [ 33883.80000000000291, 5919135.75 ], [ 33883.875, 5919135.75 ], [ 33883.875, 5919135.674999999813735 ], [ 33883.94999999999709, 5919135.674999999813735 ], [ 33883.94999999999709, 5919135.525000000372529 ], [ 33884.025000000001455, 5919135.525000000372529 ], [ 33884.025000000001455, 5919135.450000000186265 ], [ 33884.099999999998545, 5919135.450000000186265 ], [ 33884.099999999998545, 5919135.299999999813735 ], [ 33884.17500000000291, 5919135.299999999813735 ], [ 33884.17500000000291, 5919135.150000000372529 ], [ 33884.25, 5919135.150000000372529 ], [ 33884.25, 5919135.0 ], [ 33884.32499999999709, 5919135.0 ], [ 33884.32499999999709, 5919134.849999999627471 ], [ 33884.400000000001455, 5919134.849999999627471 ], [ 33884.400000000001455, 5919134.700000000186265 ], [ 33884.474999999998545, 5919134.700000000186265 ], [ 33884.474999999998545, 5919134.549999999813735 ], [ 33884.55000000000291, 5919134.549999999813735 ], [ 33884.55000000000291, 5919134.474999999627471 ], [ 33884.625, 5919134.474999999627471 ], [ 33884.625, 5919134.325000000186265 ], [ 33884.69999999999709, 5919134.325000000186265 ], [ 33884.69999999999709, 5919134.25 ], [ 33884.775000000001455, 5919134.25 ], [ 33884.775000000001455, 5919134.174999999813735 ], [ 33884.849999999998545, 5919134.174999999813735 ], [ 33884.849999999998545, 5919134.099999999627471 ], [ 33884.92500000000291, 5919134.099999999627471 ], [ 33884.92500000000291, 5919134.025000000372529 ], [ 33885.0, 5919134.025000000372529 ], [ 33885.0, 5919133.950000000186265 ], [ 33885.150000000001455, 5919133.950000000186265 ], [ 33885.150000000001455, 5919133.875 ], [ 33885.224999999998545, 5919133.875 ], [ 33885.224999999998545, 5919133.799999999813735 ], [ 33885.375, 5919133.799999999813735 ], [ 33885.375, 5919133.724999999627471 ], [ 33885.44999999999709, 5919133.724999999627471 ], [ 33885.44999999999709, 5919133.650000000372529 ], [ 33885.525000000001455, 5919133.650000000372529 ], [ 33885.525000000001455, 5919133.575000000186265 ], [ 33885.599999999998545, 5919133.575000000186265 ], [ 33885.599999999998545, 5919133.5 ], [ 33885.67500000000291, 5919133.5 ], [ 33885.67500000000291, 5919133.424999999813735 ], [ 33885.75, 5919133.424999999813735 ], [ 33885.75, 5919133.349999999627471 ], [ 33885.82499999999709, 5919133.349999999627471 ], [ 33885.82499999999709, 5919133.275000000372529 ], [ 33885.900000000001455, 5919133.275000000372529 ], [ 33885.900000000001455, 5919133.125 ], [ 33885.974999999998545, 5919133.125 ], [ 33885.974999999998545, 5919133.049999999813735 ], [ 33886.05000000000291, 5919133.049999999813735 ], [ 33886.05000000000291, 5919132.900000000372529 ], [ 33886.125, 5919132.900000000372529 ], [ 33886.125, 5919132.75 ], [ 33886.19999999999709, 5919132.75 ], [ 33886.19999999999709, 5919132.599999999627471 ], [ 33886.275000000001455, 5919132.599999999627471 ], [ 33886.275000000001455, 5919132.525000000372529 ], [ 33886.349999999998545, 5919132.525000000372529 ], [ 33886.349999999998545, 5919132.375 ], [ 33886.42500000000291, 5919132.375 ], [ 33886.42500000000291, 5919132.299999999813735 ], [ 33886.5, 5919132.299999999813735 ], [ 33886.5, 5919132.224999999627471 ], [ 33886.57499999999709, 5919132.224999999627471 ], [ 33886.57499999999709, 5919132.150000000372529 ], [ 33886.650000000001455, 5919132.150000000372529 ], [ 33886.650000000001455, 5919132.075000000186265 ], [ 33886.724999999998545, 5919132.075000000186265 ], [ 33886.724999999998545, 5919132.0 ], [ 33886.80000000000291, 5919132.0 ], [ 33886.80000000000291, 5919131.924999999813735 ], [ 33886.875, 5919131.924999999813735 ], [ 33886.875, 5919131.849999999627471 ], [ 33887.025000000001455, 5919131.849999999627471 ], [ 33887.025000000001455, 5919131.775000000372529 ], [ 33887.099999999998545, 5919131.775000000372529 ], [ 33887.099999999998545, 5919131.700000000186265 ], [ 33887.25, 5919131.700000000186265 ], [ 33887.25, 5919131.625 ], [ 33887.32499999999709, 5919131.625 ], [ 33887.32499999999709, 5919131.549999999813735 ], [ 33887.474999999998545, 5919131.549999999813735 ], [ 33887.474999999998545, 5919131.474999999627471 ], [ 33887.55000000000291, 5919131.474999999627471 ], [ 33887.55000000000291, 5919131.400000000372529 ], [ 33887.625, 5919131.400000000372529 ], [ 33887.625, 5919131.325000000186265 ], [ 33887.69999999999709, 5919131.325000000186265 ], [ 33887.69999999999709, 5919131.25 ], [ 33887.775000000001455, 5919131.25 ], [ 33887.775000000001455, 5919131.174999999813735 ], [ 33887.849999999998545, 5919131.174999999813735 ], [ 33887.849999999998545, 5919131.099999999627471 ], [ 33887.92500000000291, 5919131.099999999627471 ], [ 33887.92500000000291, 5919131.025000000372529 ], [ 33888.0, 5919131.025000000372529 ], [ 33888.0, 5919130.875 ], [ 33888.07499999999709, 5919130.875 ], [ 33888.07499999999709, 5919130.799999999813735 ], [ 33888.150000000001455, 5919130.799999999813735 ], [ 33888.150000000001455, 5919130.5 ], [ 33888.224999999998545, 5919130.5 ], [ 33888.224999999998545, 5919130.275000000372529 ], [ 33888.30000000000291, 5919130.275000000372529 ], [ 33888.30000000000291, 5919130.049999999813735 ], [ 33888.375, 5919130.049999999813735 ], [ 33888.375, 5919129.825000000186265 ], [ 33888.44999999999709, 5919129.825000000186265 ], [ 33888.44999999999709, 5919129.674999999813735 ], [ 33888.525000000001455, 5919129.674999999813735 ], [ 33888.525000000001455, 5919129.450000000186265 ], [ 33888.599999999998545, 5919129.450000000186265 ], [ 33888.599999999998545, 5919129.299999999813735 ], [ 33888.67500000000291, 5919129.299999999813735 ], [ 33888.67500000000291, 5919129.150000000372529 ], [ 33888.75, 5919129.150000000372529 ], [ 33888.75, 5919129.0 ], [ 33888.82499999999709, 5919129.0 ], [ 33888.82499999999709, 5919128.849999999627471 ], [ 33888.900000000001455, 5919128.849999999627471 ], [ 33888.900000000001455, 5919128.700000000186265 ], [ 33888.974999999998545, 5919128.700000000186265 ], [ 33888.974999999998545, 5919128.549999999813735 ], [ 33889.05000000000291, 5919128.549999999813735 ], [ 33889.05000000000291, 5919128.400000000372529 ], [ 33889.125, 5919128.400000000372529 ], [ 33889.125, 5919128.325000000186265 ], [ 33889.19999999999709, 5919128.325000000186265 ], [ 33889.19999999999709, 5919128.174999999813735 ], [ 33889.275000000001455, 5919128.174999999813735 ], [ 33889.275000000001455, 5919128.025000000372529 ], [ 33889.349999999998545, 5919128.025000000372529 ], [ 33889.349999999998545, 5919127.875 ], [ 33889.42500000000291, 5919127.875 ], [ 33889.42500000000291, 5919127.724999999627471 ], [ 33889.5, 5919127.724999999627471 ], [ 33889.5, 5919127.575000000186265 ], [ 33889.57499999999709, 5919127.575000000186265 ], [ 33889.57499999999709, 5919127.424999999813735 ], [ 33889.650000000001455, 5919127.424999999813735 ], [ 33889.650000000001455, 5919127.275000000372529 ], [ 33889.724999999998545, 5919127.275000000372529 ], [ 33889.724999999998545, 5919127.049999999813735 ], [ 33889.80000000000291, 5919127.049999999813735 ], [ 33889.80000000000291, 5919126.825000000186265 ], [ 33889.875, 5919126.825000000186265 ], [ 33889.875, 5919126.599999999627471 ], [ 33889.94999999999709, 5919126.599999999627471 ], [ 33889.94999999999709, 5919126.375 ], [ 33890.025000000001455, 5919126.375 ], [ 33890.025000000001455, 5919126.224999999627471 ], [ 33890.099999999998545, 5919126.224999999627471 ], [ 33890.099999999998545, 5919126.075000000186265 ], [ 33890.17500000000291, 5919126.075000000186265 ], [ 33890.17500000000291, 5919126.0 ], [ 33890.25, 5919126.0 ], [ 33890.25, 5919125.849999999627471 ], [ 33890.32499999999709, 5919125.849999999627471 ], [ 33890.32499999999709, 5919125.775000000372529 ], [ 33890.400000000001455, 5919125.775000000372529 ], [ 33890.400000000001455, 5919125.700000000186265 ], [ 33890.474999999998545, 5919125.700000000186265 ], [ 33890.474999999998545, 5919125.625 ], [ 33890.55000000000291, 5919125.625 ], [ 33890.55000000000291, 5919125.549999999813735 ], [ 33890.69999999999709, 5919125.549999999813735 ], [ 33890.69999999999709, 5919125.474999999627471 ], [ 33890.775000000001455, 5919125.474999999627471 ], [ 33890.775000000001455, 5919125.400000000372529 ], [ 33890.92500000000291, 5919125.400000000372529 ], [ 33890.92500000000291, 5919125.325000000186265 ], [ 33891.07499999999709, 5919125.325000000186265 ], [ 33891.07499999999709, 5919125.25 ], [ 33891.224999999998545, 5919125.25 ], [ 33891.224999999998545, 5919125.174999999813735 ], [ 33891.30000000000291, 5919125.174999999813735 ], [ 33891.30000000000291, 5919125.099999999627471 ], [ 33891.44999999999709, 5919125.099999999627471 ], [ 33891.44999999999709, 5919125.025000000372529 ], [ 33891.525000000001455, 5919125.025000000372529 ], [ 33891.525000000001455, 5919124.950000000186265 ], [ 33891.67500000000291, 5919124.950000000186265 ], [ 33891.67500000000291, 5919124.799999999813735 ], [ 33891.75, 5919124.799999999813735 ], [ 33891.75, 5919124.724999999627471 ], [ 33891.82499999999709, 5919124.724999999627471 ], [ 33891.82499999999709, 5919124.575000000186265 ], [ 33891.900000000001455, 5919124.575000000186265 ], [ 33891.900000000001455, 5919124.5 ], [ 33891.974999999998545, 5919124.5 ], [ 33891.974999999998545, 5919124.424999999813735 ], [ 33892.05000000000291, 5919124.424999999813735 ], [ 33892.05000000000291, 5919124.349999999627471 ], [ 33892.125, 5919124.349999999627471 ], [ 33892.125, 5919124.275000000372529 ], [ 33892.19999999999709, 5919124.275000000372529 ], [ 33892.19999999999709, 5919124.200000000186265 ], [ 33892.349999999998545, 5919124.200000000186265 ], [ 33892.349999999998545, 5919124.125 ], [ 33892.42500000000291, 5919124.125 ], [ 33892.42500000000291, 5919124.049999999813735 ], [ 33892.57499999999709, 5919124.049999999813735 ], [ 33892.57499999999709, 5919123.974999999627471 ], [ 33892.724999999998545, 5919123.974999999627471 ], [ 33892.724999999998545, 5919123.900000000372529 ], [ 33892.875, 5919123.900000000372529 ], [ 33892.875, 5919123.825000000186265 ], [ 33893.025000000001455, 5919123.825000000186265 ], [ 33893.025000000001455, 5919123.75 ], [ 33893.099999999998545, 5919123.75 ], [ 33893.099999999998545, 5919123.674999999813735 ], [ 33893.25, 5919123.674999999813735 ], [ 33893.25, 5919123.599999999627471 ], [ 33893.32499999999709, 5919123.599999999627471 ], [ 33893.32499999999709, 5919123.525000000372529 ], [ 33893.400000000001455, 5919123.525000000372529 ], [ 33893.400000000001455, 5919123.450000000186265 ], [ 33893.55000000000291, 5919123.450000000186265 ], [ 33893.55000000000291, 5919123.375 ], [ 33893.625, 5919123.375 ], [ 33893.625, 5919123.299999999813735 ], [ 33893.69999999999709, 5919123.299999999813735 ], [ 33893.69999999999709, 5919123.224999999627471 ], [ 33893.775000000001455, 5919123.224999999627471 ], [ 33893.775000000001455, 5919123.150000000372529 ], [ 33893.92500000000291, 5919123.150000000372529 ], [ 33893.92500000000291, 5919123.075000000186265 ], [ 33894.0, 5919123.075000000186265 ], [ 33894.0, 5919123.0 ], [ 33894.07499999999709, 5919123.0 ], [ 33894.07499999999709, 5919122.924999999813735 ], [ 33894.150000000001455, 5919122.924999999813735 ], [ 33894.150000000001455, 5919122.775000000372529 ], [ 33894.224999999998545, 5919122.775000000372529 ], [ 33894.224999999998545, 5919122.625 ], [ 33894.30000000000291, 5919122.625 ], [ 33894.30000000000291, 5919122.549999999813735 ], [ 33894.375, 5919122.549999999813735 ], [ 33894.375, 5919122.474999999627471 ], [ 33894.44999999999709, 5919122.474999999627471 ], [ 33894.44999999999709, 5919122.400000000372529 ], [ 33894.525000000001455, 5919122.400000000372529 ], [ 33894.525000000001455, 5919122.325000000186265 ], [ 33894.599999999998545, 5919122.325000000186265 ], [ 33894.599999999998545, 5919122.25 ], [ 33894.75, 5919122.25 ], [ 33894.75, 5919122.174999999813735 ], [ 33894.82499999999709, 5919122.174999999813735 ], [ 33894.82499999999709, 5919122.099999999627471 ], [ 33894.974999999998545, 5919122.099999999627471 ], [ 33894.974999999998545, 5919122.025000000372529 ], [ 33895.05000000000291, 5919122.025000000372529 ], [ 33895.05000000000291, 5919121.950000000186265 ], [ 33895.19999999999709, 5919121.950000000186265 ], [ 33895.19999999999709, 5919121.875 ], [ 33895.275000000001455, 5919121.875 ], [ 33895.275000000001455, 5919121.799999999813735 ], [ 33895.42500000000291, 5919121.799999999813735 ], [ 33895.42500000000291, 5919121.724999999627471 ], [ 33895.57499999999709, 5919121.724999999627471 ], [ 33895.57499999999709, 5919121.650000000372529 ], [ 33895.650000000001455, 5919121.650000000372529 ], [ 33895.650000000001455, 5919121.575000000186265 ], [ 33895.80000000000291, 5919121.575000000186265 ], [ 33895.80000000000291, 5919121.5 ], [ 33895.94999999999709, 5919121.5 ], [ 33895.94999999999709, 5919121.424999999813735 ], [ 33896.099999999998545, 5919121.424999999813735 ], [ 33896.099999999998545, 5919121.349999999627471 ], [ 33896.17500000000291, 5919121.349999999627471 ], [ 33896.17500000000291, 5919121.275000000372529 ], [ 33896.32499999999709, 5919121.275000000372529 ], [ 33896.32499999999709, 5919121.200000000186265 ], [ 33896.474999999998545, 5919121.200000000186265 ], [ 33896.474999999998545, 5919121.125 ], [ 33896.625, 5919121.125 ], [ 33896.625, 5919121.049999999813735 ], [ 33896.775000000001455, 5919121.049999999813735 ], [ 33896.775000000001455, 5919120.974999999627471 ], [ 33896.849999999998545, 5919120.974999999627471 ], [ 33896.849999999998545, 5919120.900000000372529 ], [ 33896.92500000000291, 5919120.900000000372529 ], [ 33896.92500000000291, 5919120.825000000186265 ], [ 33897.0, 5919120.825000000186265 ], [ 33897.0, 5919120.674999999813735 ], [ 33897.07499999999709, 5919120.674999999813735 ], [ 33897.07499999999709, 5919120.599999999627471 ], [ 33897.150000000001455, 5919120.599999999627471 ], [ 33897.150000000001455, 5919120.525000000372529 ], [ 33897.224999999998545, 5919120.525000000372529 ], [ 33897.224999999998545, 5919120.450000000186265 ], [ 33897.30000000000291, 5919120.450000000186265 ], [ 33897.30000000000291, 5919120.375 ], [ 33897.375, 5919120.375 ], [ 33897.375, 5919120.299999999813735 ], [ 33897.525000000001455, 5919120.299999999813735 ], [ 33897.525000000001455, 5919120.224999999627471 ], [ 33897.599999999998545, 5919120.224999999627471 ], [ 33897.599999999998545, 5919120.150000000372529 ], [ 33897.75, 5919120.150000000372529 ], [ 33897.75, 5919120.075000000186265 ], [ 33897.900000000001455, 5919120.075000000186265 ], [ 33897.900000000001455, 5919120.0 ], [ 33898.125, 5919120.0 ], [ 33898.125, 5919119.924999999813735 ], [ 33898.42500000000291, 5919119.924999999813735 ], [ 33898.42500000000291, 5919119.849999999627471 ], [ 33898.724999999998545, 5919119.849999999627471 ], [ 33898.724999999998545, 5919119.775000000372529 ], [ 33899.17500000000291, 5919119.775000000372529 ], [ 33899.17500000000291, 5919119.700000000186265 ], [ 33899.55000000000291, 5919119.700000000186265 ], [ 33899.55000000000291, 5919119.625 ], [ 33900.0, 5919119.625 ], [ 33900.0, 5919119.549999999813735 ], [ 33900.525000000001455, 5919119.549999999813735 ], [ 33900.525000000001455, 5919119.474999999627471 ], [ 33901.125, 5919119.474999999627471 ], [ 33901.125, 5919119.400000000372529 ], [ 33901.94999999999709, 5919119.400000000372529 ], [ 33901.94999999999709, 5919119.325000000186265 ], [ 33902.775000000001455, 5919119.325000000186265 ], [ 33902.775000000001455, 5919119.25 ], [ 33903.900000000001455, 5919119.25 ], [ 33903.900000000001455, 5919119.174999999813735 ], [ 33906.974999999998545, 5919119.174999999813735 ], [ 33906.974999999998545, 5919119.25 ], [ 33908.17500000000291, 5919119.25 ], [ 33908.17500000000291, 5919119.325000000186265 ], [ 33908.775000000001455, 5919119.325000000186265 ], [ 33908.775000000001455, 5919119.400000000372529 ], [ 33909.07499999999709, 5919119.400000000372529 ], [ 33909.07499999999709, 5919119.474999999627471 ], [ 33909.224999999998545, 5919119.474999999627471 ], [ 33909.224999999998545, 5919119.549999999813735 ], [ 33909.375, 5919119.549999999813735 ], [ 33909.375, 5919119.625 ], [ 33909.44999999999709, 5919119.625 ], [ 33909.44999999999709, 5919119.700000000186265 ], [ 33909.525000000001455, 5919119.700000000186265 ], [ 33909.525000000001455, 5919119.775000000372529 ], [ 33909.599999999998545, 5919119.775000000372529 ], [ 33909.599999999998545, 5919119.849999999627471 ], [ 33909.67500000000291, 5919119.849999999627471 ], [ 33909.67500000000291, 5919119.924999999813735 ], [ 33909.75, 5919119.924999999813735 ], [ 33909.75, 5919120.075000000186265 ], [ 33909.82499999999709, 5919120.075000000186265 ], [ 33909.82499999999709, 5919120.224999999627471 ], [ 33909.900000000001455, 5919120.224999999627471 ], [ 33909.900000000001455, 5919120.450000000186265 ], [ 33909.974999999998545, 5919120.450000000186265 ], [ 33909.974999999998545, 5919120.825000000186265 ], [ 33910.05000000000291, 5919120.825000000186265 ], [ 33910.05000000000291, 5919121.125 ], [ 33910.125, 5919121.125 ], [ 33910.125, 5919121.275000000372529 ], [ 33910.19999999999709, 5919121.275000000372529 ], [ 33910.19999999999709, 5919121.424999999813735 ], [ 33910.275000000001455, 5919121.424999999813735 ], [ 33910.275000000001455, 5919121.575000000186265 ], [ 33910.349999999998545, 5919121.575000000186265 ], [ 33910.349999999998545, 5919121.724999999627471 ], [ 33910.42500000000291, 5919121.724999999627471 ], [ 33910.42500000000291, 5919121.799999999813735 ], [ 33910.5, 5919121.799999999813735 ], [ 33910.5, 5919121.950000000186265 ], [ 33910.57499999999709, 5919121.950000000186265 ], [ 33910.57499999999709, 5919122.025000000372529 ], [ 33910.650000000001455, 5919122.025000000372529 ], [ 33910.650000000001455, 5919122.174999999813735 ], [ 33910.724999999998545, 5919122.174999999813735 ], [ 33910.724999999998545, 5919122.325000000186265 ], [ 33910.80000000000291, 5919122.325000000186265 ], [ 33910.80000000000291, 5919122.474999999627471 ], [ 33910.875, 5919122.474999999627471 ], [ 33910.875, 5919122.700000000186265 ], [ 33910.94999999999709, 5919122.700000000186265 ], [ 33910.94999999999709, 5919122.849999999627471 ], [ 33911.025000000001455, 5919122.849999999627471 ], [ 33911.025000000001455, 5919123.375 ], [ 33910.94999999999709, 5919123.375 ], [ 33910.94999999999709, 5919124.724999999627471 ], [ 33910.875, 5919124.724999999627471 ], [ 33910.875, 5919125.700000000186265 ], [ 33910.80000000000291, 5919125.700000000186265 ], [ 33910.80000000000291, 5919126.525000000372529 ], [ 33910.724999999998545, 5919126.525000000372529 ], [ 33910.724999999998545, 5919127.200000000186265 ], [ 33910.650000000001455, 5919127.200000000186265 ], [ 33910.650000000001455, 5919127.799999999813735 ], [ 33910.57499999999709, 5919127.799999999813735 ], [ 33910.57499999999709, 5919128.325000000186265 ], [ 33910.5, 5919128.325000000186265 ], [ 33910.5, 5919128.700000000186265 ], [ 33910.42500000000291, 5919128.700000000186265 ], [ 33910.42500000000291, 5919128.849999999627471 ], [ 33910.349999999998545, 5919128.849999999627471 ], [ 33910.349999999998545, 5919128.924999999813735 ], [ 33910.19999999999709, 5919128.924999999813735 ], [ 33910.19999999999709, 5919129.0 ], [ 33910.125, 5919129.0 ], [ 33910.125, 5919129.075000000186265 ], [ 33910.05000000000291, 5919129.075000000186265 ], [ 33910.05000000000291, 5919129.150000000372529 ], [ 33909.974999999998545, 5919129.150000000372529 ], [ 33909.974999999998545, 5919129.224999999627471 ], [ 33909.900000000001455, 5919129.224999999627471 ], [ 33909.900000000001455, 5919129.299999999813735 ], [ 33909.82499999999709, 5919129.299999999813735 ], [ 33909.82499999999709, 5919129.375 ], [ 33909.75, 5919129.375 ], [ 33909.75, 5919129.450000000186265 ], [ 33909.67500000000291, 5919129.450000000186265 ], [ 33909.67500000000291, 5919129.525000000372529 ], [ 33909.599999999998545, 5919129.525000000372529 ], [ 33909.599999999998545, 5919129.599999999627471 ], [ 33909.525000000001455, 5919129.599999999627471 ], [ 33909.525000000001455, 5919129.674999999813735 ], [ 33909.44999999999709, 5919129.674999999813735 ], [ 33909.44999999999709, 5919129.825000000186265 ], [ 33909.375, 5919129.825000000186265 ], [ 33909.375, 5919129.900000000372529 ], [ 33909.30000000000291, 5919129.900000000372529 ], [ 33909.30000000000291, 5919129.974999999627471 ], [ 33909.224999999998545, 5919129.974999999627471 ], [ 33909.224999999998545, 5919130.125 ], [ 33909.150000000001455, 5919130.125 ], [ 33909.150000000001455, 5919130.200000000186265 ], [ 33909.07499999999709, 5919130.200000000186265 ], [ 33909.07499999999709, 5919130.349999999627471 ], [ 33909.0, 5919130.349999999627471 ], [ 33909.0, 5919130.5 ], [ 33908.92500000000291, 5919130.5 ], [ 33908.92500000000291, 5919130.575000000186265 ], [ 33908.849999999998545, 5919130.575000000186265 ], [ 33908.849999999998545, 5919130.724999999627471 ], [ 33908.775000000001455, 5919130.724999999627471 ], [ 33908.775000000001455, 5919130.799999999813735 ], [ 33908.69999999999709, 5919130.799999999813735 ], [ 33908.69999999999709, 5919130.875 ], [ 33908.625, 5919130.875 ], [ 33908.625, 5919130.950000000186265 ], [ 33908.55000000000291, 5919130.950000000186265 ], [ 33908.55000000000291, 5919131.025000000372529 ], [ 33908.400000000001455, 5919131.025000000372529 ], [ 33908.400000000001455, 5919131.099999999627471 ], [ 33908.25, 5919131.099999999627471 ], [ 33908.25, 5919131.174999999813735 ], [ 33908.099999999998545, 5919131.174999999813735 ], [ 33908.099999999998545, 5919131.25 ], [ 33908.025000000001455, 5919131.25 ], [ 33908.025000000001455, 5919131.325000000186265 ], [ 33907.94999999999709, 5919131.325000000186265 ], [ 33907.94999999999709, 5919131.400000000372529 ], [ 33907.80000000000291, 5919131.400000000372529 ], [ 33907.80000000000291, 5919131.474999999627471 ], [ 33907.724999999998545, 5919131.474999999627471 ], [ 33907.724999999998545, 5919131.549999999813735 ], [ 33907.650000000001455, 5919131.549999999813735 ], [ 33907.650000000001455, 5919131.625 ], [ 33907.57499999999709, 5919131.625 ], [ 33907.57499999999709, 5919131.700000000186265 ], [ 33907.5, 5919131.700000000186265 ], [ 33907.5, 5919131.849999999627471 ], [ 33907.42500000000291, 5919131.849999999627471 ], [ 33907.42500000000291, 5919131.924999999813735 ], [ 33907.349999999998545, 5919131.924999999813735 ], [ 33907.349999999998545, 5919132.0 ], [ 33907.275000000001455, 5919132.0 ], [ 33907.275000000001455, 5919132.150000000372529 ], [ 33907.19999999999709, 5919132.150000000372529 ], [ 33907.19999999999709, 5919132.224999999627471 ], [ 33907.125, 5919132.224999999627471 ], [ 33907.125, 5919132.375 ], [ 33907.05000000000291, 5919132.375 ], [ 33907.05000000000291, 5919132.525000000372529 ], [ 33906.974999999998545, 5919132.525000000372529 ], [ 33906.974999999998545, 5919132.674999999813735 ], [ 33906.900000000001455, 5919132.674999999813735 ], [ 33906.900000000001455, 5919132.75 ], [ 33906.82499999999709, 5919132.75 ], [ 33906.82499999999709, 5919132.900000000372529 ], [ 33906.75, 5919132.900000000372529 ], [ 33906.75, 5919132.974999999627471 ], [ 33906.67500000000291, 5919132.974999999627471 ], [ 33906.67500000000291, 5919133.049999999813735 ], [ 33906.599999999998545, 5919133.049999999813735 ], [ 33906.599999999998545, 5919133.125 ], [ 33906.525000000001455, 5919133.125 ], [ 33906.525000000001455, 5919133.200000000186265 ], [ 33906.44999999999709, 5919133.200000000186265 ], [ 33906.44999999999709, 5919133.275000000372529 ], [ 33906.375, 5919133.275000000372529 ], [ 33906.375, 5919133.349999999627471 ], [ 33906.30000000000291, 5919133.349999999627471 ], [ 33906.30000000000291, 5919133.424999999813735 ], [ 33906.224999999998545, 5919133.424999999813735 ], [ 33906.224999999998545, 5919133.5 ], [ 33906.150000000001455, 5919133.5 ], [ 33906.150000000001455, 5919133.650000000372529 ], [ 33906.07499999999709, 5919133.650000000372529 ], [ 33906.07499999999709, 5919133.724999999627471 ], [ 33906.0, 5919133.724999999627471 ], [ 33906.0, 5919133.799999999813735 ], [ 33905.92500000000291, 5919133.799999999813735 ], [ 33905.92500000000291, 5919133.950000000186265 ], [ 33905.849999999998545, 5919133.950000000186265 ], [ 33905.849999999998545, 5919134.099999999627471 ], [ 33905.775000000001455, 5919134.099999999627471 ], [ 33905.775000000001455, 5919134.25 ], [ 33905.69999999999709, 5919134.25 ], [ 33905.69999999999709, 5919134.400000000372529 ], [ 33905.625, 5919134.400000000372529 ], [ 33905.625, 5919134.549999999813735 ], [ 33905.55000000000291, 5919134.549999999813735 ], [ 33905.55000000000291, 5919134.775000000372529 ], [ 33905.474999999998545, 5919134.775000000372529 ], [ 33905.474999999998545, 5919135.0 ], [ 33905.400000000001455, 5919135.0 ], [ 33905.400000000001455, 5919135.224999999627471 ], [ 33905.32499999999709, 5919135.224999999627471 ], [ 33905.32499999999709, 5919135.525000000372529 ], [ 33905.25, 5919135.525000000372529 ], [ 33905.25, 5919135.825000000186265 ], [ 33905.17500000000291, 5919135.825000000186265 ], [ 33905.17500000000291, 5919136.049999999813735 ], [ 33905.099999999998545, 5919136.049999999813735 ], [ 33905.099999999998545, 5919136.349999999627471 ], [ 33905.025000000001455, 5919136.349999999627471 ], [ 33905.025000000001455, 5919136.724999999627471 ], [ 33904.94999999999709, 5919136.724999999627471 ], [ 33904.94999999999709, 5919137.325000000186265 ], [ 33904.875, 5919137.325000000186265 ], [ 33904.875, 5919137.849999999627471 ], [ 33904.80000000000291, 5919137.849999999627471 ], [ 33904.80000000000291, 5919138.375 ], [ 33904.724999999998545, 5919138.375 ], [ 33904.724999999998545, 5919138.974999999627471 ], [ 33904.80000000000291, 5919138.974999999627471 ], [ 33904.80000000000291, 5919139.950000000186265 ], [ 33904.875, 5919139.950000000186265 ], [ 33904.875, 5919140.924999999813735 ], [ 33904.94999999999709, 5919140.924999999813735 ], [ 33904.94999999999709, 5919141.75 ], [ 33905.025000000001455, 5919141.75 ], [ 33905.025000000001455, 5919142.575000000186265 ], [ 33905.099999999998545, 5919142.575000000186265 ], [ 33905.099999999998545, 5919143.099999999627471 ], [ 33905.17500000000291, 5919143.099999999627471 ], [ 33905.17500000000291, 5919143.625 ], [ 33905.25, 5919143.625 ], [ 33905.25, 5919144.075000000186265 ], [ 33905.32499999999709, 5919144.075000000186265 ], [ 33905.32499999999709, 5919144.450000000186265 ], [ 33905.400000000001455, 5919144.450000000186265 ], [ 33905.400000000001455, 5919144.900000000372529 ], [ 33905.474999999998545, 5919144.900000000372529 ], [ 33905.474999999998545, 5919145.349999999627471 ], [ 33905.55000000000291, 5919145.349999999627471 ], [ 33905.55000000000291, 5919145.799999999813735 ], [ 33905.625, 5919145.799999999813735 ], [ 33905.625, 5919146.25 ], [ 33905.69999999999709, 5919146.25 ], [ 33905.69999999999709, 5919152.325000000186265 ], [ 33905.775000000001455, 5919152.325000000186265 ], [ 33905.775000000001455, 5919155.474999999627471 ], [ 33905.849999999998545, 5919155.474999999627471 ], [ 33905.849999999998545, 5919158.099999999627471 ], [ 33905.92500000000291, 5919158.099999999627471 ], [ 33905.92500000000291, 5919160.200000000186265 ], [ 33906.0, 5919160.200000000186265 ], [ 33906.0, 5919160.650000000372529 ], [ 33906.07499999999709, 5919160.650000000372529 ], [ 33906.07499999999709, 5919161.025000000372529 ], [ 33906.150000000001455, 5919161.025000000372529 ], [ 33906.150000000001455, 5919161.325000000186265 ], [ 33906.224999999998545, 5919161.325000000186265 ], [ 33906.224999999998545, 5919161.625 ], [ 33906.30000000000291, 5919161.625 ], [ 33906.30000000000291, 5919161.924999999813735 ], [ 33906.375, 5919161.924999999813735 ], [ 33906.375, 5919162.150000000372529 ], [ 33906.44999999999709, 5919162.150000000372529 ], [ 33906.44999999999709, 5919162.299999999813735 ], [ 33906.525000000001455, 5919162.299999999813735 ], [ 33906.525000000001455, 5919162.450000000186265 ], [ 33906.599999999998545, 5919162.450000000186265 ], [ 33906.599999999998545, 5919162.599999999627471 ], [ 33906.67500000000291, 5919162.599999999627471 ], [ 33906.67500000000291, 5919162.75 ], [ 33906.75, 5919162.75 ], [ 33906.75, 5919162.900000000372529 ], [ 33906.82499999999709, 5919162.900000000372529 ], [ 33906.82499999999709, 5919163.049999999813735 ], [ 33906.900000000001455, 5919163.049999999813735 ], [ 33906.900000000001455, 5919163.200000000186265 ], [ 33906.974999999998545, 5919163.200000000186265 ], [ 33906.974999999998545, 5919163.424999999813735 ], [ 33907.05000000000291, 5919163.424999999813735 ], [ 33907.05000000000291, 5919163.650000000372529 ], [ 33907.125, 5919163.650000000372529 ], [ 33907.125, 5919163.875 ], [ 33907.19999999999709, 5919163.875 ], [ 33907.19999999999709, 5919164.625 ], [ 33907.275000000001455, 5919164.625 ], [ 33907.275000000001455, 5919165.525000000372529 ], [ 33907.349999999998545, 5919165.525000000372529 ], [ 33907.349999999998545, 5919166.125 ], [ 33907.42500000000291, 5919166.125 ], [ 33907.42500000000291, 5919166.349999999627471 ], [ 33907.5, 5919166.349999999627471 ], [ 33907.5, 5919166.575000000186265 ], [ 33907.57499999999709, 5919166.575000000186265 ], [ 33907.57499999999709, 5919166.799999999813735 ], [ 33907.650000000001455, 5919166.799999999813735 ], [ 33907.650000000001455, 5919166.950000000186265 ], [ 33907.724999999998545, 5919166.950000000186265 ], [ 33907.724999999998545, 5919167.099999999627471 ], [ 33907.80000000000291, 5919167.099999999627471 ], [ 33907.80000000000291, 5919167.25 ], [ 33907.875, 5919167.25 ], [ 33907.875, 5919167.325000000186265 ], [ 33907.94999999999709, 5919167.325000000186265 ], [ 33907.94999999999709, 5919167.474999999627471 ], [ 33908.025000000001455, 5919167.474999999627471 ], [ 33908.025000000001455, 5919167.549999999813735 ], [ 33908.099999999998545, 5919167.549999999813735 ], [ 33908.099999999998545, 5919167.625 ], [ 33908.17500000000291, 5919167.625 ], [ 33908.17500000000291, 5919167.700000000186265 ], [ 33908.25, 5919167.700000000186265 ], [ 33908.25, 5919167.775000000372529 ], [ 33908.32499999999709, 5919167.775000000372529 ], [ 33908.32499999999709, 5919167.849999999627471 ], [ 33908.400000000001455, 5919167.849999999627471 ], [ 33908.400000000001455, 5919168.150000000372529 ], [ 33908.474999999998545, 5919168.150000000372529 ], [ 33908.474999999998545, 5919168.450000000186265 ], [ 33908.55000000000291, 5919168.450000000186265 ], [ 33908.55000000000291, 5919168.825000000186265 ], [ 33908.625, 5919168.825000000186265 ], [ 33908.625, 5919169.424999999813735 ], [ 33908.69999999999709, 5919169.424999999813735 ], [ 33908.69999999999709, 5919169.950000000186265 ], [ 33908.625, 5919169.950000000186265 ], [ 33908.625, 5919170.099999999627471 ], [ 33908.55000000000291, 5919170.099999999627471 ], [ 33908.55000000000291, 5919170.25 ], [ 33908.474999999998545, 5919170.25 ], [ 33908.474999999998545, 5919170.400000000372529 ], [ 33908.400000000001455, 5919170.400000000372529 ], [ 33908.400000000001455, 5919170.625 ], [ 33908.32499999999709, 5919170.625 ], [ 33908.32499999999709, 5919170.775000000372529 ], [ 33908.25, 5919170.775000000372529 ], [ 33908.25, 5919171.0 ], [ 33908.17500000000291, 5919171.0 ], [ 33908.17500000000291, 5919171.224999999627471 ], [ 33908.099999999998545, 5919171.224999999627471 ], [ 33908.099999999998545, 5919171.525000000372529 ], [ 33908.025000000001455, 5919171.525000000372529 ], [ 33908.025000000001455, 5919171.974999999627471 ], [ 33907.94999999999709, 5919171.974999999627471 ], [ 33907.94999999999709, 5919172.424999999813735 ], [ 33907.875, 5919172.424999999813735 ], [ 33907.875, 5919172.724999999627471 ], [ 33907.80000000000291, 5919172.724999999627471 ], [ 33907.80000000000291, 5919172.950000000186265 ], [ 33907.724999999998545, 5919172.950000000186265 ], [ 33907.724999999998545, 5919173.099999999627471 ], [ 33907.5, 5919173.099999999627471 ], [ 33907.5, 5919173.174999999813735 ], [ 33907.275000000001455, 5919173.174999999813735 ], [ 33907.275000000001455, 5919173.25 ], [ 33906.974999999998545, 5919173.25 ], [ 33906.974999999998545, 5919173.325000000186265 ], [ 33906.599999999998545, 5919173.325000000186265 ], [ 33906.599999999998545, 5919173.400000000372529 ], [ 33906.224999999998545, 5919173.400000000372529 ], [ 33906.224999999998545, 5919173.474999999627471 ], [ 33905.92500000000291, 5919173.474999999627471 ], [ 33905.92500000000291, 5919173.549999999813735 ], [ 33905.625, 5919173.549999999813735 ], [ 33905.625, 5919173.625 ], [ 33905.25, 5919173.625 ], [ 33905.25, 5919173.700000000186265 ], [ 33905.025000000001455, 5919173.700000000186265 ], [ 33905.025000000001455, 5919173.775000000372529 ], [ 33904.724999999998545, 5919173.775000000372529 ], [ 33904.724999999998545, 5919173.849999999627471 ], [ 33904.5, 5919173.849999999627471 ], [ 33904.5, 5919173.924999999813735 ], [ 33904.19999999999709, 5919173.924999999813735 ], [ 33904.19999999999709, 5919174.0 ], [ 33903.900000000001455, 5919174.0 ], [ 33903.900000000001455, 5919174.075000000186265 ], [ 33903.599999999998545, 5919174.075000000186265 ], [ 33903.599999999998545, 5919174.150000000372529 ], [ 33903.30000000000291, 5919174.150000000372529 ], [ 33903.30000000000291, 5919174.224999999627471 ], [ 33902.92500000000291, 5919174.224999999627471 ], [ 33902.92500000000291, 5919174.299999999813735 ], [ 33902.400000000001455, 5919174.299999999813735 ], [ 33902.400000000001455, 5919174.375 ], [ 33901.875, 5919174.375 ], [ 33901.875, 5919174.450000000186265 ], [ 33901.275000000001455, 5919174.450000000186265 ], [ 33901.275000000001455, 5919174.525000000372529 ], [ 33900.30000000000291, 5919174.525000000372529 ], [ 33900.30000000000291, 5919174.599999999627471 ], [ 33898.875, 5919174.599999999627471 ], [ 33898.875, 5919174.674999999813735 ], [ 33895.650000000001455, 5919174.674999999813735 ], [ 33895.650000000001455, 5919174.75 ], [ 33892.42500000000291, 5919174.75 ], [ 33892.42500000000291, 5919174.825000000186265 ], [ 33890.474999999998545, 5919174.825000000186265 ], [ 33890.474999999998545, 5919174.900000000372529 ], [ 33889.349999999998545, 5919174.900000000372529 ], [ 33889.349999999998545, 5919174.974999999627471 ], [ 33888.0, 5919174.974999999627471 ] ] ] } },
{ "type": "Feature", "properties": { "value": 1.0, "building_id": 1, "area": 41.883749999666215 }, "geometry": { "type": "Polygon", "coordinates": [ [ [ 33834.30000000000291, 5918844.299999999813735 ], [ 33834.30000000000291, 5918844.224999999627471 ], [ 33834.07499999999709, 5918844.224999999627471 ], [ 33834.07499999999709, 5918844.150000000372529 ], [ 33833.849999999998545, 5918844.150000000372529 ], [ 33833.849999999998545, 5918844.075000000186265 ], [ 33833.625, 5918844.075000000186265 ], [ 33833.625, 5918844.0 ], [ 33833.474999999998545, 5918844.0 ], [ 33833.474999999998545, 5918843.924999999813735 ], [ 33833.25, 5918843.924999999813735 ], [ 33833.25, 5918843.849999999627471 ], [ 33833.099999999998545, 5918843.849999999627471 ], [ 33833.099999999998545, 5918843.775000000372529 ], [ 33832.94999999999709, 5918843.775000000372529 ], [ 33832.94999999999709, 5918843.700000000186265 ], [ 33832.80000000000291, 5918843.700000000186265 ], [ 33832.80000000000291, 5918843.625 ], [ 33832.650000000001455, 5918843.625 ], [ 33832.650000000001455, 5918843.549999999813735 ], [ 33832.5, 5918843.549999999813735 ], [ 33832.5, 5918843.474999999627471 ], [ 33832.349999999998545, 5918843.474999999627471 ], [ 33832.349999999998545, 5918843.400000000372529 ], [ 33832.19999999999709, 5918843.400000000372529 ], [ 33832.19999999999709, 5918843.325000000186265 ], [ 33832.05000000000291, 5918843.325000000186265 ], [ 33832.05000000000291, 5918843.25 ], [ 33831.900000000001455, 5918843.25 ], [ 33831.900000000001455, 5918843.174999999813735 ], [ 33831.75, 5918843.174999999813735 ], [ 33831.75, 5918843.099999999627471 ], [ 33831.599999999998545, 5918843.099999999627471 ], [ 33831.599999999998545, 5918843.025000000372529 ], [ 33831.44999999999709, 5918843.025000000372529 ], [ 33831.44999999999709, 5918842.950000000186265 ], [ 33831.30000000000291, 5918842.950000000186265 ], [ 33831.30000000000291, 5918842.875 ], [ 33831.07499999999709, 5918842.875 ], [ 33831.07499999999709, 5918842.799999999813735 ], [ 33830.92500000000291, 5918842.799999999813735 ], [ 33830.92500000000291, 5918842.724999999627471 ], [ 33830.775000000001455, 5918842.724999999627471 ], [ 33830.775000000001455, 5918842.650000000372529 ], [ 33830.55000000000291, 5918842.650000000372529 ], [ 33830.55000000000291, 5918842.575000000186265 ], [ 33830.400000000001455, 5918842.575000000186265 ], [ 33830.400000000001455, 5918842.5 ], [ 33830.25, 5918842.5 ], [ 33830.25, 5918842.424999999813735 ], [ 33830.025000000001455, 5918842.424999999813735 ], [ 33830.025000000001455, 5918842.349999999627471 ], [ 33829.875, 5918842.349999999627471 ], [ 33829.875, 5918842.275000000372529 ], [ 33829.724999999998545, 5918842.275000000372529 ], [ 33829.724999999998545, 5918842.200000000186265 ], [ 33829.5, 5918842.200000000186265 ], [ 33829.5, 5918842.125 ], [ 33829.349999999998545, 5918842.125 ], [ 33829.349999999998545, 5918842.049999999813735 ], [ 33829.19999999999709, 5918842.049999999813735 ], [ 33829.19999999999709, 5918841.974999999627471 ], [ 33829.05000000000291, 5918841.974999999627471 ], [ 33829.05000000000291, 5918841.900000000372529 ], [ 33828.900000000001455, 5918841.900000000372529 ], [ 33828.900000000001455, 5918841.825000000186265 ], [ 33828.75, 5918841.825000000186265 ], [ 33828.75, 5918841.75 ], [ 33828.67500000000291, 5918841.75 ], [ 33828.67500000000291, 5918841.525000000372529 ], [ 33828.75, 5918841.525000000372529 ], [ 33828.75, 5918841.450000000186265 ], [ 33828.82499999999709, 5918841.450000000186265 ], [ 33828.82499999999709, 5918841.299999999813735 ], [ 33828.900000000001455, 5918841.299999999813735 ], [ 33828.900000000001455, 5918841.224999999627471 ], [ 33828.974999999998545, 5918841.224999999627471 ], [ 33828.974999999998545, 5918841.075000000186265 ], [ 33829.05000000000291, 5918841.075000000186265 ], [ 33829.05000000000291, 5918840.924999999813735 ], [ 33829.125, 5918840.924999999813735 ], [ 33829.125, 5918840.849999999627471 ], [ 33829.19999999999709, 5918840.849999999627471 ], [ 33829.19999999999709, 5918840.700000000186265 ], [ 33829.275000000001455, 5918840.700000000186265 ], [ 33829.275000000001455, 5918840.549999999813735 ], [ 33829.349999999998545, 5918840.549999999813735 ], [ 33829.349999999998545, 5918840.400000000372529 ], [ 33829.42500000000291, 5918840.400000000372529 ], [ 33829.42500000000291, 5918840.174999999813735 ], [ 33829.5, 5918840.174999999813735 ], [ 33829.5, 5918840.025000000372529 ], [ 33829.57499999999709, 5918840.025000000372529 ], [ 33829.57499999999709, 5918839.799999999813735 ], [ 33829.650000000001455, 5918839.799999999813735 ], [ 33829.650000000001455, 5918839.724999999627471 ], [ 33829.724999999998545, 5918839.724999999627471 ], [ 33829.724999999998545, 5918839.650000000372529 ], [ 33829.80000000000291, 5918839.650000000372529 ], [ 33829.80000000000291, 5918839.575000000186265 ], [ 33829.94999999999709, 5918839.575000000186265 ], [ 33829.94999999999709, 5918839.5 ], [ 33830.025000000001455, 5918839.5 ], [ 33830.025000000001455, 5918839.424999999813735 ], [ 33830.17500000000291, 5918839.424999999813735 ], [ 33830.17500000000291, 5918839.349999999627471 ], [ 33830.32499999999709, 5918839.349999999627471 ], [ 33830.32499999999709, 5918839.275000000372529 ], [ 33830.474999999998545, 5918839.275000000372529 ], [ 33830.474999999998545, 5918839.200000000186265 ], [ 33830.69999999999709, 5918839.200000000186265 ], [ 33830.69999999999709, 5918839.125 ], [ 33830.849999999998545, 5918839.125 ], [ 33830.849999999998545, 5918839.049999999813735 ], [ 33831.07499999999709, 5918839.049999999813735 ], [ 33831.07499999999709, 5918838.974999999627471 ], [ 33831.30000000000291, 5918838.974999999627471 ], [ 33831.30000000000291, 5918838.900000000372529 ], [ 33831.525000000001455, 5918838.900000000372529 ], [ 33831.525000000001455, 5918838.825000000186265 ], [ 33831.82499999999709, 5918838.825000000186265 ], [ 33831.82499999999709, 5918838.75 ], [ 33832.05000000000291, 5918838.75 ], [ 33832.05000000000291, 5918838.674999999813735 ], [ 33832.349999999998545, 5918838.674999999813735 ], [ 33832.349999999998545, 5918838.599999999627471 ], [ 33832.57499999999709, 5918838.599999999627471 ], [ 33832.57499999999709, 5918838.525000000372529 ], [ 33832.875, 5918838.525000000372529 ], [ 33832.875, 5918838.450000000186265 ], [ 33833.099999999998545, 5918838.450000000186265 ], [ 33833.099999999998545, 5918838.375 ], [ 33833.400000000001455, 5918838.375 ], [ 33833.400000000001455, 5918838.299999999813735 ], [ 33833.625, 5918838.299999999813735 ], [ 33833.625, 5918838.224999999627471 ], [ 33833.849999999998545, 5918838.224999999627471 ], [ 33833.849999999998545, 5918838.150000000372529 ], [ 33834.07499999999709, 5918838.150000000372529 ], [ 33834.07499999999709, 5918838.075000000186265 ], [ 33834.30000000000291, 5918838.075000000186265 ], [ 33834.30000000000291, 5918838.0 ], [ 33834.974999999998545, 5918838.0 ], [ 33834.974999999998545, 5918838.075000000186265 ], [ 33836.400000000001455, 5918838.075000000186265 ], [ 33836.400000000001455, 5918838.150000000372529 ], [ 33836.474999999998545, 5918838.150000000372529 ], [ 33836.474999999998545, 5918838.224999999627471 ], [ 33836.625, 5918838.224999999627471 ], [ 33836.625, 5918838.299999999813735 ], [ 33836.775000000001455, 5918838.299999999813735 ], [ 33836.775000000001455, 5918838.375 ], [ 33836.92500000000291, 5918838.375 ], [ 33836.92500000000291, 5918838.450000000186265 ], [ 33837.0, 5918838.450000000186265 ], [ 33837.0, 5918838.525000000372529 ], [ 33837.150000000001455, 5918838.525000000372529 ], [ 33837.150000000001455, 5918838.599999999627471 ], [ 33837.224999999998545, 5918838.599999999627471 ], [ 33837.224999999998545, 5918838.674999999813735 ], [ 33837.375, 5918838.674999999813735 ], [ 33837.375, 5918838.75 ], [ 33837.44999999999709, 5918838.75 ], [ 33837.44999999999709, 5918838.825000000186265 ], [ 33837.525000000001455, 5918838.825000000186265 ], [ 33837.525000000001455, 5918838.900000000372529 ], [ 33837.67500000000291, 5918838.900000000372529 ], [ 33837.67500000000291, 5918838.974999999627471 ], [ 33837.75, 5918838.974999999627471 ], [ 33837.75, 5918839.049999999813735 ], [ 33837.82499999999709, 5918839.049999999813735 ], [ 33837.82499999999709, 5918839.125 ], [ 33837.900000000001455, 5918839.125 ], [ 33837.900000000001455, 5918839.200000000186265 ], [ 33837.974999999998545, 5918839.200000000186265 ], [ 33837.974999999998545, 5918839.275000000372529 ], [ 33838.05000000000291, 5918839.275000000372529 ], [ 33838.05000000000291, 5918839.349999999627471 ], [ 33838.125, 5918839.349999999627471 ], [ 33838.125, 5918839.424999999813735 ], [ 33838.19999999999709, 5918839.424999999813735 ], [ 33838.19999999999709, 5918839.5 ], [ 33838.275000000001455, 5918839.5 ], [ 33838.275000000001455, 5918839.575000000186265 ], [ 33838.349999999998545, 5918839.575000000186265 ], [ 33838.349999999998545, 5918839.650000000372529 ], [ 33838.42500000000291, 5918839.650000000372529 ], [ 33838.42500000000291, 5918840.25 ], [ 33838.349999999998545, 5918840.25 ], [ 33838.349999999998545, 5918840.849999999627471 ], [ 33838.275000000001455, 5918840.849999999627471 ], [ 33838.275000000001455, 5918841.375 ], [ 33838.19999999999709, 5918841.375 ], [ 33838.19999999999709, 5918841.75 ], [ 33838.125, 5918841.75 ], [ 33838.125, 5918841.825000000186265 ], [ 33838.05000000000291, 5918841.825000000186265 ], [ 33838.05000000000291, 5918841.900000000372529 ], [ 33837.974999999998545, 5918841.900000000372529 ], [ 33837.974999999998545, 5918841.974999999627471 ], [ 33837.900000000001455, 5918841.974999999627471 ], [ 33837.900000000001455, 5918842.125 ], [ 33837.82499999999709, 5918842.125 ], [ 33837.82499999999709, 5918842.200000000186265 ], [ 33837.75, 5918842.200000000186265 ], [ 33837.75, 5918842.275000000372529 ], [ 33837.67500000000291, 5918842.275000000372529 ], [ 33837.67500000000291, 5918842.349999999627471 ], [ 33837.599999999998545, 5918842.349999999627471 ], [ 33837.599999999998545, 5918842.424999999813735 ], [ 33837.525000000001455, 5918842.424999999813735 ], [ 33837.525000000001455, 5918842.5 ], [ 33837.44999999999709, 5918842.5 ], [ 33837.44999999999709, 5918842.575000000186265 ], [ 33837.375, 5918842.575000000186265 ], [ 33837.375, 5918842.650000000372529 ], [ 33837.30000000000291, 5918842.650000000372529 ], [ 33837.30000000000291, 5918842.724999999627471 ], [ 33837.224999999998545, 5918842.724999999627471 ], [ 33837.224999999998545, 5918842.799999999813735 ], [ 33837.150000000001455, 5918842.799999999813735 ], [ 33837.150000000001455, 5918842.875 ], [ 33837.07499999999709, 5918842.875 ], [ 33837.07499999999709, 5918842.950000000186265 ], [ 33837.0, 5918842.950000000186265 ], [ 33837.0, 5918843.025000000372529 ], [ 33836.92500000000291, 5918843.025000000372529 ], [ 33836.92500000000291, 5918843.099999999627471 ], [ 33836.849999999998545, 5918843.099999999627471 ], [ 33836.849999999998545, 5918843.174999999813735 ], [ 33836.775000000001455, 5918843.174999999813735 ], [ 33836.775000000001455, 5918843.25 ], [ 33836.69999999999709, 5918843.25 ], [ 33836.69999999999709, 5918843.325000000186265 ], [ 33836.625, 5918843.325000000186265 ], [ 33836.625, 5918843.400000000372529 ], [ 33836.55000000000291, 5918843.400000000372529 ], [ 33836.55000000000291, 5918843.474999999627471 ], [ 33836.474999999998545, 5918843.474999999627471 ], [ 33836.474999999998545, 5918843.549999999813735 ], [ 33836.32499999999709, 5918843.549999999813735 ], [ 33836.32499999999709, 5918843.625 ], [ 33836.25, 5918843.625 ], [ 33836.25, 5918843.700000000186265 ], [ 33836.025000000001455, 5918843.700000000186265 ], [ 33836.025000000001455, 5918843.775000000372529 ], [ 33835.875, 5918843.775000000372529 ], [ 33835.875, 5918843.849999999627471 ], [ 33835.650000000001455, 5918843.849999999627471 ], [ 33835.650000000001455, 5918843.924999999813735 ], [ 33835.42500000000291, 5918843.924999999813735 ], [ 33835.42500000000291, 5918844.0 ], [ 33835.19999999999709, 5918844.0 ], [ 33835.19999999999709, 5918844.075000000186265 ], [ 33834.974999999998545, 5918844.075000000186265 ], [ 33834.974999999998545, 5918844.150000000372529 ], [ 33834.67500000000291, 5918844.150000000372529 ], [ 33834.67500000000291, 5918844.224999999627471 ], [ 33834.375, 5918844.224999999627471 ], [ 33834.375, 5918844.299999999813735 ], [ 33834.30000000000291, 5918844.299999999813735 ] ] ] } }
]
}
