{
"type": "FeatureCollection",
"name": "35433E591657N_buildings",
"crs": { "type": "name", "properties": { "name": "urn:ogc:def:crs:EPSG::3776" } },
"features": [
{ "type": "Feature", "properties": { "value": 1.0, "building_id": 0, "area": 128.69437499999341 }, "geometry": { "type": "Polygon", "coordinates": [ [ [ 35507.775000000001455, 5916822.825000000186265 ], [ 35507.775000000001455, 5916822.75 ], [ 35507.099999999998545, 5916822.75 ], [ 35507.099999999998545, 5916822.674999999813735 ], [ 35506.5, 5916822.674999999813735 ], [ 35506.5, 5916822.599999999627471 ], [ 35506.19999999999709, 5916822.599999999627471 ], [ 35506.19999999999709, 5916822.525000000372529 ], [ 35506.05000000000291, 5916822.525000000372529 ], [ 35506.05000000000291, 5916822.450000000186265 ], [ 35505.974999999998545, 5916822.450000000186265 ], [ 35505.974999999998545, 5916822.375 ], [ 35505.900000000001455, 5916822.375 ], [ 35505.900000000001455, 5916822.299999999813735 ], [ 35505.82499999999709, 5916822.299999999813735 ], [ 35505.82499999999709, 5916822.224999999627471 ], [ 35505.75, 5916822.224999999627471 ], [ 35505.75, 5916822.150000000372529 ], [ 35505.67500000000291, 5916822.150000000372529 ], [ 35505.67500000000291, 5916822.075000000186265 ], [ 35505.599999999998545, 5916822.075000000186265 ], [ 35505.599999999998545, 5916821.924999999813735 ], [ 35505.525000000001455, 5916821.924999999813735 ], [ 35505.525000000001455, 5916821.849999999627471 ], [ 35505.44999999999709, 5916821.849999999627471 ], [ 35505.44999999999709, 5916821.775000000372529 ], [ 35505.375, 5916821.775000000372529 ], [ 35505.375, 5916821.700000000186265 ], [ 35505.30000000000291, 5916821.700000000186265 ], [ 35505.30000000000291, 5916821.625 ], [ 35505.224999999998545, 5916821.625 ], [ 35505.224999999998545, 5916821.549999999813735 ], [ 35505.150000000001455, 5916821.549999999813735 ], [ 35505.150000000001455, 5916821.474999999627471 ], [ 35505.07499999999709, 5916821.474999999627471 ], [ 35505.07499999999709, 5916821.400000000372529 ], [ 35504.92500000000291, 5916821.400000000372529 ], [ 35504.92500000000291, 5916821.325000000186265 ], [ 35504.849999999998545, 5916821.325000000186265 ], [ 35504.849999999998545, 5916821.25 ], [ 35504.775000000001455, 5916821.25 ], [ 35504.775000000001455, 5916821.174999999813735 ], [ 35504.69999999999709, 5916821.174999999813735 ], [ 35504.69999999999709, 5916821.099999999627471 ], [ 35504.55000000000291, 5916821.099999999627471 ], [ 35504.55000000000291, 5916821.025000000372529 ], [ 35504.474999999998545, 5916821.025000000372529 ], [ 35504.474999999998545, 5916820.950000000186265 ], [ 35504.32499999999709, 5916820.950000000186265 ], [ 35504.32499999999709, 5916820.875 ], [ 35504.25, 5916820.875 ], [ 35504.25, 5916820.799999999813735 ], [ 35504.17500000000291, 5916820.799999999813735 ], [ 35504.17500000000291, 5916820.724999999627471 ], [ 35504.099999999998545, 5916820.724999999627471 ], [ 35504.099999999998545, 5916820.650000000372529 ], [ 35504.025000000001455, 5916820.650000000372529 ], [ 35504.025000000001455, 5916820.575000000186265 ], [ 35503.94999999999709, 5916820.575000000186265 ], [ 35503.94999999999709, 5916820.5 ], [ 35503.875, 5916820.5 ], [ 35503.875, 5916820.424999999813735 ], [ 35503.80000000000291, 5916820.424999999813735 ], [ 35503.80000000000291, 5916820.349999999627471 ], [ 35503.724999999998545, 5916820.349999999627471 ], [ 35503.724999999998545, 5916820.200000000186265 ], [ 35503.650000000001455, 5916820.200000000186265 ], [ 35503.650000000001455, 5916819.974999999627471 ], [ 35503.57499999999709, 5916819.974999999627471 ], [ 35503.57499999999709, 5916819.75 ], [ 35503.5, 5916819.75 ], [ 35503.5, 5916819.450000000186265 ], [ 35503.42500000000291, 5916819.450000000186265 ], [ 35503.42500000000291, 5916819.075000000186265 ], [ 35503.349999999998545, 5916819.075000000186265 ], [ 35503.349999999998545, 5916818.775000000372529 ], [ 35503.275000000001455, 5916818.775000000372529 ], [ 35503.275000000001455, 5916818.325000000186265 ], [ 35503.19999999999709, 5916818.325000000186265 ], [ 35503.19999999999709, 5916815.325000000186265 ], [ 35503.275000000001455, 5916815.325000000186265 ], [ 35503.275000000001455, 5916813.974999999627471 ], [ 35503.349999999998545, 5916813.974999999627471 ], [ 35503.349999999998545, 5916813.0 ], [ 35503.42500000000291, 5916813.0 ], [ 35503.42500000000291, 5916812.174999999813735 ], [ 35503.5, 5916812.174999999813735 ], [ 35503.5, 5916811.650000000372529 ], [ 35503.57499999999709, 5916811.650000000372529 ], [ 35503.57499999999709, 5916811.125 ], [ 35503.650000000001455, 5916811.125 ], [ 35503.650000000001455, 5916810.674999999813735 ], [ 35503.724999999998545, 5916810.674999999813735 ], [ 35503.724999999998545, 5916810.375 ], [ 35503.80000000000291, 5916810.375 ], [ 35503.80000000000291, 5916810.299999999813735 ], [ 35503.875, 5916810.299999999813735 ], [ 35503.875, 5916810.150000000372529 ], [ 35503.94999999999709, 5916810.150000000372529 ], [ 35503.94999999999709, 5916810.075000000186265 ], [ 35504.025000000001455, 5916810.075000000186265 ], [ 35504.025000000001455, 5916810.0 ], [ 35504.099999999998545, 5916810.0 ], [ 35504.099999999998545, 5916809.924999999813735 ], [ 35504.17500000000291, 5916809.924999999813735 ], [ 35504.17500000000291, 5916809.849999999627471 ], [ 35504.25, 5916809.849999999627471 ], [ 35504.25, 5916809.775000000372529 ], [ 35504.32499999999709, 5916809.775000000372529 ], [ 35504.32499999999709, 5916809.700000000186265 ], [ 35504.474999999998545, 5916809.700000000186265 ], [ 35504.474999999998545, 5916809.625 ], [ 35504.55000000000291, 5916809.625 ], [ 35504.55000000000291, 5916809.549999999813735 ], [ 35504.625, 5916809.549999999813735 ], [ 35504.625, 5916809.474999999627471 ], [ 35504.69999999999709, 5916809.474999999627471 ], [ 35504.69999999999709, 5916809.400000000372529 ], [ 35504.775000000001455, 5916809.400000000372529 ], [ 35504.775000000001455, 5916809.325000000186265 ], [ 35504.849999999998545, 5916809.325000000186265 ], [ 35504.849999999998545, 5916809.25 ], [ 35504.92500000000291, 5916809.25 ], [ 35504.92500000000291, 5916809.174999999813735 ], [ 35505.0, 5916809.174999999813735 ], [ 35505.0, 5916809.099999999627471 ], [ 35505.07499999999709, 5916809.099999999627471 ], [ 35505.07499999999709, 5916809.025000000372529 ], [ 35505.150000000001455, 5916809.025000000372529 ], [ 35505.150000000001455, 5916808.875 ], [ 35505.224999999998545, 5916808.875 ], [ 35505.224999999998545, 5916808.799999999813735 ], [ 35505.30000000000291, 5916808.799999999813735 ], [ 35505.30000000000291, 5916808.650000000372529 ], [ 35505.375, 5916808.650000000372529 ], [ 35505.375, 5916808.5 ], [ 35505.44999999999709, 5916808.5 ], [ 35505.44999999999709, 5916808.424999999813735 ], [ 35505.525000000001455, 5916808.424999999813735 ], [ 35505.525000000001455, 5916808.275000000372529 ], [ 35505.599999999998545, 5916808.275000000372529 ], [ 35505.599999999998545, 5916808.200000000186265 ], [ 35505.67500000000291, 5916808.200000000186265 ], [ 35505.67500000000291, 5916808.125 ], [ 35505.75, 5916808.125 ], [ 35505.75, 5916808.049999999813735 ], [ 35505.82499999999709, 5916808.049999999813735 ], [ 35505.82499999999709, 5916807.974999999627471 ], [ 35505.900000000001455, 5916807.974999999627471 ], [ 35505.900000000001455, 5916807.900000000372529 ], [ 35505.974999999998545, 5916807.900000000372529 ], [ 35505.974999999998545, 5916807.825000000186265 ], [ 35506.125, 5916807.825000000186265 ], [ 35506.125, 5916807.75 ], [ 35506.19999999999709, 5916807.75 ], [ 35506.19999999999709, 5916807.674999999813735 ], [ 35506.5, 5916807.674999999813735 ], [ 35506.5, 5916807.599999999627471 ], [ 35506.724999999998545, 5916807.599999999627471 ], [ 35506.724999999998545, 5916807.525000000372529 ], [ 35507.025000000001455, 5916807.525000000372529 ], [ 35507.025000000001455, 5916807.450000000186265 ], [ 35507.25, 5916807.450000000186265 ], [ 35507.25, 5916807.375 ], [ 35507.400000000001455, 5916807.375 ], [ 35507.400000000001455, 5916807.299999999813735 ], [ 35507.55000000000291, 5916807.299999999813735 ], [ 35507.55000000000291, 5916807.224999999627471 ], [ 35507.69999999999709, 5916807.224999999627471 ], [ 35507.69999999999709, 5916807.150000000372529 ], [ 35507.849999999998545, 5916807.150000000372529 ], [ 35507.849999999998545, 5916807.075000000186265 ], [ 35508.0, 5916807.075000000186265 ], [ 35508.0, 5916807.0 ], [ 35508.07499999999709, 5916807.0 ], [ 35508.07499999999709, 5916806.924999999813735 ], [ 35508.375, 5916806.924999999813735 ], [ 35508.375, 5916807.0 ], [ 35508.525000000001455, 5916807.0 ], [ 35508.525000000001455, 5916807.075000000186265 ], [ 35508.75, 5916807.075000000186265 ], [ 35508.75, 5916807.150000000372529 ], [ 35508.900000000001455, 5916807.150000000372529 ], [ 35508.900000000001455, 5916807.224999999627471 ], [ 35509.125, 5916807.224999999627471 ], [ 35509.125, 5916807.299999999813735 ], [ 35509.349999999998545, 5916807.299999999813735 ], [ 35509.349999999998545, 5916807.375 ], [ 35509.57499999999709, 5916807.375 ], [ 35509.57499999999709, 5916807.450000000186265 ], [ 35509.80000000000291, 5916807.450000000186265 ], [ 35509.80000000000291, 5916807.525000000372529 ], [ 35510.025000000001455, 5916807.525000000372529 ], [ 35510.025000000001455, 5916807.599999999627471 ], [ 35510.25, 5916807.599999999627471 ], [ 35510.25, 5916807.674999999813735 ], [ 35510.55000000000291, 5916807.674999999813735 ], [ 35510.55000000000291, 5916807.75 ], [ 35510.849999999998545, 5916807.75 ], [ 35510.849999999998545, 5916807.825000000186265 ], [ 35511.150000000001455, 5916807.825000000186265 ], [ 35511.150000000001455, 5916807.900000000372529 ], [ 35511.525000000001455, 5916807.900000000372529 ], [ 35511.525000000001455, 5916807.974999999627471 ], [ 35511.82499999999709, 5916807.974999999627471 ], [ 35511.82499999999709, 5916808.049999999813735 ], [ 35512.125, 5916808.049999999813735 ], [ 35512.125, 5916808.125 ], [ 35512.275000000001455, 5916808.125 ], [ 35512.275000000001455, 5916808.200000000186265 ], [ 35512.349999999998545, 5916808.200000000186265 ], [ 35512.349999999998545, 5916808.275000000372529 ], [ 35512.5, 5916808.275000000372529 ], [ 35512.5, 5916808.349999999627471 ], [ 35512.57499999999709, 5916808.349999999627471 ], [ 35512.57499999999709, 5916808.424999999813735 ], [ 35512.650000000001455, 5916808.424999999813735 ], [ 35512.650000000001455, 5916808.5 ], [ 35512.724999999998545, 5916808.5 ], [ 35512.724999999998545, 5916808.650000000372529 ], [ 35512.80000000000291, 5916808.650000000372529 ], [ 35512.80000000000291, 5916808.950000000186265 ], [ 35512.875, 5916808.950000000186265 ], [ 35512.875, 5916809.174999999813735 ], [ 35512.94999999999709, 5916809.174999999813735 ], [ 35512.94999999999709, 5916809.474999999627471 ], [ 35513.025000000001455, 5916809.474999999627471 ], [ 35513.025000000001455, 5916809.700000000186265 ], [ 35513.099999999998545, 5916809.700000000186265 ], [ 35513.099999999998545, 5916809.924999999813735 ], [ 35513.17500000000291, 5916809.924999999813735 ], [ 35513.17500000000291, 5916810.150000000372529 ], [ 35513.25, 5916810.150000000372529 ], [ 35513.25, 5916810.375 ], [ 35513.32499999999709, 5916810.375 ], [ 35513.32499999999709, 5916810.674999999813735 ], [ 35513.25, 5916810.674999999813735 ], [ 35513.25, 5916811.650000000372529 ], [ 35513.17500000000291, 5916811.650000000372529 ], [ 35513.17500000000291, 5916813.75 ], [ 35513.099999999998545, 5916813.75 ], [ 35513.099999999998545, 5916817.049999999813735 ], [ 35513.025000000001455, 5916817.049999999813735 ], [ 35513.025000000001455, 5916817.950000000186265 ], [ 35512.94999999999709, 5916817.950000000186265 ], [ 35512.94999999999709, 5916818.400000000372529 ], [ 35512.875, 5916818.400000000372529 ], [ 35512.875, 5916818.549999999813735 ], [ 35512.80000000000291, 5916818.549999999813735 ], [ 35512.80000000000291, 5916818.625 ], [ 35512.724999999998545, 5916818.625 ], [ 35512.724999999998545, 5916818.775000000372529 ], [ 35512.650000000001455, 5916818.775000000372529 ], [ 35512.650000000001455, 5916818.849999999627471 ], [ 35512.57499999999709, 5916818.849999999627471 ], [ 35512.57499999999709, 5916819.0 ], [ 35512.5, 5916819.0 ], [ 35512.5, 5916819.075000000186265 ], [ 35512.42500000000291, 5916819.075000000186265 ], [ 35512.42500000000291, 5916819.150000000372529 ], [ 35512.349999999998545, 5916819.150000000372529 ], [ 35512.349999999998545, 5916819.224999999627471 ], [ 35512.275000000001455, 5916819.224999999627471 ], [ 35512.275000000001455, 5916819.299999999813735 ], [ 35512.19999999999709, 5916819.299999999813735 ], [ 35512.19999999999709, 5916819.375 ], [ 35512.125, 5916819.375 ], [ 35512.125, 5916819.450000000186265 ], [ 35511.974999999998545, 5916819.450000000186265 ], [ 35511.974999999998545, 5916819.525000000372529 ], [ 35511.900000000001455, 5916819.525000000372529 ], [ 35511.900000000001455, 5916819.599999999627471 ], [ 35511.82499999999709, 5916819.599999999627471 ], [ 35511.82499999999709, 5916819.674999999813735 ], [ 35511.75, 5916819.674999999813735 ], [ 35511.75, 5916819.75 ], [ 35511.67500000000291, 5916819.75 ], [ 35511.67500000000291, 5916819.825000000186265 ], [ 35511.599999999998545, 5916819.825000000186265 ], [ 35511.599999999998545, 5916819.900000000372529 ], [ 35511.525000000001455, 5916819.900000000372529 ], [ 35511.525000000001455, 5916820.049999999813735 ], [ 35511.44999999999709, 5916820.049999999813735 ], [ 35511.44999999999709, 5916820.125 ], [ 35511.375, 5916820.125 ], [ 35511.375, 5916820.275000000372529 ], [ 35511.30000000000291, 5916820.275000000372529 ], [ 35511.30000000000291, 5916820.349999999627471 ], [ 35511.224999999998545, 5916820.349999999627471 ], [ 35511.224999999998545, 5916820.424999999813735 ], [ 35511.150000000001455, 5916820.424999999813735 ], [ 35511.150000000001455, 5916820.575000000186265 ], [ 35511.07499999999709, 5916820.575000000186265 ], [ 35511.07499999999709, 5916820.650000000372529 ], [ 35511.0, 5916820.650000000372529 ], [ 35511.0, 5916820.724999999627471 ], [ 35510.92500000000291, 5916820.724999999627471 ], [ 35510.92500000000291, 5916820.799999999813735 ], [ 35510.849999999998545, 5916820.799999999813735 ], [ 35510.849999999998545, 5916820.875 ], [ 35510.69999999999709, 5916820.875 ], [ 35510.69999999999709, 5916820.950000000186265 ], [ 35510.625, 5916820.950000000186265 ], [ 35510.625, 5916821.025000000372529 ], [ 35510.474999999998545, 5916821.025000000372529 ], [ 35510.474999999998545, 5916821.099999999627471 ], [ 35510.400000000001455, 5916821.099999999627471 ], [ 35510.400000000001455, 5916821.174999999813735 ], [ 35510.25, 5916821.174999999813735 ], [ 35510.25, 5916821.25 ], [ 35510.099999999998545, 5916821.25 ], [ 35510.099999999998545, 5916821.325000000186265 ], [ 35509.94999999999709, 5916821.325000000186265 ], [ 35509.94999999999709, 5916821.400000000372529 ], [ 35509.80000000000291, 5916821.400000000372529 ], [ 35509.80000000000291, 5916821.474999999627471 ], [ 35509.724999999998545, 5916821.474999999627471 ], [ 35509.724999999998545, 5916821.549999999813735 ], [ 35509.57499999999709, 5916821.549999999813735 ], [ 35509.57499999999709, 5916821.625 ], [ 35509.5, 5916821.625 ], [ 35509.5, 5916821.700000000186265 ], [ 35509.42500000000291, 5916821.700000000186265 ], [ 35509.42500000000291, 5916821.775000000372529 ], [ 35509.349999999998545, 5916821.775000000372529 ], [ 35509.349999999998545, 5916821.849999999627471 ], [ 35509.275000000001455, 5916821.849999999627471 ], [ 35509.275000000001455, 5916821.924999999813735 ], [ 35509.19999999999709, 5916821.924999999813735 ], [ 35509.19999999999709, 5916822.0 ], [ 35509.125, 5916822.0 ], [ 35509.125, 5916822.075000000186265 ], [ 35509.05000000000291, 5916822.075000000186265 ], [ 35509.05000000000291, 5916822.150000000372529 ], [ 35508.974999999998545, 5916822.150000000372529 ], [ 35508.974999999998545, 5916822.224999999627471 ], [ 35508.900000000001455, 5916822.224999999627471 ], [ 35508.900000000001455, 5916822.299999999813735 ], [ 35508.82499999999709, 5916822.299999999813735 ], [ 35508.82499999999709, 5916822.375 ], [ 35508.75, 5916822.375 ], [ 35508.75, 5916822.450000000186265 ], [ 35508.67500000000291, 5916822.450000000186265 ], [ 35508.67500000000291, 5916822.525000000372529 ], [ 35508.599999999998545, 5916822.525000000372529 ], [ 35508.599999999998545, 5916822.599999999627471 ], [ 35508.525000000001455, 5916822.599999999627471 ], [ 35508.525000000001455, 5916822.674999999813735 ], [ 35508.375, 5916822.674999999813735 ], [ 35508.375, 5916822.75 ], [ 35508.30000000000291, 5916822.75 ], [ 35508.30000000000291, 5916822.825000000186265 ], [ 35507.775000000001455, 5916822.825000000186265 ] ] ] } },
{ "type": "Feature", "properties": { "value": 1.0, "building_id": 1, "area": 74.739375000249595 }, "geometry": { "type": "Polygon", "coordinates": [ [ [ 35530.724999999998545, 5916803.174999999813735 ], [ 35530.724999999998545, 5916803.099999999627471 ], [ 35529.900000000001455, 5916803.099999999627471 ], [ 35529.900000000001455, 5916803.025000000372529 ], [ 35529.599999999998545, 5916803.025000000372529 ], [ 35529.599999999998545, 5916802.950000000186265 ], [ 35529.525000000001455, 5916802.950000000186265 ], [ 35529.525000000001455, 5916802.875 ], [ 35529.44999999999709, 5916802.875 ], [ 35529.44999999999709, 5916802.799999999813735 ], [ 35529.375, 5916802.799999999813735 ], [ 35529.375, 5916802.724999999627471 ], [ 35529.30000000000291, 5916802.724999999627471 ], [ 35529.30000000000291, 5916802.5 ], [ 35529.224999999998545, 5916802.5 ], [ 35529.224999999998545, 5916801.75 ], [ 35529.150000000001455, 5916801.75 ], [ 35529.150000000001455, 5916801.0 ], [ 35529.07499999999709, 5916801.0 ], [ 35529.07499999999709, 5916799.724999999627471 ], [ 35529.150000000001455, 5916799.724999999627471 ], [ 35529.150000000001455, 5916797.549999999813735 ], [ 35529.224999999998545, 5916797.549999999813735 ], [ 35529.224999999998545, 5916794.700000000186265 ], [ 35529.30000000000291, 5916794.700000000186265 ], [ 35529.30000000000291, 5916794.174999999813735 ], [ 35529.375, 5916794.174999999813735 ], [ 35529.375, 5916793.724999999627471 ], [ 35529.44999999999709, 5916793.724999999627471 ], [ 35529.44999999999709, 5916793.200000000186265 ], [ 35529.525000000001455, 5916793.200000000186265 ], [ 35529.525000000001455, 5916792.825000000186265 ], [ 35529.599999999998545, 5916792.825000000186265 ], [ 35529.599999999998545, 5916792.75 ], [ 35529.75, 5916792.75 ], [ 35529.75, 5916792.674999999813735 ], [ 35530.5, 5916792.674999999813735 ], [ 35530.5, 5916792.599999999627471 ], [ 35531.25, 5916792.599999999627471 ], [ 35531.25, 5916792.525000000372529 ], [ 35532.07499999999709, 5916792.525000000372529 ], [ 35532.07499999999709, 5916792.599999999627471 ], [ 35532.974999999998545, 5916792.599999999627471 ], [ 35532.974999999998545, 5916792.674999999813735 ], [ 35533.650000000001455, 5916792.674999999813735 ], [ 35533.650000000001455, 5916792.75 ], [ 35533.94999999999709, 5916792.75 ], [ 35533.94999999999709, 5916792.825000000186265 ], [ 35534.17500000000291, 5916792.825000000186265 ], [ 35534.17500000000291, 5916792.974999999627471 ], [ 35534.25, 5916792.974999999627471 ], [ 35534.25, 5916793.049999999813735 ], [ 35534.32499999999709, 5916793.049999999813735 ], [ 35534.32499999999709, 5916793.125 ], [ 35534.400000000001455, 5916793.125 ], [ 35534.400000000001455, 5916793.275000000372529 ], [ 35534.474999999998545, 5916793.275000000372529 ], [ 35534.474999999998545, 5916793.349999999627471 ], [ 35534.55000000000291, 5916793.349999999627471 ], [ 35534.55000000000291, 5916793.424999999813735 ], [ 35534.625, 5916793.424999999813735 ], [ 35534.625, 5916793.5 ], [ 35534.69999999999709, 5916793.5 ], [ 35534.69999999999709, 5916793.575000000186265 ], [ 35534.775000000001455, 5916793.575000000186265 ], [ 35534.775000000001455, 5916793.650000000372529 ], [ 35534.92500000000291, 5916793.650000000372529 ], [ 35534.92500000000291, 5916793.724999999627471 ], [ 35535.0, 5916793.724999999627471 ], [ 35535.0, 5916793.799999999813735 ], [ 35535.150000000001455, 5916793.799999999813735 ], [ 35535.150000000001455, 5916793.875 ], [ 35535.30000000000291, 5916793.875 ], [ 35535.30000000000291, 5916793.950000000186265 ], [ 35535.44999999999709, 5916793.950000000186265 ], [ 35535.44999999999709, 5916794.025000000372529 ], [ 35535.599999999998545, 5916794.025000000372529 ], [ 35535.599999999998545, 5916794.099999999627471 ], [ 35535.67500000000291, 5916794.099999999627471 ], [ 35535.67500000000291, 5916794.174999999813735 ], [ 35535.82499999999709, 5916794.174999999813735 ], [ 35535.82499999999709, 5916794.25 ], [ 35535.974999999998545, 5916794.25 ], [ 35535.974999999998545, 5916794.325000000186265 ], [ 35536.125, 5916794.325000000186265 ], [ 35536.125, 5916794.400000000372529 ], [ 35536.349999999998545, 5916794.400000000372529 ], [ 35536.349999999998545, 5916794.474999999627471 ], [ 35536.57499999999709, 5916794.474999999627471 ], [ 35536.57499999999709, 5916794.549999999813735 ], [ 35536.94999999999709, 5916794.549999999813735 ], [ 35536.94999999999709, 5916794.625 ], [ 35537.32499999999709, 5916794.625 ], [ 35537.32499999999709, 5916794.700000000186265 ], [ 35537.55000000000291, 5916794.700000000186265 ], [ 35537.55000000000291, 5916798.150000000372529 ], [ 35537.474999999998545, 5916798.150000000372529 ], [ 35537.474999999998545, 5916799.125 ], [ 35537.400000000001455, 5916799.125 ], [ 35537.400000000001455, 5916799.575000000186265 ], [ 35537.32499999999709, 5916799.575000000186265 ], [ 35537.32499999999709, 5916800.025000000372529 ], [ 35537.25, 5916800.025000000372529 ], [ 35537.25, 5916800.549999999813735 ], [ 35537.17500000000291, 5916800.549999999813735 ], [ 35537.17500000000291, 5916800.700000000186265 ], [ 35536.94999999999709, 5916800.700000000186265 ], [ 35536.94999999999709, 5916800.775000000372529 ], [ 35536.650000000001455, 5916800.775000000372529 ], [ 35536.650000000001455, 5916800.849999999627471 ], [ 35536.42500000000291, 5916800.849999999627471 ], [ 35536.42500000000291, 5916800.924999999813735 ], [ 35536.125, 5916800.924999999813735 ], [ 35536.125, 5916801.0 ], [ 35535.900000000001455, 5916801.0 ], [ 35535.900000000001455, 5916801.075000000186265 ], [ 35535.67500000000291, 5916801.075000000186265 ], [ 35535.67500000000291, 5916801.150000000372529 ], [ 35535.44999999999709, 5916801.150000000372529 ], [ 35535.44999999999709, 5916801.224999999627471 ], [ 35535.30000000000291, 5916801.224999999627471 ], [ 35535.30000000000291, 5916801.299999999813735 ], [ 35535.150000000001455, 5916801.299999999813735 ], [ 35535.150000000001455, 5916801.375 ], [ 35535.0, 5916801.375 ], [ 35535.0, 5916801.450000000186265 ], [ 35534.849999999998545, 5916801.450000000186265 ], [ 35534.849999999998545, 5916801.525000000372529 ], [ 35534.775000000001455, 5916801.525000000372529 ], [ 35534.775000000001455, 5916801.599999999627471 ], [ 35534.69999999999709, 5916801.599999999627471 ], [ 35534.69999999999709, 5916801.674999999813735 ], [ 35534.625, 5916801.674999999813735 ], [ 35534.625, 5916801.75 ], [ 35534.55000000000291, 5916801.75 ], [ 35534.55000000000291, 5916801.825000000186265 ], [ 35534.474999999998545, 5916801.825000000186265 ], [ 35534.474999999998545, 5916801.900000000372529 ], [ 35534.400000000001455, 5916801.900000000372529 ], [ 35534.400000000001455, 5916801.974999999627471 ], [ 35534.32499999999709, 5916801.974999999627471 ], [ 35534.32499999999709, 5916802.125 ], [ 35534.25, 5916802.125 ], [ 35534.25, 5916802.200000000186265 ], [ 35534.17500000000291, 5916802.200000000186265 ], [ 35534.17500000000291, 5916802.349999999627471 ], [ 35534.099999999998545, 5916802.349999999627471 ], [ 35534.099999999998545, 5916802.5 ], [ 35534.025000000001455, 5916802.5 ], [ 35534.025000000001455, 5916802.650000000372529 ], [ 35533.94999999999709, 5916802.650000000372529 ], [ 35533.94999999999709, 5916802.724999999627471 ], [ 35533.80000000000291, 5916802.724999999627471 ], [ 35533.80000000000291, 5916802.799999999813735 ], [ 35533.724999999998545, 5916802.799999999813735 ], [ 35533.724999999998545, 5916802.875 ], [ 35533.57499999999709, 5916802.875 ], [ 35533.57499999999709, 5916802.950000000186265 ], [ 35533.125, 5916802.950000000186265 ], [ 35533.125, 5916803.025000000372529 ], [ 35532.67500000000291, 5916803.025000000372529 ], [ 35532.67500000000291, 5916803.099999999627471 ], [ 35532.150000000001455, 5916803.099999999627471 ], [ 35532.150000000001455, 5916803.174999999813735 ], [ 35530.724999999998545, 5916803.174999999813735 ] ] ] } }
]
}
