{
"type": "FeatureCollection",
"name": "36183E591507N_buildings",
"crs": { "type": "name", "properties": { "name": "urn:ogc:def:crs:EPSG::3776" } },
"features": [
{ "type": "Feature", "properties": { "value": 1.0, "building_id": 0, "area": 252.96750000044801 }, "geometry": { "type": "Polygon", "coordinates": [ [ [ 36888.82499999999709, 5915785.349999999627471 ], [ 36888.82499999999709, 5915785.275000000372529 ], [ 36888.224999999998545, 5915785.275000000372529 ], [ 36888.224999999998545, 5915785.200000000186265 ], [ 36887.69999999999709, 5915785.200000000186265 ], [ 36887.69999999999709, 5915785.125 ], [ 36887.17500000000291, 5915785.125 ], [ 36887.17500000000291, 5915785.049999999813735 ], [ 36886.724999999998545, 5915785.049999999813735 ], [ 36886.724999999998545, 5915784.974999999627471 ], [ 36886.19999999999709, 5915784.974999999627471 ], [ 36886.19999999999709, 5915784.900000000372529 ], [ 36885.67500000000291, 5915784.900000000372529 ], [ 36885.67500000000291, 5915784.825000000186265 ], [ 36885.150000000001455, 5915784.825000000186265 ], [ 36885.150000000001455, 5915784.75 ], [ 36884.775000000001455, 5915784.75 ], [ 36884.775000000001455, 5915784.674999999813735 ], [ 36884.32499999999709, 5915784.674999999813735 ], [ 36884.32499999999709, 5915784.599999999627471 ], [ 36883.94999999999709, 5915784.599999999627471 ], [ 36883.94999999999709, 5915784.525000000372529 ], [ 36883.57499999999709, 5915784.525000000372529 ], [ 36883.57499999999709, 5915784.450000000186265 ], [ 36883.275000000001455, 5915784.450000000186265 ], [ 36883.275000000001455, 5915784.375 ], [ 36883.125, 5915784.375 ], [ 36883.125, 5915784.299999999813735 ], [ 36883.05000000000291, 5915784.299999999813735 ], [ 36883.05000000000291, 5915784.224999999627471 ], [ 36882.900000000001455, 5915784.224999999627471 ], [ 36882.900000000001455, 5915784.150000000372529 ], [ 36882.82499999999709, 5915784.150000000372529 ], [ 36882.82499999999709, 5915784.075000000186265 ], [ 36882.75, 5915784.075000000186265 ], [ 36882.75, 5915784.0 ], [ 36882.599999999998545, 5915784.0 ], [ 36882.599999999998545, 5915783.924999999813735 ], [ 36882.525000000001455, 5915783.924999999813735 ], [ 36882.525000000001455, 5915783.849999999627471 ], [ 36882.44999999999709, 5915783.849999999627471 ], [ 36882.44999999999709, 5915783.775000000372529 ], [ 36882.30000000000291, 5915783.775000000372529 ], [ 36882.30000000000291, 5915783.700000000186265 ], [ 36882.224999999998545, 5915783.700000000186265 ], [ 36882.224999999998545, 5915783.625 ], [ 36882.07499999999709, 5915783.625 ], [ 36882.07499999999709, 5915783.549999999813735 ], [ 36881.92500000000291, 5915783.549999999813735 ], [ 36881.92500000000291, 5915783.474999999627471 ], [ 36881.849999999998545, 5915783.474999999627471 ], [ 36881.849999999998545, 5915783.400000000372529 ], [ 36881.69999999999709, 5915783.400000000372529 ], [ 36881.69999999999709, 5915783.325000000186265 ], [ 36881.625, 5915783.325000000186265 ], [ 36881.625, 5915783.25 ], [ 36881.474999999998545, 5915783.25 ], [ 36881.474999999998545, 5915783.174999999813735 ], [ 36881.32499999999709, 5915783.174999999813735 ], [ 36881.32499999999709, 5915783.099999999627471 ], [ 36881.25, 5915783.099999999627471 ], [ 36881.25, 5915782.950000000186265 ], [ 36881.17500000000291, 5915782.950000000186265 ], [ 36881.17500000000291, 5915782.650000000372529 ], [ 36881.099999999998545, 5915782.650000000372529 ], [ 36881.099999999998545, 5915782.349999999627471 ], [ 36881.025000000001455, 5915782.349999999627471 ], [ 36881.025000000001455, 5915782.049999999813735 ], [ 36880.94999999999709, 5915782.049999999813735 ], [ 36880.94999999999709, 5915781.75 ], [ 36880.875, 5915781.75 ], [ 36880.875, 5915781.375 ], [ 36880.80000000000291, 5915781.375 ], [ 36880.80000000000291, 5915781.0 ], [ 36880.724999999998545, 5915781.0 ], [ 36880.724999999998545, 5915780.474999999627471 ], [ 36880.650000000001455, 5915780.474999999627471 ], [ 36880.650000000001455, 5915780.025000000372529 ], [ 36880.57499999999709, 5915780.025000000372529 ], [ 36880.57499999999709, 5915779.575000000186265 ], [ 36880.5, 5915779.575000000186265 ], [ 36880.5, 5915779.125 ], [ 36880.42500000000291, 5915779.125 ], [ 36880.42500000000291, 5915778.900000000372529 ], [ 36880.349999999998545, 5915778.900000000372529 ], [ 36880.349999999998545, 5915778.674999999813735 ], [ 36880.275000000001455, 5915778.674999999813735 ], [ 36880.275000000001455, 5915778.450000000186265 ], [ 36880.19999999999709, 5915778.450000000186265 ], [ 36880.19999999999709, 5915778.224999999627471 ], [ 36880.125, 5915778.224999999627471 ], [ 36880.125, 5915778.0 ], [ 36880.05000000000291, 5915778.0 ], [ 36880.05000000000291, 5915777.849999999627471 ], [ 36879.974999999998545, 5915777.849999999627471 ], [ 36879.974999999998545, 5915777.700000000186265 ], [ 36879.900000000001455, 5915777.700000000186265 ], [ 36879.900000000001455, 5915777.549999999813735 ], [ 36879.82499999999709, 5915777.549999999813735 ], [ 36879.82499999999709, 5915777.400000000372529 ], [ 36879.75, 5915777.400000000372529 ], [ 36879.75, 5915777.25 ], [ 36879.67500000000291, 5915777.25 ], [ 36879.67500000000291, 5915777.099999999627471 ], [ 36879.599999999998545, 5915777.099999999627471 ], [ 36879.599999999998545, 5915776.950000000186265 ], [ 36879.525000000001455, 5915776.950000000186265 ], [ 36879.525000000001455, 5915776.799999999813735 ], [ 36879.44999999999709, 5915776.799999999813735 ], [ 36879.44999999999709, 5915776.650000000372529 ], [ 36879.375, 5915776.650000000372529 ], [ 36879.375, 5915776.5 ], [ 36879.30000000000291, 5915776.5 ], [ 36879.30000000000291, 5915776.349999999627471 ], [ 36879.224999999998545, 5915776.349999999627471 ], [ 36879.224999999998545, 5915776.125 ], [ 36879.150000000001455, 5915776.125 ], [ 36879.150000000001455, 5915775.825000000186265 ], [ 36879.07499999999709, 5915775.825000000186265 ], [ 36879.07499999999709, 5915775.599999999627471 ], [ 36879.0, 5915775.599999999627471 ], [ 36879.0, 5915775.299999999813735 ], [ 36878.92500000000291, 5915775.299999999813735 ], [ 36878.92500000000291, 5915774.924999999813735 ], [ 36878.849999999998545, 5915774.924999999813735 ], [ 36878.849999999998545, 5915774.549999999813735 ], [ 36878.775000000001455, 5915774.549999999813735 ], [ 36878.775000000001455, 5915774.099999999627471 ], [ 36878.69999999999709, 5915774.099999999627471 ], [ 36878.69999999999709, 5915773.724999999627471 ], [ 36878.625, 5915773.724999999627471 ], [ 36878.625, 5915773.275000000372529 ], [ 36878.55000000000291, 5915773.275000000372529 ], [ 36878.55000000000291, 5915772.75 ], [ 36878.474999999998545, 5915772.75 ], [ 36878.474999999998545, 5915772.299999999813735 ], [ 36878.400000000001455, 5915772.299999999813735 ], [ 36878.400000000001455, 5915771.849999999627471 ], [ 36878.32499999999709, 5915771.849999999627471 ], [ 36878.32499999999709, 5915771.474999999627471 ], [ 36878.25, 5915771.474999999627471 ], [ 36878.25, 5915771.25 ], [ 36878.32499999999709, 5915771.25 ], [ 36878.32499999999709, 5915770.275000000372529 ], [ 36878.400000000001455, 5915770.275000000372529 ], [ 36878.400000000001455, 5915769.450000000186265 ], [ 36878.474999999998545, 5915769.450000000186265 ], [ 36878.474999999998545, 5915769.299999999813735 ], [ 36878.55000000000291, 5915769.299999999813735 ], [ 36878.55000000000291, 5915769.224999999627471 ], [ 36878.625, 5915769.224999999627471 ], [ 36878.625, 5915769.075000000186265 ], [ 36878.69999999999709, 5915769.075000000186265 ], [ 36878.69999999999709, 5915769.0 ], [ 36878.775000000001455, 5915769.0 ], [ 36878.775000000001455, 5915768.924999999813735 ], [ 36878.849999999998545, 5915768.924999999813735 ], [ 36878.849999999998545, 5915768.849999999627471 ], [ 36878.92500000000291, 5915768.849999999627471 ], [ 36878.92500000000291, 5915768.775000000372529 ], [ 36879.0, 5915768.775000000372529 ], [ 36879.0, 5915768.700000000186265 ], [ 36879.07499999999709, 5915768.700000000186265 ], [ 36879.07499999999709, 5915768.625 ], [ 36879.150000000001455, 5915768.625 ], [ 36879.150000000001455, 5915768.549999999813735 ], [ 36879.224999999998545, 5915768.549999999813735 ], [ 36879.224999999998545, 5915768.474999999627471 ], [ 36879.375, 5915768.474999999627471 ], [ 36879.375, 5915768.400000000372529 ], [ 36879.525000000001455, 5915768.400000000372529 ], [ 36879.525000000001455, 5915768.325000000186265 ], [ 36879.599999999998545, 5915768.325000000186265 ], [ 36879.599999999998545, 5915768.25 ], [ 36879.75, 5915768.25 ], [ 36879.75, 5915768.174999999813735 ], [ 36879.900000000001455, 5915768.174999999813735 ], [ 36879.900000000001455, 5915768.099999999627471 ], [ 36879.974999999998545, 5915768.099999999627471 ], [ 36879.974999999998545, 5915768.025000000372529 ], [ 36880.05000000000291, 5915768.025000000372529 ], [ 36880.05000000000291, 5915767.950000000186265 ], [ 36880.125, 5915767.950000000186265 ], [ 36880.125, 5915767.875 ], [ 36880.275000000001455, 5915767.875 ], [ 36880.275000000001455, 5915767.799999999813735 ], [ 36880.349999999998545, 5915767.799999999813735 ], [ 36880.349999999998545, 5915767.724999999627471 ], [ 36880.42500000000291, 5915767.724999999627471 ], [ 36880.42500000000291, 5915767.650000000372529 ], [ 36880.5, 5915767.650000000372529 ], [ 36880.5, 5915767.575000000186265 ], [ 36880.57499999999709, 5915767.575000000186265 ], [ 36880.57499999999709, 5915767.5 ], [ 36880.650000000001455, 5915767.5 ], [ 36880.650000000001455, 5915767.424999999813735 ], [ 36880.724999999998545, 5915767.424999999813735 ], [ 36880.724999999998545, 5915767.349999999627471 ], [ 36880.80000000000291, 5915767.349999999627471 ], [ 36880.80000000000291, 5915767.275000000372529 ], [ 36880.875, 5915767.275000000372529 ], [ 36880.875, 5915767.200000000186265 ], [ 36880.94999999999709, 5915767.200000000186265 ], [ 36880.94999999999709, 5915767.125 ], [ 36881.025000000001455, 5915767.125 ], [ 36881.025000000001455, 5915767.049999999813735 ], [ 36881.17500000000291, 5915767.049999999813735 ], [ 36881.17500000000291, 5915766.974999999627471 ], [ 36881.32499999999709, 5915766.974999999627471 ], [ 36881.32499999999709, 5915766.900000000372529 ], [ 36881.625, 5915766.900000000372529 ], [ 36881.625, 5915766.825000000186265 ], [ 36882.0, 5915766.825000000186265 ], [ 36882.0, 5915766.75 ], [ 36882.30000000000291, 5915766.75 ], [ 36882.30000000000291, 5915766.674999999813735 ], [ 36882.75, 5915766.674999999813735 ], [ 36882.75, 5915766.599999999627471 ], [ 36883.125, 5915766.599999999627471 ], [ 36883.125, 5915766.525000000372529 ], [ 36883.349999999998545, 5915766.525000000372529 ], [ 36883.349999999998545, 5915766.599999999627471 ], [ 36884.775000000001455, 5915766.599999999627471 ], [ 36884.775000000001455, 5915766.674999999813735 ], [ 36886.19999999999709, 5915766.674999999813735 ], [ 36886.19999999999709, 5915766.75 ], [ 36887.55000000000291, 5915766.75 ], [ 36887.55000000000291, 5915766.825000000186265 ], [ 36888.974999999998545, 5915766.825000000186265 ], [ 36888.974999999998545, 5915766.900000000372529 ], [ 36889.275000000001455, 5915766.900000000372529 ], [ 36889.275000000001455, 5915766.974999999627471 ], [ 36889.5, 5915766.974999999627471 ], [ 36889.5, 5915767.049999999813735 ], [ 36889.724999999998545, 5915767.049999999813735 ], [ 36889.724999999998545, 5915767.125 ], [ 36889.875, 5915767.125 ], [ 36889.875, 5915767.200000000186265 ], [ 36890.099999999998545, 5915767.200000000186265 ], [ 36890.099999999998545, 5915767.275000000372529 ], [ 36890.25, 5915767.275000000372529 ], [ 36890.25, 5915767.349999999627471 ], [ 36890.400000000001455, 5915767.349999999627471 ], [ 36890.400000000001455, 5915767.424999999813735 ], [ 36890.55000000000291, 5915767.424999999813735 ], [ 36890.55000000000291, 5915767.5 ], [ 36890.69999999999709, 5915767.5 ], [ 36890.69999999999709, 5915767.575000000186265 ], [ 36890.775000000001455, 5915767.575000000186265 ], [ 36890.775000000001455, 5915767.650000000372529 ], [ 36890.849999999998545, 5915767.650000000372529 ], [ 36890.849999999998545, 5915767.724999999627471 ], [ 36891.0, 5915767.724999999627471 ], [ 36891.0, 5915767.799999999813735 ], [ 36891.07499999999709, 5915767.799999999813735 ], [ 36891.07499999999709, 5915767.875 ], [ 36891.150000000001455, 5915767.875 ], [ 36891.150000000001455, 5915767.950000000186265 ], [ 36891.224999999998545, 5915767.950000000186265 ], [ 36891.224999999998545, 5915768.099999999627471 ], [ 36891.30000000000291, 5915768.099999999627471 ], [ 36891.30000000000291, 5915768.174999999813735 ], [ 36891.375, 5915768.174999999813735 ], [ 36891.375, 5915768.25 ], [ 36891.44999999999709, 5915768.25 ], [ 36891.44999999999709, 5915768.325000000186265 ], [ 36891.525000000001455, 5915768.325000000186265 ], [ 36891.525000000001455, 5915768.400000000372529 ], [ 36891.599999999998545, 5915768.400000000372529 ], [ 36891.599999999998545, 5915768.474999999627471 ], [ 36891.67500000000291, 5915768.474999999627471 ], [ 36891.67500000000291, 5915768.549999999813735 ], [ 36891.75, 5915768.549999999813735 ], [ 36891.75, 5915768.625 ], [ 36891.82499999999709, 5915768.625 ], [ 36891.82499999999709, 5915768.700000000186265 ], [ 36891.900000000001455, 5915768.700000000186265 ], [ 36891.900000000001455, 5915768.775000000372529 ], [ 36891.974999999998545, 5915768.775000000372529 ], [ 36891.974999999998545, 5915768.849999999627471 ], [ 36892.05000000000291, 5915768.849999999627471 ], [ 36892.05000000000291, 5915768.924999999813735 ], [ 36892.125, 5915768.924999999813735 ], [ 36892.125, 5915769.0 ], [ 36892.19999999999709, 5915769.0 ], [ 36892.19999999999709, 5915769.075000000186265 ], [ 36892.275000000001455, 5915769.075000000186265 ], [ 36892.275000000001455, 5915769.150000000372529 ], [ 36892.349999999998545, 5915769.150000000372529 ], [ 36892.349999999998545, 5915769.224999999627471 ], [ 36892.42500000000291, 5915769.224999999627471 ], [ 36892.42500000000291, 5915769.299999999813735 ], [ 36892.5, 5915769.299999999813735 ], [ 36892.5, 5915769.375 ], [ 36892.57499999999709, 5915769.375 ], [ 36892.57499999999709, 5915769.450000000186265 ], [ 36892.650000000001455, 5915769.450000000186265 ], [ 36892.650000000001455, 5915769.525000000372529 ], [ 36892.724999999998545, 5915769.525000000372529 ], [ 36892.724999999998545, 5915769.599999999627471 ], [ 36892.80000000000291, 5915769.599999999627471 ], [ 36892.80000000000291, 5915769.75 ], [ 36892.875, 5915769.75 ], [ 36892.875, 5915769.825000000186265 ], [ 36892.94999999999709, 5915769.825000000186265 ], [ 36892.94999999999709, 5915769.900000000372529 ], [ 36893.025000000001455, 5915769.900000000372529 ], [ 36893.025000000001455, 5915770.125 ], [ 36893.099999999998545, 5915770.125 ], [ 36893.099999999998545, 5915770.275000000372529 ], [ 36893.17500000000291, 5915770.275000000372529 ], [ 36893.17500000000291, 5915770.424999999813735 ], [ 36893.25, 5915770.424999999813735 ], [ 36893.25, 5915770.650000000372529 ], [ 36893.32499999999709, 5915770.650000000372529 ], [ 36893.32499999999709, 5915770.799999999813735 ], [ 36893.400000000001455, 5915770.799999999813735 ], [ 36893.400000000001455, 5915771.025000000372529 ], [ 36893.474999999998545, 5915771.025000000372529 ], [ 36893.474999999998545, 5915771.25 ], [ 36893.55000000000291, 5915771.25 ], [ 36893.55000000000291, 5915771.474999999627471 ], [ 36893.625, 5915771.474999999627471 ], [ 36893.625, 5915771.775000000372529 ], [ 36893.69999999999709, 5915771.775000000372529 ], [ 36893.69999999999709, 5915772.0 ], [ 36893.775000000001455, 5915772.0 ], [ 36893.775000000001455, 5915772.224999999627471 ], [ 36893.849999999998545, 5915772.224999999627471 ], [ 36893.849999999998545, 5915772.450000000186265 ], [ 36893.92500000000291, 5915772.450000000186265 ], [ 36893.92500000000291, 5915772.599999999627471 ], [ 36894.0, 5915772.599999999627471 ], [ 36894.0, 5915772.75 ], [ 36894.07499999999709, 5915772.75 ], [ 36894.07499999999709, 5915772.900000000372529 ], [ 36894.150000000001455, 5915772.900000000372529 ], [ 36894.150000000001455, 5915773.049999999813735 ], [ 36894.224999999998545, 5915773.049999999813735 ], [ 36894.224999999998545, 5915773.200000000186265 ], [ 36894.30000000000291, 5915773.200000000186265 ], [ 36894.30000000000291, 5915773.349999999627471 ], [ 36894.375, 5915773.349999999627471 ], [ 36894.375, 5915773.575000000186265 ], [ 36894.44999999999709, 5915773.575000000186265 ], [ 36894.44999999999709, 5915773.724999999627471 ], [ 36894.525000000001455, 5915773.724999999627471 ], [ 36894.525000000001455, 5915773.950000000186265 ], [ 36894.599999999998545, 5915773.950000000186265 ], [ 36894.599999999998545, 5915774.099999999627471 ], [ 36894.67500000000291, 5915774.099999999627471 ], [ 36894.67500000000291, 5915774.25 ], [ 36894.75, 5915774.25 ], [ 36894.75, 5915774.400000000372529 ], [ 36894.82499999999709, 5915774.400000000372529 ], [ 36894.82499999999709, 5915774.549999999813735 ], [ 36894.900000000001455, 5915774.549999999813735 ], [ 36894.900000000001455, 5915774.775000000372529 ], [ 36894.974999999998545, 5915774.775000000372529 ], [ 36894.974999999998545, 5915775.0 ], [ 36895.05000000000291, 5915775.0 ], [ 36895.05000000000291, 5915775.375 ], [ 36895.125, 5915775.375 ], [ 36895.125, 5915775.900000000372529 ], [ 36895.19999999999709, 5915775.900000000372529 ], [ 36895.19999999999709, 5915776.424999999813735 ], [ 36895.275000000001455, 5915776.424999999813735 ], [ 36895.275000000001455, 5915777.025000000372529 ], [ 36895.349999999998545, 5915777.025000000372529 ], [ 36895.349999999998545, 5915779.424999999813735 ], [ 36895.275000000001455, 5915779.424999999813735 ], [ 36895.275000000001455, 5915779.875 ], [ 36895.19999999999709, 5915779.875 ], [ 36895.19999999999709, 5915780.325000000186265 ], [ 36895.125, 5915780.325000000186265 ], [ 36895.125, 5915780.700000000186265 ], [ 36895.05000000000291, 5915780.700000000186265 ], [ 36895.05000000000291, 5915781.075000000186265 ], [ 36894.974999999998545, 5915781.075000000186265 ], [ 36894.974999999998545, 5915781.224999999627471 ], [ 36894.900000000001455, 5915781.224999999627471 ], [ 36894.900000000001455, 5915781.299999999813735 ], [ 36894.82499999999709, 5915781.299999999813735 ], [ 36894.82499999999709, 5915781.375 ], [ 36894.75, 5915781.375 ], [ 36894.75, 5915781.450000000186265 ], [ 36894.67500000000291, 5915781.450000000186265 ], [ 36894.67500000000291, 5915781.525000000372529 ], [ 36894.599999999998545, 5915781.525000000372529 ], [ 36894.599999999998545, 5915781.599999999627471 ], [ 36894.525000000001455, 5915781.599999999627471 ], [ 36894.525000000001455, 5915781.674999999813735 ], [ 36894.44999999999709, 5915781.674999999813735 ], [ 36894.44999999999709, 5915781.75 ], [ 36894.375, 5915781.75 ], [ 36894.375, 5915781.825000000186265 ], [ 36894.30000000000291, 5915781.825000000186265 ], [ 36894.30000000000291, 5915781.900000000372529 ], [ 36894.224999999998545, 5915781.900000000372529 ], [ 36894.224999999998545, 5915781.974999999627471 ], [ 36894.150000000001455, 5915781.974999999627471 ], [ 36894.150000000001455, 5915782.125 ], [ 36894.07499999999709, 5915782.125 ], [ 36894.07499999999709, 5915782.200000000186265 ], [ 36894.0, 5915782.200000000186265 ], [ 36894.0, 5915782.349999999627471 ], [ 36893.92500000000291, 5915782.349999999627471 ], [ 36893.92500000000291, 5915782.5 ], [ 36893.849999999998545, 5915782.5 ], [ 36893.849999999998545, 5915782.575000000186265 ], [ 36893.775000000001455, 5915782.575000000186265 ], [ 36893.775000000001455, 5915782.724999999627471 ], [ 36893.69999999999709, 5915782.724999999627471 ], [ 36893.69999999999709, 5915782.950000000186265 ], [ 36893.625, 5915782.950000000186265 ], [ 36893.625, 5915783.099999999627471 ], [ 36893.55000000000291, 5915783.099999999627471 ], [ 36893.55000000000291, 5915783.174999999813735 ], [ 36893.474999999998545, 5915783.174999999813735 ], [ 36893.474999999998545, 5915783.25 ], [ 36893.400000000001455, 5915783.25 ], [ 36893.400000000001455, 5915783.400000000372529 ], [ 36893.32499999999709, 5915783.400000000372529 ], [ 36893.32499999999709, 5915783.474999999627471 ], [ 36893.17500000000291, 5915783.474999999627471 ], [ 36893.17500000000291, 5915783.549999999813735 ], [ 36893.099999999998545, 5915783.549999999813735 ], [ 36893.099999999998545, 5915783.625 ], [ 36893.025000000001455, 5915783.625 ], [ 36893.025000000001455, 5915783.700000000186265 ], [ 36892.875, 5915783.700000000186265 ], [ 36892.875, 5915783.775000000372529 ], [ 36892.650000000001455, 5915783.775000000372529 ], [ 36892.650000000001455, 5915783.849999999627471 ], [ 36892.42500000000291, 5915783.849999999627471 ], [ 36892.42500000000291, 5915783.924999999813735 ], [ 36892.275000000001455, 5915783.924999999813735 ], [ 36892.275000000001455, 5915784.0 ], [ 36892.05000000000291, 5915784.0 ], [ 36892.05000000000291, 5915784.075000000186265 ], [ 36891.82499999999709, 5915784.075000000186265 ], [ 36891.82499999999709, 5915784.150000000372529 ], [ 36891.67500000000291, 5915784.150000000372529 ], [ 36891.67500000000291, 5915784.224999999627471 ], [ 36891.525000000001455, 5915784.224999999627471 ], [ 36891.525000000001455, 5915784.299999999813735 ], [ 36891.30000000000291, 5915784.299999999813735 ], [ 36891.30000000000291, 5915784.375 ], [ 36891.150000000001455, 5915784.375 ], [ 36891.150000000001455, 5915784.450000000186265 ], [ 36891.0, 5915784.450000000186265 ], [ 36891.0, 5915784.525000000372529 ], [ 36890.775000000001455, 5915784.525000000372529 ], [ 36890.775000000001455, 5915784.599999999627471 ], [ 36890.55000000000291, 5915784.599999999627471 ], [ 36890.55000000000291, 5915784.674999999813735 ], [ 36890.32499999999709, 5915784.674999999813735 ], [ 36890.32499999999709, 5915784.75 ], [ 36890.099999999998545, 5915784.75 ], [ 36890.099999999998545, 5915784.825000000186265 ], [ 36889.94999999999709, 5915784.825000000186265 ], [ 36889.94999999999709, 5915784.900000000372529 ], [ 36889.80000000000291, 5915784.900000000372529 ], [ 36889.80000000000291, 5915784.974999999627471 ], [ 36889.650000000001455, 5915784.974999999627471 ], [ 36889.650000000001455, 5915785.049999999813735 ], [ 36889.5, 5915785.049999999813735 ], [ 36889.5, 5915785.125 ], [ 36889.349999999998545, 5915785.125 ], [ 36889.349999999998545, 5915785.200000000186265 ], [ 36889.275000000001455, 5915785.200000000186265 ], [ 36889.275000000001455, 5915785.275000000372529 ], [ 36889.125, 5915785.275000000372529 ], [ 36889.125, 5915785.349999999627471 ], [ 36888.82499999999709, 5915785.349999999627471 ] ] ] } },
{ "type": "Feature", "properties": { "value": 1.0, "building_id": 1, "area": 77.276249999755862 }, "geometry": { "type": "Polygon", "coordinates": [ [ [ 36896.625, 5915748.375 ], [ 36896.625, 5915748.299999999813735 ], [ 36896.32499999999709, 5915748.299999999813735 ], [ 36896.32499999999709, 5915748.224999999627471 ], [ 36896.025000000001455, 5915748.224999999627471 ], [ 36896.025000000001455, 5915747.849999999627471 ], [ 36895.94999999999709, 5915747.849999999627471 ], [ 36895.94999999999709, 5915747.099999999627471 ], [ 36895.875, 5915747.099999999627471 ], [ 36895.875, 5915746.724999999627471 ], [ 36895.80000000000291, 5915746.724999999627471 ], [ 36895.80000000000291, 5915746.5 ], [ 36895.724999999998545, 5915746.5 ], [ 36895.724999999998545, 5915746.349999999627471 ], [ 36895.650000000001455, 5915746.349999999627471 ], [ 36895.650000000001455, 5915746.275000000372529 ], [ 36895.57499999999709, 5915746.275000000372529 ], [ 36895.57499999999709, 5915746.200000000186265 ], [ 36895.5, 5915746.200000000186265 ], [ 36895.5, 5915746.125 ], [ 36895.349999999998545, 5915746.125 ], [ 36895.349999999998545, 5915746.049999999813735 ], [ 36895.19999999999709, 5915746.049999999813735 ], [ 36895.19999999999709, 5915745.974999999627471 ], [ 36895.125, 5915745.974999999627471 ], [ 36895.125, 5915745.674999999813735 ], [ 36895.05000000000291, 5915745.674999999813735 ], [ 36895.05000000000291, 5915744.849999999627471 ], [ 36894.974999999998545, 5915744.849999999627471 ], [ 36894.974999999998545, 5915744.325000000186265 ], [ 36894.900000000001455, 5915744.325000000186265 ], [ 36894.900000000001455, 5915740.875 ], [ 36894.82499999999709, 5915740.875 ], [ 36894.82499999999709, 5915740.049999999813735 ], [ 36894.900000000001455, 5915740.049999999813735 ], [ 36894.900000000001455, 5915739.450000000186265 ], [ 36894.974999999998545, 5915739.450000000186265 ], [ 36894.974999999998545, 5915739.375 ], [ 36895.05000000000291, 5915739.375 ], [ 36895.05000000000291, 5915739.224999999627471 ], [ 36895.125, 5915739.224999999627471 ], [ 36895.125, 5915739.150000000372529 ], [ 36895.19999999999709, 5915739.150000000372529 ], [ 36895.19999999999709, 5915739.0 ], [ 36895.275000000001455, 5915739.0 ], [ 36895.275000000001455, 5915738.924999999813735 ], [ 36895.349999999998545, 5915738.924999999813735 ], [ 36895.349999999998545, 5915738.849999999627471 ], [ 36895.42500000000291, 5915738.849999999627471 ], [ 36895.42500000000291, 5915738.775000000372529 ], [ 36895.5, 5915738.775000000372529 ], [ 36895.5, 5915738.700000000186265 ], [ 36895.57499999999709, 5915738.700000000186265 ], [ 36895.57499999999709, 5915738.549999999813735 ], [ 36895.650000000001455, 5915738.549999999813735 ], [ 36895.650000000001455, 5915738.474999999627471 ], [ 36895.724999999998545, 5915738.474999999627471 ], [ 36895.724999999998545, 5915738.400000000372529 ], [ 36895.80000000000291, 5915738.400000000372529 ], [ 36895.80000000000291, 5915738.325000000186265 ], [ 36895.94999999999709, 5915738.325000000186265 ], [ 36895.94999999999709, 5915738.25 ], [ 36896.025000000001455, 5915738.25 ], [ 36896.025000000001455, 5915738.174999999813735 ], [ 36896.25, 5915738.174999999813735 ], [ 36896.25, 5915738.099999999627471 ], [ 36896.474999999998545, 5915738.099999999627471 ], [ 36896.474999999998545, 5915738.025000000372529 ], [ 36896.625, 5915738.025000000372529 ], [ 36896.625, 5915737.950000000186265 ], [ 36896.69999999999709, 5915737.950000000186265 ], [ 36896.69999999999709, 5915737.875 ], [ 36896.775000000001455, 5915737.875 ], [ 36896.775000000001455, 5915737.724999999627471 ], [ 36896.849999999998545, 5915737.724999999627471 ], [ 36896.849999999998545, 5915737.575000000186265 ], [ 36896.92500000000291, 5915737.575000000186265 ], [ 36896.92500000000291, 5915737.5 ], [ 36897.375, 5915737.5 ], [ 36897.375, 5915737.424999999813735 ], [ 36897.67500000000291, 5915737.424999999813735 ], [ 36897.67500000000291, 5915737.349999999627471 ], [ 36898.05000000000291, 5915737.349999999627471 ], [ 36898.05000000000291, 5915737.275000000372529 ], [ 36898.349999999998545, 5915737.275000000372529 ], [ 36898.349999999998545, 5915737.200000000186265 ], [ 36898.57499999999709, 5915737.200000000186265 ], [ 36898.57499999999709, 5915737.125 ], [ 36898.875, 5915737.125 ], [ 36898.875, 5915737.200000000186265 ], [ 36898.94999999999709, 5915737.200000000186265 ], [ 36898.94999999999709, 5915737.275000000372529 ], [ 36899.025000000001455, 5915737.275000000372529 ], [ 36899.025000000001455, 5915737.349999999627471 ], [ 36899.099999999998545, 5915737.349999999627471 ], [ 36899.099999999998545, 5915737.424999999813735 ], [ 36899.25, 5915737.424999999813735 ], [ 36899.25, 5915737.5 ], [ 36899.32499999999709, 5915737.5 ], [ 36899.32499999999709, 5915737.575000000186265 ], [ 36899.474999999998545, 5915737.575000000186265 ], [ 36899.474999999998545, 5915737.650000000372529 ], [ 36899.625, 5915737.650000000372529 ], [ 36899.625, 5915737.724999999627471 ], [ 36899.849999999998545, 5915737.724999999627471 ], [ 36899.849999999998545, 5915737.799999999813735 ], [ 36900.07499999999709, 5915737.799999999813735 ], [ 36900.07499999999709, 5915737.875 ], [ 36900.375, 5915737.875 ], [ 36900.375, 5915737.950000000186265 ], [ 36900.82499999999709, 5915737.950000000186265 ], [ 36900.82499999999709, 5915738.025000000372529 ], [ 36901.05000000000291, 5915738.025000000372529 ], [ 36901.05000000000291, 5915738.099999999627471 ], [ 36901.5, 5915738.099999999627471 ], [ 36901.5, 5915738.174999999813735 ], [ 36902.099999999998545, 5915738.174999999813735 ], [ 36902.099999999998545, 5915738.25 ], [ 36902.17500000000291, 5915738.25 ], [ 36902.17500000000291, 5915738.325000000186265 ], [ 36902.25, 5915738.325000000186265 ], [ 36902.25, 5915738.400000000372529 ], [ 36902.32499999999709, 5915738.400000000372529 ], [ 36902.32499999999709, 5915738.474999999627471 ], [ 36902.400000000001455, 5915738.474999999627471 ], [ 36902.400000000001455, 5915738.549999999813735 ], [ 36902.474999999998545, 5915738.549999999813735 ], [ 36902.474999999998545, 5915738.625 ], [ 36902.55000000000291, 5915738.625 ], [ 36902.55000000000291, 5915738.700000000186265 ], [ 36902.625, 5915738.700000000186265 ], [ 36902.625, 5915738.775000000372529 ], [ 36902.69999999999709, 5915738.775000000372529 ], [ 36902.69999999999709, 5915738.849999999627471 ], [ 36902.775000000001455, 5915738.849999999627471 ], [ 36902.775000000001455, 5915739.075000000186265 ], [ 36902.849999999998545, 5915739.075000000186265 ], [ 36902.849999999998545, 5915739.299999999813735 ], [ 36902.92500000000291, 5915739.299999999813735 ], [ 36902.92500000000291, 5915739.525000000372529 ], [ 36903.0, 5915739.525000000372529 ], [ 36903.0, 5915739.674999999813735 ], [ 36903.07499999999709, 5915739.674999999813735 ], [ 36903.07499999999709, 5915739.825000000186265 ], [ 36903.150000000001455, 5915739.825000000186265 ], [ 36903.150000000001455, 5915739.974999999627471 ], [ 36903.224999999998545, 5915739.974999999627471 ], [ 36903.224999999998545, 5915740.125 ], [ 36903.30000000000291, 5915740.125 ], [ 36903.30000000000291, 5915740.200000000186265 ], [ 36903.224999999998545, 5915740.200000000186265 ], [ 36903.224999999998545, 5915741.400000000372529 ], [ 36903.150000000001455, 5915741.400000000372529 ], [ 36903.150000000001455, 5915742.299999999813735 ], [ 36903.224999999998545, 5915742.299999999813735 ], [ 36903.224999999998545, 5915744.25 ], [ 36903.30000000000291, 5915744.25 ], [ 36903.30000000000291, 5915744.549999999813735 ], [ 36903.375, 5915744.549999999813735 ], [ 36903.375, 5915744.924999999813735 ], [ 36903.44999999999709, 5915744.924999999813735 ], [ 36903.44999999999709, 5915745.224999999627471 ], [ 36903.375, 5915745.224999999627471 ], [ 36903.375, 5915745.299999999813735 ], [ 36903.30000000000291, 5915745.299999999813735 ], [ 36903.30000000000291, 5915745.375 ], [ 36903.224999999998545, 5915745.375 ], [ 36903.224999999998545, 5915745.525000000372529 ], [ 36903.150000000001455, 5915745.525000000372529 ], [ 36903.150000000001455, 5915745.599999999627471 ], [ 36903.07499999999709, 5915745.599999999627471 ], [ 36903.07499999999709, 5915745.674999999813735 ], [ 36903.0, 5915745.674999999813735 ], [ 36903.0, 5915745.825000000186265 ], [ 36902.92500000000291, 5915745.825000000186265 ], [ 36902.92500000000291, 5915745.900000000372529 ], [ 36902.849999999998545, 5915745.900000000372529 ], [ 36902.849999999998545, 5915745.974999999627471 ], [ 36902.775000000001455, 5915745.974999999627471 ], [ 36902.775000000001455, 5915746.049999999813735 ], [ 36902.69999999999709, 5915746.049999999813735 ], [ 36902.69999999999709, 5915746.125 ], [ 36902.55000000000291, 5915746.125 ], [ 36902.55000000000291, 5915746.200000000186265 ], [ 36902.400000000001455, 5915746.200000000186265 ], [ 36902.400000000001455, 5915746.275000000372529 ], [ 36902.25, 5915746.275000000372529 ], [ 36902.25, 5915746.349999999627471 ], [ 36902.099999999998545, 5915746.349999999627471 ], [ 36902.099999999998545, 5915746.424999999813735 ], [ 36902.025000000001455, 5915746.424999999813735 ], [ 36902.025000000001455, 5915746.5 ], [ 36901.875, 5915746.5 ], [ 36901.875, 5915746.575000000186265 ], [ 36901.650000000001455, 5915746.575000000186265 ], [ 36901.650000000001455, 5915746.650000000372529 ], [ 36901.5, 5915746.650000000372529 ], [ 36901.5, 5915746.724999999627471 ], [ 36901.349999999998545, 5915746.724999999627471 ], [ 36901.349999999998545, 5915746.799999999813735 ], [ 36901.19999999999709, 5915746.799999999813735 ], [ 36901.19999999999709, 5915746.875 ], [ 36901.05000000000291, 5915746.875 ], [ 36901.05000000000291, 5915746.950000000186265 ], [ 36900.900000000001455, 5915746.950000000186265 ], [ 36900.900000000001455, 5915747.025000000372529 ], [ 36900.75, 5915747.025000000372529 ], [ 36900.75, 5915747.099999999627471 ], [ 36900.599999999998545, 5915747.099999999627471 ], [ 36900.599999999998545, 5915747.174999999813735 ], [ 36900.44999999999709, 5915747.174999999813735 ], [ 36900.44999999999709, 5915747.25 ], [ 36900.30000000000291, 5915747.25 ], [ 36900.30000000000291, 5915747.325000000186265 ], [ 36900.150000000001455, 5915747.325000000186265 ], [ 36900.150000000001455, 5915747.400000000372529 ], [ 36900.0, 5915747.400000000372529 ], [ 36900.0, 5915747.474999999627471 ], [ 36899.92500000000291, 5915747.474999999627471 ], [ 36899.92500000000291, 5915747.549999999813735 ], [ 36899.775000000001455, 5915747.549999999813735 ], [ 36899.775000000001455, 5915747.625 ], [ 36899.69999999999709, 5915747.625 ], [ 36899.69999999999709, 5915747.700000000186265 ], [ 36899.625, 5915747.700000000186265 ], [ 36899.625, 5915747.775000000372529 ], [ 36899.474999999998545, 5915747.775000000372529 ], [ 36899.474999999998545, 5915747.849999999627471 ], [ 36899.400000000001455, 5915747.849999999627471 ], [ 36899.400000000001455, 5915747.924999999813735 ], [ 36899.32499999999709, 5915747.924999999813735 ], [ 36899.32499999999709, 5915748.0 ], [ 36899.17500000000291, 5915748.0 ], [ 36899.17500000000291, 5915748.075000000186265 ], [ 36899.025000000001455, 5915748.075000000186265 ], [ 36899.025000000001455, 5915748.150000000372529 ], [ 36898.875, 5915748.150000000372529 ], [ 36898.875, 5915748.224999999627471 ], [ 36898.349999999998545, 5915748.224999999627471 ], [ 36898.349999999998545, 5915748.299999999813735 ], [ 36897.44999999999709, 5915748.299999999813735 ], [ 36897.44999999999709, 5915748.375 ], [ 36896.625, 5915748.375 ] ] ] } },
{ "type": "Feature", "properties": { "value": 1.0, "building_id": 2, "area": 290.10374999921589 }, "geometry": { "type": "Polygon", "coordinates": [ [ [ 36921.30000000000291, 5915738.400000000372529 ], [ 36921.30000000000291, 5915738.325000000186265 ], [ 36920.32499999999709, 5915738.325000000186265 ], [ 36920.32499999999709, 5915738.25 ], [ 36920.17500000000291, 5915738.25 ], [ 36920.17500000000291, 5915738.174999999813735 ], [ 36920.099999999998545, 5915738.174999999813735 ], [ 36920.099999999998545, 5915738.025000000372529 ], [ 36920.025000000001455, 5915738.025000000372529 ], [ 36920.025000000001455, 5915737.950000000186265 ], [ 36919.94999999999709, 5915737.950000000186265 ], [ 36919.94999999999709, 5915737.875 ], [ 36919.875, 5915737.875 ], [ 36919.875, 5915737.799999999813735 ], [ 36919.80000000000291, 5915737.799999999813735 ], [ 36919.80000000000291, 5915737.724999999627471 ], [ 36919.724999999998545, 5915737.724999999627471 ], [ 36919.724999999998545, 5915737.650000000372529 ], [ 36919.650000000001455, 5915737.650000000372529 ], [ 36919.650000000001455, 5915737.575000000186265 ], [ 36919.5, 5915737.575000000186265 ], [ 36919.5, 5915737.5 ], [ 36919.42500000000291, 5915737.5 ], [ 36919.42500000000291, 5915737.424999999813735 ], [ 36919.349999999998545, 5915737.424999999813735 ], [ 36919.349999999998545, 5915737.349999999627471 ], [ 36919.19999999999709, 5915737.349999999627471 ], [ 36919.19999999999709, 5915737.275000000372529 ], [ 36919.05000000000291, 5915737.275000000372529 ], [ 36919.05000000000291, 5915737.200000000186265 ], [ 36918.974999999998545, 5915737.200000000186265 ], [ 36918.974999999998545, 5915737.125 ], [ 36918.82499999999709, 5915737.125 ], [ 36918.82499999999709, 5915737.049999999813735 ], [ 36918.599999999998545, 5915737.049999999813735 ], [ 36918.599999999998545, 5915736.974999999627471 ], [ 36918.44999999999709, 5915736.974999999627471 ], [ 36918.44999999999709, 5915736.900000000372529 ], [ 36918.30000000000291, 5915736.900000000372529 ], [ 36918.30000000000291, 5915736.825000000186265 ], [ 36918.224999999998545, 5915736.825000000186265 ], [ 36918.224999999998545, 5915736.75 ], [ 36918.07499999999709, 5915736.75 ], [ 36918.07499999999709, 5915736.674999999813735 ], [ 36918.0, 5915736.674999999813735 ], [ 36918.0, 5915736.599999999627471 ], [ 36917.92500000000291, 5915736.599999999627471 ], [ 36917.92500000000291, 5915736.525000000372529 ], [ 36917.849999999998545, 5915736.525000000372529 ], [ 36917.849999999998545, 5915736.450000000186265 ], [ 36917.775000000001455, 5915736.450000000186265 ], [ 36917.775000000001455, 5915736.375 ], [ 36917.69999999999709, 5915736.375 ], [ 36917.69999999999709, 5915736.299999999813735 ], [ 36917.625, 5915736.299999999813735 ], [ 36917.625, 5915736.224999999627471 ], [ 36917.55000000000291, 5915736.224999999627471 ], [ 36917.55000000000291, 5915736.150000000372529 ], [ 36917.474999999998545, 5915736.150000000372529 ], [ 36917.474999999998545, 5915736.0 ], [ 36917.400000000001455, 5915736.0 ], [ 36917.400000000001455, 5915735.924999999813735 ], [ 36917.32499999999709, 5915735.924999999813735 ], [ 36917.32499999999709, 5915735.775000000372529 ], [ 36917.25, 5915735.775000000372529 ], [ 36917.25, 5915735.700000000186265 ], [ 36917.17500000000291, 5915735.700000000186265 ], [ 36917.17500000000291, 5915735.625 ], [ 36917.099999999998545, 5915735.625 ], [ 36917.099999999998545, 5915735.549999999813735 ], [ 36917.025000000001455, 5915735.549999999813735 ], [ 36917.025000000001455, 5915735.474999999627471 ], [ 36916.94999999999709, 5915735.474999999627471 ], [ 36916.94999999999709, 5915735.400000000372529 ], [ 36916.875, 5915735.400000000372529 ], [ 36916.875, 5915735.325000000186265 ], [ 36916.80000000000291, 5915735.325000000186265 ], [ 36916.80000000000291, 5915735.25 ], [ 36916.650000000001455, 5915735.25 ], [ 36916.650000000001455, 5915735.174999999813735 ], [ 36916.57499999999709, 5915735.174999999813735 ], [ 36916.57499999999709, 5915735.099999999627471 ], [ 36916.42500000000291, 5915735.099999999627471 ], [ 36916.42500000000291, 5915735.025000000372529 ], [ 36916.349999999998545, 5915735.025000000372529 ], [ 36916.349999999998545, 5915734.950000000186265 ], [ 36916.275000000001455, 5915734.950000000186265 ], [ 36916.275000000001455, 5915734.875 ], [ 36916.19999999999709, 5915734.875 ], [ 36916.19999999999709, 5915734.799999999813735 ], [ 36916.125, 5915734.799999999813735 ], [ 36916.125, 5915734.724999999627471 ], [ 36916.05000000000291, 5915734.724999999627471 ], [ 36916.05000000000291, 5915734.575000000186265 ], [ 36915.974999999998545, 5915734.575000000186265 ], [ 36915.974999999998545, 5915734.5 ], [ 36915.900000000001455, 5915734.5 ], [ 36915.900000000001455, 5915734.349999999627471 ], [ 36915.82499999999709, 5915734.349999999627471 ], [ 36915.82499999999709, 5915734.200000000186265 ], [ 36915.75, 5915734.200000000186265 ], [ 36915.75, 5915733.974999999627471 ], [ 36915.67500000000291, 5915733.974999999627471 ], [ 36915.67500000000291, 5915733.825000000186265 ], [ 36915.599999999998545, 5915733.825000000186265 ], [ 36915.599999999998545, 5915733.674999999813735 ], [ 36915.525000000001455, 5915733.674999999813735 ], [ 36915.525000000001455, 5915733.525000000372529 ], [ 36915.44999999999709, 5915733.525000000372529 ], [ 36915.44999999999709, 5915733.375 ], [ 36915.375, 5915733.375 ], [ 36915.375, 5915733.224999999627471 ], [ 36915.30000000000291, 5915733.224999999627471 ], [ 36915.30000000000291, 5915733.150000000372529 ], [ 36915.224999999998545, 5915733.150000000372529 ], [ 36915.224999999998545, 5915733.075000000186265 ], [ 36915.150000000001455, 5915733.075000000186265 ], [ 36915.150000000001455, 5915732.924999999813735 ], [ 36915.07499999999709, 5915732.924999999813735 ], [ 36915.07499999999709, 5915732.849999999627471 ], [ 36915.0, 5915732.849999999627471 ], [ 36915.0, 5915732.775000000372529 ], [ 36914.92500000000291, 5915732.775000000372529 ], [ 36914.92500000000291, 5915732.700000000186265 ], [ 36914.849999999998545, 5915732.700000000186265 ], [ 36914.849999999998545, 5915732.625 ], [ 36914.775000000001455, 5915732.625 ], [ 36914.775000000001455, 5915732.549999999813735 ], [ 36914.69999999999709, 5915732.549999999813735 ], [ 36914.69999999999709, 5915732.474999999627471 ], [ 36914.55000000000291, 5915732.474999999627471 ], [ 36914.55000000000291, 5915732.400000000372529 ], [ 36914.474999999998545, 5915732.400000000372529 ], [ 36914.474999999998545, 5915732.325000000186265 ], [ 36914.400000000001455, 5915732.325000000186265 ], [ 36914.400000000001455, 5915731.950000000186265 ], [ 36914.32499999999709, 5915731.950000000186265 ], [ 36914.32499999999709, 5915731.575000000186265 ], [ 36914.25, 5915731.575000000186265 ], [ 36914.25, 5915731.125 ], [ 36914.17500000000291, 5915731.125 ], [ 36914.17500000000291, 5915730.75 ], [ 36914.099999999998545, 5915730.75 ], [ 36914.099999999998545, 5915729.849999999627471 ], [ 36914.17500000000291, 5915729.849999999627471 ], [ 36914.17500000000291, 5915729.25 ], [ 36914.25, 5915729.25 ], [ 36914.25, 5915728.650000000372529 ], [ 36914.32499999999709, 5915728.650000000372529 ], [ 36914.32499999999709, 5915728.049999999813735 ], [ 36914.400000000001455, 5915728.049999999813735 ], [ 36914.400000000001455, 5915727.525000000372529 ], [ 36914.474999999998545, 5915727.525000000372529 ], [ 36914.474999999998545, 5915727.224999999627471 ], [ 36914.55000000000291, 5915727.224999999627471 ], [ 36914.55000000000291, 5915726.924999999813735 ], [ 36914.625, 5915726.924999999813735 ], [ 36914.625, 5915726.625 ], [ 36914.69999999999709, 5915726.625 ], [ 36914.69999999999709, 5915726.400000000372529 ], [ 36914.775000000001455, 5915726.400000000372529 ], [ 36914.775000000001455, 5915726.099999999627471 ], [ 36914.849999999998545, 5915726.099999999627471 ], [ 36914.849999999998545, 5915725.875 ], [ 36914.92500000000291, 5915725.875 ], [ 36914.92500000000291, 5915725.650000000372529 ], [ 36915.0, 5915725.650000000372529 ], [ 36915.0, 5915725.424999999813735 ], [ 36915.07499999999709, 5915725.424999999813735 ], [ 36915.07499999999709, 5915725.125 ], [ 36915.150000000001455, 5915725.125 ], [ 36915.150000000001455, 5915724.900000000372529 ], [ 36915.224999999998545, 5915724.900000000372529 ], [ 36915.224999999998545, 5915724.674999999813735 ], [ 36915.30000000000291, 5915724.674999999813735 ], [ 36915.30000000000291, 5915724.525000000372529 ], [ 36915.375, 5915724.525000000372529 ], [ 36915.375, 5915724.375 ], [ 36915.44999999999709, 5915724.375 ], [ 36915.44999999999709, 5915724.224999999627471 ], [ 36915.525000000001455, 5915724.224999999627471 ], [ 36915.525000000001455, 5915724.150000000372529 ], [ 36915.599999999998545, 5915724.150000000372529 ], [ 36915.599999999998545, 5915724.0 ], [ 36915.67500000000291, 5915724.0 ], [ 36915.67500000000291, 5915723.924999999813735 ], [ 36915.75, 5915723.924999999813735 ], [ 36915.75, 5915723.775000000372529 ], [ 36915.82499999999709, 5915723.775000000372529 ], [ 36915.82499999999709, 5915723.625 ], [ 36915.900000000001455, 5915723.625 ], [ 36915.900000000001455, 5915723.474999999627471 ], [ 36915.974999999998545, 5915723.474999999627471 ], [ 36915.974999999998545, 5915723.400000000372529 ], [ 36916.05000000000291, 5915723.400000000372529 ], [ 36916.05000000000291, 5915723.25 ], [ 36916.125, 5915723.25 ], [ 36916.125, 5915723.099999999627471 ], [ 36916.19999999999709, 5915723.099999999627471 ], [ 36916.19999999999709, 5915722.950000000186265 ], [ 36916.275000000001455, 5915722.950000000186265 ], [ 36916.275000000001455, 5915722.799999999813735 ], [ 36916.349999999998545, 5915722.799999999813735 ], [ 36916.349999999998545, 5915722.650000000372529 ], [ 36916.42500000000291, 5915722.650000000372529 ], [ 36916.42500000000291, 5915722.575000000186265 ], [ 36916.5, 5915722.575000000186265 ], [ 36916.5, 5915722.5 ], [ 36916.650000000001455, 5915722.5 ], [ 36916.650000000001455, 5915722.424999999813735 ], [ 36916.875, 5915722.424999999813735 ], [ 36916.875, 5915722.349999999627471 ], [ 36917.025000000001455, 5915722.349999999627471 ], [ 36917.025000000001455, 5915722.275000000372529 ], [ 36917.17500000000291, 5915722.275000000372529 ], [ 36917.17500000000291, 5915722.200000000186265 ], [ 36917.400000000001455, 5915722.200000000186265 ], [ 36917.400000000001455, 5915722.125 ], [ 36917.55000000000291, 5915722.125 ], [ 36917.55000000000291, 5915722.049999999813735 ], [ 36917.69999999999709, 5915722.049999999813735 ], [ 36917.69999999999709, 5915721.974999999627471 ], [ 36917.92500000000291, 5915721.974999999627471 ], [ 36917.92500000000291, 5915721.900000000372529 ], [ 36918.07499999999709, 5915721.900000000372529 ], [ 36918.07499999999709, 5915721.825000000186265 ], [ 36918.30000000000291, 5915721.825000000186265 ], [ 36918.30000000000291, 5915721.75 ], [ 36918.44999999999709, 5915721.75 ], [ 36918.44999999999709, 5915721.674999999813735 ], [ 36918.67500000000291, 5915721.674999999813735 ], [ 36918.67500000000291, 5915721.599999999627471 ], [ 36918.82499999999709, 5915721.599999999627471 ], [ 36918.82499999999709, 5915721.525000000372529 ], [ 36919.05000000000291, 5915721.525000000372529 ], [ 36919.05000000000291, 5915721.450000000186265 ], [ 36919.19999999999709, 5915721.450000000186265 ], [ 36919.19999999999709, 5915721.375 ], [ 36919.349999999998545, 5915721.375 ], [ 36919.349999999998545, 5915721.299999999813735 ], [ 36919.5, 5915721.299999999813735 ], [ 36919.5, 5915721.224999999627471 ], [ 36919.650000000001455, 5915721.224999999627471 ], [ 36919.650000000001455, 5915721.150000000372529 ], [ 36919.724999999998545, 5915721.150000000372529 ], [ 36919.724999999998545, 5915721.075000000186265 ], [ 36919.875, 5915721.075000000186265 ], [ 36919.875, 5915721.0 ], [ 36920.025000000001455, 5915721.0 ], [ 36920.025000000001455, 5915720.924999999813735 ], [ 36920.099999999998545, 5915720.924999999813735 ], [ 36920.099999999998545, 5915720.849999999627471 ], [ 36920.25, 5915720.849999999627471 ], [ 36920.25, 5915720.775000000372529 ], [ 36920.400000000001455, 5915720.775000000372529 ], [ 36920.400000000001455, 5915720.700000000186265 ], [ 36920.55000000000291, 5915720.700000000186265 ], [ 36920.55000000000291, 5915720.625 ], [ 36920.69999999999709, 5915720.625 ], [ 36920.69999999999709, 5915720.549999999813735 ], [ 36921.0, 5915720.549999999813735 ], [ 36921.0, 5915720.474999999627471 ], [ 36921.375, 5915720.474999999627471 ], [ 36921.375, 5915720.400000000372529 ], [ 36921.67500000000291, 5915720.400000000372529 ], [ 36921.67500000000291, 5915720.325000000186265 ], [ 36922.05000000000291, 5915720.325000000186265 ], [ 36922.05000000000291, 5915720.25 ], [ 36922.650000000001455, 5915720.25 ], [ 36922.650000000001455, 5915720.174999999813735 ], [ 36923.55000000000291, 5915720.174999999813735 ], [ 36923.55000000000291, 5915720.099999999627471 ], [ 36924.525000000001455, 5915720.099999999627471 ], [ 36924.525000000001455, 5915720.025000000372529 ], [ 36925.80000000000291, 5915720.025000000372529 ], [ 36925.80000000000291, 5915719.950000000186265 ], [ 36927.525000000001455, 5915719.950000000186265 ], [ 36927.525000000001455, 5915719.875 ], [ 36933.0, 5915719.875 ], [ 36933.0, 5915735.474999999627471 ], [ 36930.07499999999709, 5915735.474999999627471 ], [ 36930.07499999999709, 5915735.549999999813735 ], [ 36929.849999999998545, 5915735.549999999813735 ], [ 36929.849999999998545, 5915735.625 ], [ 36929.625, 5915735.625 ], [ 36929.625, 5915735.700000000186265 ], [ 36929.474999999998545, 5915735.700000000186265 ], [ 36929.474999999998545, 5915735.775000000372529 ], [ 36929.25, 5915735.775000000372529 ], [ 36929.25, 5915735.849999999627471 ], [ 36929.099999999998545, 5915735.849999999627471 ], [ 36929.099999999998545, 5915735.924999999813735 ], [ 36928.94999999999709, 5915735.924999999813735 ], [ 36928.94999999999709, 5915736.0 ], [ 36928.875, 5915736.0 ], [ 36928.875, 5915736.075000000186265 ], [ 36928.724999999998545, 5915736.075000000186265 ], [ 36928.724999999998545, 5915736.150000000372529 ], [ 36928.650000000001455, 5915736.150000000372529 ], [ 36928.650000000001455, 5915736.224999999627471 ], [ 36928.5, 5915736.224999999627471 ], [ 36928.5, 5915736.299999999813735 ], [ 36928.275000000001455, 5915736.299999999813735 ], [ 36928.275000000001455, 5915736.375 ], [ 36928.05000000000291, 5915736.375 ], [ 36928.05000000000291, 5915736.450000000186265 ], [ 36927.82499999999709, 5915736.450000000186265 ], [ 36927.82499999999709, 5915736.525000000372529 ], [ 36927.525000000001455, 5915736.525000000372529 ], [ 36927.525000000001455, 5915736.599999999627471 ], [ 36927.30000000000291, 5915736.599999999627471 ], [ 36927.30000000000291, 5915736.674999999813735 ], [ 36927.0, 5915736.674999999813735 ], [ 36927.0, 5915736.75 ], [ 36926.69999999999709, 5915736.75 ], [ 36926.69999999999709, 5915736.825000000186265 ], [ 36926.32499999999709, 5915736.825000000186265 ], [ 36926.32499999999709, 5915736.900000000372529 ], [ 36926.025000000001455, 5915736.900000000372529 ], [ 36926.025000000001455, 5915736.974999999627471 ], [ 36925.724999999998545, 5915736.974999999627471 ], [ 36925.724999999998545, 5915737.049999999813735 ], [ 36925.5, 5915737.049999999813735 ], [ 36925.5, 5915737.125 ], [ 36925.275000000001455, 5915737.125 ], [ 36925.275000000001455, 5915737.200000000186265 ], [ 36925.05000000000291, 5915737.200000000186265 ], [ 36925.05000000000291, 5915737.275000000372529 ], [ 36924.900000000001455, 5915737.275000000372529 ], [ 36924.900000000001455, 5915737.349999999627471 ], [ 36924.75, 5915737.349999999627471 ], [ 36924.75, 5915737.424999999813735 ], [ 36924.599999999998545, 5915737.424999999813735 ], [ 36924.599999999998545, 5915737.5 ], [ 36924.44999999999709, 5915737.5 ], [ 36924.44999999999709, 5915737.575000000186265 ], [ 36924.30000000000291, 5915737.575000000186265 ], [ 36924.30000000000291, 5915737.650000000372529 ], [ 36924.224999999998545, 5915737.650000000372529 ], [ 36924.224999999998545, 5915737.724999999627471 ], [ 36924.0, 5915737.724999999627471 ], [ 36924.0, 5915737.799999999813735 ], [ 36923.849999999998545, 5915737.799999999813735 ], [ 36923.849999999998545, 5915737.875 ], [ 36923.625, 5915737.875 ], [ 36923.625, 5915737.950000000186265 ], [ 36923.474999999998545, 5915737.950000000186265 ], [ 36923.474999999998545, 5915738.025000000372529 ], [ 36923.32499999999709, 5915738.025000000372529 ], [ 36923.32499999999709, 5915738.099999999627471 ], [ 36923.17500000000291, 5915738.099999999627471 ], [ 36923.17500000000291, 5915738.174999999813735 ], [ 36923.025000000001455, 5915738.174999999813735 ], [ 36923.025000000001455, 5915738.25 ], [ 36922.80000000000291, 5915738.25 ], [ 36922.80000000000291, 5915738.325000000186265 ], [ 36922.5, 5915738.325000000186265 ], [ 36922.5, 5915738.400000000372529 ], [ 36921.30000000000291, 5915738.400000000372529 ] ] ] } },
{ "type": "Feature", "properties": { "value": 1.0, "building_id": 3, "area": 37.631250000070352 }, "geometry": { "type": "Polygon", "coordinates": [ [ [ 36859.724999999998545, 5915720.400000000372529 ], [ 36859.724999999998545, 5915720.325000000186265 ], [ 36859.650000000001455, 5915720.325000000186265 ], [ 36859.650000000001455, 5915720.25 ], [ 36859.5, 5915720.25 ], [ 36859.5, 5915720.174999999813735 ], [ 36859.42500000000291, 5915720.174999999813735 ], [ 36859.42500000000291, 5915720.099999999627471 ], [ 36859.275000000001455, 5915720.099999999627471 ], [ 36859.275000000001455, 5915720.025000000372529 ], [ 36859.19999999999709, 5915720.025000000372529 ], [ 36859.19999999999709, 5915719.950000000186265 ], [ 36859.05000000000291, 5915719.950000000186265 ], [ 36859.05000000000291, 5915719.875 ], [ 36858.900000000001455, 5915719.875 ], [ 36858.900000000001455, 5915719.799999999813735 ], [ 36858.75, 5915719.799999999813735 ], [ 36858.75, 5915719.724999999627471 ], [ 36858.599999999998545, 5915719.724999999627471 ], [ 36858.599999999998545, 5915719.650000000372529 ], [ 36858.44999999999709, 5915719.650000000372529 ], [ 36858.44999999999709, 5915719.575000000186265 ], [ 36858.30000000000291, 5915719.575000000186265 ], [ 36858.30000000000291, 5915719.5 ], [ 36858.07499999999709, 5915719.5 ], [ 36858.07499999999709, 5915719.424999999813735 ], [ 36857.849999999998545, 5915719.424999999813735 ], [ 36857.849999999998545, 5915719.349999999627471 ], [ 36857.775000000001455, 5915719.349999999627471 ], [ 36857.775000000001455, 5915719.275000000372529 ], [ 36857.69999999999709, 5915719.275000000372529 ], [ 36857.69999999999709, 5915719.200000000186265 ], [ 36857.625, 5915719.200000000186265 ], [ 36857.625, 5915719.125 ], [ 36857.55000000000291, 5915719.125 ], [ 36857.55000000000291, 5915718.974999999627471 ], [ 36857.474999999998545, 5915718.974999999627471 ], [ 36857.474999999998545, 5915718.900000000372529 ], [ 36857.400000000001455, 5915718.900000000372529 ], [ 36857.400000000001455, 5915718.75 ], [ 36857.32499999999709, 5915718.75 ], [ 36857.32499999999709, 5915718.599999999627471 ], [ 36857.25, 5915718.599999999627471 ], [ 36857.25, 5915718.224999999627471 ], [ 36857.17500000000291, 5915718.224999999627471 ], [ 36857.17500000000291, 5915717.924999999813735 ], [ 36857.099999999998545, 5915717.924999999813735 ], [ 36857.099999999998545, 5915717.625 ], [ 36857.025000000001455, 5915717.625 ], [ 36857.025000000001455, 5915717.325000000186265 ], [ 36856.94999999999709, 5915717.325000000186265 ], [ 36856.94999999999709, 5915717.025000000372529 ], [ 36856.875, 5915717.025000000372529 ], [ 36856.875, 5915716.724999999627471 ], [ 36856.80000000000291, 5915716.724999999627471 ], [ 36856.80000000000291, 5915716.575000000186265 ], [ 36856.875, 5915716.575000000186265 ], [ 36856.875, 5915715.974999999627471 ], [ 36856.94999999999709, 5915715.974999999627471 ], [ 36856.94999999999709, 5915715.224999999627471 ], [ 36857.025000000001455, 5915715.224999999627471 ], [ 36857.025000000001455, 5915714.700000000186265 ], [ 36857.099999999998545, 5915714.700000000186265 ], [ 36857.099999999998545, 5915714.549999999813735 ], [ 36857.17500000000291, 5915714.549999999813735 ], [ 36857.17500000000291, 5915714.474999999627471 ], [ 36857.25, 5915714.474999999627471 ], [ 36857.25, 5915714.400000000372529 ], [ 36857.32499999999709, 5915714.400000000372529 ], [ 36857.32499999999709, 5915714.25 ], [ 36857.400000000001455, 5915714.25 ], [ 36857.400000000001455, 5915714.174999999813735 ], [ 36857.474999999998545, 5915714.174999999813735 ], [ 36857.474999999998545, 5915714.099999999627471 ], [ 36857.55000000000291, 5915714.099999999627471 ], [ 36857.55000000000291, 5915714.025000000372529 ], [ 36857.625, 5915714.025000000372529 ], [ 36857.625, 5915713.950000000186265 ], [ 36857.69999999999709, 5915713.950000000186265 ], [ 36857.69999999999709, 5915713.875 ], [ 36857.775000000001455, 5915713.875 ], [ 36857.775000000001455, 5915713.799999999813735 ], [ 36857.92500000000291, 5915713.799999999813735 ], [ 36857.92500000000291, 5915713.724999999627471 ], [ 36858.150000000001455, 5915713.724999999627471 ], [ 36858.150000000001455, 5915713.650000000372529 ], [ 36858.375, 5915713.650000000372529 ], [ 36858.375, 5915713.575000000186265 ], [ 36858.525000000001455, 5915713.575000000186265 ], [ 36858.525000000001455, 5915713.5 ], [ 36858.75, 5915713.5 ], [ 36858.75, 5915713.424999999813735 ], [ 36858.900000000001455, 5915713.424999999813735 ], [ 36858.900000000001455, 5915713.349999999627471 ], [ 36859.05000000000291, 5915713.349999999627471 ], [ 36859.05000000000291, 5915713.275000000372529 ], [ 36859.125, 5915713.275000000372529 ], [ 36859.125, 5915713.200000000186265 ], [ 36859.275000000001455, 5915713.200000000186265 ], [ 36859.275000000001455, 5915713.125 ], [ 36859.349999999998545, 5915713.125 ], [ 36859.349999999998545, 5915713.049999999813735 ], [ 36859.5, 5915713.049999999813735 ], [ 36859.5, 5915712.974999999627471 ], [ 36859.57499999999709, 5915712.974999999627471 ], [ 36859.57499999999709, 5915712.900000000372529 ], [ 36859.650000000001455, 5915712.900000000372529 ], [ 36859.650000000001455, 5915712.825000000186265 ], [ 36859.80000000000291, 5915712.825000000186265 ], [ 36859.80000000000291, 5915712.900000000372529 ], [ 36859.875, 5915712.900000000372529 ], [ 36859.875, 5915712.974999999627471 ], [ 36859.94999999999709, 5915712.974999999627471 ], [ 36859.94999999999709, 5915713.049999999813735 ], [ 36860.099999999998545, 5915713.049999999813735 ], [ 36860.099999999998545, 5915713.125 ], [ 36860.17500000000291, 5915713.125 ], [ 36860.17500000000291, 5915713.200000000186265 ], [ 36860.25, 5915713.200000000186265 ], [ 36860.25, 5915713.275000000372529 ], [ 36860.400000000001455, 5915713.275000000372529 ], [ 36860.400000000001455, 5915713.349999999627471 ], [ 36860.474999999998545, 5915713.349999999627471 ], [ 36860.474999999998545, 5915713.424999999813735 ], [ 36860.625, 5915713.424999999813735 ], [ 36860.625, 5915713.5 ], [ 36860.775000000001455, 5915713.5 ], [ 36860.775000000001455, 5915713.575000000186265 ], [ 36860.849999999998545, 5915713.575000000186265 ], [ 36860.849999999998545, 5915713.650000000372529 ], [ 36861.07499999999709, 5915713.650000000372529 ], [ 36861.07499999999709, 5915713.724999999627471 ], [ 36861.224999999998545, 5915713.724999999627471 ], [ 36861.224999999998545, 5915713.799999999813735 ], [ 36861.375, 5915713.799999999813735 ], [ 36861.375, 5915713.875 ], [ 36861.599999999998545, 5915713.875 ], [ 36861.599999999998545, 5915713.950000000186265 ], [ 36861.82499999999709, 5915713.950000000186265 ], [ 36861.82499999999709, 5915714.025000000372529 ], [ 36862.05000000000291, 5915714.025000000372529 ], [ 36862.05000000000291, 5915714.099999999627471 ], [ 36862.349999999998545, 5915714.099999999627471 ], [ 36862.349999999998545, 5915714.174999999813735 ], [ 36862.57499999999709, 5915714.174999999813735 ], [ 36862.57499999999709, 5915714.25 ], [ 36862.80000000000291, 5915714.25 ], [ 36862.80000000000291, 5915714.325000000186265 ], [ 36863.099999999998545, 5915714.325000000186265 ], [ 36863.099999999998545, 5915714.400000000372529 ], [ 36863.32499999999709, 5915714.400000000372529 ], [ 36863.32499999999709, 5915714.474999999627471 ], [ 36863.55000000000291, 5915714.474999999627471 ], [ 36863.55000000000291, 5915714.549999999813735 ], [ 36863.69999999999709, 5915714.549999999813735 ], [ 36863.69999999999709, 5915714.625 ], [ 36863.849999999998545, 5915714.625 ], [ 36863.849999999998545, 5915714.700000000186265 ], [ 36863.92500000000291, 5915714.700000000186265 ], [ 36863.92500000000291, 5915715.0 ], [ 36864.0, 5915715.0 ], [ 36864.0, 5915715.375 ], [ 36864.07499999999709, 5915715.375 ], [ 36864.07499999999709, 5915715.75 ], [ 36864.150000000001455, 5915715.75 ], [ 36864.150000000001455, 5915716.049999999813735 ], [ 36864.224999999998545, 5915716.049999999813735 ], [ 36864.224999999998545, 5915716.424999999813735 ], [ 36864.30000000000291, 5915716.424999999813735 ], [ 36864.30000000000291, 5915716.799999999813735 ], [ 36864.224999999998545, 5915716.799999999813735 ], [ 36864.224999999998545, 5915716.875 ], [ 36864.150000000001455, 5915716.875 ], [ 36864.150000000001455, 5915716.950000000186265 ], [ 36864.07499999999709, 5915716.950000000186265 ], [ 36864.07499999999709, 5915717.025000000372529 ], [ 36864.0, 5915717.025000000372529 ], [ 36864.0, 5915717.174999999813735 ], [ 36863.92500000000291, 5915717.174999999813735 ], [ 36863.92500000000291, 5915717.25 ], [ 36863.849999999998545, 5915717.25 ], [ 36863.849999999998545, 5915717.325000000186265 ], [ 36863.775000000001455, 5915717.325000000186265 ], [ 36863.775000000001455, 5915717.400000000372529 ], [ 36863.69999999999709, 5915717.400000000372529 ], [ 36863.69999999999709, 5915717.474999999627471 ], [ 36863.55000000000291, 5915717.474999999627471 ], [ 36863.55000000000291, 5915717.549999999813735 ], [ 36863.474999999998545, 5915717.549999999813735 ], [ 36863.474999999998545, 5915717.625 ], [ 36863.32499999999709, 5915717.625 ], [ 36863.32499999999709, 5915717.700000000186265 ], [ 36863.25, 5915717.700000000186265 ], [ 36863.25, 5915717.775000000372529 ], [ 36863.17500000000291, 5915717.775000000372529 ], [ 36863.17500000000291, 5915717.849999999627471 ], [ 36863.099999999998545, 5915717.849999999627471 ], [ 36863.099999999998545, 5915717.924999999813735 ], [ 36863.025000000001455, 5915717.924999999813735 ], [ 36863.025000000001455, 5915718.0 ], [ 36862.94999999999709, 5915718.0 ], [ 36862.94999999999709, 5915718.075000000186265 ], [ 36862.875, 5915718.075000000186265 ], [ 36862.875, 5915718.150000000372529 ], [ 36862.80000000000291, 5915718.150000000372529 ], [ 36862.80000000000291, 5915718.224999999627471 ], [ 36862.724999999998545, 5915718.224999999627471 ], [ 36862.724999999998545, 5915718.299999999813735 ], [ 36862.650000000001455, 5915718.299999999813735 ], [ 36862.650000000001455, 5915718.450000000186265 ], [ 36862.57499999999709, 5915718.450000000186265 ], [ 36862.57499999999709, 5915718.525000000372529 ], [ 36862.5, 5915718.525000000372529 ], [ 36862.5, 5915718.674999999813735 ], [ 36862.42500000000291, 5915718.674999999813735 ], [ 36862.42500000000291, 5915718.75 ], [ 36862.349999999998545, 5915718.75 ], [ 36862.349999999998545, 5915718.825000000186265 ], [ 36862.275000000001455, 5915718.825000000186265 ], [ 36862.275000000001455, 5915718.900000000372529 ], [ 36862.125, 5915718.900000000372529 ], [ 36862.125, 5915718.974999999627471 ], [ 36862.05000000000291, 5915718.974999999627471 ], [ 36862.05000000000291, 5915719.049999999813735 ], [ 36861.974999999998545, 5915719.049999999813735 ], [ 36861.974999999998545, 5915719.125 ], [ 36861.82499999999709, 5915719.125 ], [ 36861.82499999999709, 5915719.200000000186265 ], [ 36861.75, 5915719.200000000186265 ], [ 36861.75, 5915719.275000000372529 ], [ 36861.525000000001455, 5915719.275000000372529 ], [ 36861.525000000001455, 5915719.349999999627471 ], [ 36861.30000000000291, 5915719.349999999627471 ], [ 36861.30000000000291, 5915719.424999999813735 ], [ 36861.150000000001455, 5915719.424999999813735 ], [ 36861.150000000001455, 5915719.5 ], [ 36861.0, 5915719.5 ], [ 36861.0, 5915719.575000000186265 ], [ 36860.849999999998545, 5915719.575000000186265 ], [ 36860.849999999998545, 5915719.650000000372529 ], [ 36860.69999999999709, 5915719.650000000372529 ], [ 36860.69999999999709, 5915719.724999999627471 ], [ 36860.625, 5915719.724999999627471 ], [ 36860.625, 5915719.799999999813735 ], [ 36860.474999999998545, 5915719.799999999813735 ], [ 36860.474999999998545, 5915719.875 ], [ 36860.32499999999709, 5915719.875 ], [ 36860.32499999999709, 5915719.950000000186265 ], [ 36860.25, 5915719.950000000186265 ], [ 36860.25, 5915720.025000000372529 ], [ 36860.17500000000291, 5915720.025000000372529 ], [ 36860.17500000000291, 5915720.099999999627471 ], [ 36860.025000000001455, 5915720.099999999627471 ], [ 36860.025000000001455, 5915720.174999999813735 ], [ 36859.94999999999709, 5915720.174999999813735 ], [ 36859.94999999999709, 5915720.25 ], [ 36859.875, 5915720.25 ], [ 36859.875, 5915720.325000000186265 ], [ 36859.80000000000291, 5915720.325000000186265 ], [ 36859.80000000000291, 5915720.400000000372529 ], [ 36859.724999999998545, 5915720.400000000372529 ] ] ] } }
]
}
