{
"type": "FeatureCollection",
"name": "36183E591807N_buildings",
"crs": { "type": "name", "properties": { "name": "urn:ogc:def:crs:EPSG::3776" } },
"features": [
{ "type": "Feature", "properties": { "value": 1.0, "building_id": 0, "area": 13.775625000126478 }, "geometry": { "type": "Polygon", "coordinates": [ [ [ 36922.05000000000291, 5918367.150000000372529 ], [ 36922.05000000000291, 5918367.075000000186265 ], [ 36921.82499999999709, 5918367.075000000186265 ], [ 36921.82499999999709, 5918367.0 ], [ 36921.67500000000291, 5918367.0 ], [ 36921.67500000000291, 5918366.924999999813735 ], [ 36921.44999999999709, 5918366.924999999813735 ], [ 36921.44999999999709, 5918366.849999999627471 ], [ 36921.224999999998545, 5918366.849999999627471 ], [ 36921.224999999998545, 5918366.775000000372529 ], [ 36921.0, 5918366.775000000372529 ], [ 36921.0, 5918366.700000000186265 ], [ 36920.69999999999709, 5918366.700000000186265 ], [ 36920.69999999999709, 5918366.625 ], [ 36920.400000000001455, 5918366.625 ], [ 36920.400000000001455, 5918366.549999999813735 ], [ 36920.025000000001455, 5918366.549999999813735 ], [ 36920.025000000001455, 5918366.474999999627471 ], [ 36919.94999999999709, 5918366.474999999627471 ], [ 36919.94999999999709, 5918366.400000000372529 ], [ 36919.875, 5918366.400000000372529 ], [ 36919.875, 5918366.25 ], [ 36919.80000000000291, 5918366.25 ], [ 36919.80000000000291, 5918366.099999999627471 ], [ 36919.724999999998545, 5918366.099999999627471 ], [ 36919.724999999998545, 5918365.875 ], [ 36919.650000000001455, 5918365.875 ], [ 36919.650000000001455, 5918365.650000000372529 ], [ 36919.57499999999709, 5918365.650000000372529 ], [ 36919.57499999999709, 5918365.424999999813735 ], [ 36919.5, 5918365.424999999813735 ], [ 36919.5, 5918364.825000000186265 ], [ 36919.57499999999709, 5918364.825000000186265 ], [ 36919.57499999999709, 5918364.525000000372529 ], [ 36919.650000000001455, 5918364.525000000372529 ], [ 36919.650000000001455, 5918364.299999999813735 ], [ 36919.724999999998545, 5918364.299999999813735 ], [ 36919.724999999998545, 5918364.075000000186265 ], [ 36919.80000000000291, 5918364.075000000186265 ], [ 36919.80000000000291, 5918363.924999999813735 ], [ 36919.875, 5918363.924999999813735 ], [ 36919.875, 5918363.700000000186265 ], [ 36920.32499999999709, 5918363.700000000186265 ], [ 36920.32499999999709, 5918363.625 ], [ 36920.474999999998545, 5918363.625 ], [ 36920.474999999998545, 5918363.549999999813735 ], [ 36920.625, 5918363.549999999813735 ], [ 36920.625, 5918363.474999999627471 ], [ 36920.69999999999709, 5918363.474999999627471 ], [ 36920.69999999999709, 5918363.400000000372529 ], [ 36920.849999999998545, 5918363.400000000372529 ], [ 36920.849999999998545, 5918363.325000000186265 ], [ 36920.92500000000291, 5918363.325000000186265 ], [ 36920.92500000000291, 5918363.25 ], [ 36921.0, 5918363.25 ], [ 36921.0, 5918363.174999999813735 ], [ 36921.150000000001455, 5918363.174999999813735 ], [ 36921.150000000001455, 5918363.099999999627471 ], [ 36921.224999999998545, 5918363.099999999627471 ], [ 36921.224999999998545, 5918363.025000000372529 ], [ 36921.375, 5918363.025000000372529 ], [ 36921.375, 5918362.950000000186265 ], [ 36921.599999999998545, 5918362.950000000186265 ], [ 36921.599999999998545, 5918362.875 ], [ 36921.75, 5918362.875 ], [ 36921.75, 5918362.799999999813735 ], [ 36922.05000000000291, 5918362.799999999813735 ], [ 36922.05000000000291, 5918362.724999999627471 ], [ 36922.349999999998545, 5918362.724999999627471 ], [ 36922.349999999998545, 5918362.799999999813735 ], [ 36922.42500000000291, 5918362.799999999813735 ], [ 36922.42500000000291, 5918362.875 ], [ 36922.57499999999709, 5918362.875 ], [ 36922.57499999999709, 5918362.950000000186265 ], [ 36922.650000000001455, 5918362.950000000186265 ], [ 36922.650000000001455, 5918363.025000000372529 ], [ 36922.724999999998545, 5918363.025000000372529 ], [ 36922.724999999998545, 5918363.099999999627471 ], [ 36922.80000000000291, 5918363.099999999627471 ], [ 36922.80000000000291, 5918363.174999999813735 ], [ 36922.875, 5918363.174999999813735 ], [ 36922.875, 5918363.325000000186265 ], [ 36922.94999999999709, 5918363.325000000186265 ], [ 36922.94999999999709, 5918363.474999999627471 ], [ 36923.025000000001455, 5918363.474999999627471 ], [ 36923.025000000001455, 5918363.625 ], [ 36923.099999999998545, 5918363.625 ], [ 36923.099999999998545, 5918363.700000000186265 ], [ 36923.17500000000291, 5918363.700000000186265 ], [ 36923.17500000000291, 5918363.849999999627471 ], [ 36923.25, 5918363.849999999627471 ], [ 36923.25, 5918363.924999999813735 ], [ 36923.32499999999709, 5918363.924999999813735 ], [ 36923.32499999999709, 5918364.075000000186265 ], [ 36923.400000000001455, 5918364.075000000186265 ], [ 36923.400000000001455, 5918364.150000000372529 ], [ 36923.474999999998545, 5918364.150000000372529 ], [ 36923.474999999998545, 5918364.224999999627471 ], [ 36923.55000000000291, 5918364.224999999627471 ], [ 36923.55000000000291, 5918364.299999999813735 ], [ 36923.625, 5918364.299999999813735 ], [ 36923.625, 5918364.375 ], [ 36923.69999999999709, 5918364.375 ], [ 36923.69999999999709, 5918364.450000000186265 ], [ 36923.775000000001455, 5918364.450000000186265 ], [ 36923.775000000001455, 5918364.525000000372529 ], [ 36923.849999999998545, 5918364.525000000372529 ], [ 36923.849999999998545, 5918364.599999999627471 ], [ 36923.92500000000291, 5918364.599999999627471 ], [ 36923.92500000000291, 5918364.674999999813735 ], [ 36924.07499999999709, 5918364.674999999813735 ], [ 36924.07499999999709, 5918364.75 ], [ 36924.150000000001455, 5918364.75 ], [ 36924.150000000001455, 5918364.825000000186265 ], [ 36924.224999999998545, 5918364.825000000186265 ], [ 36924.224999999998545, 5918364.900000000372529 ], [ 36924.30000000000291, 5918364.900000000372529 ], [ 36924.30000000000291, 5918364.974999999627471 ], [ 36924.375, 5918364.974999999627471 ], [ 36924.375, 5918365.049999999813735 ], [ 36924.44999999999709, 5918365.049999999813735 ], [ 36924.44999999999709, 5918365.200000000186265 ], [ 36924.375, 5918365.200000000186265 ], [ 36924.375, 5918365.275000000372529 ], [ 36924.30000000000291, 5918365.275000000372529 ], [ 36924.30000000000291, 5918365.349999999627471 ], [ 36924.224999999998545, 5918365.349999999627471 ], [ 36924.224999999998545, 5918365.424999999813735 ], [ 36924.150000000001455, 5918365.424999999813735 ], [ 36924.150000000001455, 5918365.5 ], [ 36924.0, 5918365.5 ], [ 36924.0, 5918365.575000000186265 ], [ 36923.849999999998545, 5918365.575000000186265 ], [ 36923.849999999998545, 5918365.650000000372529 ], [ 36923.775000000001455, 5918365.650000000372529 ], [ 36923.775000000001455, 5918365.724999999627471 ], [ 36923.625, 5918365.724999999627471 ], [ 36923.625, 5918365.799999999813735 ], [ 36923.55000000000291, 5918365.799999999813735 ], [ 36923.55000000000291, 5918365.875 ], [ 36923.474999999998545, 5918365.875 ], [ 36923.474999999998545, 5918365.950000000186265 ], [ 36923.32499999999709, 5918365.950000000186265 ], [ 36923.32499999999709, 5918366.025000000372529 ], [ 36923.25, 5918366.025000000372529 ], [ 36923.25, 5918366.099999999627471 ], [ 36923.17500000000291, 5918366.099999999627471 ], [ 36923.17500000000291, 5918366.174999999813735 ], [ 36923.099999999998545, 5918366.174999999813735 ], [ 36923.099999999998545, 5918366.25 ], [ 36923.025000000001455, 5918366.25 ], [ 36923.025000000001455, 5918366.325000000186265 ], [ 36922.94999999999709, 5918366.325000000186265 ], [ 36922.94999999999709, 5918366.400000000372529 ], [ 36922.875, 5918366.400000000372529 ], [ 36922.875, 5918366.474999999627471 ], [ 36922.80000000000291, 5918366.474999999627471 ], [ 36922.80000000000291, 5918366.549999999813735 ], [ 36922.724999999998545, 5918366.549999999813735 ], [ 36922.724999999998545, 5918366.625 ], [ 36922.650000000001455, 5918366.625 ], [ 36922.650000000001455, 5918366.700000000186265 ], [ 36922.57499999999709, 5918366.700000000186265 ], [ 36922.57499999999709, 5918366.849999999627471 ], [ 36922.5, 5918366.849999999627471 ], [ 36922.5, 5918366.924999999813735 ], [ 36922.42500000000291, 5918366.924999999813735 ], [ 36922.42500000000291, 5918367.0 ], [ 36922.349999999998545, 5918367.0 ], [ 36922.349999999998545, 5918367.150000000372529 ], [ 36922.05000000000291, 5918367.150000000372529 ] ] ] } },
{ "type": "Feature", "properties": { "value": 1.0, "building_id": 1, "area": 2.0531249995110556 }, "geometry": { "type": "Polygon", "coordinates": [ [ [ 36930.07499999999709, 5918310.825000000186265 ], [ 36930.07499999999709, 5918310.75 ], [ 36930.0, 5918310.75 ], [ 36930.0, 5918310.674999999813735 ], [ 36929.92500000000291, 5918310.674999999813735 ], [ 36929.92500000000291, 5918310.525000000372529 ], [ 36929.849999999998545, 5918310.525000000372529 ], [ 36929.849999999998545, 5918310.375 ], [ 36929.92500000000291, 5918310.375 ], [ 36929.92500000000291, 5918310.299999999813735 ], [ 36930.0, 5918310.299999999813735 ], [ 36930.0, 5918310.224999999627471 ], [ 36930.07499999999709, 5918310.224999999627471 ], [ 36930.07499999999709, 5918310.150000000372529 ], [ 36933.0, 5918310.150000000372529 ], [ 36933.0, 5918310.825000000186265 ], [ 36930.07499999999709, 5918310.825000000186265 ] ] ] } }
]
}
