{
"type": "FeatureCollection",
"name": "36933E595182N_buildings",
"crs": { "type": "name", "properties": { "name": "urn:ogc:def:crs:EPSG::3776" } },
"features": [
{ "type": "Feature", "properties": { "value": 1.0, "building_id": 0, "area": 91.186874999317055 }, "geometry": { "type": "Polygon", "coordinates": [ [ [ 37013.55000000000291, 5952423.0 ], [ 37013.55000000000291, 5952422.924999999813735 ], [ 37012.94999999999709, 5952422.924999999813735 ], [ 37012.94999999999709, 5952422.849999999627471 ], [ 37012.349999999998545, 5952422.849999999627471 ], [ 37012.349999999998545, 5952422.775000000372529 ], [ 37011.82499999999709, 5952422.775000000372529 ], [ 37011.82499999999709, 5952422.700000000186265 ], [ 37011.375, 5952422.700000000186265 ], [ 37011.375, 5952422.625 ], [ 37010.92500000000291, 5952422.625 ], [ 37010.92500000000291, 5952422.549999999813735 ], [ 37010.55000000000291, 5952422.549999999813735 ], [ 37010.55000000000291, 5952422.474999999627471 ], [ 37010.17500000000291, 5952422.474999999627471 ], [ 37010.17500000000291, 5952422.400000000372529 ], [ 37009.80000000000291, 5952422.400000000372529 ], [ 37009.80000000000291, 5952422.325000000186265 ], [ 37009.5, 5952422.325000000186265 ], [ 37009.5, 5952422.25 ], [ 37009.275000000001455, 5952422.25 ], [ 37009.275000000001455, 5952422.174999999813735 ], [ 37008.974999999998545, 5952422.174999999813735 ], [ 37008.974999999998545, 5952422.099999999627471 ], [ 37008.75, 5952422.099999999627471 ], [ 37008.75, 5952422.025000000372529 ], [ 37008.525000000001455, 5952422.025000000372529 ], [ 37008.525000000001455, 5952421.950000000186265 ], [ 37008.30000000000291, 5952421.950000000186265 ], [ 37008.30000000000291, 5952421.875 ], [ 37008.150000000001455, 5952421.875 ], [ 37008.150000000001455, 5952421.799999999813735 ], [ 37008.07499999999709, 5952421.799999999813735 ], [ 37008.07499999999709, 5952421.724999999627471 ], [ 37007.92500000000291, 5952421.724999999627471 ], [ 37007.92500000000291, 5952421.650000000372529 ], [ 37007.775000000001455, 5952421.650000000372529 ], [ 37007.775000000001455, 5952421.575000000186265 ], [ 37007.69999999999709, 5952421.575000000186265 ], [ 37007.69999999999709, 5952421.5 ], [ 37007.55000000000291, 5952421.5 ], [ 37007.55000000000291, 5952421.424999999813735 ], [ 37007.400000000001455, 5952421.424999999813735 ], [ 37007.400000000001455, 5952421.349999999627471 ], [ 37007.25, 5952421.349999999627471 ], [ 37007.25, 5952421.275000000372529 ], [ 37007.099999999998545, 5952421.275000000372529 ], [ 37007.099999999998545, 5952421.200000000186265 ], [ 37006.875, 5952421.200000000186265 ], [ 37006.875, 5952421.125 ], [ 37006.724999999998545, 5952421.125 ], [ 37006.724999999998545, 5952421.049999999813735 ], [ 37006.5, 5952421.049999999813735 ], [ 37006.5, 5952420.974999999627471 ], [ 37006.349999999998545, 5952420.974999999627471 ], [ 37006.349999999998545, 5952420.900000000372529 ], [ 37006.19999999999709, 5952420.900000000372529 ], [ 37006.19999999999709, 5952420.825000000186265 ], [ 37006.05000000000291, 5952420.825000000186265 ], [ 37006.05000000000291, 5952420.75 ], [ 37005.974999999998545, 5952420.75 ], [ 37005.974999999998545, 5952420.674999999813735 ], [ 37005.82499999999709, 5952420.674999999813735 ], [ 37005.82499999999709, 5952420.599999999627471 ], [ 37005.75, 5952420.599999999627471 ], [ 37005.75, 5952420.525000000372529 ], [ 37005.67500000000291, 5952420.525000000372529 ], [ 37005.67500000000291, 5952420.450000000186265 ], [ 37005.599999999998545, 5952420.450000000186265 ], [ 37005.599999999998545, 5952420.375 ], [ 37005.525000000001455, 5952420.375 ], [ 37005.525000000001455, 5952420.299999999813735 ], [ 37005.44999999999709, 5952420.299999999813735 ], [ 37005.44999999999709, 5952420.224999999627471 ], [ 37005.375, 5952420.224999999627471 ], [ 37005.375, 5952420.150000000372529 ], [ 37005.30000000000291, 5952420.150000000372529 ], [ 37005.30000000000291, 5952420.075000000186265 ], [ 37005.224999999998545, 5952420.075000000186265 ], [ 37005.224999999998545, 5952419.924999999813735 ], [ 37005.150000000001455, 5952419.924999999813735 ], [ 37005.150000000001455, 5952419.849999999627471 ], [ 37005.07499999999709, 5952419.849999999627471 ], [ 37005.07499999999709, 5952419.099999999627471 ], [ 37005.0, 5952419.099999999627471 ], [ 37005.0, 5952418.349999999627471 ], [ 37004.92500000000291, 5952418.349999999627471 ], [ 37004.92500000000291, 5952417.75 ], [ 37005.0, 5952417.75 ], [ 37005.0, 5952417.599999999627471 ], [ 37005.07499999999709, 5952417.599999999627471 ], [ 37005.07499999999709, 5952417.525000000372529 ], [ 37005.150000000001455, 5952417.525000000372529 ], [ 37005.150000000001455, 5952417.375 ], [ 37005.224999999998545, 5952417.375 ], [ 37005.224999999998545, 5952417.224999999627471 ], [ 37005.30000000000291, 5952417.224999999627471 ], [ 37005.30000000000291, 5952417.075000000186265 ], [ 37005.375, 5952417.075000000186265 ], [ 37005.375, 5952417.0 ], [ 37005.44999999999709, 5952417.0 ], [ 37005.44999999999709, 5952416.849999999627471 ], [ 37005.525000000001455, 5952416.849999999627471 ], [ 37005.525000000001455, 5952416.775000000372529 ], [ 37005.599999999998545, 5952416.775000000372529 ], [ 37005.599999999998545, 5952416.625 ], [ 37005.67500000000291, 5952416.625 ], [ 37005.67500000000291, 5952416.549999999813735 ], [ 37005.75, 5952416.549999999813735 ], [ 37005.75, 5952416.400000000372529 ], [ 37005.82499999999709, 5952416.400000000372529 ], [ 37005.82499999999709, 5952416.325000000186265 ], [ 37005.900000000001455, 5952416.325000000186265 ], [ 37005.900000000001455, 5952416.25 ], [ 37005.974999999998545, 5952416.25 ], [ 37005.974999999998545, 5952416.099999999627471 ], [ 37006.05000000000291, 5952416.099999999627471 ], [ 37006.05000000000291, 5952416.025000000372529 ], [ 37006.125, 5952416.025000000372529 ], [ 37006.125, 5952415.950000000186265 ], [ 37006.19999999999709, 5952415.950000000186265 ], [ 37006.19999999999709, 5952415.875 ], [ 37006.275000000001455, 5952415.875 ], [ 37006.275000000001455, 5952415.799999999813735 ], [ 37006.42500000000291, 5952415.799999999813735 ], [ 37006.42500000000291, 5952415.724999999627471 ], [ 37006.57499999999709, 5952415.724999999627471 ], [ 37006.57499999999709, 5952415.650000000372529 ], [ 37006.724999999998545, 5952415.650000000372529 ], [ 37006.724999999998545, 5952415.575000000186265 ], [ 37006.875, 5952415.575000000186265 ], [ 37006.875, 5952415.5 ], [ 37007.099999999998545, 5952415.5 ], [ 37007.099999999998545, 5952415.424999999813735 ], [ 37007.25, 5952415.424999999813735 ], [ 37007.25, 5952415.349999999627471 ], [ 37007.474999999998545, 5952415.349999999627471 ], [ 37007.474999999998545, 5952415.275000000372529 ], [ 37007.775000000001455, 5952415.275000000372529 ], [ 37007.775000000001455, 5952415.200000000186265 ], [ 37008.0, 5952415.200000000186265 ], [ 37008.0, 5952415.125 ], [ 37008.75, 5952415.125 ], [ 37008.75, 5952415.200000000186265 ], [ 37009.57499999999709, 5952415.200000000186265 ], [ 37009.57499999999709, 5952415.275000000372529 ], [ 37010.25, 5952415.275000000372529 ], [ 37010.25, 5952415.349999999627471 ], [ 37010.69999999999709, 5952415.349999999627471 ], [ 37010.69999999999709, 5952415.424999999813735 ], [ 37011.07499999999709, 5952415.424999999813735 ], [ 37011.07499999999709, 5952415.5 ], [ 37011.375, 5952415.5 ], [ 37011.375, 5952415.575000000186265 ], [ 37011.67500000000291, 5952415.575000000186265 ], [ 37011.67500000000291, 5952415.650000000372529 ], [ 37011.974999999998545, 5952415.650000000372529 ], [ 37011.974999999998545, 5952415.724999999627471 ], [ 37012.275000000001455, 5952415.724999999627471 ], [ 37012.275000000001455, 5952415.799999999813735 ], [ 37012.650000000001455, 5952415.799999999813735 ], [ 37012.650000000001455, 5952415.875 ], [ 37013.025000000001455, 5952415.875 ], [ 37013.025000000001455, 5952415.950000000186265 ], [ 37013.55000000000291, 5952415.950000000186265 ], [ 37013.55000000000291, 5952416.025000000372529 ], [ 37014.150000000001455, 5952416.025000000372529 ], [ 37014.150000000001455, 5952416.099999999627471 ], [ 37014.974999999998545, 5952416.099999999627471 ], [ 37014.974999999998545, 5952416.174999999813735 ], [ 37015.875, 5952416.174999999813735 ], [ 37015.875, 5952416.25 ], [ 37016.400000000001455, 5952416.25 ], [ 37016.400000000001455, 5952416.325000000186265 ], [ 37016.92500000000291, 5952416.325000000186265 ], [ 37016.92500000000291, 5952416.400000000372529 ], [ 37017.375, 5952416.400000000372529 ], [ 37017.375, 5952416.474999999627471 ], [ 37017.82499999999709, 5952416.474999999627471 ], [ 37017.82499999999709, 5952416.549999999813735 ], [ 37018.125, 5952416.549999999813735 ], [ 37018.125, 5952416.625 ], [ 37018.275000000001455, 5952416.625 ], [ 37018.275000000001455, 5952416.700000000186265 ], [ 37018.5, 5952416.700000000186265 ], [ 37018.5, 5952416.775000000372529 ], [ 37018.650000000001455, 5952416.775000000372529 ], [ 37018.650000000001455, 5952416.849999999627471 ], [ 37018.80000000000291, 5952416.849999999627471 ], [ 37018.80000000000291, 5952416.924999999813735 ], [ 37018.875, 5952416.924999999813735 ], [ 37018.875, 5952417.0 ], [ 37019.025000000001455, 5952417.0 ], [ 37019.025000000001455, 5952417.075000000186265 ], [ 37019.099999999998545, 5952417.075000000186265 ], [ 37019.099999999998545, 5952417.150000000372529 ], [ 37019.25, 5952417.150000000372529 ], [ 37019.25, 5952417.224999999627471 ], [ 37019.32499999999709, 5952417.224999999627471 ], [ 37019.32499999999709, 5952417.299999999813735 ], [ 37019.400000000001455, 5952417.299999999813735 ], [ 37019.400000000001455, 5952417.375 ], [ 37019.474999999998545, 5952417.375 ], [ 37019.474999999998545, 5952417.450000000186265 ], [ 37019.55000000000291, 5952417.450000000186265 ], [ 37019.55000000000291, 5952417.525000000372529 ], [ 37019.625, 5952417.525000000372529 ], [ 37019.625, 5952417.599999999627471 ], [ 37019.69999999999709, 5952417.599999999627471 ], [ 37019.69999999999709, 5952417.674999999813735 ], [ 37019.775000000001455, 5952417.674999999813735 ], [ 37019.775000000001455, 5952417.75 ], [ 37019.849999999998545, 5952417.75 ], [ 37019.849999999998545, 5952417.900000000372529 ], [ 37019.92500000000291, 5952417.900000000372529 ], [ 37019.92500000000291, 5952418.125 ], [ 37020.0, 5952418.125 ], [ 37020.0, 5952418.349999999627471 ], [ 37020.07499999999709, 5952418.349999999627471 ], [ 37020.07499999999709, 5952418.575000000186265 ], [ 37020.150000000001455, 5952418.575000000186265 ], [ 37020.150000000001455, 5952418.799999999813735 ], [ 37020.224999999998545, 5952418.799999999813735 ], [ 37020.224999999998545, 5952419.025000000372529 ], [ 37020.30000000000291, 5952419.025000000372529 ], [ 37020.30000000000291, 5952419.25 ], [ 37020.375, 5952419.25 ], [ 37020.375, 5952419.549999999813735 ], [ 37020.44999999999709, 5952419.549999999813735 ], [ 37020.44999999999709, 5952419.775000000372529 ], [ 37020.525000000001455, 5952419.775000000372529 ], [ 37020.525000000001455, 5952419.849999999627471 ], [ 37020.44999999999709, 5952419.849999999627471 ], [ 37020.44999999999709, 5952419.924999999813735 ], [ 37020.375, 5952419.924999999813735 ], [ 37020.375, 5952420.0 ], [ 37020.30000000000291, 5952420.0 ], [ 37020.30000000000291, 5952420.150000000372529 ], [ 37020.224999999998545, 5952420.150000000372529 ], [ 37020.224999999998545, 5952420.224999999627471 ], [ 37020.150000000001455, 5952420.224999999627471 ], [ 37020.150000000001455, 5952420.299999999813735 ], [ 37020.07499999999709, 5952420.299999999813735 ], [ 37020.07499999999709, 5952420.375 ], [ 37020.0, 5952420.375 ], [ 37020.0, 5952420.450000000186265 ], [ 37019.92500000000291, 5952420.450000000186265 ], [ 37019.92500000000291, 5952420.525000000372529 ], [ 37019.849999999998545, 5952420.525000000372529 ], [ 37019.849999999998545, 5952420.599999999627471 ], [ 37019.775000000001455, 5952420.599999999627471 ], [ 37019.775000000001455, 5952420.674999999813735 ], [ 37019.625, 5952420.674999999813735 ], [ 37019.625, 5952420.75 ], [ 37019.55000000000291, 5952420.75 ], [ 37019.55000000000291, 5952420.825000000186265 ], [ 37019.474999999998545, 5952420.825000000186265 ], [ 37019.474999999998545, 5952420.900000000372529 ], [ 37019.400000000001455, 5952420.900000000372529 ], [ 37019.400000000001455, 5952420.974999999627471 ], [ 37019.25, 5952420.974999999627471 ], [ 37019.25, 5952421.049999999813735 ], [ 37019.17500000000291, 5952421.049999999813735 ], [ 37019.17500000000291, 5952421.125 ], [ 37019.025000000001455, 5952421.125 ], [ 37019.025000000001455, 5952421.200000000186265 ], [ 37018.875, 5952421.200000000186265 ], [ 37018.875, 5952421.275000000372529 ], [ 37018.724999999998545, 5952421.275000000372529 ], [ 37018.724999999998545, 5952421.349999999627471 ], [ 37018.57499999999709, 5952421.349999999627471 ], [ 37018.57499999999709, 5952421.424999999813735 ], [ 37018.42500000000291, 5952421.424999999813735 ], [ 37018.42500000000291, 5952421.5 ], [ 37018.19999999999709, 5952421.5 ], [ 37018.19999999999709, 5952421.575000000186265 ], [ 37018.05000000000291, 5952421.575000000186265 ], [ 37018.05000000000291, 5952421.650000000372529 ], [ 37017.900000000001455, 5952421.650000000372529 ], [ 37017.900000000001455, 5952421.724999999627471 ], [ 37017.75, 5952421.724999999627471 ], [ 37017.75, 5952421.799999999813735 ], [ 37017.67500000000291, 5952421.799999999813735 ], [ 37017.67500000000291, 5952421.950000000186265 ], [ 37017.599999999998545, 5952421.950000000186265 ], [ 37017.599999999998545, 5952422.025000000372529 ], [ 37017.525000000001455, 5952422.025000000372529 ], [ 37017.525000000001455, 5952422.099999999627471 ], [ 37017.44999999999709, 5952422.099999999627471 ], [ 37017.44999999999709, 5952422.174999999813735 ], [ 37017.375, 5952422.174999999813735 ], [ 37017.375, 5952422.25 ], [ 37017.30000000000291, 5952422.25 ], [ 37017.30000000000291, 5952422.325000000186265 ], [ 37017.150000000001455, 5952422.325000000186265 ], [ 37017.150000000001455, 5952422.400000000372529 ], [ 37017.07499999999709, 5952422.400000000372529 ], [ 37017.07499999999709, 5952422.474999999627471 ], [ 37016.92500000000291, 5952422.474999999627471 ], [ 37016.92500000000291, 5952422.549999999813735 ], [ 37016.775000000001455, 5952422.549999999813735 ], [ 37016.775000000001455, 5952422.625 ], [ 37016.625, 5952422.625 ], [ 37016.625, 5952422.700000000186265 ], [ 37016.474999999998545, 5952422.700000000186265 ], [ 37016.474999999998545, 5952422.775000000372529 ], [ 37016.32499999999709, 5952422.775000000372529 ], [ 37016.32499999999709, 5952422.849999999627471 ], [ 37016.099999999998545, 5952422.849999999627471 ], [ 37016.099999999998545, 5952422.924999999813735 ], [ 37015.19999999999709, 5952422.924999999813735 ], [ 37015.19999999999709, 5952423.0 ], [ 37013.55000000000291, 5952423.0 ] ] ] } },
{ "type": "Feature", "properties": { "value": 1.0, "building_id": 1, "area": 2234.3343750003542 }, "geometry": { "type": "Polygon", "coordinates": [ [ [ 36992.474999999998545, 5952380.775000000372529 ], [ 36992.474999999998545, 5952380.700000000186265 ], [ 36992.32499999999709, 5952380.700000000186265 ], [ 36992.32499999999709, 5952380.625 ], [ 36992.099999999998545, 5952380.625 ], [ 36992.099999999998545, 5952380.549999999813735 ], [ 36991.94999999999709, 5952380.549999999813735 ], [ 36991.94999999999709, 5952380.474999999627471 ], [ 36991.80000000000291, 5952380.474999999627471 ], [ 36991.80000000000291, 5952380.400000000372529 ], [ 36991.650000000001455, 5952380.400000000372529 ], [ 36991.650000000001455, 5952380.325000000186265 ], [ 36991.57499999999709, 5952380.325000000186265 ], [ 36991.57499999999709, 5952380.25 ], [ 36991.42500000000291, 5952380.25 ], [ 36991.42500000000291, 5952380.174999999813735 ], [ 36991.349999999998545, 5952380.174999999813735 ], [ 36991.349999999998545, 5952380.099999999627471 ], [ 36991.19999999999709, 5952380.099999999627471 ], [ 36991.19999999999709, 5952380.025000000372529 ], [ 36991.125, 5952380.025000000372529 ], [ 36991.125, 5952379.950000000186265 ], [ 36991.05000000000291, 5952379.950000000186265 ], [ 36991.05000000000291, 5952379.875 ], [ 36990.974999999998545, 5952379.875 ], [ 36990.974999999998545, 5952379.799999999813735 ], [ 36990.82499999999709, 5952379.799999999813735 ], [ 36990.82499999999709, 5952379.724999999627471 ], [ 36990.75, 5952379.724999999627471 ], [ 36990.75, 5952379.575000000186265 ], [ 36990.67500000000291, 5952379.575000000186265 ], [ 36990.67500000000291, 5952379.5 ], [ 36990.599999999998545, 5952379.5 ], [ 36990.599999999998545, 5952379.424999999813735 ], [ 36990.44999999999709, 5952379.424999999813735 ], [ 36990.44999999999709, 5952379.349999999627471 ], [ 36990.375, 5952379.349999999627471 ], [ 36990.375, 5952379.275000000372529 ], [ 36990.30000000000291, 5952379.275000000372529 ], [ 36990.30000000000291, 5952379.200000000186265 ], [ 36990.224999999998545, 5952379.200000000186265 ], [ 36990.224999999998545, 5952379.125 ], [ 36990.150000000001455, 5952379.125 ], [ 36990.150000000001455, 5952379.049999999813735 ], [ 36990.07499999999709, 5952379.049999999813735 ], [ 36990.07499999999709, 5952378.974999999627471 ], [ 36990.0, 5952378.974999999627471 ], [ 36990.0, 5952378.900000000372529 ], [ 36989.92500000000291, 5952378.900000000372529 ], [ 36989.92500000000291, 5952378.825000000186265 ], [ 36989.775000000001455, 5952378.825000000186265 ], [ 36989.775000000001455, 5952378.75 ], [ 36989.625, 5952378.75 ], [ 36989.625, 5952378.674999999813735 ], [ 36989.474999999998545, 5952378.674999999813735 ], [ 36989.474999999998545, 5952378.599999999627471 ], [ 36989.32499999999709, 5952378.599999999627471 ], [ 36989.32499999999709, 5952378.525000000372529 ], [ 36989.25, 5952378.525000000372529 ], [ 36989.25, 5952378.450000000186265 ], [ 36989.099999999998545, 5952378.450000000186265 ], [ 36989.099999999998545, 5952378.375 ], [ 36989.025000000001455, 5952378.375 ], [ 36989.025000000001455, 5952378.299999999813735 ], [ 36988.94999999999709, 5952378.299999999813735 ], [ 36988.94999999999709, 5952378.224999999627471 ], [ 36988.875, 5952378.224999999627471 ], [ 36988.875, 5952378.150000000372529 ], [ 36988.724999999998545, 5952378.150000000372529 ], [ 36988.724999999998545, 5952378.075000000186265 ], [ 36988.650000000001455, 5952378.075000000186265 ], [ 36988.650000000001455, 5952378.0 ], [ 36988.57499999999709, 5952378.0 ], [ 36988.57499999999709, 5952377.924999999813735 ], [ 36988.5, 5952377.924999999813735 ], [ 36988.5, 5952377.849999999627471 ], [ 36988.349999999998545, 5952377.849999999627471 ], [ 36988.349999999998545, 5952377.775000000372529 ], [ 36988.275000000001455, 5952377.775000000372529 ], [ 36988.275000000001455, 5952377.700000000186265 ], [ 36988.125, 5952377.700000000186265 ], [ 36988.125, 5952377.625 ], [ 36988.05000000000291, 5952377.625 ], [ 36988.05000000000291, 5952377.549999999813735 ], [ 36987.900000000001455, 5952377.549999999813735 ], [ 36987.900000000001455, 5952377.474999999627471 ], [ 36987.82499999999709, 5952377.474999999627471 ], [ 36987.82499999999709, 5952377.400000000372529 ], [ 36987.75, 5952377.400000000372529 ], [ 36987.75, 5952377.325000000186265 ], [ 36987.67500000000291, 5952377.325000000186265 ], [ 36987.67500000000291, 5952377.25 ], [ 36987.525000000001455, 5952377.25 ], [ 36987.525000000001455, 5952377.174999999813735 ], [ 36987.44999999999709, 5952377.174999999813735 ], [ 36987.44999999999709, 5952377.099999999627471 ], [ 36987.375, 5952377.099999999627471 ], [ 36987.375, 5952377.025000000372529 ], [ 36987.30000000000291, 5952377.025000000372529 ], [ 36987.30000000000291, 5952376.950000000186265 ], [ 36987.224999999998545, 5952376.950000000186265 ], [ 36987.224999999998545, 5952376.875 ], [ 36987.150000000001455, 5952376.875 ], [ 36987.150000000001455, 5952376.799999999813735 ], [ 36986.92500000000291, 5952376.799999999813735 ], [ 36986.92500000000291, 5952376.724999999627471 ], [ 36986.69999999999709, 5952376.724999999627471 ], [ 36986.69999999999709, 5952376.650000000372529 ], [ 36986.400000000001455, 5952376.650000000372529 ], [ 36986.400000000001455, 5952376.575000000186265 ], [ 36986.17500000000291, 5952376.575000000186265 ], [ 36986.17500000000291, 5952376.5 ], [ 36985.94999999999709, 5952376.5 ], [ 36985.94999999999709, 5952376.424999999813735 ], [ 36985.724999999998545, 5952376.424999999813735 ], [ 36985.724999999998545, 5952376.349999999627471 ], [ 36985.57499999999709, 5952376.349999999627471 ], [ 36985.57499999999709, 5952376.275000000372529 ], [ 36985.42500000000291, 5952376.275000000372529 ], [ 36985.42500000000291, 5952376.200000000186265 ], [ 36985.275000000001455, 5952376.200000000186265 ], [ 36985.275000000001455, 5952376.125 ], [ 36985.125, 5952376.125 ], [ 36985.125, 5952376.049999999813735 ], [ 36984.974999999998545, 5952376.049999999813735 ], [ 36984.974999999998545, 5952375.974999999627471 ], [ 36984.900000000001455, 5952375.974999999627471 ], [ 36984.900000000001455, 5952375.900000000372529 ], [ 36984.82499999999709, 5952375.900000000372529 ], [ 36984.82499999999709, 5952375.825000000186265 ], [ 36984.67500000000291, 5952375.825000000186265 ], [ 36984.67500000000291, 5952375.75 ], [ 36984.525000000001455, 5952375.75 ], [ 36984.525000000001455, 5952375.674999999813735 ], [ 36984.375, 5952375.674999999813735 ], [ 36984.375, 5952375.599999999627471 ], [ 36984.30000000000291, 5952375.599999999627471 ], [ 36984.30000000000291, 5952375.525000000372529 ], [ 36984.150000000001455, 5952375.525000000372529 ], [ 36984.150000000001455, 5952375.450000000186265 ], [ 36984.0, 5952375.450000000186265 ], [ 36984.0, 5952375.375 ], [ 36983.92500000000291, 5952375.375 ], [ 36983.92500000000291, 5952375.299999999813735 ], [ 36983.775000000001455, 5952375.299999999813735 ], [ 36983.775000000001455, 5952375.224999999627471 ], [ 36983.69999999999709, 5952375.224999999627471 ], [ 36983.69999999999709, 5952375.150000000372529 ], [ 36983.55000000000291, 5952375.150000000372529 ], [ 36983.55000000000291, 5952375.075000000186265 ], [ 36983.474999999998545, 5952375.075000000186265 ], [ 36983.474999999998545, 5952375.0 ], [ 36983.400000000001455, 5952375.0 ], [ 36983.400000000001455, 5952374.924999999813735 ], [ 36983.25, 5952374.924999999813735 ], [ 36983.25, 5952374.849999999627471 ], [ 36982.94999999999709, 5952374.849999999627471 ], [ 36982.94999999999709, 5952374.775000000372529 ], [ 36982.650000000001455, 5952374.775000000372529 ], [ 36982.650000000001455, 5952374.700000000186265 ], [ 36982.19999999999709, 5952374.700000000186265 ], [ 36982.19999999999709, 5952374.625 ], [ 36981.82499999999709, 5952374.625 ], [ 36981.82499999999709, 5952374.549999999813735 ], [ 36981.525000000001455, 5952374.549999999813735 ], [ 36981.525000000001455, 5952374.474999999627471 ], [ 36981.224999999998545, 5952374.474999999627471 ], [ 36981.224999999998545, 5952374.400000000372529 ], [ 36981.0, 5952374.400000000372529 ], [ 36981.0, 5952374.325000000186265 ], [ 36980.775000000001455, 5952374.325000000186265 ], [ 36980.775000000001455, 5952374.25 ], [ 36980.625, 5952374.25 ], [ 36980.625, 5952374.174999999813735 ], [ 36980.474999999998545, 5952374.174999999813735 ], [ 36980.474999999998545, 5952374.099999999627471 ], [ 36980.32499999999709, 5952374.099999999627471 ], [ 36980.32499999999709, 5952374.025000000372529 ], [ 36980.17500000000291, 5952374.025000000372529 ], [ 36980.17500000000291, 5952373.950000000186265 ], [ 36980.099999999998545, 5952373.950000000186265 ], [ 36980.099999999998545, 5952373.875 ], [ 36979.94999999999709, 5952373.875 ], [ 36979.94999999999709, 5952373.799999999813735 ], [ 36979.875, 5952373.799999999813735 ], [ 36979.875, 5952373.724999999627471 ], [ 36979.80000000000291, 5952373.724999999627471 ], [ 36979.80000000000291, 5952373.650000000372529 ], [ 36979.724999999998545, 5952373.650000000372529 ], [ 36979.724999999998545, 5952373.575000000186265 ], [ 36979.650000000001455, 5952373.575000000186265 ], [ 36979.650000000001455, 5952373.5 ], [ 36979.57499999999709, 5952373.5 ], [ 36979.57499999999709, 5952373.424999999813735 ], [ 36979.5, 5952373.424999999813735 ], [ 36979.5, 5952373.349999999627471 ], [ 36979.42500000000291, 5952373.349999999627471 ], [ 36979.42500000000291, 5952373.275000000372529 ], [ 36979.349999999998545, 5952373.275000000372529 ], [ 36979.349999999998545, 5952373.200000000186265 ], [ 36979.275000000001455, 5952373.200000000186265 ], [ 36979.275000000001455, 5952373.125 ], [ 36979.19999999999709, 5952373.125 ], [ 36979.19999999999709, 5952372.974999999627471 ], [ 36979.125, 5952372.974999999627471 ], [ 36979.125, 5952372.900000000372529 ], [ 36979.05000000000291, 5952372.900000000372529 ], [ 36979.05000000000291, 5952372.825000000186265 ], [ 36978.974999999998545, 5952372.825000000186265 ], [ 36978.974999999998545, 5952372.75 ], [ 36978.900000000001455, 5952372.75 ], [ 36978.900000000001455, 5952372.674999999813735 ], [ 36978.82499999999709, 5952372.674999999813735 ], [ 36978.82499999999709, 5952372.599999999627471 ], [ 36978.67500000000291, 5952372.599999999627471 ], [ 36978.67500000000291, 5952372.525000000372529 ], [ 36978.599999999998545, 5952372.525000000372529 ], [ 36978.599999999998545, 5952372.450000000186265 ], [ 36978.525000000001455, 5952372.450000000186265 ], [ 36978.525000000001455, 5952372.375 ], [ 36978.44999999999709, 5952372.375 ], [ 36978.44999999999709, 5952372.299999999813735 ], [ 36978.375, 5952372.299999999813735 ], [ 36978.375, 5952372.224999999627471 ], [ 36978.30000000000291, 5952372.224999999627471 ], [ 36978.30000000000291, 5952372.150000000372529 ], [ 36978.224999999998545, 5952372.150000000372529 ], [ 36978.224999999998545, 5952372.075000000186265 ], [ 36978.150000000001455, 5952372.075000000186265 ], [ 36978.150000000001455, 5952371.924999999813735 ], [ 36978.07499999999709, 5952371.924999999813735 ], [ 36978.07499999999709, 5952371.849999999627471 ], [ 36978.0, 5952371.849999999627471 ], [ 36978.0, 5952371.700000000186265 ], [ 36977.92500000000291, 5952371.700000000186265 ], [ 36977.92500000000291, 5952371.549999999813735 ], [ 36977.849999999998545, 5952371.549999999813735 ], [ 36977.849999999998545, 5952371.400000000372529 ], [ 36977.775000000001455, 5952371.400000000372529 ], [ 36977.775000000001455, 5952371.25 ], [ 36977.69999999999709, 5952371.25 ], [ 36977.69999999999709, 5952371.099999999627471 ], [ 36977.625, 5952371.099999999627471 ], [ 36977.625, 5952370.575000000186265 ], [ 36977.69999999999709, 5952370.575000000186265 ], [ 36977.69999999999709, 5952369.75 ], [ 36977.775000000001455, 5952369.75 ], [ 36977.775000000001455, 5952368.849999999627471 ], [ 36977.849999999998545, 5952368.849999999627471 ], [ 36977.849999999998545, 5952367.724999999627471 ], [ 36977.92500000000291, 5952367.724999999627471 ], [ 36977.92500000000291, 5952366.525000000372529 ], [ 36978.0, 5952366.525000000372529 ], [ 36978.0, 5952365.099999999627471 ], [ 36978.07499999999709, 5952365.099999999627471 ], [ 36978.07499999999709, 5952364.875 ], [ 36978.150000000001455, 5952364.875 ], [ 36978.150000000001455, 5952364.650000000372529 ], [ 36978.224999999998545, 5952364.650000000372529 ], [ 36978.224999999998545, 5952364.424999999813735 ], [ 36978.30000000000291, 5952364.424999999813735 ], [ 36978.30000000000291, 5952364.275000000372529 ], [ 36978.375, 5952364.275000000372529 ], [ 36978.375, 5952364.125 ], [ 36978.44999999999709, 5952364.125 ], [ 36978.44999999999709, 5952363.974999999627471 ], [ 36978.525000000001455, 5952363.974999999627471 ], [ 36978.525000000001455, 5952363.825000000186265 ], [ 36978.599999999998545, 5952363.825000000186265 ], [ 36978.599999999998545, 5952363.75 ], [ 36978.67500000000291, 5952363.75 ], [ 36978.67500000000291, 5952363.674999999813735 ], [ 36978.75, 5952363.674999999813735 ], [ 36978.75, 5952363.525000000372529 ], [ 36978.82499999999709, 5952363.525000000372529 ], [ 36978.82499999999709, 5952363.450000000186265 ], [ 36978.900000000001455, 5952363.450000000186265 ], [ 36978.900000000001455, 5952363.299999999813735 ], [ 36978.974999999998545, 5952363.299999999813735 ], [ 36978.974999999998545, 5952363.150000000372529 ], [ 36979.05000000000291, 5952363.150000000372529 ], [ 36979.05000000000291, 5952362.625 ], [ 36979.125, 5952362.625 ], [ 36979.125, 5952362.25 ], [ 36979.19999999999709, 5952362.25 ], [ 36979.19999999999709, 5952361.950000000186265 ], [ 36979.275000000001455, 5952361.950000000186265 ], [ 36979.275000000001455, 5952361.724999999627471 ], [ 36979.349999999998545, 5952361.724999999627471 ], [ 36979.349999999998545, 5952361.575000000186265 ], [ 36979.42500000000291, 5952361.575000000186265 ], [ 36979.42500000000291, 5952361.5 ], [ 36979.5, 5952361.5 ], [ 36979.5, 5952361.349999999627471 ], [ 36979.650000000001455, 5952361.349999999627471 ], [ 36979.650000000001455, 5952361.275000000372529 ], [ 36979.724999999998545, 5952361.275000000372529 ], [ 36979.724999999998545, 5952361.125 ], [ 36979.80000000000291, 5952361.125 ], [ 36979.80000000000291, 5952361.049999999813735 ], [ 36979.875, 5952361.049999999813735 ], [ 36979.875, 5952360.974999999627471 ], [ 36979.94999999999709, 5952360.974999999627471 ], [ 36979.94999999999709, 5952360.825000000186265 ], [ 36980.025000000001455, 5952360.825000000186265 ], [ 36980.025000000001455, 5952360.75 ], [ 36980.099999999998545, 5952360.75 ], [ 36980.099999999998545, 5952360.674999999813735 ], [ 36980.17500000000291, 5952360.674999999813735 ], [ 36980.17500000000291, 5952360.599999999627471 ], [ 36980.25, 5952360.599999999627471 ], [ 36980.25, 5952360.525000000372529 ], [ 36980.32499999999709, 5952360.525000000372529 ], [ 36980.32499999999709, 5952360.450000000186265 ], [ 36980.400000000001455, 5952360.450000000186265 ], [ 36980.400000000001455, 5952360.375 ], [ 36980.474999999998545, 5952360.375 ], [ 36980.474999999998545, 5952360.299999999813735 ], [ 36980.55000000000291, 5952360.299999999813735 ], [ 36980.55000000000291, 5952360.224999999627471 ], [ 36980.625, 5952360.224999999627471 ], [ 36980.625, 5952360.150000000372529 ], [ 36980.69999999999709, 5952360.150000000372529 ], [ 36980.69999999999709, 5952360.075000000186265 ], [ 36980.849999999998545, 5952360.075000000186265 ], [ 36980.849999999998545, 5952359.924999999813735 ], [ 36980.92500000000291, 5952359.924999999813735 ], [ 36980.92500000000291, 5952359.625 ], [ 36981.0, 5952359.625 ], [ 36981.0, 5952359.325000000186265 ], [ 36981.07499999999709, 5952359.325000000186265 ], [ 36981.07499999999709, 5952358.799999999813735 ], [ 36981.150000000001455, 5952358.799999999813735 ], [ 36981.150000000001455, 5952358.275000000372529 ], [ 36981.224999999998545, 5952358.275000000372529 ], [ 36981.224999999998545, 5952357.75 ], [ 36981.30000000000291, 5952357.75 ], [ 36981.30000000000291, 5952357.150000000372529 ], [ 36981.375, 5952357.150000000372529 ], [ 36981.375, 5952355.950000000186265 ], [ 36981.44999999999709, 5952355.950000000186265 ], [ 36981.44999999999709, 5952355.049999999813735 ], [ 36981.375, 5952355.049999999813735 ], [ 36981.375, 5952354.674999999813735 ], [ 36981.30000000000291, 5952354.674999999813735 ], [ 36981.30000000000291, 5952354.224999999627471 ], [ 36981.224999999998545, 5952354.224999999627471 ], [ 36981.224999999998545, 5952353.700000000186265 ], [ 36981.150000000001455, 5952353.700000000186265 ], [ 36981.150000000001455, 5952353.099999999627471 ], [ 36981.07499999999709, 5952353.099999999627471 ], [ 36981.07499999999709, 5952351.75 ], [ 36981.150000000001455, 5952351.75 ], [ 36981.150000000001455, 5952351.450000000186265 ], [ 36981.07499999999709, 5952351.450000000186265 ], [ 36981.07499999999709, 5952349.349999999627471 ], [ 36981.0, 5952349.349999999627471 ], [ 36981.0, 5952349.049999999813735 ], [ 36980.92500000000291, 5952349.049999999813735 ], [ 36980.92500000000291, 5952348.75 ], [ 36980.849999999998545, 5952348.75 ], [ 36980.849999999998545, 5952348.525000000372529 ], [ 36980.775000000001455, 5952348.525000000372529 ], [ 36980.775000000001455, 5952348.375 ], [ 36980.69999999999709, 5952348.375 ], [ 36980.69999999999709, 5952348.224999999627471 ], [ 36980.625, 5952348.224999999627471 ], [ 36980.625, 5952348.075000000186265 ], [ 36980.55000000000291, 5952348.075000000186265 ], [ 36980.55000000000291, 5952347.924999999813735 ], [ 36980.474999999998545, 5952347.924999999813735 ], [ 36980.474999999998545, 5952347.700000000186265 ], [ 36980.400000000001455, 5952347.700000000186265 ], [ 36980.400000000001455, 5952347.549999999813735 ], [ 36980.32499999999709, 5952347.549999999813735 ], [ 36980.32499999999709, 5952347.474999999627471 ], [ 36980.25, 5952347.474999999627471 ], [ 36980.25, 5952347.325000000186265 ], [ 36980.17500000000291, 5952347.325000000186265 ], [ 36980.17500000000291, 5952347.25 ], [ 36980.099999999998545, 5952347.25 ], [ 36980.099999999998545, 5952347.174999999813735 ], [ 36980.025000000001455, 5952347.174999999813735 ], [ 36980.025000000001455, 5952347.025000000372529 ], [ 36979.94999999999709, 5952347.025000000372529 ], [ 36979.94999999999709, 5952346.950000000186265 ], [ 36979.875, 5952346.950000000186265 ], [ 36979.875, 5952346.799999999813735 ], [ 36979.80000000000291, 5952346.799999999813735 ], [ 36979.80000000000291, 5952346.724999999627471 ], [ 36979.724999999998545, 5952346.724999999627471 ], [ 36979.724999999998545, 5952346.575000000186265 ], [ 36979.650000000001455, 5952346.575000000186265 ], [ 36979.650000000001455, 5952346.424999999813735 ], [ 36979.57499999999709, 5952346.424999999813735 ], [ 36979.57499999999709, 5952346.349999999627471 ], [ 36979.5, 5952346.349999999627471 ], [ 36979.5, 5952346.200000000186265 ], [ 36979.42500000000291, 5952346.200000000186265 ], [ 36979.42500000000291, 5952346.049999999813735 ], [ 36979.349999999998545, 5952346.049999999813735 ], [ 36979.349999999998545, 5952345.900000000372529 ], [ 36979.275000000001455, 5952345.900000000372529 ], [ 36979.275000000001455, 5952345.75 ], [ 36979.19999999999709, 5952345.75 ], [ 36979.19999999999709, 5952345.599999999627471 ], [ 36979.125, 5952345.599999999627471 ], [ 36979.125, 5952345.525000000372529 ], [ 36979.05000000000291, 5952345.525000000372529 ], [ 36979.05000000000291, 5952345.450000000186265 ], [ 36978.974999999998545, 5952345.450000000186265 ], [ 36978.974999999998545, 5952345.375 ], [ 36978.900000000001455, 5952345.375 ], [ 36978.900000000001455, 5952345.299999999813735 ], [ 36978.75, 5952345.299999999813735 ], [ 36978.75, 5952345.224999999627471 ], [ 36978.599999999998545, 5952345.224999999627471 ], [ 36978.599999999998545, 5952345.150000000372529 ], [ 36978.525000000001455, 5952345.150000000372529 ], [ 36978.525000000001455, 5952345.075000000186265 ], [ 36978.375, 5952345.075000000186265 ], [ 36978.375, 5952345.0 ], [ 36978.224999999998545, 5952345.0 ], [ 36978.224999999998545, 5952344.924999999813735 ], [ 36978.07499999999709, 5952344.924999999813735 ], [ 36978.07499999999709, 5952344.849999999627471 ], [ 36978.0, 5952344.849999999627471 ], [ 36978.0, 5952344.775000000372529 ], [ 36977.849999999998545, 5952344.775000000372529 ], [ 36977.849999999998545, 5952344.700000000186265 ], [ 36977.69999999999709, 5952344.700000000186265 ], [ 36977.69999999999709, 5952344.625 ], [ 36977.625, 5952344.625 ], [ 36977.625, 5952344.549999999813735 ], [ 36977.474999999998545, 5952344.549999999813735 ], [ 36977.474999999998545, 5952344.474999999627471 ], [ 36977.400000000001455, 5952344.474999999627471 ], [ 36977.400000000001455, 5952344.400000000372529 ], [ 36977.25, 5952344.400000000372529 ], [ 36977.25, 5952344.325000000186265 ], [ 36977.099999999998545, 5952344.325000000186265 ], [ 36977.099999999998545, 5952344.25 ], [ 36977.025000000001455, 5952344.25 ], [ 36977.025000000001455, 5952344.174999999813735 ], [ 36976.80000000000291, 5952344.174999999813735 ], [ 36976.80000000000291, 5952344.099999999627471 ], [ 36976.275000000001455, 5952344.099999999627471 ], [ 36976.275000000001455, 5952344.025000000372529 ], [ 36975.75, 5952344.025000000372529 ], [ 36975.75, 5952343.950000000186265 ], [ 36975.30000000000291, 5952343.950000000186265 ], [ 36975.30000000000291, 5952343.875 ], [ 36974.92500000000291, 5952343.875 ], [ 36974.92500000000291, 5952343.950000000186265 ], [ 36974.69999999999709, 5952343.950000000186265 ], [ 36974.69999999999709, 5952344.025000000372529 ], [ 36974.55000000000291, 5952344.025000000372529 ], [ 36974.55000000000291, 5952344.099999999627471 ], [ 36974.32499999999709, 5952344.099999999627471 ], [ 36974.32499999999709, 5952344.174999999813735 ], [ 36974.099999999998545, 5952344.174999999813735 ], [ 36974.099999999998545, 5952344.25 ], [ 36973.80000000000291, 5952344.25 ], [ 36973.80000000000291, 5952344.325000000186265 ], [ 36973.57499999999709, 5952344.325000000186265 ], [ 36973.57499999999709, 5952344.400000000372529 ], [ 36973.275000000001455, 5952344.400000000372529 ], [ 36973.275000000001455, 5952344.474999999627471 ], [ 36972.974999999998545, 5952344.474999999627471 ], [ 36972.974999999998545, 5952344.549999999813735 ], [ 36972.599999999998545, 5952344.549999999813735 ], [ 36972.599999999998545, 5952344.625 ], [ 36972.224999999998545, 5952344.625 ], [ 36972.224999999998545, 5952344.700000000186265 ], [ 36971.775000000001455, 5952344.700000000186265 ], [ 36971.775000000001455, 5952344.775000000372529 ], [ 36971.32499999999709, 5952344.775000000372529 ], [ 36971.32499999999709, 5952344.849999999627471 ], [ 36970.80000000000291, 5952344.849999999627471 ], [ 36970.80000000000291, 5952344.924999999813735 ], [ 36970.275000000001455, 5952344.924999999813735 ], [ 36970.275000000001455, 5952345.0 ], [ 36969.82499999999709, 5952345.0 ], [ 36969.82499999999709, 5952345.075000000186265 ], [ 36969.30000000000291, 5952345.075000000186265 ], [ 36969.30000000000291, 5952345.150000000372529 ], [ 36968.69999999999709, 5952345.150000000372529 ], [ 36968.69999999999709, 5952345.224999999627471 ], [ 36968.099999999998545, 5952345.224999999627471 ], [ 36968.099999999998545, 5952345.299999999813735 ], [ 36967.5, 5952345.299999999813735 ], [ 36967.5, 5952345.375 ], [ 36966.67500000000291, 5952345.375 ], [ 36966.67500000000291, 5952345.450000000186265 ], [ 36965.55000000000291, 5952345.450000000186265 ], [ 36965.55000000000291, 5952345.525000000372529 ], [ 36964.349999999998545, 5952345.525000000372529 ], [ 36964.349999999998545, 5952345.599999999627471 ], [ 36963.375, 5952345.599999999627471 ], [ 36963.375, 5952345.674999999813735 ], [ 36962.55000000000291, 5952345.674999999813735 ], [ 36962.55000000000291, 5952345.75 ], [ 36961.724999999998545, 5952345.75 ], [ 36961.724999999998545, 5952345.825000000186265 ], [ 36960.82499999999709, 5952345.825000000186265 ], [ 36960.82499999999709, 5952345.900000000372529 ], [ 36960.0, 5952345.900000000372529 ], [ 36960.0, 5952345.974999999627471 ], [ 36959.099999999998545, 5952345.974999999627471 ], [ 36959.099999999998545, 5952346.049999999813735 ], [ 36958.275000000001455, 5952346.049999999813735 ], [ 36958.275000000001455, 5952346.125 ], [ 36957.44999999999709, 5952346.125 ], [ 36957.44999999999709, 5952346.200000000186265 ], [ 36956.69999999999709, 5952346.200000000186265 ], [ 36956.69999999999709, 5952346.275000000372529 ], [ 36955.875, 5952346.275000000372529 ], [ 36955.875, 5952346.349999999627471 ], [ 36955.125, 5952346.349999999627471 ], [ 36955.125, 5952346.424999999813735 ], [ 36954.30000000000291, 5952346.424999999813735 ], [ 36954.30000000000291, 5952346.5 ], [ 36951.07499999999709, 5952346.5 ], [ 36951.07499999999709, 5952346.424999999813735 ], [ 36950.400000000001455, 5952346.424999999813735 ], [ 36950.400000000001455, 5952346.349999999627471 ], [ 36949.724999999998545, 5952346.349999999627471 ], [ 36949.724999999998545, 5952346.275000000372529 ], [ 36949.05000000000291, 5952346.275000000372529 ], [ 36949.05000000000291, 5952346.200000000186265 ], [ 36948.44999999999709, 5952346.200000000186265 ], [ 36948.44999999999709, 5952346.125 ], [ 36947.775000000001455, 5952346.125 ], [ 36947.775000000001455, 5952346.049999999813735 ], [ 36947.17500000000291, 5952346.049999999813735 ], [ 36947.17500000000291, 5952345.974999999627471 ], [ 36946.650000000001455, 5952345.974999999627471 ], [ 36946.650000000001455, 5952345.900000000372529 ], [ 36946.05000000000291, 5952345.900000000372529 ], [ 36946.05000000000291, 5952345.825000000186265 ], [ 36945.525000000001455, 5952345.825000000186265 ], [ 36945.525000000001455, 5952345.75 ], [ 36945.150000000001455, 5952345.75 ], [ 36945.150000000001455, 5952345.674999999813735 ], [ 36944.775000000001455, 5952345.674999999813735 ], [ 36944.775000000001455, 5952345.599999999627471 ], [ 36944.32499999999709, 5952345.599999999627471 ], [ 36944.32499999999709, 5952345.525000000372529 ], [ 36943.80000000000291, 5952345.525000000372529 ], [ 36943.80000000000291, 5952345.450000000186265 ], [ 36943.349999999998545, 5952345.450000000186265 ], [ 36943.349999999998545, 5952345.375 ], [ 36942.900000000001455, 5952345.375 ], [ 36942.900000000001455, 5952345.299999999813735 ], [ 36942.375, 5952345.299999999813735 ], [ 36942.375, 5952345.224999999627471 ], [ 36941.92500000000291, 5952345.224999999627471 ], [ 36941.92500000000291, 5952345.150000000372529 ], [ 36941.32499999999709, 5952345.150000000372529 ], [ 36941.32499999999709, 5952345.075000000186265 ], [ 36940.80000000000291, 5952345.075000000186265 ], [ 36940.80000000000291, 5952345.0 ], [ 36940.19999999999709, 5952345.0 ], [ 36940.19999999999709, 5952344.924999999813735 ], [ 36939.599999999998545, 5952344.924999999813735 ], [ 36939.599999999998545, 5952344.849999999627471 ], [ 36939.0, 5952344.849999999627471 ], [ 36939.0, 5952344.775000000372529 ], [ 36938.32499999999709, 5952344.775000000372529 ], [ 36938.32499999999709, 5952344.700000000186265 ], [ 36937.349999999998545, 5952344.700000000186265 ], [ 36937.349999999998545, 5952344.625 ], [ 36936.0, 5952344.625 ], [ 36936.0, 5952344.549999999813735 ], [ 36933.0, 5952344.549999999813735 ], [ 36933.0, 5952336.450000000186265 ], [ 36936.375, 5952336.450000000186265 ], [ 36936.375, 5952336.375 ], [ 36937.94999999999709, 5952336.375 ], [ 36937.94999999999709, 5952336.450000000186265 ], [ 36938.32499999999709, 5952336.450000000186265 ], [ 36938.32499999999709, 5952336.525000000372529 ], [ 36938.69999999999709, 5952336.525000000372529 ], [ 36938.69999999999709, 5952336.599999999627471 ], [ 36939.0, 5952336.599999999627471 ], [ 36939.0, 5952336.674999999813735 ], [ 36939.224999999998545, 5952336.674999999813735 ], [ 36939.224999999998545, 5952336.75 ], [ 36939.44999999999709, 5952336.75 ], [ 36939.44999999999709, 5952336.825000000186265 ], [ 36939.67500000000291, 5952336.825000000186265 ], [ 36939.67500000000291, 5952336.900000000372529 ], [ 36939.82499999999709, 5952336.900000000372529 ], [ 36939.82499999999709, 5952336.974999999627471 ], [ 36940.05000000000291, 5952336.974999999627471 ], [ 36940.05000000000291, 5952337.049999999813735 ], [ 36940.349999999998545, 5952337.049999999813735 ], [ 36940.349999999998545, 5952337.125 ], [ 36940.57499999999709, 5952337.125 ], [ 36940.57499999999709, 5952337.200000000186265 ], [ 36940.80000000000291, 5952337.200000000186265 ], [ 36940.80000000000291, 5952337.275000000372529 ], [ 36940.94999999999709, 5952337.275000000372529 ], [ 36940.94999999999709, 5952337.349999999627471 ], [ 36941.17500000000291, 5952337.349999999627471 ], [ 36941.17500000000291, 5952337.424999999813735 ], [ 36941.32499999999709, 5952337.424999999813735 ], [ 36941.32499999999709, 5952337.5 ], [ 36941.474999999998545, 5952337.5 ], [ 36941.474999999998545, 5952337.575000000186265 ], [ 36941.625, 5952337.575000000186265 ], [ 36941.625, 5952337.650000000372529 ], [ 36941.69999999999709, 5952337.650000000372529 ], [ 36941.69999999999709, 5952337.724999999627471 ], [ 36942.0, 5952337.724999999627471 ], [ 36942.0, 5952337.799999999813735 ], [ 36942.900000000001455, 5952337.799999999813735 ], [ 36942.900000000001455, 5952337.875 ], [ 36967.19999999999709, 5952337.875 ], [ 36967.19999999999709, 5952337.950000000186265 ], [ 36969.67500000000291, 5952337.950000000186265 ], [ 36969.67500000000291, 5952338.025000000372529 ], [ 36971.92500000000291, 5952338.025000000372529 ], [ 36971.92500000000291, 5952338.099999999627471 ], [ 36974.099999999998545, 5952338.099999999627471 ], [ 36974.099999999998545, 5952338.174999999813735 ], [ 36975.75, 5952338.174999999813735 ], [ 36975.75, 5952338.25 ], [ 36977.25, 5952338.25 ], [ 36977.25, 5952338.325000000186265 ], [ 36978.974999999998545, 5952338.325000000186265 ], [ 36978.974999999998545, 5952338.400000000372529 ], [ 36980.55000000000291, 5952338.400000000372529 ], [ 36980.55000000000291, 5952338.474999999627471 ], [ 36981.974999999998545, 5952338.474999999627471 ], [ 36981.974999999998545, 5952338.549999999813735 ], [ 36984.07499999999709, 5952338.549999999813735 ], [ 36984.07499999999709, 5952338.625 ], [ 36990.974999999998545, 5952338.625 ], [ 36990.974999999998545, 5952338.549999999813735 ], [ 36991.875, 5952338.549999999813735 ], [ 36991.875, 5952338.474999999627471 ], [ 36992.625, 5952338.474999999627471 ], [ 36992.625, 5952338.400000000372529 ], [ 36993.150000000001455, 5952338.400000000372529 ], [ 36993.150000000001455, 5952338.325000000186265 ], [ 36993.599999999998545, 5952338.325000000186265 ], [ 36993.599999999998545, 5952338.25 ], [ 36994.05000000000291, 5952338.25 ], [ 36994.05000000000291, 5952338.174999999813735 ], [ 36994.125, 5952338.174999999813735 ], [ 36994.125, 5952338.25 ], [ 36994.5, 5952338.25 ], [ 36994.5, 5952338.325000000186265 ], [ 36994.724999999998545, 5952338.325000000186265 ], [ 36994.724999999998545, 5952338.400000000372529 ], [ 36994.94999999999709, 5952338.400000000372529 ], [ 36994.94999999999709, 5952338.474999999627471 ], [ 36995.17500000000291, 5952338.474999999627471 ], [ 36995.17500000000291, 5952338.549999999813735 ], [ 36995.400000000001455, 5952338.549999999813735 ], [ 36995.400000000001455, 5952338.625 ], [ 36995.55000000000291, 5952338.625 ], [ 36995.55000000000291, 5952338.700000000186265 ], [ 36995.775000000001455, 5952338.700000000186265 ], [ 36995.775000000001455, 5952338.775000000372529 ], [ 36995.92500000000291, 5952338.775000000372529 ], [ 36995.92500000000291, 5952338.849999999627471 ], [ 36996.07499999999709, 5952338.849999999627471 ], [ 36996.07499999999709, 5952338.924999999813735 ], [ 36996.224999999998545, 5952338.924999999813735 ], [ 36996.224999999998545, 5952339.0 ], [ 36996.375, 5952339.0 ], [ 36996.375, 5952339.075000000186265 ], [ 36996.525000000001455, 5952339.075000000186265 ], [ 36996.525000000001455, 5952339.150000000372529 ], [ 36996.67500000000291, 5952339.150000000372529 ], [ 36996.67500000000291, 5952339.224999999627471 ], [ 36996.75, 5952339.224999999627471 ], [ 36996.75, 5952339.299999999813735 ], [ 36996.900000000001455, 5952339.299999999813735 ], [ 36996.900000000001455, 5952339.375 ], [ 36996.974999999998545, 5952339.375 ], [ 36996.974999999998545, 5952339.450000000186265 ], [ 36997.05000000000291, 5952339.450000000186265 ], [ 36997.05000000000291, 5952339.525000000372529 ], [ 36997.19999999999709, 5952339.525000000372529 ], [ 36997.19999999999709, 5952339.599999999627471 ], [ 36997.275000000001455, 5952339.599999999627471 ], [ 36997.275000000001455, 5952339.674999999813735 ], [ 36997.349999999998545, 5952339.674999999813735 ], [ 36997.349999999998545, 5952339.75 ], [ 36997.42500000000291, 5952339.75 ], [ 36997.42500000000291, 5952340.125 ], [ 36997.5, 5952340.125 ], [ 36997.5, 5952340.575000000186265 ], [ 36997.57499999999709, 5952340.575000000186265 ], [ 36997.57499999999709, 5952341.099999999627471 ], [ 36997.650000000001455, 5952341.099999999627471 ], [ 36997.650000000001455, 5952341.775000000372529 ], [ 36997.57499999999709, 5952341.775000000372529 ], [ 36997.57499999999709, 5952341.924999999813735 ], [ 36997.5, 5952341.924999999813735 ], [ 36997.5, 5952342.075000000186265 ], [ 36997.42500000000291, 5952342.075000000186265 ], [ 36997.42500000000291, 5952342.224999999627471 ], [ 36997.349999999998545, 5952342.224999999627471 ], [ 36997.349999999998545, 5952342.375 ], [ 36997.275000000001455, 5952342.375 ], [ 36997.275000000001455, 5952342.525000000372529 ], [ 36997.19999999999709, 5952342.525000000372529 ], [ 36997.19999999999709, 5952342.674999999813735 ], [ 36997.125, 5952342.674999999813735 ], [ 36997.125, 5952342.825000000186265 ], [ 36997.05000000000291, 5952342.825000000186265 ], [ 36997.05000000000291, 5952343.049999999813735 ], [ 36996.974999999998545, 5952343.049999999813735 ], [ 36996.974999999998545, 5952343.200000000186265 ], [ 36996.900000000001455, 5952343.200000000186265 ], [ 36996.900000000001455, 5952343.424999999813735 ], [ 36996.82499999999709, 5952343.424999999813735 ], [ 36996.82499999999709, 5952343.650000000372529 ], [ 36996.75, 5952343.650000000372529 ], [ 36996.75, 5952343.875 ], [ 36996.67500000000291, 5952343.875 ], [ 36996.67500000000291, 5952344.099999999627471 ], [ 36996.599999999998545, 5952344.099999999627471 ], [ 36996.599999999998545, 5952344.325000000186265 ], [ 36996.525000000001455, 5952344.325000000186265 ], [ 36996.525000000001455, 5952344.549999999813735 ], [ 36996.44999999999709, 5952344.549999999813735 ], [ 36996.44999999999709, 5952344.775000000372529 ], [ 36996.375, 5952344.775000000372529 ], [ 36996.375, 5952345.0 ], [ 36996.30000000000291, 5952345.0 ], [ 36996.30000000000291, 5952345.299999999813735 ], [ 36996.224999999998545, 5952345.299999999813735 ], [ 36996.224999999998545, 5952345.525000000372529 ], [ 36996.150000000001455, 5952345.525000000372529 ], [ 36996.150000000001455, 5952345.974999999627471 ], [ 36996.07499999999709, 5952345.974999999627471 ], [ 36996.07499999999709, 5952346.424999999813735 ], [ 36996.0, 5952346.424999999813735 ], [ 36996.0, 5952346.950000000186265 ], [ 36995.92500000000291, 5952346.950000000186265 ], [ 36995.92500000000291, 5952347.474999999627471 ], [ 36995.849999999998545, 5952347.474999999627471 ], [ 36995.849999999998545, 5952347.549999999813735 ], [ 36995.92500000000291, 5952347.549999999813735 ], [ 36995.92500000000291, 5952347.775000000372529 ], [ 36996.0, 5952347.775000000372529 ], [ 36996.0, 5952347.924999999813735 ], [ 36996.07499999999709, 5952347.924999999813735 ], [ 36996.07499999999709, 5952348.150000000372529 ], [ 36996.150000000001455, 5952348.150000000372529 ], [ 36996.150000000001455, 5952348.299999999813735 ], [ 36996.224999999998545, 5952348.299999999813735 ], [ 36996.224999999998545, 5952348.450000000186265 ], [ 36996.30000000000291, 5952348.450000000186265 ], [ 36996.30000000000291, 5952348.599999999627471 ], [ 36996.375, 5952348.599999999627471 ], [ 36996.375, 5952348.75 ], [ 36996.44999999999709, 5952348.75 ], [ 36996.44999999999709, 5952348.900000000372529 ], [ 36996.525000000001455, 5952348.900000000372529 ], [ 36996.525000000001455, 5952348.974999999627471 ], [ 36996.599999999998545, 5952348.974999999627471 ], [ 36996.599999999998545, 5952349.125 ], [ 36996.67500000000291, 5952349.125 ], [ 36996.67500000000291, 5952349.275000000372529 ], [ 36996.75, 5952349.275000000372529 ], [ 36996.75, 5952349.349999999627471 ], [ 36996.82499999999709, 5952349.349999999627471 ], [ 36996.82499999999709, 5952349.5 ], [ 36996.900000000001455, 5952349.5 ], [ 36996.900000000001455, 5952349.575000000186265 ], [ 36996.974999999998545, 5952349.575000000186265 ], [ 36996.974999999998545, 5952349.650000000372529 ], [ 36997.05000000000291, 5952349.650000000372529 ], [ 36997.05000000000291, 5952349.724999999627471 ], [ 36997.125, 5952349.724999999627471 ], [ 36997.125, 5952349.799999999813735 ], [ 36997.19999999999709, 5952349.799999999813735 ], [ 36997.19999999999709, 5952349.875 ], [ 36997.349999999998545, 5952349.875 ], [ 36997.349999999998545, 5952349.950000000186265 ], [ 36997.42500000000291, 5952349.950000000186265 ], [ 36997.42500000000291, 5952350.025000000372529 ], [ 36997.5, 5952350.025000000372529 ], [ 36997.5, 5952350.099999999627471 ], [ 36997.650000000001455, 5952350.099999999627471 ], [ 36997.650000000001455, 5952350.174999999813735 ], [ 36997.724999999998545, 5952350.174999999813735 ], [ 36997.724999999998545, 5952350.25 ], [ 36997.875, 5952350.25 ], [ 36997.875, 5952350.325000000186265 ], [ 36998.025000000001455, 5952350.325000000186265 ], [ 36998.025000000001455, 5952350.400000000372529 ], [ 36998.099999999998545, 5952350.400000000372529 ], [ 36998.099999999998545, 5952350.474999999627471 ], [ 36998.25, 5952350.474999999627471 ], [ 36998.25, 5952350.549999999813735 ], [ 36998.400000000001455, 5952350.549999999813735 ], [ 36998.400000000001455, 5952350.625 ], [ 36998.69999999999709, 5952350.625 ], [ 36998.69999999999709, 5952350.700000000186265 ], [ 36998.92500000000291, 5952350.700000000186265 ], [ 36998.92500000000291, 5952350.775000000372529 ], [ 36999.224999999998545, 5952350.775000000372529 ], [ 36999.224999999998545, 5952350.849999999627471 ], [ 36999.44999999999709, 5952350.849999999627471 ], [ 36999.44999999999709, 5952350.924999999813735 ], [ 36999.67500000000291, 5952350.924999999813735 ], [ 36999.67500000000291, 5952351.0 ], [ 36999.900000000001455, 5952351.0 ], [ 36999.900000000001455, 5952351.075000000186265 ], [ 37000.125, 5952351.075000000186265 ], [ 37000.125, 5952351.150000000372529 ], [ 37000.275000000001455, 5952351.150000000372529 ], [ 37000.275000000001455, 5952351.224999999627471 ], [ 37001.474999999998545, 5952351.224999999627471 ], [ 37001.474999999998545, 5952351.150000000372529 ], [ 37004.625, 5952351.150000000372529 ], [ 37004.625, 5952351.075000000186265 ], [ 37006.724999999998545, 5952351.075000000186265 ], [ 37006.724999999998545, 5952351.150000000372529 ], [ 37007.775000000001455, 5952351.150000000372529 ], [ 37007.775000000001455, 5952351.224999999627471 ], [ 37008.44999999999709, 5952351.224999999627471 ], [ 37008.44999999999709, 5952351.299999999813735 ], [ 37008.974999999998545, 5952351.299999999813735 ], [ 37008.974999999998545, 5952351.375 ], [ 37009.42500000000291, 5952351.375 ], [ 37009.42500000000291, 5952351.450000000186265 ], [ 37009.875, 5952351.450000000186265 ], [ 37009.875, 5952351.525000000372529 ], [ 37010.625, 5952351.525000000372529 ], [ 37010.625, 5952351.599999999627471 ], [ 37011.599999999998545, 5952351.599999999627471 ], [ 37011.599999999998545, 5952351.674999999813735 ], [ 37013.025000000001455, 5952351.674999999813735 ], [ 37013.025000000001455, 5952351.75 ], [ 37014.67500000000291, 5952351.75 ], [ 37014.67500000000291, 5952351.825000000186265 ], [ 37016.025000000001455, 5952351.825000000186265 ], [ 37016.025000000001455, 5952351.900000000372529 ], [ 37016.625, 5952351.900000000372529 ], [ 37016.625, 5952351.974999999627471 ], [ 37017.224999999998545, 5952351.974999999627471 ], [ 37017.224999999998545, 5952352.049999999813735 ], [ 37017.67500000000291, 5952352.049999999813735 ], [ 37017.67500000000291, 5952352.125 ], [ 37018.05000000000291, 5952352.125 ], [ 37018.05000000000291, 5952352.200000000186265 ], [ 37018.349999999998545, 5952352.200000000186265 ], [ 37018.349999999998545, 5952352.275000000372529 ], [ 37018.650000000001455, 5952352.275000000372529 ], [ 37018.650000000001455, 5952352.349999999627471 ], [ 37018.94999999999709, 5952352.349999999627471 ], [ 37018.94999999999709, 5952352.424999999813735 ], [ 37019.17500000000291, 5952352.424999999813735 ], [ 37019.17500000000291, 5952352.5 ], [ 37019.32499999999709, 5952352.5 ], [ 37019.32499999999709, 5952352.575000000186265 ], [ 37019.55000000000291, 5952352.575000000186265 ], [ 37019.55000000000291, 5952352.650000000372529 ], [ 37019.69999999999709, 5952352.650000000372529 ], [ 37019.69999999999709, 5952352.724999999627471 ], [ 37019.849999999998545, 5952352.724999999627471 ], [ 37019.849999999998545, 5952352.799999999813735 ], [ 37020.07499999999709, 5952352.799999999813735 ], [ 37020.07499999999709, 5952352.875 ], [ 37020.375, 5952352.875 ], [ 37020.375, 5952352.950000000186265 ], [ 37020.599999999998545, 5952352.950000000186265 ], [ 37020.599999999998545, 5952353.025000000372529 ], [ 37020.82499999999709, 5952353.025000000372529 ], [ 37020.82499999999709, 5952353.099999999627471 ], [ 37021.05000000000291, 5952353.099999999627471 ], [ 37021.05000000000291, 5952353.174999999813735 ], [ 37021.275000000001455, 5952353.174999999813735 ], [ 37021.275000000001455, 5952353.25 ], [ 37021.5, 5952353.25 ], [ 37021.5, 5952353.325000000186265 ], [ 37021.724999999998545, 5952353.325000000186265 ], [ 37021.724999999998545, 5952353.400000000372529 ], [ 37022.775000000001455, 5952353.400000000372529 ], [ 37022.775000000001455, 5952353.474999999627471 ], [ 37024.650000000001455, 5952353.474999999627471 ], [ 37024.650000000001455, 5952353.400000000372529 ], [ 37026.150000000001455, 5952353.400000000372529 ], [ 37026.150000000001455, 5952353.325000000186265 ], [ 37026.900000000001455, 5952353.325000000186265 ], [ 37026.900000000001455, 5952353.25 ], [ 37027.650000000001455, 5952353.25 ], [ 37027.650000000001455, 5952353.174999999813735 ], [ 37028.25, 5952353.174999999813735 ], [ 37028.25, 5952353.099999999627471 ], [ 37028.775000000001455, 5952353.099999999627471 ], [ 37028.775000000001455, 5952353.025000000372529 ], [ 37029.375, 5952353.025000000372529 ], [ 37029.375, 5952352.950000000186265 ], [ 37029.974999999998545, 5952352.950000000186265 ], [ 37029.974999999998545, 5952352.875 ], [ 37030.5, 5952352.875 ], [ 37030.5, 5952352.799999999813735 ], [ 37031.17500000000291, 5952352.799999999813735 ], [ 37031.17500000000291, 5952352.724999999627471 ], [ 37031.849999999998545, 5952352.724999999627471 ], [ 37031.849999999998545, 5952352.650000000372529 ], [ 37032.525000000001455, 5952352.650000000372529 ], [ 37032.525000000001455, 5952352.575000000186265 ], [ 37033.42500000000291, 5952352.575000000186265 ], [ 37033.42500000000291, 5952352.5 ], [ 37034.32499999999709, 5952352.5 ], [ 37034.32499999999709, 5952352.424999999813735 ], [ 37035.44999999999709, 5952352.424999999813735 ], [ 37035.44999999999709, 5952352.349999999627471 ], [ 37036.94999999999709, 5952352.349999999627471 ], [ 37036.94999999999709, 5952352.275000000372529 ], [ 37037.625, 5952352.275000000372529 ], [ 37037.625, 5952352.349999999627471 ], [ 37038.0, 5952352.349999999627471 ], [ 37038.0, 5952352.424999999813735 ], [ 37038.30000000000291, 5952352.424999999813735 ], [ 37038.30000000000291, 5952352.5 ], [ 37038.525000000001455, 5952352.5 ], [ 37038.525000000001455, 5952352.575000000186265 ], [ 37038.75, 5952352.575000000186265 ], [ 37038.75, 5952352.650000000372529 ], [ 37038.974999999998545, 5952352.650000000372529 ], [ 37038.974999999998545, 5952352.724999999627471 ], [ 37039.125, 5952352.724999999627471 ], [ 37039.125, 5952352.799999999813735 ], [ 37039.349999999998545, 5952352.799999999813735 ], [ 37039.349999999998545, 5952352.875 ], [ 37039.5, 5952352.875 ], [ 37039.5, 5952352.950000000186265 ], [ 37039.650000000001455, 5952352.950000000186265 ], [ 37039.650000000001455, 5952353.025000000372529 ], [ 37039.80000000000291, 5952353.025000000372529 ], [ 37039.80000000000291, 5952353.099999999627471 ], [ 37040.025000000001455, 5952353.099999999627471 ], [ 37040.025000000001455, 5952353.174999999813735 ], [ 37040.099999999998545, 5952353.174999999813735 ], [ 37040.099999999998545, 5952353.25 ], [ 37040.25, 5952353.25 ], [ 37040.25, 5952353.325000000186265 ], [ 37040.400000000001455, 5952353.325000000186265 ], [ 37040.400000000001455, 5952353.400000000372529 ], [ 37040.474999999998545, 5952353.400000000372529 ], [ 37040.474999999998545, 5952353.474999999627471 ], [ 37040.69999999999709, 5952353.474999999627471 ], [ 37040.69999999999709, 5952353.549999999813735 ], [ 37040.849999999998545, 5952353.549999999813735 ], [ 37040.849999999998545, 5952353.625 ], [ 37041.07499999999709, 5952353.625 ], [ 37041.07499999999709, 5952353.700000000186265 ], [ 37041.224999999998545, 5952353.700000000186265 ], [ 37041.224999999998545, 5952353.775000000372529 ], [ 37041.375, 5952353.775000000372529 ], [ 37041.375, 5952353.849999999627471 ], [ 37041.599999999998545, 5952353.849999999627471 ], [ 37041.599999999998545, 5952353.924999999813735 ], [ 37041.75, 5952353.924999999813735 ], [ 37041.75, 5952354.0 ], [ 37041.974999999998545, 5952354.0 ], [ 37041.974999999998545, 5952354.075000000186265 ], [ 37042.125, 5952354.075000000186265 ], [ 37042.125, 5952354.150000000372529 ], [ 37042.19999999999709, 5952354.150000000372529 ], [ 37042.19999999999709, 5952354.224999999627471 ], [ 37042.349999999998545, 5952354.224999999627471 ], [ 37042.349999999998545, 5952354.299999999813735 ], [ 37042.42500000000291, 5952354.299999999813735 ], [ 37042.42500000000291, 5952354.375 ], [ 37042.5, 5952354.375 ], [ 37042.5, 5952354.450000000186265 ], [ 37042.57499999999709, 5952354.450000000186265 ], [ 37042.57499999999709, 5952354.525000000372529 ], [ 37042.650000000001455, 5952354.525000000372529 ], [ 37042.650000000001455, 5952354.599999999627471 ], [ 37042.724999999998545, 5952354.599999999627471 ], [ 37042.724999999998545, 5952354.75 ], [ 37042.80000000000291, 5952354.75 ], [ 37042.80000000000291, 5952354.900000000372529 ], [ 37042.875, 5952354.900000000372529 ], [ 37042.875, 5952355.049999999813735 ], [ 37042.94999999999709, 5952355.049999999813735 ], [ 37042.94999999999709, 5952355.200000000186265 ], [ 37043.025000000001455, 5952355.200000000186265 ], [ 37043.025000000001455, 5952355.575000000186265 ], [ 37043.099999999998545, 5952355.575000000186265 ], [ 37043.099999999998545, 5952356.099999999627471 ], [ 37043.17500000000291, 5952356.099999999627471 ], [ 37043.17500000000291, 5952356.700000000186265 ], [ 37043.25, 5952356.700000000186265 ], [ 37043.25, 5952358.049999999813735 ], [ 37043.32499999999709, 5952358.049999999813735 ], [ 37043.32499999999709, 5952363.450000000186265 ], [ 37043.400000000001455, 5952363.450000000186265 ], [ 37043.400000000001455, 5952365.025000000372529 ], [ 37043.474999999998545, 5952365.025000000372529 ], [ 37043.474999999998545, 5952365.775000000372529 ], [ 37043.55000000000291, 5952365.775000000372529 ], [ 37043.55000000000291, 5952367.349999999627471 ], [ 37043.625, 5952367.349999999627471 ], [ 37043.625, 5952368.625 ], [ 37043.69999999999709, 5952368.625 ], [ 37043.69999999999709, 5952369.674999999813735 ], [ 37043.775000000001455, 5952369.674999999813735 ], [ 37043.775000000001455, 5952370.875 ], [ 37043.849999999998545, 5952370.875 ], [ 37043.849999999998545, 5952371.025000000372529 ], [ 37043.775000000001455, 5952371.025000000372529 ], [ 37043.775000000001455, 5952371.325000000186265 ], [ 37043.69999999999709, 5952371.325000000186265 ], [ 37043.69999999999709, 5952371.549999999813735 ], [ 37043.625, 5952371.549999999813735 ], [ 37043.625, 5952371.775000000372529 ], [ 37043.55000000000291, 5952371.775000000372529 ], [ 37043.55000000000291, 5952372.0 ], [ 37043.474999999998545, 5952372.0 ], [ 37043.474999999998545, 5952372.150000000372529 ], [ 37043.400000000001455, 5952372.150000000372529 ], [ 37043.400000000001455, 5952372.375 ], [ 37043.32499999999709, 5952372.375 ], [ 37043.32499999999709, 5952372.75 ], [ 37043.25, 5952372.75 ], [ 37043.25, 5952373.349999999627471 ], [ 37043.17500000000291, 5952373.349999999627471 ], [ 37043.17500000000291, 5952373.799999999813735 ], [ 37043.099999999998545, 5952373.799999999813735 ], [ 37043.099999999998545, 5952374.174999999813735 ], [ 37043.025000000001455, 5952374.174999999813735 ], [ 37043.025000000001455, 5952374.474999999627471 ], [ 37042.94999999999709, 5952374.474999999627471 ], [ 37042.94999999999709, 5952374.700000000186265 ], [ 37042.875, 5952374.700000000186265 ], [ 37042.875, 5952374.849999999627471 ], [ 37042.80000000000291, 5952374.849999999627471 ], [ 37042.80000000000291, 5952375.075000000186265 ], [ 37042.724999999998545, 5952375.075000000186265 ], [ 37042.724999999998545, 5952375.299999999813735 ], [ 37042.650000000001455, 5952375.299999999813735 ], [ 37042.650000000001455, 5952375.375 ], [ 37042.57499999999709, 5952375.375 ], [ 37042.57499999999709, 5952375.525000000372529 ], [ 37042.5, 5952375.525000000372529 ], [ 37042.5, 5952375.599999999627471 ], [ 37042.42500000000291, 5952375.599999999627471 ], [ 37042.42500000000291, 5952375.674999999813735 ], [ 37042.349999999998545, 5952375.674999999813735 ], [ 37042.349999999998545, 5952375.75 ], [ 37042.275000000001455, 5952375.75 ], [ 37042.275000000001455, 5952375.825000000186265 ], [ 37042.19999999999709, 5952375.825000000186265 ], [ 37042.19999999999709, 5952375.900000000372529 ], [ 37042.125, 5952375.900000000372529 ], [ 37042.125, 5952375.974999999627471 ], [ 37041.974999999998545, 5952375.974999999627471 ], [ 37041.974999999998545, 5952376.049999999813735 ], [ 37041.900000000001455, 5952376.049999999813735 ], [ 37041.900000000001455, 5952376.125 ], [ 37041.75, 5952376.125 ], [ 37041.75, 5952376.200000000186265 ], [ 37041.67500000000291, 5952376.200000000186265 ], [ 37041.67500000000291, 5952376.275000000372529 ], [ 37041.525000000001455, 5952376.275000000372529 ], [ 37041.525000000001455, 5952376.349999999627471 ], [ 37041.375, 5952376.349999999627471 ], [ 37041.375, 5952376.424999999813735 ], [ 37041.30000000000291, 5952376.424999999813735 ], [ 37041.30000000000291, 5952376.5 ], [ 37041.224999999998545, 5952376.5 ], [ 37041.224999999998545, 5952376.575000000186265 ], [ 37041.150000000001455, 5952376.575000000186265 ], [ 37041.150000000001455, 5952376.724999999627471 ], [ 37041.07499999999709, 5952376.724999999627471 ], [ 37041.07499999999709, 5952376.799999999813735 ], [ 37041.0, 5952376.799999999813735 ], [ 37041.0, 5952376.875 ], [ 37040.92500000000291, 5952376.875 ], [ 37040.92500000000291, 5952376.950000000186265 ], [ 37040.849999999998545, 5952376.950000000186265 ], [ 37040.849999999998545, 5952377.099999999627471 ], [ 37040.775000000001455, 5952377.099999999627471 ], [ 37040.775000000001455, 5952377.174999999813735 ], [ 37040.69999999999709, 5952377.174999999813735 ], [ 37040.69999999999709, 5952377.25 ], [ 37040.625, 5952377.25 ], [ 37040.625, 5952377.325000000186265 ], [ 37040.55000000000291, 5952377.325000000186265 ], [ 37040.55000000000291, 5952377.400000000372529 ], [ 37040.474999999998545, 5952377.400000000372529 ], [ 37040.474999999998545, 5952377.474999999627471 ], [ 37040.400000000001455, 5952377.474999999627471 ], [ 37040.400000000001455, 5952377.549999999813735 ], [ 37040.25, 5952377.549999999813735 ], [ 37040.25, 5952377.625 ], [ 37040.17500000000291, 5952377.625 ], [ 37040.17500000000291, 5952377.700000000186265 ], [ 37040.025000000001455, 5952377.700000000186265 ], [ 37040.025000000001455, 5952377.775000000372529 ], [ 37039.875, 5952377.775000000372529 ], [ 37039.875, 5952377.849999999627471 ], [ 37039.724999999998545, 5952377.849999999627471 ], [ 37039.724999999998545, 5952377.924999999813735 ], [ 37039.57499999999709, 5952377.924999999813735 ], [ 37039.57499999999709, 5952378.0 ], [ 37039.349999999998545, 5952378.0 ], [ 37039.349999999998545, 5952378.075000000186265 ], [ 37039.05000000000291, 5952378.075000000186265 ], [ 37039.05000000000291, 5952378.150000000372529 ], [ 37038.75, 5952378.150000000372529 ], [ 37038.75, 5952378.224999999627471 ], [ 37038.375, 5952378.224999999627471 ], [ 37038.375, 5952378.299999999813735 ], [ 37038.0, 5952378.299999999813735 ], [ 37038.0, 5952378.375 ], [ 37037.55000000000291, 5952378.375 ], [ 37037.55000000000291, 5952378.450000000186265 ], [ 37035.30000000000291, 5952378.450000000186265 ], [ 37035.30000000000291, 5952378.375 ], [ 37027.275000000001455, 5952378.375 ], [ 37027.275000000001455, 5952378.450000000186265 ], [ 37022.025000000001455, 5952378.450000000186265 ], [ 37022.025000000001455, 5952378.375 ], [ 37021.349999999998545, 5952378.375 ], [ 37021.349999999998545, 5952378.299999999813735 ], [ 37020.75, 5952378.299999999813735 ], [ 37020.75, 5952378.224999999627471 ], [ 37020.224999999998545, 5952378.224999999627471 ], [ 37020.224999999998545, 5952378.150000000372529 ], [ 37019.69999999999709, 5952378.150000000372529 ], [ 37019.69999999999709, 5952378.075000000186265 ], [ 37019.25, 5952378.075000000186265 ], [ 37019.25, 5952378.0 ], [ 37018.875, 5952378.0 ], [ 37018.875, 5952377.924999999813735 ], [ 37018.42500000000291, 5952377.924999999813735 ], [ 37018.42500000000291, 5952377.849999999627471 ], [ 37018.05000000000291, 5952377.849999999627471 ], [ 37018.05000000000291, 5952377.775000000372529 ], [ 37017.599999999998545, 5952377.775000000372529 ], [ 37017.599999999998545, 5952377.700000000186265 ], [ 37017.224999999998545, 5952377.700000000186265 ], [ 37017.224999999998545, 5952377.625 ], [ 37016.849999999998545, 5952377.625 ], [ 37016.849999999998545, 5952377.549999999813735 ], [ 37016.474999999998545, 5952377.549999999813735 ], [ 37016.474999999998545, 5952377.474999999627471 ], [ 37016.099999999998545, 5952377.474999999627471 ], [ 37016.099999999998545, 5952377.400000000372529 ], [ 37015.05000000000291, 5952377.400000000372529 ], [ 37015.05000000000291, 5952377.325000000186265 ], [ 37013.025000000001455, 5952377.325000000186265 ], [ 37013.025000000001455, 5952377.400000000372529 ], [ 37011.75, 5952377.400000000372529 ], [ 37011.75, 5952377.474999999627471 ], [ 37010.32499999999709, 5952377.474999999627471 ], [ 37010.32499999999709, 5952377.549999999813735 ], [ 37008.82499999999709, 5952377.549999999813735 ], [ 37008.82499999999709, 5952377.625 ], [ 37007.775000000001455, 5952377.625 ], [ 37007.775000000001455, 5952377.700000000186265 ], [ 37007.099999999998545, 5952377.700000000186265 ], [ 37007.099999999998545, 5952377.775000000372529 ], [ 37006.349999999998545, 5952377.775000000372529 ], [ 37006.349999999998545, 5952377.849999999627471 ], [ 37005.75, 5952377.849999999627471 ], [ 37005.75, 5952377.924999999813735 ], [ 37005.224999999998545, 5952377.924999999813735 ], [ 37005.224999999998545, 5952378.0 ], [ 37004.69999999999709, 5952378.0 ], [ 37004.69999999999709, 5952378.075000000186265 ], [ 37004.17500000000291, 5952378.075000000186265 ], [ 37004.17500000000291, 5952378.150000000372529 ], [ 37003.80000000000291, 5952378.150000000372529 ], [ 37003.80000000000291, 5952378.224999999627471 ], [ 37003.42500000000291, 5952378.224999999627471 ], [ 37003.42500000000291, 5952378.299999999813735 ], [ 37003.125, 5952378.299999999813735 ], [ 37003.125, 5952378.375 ], [ 37002.82499999999709, 5952378.375 ], [ 37002.82499999999709, 5952378.450000000186265 ], [ 37002.525000000001455, 5952378.450000000186265 ], [ 37002.525000000001455, 5952378.525000000372529 ], [ 37002.30000000000291, 5952378.525000000372529 ], [ 37002.30000000000291, 5952378.599999999627471 ], [ 37002.150000000001455, 5952378.599999999627471 ], [ 37002.150000000001455, 5952378.674999999813735 ], [ 37002.0, 5952378.674999999813735 ], [ 37002.0, 5952378.75 ], [ 37001.849999999998545, 5952378.75 ], [ 37001.849999999998545, 5952378.825000000186265 ], [ 37001.775000000001455, 5952378.825000000186265 ], [ 37001.775000000001455, 5952378.900000000372529 ], [ 37001.69999999999709, 5952378.900000000372529 ], [ 37001.69999999999709, 5952378.974999999627471 ], [ 37001.55000000000291, 5952378.974999999627471 ], [ 37001.55000000000291, 5952379.049999999813735 ], [ 37001.474999999998545, 5952379.049999999813735 ], [ 37001.474999999998545, 5952379.125 ], [ 37001.32499999999709, 5952379.125 ], [ 37001.32499999999709, 5952379.200000000186265 ], [ 37001.25, 5952379.200000000186265 ], [ 37001.25, 5952379.275000000372529 ], [ 37001.099999999998545, 5952379.275000000372529 ], [ 37001.099999999998545, 5952379.349999999627471 ], [ 37001.025000000001455, 5952379.349999999627471 ], [ 37001.025000000001455, 5952379.424999999813735 ], [ 37000.875, 5952379.424999999813735 ], [ 37000.875, 5952379.5 ], [ 37000.724999999998545, 5952379.5 ], [ 37000.724999999998545, 5952379.575000000186265 ], [ 37000.650000000001455, 5952379.575000000186265 ], [ 37000.650000000001455, 5952379.650000000372529 ], [ 37000.5, 5952379.650000000372529 ], [ 37000.5, 5952379.724999999627471 ], [ 37000.349999999998545, 5952379.724999999627471 ], [ 37000.349999999998545, 5952379.799999999813735 ], [ 37000.125, 5952379.799999999813735 ], [ 37000.125, 5952379.875 ], [ 36999.900000000001455, 5952379.875 ], [ 36999.900000000001455, 5952379.950000000186265 ], [ 36999.75, 5952379.950000000186265 ], [ 36999.75, 5952380.025000000372529 ], [ 36999.525000000001455, 5952380.025000000372529 ], [ 36999.525000000001455, 5952380.099999999627471 ], [ 36999.375, 5952380.099999999627471 ], [ 36999.375, 5952380.174999999813735 ], [ 36999.150000000001455, 5952380.174999999813735 ], [ 36999.150000000001455, 5952380.25 ], [ 36999.0, 5952380.25 ], [ 36999.0, 5952380.325000000186265 ], [ 36998.849999999998545, 5952380.325000000186265 ], [ 36998.849999999998545, 5952380.400000000372529 ], [ 36998.69999999999709, 5952380.400000000372529 ], [ 36998.69999999999709, 5952380.474999999627471 ], [ 36998.55000000000291, 5952380.474999999627471 ], [ 36998.55000000000291, 5952380.549999999813735 ], [ 36997.650000000001455, 5952380.549999999813735 ], [ 36997.650000000001455, 5952380.625 ], [ 36995.625, 5952380.625 ], [ 36995.625, 5952380.700000000186265 ], [ 36993.375, 5952380.700000000186265 ], [ 36993.375, 5952380.775000000372529 ], [ 36992.474999999998545, 5952380.775000000372529 ] ] ] } },
{ "type": "Feature", "properties": { "value": 1.0, "building_id": 2, "area": 217.01249999929229 }, "geometry": { "type": "Polygon", "coordinates": [ [ [ 37631.025000000001455, 5952245.775000000372529 ], [ 37631.025000000001455, 5952245.700000000186265 ], [ 37630.724999999998545, 5952245.700000000186265 ], [ 37630.724999999998545, 5952245.625 ], [ 37630.349999999998545, 5952245.625 ], [ 37630.349999999998545, 5952245.549999999813735 ], [ 37629.974999999998545, 5952245.549999999813735 ], [ 37629.974999999998545, 5952245.474999999627471 ], [ 37629.599999999998545, 5952245.474999999627471 ], [ 37629.599999999998545, 5952245.400000000372529 ], [ 37629.150000000001455, 5952245.400000000372529 ], [ 37629.150000000001455, 5952245.325000000186265 ], [ 37628.625, 5952245.325000000186265 ], [ 37628.625, 5952245.25 ], [ 37628.099999999998545, 5952245.25 ], [ 37628.099999999998545, 5952245.174999999813735 ], [ 37627.57499999999709, 5952245.174999999813735 ], [ 37627.57499999999709, 5952245.099999999627471 ], [ 37627.19999999999709, 5952245.099999999627471 ], [ 37627.19999999999709, 5952245.025000000372529 ], [ 37626.974999999998545, 5952245.025000000372529 ], [ 37626.974999999998545, 5952244.950000000186265 ], [ 37626.75, 5952244.950000000186265 ], [ 37626.75, 5952244.875 ], [ 37626.599999999998545, 5952244.875 ], [ 37626.599999999998545, 5952244.799999999813735 ], [ 37626.44999999999709, 5952244.799999999813735 ], [ 37626.44999999999709, 5952244.724999999627471 ], [ 37626.30000000000291, 5952244.724999999627471 ], [ 37626.30000000000291, 5952244.650000000372529 ], [ 37626.150000000001455, 5952244.650000000372529 ], [ 37626.150000000001455, 5952244.575000000186265 ], [ 37626.07499999999709, 5952244.575000000186265 ], [ 37626.07499999999709, 5952244.5 ], [ 37625.92500000000291, 5952244.5 ], [ 37625.92500000000291, 5952244.424999999813735 ], [ 37625.849999999998545, 5952244.424999999813735 ], [ 37625.849999999998545, 5952244.349999999627471 ], [ 37625.775000000001455, 5952244.349999999627471 ], [ 37625.775000000001455, 5952244.275000000372529 ], [ 37625.69999999999709, 5952244.275000000372529 ], [ 37625.69999999999709, 5952244.200000000186265 ], [ 37625.55000000000291, 5952244.200000000186265 ], [ 37625.55000000000291, 5952244.125 ], [ 37625.474999999998545, 5952244.125 ], [ 37625.474999999998545, 5952243.974999999627471 ], [ 37625.32499999999709, 5952243.974999999627471 ], [ 37625.32499999999709, 5952243.900000000372529 ], [ 37625.25, 5952243.900000000372529 ], [ 37625.25, 5952243.825000000186265 ], [ 37625.17500000000291, 5952243.825000000186265 ], [ 37625.17500000000291, 5952243.75 ], [ 37625.099999999998545, 5952243.75 ], [ 37625.099999999998545, 5952243.674999999813735 ], [ 37625.025000000001455, 5952243.674999999813735 ], [ 37625.025000000001455, 5952243.599999999627471 ], [ 37624.94999999999709, 5952243.599999999627471 ], [ 37624.94999999999709, 5952243.450000000186265 ], [ 37624.875, 5952243.450000000186265 ], [ 37624.875, 5952243.375 ], [ 37624.80000000000291, 5952243.375 ], [ 37624.80000000000291, 5952243.299999999813735 ], [ 37624.724999999998545, 5952243.299999999813735 ], [ 37624.724999999998545, 5952243.150000000372529 ], [ 37624.650000000001455, 5952243.150000000372529 ], [ 37624.650000000001455, 5952243.075000000186265 ], [ 37624.57499999999709, 5952243.075000000186265 ], [ 37624.57499999999709, 5952242.924999999813735 ], [ 37624.5, 5952242.924999999813735 ], [ 37624.5, 5952242.849999999627471 ], [ 37624.42500000000291, 5952242.849999999627471 ], [ 37624.42500000000291, 5952242.700000000186265 ], [ 37624.349999999998545, 5952242.700000000186265 ], [ 37624.349999999998545, 5952242.549999999813735 ], [ 37624.275000000001455, 5952242.549999999813735 ], [ 37624.275000000001455, 5952242.400000000372529 ], [ 37624.19999999999709, 5952242.400000000372529 ], [ 37624.19999999999709, 5952242.174999999813735 ], [ 37624.125, 5952242.174999999813735 ], [ 37624.125, 5952242.025000000372529 ], [ 37624.05000000000291, 5952242.025000000372529 ], [ 37624.05000000000291, 5952241.799999999813735 ], [ 37623.974999999998545, 5952241.799999999813735 ], [ 37623.974999999998545, 5952241.650000000372529 ], [ 37623.900000000001455, 5952241.650000000372529 ], [ 37623.900000000001455, 5952241.5 ], [ 37623.82499999999709, 5952241.5 ], [ 37623.82499999999709, 5952241.349999999627471 ], [ 37623.75, 5952241.349999999627471 ], [ 37623.75, 5952241.200000000186265 ], [ 37623.67500000000291, 5952241.200000000186265 ], [ 37623.67500000000291, 5952241.049999999813735 ], [ 37623.599999999998545, 5952241.049999999813735 ], [ 37623.599999999998545, 5952240.974999999627471 ], [ 37623.525000000001455, 5952240.974999999627471 ], [ 37623.525000000001455, 5952240.825000000186265 ], [ 37623.44999999999709, 5952240.825000000186265 ], [ 37623.44999999999709, 5952240.75 ], [ 37623.375, 5952240.75 ], [ 37623.375, 5952240.599999999627471 ], [ 37623.30000000000291, 5952240.599999999627471 ], [ 37623.30000000000291, 5952240.525000000372529 ], [ 37623.224999999998545, 5952240.525000000372529 ], [ 37623.224999999998545, 5952240.450000000186265 ], [ 37623.150000000001455, 5952240.450000000186265 ], [ 37623.150000000001455, 5952240.299999999813735 ], [ 37623.07499999999709, 5952240.299999999813735 ], [ 37623.07499999999709, 5952240.224999999627471 ], [ 37623.0, 5952240.224999999627471 ], [ 37623.0, 5952239.924999999813735 ], [ 37622.92500000000291, 5952239.924999999813735 ], [ 37622.92500000000291, 5952239.099999999627471 ], [ 37622.849999999998545, 5952239.099999999627471 ], [ 37622.849999999998545, 5952238.275000000372529 ], [ 37622.775000000001455, 5952238.275000000372529 ], [ 37622.775000000001455, 5952238.200000000186265 ], [ 37622.849999999998545, 5952238.200000000186265 ], [ 37622.849999999998545, 5952237.974999999627471 ], [ 37622.92500000000291, 5952237.974999999627471 ], [ 37622.92500000000291, 5952237.825000000186265 ], [ 37623.0, 5952237.825000000186265 ], [ 37623.0, 5952237.674999999813735 ], [ 37623.07499999999709, 5952237.674999999813735 ], [ 37623.07499999999709, 5952237.525000000372529 ], [ 37623.150000000001455, 5952237.525000000372529 ], [ 37623.150000000001455, 5952237.375 ], [ 37623.224999999998545, 5952237.375 ], [ 37623.224999999998545, 5952237.224999999627471 ], [ 37623.30000000000291, 5952237.224999999627471 ], [ 37623.30000000000291, 5952237.150000000372529 ], [ 37623.375, 5952237.150000000372529 ], [ 37623.375, 5952237.075000000186265 ], [ 37623.44999999999709, 5952237.075000000186265 ], [ 37623.44999999999709, 5952236.924999999813735 ], [ 37623.525000000001455, 5952236.924999999813735 ], [ 37623.525000000001455, 5952236.775000000372529 ], [ 37623.599999999998545, 5952236.775000000372529 ], [ 37623.599999999998545, 5952236.549999999813735 ], [ 37623.67500000000291, 5952236.549999999813735 ], [ 37623.67500000000291, 5952236.400000000372529 ], [ 37623.75, 5952236.400000000372529 ], [ 37623.75, 5952236.174999999813735 ], [ 37623.82499999999709, 5952236.174999999813735 ], [ 37623.82499999999709, 5952235.950000000186265 ], [ 37623.900000000001455, 5952235.950000000186265 ], [ 37623.900000000001455, 5952235.650000000372529 ], [ 37623.974999999998545, 5952235.650000000372529 ], [ 37623.974999999998545, 5952235.349999999627471 ], [ 37624.05000000000291, 5952235.349999999627471 ], [ 37624.05000000000291, 5952235.049999999813735 ], [ 37624.125, 5952235.049999999813735 ], [ 37624.125, 5952234.825000000186265 ], [ 37624.19999999999709, 5952234.825000000186265 ], [ 37624.19999999999709, 5952234.525000000372529 ], [ 37624.275000000001455, 5952234.525000000372529 ], [ 37624.275000000001455, 5952234.224999999627471 ], [ 37624.349999999998545, 5952234.224999999627471 ], [ 37624.349999999998545, 5952234.0 ], [ 37624.42500000000291, 5952234.0 ], [ 37624.42500000000291, 5952233.775000000372529 ], [ 37624.5, 5952233.775000000372529 ], [ 37624.5, 5952233.625 ], [ 37624.57499999999709, 5952233.625 ], [ 37624.57499999999709, 5952233.474999999627471 ], [ 37624.650000000001455, 5952233.474999999627471 ], [ 37624.650000000001455, 5952233.325000000186265 ], [ 37624.724999999998545, 5952233.325000000186265 ], [ 37624.724999999998545, 5952233.174999999813735 ], [ 37624.80000000000291, 5952233.174999999813735 ], [ 37624.80000000000291, 5952233.025000000372529 ], [ 37624.875, 5952233.025000000372529 ], [ 37624.875, 5952232.875 ], [ 37624.94999999999709, 5952232.875 ], [ 37624.94999999999709, 5952232.799999999813735 ], [ 37625.025000000001455, 5952232.799999999813735 ], [ 37625.025000000001455, 5952232.650000000372529 ], [ 37625.099999999998545, 5952232.650000000372529 ], [ 37625.099999999998545, 5952232.575000000186265 ], [ 37625.17500000000291, 5952232.575000000186265 ], [ 37625.17500000000291, 5952232.5 ], [ 37625.25, 5952232.5 ], [ 37625.25, 5952232.424999999813735 ], [ 37625.32499999999709, 5952232.424999999813735 ], [ 37625.32499999999709, 5952232.349999999627471 ], [ 37625.400000000001455, 5952232.349999999627471 ], [ 37625.400000000001455, 5952232.200000000186265 ], [ 37625.474999999998545, 5952232.200000000186265 ], [ 37625.474999999998545, 5952232.125 ], [ 37625.55000000000291, 5952232.125 ], [ 37625.55000000000291, 5952232.049999999813735 ], [ 37625.625, 5952232.049999999813735 ], [ 37625.625, 5952231.974999999627471 ], [ 37625.69999999999709, 5952231.974999999627471 ], [ 37625.69999999999709, 5952231.825000000186265 ], [ 37625.775000000001455, 5952231.825000000186265 ], [ 37625.775000000001455, 5952231.75 ], [ 37625.92500000000291, 5952231.75 ], [ 37625.92500000000291, 5952231.674999999813735 ], [ 37626.0, 5952231.674999999813735 ], [ 37626.0, 5952231.599999999627471 ], [ 37626.07499999999709, 5952231.599999999627471 ], [ 37626.07499999999709, 5952231.525000000372529 ], [ 37626.150000000001455, 5952231.525000000372529 ], [ 37626.150000000001455, 5952231.450000000186265 ], [ 37626.30000000000291, 5952231.450000000186265 ], [ 37626.30000000000291, 5952231.375 ], [ 37626.375, 5952231.375 ], [ 37626.375, 5952231.299999999813735 ], [ 37626.525000000001455, 5952231.299999999813735 ], [ 37626.525000000001455, 5952231.224999999627471 ], [ 37626.67500000000291, 5952231.224999999627471 ], [ 37626.67500000000291, 5952231.150000000372529 ], [ 37626.82499999999709, 5952231.150000000372529 ], [ 37626.82499999999709, 5952231.075000000186265 ], [ 37626.974999999998545, 5952231.075000000186265 ], [ 37626.974999999998545, 5952231.0 ], [ 37627.19999999999709, 5952231.0 ], [ 37627.19999999999709, 5952230.924999999813735 ], [ 37627.42500000000291, 5952230.924999999813735 ], [ 37627.42500000000291, 5952230.849999999627471 ], [ 37627.650000000001455, 5952230.849999999627471 ], [ 37627.650000000001455, 5952230.775000000372529 ], [ 37627.80000000000291, 5952230.775000000372529 ], [ 37627.80000000000291, 5952230.700000000186265 ], [ 37628.025000000001455, 5952230.700000000186265 ], [ 37628.025000000001455, 5952230.625 ], [ 37628.25, 5952230.625 ], [ 37628.25, 5952230.549999999813735 ], [ 37628.474999999998545, 5952230.549999999813735 ], [ 37628.474999999998545, 5952230.474999999627471 ], [ 37628.625, 5952230.474999999627471 ], [ 37628.625, 5952230.400000000372529 ], [ 37628.775000000001455, 5952230.400000000372529 ], [ 37628.775000000001455, 5952230.325000000186265 ], [ 37628.849999999998545, 5952230.325000000186265 ], [ 37628.849999999998545, 5952230.25 ], [ 37628.92500000000291, 5952230.25 ], [ 37628.92500000000291, 5952230.099999999627471 ], [ 37629.0, 5952230.099999999627471 ], [ 37629.0, 5952230.025000000372529 ], [ 37629.07499999999709, 5952230.025000000372529 ], [ 37629.07499999999709, 5952229.950000000186265 ], [ 37629.150000000001455, 5952229.950000000186265 ], [ 37629.150000000001455, 5952229.875 ], [ 37629.224999999998545, 5952229.875 ], [ 37629.224999999998545, 5952229.799999999813735 ], [ 37629.30000000000291, 5952229.799999999813735 ], [ 37629.30000000000291, 5952229.724999999627471 ], [ 37629.375, 5952229.724999999627471 ], [ 37629.375, 5952229.650000000372529 ], [ 37629.44999999999709, 5952229.650000000372529 ], [ 37629.44999999999709, 5952229.575000000186265 ], [ 37629.525000000001455, 5952229.575000000186265 ], [ 37629.525000000001455, 5952229.5 ], [ 37629.599999999998545, 5952229.5 ], [ 37629.599999999998545, 5952229.424999999813735 ], [ 37629.75, 5952229.424999999813735 ], [ 37629.75, 5952229.349999999627471 ], [ 37629.900000000001455, 5952229.349999999627471 ], [ 37629.900000000001455, 5952229.275000000372529 ], [ 37630.05000000000291, 5952229.275000000372529 ], [ 37630.05000000000291, 5952229.200000000186265 ], [ 37630.275000000001455, 5952229.200000000186265 ], [ 37630.275000000001455, 5952229.125 ], [ 37630.5, 5952229.125 ], [ 37630.5, 5952229.049999999813735 ], [ 37630.724999999998545, 5952229.049999999813735 ], [ 37630.724999999998545, 5952228.974999999627471 ], [ 37631.025000000001455, 5952228.974999999627471 ], [ 37631.025000000001455, 5952228.900000000372529 ], [ 37633.05000000000291, 5952228.900000000372529 ], [ 37633.05000000000291, 5952228.825000000186265 ], [ 37633.19999999999709, 5952228.825000000186265 ], [ 37633.19999999999709, 5952228.900000000372529 ], [ 37633.650000000001455, 5952228.900000000372529 ], [ 37633.650000000001455, 5952228.974999999627471 ], [ 37634.025000000001455, 5952228.974999999627471 ], [ 37634.025000000001455, 5952229.049999999813735 ], [ 37634.32499999999709, 5952229.049999999813735 ], [ 37634.32499999999709, 5952229.125 ], [ 37634.55000000000291, 5952229.125 ], [ 37634.55000000000291, 5952229.200000000186265 ], [ 37634.775000000001455, 5952229.200000000186265 ], [ 37634.775000000001455, 5952229.275000000372529 ], [ 37634.92500000000291, 5952229.275000000372529 ], [ 37634.92500000000291, 5952229.349999999627471 ], [ 37635.07499999999709, 5952229.349999999627471 ], [ 37635.07499999999709, 5952229.424999999813735 ], [ 37635.224999999998545, 5952229.424999999813735 ], [ 37635.224999999998545, 5952229.5 ], [ 37635.30000000000291, 5952229.5 ], [ 37635.30000000000291, 5952229.575000000186265 ], [ 37635.44999999999709, 5952229.575000000186265 ], [ 37635.44999999999709, 5952229.650000000372529 ], [ 37635.525000000001455, 5952229.650000000372529 ], [ 37635.525000000001455, 5952229.724999999627471 ], [ 37635.599999999998545, 5952229.724999999627471 ], [ 37635.599999999998545, 5952229.799999999813735 ], [ 37635.67500000000291, 5952229.799999999813735 ], [ 37635.67500000000291, 5952229.875 ], [ 37635.75, 5952229.875 ], [ 37635.75, 5952229.950000000186265 ], [ 37635.82499999999709, 5952229.950000000186265 ], [ 37635.82499999999709, 5952230.025000000372529 ], [ 37635.900000000001455, 5952230.025000000372529 ], [ 37635.900000000001455, 5952230.099999999627471 ], [ 37635.974999999998545, 5952230.099999999627471 ], [ 37635.974999999998545, 5952230.174999999813735 ], [ 37636.05000000000291, 5952230.174999999813735 ], [ 37636.05000000000291, 5952230.25 ], [ 37636.125, 5952230.25 ], [ 37636.125, 5952230.325000000186265 ], [ 37636.19999999999709, 5952230.325000000186265 ], [ 37636.19999999999709, 5952230.400000000372529 ], [ 37636.349999999998545, 5952230.400000000372529 ], [ 37636.349999999998545, 5952230.474999999627471 ], [ 37636.5, 5952230.474999999627471 ], [ 37636.5, 5952230.549999999813735 ], [ 37636.650000000001455, 5952230.549999999813735 ], [ 37636.650000000001455, 5952230.625 ], [ 37636.875, 5952230.625 ], [ 37636.875, 5952230.700000000186265 ], [ 37637.025000000001455, 5952230.700000000186265 ], [ 37637.025000000001455, 5952230.775000000372529 ], [ 37637.25, 5952230.775000000372529 ], [ 37637.25, 5952230.849999999627471 ], [ 37637.474999999998545, 5952230.849999999627471 ], [ 37637.474999999998545, 5952230.924999999813735 ], [ 37637.625, 5952230.924999999813735 ], [ 37637.625, 5952231.0 ], [ 37637.775000000001455, 5952231.0 ], [ 37637.775000000001455, 5952231.075000000186265 ], [ 37637.92500000000291, 5952231.075000000186265 ], [ 37637.92500000000291, 5952231.150000000372529 ], [ 37638.07499999999709, 5952231.150000000372529 ], [ 37638.07499999999709, 5952231.224999999627471 ], [ 37638.150000000001455, 5952231.224999999627471 ], [ 37638.150000000001455, 5952231.299999999813735 ], [ 37638.30000000000291, 5952231.299999999813735 ], [ 37638.30000000000291, 5952231.375 ], [ 37638.375, 5952231.375 ], [ 37638.375, 5952231.450000000186265 ], [ 37638.44999999999709, 5952231.450000000186265 ], [ 37638.44999999999709, 5952231.525000000372529 ], [ 37638.525000000001455, 5952231.525000000372529 ], [ 37638.525000000001455, 5952231.599999999627471 ], [ 37638.599999999998545, 5952231.599999999627471 ], [ 37638.599999999998545, 5952231.674999999813735 ], [ 37638.67500000000291, 5952231.674999999813735 ], [ 37638.67500000000291, 5952231.75 ], [ 37638.75, 5952231.75 ], [ 37638.75, 5952231.825000000186265 ], [ 37638.82499999999709, 5952231.825000000186265 ], [ 37638.82499999999709, 5952231.900000000372529 ], [ 37638.900000000001455, 5952231.900000000372529 ], [ 37638.900000000001455, 5952231.974999999627471 ], [ 37638.974999999998545, 5952231.974999999627471 ], [ 37638.974999999998545, 5952232.125 ], [ 37639.05000000000291, 5952232.125 ], [ 37639.05000000000291, 5952232.200000000186265 ], [ 37639.125, 5952232.200000000186265 ], [ 37639.125, 5952234.599999999627471 ], [ 37639.19999999999709, 5952234.599999999627471 ], [ 37639.19999999999709, 5952238.275000000372529 ], [ 37639.125, 5952238.275000000372529 ], [ 37639.125, 5952238.424999999813735 ], [ 37639.05000000000291, 5952238.424999999813735 ], [ 37639.05000000000291, 5952238.650000000372529 ], [ 37638.974999999998545, 5952238.650000000372529 ], [ 37638.974999999998545, 5952238.875 ], [ 37638.900000000001455, 5952238.875 ], [ 37638.900000000001455, 5952239.099999999627471 ], [ 37638.82499999999709, 5952239.099999999627471 ], [ 37638.82499999999709, 5952239.325000000186265 ], [ 37638.75, 5952239.325000000186265 ], [ 37638.75, 5952239.625 ], [ 37638.67500000000291, 5952239.625 ], [ 37638.67500000000291, 5952239.924999999813735 ], [ 37638.599999999998545, 5952239.924999999813735 ], [ 37638.599999999998545, 5952240.224999999627471 ], [ 37638.525000000001455, 5952240.224999999627471 ], [ 37638.525000000001455, 5952240.450000000186265 ], [ 37638.44999999999709, 5952240.450000000186265 ], [ 37638.44999999999709, 5952240.674999999813735 ], [ 37638.375, 5952240.674999999813735 ], [ 37638.375, 5952240.974999999627471 ], [ 37638.30000000000291, 5952240.974999999627471 ], [ 37638.30000000000291, 5952241.275000000372529 ], [ 37638.224999999998545, 5952241.275000000372529 ], [ 37638.224999999998545, 5952241.5 ], [ 37638.150000000001455, 5952241.5 ], [ 37638.150000000001455, 5952241.875 ], [ 37638.07499999999709, 5952241.875 ], [ 37638.07499999999709, 5952242.099999999627471 ], [ 37638.0, 5952242.099999999627471 ], [ 37638.0, 5952242.325000000186265 ], [ 37637.92500000000291, 5952242.325000000186265 ], [ 37637.92500000000291, 5952242.474999999627471 ], [ 37637.849999999998545, 5952242.474999999627471 ], [ 37637.849999999998545, 5952242.625 ], [ 37637.775000000001455, 5952242.625 ], [ 37637.775000000001455, 5952242.775000000372529 ], [ 37637.69999999999709, 5952242.775000000372529 ], [ 37637.69999999999709, 5952242.849999999627471 ], [ 37637.625, 5952242.849999999627471 ], [ 37637.625, 5952243.0 ], [ 37637.55000000000291, 5952243.0 ], [ 37637.55000000000291, 5952243.075000000186265 ], [ 37637.474999999998545, 5952243.075000000186265 ], [ 37637.474999999998545, 5952243.150000000372529 ], [ 37637.400000000001455, 5952243.150000000372529 ], [ 37637.400000000001455, 5952243.299999999813735 ], [ 37637.32499999999709, 5952243.299999999813735 ], [ 37637.32499999999709, 5952243.375 ], [ 37637.25, 5952243.375 ], [ 37637.25, 5952243.450000000186265 ], [ 37637.17500000000291, 5952243.450000000186265 ], [ 37637.17500000000291, 5952243.525000000372529 ], [ 37637.099999999998545, 5952243.525000000372529 ], [ 37637.099999999998545, 5952243.599999999627471 ], [ 37636.94999999999709, 5952243.599999999627471 ], [ 37636.94999999999709, 5952243.674999999813735 ], [ 37636.875, 5952243.674999999813735 ], [ 37636.875, 5952243.75 ], [ 37636.80000000000291, 5952243.75 ], [ 37636.80000000000291, 5952243.825000000186265 ], [ 37636.724999999998545, 5952243.825000000186265 ], [ 37636.724999999998545, 5952243.900000000372529 ], [ 37636.650000000001455, 5952243.900000000372529 ], [ 37636.650000000001455, 5952244.049999999813735 ], [ 37636.57499999999709, 5952244.049999999813735 ], [ 37636.57499999999709, 5952244.125 ], [ 37636.5, 5952244.125 ], [ 37636.5, 5952244.200000000186265 ], [ 37636.42500000000291, 5952244.200000000186265 ], [ 37636.42500000000291, 5952244.275000000372529 ], [ 37636.349999999998545, 5952244.275000000372529 ], [ 37636.349999999998545, 5952244.349999999627471 ], [ 37636.275000000001455, 5952244.349999999627471 ], [ 37636.275000000001455, 5952244.424999999813735 ], [ 37636.125, 5952244.424999999813735 ], [ 37636.125, 5952244.5 ], [ 37636.05000000000291, 5952244.5 ], [ 37636.05000000000291, 5952244.575000000186265 ], [ 37635.974999999998545, 5952244.575000000186265 ], [ 37635.974999999998545, 5952244.650000000372529 ], [ 37635.82499999999709, 5952244.650000000372529 ], [ 37635.82499999999709, 5952244.724999999627471 ], [ 37635.67500000000291, 5952244.724999999627471 ], [ 37635.67500000000291, 5952244.799999999813735 ], [ 37635.525000000001455, 5952244.799999999813735 ], [ 37635.525000000001455, 5952244.875 ], [ 37635.375, 5952244.875 ], [ 37635.375, 5952244.950000000186265 ], [ 37635.224999999998545, 5952244.950000000186265 ], [ 37635.224999999998545, 5952245.025000000372529 ], [ 37634.92500000000291, 5952245.025000000372529 ], [ 37634.92500000000291, 5952245.099999999627471 ], [ 37634.55000000000291, 5952245.099999999627471 ], [ 37634.55000000000291, 5952245.174999999813735 ], [ 37634.25, 5952245.174999999813735 ], [ 37634.25, 5952245.25 ], [ 37633.94999999999709, 5952245.25 ], [ 37633.94999999999709, 5952245.325000000186265 ], [ 37633.650000000001455, 5952245.325000000186265 ], [ 37633.650000000001455, 5952245.400000000372529 ], [ 37633.42500000000291, 5952245.400000000372529 ], [ 37633.42500000000291, 5952245.474999999627471 ], [ 37633.05000000000291, 5952245.474999999627471 ], [ 37633.05000000000291, 5952245.549999999813735 ], [ 37632.525000000001455, 5952245.549999999813735 ], [ 37632.525000000001455, 5952245.625 ], [ 37632.0, 5952245.625 ], [ 37632.0, 5952245.700000000186265 ], [ 37631.55000000000291, 5952245.700000000186265 ], [ 37631.55000000000291, 5952245.775000000372529 ], [ 37631.025000000001455, 5952245.775000000372529 ] ] ] } }
]
}
