{
"type": "FeatureCollection",
"name": "37683E594957N_buildings",
"crs": { "type": "name", "properties": { "name": "urn:ogc:def:crs:EPSG::3776" } },
"features": [
{ "type": "Feature", "properties": { "value": 1.0, "building_id": 0, "area": 1520.0493749993136 }, "geometry": { "type": "Polygon", "coordinates": [ [ [ 37920.150000000001455, 5950275.299999999813735 ], [ 37920.150000000001455, 5950275.224999999627471 ], [ 37919.625, 5950275.224999999627471 ], [ 37919.625, 5950275.150000000372529 ], [ 37919.025000000001455, 5950275.150000000372529 ], [ 37919.025000000001455, 5950275.075000000186265 ], [ 37918.349999999998545, 5950275.075000000186265 ], [ 37918.349999999998545, 5950275.0 ], [ 37917.67500000000291, 5950275.0 ], [ 37917.67500000000291, 5950274.924999999813735 ], [ 37916.92500000000291, 5950274.924999999813735 ], [ 37916.92500000000291, 5950274.849999999627471 ], [ 37916.17500000000291, 5950274.849999999627471 ], [ 37916.17500000000291, 5950274.775000000372529 ], [ 37915.42500000000291, 5950274.775000000372529 ], [ 37915.42500000000291, 5950274.700000000186265 ], [ 37914.599999999998545, 5950274.700000000186265 ], [ 37914.599999999998545, 5950274.625 ], [ 37914.0, 5950274.625 ], [ 37914.0, 5950274.549999999813735 ], [ 37913.55000000000291, 5950274.549999999813735 ], [ 37913.55000000000291, 5950274.474999999627471 ], [ 37913.099999999998545, 5950274.474999999627471 ], [ 37913.099999999998545, 5950274.400000000372529 ], [ 37912.650000000001455, 5950274.400000000372529 ], [ 37912.650000000001455, 5950274.325000000186265 ], [ 37912.349999999998545, 5950274.325000000186265 ], [ 37912.349999999998545, 5950274.25 ], [ 37912.05000000000291, 5950274.25 ], [ 37912.05000000000291, 5950274.174999999813735 ], [ 37911.75, 5950274.174999999813735 ], [ 37911.75, 5950274.099999999627471 ], [ 37911.525000000001455, 5950274.099999999627471 ], [ 37911.525000000001455, 5950274.025000000372529 ], [ 37911.30000000000291, 5950274.025000000372529 ], [ 37911.30000000000291, 5950273.950000000186265 ], [ 37911.07499999999709, 5950273.950000000186265 ], [ 37911.07499999999709, 5950273.875 ], [ 37910.849999999998545, 5950273.875 ], [ 37910.849999999998545, 5950273.799999999813735 ], [ 37910.69999999999709, 5950273.799999999813735 ], [ 37910.69999999999709, 5950273.724999999627471 ], [ 37910.474999999998545, 5950273.724999999627471 ], [ 37910.474999999998545, 5950273.650000000372529 ], [ 37910.32499999999709, 5950273.650000000372529 ], [ 37910.32499999999709, 5950273.575000000186265 ], [ 37910.099999999998545, 5950273.575000000186265 ], [ 37910.099999999998545, 5950273.5 ], [ 37909.94999999999709, 5950273.5 ], [ 37909.94999999999709, 5950273.424999999813735 ], [ 37909.80000000000291, 5950273.424999999813735 ], [ 37909.80000000000291, 5950273.349999999627471 ], [ 37909.650000000001455, 5950273.349999999627471 ], [ 37909.650000000001455, 5950273.275000000372529 ], [ 37909.57499999999709, 5950273.275000000372529 ], [ 37909.57499999999709, 5950273.200000000186265 ], [ 37909.5, 5950273.200000000186265 ], [ 37909.5, 5950273.125 ], [ 37909.349999999998545, 5950273.125 ], [ 37909.349999999998545, 5950273.049999999813735 ], [ 37909.275000000001455, 5950273.049999999813735 ], [ 37909.275000000001455, 5950272.974999999627471 ], [ 37909.125, 5950272.974999999627471 ], [ 37909.125, 5950272.900000000372529 ], [ 37909.05000000000291, 5950272.900000000372529 ], [ 37909.05000000000291, 5950272.825000000186265 ], [ 37908.900000000001455, 5950272.825000000186265 ], [ 37908.900000000001455, 5950272.75 ], [ 37908.82499999999709, 5950272.75 ], [ 37908.82499999999709, 5950272.674999999813735 ], [ 37908.67500000000291, 5950272.674999999813735 ], [ 37908.67500000000291, 5950272.599999999627471 ], [ 37908.599999999998545, 5950272.599999999627471 ], [ 37908.599999999998545, 5950272.525000000372529 ], [ 37908.44999999999709, 5950272.525000000372529 ], [ 37908.44999999999709, 5950272.450000000186265 ], [ 37908.375, 5950272.450000000186265 ], [ 37908.375, 5950272.375 ], [ 37908.224999999998545, 5950272.375 ], [ 37908.224999999998545, 5950272.299999999813735 ], [ 37908.07499999999709, 5950272.299999999813735 ], [ 37908.07499999999709, 5950272.224999999627471 ], [ 37908.0, 5950272.224999999627471 ], [ 37908.0, 5950272.150000000372529 ], [ 37907.849999999998545, 5950272.150000000372529 ], [ 37907.849999999998545, 5950272.075000000186265 ], [ 37907.69999999999709, 5950272.075000000186265 ], [ 37907.69999999999709, 5950272.0 ], [ 37907.55000000000291, 5950272.0 ], [ 37907.55000000000291, 5950271.924999999813735 ], [ 37907.474999999998545, 5950271.924999999813735 ], [ 37907.474999999998545, 5950271.849999999627471 ], [ 37907.32499999999709, 5950271.849999999627471 ], [ 37907.32499999999709, 5950271.775000000372529 ], [ 37907.17500000000291, 5950271.775000000372529 ], [ 37907.17500000000291, 5950271.700000000186265 ], [ 37907.025000000001455, 5950271.700000000186265 ], [ 37907.025000000001455, 5950271.625 ], [ 37906.875, 5950271.625 ], [ 37906.875, 5950271.549999999813735 ], [ 37906.724999999998545, 5950271.549999999813735 ], [ 37906.724999999998545, 5950271.474999999627471 ], [ 37906.57499999999709, 5950271.474999999627471 ], [ 37906.57499999999709, 5950271.400000000372529 ], [ 37906.42500000000291, 5950271.400000000372529 ], [ 37906.42500000000291, 5950271.25 ], [ 37906.349999999998545, 5950271.25 ], [ 37906.349999999998545, 5950271.099999999627471 ], [ 37906.275000000001455, 5950271.099999999627471 ], [ 37906.275000000001455, 5950271.025000000372529 ], [ 37906.19999999999709, 5950271.025000000372529 ], [ 37906.19999999999709, 5950270.875 ], [ 37906.125, 5950270.875 ], [ 37906.125, 5950270.724999999627471 ], [ 37906.05000000000291, 5950270.724999999627471 ], [ 37906.05000000000291, 5950270.650000000372529 ], [ 37905.974999999998545, 5950270.650000000372529 ], [ 37905.974999999998545, 5950270.5 ], [ 37905.900000000001455, 5950270.5 ], [ 37905.900000000001455, 5950270.349999999627471 ], [ 37905.82499999999709, 5950270.349999999627471 ], [ 37905.82499999999709, 5950270.275000000372529 ], [ 37905.75, 5950270.275000000372529 ], [ 37905.75, 5950270.125 ], [ 37905.67500000000291, 5950270.125 ], [ 37905.67500000000291, 5950270.049999999813735 ], [ 37905.599999999998545, 5950270.049999999813735 ], [ 37905.599999999998545, 5950269.900000000372529 ], [ 37905.525000000001455, 5950269.900000000372529 ], [ 37905.525000000001455, 5950269.75 ], [ 37905.44999999999709, 5950269.75 ], [ 37905.44999999999709, 5950269.674999999813735 ], [ 37905.375, 5950269.674999999813735 ], [ 37905.375, 5950269.525000000372529 ], [ 37905.30000000000291, 5950269.525000000372529 ], [ 37905.30000000000291, 5950269.450000000186265 ], [ 37905.224999999998545, 5950269.450000000186265 ], [ 37905.224999999998545, 5950269.299999999813735 ], [ 37905.150000000001455, 5950269.299999999813735 ], [ 37905.150000000001455, 5950269.224999999627471 ], [ 37905.07499999999709, 5950269.224999999627471 ], [ 37905.07499999999709, 5950269.150000000372529 ], [ 37905.0, 5950269.150000000372529 ], [ 37905.0, 5950269.075000000186265 ], [ 37904.92500000000291, 5950269.075000000186265 ], [ 37904.92500000000291, 5950268.924999999813735 ], [ 37904.849999999998545, 5950268.924999999813735 ], [ 37904.849999999998545, 5950268.849999999627471 ], [ 37904.775000000001455, 5950268.849999999627471 ], [ 37904.775000000001455, 5950268.700000000186265 ], [ 37904.69999999999709, 5950268.700000000186265 ], [ 37904.69999999999709, 5950268.625 ], [ 37904.625, 5950268.625 ], [ 37904.625, 5950268.474999999627471 ], [ 37904.55000000000291, 5950268.474999999627471 ], [ 37904.55000000000291, 5950268.400000000372529 ], [ 37904.474999999998545, 5950268.400000000372529 ], [ 37904.474999999998545, 5950268.325000000186265 ], [ 37904.400000000001455, 5950268.325000000186265 ], [ 37904.400000000001455, 5950268.174999999813735 ], [ 37904.32499999999709, 5950268.174999999813735 ], [ 37904.32499999999709, 5950268.099999999627471 ], [ 37904.25, 5950268.099999999627471 ], [ 37904.25, 5950268.025000000372529 ], [ 37904.17500000000291, 5950268.025000000372529 ], [ 37904.17500000000291, 5950267.875 ], [ 37904.099999999998545, 5950267.875 ], [ 37904.099999999998545, 5950267.724999999627471 ], [ 37904.025000000001455, 5950267.724999999627471 ], [ 37904.025000000001455, 5950267.650000000372529 ], [ 37903.94999999999709, 5950267.650000000372529 ], [ 37903.94999999999709, 5950267.5 ], [ 37903.875, 5950267.5 ], [ 37903.875, 5950267.349999999627471 ], [ 37903.80000000000291, 5950267.349999999627471 ], [ 37903.80000000000291, 5950267.200000000186265 ], [ 37903.724999999998545, 5950267.200000000186265 ], [ 37903.724999999998545, 5950267.049999999813735 ], [ 37903.650000000001455, 5950267.049999999813735 ], [ 37903.650000000001455, 5950266.900000000372529 ], [ 37903.57499999999709, 5950266.900000000372529 ], [ 37903.57499999999709, 5950266.75 ], [ 37903.5, 5950266.75 ], [ 37903.5, 5950266.599999999627471 ], [ 37903.42500000000291, 5950266.599999999627471 ], [ 37903.42500000000291, 5950266.375 ], [ 37903.349999999998545, 5950266.375 ], [ 37903.349999999998545, 5950266.224999999627471 ], [ 37903.275000000001455, 5950266.224999999627471 ], [ 37903.275000000001455, 5950266.0 ], [ 37903.19999999999709, 5950266.0 ], [ 37903.19999999999709, 5950265.775000000372529 ], [ 37903.125, 5950265.775000000372529 ], [ 37903.125, 5950265.474999999627471 ], [ 37903.05000000000291, 5950265.474999999627471 ], [ 37903.05000000000291, 5950265.25 ], [ 37902.974999999998545, 5950265.25 ], [ 37902.974999999998545, 5950264.950000000186265 ], [ 37902.900000000001455, 5950264.950000000186265 ], [ 37902.900000000001455, 5950264.650000000372529 ], [ 37902.82499999999709, 5950264.650000000372529 ], [ 37902.82499999999709, 5950264.275000000372529 ], [ 37902.75, 5950264.275000000372529 ], [ 37902.75, 5950263.900000000372529 ], [ 37902.67500000000291, 5950263.900000000372529 ], [ 37902.67500000000291, 5950263.674999999813735 ], [ 37902.599999999998545, 5950263.674999999813735 ], [ 37902.599999999998545, 5950263.299999999813735 ], [ 37902.525000000001455, 5950263.299999999813735 ], [ 37902.525000000001455, 5950262.849999999627471 ], [ 37902.44999999999709, 5950262.849999999627471 ], [ 37902.44999999999709, 5950262.400000000372529 ], [ 37902.375, 5950262.400000000372529 ], [ 37902.375, 5950261.875 ], [ 37902.30000000000291, 5950261.875 ], [ 37902.30000000000291, 5950259.924999999813735 ], [ 37902.224999999998545, 5950259.924999999813735 ], [ 37902.224999999998545, 5950256.400000000372529 ], [ 37902.150000000001455, 5950256.400000000372529 ], [ 37902.150000000001455, 5950254.75 ], [ 37902.07499999999709, 5950254.75 ], [ 37902.07499999999709, 5950253.700000000186265 ], [ 37902.0, 5950253.700000000186265 ], [ 37902.0, 5950252.950000000186265 ], [ 37901.92500000000291, 5950252.950000000186265 ], [ 37901.92500000000291, 5950252.275000000372529 ], [ 37901.849999999998545, 5950252.275000000372529 ], [ 37901.849999999998545, 5950251.525000000372529 ], [ 37901.775000000001455, 5950251.525000000372529 ], [ 37901.775000000001455, 5950250.775000000372529 ], [ 37901.69999999999709, 5950250.775000000372529 ], [ 37901.69999999999709, 5950250.025000000372529 ], [ 37901.625, 5950250.025000000372529 ], [ 37901.625, 5950249.349999999627471 ], [ 37901.55000000000291, 5950249.349999999627471 ], [ 37901.55000000000291, 5950248.525000000372529 ], [ 37901.474999999998545, 5950248.525000000372529 ], [ 37901.474999999998545, 5950247.400000000372529 ], [ 37901.55000000000291, 5950247.400000000372529 ], [ 37901.55000000000291, 5950246.799999999813735 ], [ 37901.625, 5950246.799999999813735 ], [ 37901.625, 5950246.125 ], [ 37901.69999999999709, 5950246.125 ], [ 37901.69999999999709, 5950245.900000000372529 ], [ 37901.775000000001455, 5950245.900000000372529 ], [ 37901.775000000001455, 5950245.75 ], [ 37901.849999999998545, 5950245.75 ], [ 37901.849999999998545, 5950245.599999999627471 ], [ 37901.92500000000291, 5950245.599999999627471 ], [ 37901.92500000000291, 5950245.525000000372529 ], [ 37902.0, 5950245.525000000372529 ], [ 37902.0, 5950245.375 ], [ 37902.07499999999709, 5950245.375 ], [ 37902.07499999999709, 5950245.224999999627471 ], [ 37902.150000000001455, 5950245.224999999627471 ], [ 37902.150000000001455, 5950245.075000000186265 ], [ 37902.224999999998545, 5950245.075000000186265 ], [ 37902.224999999998545, 5950245.0 ], [ 37902.30000000000291, 5950245.0 ], [ 37902.30000000000291, 5950244.849999999627471 ], [ 37902.375, 5950244.849999999627471 ], [ 37902.375, 5950244.700000000186265 ], [ 37902.44999999999709, 5950244.700000000186265 ], [ 37902.44999999999709, 5950244.625 ], [ 37902.525000000001455, 5950244.625 ], [ 37902.525000000001455, 5950244.474999999627471 ], [ 37902.599999999998545, 5950244.474999999627471 ], [ 37902.599999999998545, 5950244.400000000372529 ], [ 37902.67500000000291, 5950244.400000000372529 ], [ 37902.67500000000291, 5950244.25 ], [ 37902.75, 5950244.25 ], [ 37902.75, 5950244.099999999627471 ], [ 37902.82499999999709, 5950244.099999999627471 ], [ 37902.82499999999709, 5950244.025000000372529 ], [ 37902.900000000001455, 5950244.025000000372529 ], [ 37902.900000000001455, 5950243.875 ], [ 37902.974999999998545, 5950243.875 ], [ 37902.974999999998545, 5950243.799999999813735 ], [ 37903.05000000000291, 5950243.799999999813735 ], [ 37903.05000000000291, 5950243.724999999627471 ], [ 37903.125, 5950243.724999999627471 ], [ 37903.125, 5950243.650000000372529 ], [ 37903.19999999999709, 5950243.650000000372529 ], [ 37903.19999999999709, 5950243.575000000186265 ], [ 37903.275000000001455, 5950243.575000000186265 ], [ 37903.275000000001455, 5950243.5 ], [ 37903.349999999998545, 5950243.5 ], [ 37903.349999999998545, 5950243.424999999813735 ], [ 37903.42500000000291, 5950243.424999999813735 ], [ 37903.42500000000291, 5950243.275000000372529 ], [ 37903.5, 5950243.275000000372529 ], [ 37903.5, 5950243.200000000186265 ], [ 37903.57499999999709, 5950243.200000000186265 ], [ 37903.57499999999709, 5950243.125 ], [ 37903.650000000001455, 5950243.125 ], [ 37903.650000000001455, 5950243.049999999813735 ], [ 37903.724999999998545, 5950243.049999999813735 ], [ 37903.724999999998545, 5950242.974999999627471 ], [ 37903.80000000000291, 5950242.974999999627471 ], [ 37903.80000000000291, 5950242.900000000372529 ], [ 37903.875, 5950242.900000000372529 ], [ 37903.875, 5950242.825000000186265 ], [ 37903.94999999999709, 5950242.825000000186265 ], [ 37903.94999999999709, 5950242.75 ], [ 37904.025000000001455, 5950242.75 ], [ 37904.025000000001455, 5950242.674999999813735 ], [ 37904.099999999998545, 5950242.674999999813735 ], [ 37904.099999999998545, 5950242.525000000372529 ], [ 37904.17500000000291, 5950242.525000000372529 ], [ 37904.17500000000291, 5950242.450000000186265 ], [ 37904.25, 5950242.450000000186265 ], [ 37904.25, 5950242.375 ], [ 37904.32499999999709, 5950242.375 ], [ 37904.32499999999709, 5950242.299999999813735 ], [ 37904.400000000001455, 5950242.299999999813735 ], [ 37904.400000000001455, 5950242.224999999627471 ], [ 37904.474999999998545, 5950242.224999999627471 ], [ 37904.474999999998545, 5950242.150000000372529 ], [ 37904.55000000000291, 5950242.150000000372529 ], [ 37904.55000000000291, 5950242.075000000186265 ], [ 37904.625, 5950242.075000000186265 ], [ 37904.625, 5950242.0 ], [ 37904.69999999999709, 5950242.0 ], [ 37904.69999999999709, 5950241.924999999813735 ], [ 37904.849999999998545, 5950241.924999999813735 ], [ 37904.849999999998545, 5950241.849999999627471 ], [ 37904.92500000000291, 5950241.849999999627471 ], [ 37904.92500000000291, 5950241.775000000372529 ], [ 37905.0, 5950241.775000000372529 ], [ 37905.0, 5950241.700000000186265 ], [ 37905.07499999999709, 5950241.700000000186265 ], [ 37905.07499999999709, 5950241.625 ], [ 37905.150000000001455, 5950241.625 ], [ 37905.150000000001455, 5950241.549999999813735 ], [ 37905.30000000000291, 5950241.549999999813735 ], [ 37905.30000000000291, 5950241.474999999627471 ], [ 37905.375, 5950241.474999999627471 ], [ 37905.375, 5950241.400000000372529 ], [ 37905.44999999999709, 5950241.400000000372529 ], [ 37905.44999999999709, 5950241.325000000186265 ], [ 37905.599999999998545, 5950241.325000000186265 ], [ 37905.599999999998545, 5950241.25 ], [ 37905.67500000000291, 5950241.25 ], [ 37905.67500000000291, 5950241.174999999813735 ], [ 37905.75, 5950241.174999999813735 ], [ 37905.75, 5950241.099999999627471 ], [ 37905.900000000001455, 5950241.099999999627471 ], [ 37905.900000000001455, 5950241.025000000372529 ], [ 37905.974999999998545, 5950241.025000000372529 ], [ 37905.974999999998545, 5950240.950000000186265 ], [ 37906.05000000000291, 5950240.950000000186265 ], [ 37906.05000000000291, 5950240.875 ], [ 37906.19999999999709, 5950240.875 ], [ 37906.19999999999709, 5950240.799999999813735 ], [ 37906.275000000001455, 5950240.799999999813735 ], [ 37906.275000000001455, 5950240.724999999627471 ], [ 37906.42500000000291, 5950240.724999999627471 ], [ 37906.42500000000291, 5950240.650000000372529 ], [ 37906.5, 5950240.650000000372529 ], [ 37906.5, 5950240.575000000186265 ], [ 37906.650000000001455, 5950240.575000000186265 ], [ 37906.650000000001455, 5950240.5 ], [ 37906.724999999998545, 5950240.5 ], [ 37906.724999999998545, 5950240.424999999813735 ], [ 37906.875, 5950240.424999999813735 ], [ 37906.875, 5950240.349999999627471 ], [ 37907.025000000001455, 5950240.349999999627471 ], [ 37907.025000000001455, 5950240.275000000372529 ], [ 37907.099999999998545, 5950240.275000000372529 ], [ 37907.099999999998545, 5950240.200000000186265 ], [ 37907.25, 5950240.200000000186265 ], [ 37907.25, 5950240.125 ], [ 37907.474999999998545, 5950240.125 ], [ 37907.474999999998545, 5950240.049999999813735 ], [ 37907.69999999999709, 5950240.049999999813735 ], [ 37907.69999999999709, 5950239.974999999627471 ], [ 37908.0, 5950239.974999999627471 ], [ 37908.0, 5950239.900000000372529 ], [ 37908.30000000000291, 5950239.900000000372529 ], [ 37908.30000000000291, 5950239.825000000186265 ], [ 37908.599999999998545, 5950239.825000000186265 ], [ 37908.599999999998545, 5950239.75 ], [ 37908.900000000001455, 5950239.75 ], [ 37908.900000000001455, 5950239.674999999813735 ], [ 37909.275000000001455, 5950239.674999999813735 ], [ 37909.275000000001455, 5950239.599999999627471 ], [ 37909.57499999999709, 5950239.599999999627471 ], [ 37909.57499999999709, 5950239.525000000372529 ], [ 37909.94999999999709, 5950239.525000000372529 ], [ 37909.94999999999709, 5950239.450000000186265 ], [ 37910.400000000001455, 5950239.450000000186265 ], [ 37910.400000000001455, 5950239.375 ], [ 37910.775000000001455, 5950239.375 ], [ 37910.775000000001455, 5950239.299999999813735 ], [ 37911.224999999998545, 5950239.299999999813735 ], [ 37911.224999999998545, 5950239.224999999627471 ], [ 37911.67500000000291, 5950239.224999999627471 ], [ 37911.67500000000291, 5950239.150000000372529 ], [ 37912.125, 5950239.150000000372529 ], [ 37912.125, 5950239.075000000186265 ], [ 37913.69999999999709, 5950239.075000000186265 ], [ 37913.69999999999709, 5950239.150000000372529 ], [ 37914.67500000000291, 5950239.150000000372529 ], [ 37914.67500000000291, 5950239.224999999627471 ], [ 37914.974999999998545, 5950239.224999999627471 ], [ 37914.974999999998545, 5950239.299999999813735 ], [ 37915.349999999998545, 5950239.299999999813735 ], [ 37915.349999999998545, 5950239.375 ], [ 37915.724999999998545, 5950239.375 ], [ 37915.724999999998545, 5950239.450000000186265 ], [ 37916.025000000001455, 5950239.450000000186265 ], [ 37916.025000000001455, 5950239.525000000372529 ], [ 37916.400000000001455, 5950239.525000000372529 ], [ 37916.400000000001455, 5950239.599999999627471 ], [ 37916.775000000001455, 5950239.599999999627471 ], [ 37916.775000000001455, 5950239.674999999813735 ], [ 37917.07499999999709, 5950239.674999999813735 ], [ 37917.07499999999709, 5950239.75 ], [ 37917.44999999999709, 5950239.75 ], [ 37917.44999999999709, 5950239.825000000186265 ], [ 37917.75, 5950239.825000000186265 ], [ 37917.75, 5950239.900000000372529 ], [ 37918.125, 5950239.900000000372529 ], [ 37918.125, 5950239.974999999627471 ], [ 37918.42500000000291, 5950239.974999999627471 ], [ 37918.42500000000291, 5950240.049999999813735 ], [ 37918.724999999998545, 5950240.049999999813735 ], [ 37918.724999999998545, 5950240.125 ], [ 37918.94999999999709, 5950240.125 ], [ 37918.94999999999709, 5950240.200000000186265 ], [ 37919.25, 5950240.200000000186265 ], [ 37919.25, 5950240.275000000372529 ], [ 37919.55000000000291, 5950240.275000000372529 ], [ 37919.55000000000291, 5950240.349999999627471 ], [ 37919.849999999998545, 5950240.349999999627471 ], [ 37919.849999999998545, 5950240.424999999813735 ], [ 37920.150000000001455, 5950240.424999999813735 ], [ 37920.150000000001455, 5950240.5 ], [ 37920.599999999998545, 5950240.5 ], [ 37920.599999999998545, 5950240.575000000186265 ], [ 37921.05000000000291, 5950240.575000000186265 ], [ 37921.05000000000291, 5950240.650000000372529 ], [ 37921.57499999999709, 5950240.650000000372529 ], [ 37921.57499999999709, 5950240.724999999627471 ], [ 37922.17500000000291, 5950240.724999999627471 ], [ 37922.17500000000291, 5950240.799999999813735 ], [ 37923.0, 5950240.799999999813735 ], [ 37923.0, 5950240.875 ], [ 37923.900000000001455, 5950240.875 ], [ 37923.900000000001455, 5950240.950000000186265 ], [ 37924.724999999998545, 5950240.950000000186265 ], [ 37924.724999999998545, 5950241.025000000372529 ], [ 37925.474999999998545, 5950241.025000000372529 ], [ 37925.474999999998545, 5950241.099999999627471 ], [ 37926.150000000001455, 5950241.099999999627471 ], [ 37926.150000000001455, 5950241.174999999813735 ], [ 37926.75, 5950241.174999999813735 ], [ 37926.75, 5950241.25 ], [ 37927.349999999998545, 5950241.25 ], [ 37927.349999999998545, 5950241.325000000186265 ], [ 37927.875, 5950241.325000000186265 ], [ 37927.875, 5950241.400000000372529 ], [ 37928.474999999998545, 5950241.400000000372529 ], [ 37928.474999999998545, 5950241.474999999627471 ], [ 37929.224999999998545, 5950241.474999999627471 ], [ 37929.224999999998545, 5950241.549999999813735 ], [ 37929.900000000001455, 5950241.549999999813735 ], [ 37929.900000000001455, 5950241.625 ], [ 37931.69999999999709, 5950241.625 ], [ 37931.69999999999709, 5950241.700000000186265 ], [ 37933.5, 5950241.700000000186265 ], [ 37933.5, 5950241.775000000372529 ], [ 37935.07499999999709, 5950241.775000000372529 ], [ 37935.07499999999709, 5950241.849999999627471 ], [ 37936.275000000001455, 5950241.849999999627471 ], [ 37936.275000000001455, 5950241.924999999813735 ], [ 37937.17500000000291, 5950241.924999999813735 ], [ 37937.17500000000291, 5950242.0 ], [ 37937.92500000000291, 5950242.0 ], [ 37937.92500000000291, 5950242.075000000186265 ], [ 37938.44999999999709, 5950242.075000000186265 ], [ 37938.44999999999709, 5950242.150000000372529 ], [ 37938.900000000001455, 5950242.150000000372529 ], [ 37938.900000000001455, 5950242.224999999627471 ], [ 37939.349999999998545, 5950242.224999999627471 ], [ 37939.349999999998545, 5950242.299999999813735 ], [ 37939.724999999998545, 5950242.299999999813735 ], [ 37939.724999999998545, 5950242.375 ], [ 37940.099999999998545, 5950242.375 ], [ 37940.099999999998545, 5950242.450000000186265 ], [ 37940.474999999998545, 5950242.450000000186265 ], [ 37940.474999999998545, 5950242.525000000372529 ], [ 37940.775000000001455, 5950242.525000000372529 ], [ 37940.775000000001455, 5950242.599999999627471 ], [ 37941.150000000001455, 5950242.599999999627471 ], [ 37941.150000000001455, 5950242.674999999813735 ], [ 37941.44999999999709, 5950242.674999999813735 ], [ 37941.44999999999709, 5950242.75 ], [ 37941.67500000000291, 5950242.75 ], [ 37941.67500000000291, 5950242.825000000186265 ], [ 37941.974999999998545, 5950242.825000000186265 ], [ 37941.974999999998545, 5950242.900000000372529 ], [ 37942.275000000001455, 5950242.900000000372529 ], [ 37942.275000000001455, 5950242.974999999627471 ], [ 37942.57499999999709, 5950242.974999999627471 ], [ 37942.57499999999709, 5950243.049999999813735 ], [ 37942.80000000000291, 5950243.049999999813735 ], [ 37942.80000000000291, 5950243.125 ], [ 37943.025000000001455, 5950243.125 ], [ 37943.025000000001455, 5950243.200000000186265 ], [ 37943.25, 5950243.200000000186265 ], [ 37943.25, 5950243.275000000372529 ], [ 37943.474999999998545, 5950243.275000000372529 ], [ 37943.474999999998545, 5950243.349999999627471 ], [ 37943.625, 5950243.349999999627471 ], [ 37943.625, 5950243.424999999813735 ], [ 37943.849999999998545, 5950243.424999999813735 ], [ 37943.849999999998545, 5950243.5 ], [ 37944.07499999999709, 5950243.5 ], [ 37944.07499999999709, 5950243.575000000186265 ], [ 37944.30000000000291, 5950243.575000000186265 ], [ 37944.30000000000291, 5950243.650000000372529 ], [ 37944.525000000001455, 5950243.650000000372529 ], [ 37944.525000000001455, 5950243.724999999627471 ], [ 37944.75, 5950243.724999999627471 ], [ 37944.75, 5950243.799999999813735 ], [ 37944.900000000001455, 5950243.799999999813735 ], [ 37944.900000000001455, 5950243.875 ], [ 37945.125, 5950243.875 ], [ 37945.125, 5950243.950000000186265 ], [ 37945.275000000001455, 5950243.950000000186265 ], [ 37945.275000000001455, 5950244.025000000372529 ], [ 37945.42500000000291, 5950244.025000000372529 ], [ 37945.42500000000291, 5950244.099999999627471 ], [ 37945.650000000001455, 5950244.099999999627471 ], [ 37945.650000000001455, 5950244.174999999813735 ], [ 37945.80000000000291, 5950244.174999999813735 ], [ 37945.80000000000291, 5950244.25 ], [ 37945.94999999999709, 5950244.25 ], [ 37945.94999999999709, 5950244.325000000186265 ], [ 37946.17500000000291, 5950244.325000000186265 ], [ 37946.17500000000291, 5950244.400000000372529 ], [ 37946.32499999999709, 5950244.400000000372529 ], [ 37946.32499999999709, 5950244.474999999627471 ], [ 37946.474999999998545, 5950244.474999999627471 ], [ 37946.474999999998545, 5950244.549999999813735 ], [ 37946.625, 5950244.549999999813735 ], [ 37946.625, 5950244.625 ], [ 37946.775000000001455, 5950244.625 ], [ 37946.775000000001455, 5950244.700000000186265 ], [ 37946.92500000000291, 5950244.700000000186265 ], [ 37946.92500000000291, 5950244.775000000372529 ], [ 37947.07499999999709, 5950244.775000000372529 ], [ 37947.07499999999709, 5950244.849999999627471 ], [ 37947.224999999998545, 5950244.849999999627471 ], [ 37947.224999999998545, 5950244.924999999813735 ], [ 37947.375, 5950244.924999999813735 ], [ 37947.375, 5950245.0 ], [ 37947.525000000001455, 5950245.0 ], [ 37947.525000000001455, 5950245.075000000186265 ], [ 37947.67500000000291, 5950245.075000000186265 ], [ 37947.67500000000291, 5950245.150000000372529 ], [ 37947.75, 5950245.150000000372529 ], [ 37947.75, 5950245.224999999627471 ], [ 37947.900000000001455, 5950245.224999999627471 ], [ 37947.900000000001455, 5950245.299999999813735 ], [ 37947.974999999998545, 5950245.299999999813735 ], [ 37947.974999999998545, 5950245.375 ], [ 37948.05000000000291, 5950245.375 ], [ 37948.05000000000291, 5950245.450000000186265 ], [ 37948.19999999999709, 5950245.450000000186265 ], [ 37948.19999999999709, 5950245.525000000372529 ], [ 37948.275000000001455, 5950245.525000000372529 ], [ 37948.275000000001455, 5950245.599999999627471 ], [ 37948.349999999998545, 5950245.599999999627471 ], [ 37948.349999999998545, 5950245.674999999813735 ], [ 37948.42500000000291, 5950245.674999999813735 ], [ 37948.42500000000291, 5950245.75 ], [ 37948.57499999999709, 5950245.75 ], [ 37948.57499999999709, 5950245.825000000186265 ], [ 37948.650000000001455, 5950245.825000000186265 ], [ 37948.650000000001455, 5950245.900000000372529 ], [ 37948.724999999998545, 5950245.900000000372529 ], [ 37948.724999999998545, 5950245.974999999627471 ], [ 37948.80000000000291, 5950245.974999999627471 ], [ 37948.80000000000291, 5950246.049999999813735 ], [ 37948.94999999999709, 5950246.049999999813735 ], [ 37948.94999999999709, 5950246.125 ], [ 37949.099999999998545, 5950246.125 ], [ 37949.099999999998545, 5950246.200000000186265 ], [ 37949.17500000000291, 5950246.200000000186265 ], [ 37949.17500000000291, 5950246.275000000372529 ], [ 37949.25, 5950246.275000000372529 ], [ 37949.25, 5950246.349999999627471 ], [ 37949.400000000001455, 5950246.349999999627471 ], [ 37949.400000000001455, 5950246.424999999813735 ], [ 37949.474999999998545, 5950246.424999999813735 ], [ 37949.474999999998545, 5950246.5 ], [ 37949.55000000000291, 5950246.5 ], [ 37949.55000000000291, 5950246.575000000186265 ], [ 37949.69999999999709, 5950246.575000000186265 ], [ 37949.69999999999709, 5950246.650000000372529 ], [ 37949.775000000001455, 5950246.650000000372529 ], [ 37949.775000000001455, 5950246.724999999627471 ], [ 37949.849999999998545, 5950246.724999999627471 ], [ 37949.849999999998545, 5950246.875 ], [ 37949.92500000000291, 5950246.875 ], [ 37949.92500000000291, 5950246.950000000186265 ], [ 37950.0, 5950246.950000000186265 ], [ 37950.0, 5950247.025000000372529 ], [ 37950.07499999999709, 5950247.025000000372529 ], [ 37950.07499999999709, 5950247.099999999627471 ], [ 37950.150000000001455, 5950247.099999999627471 ], [ 37950.150000000001455, 5950247.174999999813735 ], [ 37950.224999999998545, 5950247.174999999813735 ], [ 37950.224999999998545, 5950247.325000000186265 ], [ 37950.30000000000291, 5950247.325000000186265 ], [ 37950.30000000000291, 5950247.400000000372529 ], [ 37950.375, 5950247.400000000372529 ], [ 37950.375, 5950247.549999999813735 ], [ 37950.44999999999709, 5950247.549999999813735 ], [ 37950.44999999999709, 5950247.625 ], [ 37950.525000000001455, 5950247.625 ], [ 37950.525000000001455, 5950247.775000000372529 ], [ 37950.599999999998545, 5950247.775000000372529 ], [ 37950.599999999998545, 5950247.849999999627471 ], [ 37950.67500000000291, 5950247.849999999627471 ], [ 37950.67500000000291, 5950248.0 ], [ 37950.75, 5950248.0 ], [ 37950.75, 5950248.075000000186265 ], [ 37950.82499999999709, 5950248.075000000186265 ], [ 37950.82499999999709, 5950248.224999999627471 ], [ 37950.900000000001455, 5950248.224999999627471 ], [ 37950.900000000001455, 5950248.299999999813735 ], [ 37950.974999999998545, 5950248.299999999813735 ], [ 37950.974999999998545, 5950248.450000000186265 ], [ 37951.05000000000291, 5950248.450000000186265 ], [ 37951.05000000000291, 5950248.599999999627471 ], [ 37951.125, 5950248.599999999627471 ], [ 37951.125, 5950248.75 ], [ 37951.19999999999709, 5950248.75 ], [ 37951.19999999999709, 5950248.900000000372529 ], [ 37951.275000000001455, 5950248.900000000372529 ], [ 37951.275000000001455, 5950249.125 ], [ 37951.349999999998545, 5950249.125 ], [ 37951.349999999998545, 5950249.275000000372529 ], [ 37951.42500000000291, 5950249.275000000372529 ], [ 37951.42500000000291, 5950249.5 ], [ 37951.5, 5950249.5 ], [ 37951.5, 5950249.724999999627471 ], [ 37951.57499999999709, 5950249.724999999627471 ], [ 37951.57499999999709, 5950250.099999999627471 ], [ 37951.650000000001455, 5950250.099999999627471 ], [ 37951.650000000001455, 5950250.549999999813735 ], [ 37951.724999999998545, 5950250.549999999813735 ], [ 37951.724999999998545, 5950251.0 ], [ 37951.80000000000291, 5950251.0 ], [ 37951.80000000000291, 5950251.525000000372529 ], [ 37951.875, 5950251.525000000372529 ], [ 37951.875, 5950252.125 ], [ 37951.94999999999709, 5950252.125 ], [ 37951.94999999999709, 5950252.650000000372529 ], [ 37952.025000000001455, 5950252.650000000372529 ], [ 37952.025000000001455, 5950253.325000000186265 ], [ 37952.099999999998545, 5950253.325000000186265 ], [ 37952.099999999998545, 5950254.0 ], [ 37952.17500000000291, 5950254.0 ], [ 37952.17500000000291, 5950254.974999999627471 ], [ 37952.25, 5950254.974999999627471 ], [ 37952.25, 5950256.400000000372529 ], [ 37952.32499999999709, 5950256.400000000372529 ], [ 37952.32499999999709, 5950257.450000000186265 ], [ 37952.25, 5950257.450000000186265 ], [ 37952.25, 5950257.75 ], [ 37952.17500000000291, 5950257.75 ], [ 37952.17500000000291, 5950258.049999999813735 ], [ 37952.099999999998545, 5950258.049999999813735 ], [ 37952.099999999998545, 5950258.424999999813735 ], [ 37952.025000000001455, 5950258.424999999813735 ], [ 37952.025000000001455, 5950258.724999999627471 ], [ 37951.94999999999709, 5950258.724999999627471 ], [ 37951.94999999999709, 5950259.025000000372529 ], [ 37951.875, 5950259.025000000372529 ], [ 37951.875, 5950259.25 ], [ 37951.80000000000291, 5950259.25 ], [ 37951.80000000000291, 5950259.549999999813735 ], [ 37951.724999999998545, 5950259.549999999813735 ], [ 37951.724999999998545, 5950259.849999999627471 ], [ 37951.650000000001455, 5950259.849999999627471 ], [ 37951.650000000001455, 5950260.075000000186265 ], [ 37951.57499999999709, 5950260.075000000186265 ], [ 37951.57499999999709, 5950260.299999999813735 ], [ 37951.5, 5950260.299999999813735 ], [ 37951.5, 5950260.525000000372529 ], [ 37951.42500000000291, 5950260.525000000372529 ], [ 37951.42500000000291, 5950260.825000000186265 ], [ 37951.349999999998545, 5950260.825000000186265 ], [ 37951.349999999998545, 5950261.049999999813735 ], [ 37951.275000000001455, 5950261.049999999813735 ], [ 37951.275000000001455, 5950261.275000000372529 ], [ 37951.19999999999709, 5950261.275000000372529 ], [ 37951.19999999999709, 5950261.575000000186265 ], [ 37951.125, 5950261.575000000186265 ], [ 37951.125, 5950261.799999999813735 ], [ 37951.05000000000291, 5950261.799999999813735 ], [ 37951.05000000000291, 5950262.025000000372529 ], [ 37950.974999999998545, 5950262.025000000372529 ], [ 37950.974999999998545, 5950262.25 ], [ 37950.900000000001455, 5950262.25 ], [ 37950.900000000001455, 5950262.474999999627471 ], [ 37950.82499999999709, 5950262.474999999627471 ], [ 37950.82499999999709, 5950262.700000000186265 ], [ 37950.75, 5950262.700000000186265 ], [ 37950.75, 5950262.924999999813735 ], [ 37950.67500000000291, 5950262.924999999813735 ], [ 37950.67500000000291, 5950263.150000000372529 ], [ 37950.599999999998545, 5950263.150000000372529 ], [ 37950.599999999998545, 5950263.375 ], [ 37950.525000000001455, 5950263.375 ], [ 37950.525000000001455, 5950263.599999999627471 ], [ 37950.44999999999709, 5950263.599999999627471 ], [ 37950.44999999999709, 5950263.825000000186265 ], [ 37950.375, 5950263.825000000186265 ], [ 37950.375, 5950263.974999999627471 ], [ 37950.30000000000291, 5950263.974999999627471 ], [ 37950.30000000000291, 5950264.125 ], [ 37950.224999999998545, 5950264.125 ], [ 37950.224999999998545, 5950264.275000000372529 ], [ 37950.150000000001455, 5950264.275000000372529 ], [ 37950.150000000001455, 5950264.424999999813735 ], [ 37950.07499999999709, 5950264.424999999813735 ], [ 37950.07499999999709, 5950264.575000000186265 ], [ 37950.0, 5950264.575000000186265 ], [ 37950.0, 5950264.724999999627471 ], [ 37949.92500000000291, 5950264.724999999627471 ], [ 37949.92500000000291, 5950264.875 ], [ 37949.849999999998545, 5950264.875 ], [ 37949.849999999998545, 5950265.025000000372529 ], [ 37949.775000000001455, 5950265.025000000372529 ], [ 37949.775000000001455, 5950265.099999999627471 ], [ 37949.69999999999709, 5950265.099999999627471 ], [ 37949.69999999999709, 5950265.25 ], [ 37949.625, 5950265.25 ], [ 37949.625, 5950265.400000000372529 ], [ 37949.55000000000291, 5950265.400000000372529 ], [ 37949.55000000000291, 5950265.474999999627471 ], [ 37949.474999999998545, 5950265.474999999627471 ], [ 37949.474999999998545, 5950265.625 ], [ 37949.400000000001455, 5950265.625 ], [ 37949.400000000001455, 5950265.775000000372529 ], [ 37949.32499999999709, 5950265.775000000372529 ], [ 37949.32499999999709, 5950265.924999999813735 ], [ 37949.25, 5950265.924999999813735 ], [ 37949.25, 5950266.0 ], [ 37949.17500000000291, 5950266.0 ], [ 37949.17500000000291, 5950266.150000000372529 ], [ 37949.099999999998545, 5950266.150000000372529 ], [ 37949.099999999998545, 5950266.299999999813735 ], [ 37949.025000000001455, 5950266.299999999813735 ], [ 37949.025000000001455, 5950266.450000000186265 ], [ 37948.94999999999709, 5950266.450000000186265 ], [ 37948.94999999999709, 5950266.525000000372529 ], [ 37948.875, 5950266.525000000372529 ], [ 37948.875, 5950266.674999999813735 ], [ 37948.80000000000291, 5950266.674999999813735 ], [ 37948.80000000000291, 5950266.825000000186265 ], [ 37948.724999999998545, 5950266.825000000186265 ], [ 37948.724999999998545, 5950266.900000000372529 ], [ 37948.650000000001455, 5950266.900000000372529 ], [ 37948.650000000001455, 5950267.049999999813735 ], [ 37948.57499999999709, 5950267.049999999813735 ], [ 37948.57499999999709, 5950267.125 ], [ 37948.5, 5950267.125 ], [ 37948.5, 5950267.275000000372529 ], [ 37948.42500000000291, 5950267.275000000372529 ], [ 37948.42500000000291, 5950267.424999999813735 ], [ 37948.349999999998545, 5950267.424999999813735 ], [ 37948.349999999998545, 5950267.5 ], [ 37948.275000000001455, 5950267.5 ], [ 37948.275000000001455, 5950267.650000000372529 ], [ 37948.19999999999709, 5950267.650000000372529 ], [ 37948.19999999999709, 5950267.724999999627471 ], [ 37948.125, 5950267.724999999627471 ], [ 37948.125, 5950267.875 ], [ 37948.05000000000291, 5950267.875 ], [ 37948.05000000000291, 5950267.950000000186265 ], [ 37947.974999999998545, 5950267.950000000186265 ], [ 37947.974999999998545, 5950268.025000000372529 ], [ 37947.900000000001455, 5950268.025000000372529 ], [ 37947.900000000001455, 5950268.174999999813735 ], [ 37947.82499999999709, 5950268.174999999813735 ], [ 37947.82499999999709, 5950268.25 ], [ 37947.75, 5950268.25 ], [ 37947.75, 5950268.325000000186265 ], [ 37947.67500000000291, 5950268.325000000186265 ], [ 37947.67500000000291, 5950268.400000000372529 ], [ 37947.599999999998545, 5950268.400000000372529 ], [ 37947.599999999998545, 5950268.474999999627471 ], [ 37947.525000000001455, 5950268.474999999627471 ], [ 37947.525000000001455, 5950268.625 ], [ 37947.44999999999709, 5950268.625 ], [ 37947.44999999999709, 5950268.700000000186265 ], [ 37947.375, 5950268.700000000186265 ], [ 37947.375, 5950268.775000000372529 ], [ 37947.30000000000291, 5950268.775000000372529 ], [ 37947.30000000000291, 5950268.849999999627471 ], [ 37947.224999999998545, 5950268.849999999627471 ], [ 37947.224999999998545, 5950269.0 ], [ 37947.150000000001455, 5950269.0 ], [ 37947.150000000001455, 5950269.075000000186265 ], [ 37947.07499999999709, 5950269.075000000186265 ], [ 37947.07499999999709, 5950269.150000000372529 ], [ 37947.0, 5950269.150000000372529 ], [ 37947.0, 5950269.299999999813735 ], [ 37946.92500000000291, 5950269.299999999813735 ], [ 37946.92500000000291, 5950269.375 ], [ 37946.849999999998545, 5950269.375 ], [ 37946.849999999998545, 5950269.450000000186265 ], [ 37946.775000000001455, 5950269.450000000186265 ], [ 37946.775000000001455, 5950269.599999999627471 ], [ 37946.69999999999709, 5950269.599999999627471 ], [ 37946.69999999999709, 5950269.674999999813735 ], [ 37946.625, 5950269.674999999813735 ], [ 37946.625, 5950269.75 ], [ 37946.55000000000291, 5950269.75 ], [ 37946.55000000000291, 5950269.825000000186265 ], [ 37946.474999999998545, 5950269.825000000186265 ], [ 37946.474999999998545, 5950269.974999999627471 ], [ 37946.400000000001455, 5950269.974999999627471 ], [ 37946.400000000001455, 5950270.049999999813735 ], [ 37946.32499999999709, 5950270.049999999813735 ], [ 37946.32499999999709, 5950270.125 ], [ 37946.25, 5950270.125 ], [ 37946.25, 5950270.200000000186265 ], [ 37946.17500000000291, 5950270.200000000186265 ], [ 37946.17500000000291, 5950270.275000000372529 ], [ 37946.099999999998545, 5950270.275000000372529 ], [ 37946.099999999998545, 5950270.349999999627471 ], [ 37946.025000000001455, 5950270.349999999627471 ], [ 37946.025000000001455, 5950270.424999999813735 ], [ 37945.94999999999709, 5950270.424999999813735 ], [ 37945.94999999999709, 5950270.5 ], [ 37945.875, 5950270.5 ], [ 37945.875, 5950270.575000000186265 ], [ 37945.80000000000291, 5950270.575000000186265 ], [ 37945.80000000000291, 5950270.650000000372529 ], [ 37945.650000000001455, 5950270.650000000372529 ], [ 37945.650000000001455, 5950270.724999999627471 ], [ 37945.57499999999709, 5950270.724999999627471 ], [ 37945.57499999999709, 5950270.799999999813735 ], [ 37945.42500000000291, 5950270.799999999813735 ], [ 37945.42500000000291, 5950270.875 ], [ 37945.349999999998545, 5950270.875 ], [ 37945.349999999998545, 5950270.950000000186265 ], [ 37945.275000000001455, 5950270.950000000186265 ], [ 37945.275000000001455, 5950271.025000000372529 ], [ 37945.125, 5950271.025000000372529 ], [ 37945.125, 5950271.099999999627471 ], [ 37945.05000000000291, 5950271.099999999627471 ], [ 37945.05000000000291, 5950271.174999999813735 ], [ 37944.900000000001455, 5950271.174999999813735 ], [ 37944.900000000001455, 5950271.25 ], [ 37944.82499999999709, 5950271.25 ], [ 37944.82499999999709, 5950271.325000000186265 ], [ 37944.75, 5950271.325000000186265 ], [ 37944.75, 5950271.400000000372529 ], [ 37944.599999999998545, 5950271.400000000372529 ], [ 37944.599999999998545, 5950271.474999999627471 ], [ 37944.525000000001455, 5950271.474999999627471 ], [ 37944.525000000001455, 5950271.549999999813735 ], [ 37944.44999999999709, 5950271.549999999813735 ], [ 37944.44999999999709, 5950271.625 ], [ 37944.30000000000291, 5950271.625 ], [ 37944.30000000000291, 5950271.700000000186265 ], [ 37944.224999999998545, 5950271.700000000186265 ], [ 37944.224999999998545, 5950271.775000000372529 ], [ 37944.07499999999709, 5950271.775000000372529 ], [ 37944.07499999999709, 5950271.849999999627471 ], [ 37944.0, 5950271.849999999627471 ], [ 37944.0, 5950271.924999999813735 ], [ 37943.849999999998545, 5950271.924999999813735 ], [ 37943.849999999998545, 5950272.0 ], [ 37943.775000000001455, 5950272.0 ], [ 37943.775000000001455, 5950272.075000000186265 ], [ 37943.55000000000291, 5950272.075000000186265 ], [ 37943.55000000000291, 5950272.150000000372529 ], [ 37943.32499999999709, 5950272.150000000372529 ], [ 37943.32499999999709, 5950272.224999999627471 ], [ 37943.099999999998545, 5950272.224999999627471 ], [ 37943.099999999998545, 5950272.299999999813735 ], [ 37942.80000000000291, 5950272.299999999813735 ], [ 37942.80000000000291, 5950272.375 ], [ 37942.57499999999709, 5950272.375 ], [ 37942.57499999999709, 5950272.450000000186265 ], [ 37942.349999999998545, 5950272.450000000186265 ], [ 37942.349999999998545, 5950272.525000000372529 ], [ 37942.05000000000291, 5950272.525000000372529 ], [ 37942.05000000000291, 5950272.599999999627471 ], [ 37941.599999999998545, 5950272.599999999627471 ], [ 37941.599999999998545, 5950272.674999999813735 ], [ 37941.150000000001455, 5950272.674999999813735 ], [ 37941.150000000001455, 5950272.75 ], [ 37940.69999999999709, 5950272.75 ], [ 37940.69999999999709, 5950272.825000000186265 ], [ 37940.17500000000291, 5950272.825000000186265 ], [ 37940.17500000000291, 5950272.900000000372529 ], [ 37939.650000000001455, 5950272.900000000372529 ], [ 37939.650000000001455, 5950272.974999999627471 ], [ 37939.125, 5950272.974999999627471 ], [ 37939.125, 5950273.049999999813735 ], [ 37938.599999999998545, 5950273.049999999813735 ], [ 37938.599999999998545, 5950273.125 ], [ 37938.150000000001455, 5950273.125 ], [ 37938.150000000001455, 5950273.200000000186265 ], [ 37937.55000000000291, 5950273.200000000186265 ], [ 37937.55000000000291, 5950273.275000000372529 ], [ 37936.94999999999709, 5950273.275000000372529 ], [ 37936.94999999999709, 5950273.349999999627471 ], [ 37936.57499999999709, 5950273.349999999627471 ], [ 37936.57499999999709, 5950273.424999999813735 ], [ 37936.125, 5950273.424999999813735 ], [ 37936.125, 5950273.5 ], [ 37935.67500000000291, 5950273.5 ], [ 37935.67500000000291, 5950273.575000000186265 ], [ 37935.0, 5950273.575000000186265 ], [ 37935.0, 5950273.650000000372529 ], [ 37934.25, 5950273.650000000372529 ], [ 37934.25, 5950273.724999999627471 ], [ 37933.42500000000291, 5950273.724999999627471 ], [ 37933.42500000000291, 5950273.799999999813735 ], [ 37932.525000000001455, 5950273.799999999813735 ], [ 37932.525000000001455, 5950273.875 ], [ 37931.474999999998545, 5950273.875 ], [ 37931.474999999998545, 5950273.950000000186265 ], [ 37930.275000000001455, 5950273.950000000186265 ], [ 37930.275000000001455, 5950274.025000000372529 ], [ 37929.44999999999709, 5950274.025000000372529 ], [ 37929.44999999999709, 5950274.099999999627471 ], [ 37928.775000000001455, 5950274.099999999627471 ], [ 37928.775000000001455, 5950274.174999999813735 ], [ 37928.025000000001455, 5950274.174999999813735 ], [ 37928.025000000001455, 5950274.25 ], [ 37927.57499999999709, 5950274.25 ], [ 37927.57499999999709, 5950274.325000000186265 ], [ 37927.05000000000291, 5950274.325000000186265 ], [ 37927.05000000000291, 5950274.400000000372529 ], [ 37926.599999999998545, 5950274.400000000372529 ], [ 37926.599999999998545, 5950274.474999999627471 ], [ 37926.150000000001455, 5950274.474999999627471 ], [ 37926.150000000001455, 5950274.549999999813735 ], [ 37925.69999999999709, 5950274.549999999813735 ], [ 37925.69999999999709, 5950274.625 ], [ 37925.25, 5950274.625 ], [ 37925.25, 5950274.700000000186265 ], [ 37924.80000000000291, 5950274.700000000186265 ], [ 37924.80000000000291, 5950274.775000000372529 ], [ 37924.349999999998545, 5950274.775000000372529 ], [ 37924.349999999998545, 5950274.849999999627471 ], [ 37923.974999999998545, 5950274.849999999627471 ], [ 37923.974999999998545, 5950274.924999999813735 ], [ 37923.525000000001455, 5950274.924999999813735 ], [ 37923.525000000001455, 5950275.0 ], [ 37923.150000000001455, 5950275.0 ], [ 37923.150000000001455, 5950275.075000000186265 ], [ 37922.775000000001455, 5950275.075000000186265 ], [ 37922.775000000001455, 5950275.150000000372529 ], [ 37922.400000000001455, 5950275.150000000372529 ], [ 37922.400000000001455, 5950275.224999999627471 ], [ 37920.82499999999709, 5950275.224999999627471 ], [ 37920.82499999999709, 5950275.299999999813735 ], [ 37920.150000000001455, 5950275.299999999813735 ] ] ] } }
]
}
