{
"type": "FeatureCollection",
"name": "37683E594657N_buildings",
"crs": { "type": "name", "properties": { "name": "urn:ogc:def:crs:EPSG::3776" } },
"features": [
{ "type": "Feature", "properties": { "value": 1.0, "building_id": 0, "area": 588.66187499987859 }, "geometry": { "type": "Polygon", "coordinates": [ [ [ 38289.375, 5946750.224999999627471 ], [ 38289.375, 5946750.150000000372529 ], [ 38289.07499999999709, 5946750.150000000372529 ], [ 38289.07499999999709, 5946750.075000000186265 ], [ 38288.775000000001455, 5946750.075000000186265 ], [ 38288.775000000001455, 5946750.0 ], [ 38288.474999999998545, 5946750.0 ], [ 38288.474999999998545, 5946749.924999999813735 ], [ 38288.25, 5946749.924999999813735 ], [ 38288.25, 5946749.849999999627471 ], [ 38288.099999999998545, 5946749.849999999627471 ], [ 38288.099999999998545, 5946749.775000000372529 ], [ 38287.94999999999709, 5946749.775000000372529 ], [ 38287.94999999999709, 5946749.700000000186265 ], [ 38287.80000000000291, 5946749.700000000186265 ], [ 38287.80000000000291, 5946749.625 ], [ 38287.650000000001455, 5946749.625 ], [ 38287.650000000001455, 5946749.549999999813735 ], [ 38287.5, 5946749.549999999813735 ], [ 38287.5, 5946749.474999999627471 ], [ 38287.42500000000291, 5946749.474999999627471 ], [ 38287.42500000000291, 5946749.325000000186265 ], [ 38287.349999999998545, 5946749.325000000186265 ], [ 38287.349999999998545, 5946749.25 ], [ 38287.275000000001455, 5946749.25 ], [ 38287.275000000001455, 5946749.099999999627471 ], [ 38287.19999999999709, 5946749.099999999627471 ], [ 38287.19999999999709, 5946749.025000000372529 ], [ 38287.125, 5946749.025000000372529 ], [ 38287.125, 5946748.875 ], [ 38287.05000000000291, 5946748.875 ], [ 38287.05000000000291, 5946748.724999999627471 ], [ 38286.974999999998545, 5946748.724999999627471 ], [ 38286.974999999998545, 5946748.650000000372529 ], [ 38286.900000000001455, 5946748.650000000372529 ], [ 38286.900000000001455, 5946748.5 ], [ 38286.82499999999709, 5946748.5 ], [ 38286.82499999999709, 5946748.349999999627471 ], [ 38286.75, 5946748.349999999627471 ], [ 38286.75, 5946748.200000000186265 ], [ 38286.67500000000291, 5946748.200000000186265 ], [ 38286.67500000000291, 5946748.125 ], [ 38286.599999999998545, 5946748.125 ], [ 38286.599999999998545, 5946747.974999999627471 ], [ 38286.525000000001455, 5946747.974999999627471 ], [ 38286.525000000001455, 5946747.75 ], [ 38286.44999999999709, 5946747.75 ], [ 38286.44999999999709, 5946747.599999999627471 ], [ 38286.375, 5946747.599999999627471 ], [ 38286.375, 5946747.525000000372529 ], [ 38286.30000000000291, 5946747.525000000372529 ], [ 38286.30000000000291, 5946747.375 ], [ 38286.224999999998545, 5946747.375 ], [ 38286.224999999998545, 5946747.224999999627471 ], [ 38286.150000000001455, 5946747.224999999627471 ], [ 38286.150000000001455, 5946747.150000000372529 ], [ 38286.07499999999709, 5946747.150000000372529 ], [ 38286.07499999999709, 5946747.0 ], [ 38286.0, 5946747.0 ], [ 38286.0, 5946746.924999999813735 ], [ 38285.92500000000291, 5946746.924999999813735 ], [ 38285.92500000000291, 5946746.849999999627471 ], [ 38285.849999999998545, 5946746.849999999627471 ], [ 38285.849999999998545, 5946746.775000000372529 ], [ 38285.775000000001455, 5946746.775000000372529 ], [ 38285.775000000001455, 5946746.700000000186265 ], [ 38285.69999999999709, 5946746.700000000186265 ], [ 38285.69999999999709, 5946746.625 ], [ 38285.625, 5946746.625 ], [ 38285.625, 5946746.549999999813735 ], [ 38285.55000000000291, 5946746.549999999813735 ], [ 38285.55000000000291, 5946746.400000000372529 ], [ 38285.474999999998545, 5946746.400000000372529 ], [ 38285.474999999998545, 5946746.325000000186265 ], [ 38285.400000000001455, 5946746.325000000186265 ], [ 38285.400000000001455, 5946746.174999999813735 ], [ 38285.32499999999709, 5946746.174999999813735 ], [ 38285.32499999999709, 5946746.025000000372529 ], [ 38285.25, 5946746.025000000372529 ], [ 38285.25, 5946745.724999999627471 ], [ 38285.17500000000291, 5946745.724999999627471 ], [ 38285.17500000000291, 5946745.349999999627471 ], [ 38285.099999999998545, 5946745.349999999627471 ], [ 38285.099999999998545, 5946744.900000000372529 ], [ 38285.025000000001455, 5946744.900000000372529 ], [ 38285.025000000001455, 5946744.450000000186265 ], [ 38284.94999999999709, 5946744.450000000186265 ], [ 38284.94999999999709, 5946743.924999999813735 ], [ 38284.875, 5946743.924999999813735 ], [ 38284.875, 5946743.325000000186265 ], [ 38284.80000000000291, 5946743.325000000186265 ], [ 38284.80000000000291, 5946742.724999999627471 ], [ 38284.724999999998545, 5946742.724999999627471 ], [ 38284.724999999998545, 5946742.049999999813735 ], [ 38284.650000000001455, 5946742.049999999813735 ], [ 38284.650000000001455, 5946741.599999999627471 ], [ 38284.57499999999709, 5946741.599999999627471 ], [ 38284.57499999999709, 5946741.150000000372529 ], [ 38284.5, 5946741.150000000372529 ], [ 38284.5, 5946740.775000000372529 ], [ 38284.42500000000291, 5946740.775000000372529 ], [ 38284.42500000000291, 5946740.400000000372529 ], [ 38284.349999999998545, 5946740.400000000372529 ], [ 38284.349999999998545, 5946740.025000000372529 ], [ 38284.275000000001455, 5946740.025000000372529 ], [ 38284.275000000001455, 5946739.424999999813735 ], [ 38284.19999999999709, 5946739.424999999813735 ], [ 38284.19999999999709, 5946738.825000000186265 ], [ 38284.125, 5946738.825000000186265 ], [ 38284.125, 5946738.299999999813735 ], [ 38284.05000000000291, 5946738.299999999813735 ], [ 38284.05000000000291, 5946737.924999999813735 ], [ 38284.125, 5946737.924999999813735 ], [ 38284.125, 5946736.200000000186265 ], [ 38284.19999999999709, 5946736.200000000186265 ], [ 38284.19999999999709, 5946734.25 ], [ 38284.275000000001455, 5946734.25 ], [ 38284.275000000001455, 5946727.799999999813735 ], [ 38284.19999999999709, 5946727.799999999813735 ], [ 38284.19999999999709, 5946725.099999999627471 ], [ 38284.125, 5946725.099999999627471 ], [ 38284.125, 5946724.349999999627471 ], [ 38284.19999999999709, 5946724.349999999627471 ], [ 38284.19999999999709, 5946723.599999999627471 ], [ 38284.275000000001455, 5946723.599999999627471 ], [ 38284.275000000001455, 5946722.775000000372529 ], [ 38284.349999999998545, 5946722.775000000372529 ], [ 38284.349999999998545, 5946722.400000000372529 ], [ 38284.42500000000291, 5946722.400000000372529 ], [ 38284.42500000000291, 5946722.174999999813735 ], [ 38284.5, 5946722.174999999813735 ], [ 38284.5, 5946721.950000000186265 ], [ 38284.57499999999709, 5946721.950000000186265 ], [ 38284.57499999999709, 5946721.799999999813735 ], [ 38284.650000000001455, 5946721.799999999813735 ], [ 38284.650000000001455, 5946721.650000000372529 ], [ 38284.724999999998545, 5946721.650000000372529 ], [ 38284.724999999998545, 5946721.5 ], [ 38284.80000000000291, 5946721.5 ], [ 38284.80000000000291, 5946721.349999999627471 ], [ 38284.875, 5946721.349999999627471 ], [ 38284.875, 5946721.200000000186265 ], [ 38284.94999999999709, 5946721.200000000186265 ], [ 38284.94999999999709, 5946721.049999999813735 ], [ 38285.025000000001455, 5946721.049999999813735 ], [ 38285.025000000001455, 5946720.974999999627471 ], [ 38285.099999999998545, 5946720.974999999627471 ], [ 38285.099999999998545, 5946720.825000000186265 ], [ 38285.17500000000291, 5946720.825000000186265 ], [ 38285.17500000000291, 5946720.75 ], [ 38285.25, 5946720.75 ], [ 38285.25, 5946720.674999999813735 ], [ 38285.32499999999709, 5946720.674999999813735 ], [ 38285.32499999999709, 5946720.599999999627471 ], [ 38285.400000000001455, 5946720.599999999627471 ], [ 38285.400000000001455, 5946720.525000000372529 ], [ 38285.474999999998545, 5946720.525000000372529 ], [ 38285.474999999998545, 5946720.450000000186265 ], [ 38285.55000000000291, 5946720.450000000186265 ], [ 38285.55000000000291, 5946720.375 ], [ 38285.625, 5946720.375 ], [ 38285.625, 5946720.299999999813735 ], [ 38285.775000000001455, 5946720.299999999813735 ], [ 38285.775000000001455, 5946720.224999999627471 ], [ 38285.849999999998545, 5946720.224999999627471 ], [ 38285.849999999998545, 5946720.150000000372529 ], [ 38285.92500000000291, 5946720.150000000372529 ], [ 38285.92500000000291, 5946720.075000000186265 ], [ 38286.07499999999709, 5946720.075000000186265 ], [ 38286.07499999999709, 5946720.0 ], [ 38286.150000000001455, 5946720.0 ], [ 38286.150000000001455, 5946719.924999999813735 ], [ 38286.30000000000291, 5946719.924999999813735 ], [ 38286.30000000000291, 5946719.849999999627471 ], [ 38286.375, 5946719.849999999627471 ], [ 38286.375, 5946719.775000000372529 ], [ 38286.525000000001455, 5946719.775000000372529 ], [ 38286.525000000001455, 5946719.700000000186265 ], [ 38286.599999999998545, 5946719.700000000186265 ], [ 38286.599999999998545, 5946719.625 ], [ 38286.75, 5946719.625 ], [ 38286.75, 5946719.549999999813735 ], [ 38286.82499999999709, 5946719.549999999813735 ], [ 38286.82499999999709, 5946719.474999999627471 ], [ 38286.974999999998545, 5946719.474999999627471 ], [ 38286.974999999998545, 5946719.400000000372529 ], [ 38287.05000000000291, 5946719.400000000372529 ], [ 38287.05000000000291, 5946719.325000000186265 ], [ 38287.19999999999709, 5946719.325000000186265 ], [ 38287.19999999999709, 5946719.25 ], [ 38287.275000000001455, 5946719.25 ], [ 38287.275000000001455, 5946719.174999999813735 ], [ 38287.42500000000291, 5946719.174999999813735 ], [ 38287.42500000000291, 5946719.099999999627471 ], [ 38287.57499999999709, 5946719.099999999627471 ], [ 38287.57499999999709, 5946719.025000000372529 ], [ 38287.650000000001455, 5946719.025000000372529 ], [ 38287.650000000001455, 5946718.950000000186265 ], [ 38287.80000000000291, 5946718.950000000186265 ], [ 38287.80000000000291, 5946718.875 ], [ 38287.875, 5946718.875 ], [ 38287.875, 5946718.799999999813735 ], [ 38288.025000000001455, 5946718.799999999813735 ], [ 38288.025000000001455, 5946718.724999999627471 ], [ 38288.099999999998545, 5946718.724999999627471 ], [ 38288.099999999998545, 5946718.650000000372529 ], [ 38288.25, 5946718.650000000372529 ], [ 38288.25, 5946718.575000000186265 ], [ 38288.400000000001455, 5946718.575000000186265 ], [ 38288.400000000001455, 5946718.5 ], [ 38288.55000000000291, 5946718.5 ], [ 38288.55000000000291, 5946718.424999999813735 ], [ 38288.69999999999709, 5946718.424999999813735 ], [ 38288.69999999999709, 5946718.349999999627471 ], [ 38288.92500000000291, 5946718.349999999627471 ], [ 38288.92500000000291, 5946718.275000000372529 ], [ 38289.150000000001455, 5946718.275000000372529 ], [ 38289.150000000001455, 5946718.200000000186265 ], [ 38289.375, 5946718.200000000186265 ], [ 38289.375, 5946718.125 ], [ 38289.82499999999709, 5946718.125 ], [ 38289.82499999999709, 5946718.049999999813735 ], [ 38290.349999999998545, 5946718.049999999813735 ], [ 38290.349999999998545, 5946717.974999999627471 ], [ 38290.94999999999709, 5946717.974999999627471 ], [ 38290.94999999999709, 5946717.900000000372529 ], [ 38291.55000000000291, 5946717.900000000372529 ], [ 38291.55000000000291, 5946717.825000000186265 ], [ 38292.375, 5946717.825000000186265 ], [ 38292.375, 5946717.75 ], [ 38293.19999999999709, 5946717.75 ], [ 38293.19999999999709, 5946717.674999999813735 ], [ 38294.099999999998545, 5946717.674999999813735 ], [ 38294.099999999998545, 5946717.599999999627471 ], [ 38294.92500000000291, 5946717.599999999627471 ], [ 38294.92500000000291, 5946717.525000000372529 ], [ 38297.625, 5946717.525000000372529 ], [ 38297.625, 5946717.599999999627471 ], [ 38298.525000000001455, 5946717.599999999627471 ], [ 38298.525000000001455, 5946717.674999999813735 ], [ 38299.275000000001455, 5946717.674999999813735 ], [ 38299.275000000001455, 5946717.75 ], [ 38299.650000000001455, 5946717.75 ], [ 38299.650000000001455, 5946717.825000000186265 ], [ 38299.875, 5946717.825000000186265 ], [ 38299.875, 5946717.900000000372529 ], [ 38300.17500000000291, 5946717.900000000372529 ], [ 38300.17500000000291, 5946717.974999999627471 ], [ 38300.400000000001455, 5946717.974999999627471 ], [ 38300.400000000001455, 5946718.049999999813735 ], [ 38300.625, 5946718.049999999813735 ], [ 38300.625, 5946718.125 ], [ 38300.849999999998545, 5946718.125 ], [ 38300.849999999998545, 5946718.200000000186265 ], [ 38301.0, 5946718.200000000186265 ], [ 38301.0, 5946718.275000000372529 ], [ 38301.224999999998545, 5946718.275000000372529 ], [ 38301.224999999998545, 5946718.349999999627471 ], [ 38301.30000000000291, 5946718.349999999627471 ], [ 38301.30000000000291, 5946718.424999999813735 ], [ 38301.375, 5946718.424999999813735 ], [ 38301.375, 5946718.5 ], [ 38301.44999999999709, 5946718.5 ], [ 38301.44999999999709, 5946718.575000000186265 ], [ 38301.599999999998545, 5946718.575000000186265 ], [ 38301.599999999998545, 5946718.650000000372529 ], [ 38301.67500000000291, 5946718.650000000372529 ], [ 38301.67500000000291, 5946718.799999999813735 ], [ 38301.75, 5946718.799999999813735 ], [ 38301.75, 5946718.875 ], [ 38301.82499999999709, 5946718.875 ], [ 38301.82499999999709, 5946718.950000000186265 ], [ 38301.900000000001455, 5946718.950000000186265 ], [ 38301.900000000001455, 5946719.025000000372529 ], [ 38301.974999999998545, 5946719.025000000372529 ], [ 38301.974999999998545, 5946719.099999999627471 ], [ 38302.05000000000291, 5946719.099999999627471 ], [ 38302.05000000000291, 5946719.174999999813735 ], [ 38302.125, 5946719.174999999813735 ], [ 38302.125, 5946719.25 ], [ 38302.19999999999709, 5946719.25 ], [ 38302.19999999999709, 5946719.325000000186265 ], [ 38302.275000000001455, 5946719.325000000186265 ], [ 38302.275000000001455, 5946719.400000000372529 ], [ 38302.349999999998545, 5946719.400000000372529 ], [ 38302.349999999998545, 5946719.474999999627471 ], [ 38302.42500000000291, 5946719.474999999627471 ], [ 38302.42500000000291, 5946719.549999999813735 ], [ 38302.57499999999709, 5946719.549999999813735 ], [ 38302.57499999999709, 5946719.625 ], [ 38302.650000000001455, 5946719.625 ], [ 38302.650000000001455, 5946719.700000000186265 ], [ 38302.724999999998545, 5946719.700000000186265 ], [ 38302.724999999998545, 5946719.775000000372529 ], [ 38302.80000000000291, 5946719.775000000372529 ], [ 38302.80000000000291, 5946719.849999999627471 ], [ 38302.94999999999709, 5946719.849999999627471 ], [ 38302.94999999999709, 5946719.924999999813735 ], [ 38303.025000000001455, 5946719.924999999813735 ], [ 38303.025000000001455, 5946720.0 ], [ 38303.099999999998545, 5946720.0 ], [ 38303.099999999998545, 5946720.075000000186265 ], [ 38303.25, 5946720.075000000186265 ], [ 38303.25, 5946720.150000000372529 ], [ 38303.32499999999709, 5946720.150000000372529 ], [ 38303.32499999999709, 5946720.224999999627471 ], [ 38303.400000000001455, 5946720.224999999627471 ], [ 38303.400000000001455, 5946720.299999999813735 ], [ 38303.474999999998545, 5946720.299999999813735 ], [ 38303.474999999998545, 5946720.450000000186265 ], [ 38303.55000000000291, 5946720.450000000186265 ], [ 38303.55000000000291, 5946720.525000000372529 ], [ 38303.625, 5946720.525000000372529 ], [ 38303.625, 5946720.599999999627471 ], [ 38303.69999999999709, 5946720.599999999627471 ], [ 38303.69999999999709, 5946720.825000000186265 ], [ 38303.775000000001455, 5946720.825000000186265 ], [ 38303.775000000001455, 5946720.974999999627471 ], [ 38303.849999999998545, 5946720.974999999627471 ], [ 38303.849999999998545, 5946721.125 ], [ 38303.92500000000291, 5946721.125 ], [ 38303.92500000000291, 5946721.275000000372529 ], [ 38304.0, 5946721.275000000372529 ], [ 38304.0, 5946721.5 ], [ 38304.07499999999709, 5946721.5 ], [ 38304.07499999999709, 5946721.650000000372529 ], [ 38304.150000000001455, 5946721.650000000372529 ], [ 38304.150000000001455, 5946721.799999999813735 ], [ 38304.224999999998545, 5946721.799999999813735 ], [ 38304.224999999998545, 5946721.950000000186265 ], [ 38304.30000000000291, 5946721.950000000186265 ], [ 38304.30000000000291, 5946722.099999999627471 ], [ 38304.375, 5946722.099999999627471 ], [ 38304.375, 5946722.325000000186265 ], [ 38304.44999999999709, 5946722.325000000186265 ], [ 38304.44999999999709, 5946722.474999999627471 ], [ 38304.525000000001455, 5946722.474999999627471 ], [ 38304.525000000001455, 5946722.700000000186265 ], [ 38304.599999999998545, 5946722.700000000186265 ], [ 38304.599999999998545, 5946723.0 ], [ 38304.67500000000291, 5946723.0 ], [ 38304.67500000000291, 5946723.299999999813735 ], [ 38304.75, 5946723.299999999813735 ], [ 38304.75, 5946723.599999999627471 ], [ 38304.82499999999709, 5946723.599999999627471 ], [ 38304.82499999999709, 5946723.825000000186265 ], [ 38304.900000000001455, 5946723.825000000186265 ], [ 38304.900000000001455, 5946724.125 ], [ 38304.974999999998545, 5946724.125 ], [ 38304.974999999998545, 5946724.349999999627471 ], [ 38305.05000000000291, 5946724.349999999627471 ], [ 38305.05000000000291, 5946724.799999999813735 ], [ 38304.974999999998545, 5946724.799999999813735 ], [ 38304.974999999998545, 5946725.099999999627471 ], [ 38304.900000000001455, 5946725.099999999627471 ], [ 38304.900000000001455, 5946725.474999999627471 ], [ 38304.82499999999709, 5946725.474999999627471 ], [ 38304.82499999999709, 5946725.849999999627471 ], [ 38304.75, 5946725.849999999627471 ], [ 38304.75, 5946726.299999999813735 ], [ 38304.67500000000291, 5946726.299999999813735 ], [ 38304.67500000000291, 5946726.75 ], [ 38304.599999999998545, 5946726.75 ], [ 38304.599999999998545, 5946727.275000000372529 ], [ 38304.525000000001455, 5946727.275000000372529 ], [ 38304.525000000001455, 5946727.875 ], [ 38304.44999999999709, 5946727.875 ], [ 38304.44999999999709, 5946728.549999999813735 ], [ 38304.375, 5946728.549999999813735 ], [ 38304.375, 5946729.450000000186265 ], [ 38304.30000000000291, 5946729.450000000186265 ], [ 38304.30000000000291, 5946730.5 ], [ 38304.224999999998545, 5946730.5 ], [ 38304.224999999998545, 5946732.0 ], [ 38304.150000000001455, 5946732.0 ], [ 38304.150000000001455, 5946733.799999999813735 ], [ 38304.07499999999709, 5946733.799999999813735 ], [ 38304.07499999999709, 5946735.525000000372529 ], [ 38304.0, 5946735.525000000372529 ], [ 38304.0, 5946737.25 ], [ 38303.92500000000291, 5946737.25 ], [ 38303.92500000000291, 5946738.674999999813735 ], [ 38303.849999999998545, 5946738.674999999813735 ], [ 38303.849999999998545, 5946739.875 ], [ 38303.775000000001455, 5946739.875 ], [ 38303.775000000001455, 5946740.700000000186265 ], [ 38303.69999999999709, 5946740.700000000186265 ], [ 38303.69999999999709, 5946741.450000000186265 ], [ 38303.625, 5946741.450000000186265 ], [ 38303.625, 5946742.125 ], [ 38303.55000000000291, 5946742.125 ], [ 38303.55000000000291, 5946742.650000000372529 ], [ 38303.474999999998545, 5946742.650000000372529 ], [ 38303.474999999998545, 5946743.174999999813735 ], [ 38303.400000000001455, 5946743.174999999813735 ], [ 38303.400000000001455, 5946743.625 ], [ 38303.32499999999709, 5946743.625 ], [ 38303.32499999999709, 5946744.075000000186265 ], [ 38303.25, 5946744.075000000186265 ], [ 38303.25, 5946744.375 ], [ 38303.17500000000291, 5946744.375 ], [ 38303.17500000000291, 5946744.674999999813735 ], [ 38303.099999999998545, 5946744.674999999813735 ], [ 38303.099999999998545, 5946744.900000000372529 ], [ 38303.025000000001455, 5946744.900000000372529 ], [ 38303.025000000001455, 5946745.049999999813735 ], [ 38302.94999999999709, 5946745.049999999813735 ], [ 38302.94999999999709, 5946745.275000000372529 ], [ 38302.875, 5946745.275000000372529 ], [ 38302.875, 5946745.424999999813735 ], [ 38302.80000000000291, 5946745.424999999813735 ], [ 38302.80000000000291, 5946745.650000000372529 ], [ 38302.724999999998545, 5946745.650000000372529 ], [ 38302.724999999998545, 5946745.875 ], [ 38302.650000000001455, 5946745.875 ], [ 38302.650000000001455, 5946746.025000000372529 ], [ 38302.57499999999709, 5946746.025000000372529 ], [ 38302.57499999999709, 5946746.099999999627471 ], [ 38302.42500000000291, 5946746.099999999627471 ], [ 38302.42500000000291, 5946746.174999999813735 ], [ 38302.349999999998545, 5946746.174999999813735 ], [ 38302.349999999998545, 5946746.25 ], [ 38302.19999999999709, 5946746.25 ], [ 38302.19999999999709, 5946746.325000000186265 ], [ 38302.125, 5946746.325000000186265 ], [ 38302.125, 5946746.400000000372529 ], [ 38302.05000000000291, 5946746.400000000372529 ], [ 38302.05000000000291, 5946746.474999999627471 ], [ 38301.900000000001455, 5946746.474999999627471 ], [ 38301.900000000001455, 5946746.549999999813735 ], [ 38301.82499999999709, 5946746.549999999813735 ], [ 38301.82499999999709, 5946746.625 ], [ 38301.67500000000291, 5946746.625 ], [ 38301.67500000000291, 5946746.700000000186265 ], [ 38301.599999999998545, 5946746.700000000186265 ], [ 38301.599999999998545, 5946746.775000000372529 ], [ 38301.44999999999709, 5946746.775000000372529 ], [ 38301.44999999999709, 5946746.849999999627471 ], [ 38301.375, 5946746.849999999627471 ], [ 38301.375, 5946746.924999999813735 ], [ 38301.30000000000291, 5946746.924999999813735 ], [ 38301.30000000000291, 5946747.0 ], [ 38301.150000000001455, 5946747.0 ], [ 38301.150000000001455, 5946747.075000000186265 ], [ 38301.0, 5946747.075000000186265 ], [ 38301.0, 5946747.150000000372529 ], [ 38300.92500000000291, 5946747.150000000372529 ], [ 38300.92500000000291, 5946747.224999999627471 ], [ 38300.775000000001455, 5946747.224999999627471 ], [ 38300.775000000001455, 5946747.299999999813735 ], [ 38300.69999999999709, 5946747.299999999813735 ], [ 38300.69999999999709, 5946747.375 ], [ 38300.55000000000291, 5946747.375 ], [ 38300.55000000000291, 5946747.450000000186265 ], [ 38300.474999999998545, 5946747.450000000186265 ], [ 38300.474999999998545, 5946747.525000000372529 ], [ 38300.400000000001455, 5946747.525000000372529 ], [ 38300.400000000001455, 5946747.599999999627471 ], [ 38300.32499999999709, 5946747.599999999627471 ], [ 38300.32499999999709, 5946747.674999999813735 ], [ 38300.25, 5946747.674999999813735 ], [ 38300.25, 5946747.75 ], [ 38300.17500000000291, 5946747.75 ], [ 38300.17500000000291, 5946747.825000000186265 ], [ 38300.099999999998545, 5946747.825000000186265 ], [ 38300.099999999998545, 5946747.900000000372529 ], [ 38300.025000000001455, 5946747.900000000372529 ], [ 38300.025000000001455, 5946747.974999999627471 ], [ 38299.94999999999709, 5946747.974999999627471 ], [ 38299.94999999999709, 5946748.049999999813735 ], [ 38299.80000000000291, 5946748.049999999813735 ], [ 38299.80000000000291, 5946748.125 ], [ 38299.650000000001455, 5946748.125 ], [ 38299.650000000001455, 5946748.200000000186265 ], [ 38299.5, 5946748.200000000186265 ], [ 38299.5, 5946748.275000000372529 ], [ 38299.349999999998545, 5946748.275000000372529 ], [ 38299.349999999998545, 5946748.349999999627471 ], [ 38299.125, 5946748.349999999627471 ], [ 38299.125, 5946748.424999999813735 ], [ 38298.67500000000291, 5946748.424999999813735 ], [ 38298.67500000000291, 5946748.5 ], [ 38298.224999999998545, 5946748.5 ], [ 38298.224999999998545, 5946748.575000000186265 ], [ 38297.69999999999709, 5946748.575000000186265 ], [ 38297.69999999999709, 5946748.650000000372529 ], [ 38297.25, 5946748.650000000372529 ], [ 38297.25, 5946748.724999999627471 ], [ 38296.5, 5946748.724999999627471 ], [ 38296.5, 5946748.799999999813735 ], [ 38295.900000000001455, 5946748.799999999813735 ], [ 38295.900000000001455, 5946748.875 ], [ 38295.224999999998545, 5946748.875 ], [ 38295.224999999998545, 5946748.950000000186265 ], [ 38294.69999999999709, 5946748.950000000186265 ], [ 38294.69999999999709, 5946749.025000000372529 ], [ 38294.25, 5946749.025000000372529 ], [ 38294.25, 5946749.099999999627471 ], [ 38293.875, 5946749.099999999627471 ], [ 38293.875, 5946749.174999999813735 ], [ 38293.5, 5946749.174999999813735 ], [ 38293.5, 5946749.25 ], [ 38293.19999999999709, 5946749.25 ], [ 38293.19999999999709, 5946749.325000000186265 ], [ 38292.900000000001455, 5946749.325000000186265 ], [ 38292.900000000001455, 5946749.400000000372529 ], [ 38292.599999999998545, 5946749.400000000372529 ], [ 38292.599999999998545, 5946749.474999999627471 ], [ 38292.375, 5946749.474999999627471 ], [ 38292.375, 5946749.549999999813735 ], [ 38292.150000000001455, 5946749.549999999813735 ], [ 38292.150000000001455, 5946749.625 ], [ 38292.0, 5946749.625 ], [ 38292.0, 5946749.700000000186265 ], [ 38291.775000000001455, 5946749.700000000186265 ], [ 38291.775000000001455, 5946749.775000000372529 ], [ 38291.625, 5946749.775000000372529 ], [ 38291.625, 5946749.849999999627471 ], [ 38291.474999999998545, 5946749.849999999627471 ], [ 38291.474999999998545, 5946749.924999999813735 ], [ 38291.025000000001455, 5946749.924999999813735 ], [ 38291.025000000001455, 5946750.0 ], [ 38290.57499999999709, 5946750.0 ], [ 38290.57499999999709, 5946750.075000000186265 ], [ 38290.05000000000291, 5946750.075000000186265 ], [ 38290.05000000000291, 5946750.150000000372529 ], [ 38289.599999999998545, 5946750.150000000372529 ], [ 38289.599999999998545, 5946750.224999999627471 ], [ 38289.375, 5946750.224999999627471 ] ] ] } },
{ "type": "Feature", "properties": { "value": 1.0, "building_id": 1, "area": 318.35250000217854 }, "geometry": { "type": "Polygon", "coordinates": [ [ [ 38258.099999999998545, 5946662.099999999627471 ], [ 38258.099999999998545, 5946662.025000000372529 ], [ 38257.94999999999709, 5946662.025000000372529 ], [ 38257.94999999999709, 5946661.950000000186265 ], [ 38257.724999999998545, 5946661.950000000186265 ], [ 38257.724999999998545, 5946661.875 ], [ 38257.57499999999709, 5946661.875 ], [ 38257.57499999999709, 5946661.799999999813735 ], [ 38257.349999999998545, 5946661.799999999813735 ], [ 38257.349999999998545, 5946661.724999999627471 ], [ 38257.19999999999709, 5946661.724999999627471 ], [ 38257.19999999999709, 5946661.650000000372529 ], [ 38256.974999999998545, 5946661.650000000372529 ], [ 38256.974999999998545, 5946661.575000000186265 ], [ 38256.67500000000291, 5946661.575000000186265 ], [ 38256.67500000000291, 5946661.5 ], [ 38256.44999999999709, 5946661.5 ], [ 38256.44999999999709, 5946661.424999999813735 ], [ 38256.224999999998545, 5946661.424999999813735 ], [ 38256.224999999998545, 5946661.349999999627471 ], [ 38256.07499999999709, 5946661.349999999627471 ], [ 38256.07499999999709, 5946661.275000000372529 ], [ 38256.0, 5946661.275000000372529 ], [ 38256.0, 5946661.200000000186265 ], [ 38255.92500000000291, 5946661.200000000186265 ], [ 38255.92500000000291, 5946661.125 ], [ 38255.775000000001455, 5946661.125 ], [ 38255.775000000001455, 5946661.049999999813735 ], [ 38255.69999999999709, 5946661.049999999813735 ], [ 38255.69999999999709, 5946660.974999999627471 ], [ 38255.55000000000291, 5946660.974999999627471 ], [ 38255.55000000000291, 5946660.900000000372529 ], [ 38255.474999999998545, 5946660.900000000372529 ], [ 38255.474999999998545, 5946660.825000000186265 ], [ 38255.400000000001455, 5946660.825000000186265 ], [ 38255.400000000001455, 5946660.75 ], [ 38255.32499999999709, 5946660.75 ], [ 38255.32499999999709, 5946660.674999999813735 ], [ 38255.25, 5946660.674999999813735 ], [ 38255.25, 5946660.599999999627471 ], [ 38255.099999999998545, 5946660.599999999627471 ], [ 38255.099999999998545, 5946660.525000000372529 ], [ 38255.025000000001455, 5946660.525000000372529 ], [ 38255.025000000001455, 5946660.450000000186265 ], [ 38254.94999999999709, 5946660.450000000186265 ], [ 38254.94999999999709, 5946660.375 ], [ 38254.875, 5946660.375 ], [ 38254.875, 5946660.299999999813735 ], [ 38254.80000000000291, 5946660.299999999813735 ], [ 38254.80000000000291, 5946660.224999999627471 ], [ 38254.724999999998545, 5946660.224999999627471 ], [ 38254.724999999998545, 5946660.150000000372529 ], [ 38254.650000000001455, 5946660.150000000372529 ], [ 38254.650000000001455, 5946660.075000000186265 ], [ 38254.57499999999709, 5946660.075000000186265 ], [ 38254.57499999999709, 5946659.924999999813735 ], [ 38254.5, 5946659.924999999813735 ], [ 38254.5, 5946659.849999999627471 ], [ 38254.42500000000291, 5946659.849999999627471 ], [ 38254.42500000000291, 5946659.775000000372529 ], [ 38254.349999999998545, 5946659.775000000372529 ], [ 38254.349999999998545, 5946659.700000000186265 ], [ 38254.275000000001455, 5946659.700000000186265 ], [ 38254.275000000001455, 5946659.549999999813735 ], [ 38254.19999999999709, 5946659.549999999813735 ], [ 38254.19999999999709, 5946659.474999999627471 ], [ 38254.125, 5946659.474999999627471 ], [ 38254.125, 5946659.325000000186265 ], [ 38254.05000000000291, 5946659.325000000186265 ], [ 38254.05000000000291, 5946659.174999999813735 ], [ 38253.974999999998545, 5946659.174999999813735 ], [ 38253.974999999998545, 5946659.025000000372529 ], [ 38253.900000000001455, 5946659.025000000372529 ], [ 38253.900000000001455, 5946658.875 ], [ 38253.82499999999709, 5946658.875 ], [ 38253.82499999999709, 5946658.650000000372529 ], [ 38253.75, 5946658.650000000372529 ], [ 38253.75, 5946658.5 ], [ 38253.67500000000291, 5946658.5 ], [ 38253.67500000000291, 5946658.275000000372529 ], [ 38253.599999999998545, 5946658.275000000372529 ], [ 38253.599999999998545, 5946658.049999999813735 ], [ 38253.525000000001455, 5946658.049999999813735 ], [ 38253.525000000001455, 5946657.674999999813735 ], [ 38253.44999999999709, 5946657.674999999813735 ], [ 38253.44999999999709, 5946657.375 ], [ 38253.375, 5946657.375 ], [ 38253.375, 5946657.075000000186265 ], [ 38253.30000000000291, 5946657.075000000186265 ], [ 38253.30000000000291, 5946656.849999999627471 ], [ 38253.224999999998545, 5946656.849999999627471 ], [ 38253.224999999998545, 5946656.625 ], [ 38253.150000000001455, 5946656.625 ], [ 38253.150000000001455, 5946656.325000000186265 ], [ 38253.07499999999709, 5946656.325000000186265 ], [ 38253.07499999999709, 5946656.174999999813735 ], [ 38253.0, 5946656.174999999813735 ], [ 38253.0, 5946655.950000000186265 ], [ 38252.92500000000291, 5946655.950000000186265 ], [ 38252.92500000000291, 5946655.724999999627471 ], [ 38252.849999999998545, 5946655.724999999627471 ], [ 38252.849999999998545, 5946655.575000000186265 ], [ 38252.775000000001455, 5946655.575000000186265 ], [ 38252.775000000001455, 5946655.424999999813735 ], [ 38252.69999999999709, 5946655.424999999813735 ], [ 38252.69999999999709, 5946655.275000000372529 ], [ 38252.625, 5946655.275000000372529 ], [ 38252.625, 5946655.125 ], [ 38252.55000000000291, 5946655.125 ], [ 38252.55000000000291, 5946655.049999999813735 ], [ 38252.474999999998545, 5946655.049999999813735 ], [ 38252.474999999998545, 5946654.900000000372529 ], [ 38252.400000000001455, 5946654.900000000372529 ], [ 38252.400000000001455, 5946654.825000000186265 ], [ 38252.32499999999709, 5946654.825000000186265 ], [ 38252.32499999999709, 5946654.674999999813735 ], [ 38252.25, 5946654.674999999813735 ], [ 38252.25, 5946654.450000000186265 ], [ 38252.17500000000291, 5946654.450000000186265 ], [ 38252.17500000000291, 5946654.224999999627471 ], [ 38252.099999999998545, 5946654.224999999627471 ], [ 38252.099999999998545, 5946654.150000000372529 ], [ 38252.17500000000291, 5946654.150000000372529 ], [ 38252.17500000000291, 5946653.775000000372529 ], [ 38252.25, 5946653.775000000372529 ], [ 38252.25, 5946653.400000000372529 ], [ 38252.32499999999709, 5946653.400000000372529 ], [ 38252.32499999999709, 5946653.099999999627471 ], [ 38252.400000000001455, 5946653.099999999627471 ], [ 38252.400000000001455, 5946652.875 ], [ 38252.474999999998545, 5946652.875 ], [ 38252.474999999998545, 5946652.650000000372529 ], [ 38252.55000000000291, 5946652.650000000372529 ], [ 38252.55000000000291, 5946652.424999999813735 ], [ 38252.625, 5946652.424999999813735 ], [ 38252.625, 5946652.200000000186265 ], [ 38252.69999999999709, 5946652.200000000186265 ], [ 38252.69999999999709, 5946652.125 ], [ 38252.775000000001455, 5946652.125 ], [ 38252.775000000001455, 5946652.049999999813735 ], [ 38252.849999999998545, 5946652.049999999813735 ], [ 38252.849999999998545, 5946651.974999999627471 ], [ 38252.92500000000291, 5946651.974999999627471 ], [ 38252.92500000000291, 5946651.900000000372529 ], [ 38253.0, 5946651.900000000372529 ], [ 38253.0, 5946651.825000000186265 ], [ 38253.07499999999709, 5946651.825000000186265 ], [ 38253.07499999999709, 5946651.75 ], [ 38253.150000000001455, 5946651.75 ], [ 38253.150000000001455, 5946651.674999999813735 ], [ 38253.224999999998545, 5946651.674999999813735 ], [ 38253.224999999998545, 5946651.525000000372529 ], [ 38253.30000000000291, 5946651.525000000372529 ], [ 38253.30000000000291, 5946651.450000000186265 ], [ 38253.375, 5946651.450000000186265 ], [ 38253.375, 5946651.375 ], [ 38253.44999999999709, 5946651.375 ], [ 38253.44999999999709, 5946651.299999999813735 ], [ 38253.525000000001455, 5946651.299999999813735 ], [ 38253.525000000001455, 5946651.224999999627471 ], [ 38253.599999999998545, 5946651.224999999627471 ], [ 38253.599999999998545, 5946651.150000000372529 ], [ 38253.67500000000291, 5946651.150000000372529 ], [ 38253.67500000000291, 5946651.075000000186265 ], [ 38253.75, 5946651.075000000186265 ], [ 38253.75, 5946650.924999999813735 ], [ 38253.82499999999709, 5946650.924999999813735 ], [ 38253.82499999999709, 5946650.849999999627471 ], [ 38253.900000000001455, 5946650.849999999627471 ], [ 38253.900000000001455, 5946650.775000000372529 ], [ 38253.974999999998545, 5946650.775000000372529 ], [ 38253.974999999998545, 5946650.700000000186265 ], [ 38254.05000000000291, 5946650.700000000186265 ], [ 38254.05000000000291, 5946650.625 ], [ 38254.125, 5946650.625 ], [ 38254.125, 5946650.474999999627471 ], [ 38254.19999999999709, 5946650.474999999627471 ], [ 38254.19999999999709, 5946650.400000000372529 ], [ 38254.275000000001455, 5946650.400000000372529 ], [ 38254.275000000001455, 5946650.325000000186265 ], [ 38254.349999999998545, 5946650.325000000186265 ], [ 38254.349999999998545, 5946650.25 ], [ 38254.42500000000291, 5946650.25 ], [ 38254.42500000000291, 5946650.174999999813735 ], [ 38254.5, 5946650.174999999813735 ], [ 38254.5, 5946650.099999999627471 ], [ 38254.57499999999709, 5946650.099999999627471 ], [ 38254.57499999999709, 5946650.025000000372529 ], [ 38254.650000000001455, 5946650.025000000372529 ], [ 38254.650000000001455, 5946649.950000000186265 ], [ 38254.724999999998545, 5946649.950000000186265 ], [ 38254.724999999998545, 5946649.875 ], [ 38254.80000000000291, 5946649.875 ], [ 38254.80000000000291, 5946649.799999999813735 ], [ 38254.875, 5946649.799999999813735 ], [ 38254.875, 5946649.724999999627471 ], [ 38254.94999999999709, 5946649.724999999627471 ], [ 38254.94999999999709, 5946649.650000000372529 ], [ 38255.099999999998545, 5946649.650000000372529 ], [ 38255.099999999998545, 5946649.575000000186265 ], [ 38255.17500000000291, 5946649.575000000186265 ], [ 38255.17500000000291, 5946649.5 ], [ 38255.25, 5946649.5 ], [ 38255.25, 5946649.424999999813735 ], [ 38255.400000000001455, 5946649.424999999813735 ], [ 38255.400000000001455, 5946649.349999999627471 ], [ 38255.55000000000291, 5946649.349999999627471 ], [ 38255.55000000000291, 5946649.275000000372529 ], [ 38255.625, 5946649.275000000372529 ], [ 38255.625, 5946649.200000000186265 ], [ 38255.775000000001455, 5946649.200000000186265 ], [ 38255.775000000001455, 5946649.125 ], [ 38255.92500000000291, 5946649.125 ], [ 38255.92500000000291, 5946649.049999999813735 ], [ 38256.07499999999709, 5946649.049999999813735 ], [ 38256.07499999999709, 5946648.974999999627471 ], [ 38256.375, 5946648.974999999627471 ], [ 38256.375, 5946648.900000000372529 ], [ 38257.125, 5946648.900000000372529 ], [ 38257.125, 5946648.825000000186265 ], [ 38257.80000000000291, 5946648.825000000186265 ], [ 38257.80000000000291, 5946648.75 ], [ 38263.57499999999709, 5946648.75 ], [ 38263.57499999999709, 5946648.674999999813735 ], [ 38267.92500000000291, 5946648.674999999813735 ], [ 38267.92500000000291, 5946648.599999999627471 ], [ 38271.44999999999709, 5946648.599999999627471 ], [ 38271.44999999999709, 5946648.525000000372529 ], [ 38272.05000000000291, 5946648.525000000372529 ], [ 38272.05000000000291, 5946648.599999999627471 ], [ 38273.625, 5946648.599999999627471 ], [ 38273.625, 5946648.674999999813735 ], [ 38274.150000000001455, 5946648.674999999813735 ], [ 38274.150000000001455, 5946648.75 ], [ 38274.599999999998545, 5946648.75 ], [ 38274.599999999998545, 5946648.825000000186265 ], [ 38275.125, 5946648.825000000186265 ], [ 38275.125, 5946648.900000000372529 ], [ 38275.650000000001455, 5946648.900000000372529 ], [ 38275.650000000001455, 5946648.974999999627471 ], [ 38276.025000000001455, 5946648.974999999627471 ], [ 38276.025000000001455, 5946649.049999999813735 ], [ 38276.400000000001455, 5946649.049999999813735 ], [ 38276.400000000001455, 5946649.125 ], [ 38276.849999999998545, 5946649.125 ], [ 38276.849999999998545, 5946649.200000000186265 ], [ 38277.224999999998545, 5946649.200000000186265 ], [ 38277.224999999998545, 5946649.275000000372529 ], [ 38277.67500000000291, 5946649.275000000372529 ], [ 38277.67500000000291, 5946649.349999999627471 ], [ 38277.900000000001455, 5946649.349999999627471 ], [ 38277.900000000001455, 5946649.424999999813735 ], [ 38278.125, 5946649.424999999813735 ], [ 38278.125, 5946649.5 ], [ 38278.275000000001455, 5946649.5 ], [ 38278.275000000001455, 5946649.575000000186265 ], [ 38278.5, 5946649.575000000186265 ], [ 38278.5, 5946649.650000000372529 ], [ 38278.650000000001455, 5946649.650000000372529 ], [ 38278.650000000001455, 5946649.724999999627471 ], [ 38278.80000000000291, 5946649.724999999627471 ], [ 38278.80000000000291, 5946649.799999999813735 ], [ 38278.94999999999709, 5946649.799999999813735 ], [ 38278.94999999999709, 5946649.875 ], [ 38279.099999999998545, 5946649.875 ], [ 38279.099999999998545, 5946649.950000000186265 ], [ 38279.25, 5946649.950000000186265 ], [ 38279.25, 5946650.025000000372529 ], [ 38279.400000000001455, 5946650.025000000372529 ], [ 38279.400000000001455, 5946650.099999999627471 ], [ 38279.55000000000291, 5946650.099999999627471 ], [ 38279.55000000000291, 5946650.174999999813735 ], [ 38279.625, 5946650.174999999813735 ], [ 38279.625, 5946650.25 ], [ 38279.775000000001455, 5946650.25 ], [ 38279.775000000001455, 5946650.400000000372529 ], [ 38279.849999999998545, 5946650.400000000372529 ], [ 38279.849999999998545, 5946650.474999999627471 ], [ 38279.92500000000291, 5946650.474999999627471 ], [ 38279.92500000000291, 5946650.549999999813735 ], [ 38280.0, 5946650.549999999813735 ], [ 38280.0, 5946650.625 ], [ 38280.07499999999709, 5946650.625 ], [ 38280.07499999999709, 5946650.700000000186265 ], [ 38280.150000000001455, 5946650.700000000186265 ], [ 38280.150000000001455, 5946650.849999999627471 ], [ 38280.224999999998545, 5946650.849999999627471 ], [ 38280.224999999998545, 5946650.924999999813735 ], [ 38280.30000000000291, 5946650.924999999813735 ], [ 38280.30000000000291, 5946651.0 ], [ 38280.375, 5946651.0 ], [ 38280.375, 5946651.075000000186265 ], [ 38280.525000000001455, 5946651.075000000186265 ], [ 38280.525000000001455, 5946651.150000000372529 ], [ 38280.599999999998545, 5946651.150000000372529 ], [ 38280.599999999998545, 5946651.224999999627471 ], [ 38280.67500000000291, 5946651.224999999627471 ], [ 38280.67500000000291, 5946651.299999999813735 ], [ 38280.75, 5946651.299999999813735 ], [ 38280.75, 5946651.375 ], [ 38280.900000000001455, 5946651.375 ], [ 38280.900000000001455, 5946651.450000000186265 ], [ 38280.974999999998545, 5946651.450000000186265 ], [ 38280.974999999998545, 5946651.525000000372529 ], [ 38281.125, 5946651.525000000372529 ], [ 38281.125, 5946651.599999999627471 ], [ 38281.19999999999709, 5946651.599999999627471 ], [ 38281.19999999999709, 5946651.674999999813735 ], [ 38281.349999999998545, 5946651.674999999813735 ], [ 38281.349999999998545, 5946651.75 ], [ 38281.5, 5946651.75 ], [ 38281.5, 5946651.825000000186265 ], [ 38281.650000000001455, 5946651.825000000186265 ], [ 38281.650000000001455, 5946651.900000000372529 ], [ 38281.724999999998545, 5946651.900000000372529 ], [ 38281.724999999998545, 5946651.974999999627471 ], [ 38281.80000000000291, 5946651.974999999627471 ], [ 38281.80000000000291, 5946652.049999999813735 ], [ 38281.875, 5946652.049999999813735 ], [ 38281.875, 5946652.125 ], [ 38281.94999999999709, 5946652.125 ], [ 38281.94999999999709, 5946652.200000000186265 ], [ 38282.025000000001455, 5946652.200000000186265 ], [ 38282.025000000001455, 5946653.099999999627471 ], [ 38282.099999999998545, 5946653.099999999627471 ], [ 38282.099999999998545, 5946654.375 ], [ 38282.025000000001455, 5946654.375 ], [ 38282.025000000001455, 5946654.525000000372529 ], [ 38281.94999999999709, 5946654.525000000372529 ], [ 38281.94999999999709, 5946654.674999999813735 ], [ 38281.875, 5946654.674999999813735 ], [ 38281.875, 5946654.825000000186265 ], [ 38281.80000000000291, 5946654.825000000186265 ], [ 38281.80000000000291, 5946654.974999999627471 ], [ 38281.724999999998545, 5946654.974999999627471 ], [ 38281.724999999998545, 5946655.125 ], [ 38281.650000000001455, 5946655.125 ], [ 38281.650000000001455, 5946655.275000000372529 ], [ 38281.57499999999709, 5946655.275000000372529 ], [ 38281.57499999999709, 5946655.349999999627471 ], [ 38281.5, 5946655.349999999627471 ], [ 38281.5, 5946655.424999999813735 ], [ 38281.42500000000291, 5946655.424999999813735 ], [ 38281.42500000000291, 5946655.5 ], [ 38281.349999999998545, 5946655.5 ], [ 38281.349999999998545, 5946655.650000000372529 ], [ 38281.275000000001455, 5946655.650000000372529 ], [ 38281.275000000001455, 5946655.724999999627471 ], [ 38281.19999999999709, 5946655.724999999627471 ], [ 38281.19999999999709, 5946655.799999999813735 ], [ 38281.125, 5946655.799999999813735 ], [ 38281.125, 5946655.950000000186265 ], [ 38281.05000000000291, 5946655.950000000186265 ], [ 38281.05000000000291, 5946656.025000000372529 ], [ 38280.974999999998545, 5946656.025000000372529 ], [ 38280.974999999998545, 5946656.174999999813735 ], [ 38280.900000000001455, 5946656.174999999813735 ], [ 38280.900000000001455, 5946656.25 ], [ 38280.82499999999709, 5946656.25 ], [ 38280.82499999999709, 5946656.325000000186265 ], [ 38280.75, 5946656.325000000186265 ], [ 38280.75, 5946656.474999999627471 ], [ 38280.67500000000291, 5946656.474999999627471 ], [ 38280.67500000000291, 5946656.549999999813735 ], [ 38280.599999999998545, 5946656.549999999813735 ], [ 38280.599999999998545, 5946656.700000000186265 ], [ 38280.525000000001455, 5946656.700000000186265 ], [ 38280.525000000001455, 5946656.775000000372529 ], [ 38280.44999999999709, 5946656.775000000372529 ], [ 38280.44999999999709, 5946656.924999999813735 ], [ 38280.375, 5946656.924999999813735 ], [ 38280.375, 5946657.0 ], [ 38280.30000000000291, 5946657.0 ], [ 38280.30000000000291, 5946657.150000000372529 ], [ 38280.224999999998545, 5946657.150000000372529 ], [ 38280.224999999998545, 5946657.224999999627471 ], [ 38280.150000000001455, 5946657.224999999627471 ], [ 38280.150000000001455, 5946657.375 ], [ 38280.07499999999709, 5946657.375 ], [ 38280.07499999999709, 5946657.525000000372529 ], [ 38280.0, 5946657.525000000372529 ], [ 38280.0, 5946657.674999999813735 ], [ 38279.92500000000291, 5946657.674999999813735 ], [ 38279.92500000000291, 5946657.825000000186265 ], [ 38279.849999999998545, 5946657.825000000186265 ], [ 38279.849999999998545, 5946657.974999999627471 ], [ 38279.775000000001455, 5946657.974999999627471 ], [ 38279.775000000001455, 5946658.125 ], [ 38279.69999999999709, 5946658.125 ], [ 38279.69999999999709, 5946658.200000000186265 ], [ 38279.55000000000291, 5946658.200000000186265 ], [ 38279.55000000000291, 5946658.275000000372529 ], [ 38279.32499999999709, 5946658.275000000372529 ], [ 38279.32499999999709, 5946658.349999999627471 ], [ 38279.17500000000291, 5946658.349999999627471 ], [ 38279.17500000000291, 5946658.424999999813735 ], [ 38278.94999999999709, 5946658.424999999813735 ], [ 38278.94999999999709, 5946658.5 ], [ 38278.724999999998545, 5946658.5 ], [ 38278.724999999998545, 5946658.575000000186265 ], [ 38278.5, 5946658.575000000186265 ], [ 38278.5, 5946658.650000000372529 ], [ 38278.349999999998545, 5946658.650000000372529 ], [ 38278.349999999998545, 5946658.724999999627471 ], [ 38278.125, 5946658.724999999627471 ], [ 38278.125, 5946658.799999999813735 ], [ 38277.82499999999709, 5946658.799999999813735 ], [ 38277.82499999999709, 5946658.875 ], [ 38277.599999999998545, 5946658.875 ], [ 38277.599999999998545, 5946658.950000000186265 ], [ 38277.375, 5946658.950000000186265 ], [ 38277.375, 5946659.025000000372529 ], [ 38277.07499999999709, 5946659.025000000372529 ], [ 38277.07499999999709, 5946659.099999999627471 ], [ 38276.849999999998545, 5946659.099999999627471 ], [ 38276.849999999998545, 5946659.174999999813735 ], [ 38276.625, 5946659.174999999813735 ], [ 38276.625, 5946659.25 ], [ 38276.474999999998545, 5946659.25 ], [ 38276.474999999998545, 5946659.325000000186265 ], [ 38276.25, 5946659.325000000186265 ], [ 38276.25, 5946659.400000000372529 ], [ 38276.025000000001455, 5946659.400000000372529 ], [ 38276.025000000001455, 5946659.474999999627471 ], [ 38275.875, 5946659.474999999627471 ], [ 38275.875, 5946659.549999999813735 ], [ 38275.724999999998545, 5946659.549999999813735 ], [ 38275.724999999998545, 5946659.625 ], [ 38275.5, 5946659.625 ], [ 38275.5, 5946659.700000000186265 ], [ 38275.275000000001455, 5946659.700000000186265 ], [ 38275.275000000001455, 5946659.775000000372529 ], [ 38275.125, 5946659.775000000372529 ], [ 38275.125, 5946659.849999999627471 ], [ 38274.974999999998545, 5946659.849999999627471 ], [ 38274.974999999998545, 5946659.924999999813735 ], [ 38274.82499999999709, 5946659.924999999813735 ], [ 38274.82499999999709, 5946660.0 ], [ 38274.67500000000291, 5946660.0 ], [ 38274.67500000000291, 5946660.075000000186265 ], [ 38274.44999999999709, 5946660.075000000186265 ], [ 38274.44999999999709, 5946660.150000000372529 ], [ 38274.224999999998545, 5946660.150000000372529 ], [ 38274.224999999998545, 5946660.224999999627471 ], [ 38274.0, 5946660.224999999627471 ], [ 38274.0, 5946660.299999999813735 ], [ 38273.474999999998545, 5946660.299999999813735 ], [ 38273.474999999998545, 5946660.375 ], [ 38272.724999999998545, 5946660.375 ], [ 38272.724999999998545, 5946660.450000000186265 ], [ 38271.82499999999709, 5946660.450000000186265 ], [ 38271.82499999999709, 5946660.525000000372529 ], [ 38269.19999999999709, 5946660.525000000372529 ], [ 38269.19999999999709, 5946660.599999999627471 ], [ 38266.875, 5946660.599999999627471 ], [ 38266.875, 5946660.674999999813735 ], [ 38265.44999999999709, 5946660.674999999813735 ], [ 38265.44999999999709, 5946660.75 ], [ 38264.474999999998545, 5946660.75 ], [ 38264.474999999998545, 5946660.825000000186265 ], [ 38263.650000000001455, 5946660.825000000186265 ], [ 38263.650000000001455, 5946660.900000000372529 ], [ 38262.974999999998545, 5946660.900000000372529 ], [ 38262.974999999998545, 5946660.974999999627471 ], [ 38262.30000000000291, 5946660.974999999627471 ], [ 38262.30000000000291, 5946661.049999999813735 ], [ 38261.775000000001455, 5946661.049999999813735 ], [ 38261.775000000001455, 5946661.125 ], [ 38261.25, 5946661.125 ], [ 38261.25, 5946661.200000000186265 ], [ 38260.80000000000291, 5946661.200000000186265 ], [ 38260.80000000000291, 5946661.275000000372529 ], [ 38260.349999999998545, 5946661.275000000372529 ], [ 38260.349999999998545, 5946661.349999999627471 ], [ 38259.974999999998545, 5946661.349999999627471 ], [ 38259.974999999998545, 5946661.424999999813735 ], [ 38259.75, 5946661.424999999813735 ], [ 38259.75, 5946661.5 ], [ 38259.525000000001455, 5946661.5 ], [ 38259.525000000001455, 5946661.575000000186265 ], [ 38259.30000000000291, 5946661.575000000186265 ], [ 38259.30000000000291, 5946661.650000000372529 ], [ 38259.07499999999709, 5946661.650000000372529 ], [ 38259.07499999999709, 5946661.724999999627471 ], [ 38258.92500000000291, 5946661.724999999627471 ], [ 38258.92500000000291, 5946661.799999999813735 ], [ 38258.775000000001455, 5946661.799999999813735 ], [ 38258.775000000001455, 5946661.875 ], [ 38258.55000000000291, 5946661.875 ], [ 38258.55000000000291, 5946661.950000000186265 ], [ 38258.400000000001455, 5946661.950000000186265 ], [ 38258.400000000001455, 5946662.025000000372529 ], [ 38258.32499999999709, 5946662.025000000372529 ], [ 38258.32499999999709, 5946662.099999999627471 ], [ 38258.099999999998545, 5946662.099999999627471 ] ] ] } }
]
}
