{
"type": "FeatureCollection",
"name": "37683E595257N_buildings",
"crs": { "type": "name", "properties": { "name": "urn:ogc:def:crs:EPSG::3776" } },
"features": [
{ "type": "Feature", "properties": { "value": 1.0, "building_id": 0, "area": 338.03437500132128 }, "geometry": { "type": "Polygon", "coordinates": [ [ [ 37974.67500000000291, 5953231.650000000372529 ], [ 37974.67500000000291, 5953231.575000000186265 ], [ 37973.025000000001455, 5953231.575000000186265 ], [ 37973.025000000001455, 5953231.5 ], [ 37971.224999999998545, 5953231.5 ], [ 37971.224999999998545, 5953231.424999999813735 ], [ 37969.57499999999709, 5953231.424999999813735 ], [ 37969.57499999999709, 5953231.349999999627471 ], [ 37969.05000000000291, 5953231.349999999627471 ], [ 37969.05000000000291, 5953231.275000000372529 ], [ 37968.900000000001455, 5953231.275000000372529 ], [ 37968.900000000001455, 5953231.200000000186265 ], [ 37968.75, 5953231.200000000186265 ], [ 37968.75, 5953231.125 ], [ 37968.599999999998545, 5953231.125 ], [ 37968.599999999998545, 5953231.049999999813735 ], [ 37968.525000000001455, 5953231.049999999813735 ], [ 37968.525000000001455, 5953230.974999999627471 ], [ 37968.375, 5953230.974999999627471 ], [ 37968.375, 5953230.900000000372529 ], [ 37968.30000000000291, 5953230.900000000372529 ], [ 37968.30000000000291, 5953230.825000000186265 ], [ 37968.224999999998545, 5953230.825000000186265 ], [ 37968.224999999998545, 5953230.75 ], [ 37968.150000000001455, 5953230.75 ], [ 37968.150000000001455, 5953230.674999999813735 ], [ 37968.07499999999709, 5953230.674999999813735 ], [ 37968.07499999999709, 5953230.599999999627471 ], [ 37968.0, 5953230.599999999627471 ], [ 37968.0, 5953230.525000000372529 ], [ 37967.92500000000291, 5953230.525000000372529 ], [ 37967.92500000000291, 5953230.375 ], [ 37967.849999999998545, 5953230.375 ], [ 37967.849999999998545, 5953230.299999999813735 ], [ 37967.775000000001455, 5953230.299999999813735 ], [ 37967.775000000001455, 5953230.224999999627471 ], [ 37967.69999999999709, 5953230.224999999627471 ], [ 37967.69999999999709, 5953230.150000000372529 ], [ 37967.625, 5953230.150000000372529 ], [ 37967.625, 5953230.075000000186265 ], [ 37967.55000000000291, 5953230.075000000186265 ], [ 37967.55000000000291, 5953230.0 ], [ 37967.474999999998545, 5953230.0 ], [ 37967.474999999998545, 5953229.924999999813735 ], [ 37967.400000000001455, 5953229.924999999813735 ], [ 37967.400000000001455, 5953229.849999999627471 ], [ 37967.32499999999709, 5953229.849999999627471 ], [ 37967.32499999999709, 5953229.775000000372529 ], [ 37967.17500000000291, 5953229.775000000372529 ], [ 37967.17500000000291, 5953229.700000000186265 ], [ 37967.099999999998545, 5953229.700000000186265 ], [ 37967.099999999998545, 5953229.625 ], [ 37967.025000000001455, 5953229.625 ], [ 37967.025000000001455, 5953229.549999999813735 ], [ 37966.94999999999709, 5953229.549999999813735 ], [ 37966.94999999999709, 5953229.474999999627471 ], [ 37966.875, 5953229.474999999627471 ], [ 37966.875, 5953229.400000000372529 ], [ 37966.80000000000291, 5953229.400000000372529 ], [ 37966.80000000000291, 5953229.325000000186265 ], [ 37966.724999999998545, 5953229.325000000186265 ], [ 37966.724999999998545, 5953229.174999999813735 ], [ 37966.650000000001455, 5953229.174999999813735 ], [ 37966.650000000001455, 5953229.099999999627471 ], [ 37966.57499999999709, 5953229.099999999627471 ], [ 37966.57499999999709, 5953228.950000000186265 ], [ 37966.5, 5953228.950000000186265 ], [ 37966.5, 5953228.875 ], [ 37966.42500000000291, 5953228.875 ], [ 37966.42500000000291, 5953228.724999999627471 ], [ 37966.349999999998545, 5953228.724999999627471 ], [ 37966.349999999998545, 5953228.575000000186265 ], [ 37966.275000000001455, 5953228.575000000186265 ], [ 37966.275000000001455, 5953228.275000000372529 ], [ 37966.19999999999709, 5953228.275000000372529 ], [ 37966.19999999999709, 5953227.75 ], [ 37966.125, 5953227.75 ], [ 37966.125, 5953227.299999999813735 ], [ 37966.05000000000291, 5953227.299999999813735 ], [ 37966.05000000000291, 5953226.775000000372529 ], [ 37965.974999999998545, 5953226.775000000372529 ], [ 37965.974999999998545, 5953226.25 ], [ 37965.900000000001455, 5953226.25 ], [ 37965.900000000001455, 5953225.875 ], [ 37965.82499999999709, 5953225.875 ], [ 37965.82499999999709, 5953225.424999999813735 ], [ 37965.75, 5953225.424999999813735 ], [ 37965.75, 5953225.049999999813735 ], [ 37965.67500000000291, 5953225.049999999813735 ], [ 37965.67500000000291, 5953224.75 ], [ 37965.599999999998545, 5953224.75 ], [ 37965.599999999998545, 5953224.375 ], [ 37965.525000000001455, 5953224.375 ], [ 37965.525000000001455, 5953223.849999999627471 ], [ 37965.44999999999709, 5953223.849999999627471 ], [ 37965.44999999999709, 5953223.325000000186265 ], [ 37965.375, 5953223.325000000186265 ], [ 37965.375, 5953222.875 ], [ 37965.30000000000291, 5953222.875 ], [ 37965.30000000000291, 5953222.200000000186265 ], [ 37965.375, 5953222.200000000186265 ], [ 37965.375, 5953221.674999999813735 ], [ 37965.44999999999709, 5953221.674999999813735 ], [ 37965.44999999999709, 5953221.075000000186265 ], [ 37965.525000000001455, 5953221.075000000186265 ], [ 37965.525000000001455, 5953220.400000000372529 ], [ 37965.599999999998545, 5953220.400000000372529 ], [ 37965.599999999998545, 5953219.049999999813735 ], [ 37965.67500000000291, 5953219.049999999813735 ], [ 37965.67500000000291, 5953216.724999999627471 ], [ 37965.75, 5953216.724999999627471 ], [ 37965.75, 5953215.0 ], [ 37965.82499999999709, 5953215.0 ], [ 37965.82499999999709, 5953213.799999999813735 ], [ 37965.900000000001455, 5953213.799999999813735 ], [ 37965.900000000001455, 5953212.674999999813735 ], [ 37965.974999999998545, 5953212.674999999813735 ], [ 37965.974999999998545, 5953211.549999999813735 ], [ 37966.05000000000291, 5953211.549999999813735 ], [ 37966.05000000000291, 5953210.424999999813735 ], [ 37966.125, 5953210.424999999813735 ], [ 37966.125, 5953209.375 ], [ 37966.19999999999709, 5953209.375 ], [ 37966.19999999999709, 5953208.775000000372529 ], [ 37966.275000000001455, 5953208.775000000372529 ], [ 37966.275000000001455, 5953208.625 ], [ 37966.349999999998545, 5953208.625 ], [ 37966.349999999998545, 5953208.474999999627471 ], [ 37966.42500000000291, 5953208.474999999627471 ], [ 37966.42500000000291, 5953208.325000000186265 ], [ 37966.5, 5953208.325000000186265 ], [ 37966.5, 5953208.25 ], [ 37966.57499999999709, 5953208.25 ], [ 37966.57499999999709, 5953208.099999999627471 ], [ 37966.650000000001455, 5953208.099999999627471 ], [ 37966.650000000001455, 5953208.025000000372529 ], [ 37966.724999999998545, 5953208.025000000372529 ], [ 37966.724999999998545, 5953207.950000000186265 ], [ 37966.80000000000291, 5953207.950000000186265 ], [ 37966.80000000000291, 5953207.799999999813735 ], [ 37966.875, 5953207.799999999813735 ], [ 37966.875, 5953207.724999999627471 ], [ 37966.94999999999709, 5953207.724999999627471 ], [ 37966.94999999999709, 5953207.650000000372529 ], [ 37967.099999999998545, 5953207.650000000372529 ], [ 37967.099999999998545, 5953207.575000000186265 ], [ 37967.17500000000291, 5953207.575000000186265 ], [ 37967.17500000000291, 5953207.5 ], [ 37967.25, 5953207.5 ], [ 37967.25, 5953207.424999999813735 ], [ 37967.32499999999709, 5953207.424999999813735 ], [ 37967.32499999999709, 5953207.349999999627471 ], [ 37967.400000000001455, 5953207.349999999627471 ], [ 37967.400000000001455, 5953207.275000000372529 ], [ 37967.55000000000291, 5953207.275000000372529 ], [ 37967.55000000000291, 5953207.200000000186265 ], [ 37967.625, 5953207.200000000186265 ], [ 37967.625, 5953207.049999999813735 ], [ 37967.69999999999709, 5953207.049999999813735 ], [ 37967.69999999999709, 5953206.974999999627471 ], [ 37967.775000000001455, 5953206.974999999627471 ], [ 37967.775000000001455, 5953206.900000000372529 ], [ 37967.849999999998545, 5953206.900000000372529 ], [ 37967.849999999998545, 5953206.825000000186265 ], [ 37967.92500000000291, 5953206.825000000186265 ], [ 37967.92500000000291, 5953206.75 ], [ 37968.0, 5953206.75 ], [ 37968.0, 5953206.674999999813735 ], [ 37968.07499999999709, 5953206.674999999813735 ], [ 37968.07499999999709, 5953206.599999999627471 ], [ 37968.150000000001455, 5953206.599999999627471 ], [ 37968.150000000001455, 5953206.525000000372529 ], [ 37968.224999999998545, 5953206.525000000372529 ], [ 37968.224999999998545, 5953206.450000000186265 ], [ 37968.30000000000291, 5953206.450000000186265 ], [ 37968.30000000000291, 5953206.375 ], [ 37968.44999999999709, 5953206.375 ], [ 37968.44999999999709, 5953206.299999999813735 ], [ 37968.525000000001455, 5953206.299999999813735 ], [ 37968.525000000001455, 5953206.224999999627471 ], [ 37968.67500000000291, 5953206.224999999627471 ], [ 37968.67500000000291, 5953206.150000000372529 ], [ 37968.82499999999709, 5953206.150000000372529 ], [ 37968.82499999999709, 5953206.075000000186265 ], [ 37968.974999999998545, 5953206.075000000186265 ], [ 37968.974999999998545, 5953206.0 ], [ 37969.349999999998545, 5953206.0 ], [ 37969.349999999998545, 5953205.924999999813735 ], [ 37971.525000000001455, 5953205.924999999813735 ], [ 37971.525000000001455, 5953205.849999999627471 ], [ 37974.0, 5953205.849999999627471 ], [ 37974.0, 5953205.775000000372529 ], [ 37975.349999999998545, 5953205.775000000372529 ], [ 37975.349999999998545, 5953205.849999999627471 ], [ 37976.25, 5953205.849999999627471 ], [ 37976.25, 5953205.924999999813735 ], [ 37977.0, 5953205.924999999813735 ], [ 37977.0, 5953206.0 ], [ 37977.07499999999709, 5953206.0 ], [ 37977.07499999999709, 5953206.075000000186265 ], [ 37977.224999999998545, 5953206.075000000186265 ], [ 37977.224999999998545, 5953206.150000000372529 ], [ 37977.30000000000291, 5953206.150000000372529 ], [ 37977.30000000000291, 5953206.224999999627471 ], [ 37977.44999999999709, 5953206.224999999627471 ], [ 37977.44999999999709, 5953206.299999999813735 ], [ 37977.525000000001455, 5953206.299999999813735 ], [ 37977.525000000001455, 5953206.375 ], [ 37977.599999999998545, 5953206.375 ], [ 37977.599999999998545, 5953206.450000000186265 ], [ 37977.67500000000291, 5953206.450000000186265 ], [ 37977.67500000000291, 5953206.525000000372529 ], [ 37977.75, 5953206.525000000372529 ], [ 37977.75, 5953206.674999999813735 ], [ 37977.82499999999709, 5953206.674999999813735 ], [ 37977.82499999999709, 5953206.75 ], [ 37977.900000000001455, 5953206.75 ], [ 37977.900000000001455, 5953206.900000000372529 ], [ 37977.974999999998545, 5953206.900000000372529 ], [ 37977.974999999998545, 5953206.974999999627471 ], [ 37978.05000000000291, 5953206.974999999627471 ], [ 37978.05000000000291, 5953207.125 ], [ 37978.125, 5953207.125 ], [ 37978.125, 5953207.275000000372529 ], [ 37978.19999999999709, 5953207.275000000372529 ], [ 37978.19999999999709, 5953207.349999999627471 ], [ 37978.275000000001455, 5953207.349999999627471 ], [ 37978.275000000001455, 5953207.5 ], [ 37978.349999999998545, 5953207.5 ], [ 37978.349999999998545, 5953207.575000000186265 ], [ 37978.42500000000291, 5953207.575000000186265 ], [ 37978.42500000000291, 5953207.650000000372529 ], [ 37978.5, 5953207.650000000372529 ], [ 37978.5, 5953207.799999999813735 ], [ 37978.57499999999709, 5953207.799999999813735 ], [ 37978.57499999999709, 5953207.875 ], [ 37978.650000000001455, 5953207.875 ], [ 37978.650000000001455, 5953207.950000000186265 ], [ 37978.80000000000291, 5953207.950000000186265 ], [ 37978.80000000000291, 5953208.025000000372529 ], [ 37978.875, 5953208.025000000372529 ], [ 37978.875, 5953208.099999999627471 ], [ 37978.94999999999709, 5953208.099999999627471 ], [ 37978.94999999999709, 5953208.174999999813735 ], [ 37979.025000000001455, 5953208.174999999813735 ], [ 37979.025000000001455, 5953208.25 ], [ 37979.099999999998545, 5953208.25 ], [ 37979.099999999998545, 5953208.325000000186265 ], [ 37979.17500000000291, 5953208.325000000186265 ], [ 37979.17500000000291, 5953208.400000000372529 ], [ 37979.25, 5953208.400000000372529 ], [ 37979.25, 5953208.474999999627471 ], [ 37979.32499999999709, 5953208.474999999627471 ], [ 37979.32499999999709, 5953208.549999999813735 ], [ 37979.400000000001455, 5953208.549999999813735 ], [ 37979.400000000001455, 5953208.700000000186265 ], [ 37979.474999999998545, 5953208.700000000186265 ], [ 37979.474999999998545, 5953208.775000000372529 ], [ 37979.55000000000291, 5953208.775000000372529 ], [ 37979.55000000000291, 5953209.075000000186265 ], [ 37979.625, 5953209.075000000186265 ], [ 37979.625, 5953209.599999999627471 ], [ 37979.69999999999709, 5953209.599999999627471 ], [ 37979.69999999999709, 5953210.125 ], [ 37979.775000000001455, 5953210.125 ], [ 37979.775000000001455, 5953210.724999999627471 ], [ 37979.849999999998545, 5953210.724999999627471 ], [ 37979.849999999998545, 5953211.775000000372529 ], [ 37979.92500000000291, 5953211.775000000372529 ], [ 37979.92500000000291, 5953212.974999999627471 ], [ 37980.0, 5953212.974999999627471 ], [ 37980.0, 5953214.625 ], [ 37980.07499999999709, 5953214.625 ], [ 37980.07499999999709, 5953218.150000000372529 ], [ 37980.0, 5953218.150000000372529 ], [ 37980.0, 5953222.724999999627471 ], [ 37979.92500000000291, 5953222.724999999627471 ], [ 37979.92500000000291, 5953224.525000000372529 ], [ 37979.849999999998545, 5953224.525000000372529 ], [ 37979.849999999998545, 5953224.900000000372529 ], [ 37979.775000000001455, 5953224.900000000372529 ], [ 37979.775000000001455, 5953225.200000000186265 ], [ 37979.69999999999709, 5953225.200000000186265 ], [ 37979.69999999999709, 5953225.5 ], [ 37979.625, 5953225.5 ], [ 37979.625, 5953225.799999999813735 ], [ 37979.55000000000291, 5953225.799999999813735 ], [ 37979.55000000000291, 5953226.025000000372529 ], [ 37979.474999999998545, 5953226.025000000372529 ], [ 37979.474999999998545, 5953226.25 ], [ 37979.400000000001455, 5953226.25 ], [ 37979.400000000001455, 5953226.400000000372529 ], [ 37979.32499999999709, 5953226.400000000372529 ], [ 37979.32499999999709, 5953226.549999999813735 ], [ 37979.25, 5953226.549999999813735 ], [ 37979.25, 5953226.700000000186265 ], [ 37979.17500000000291, 5953226.700000000186265 ], [ 37979.17500000000291, 5953226.775000000372529 ], [ 37979.099999999998545, 5953226.775000000372529 ], [ 37979.099999999998545, 5953226.924999999813735 ], [ 37979.025000000001455, 5953226.924999999813735 ], [ 37979.025000000001455, 5953227.0 ], [ 37978.94999999999709, 5953227.0 ], [ 37978.94999999999709, 5953227.075000000186265 ], [ 37978.875, 5953227.075000000186265 ], [ 37978.875, 5953227.150000000372529 ], [ 37978.80000000000291, 5953227.150000000372529 ], [ 37978.80000000000291, 5953227.299999999813735 ], [ 37978.724999999998545, 5953227.299999999813735 ], [ 37978.724999999998545, 5953227.375 ], [ 37978.650000000001455, 5953227.375 ], [ 37978.650000000001455, 5953227.525000000372529 ], [ 37978.57499999999709, 5953227.525000000372529 ], [ 37978.57499999999709, 5953227.599999999627471 ], [ 37978.5, 5953227.599999999627471 ], [ 37978.5, 5953227.75 ], [ 37978.42500000000291, 5953227.75 ], [ 37978.42500000000291, 5953227.900000000372529 ], [ 37978.349999999998545, 5953227.900000000372529 ], [ 37978.349999999998545, 5953228.049999999813735 ], [ 37978.275000000001455, 5953228.049999999813735 ], [ 37978.275000000001455, 5953228.200000000186265 ], [ 37978.19999999999709, 5953228.200000000186265 ], [ 37978.19999999999709, 5953228.424999999813735 ], [ 37978.125, 5953228.424999999813735 ], [ 37978.125, 5953228.799999999813735 ], [ 37978.05000000000291, 5953228.799999999813735 ], [ 37978.05000000000291, 5953229.099999999627471 ], [ 37977.974999999998545, 5953229.099999999627471 ], [ 37977.974999999998545, 5953229.474999999627471 ], [ 37977.900000000001455, 5953229.474999999627471 ], [ 37977.900000000001455, 5953229.775000000372529 ], [ 37977.82499999999709, 5953229.775000000372529 ], [ 37977.82499999999709, 5953230.075000000186265 ], [ 37977.75, 5953230.075000000186265 ], [ 37977.75, 5953230.375 ], [ 37977.67500000000291, 5953230.375 ], [ 37977.67500000000291, 5953230.525000000372529 ], [ 37977.599999999998545, 5953230.525000000372529 ], [ 37977.599999999998545, 5953230.599999999627471 ], [ 37977.525000000001455, 5953230.599999999627471 ], [ 37977.525000000001455, 5953230.75 ], [ 37977.44999999999709, 5953230.75 ], [ 37977.44999999999709, 5953230.825000000186265 ], [ 37977.375, 5953230.825000000186265 ], [ 37977.375, 5953230.900000000372529 ], [ 37977.30000000000291, 5953230.900000000372529 ], [ 37977.30000000000291, 5953230.974999999627471 ], [ 37977.224999999998545, 5953230.974999999627471 ], [ 37977.224999999998545, 5953231.049999999813735 ], [ 37977.150000000001455, 5953231.049999999813735 ], [ 37977.150000000001455, 5953231.125 ], [ 37977.07499999999709, 5953231.125 ], [ 37977.07499999999709, 5953231.200000000186265 ], [ 37976.92500000000291, 5953231.200000000186265 ], [ 37976.92500000000291, 5953231.275000000372529 ], [ 37976.625, 5953231.275000000372529 ], [ 37976.625, 5953231.349999999627471 ], [ 37976.25, 5953231.349999999627471 ], [ 37976.25, 5953231.424999999813735 ], [ 37975.875, 5953231.424999999813735 ], [ 37975.875, 5953231.5 ], [ 37975.5, 5953231.5 ], [ 37975.5, 5953231.575000000186265 ], [ 37975.05000000000291, 5953231.575000000186265 ], [ 37975.05000000000291, 5953231.650000000372529 ], [ 37974.67500000000291, 5953231.650000000372529 ] ] ] } },
{ "type": "Feature", "properties": { "value": 1.0, "building_id": 1, "area": 616.21312499914916 }, "geometry": { "type": "Polygon", "coordinates": [ [ [ 38342.099999999998545, 5952933.150000000372529 ], [ 38342.099999999998545, 5952933.075000000186265 ], [ 38341.650000000001455, 5952933.075000000186265 ], [ 38341.650000000001455, 5952933.0 ], [ 38341.125, 5952933.0 ], [ 38341.125, 5952932.924999999813735 ], [ 38340.67500000000291, 5952932.924999999813735 ], [ 38340.67500000000291, 5952932.849999999627471 ], [ 38340.150000000001455, 5952932.849999999627471 ], [ 38340.150000000001455, 5952932.775000000372529 ], [ 38339.625, 5952932.775000000372529 ], [ 38339.625, 5952932.700000000186265 ], [ 38339.099999999998545, 5952932.700000000186265 ], [ 38339.099999999998545, 5952932.625 ], [ 38338.650000000001455, 5952932.625 ], [ 38338.650000000001455, 5952932.549999999813735 ], [ 38338.125, 5952932.549999999813735 ], [ 38338.125, 5952932.474999999627471 ], [ 38337.599999999998545, 5952932.474999999627471 ], [ 38337.599999999998545, 5952932.400000000372529 ], [ 38337.07499999999709, 5952932.400000000372529 ], [ 38337.07499999999709, 5952932.325000000186265 ], [ 38336.625, 5952932.325000000186265 ], [ 38336.625, 5952932.25 ], [ 38336.25, 5952932.25 ], [ 38336.25, 5952932.174999999813735 ], [ 38336.17500000000291, 5952932.174999999813735 ], [ 38336.17500000000291, 5952932.099999999627471 ], [ 38336.099999999998545, 5952932.099999999627471 ], [ 38336.099999999998545, 5952932.025000000372529 ], [ 38335.94999999999709, 5952932.025000000372529 ], [ 38335.94999999999709, 5952931.950000000186265 ], [ 38335.875, 5952931.950000000186265 ], [ 38335.875, 5952931.875 ], [ 38335.80000000000291, 5952931.875 ], [ 38335.80000000000291, 5952931.799999999813735 ], [ 38335.724999999998545, 5952931.799999999813735 ], [ 38335.724999999998545, 5952931.724999999627471 ], [ 38335.650000000001455, 5952931.724999999627471 ], [ 38335.650000000001455, 5952931.650000000372529 ], [ 38335.57499999999709, 5952931.650000000372529 ], [ 38335.57499999999709, 5952931.575000000186265 ], [ 38335.5, 5952931.575000000186265 ], [ 38335.5, 5952931.424999999813735 ], [ 38335.42500000000291, 5952931.424999999813735 ], [ 38335.42500000000291, 5952931.349999999627471 ], [ 38335.349999999998545, 5952931.349999999627471 ], [ 38335.349999999998545, 5952931.200000000186265 ], [ 38335.275000000001455, 5952931.200000000186265 ], [ 38335.275000000001455, 5952931.125 ], [ 38335.19999999999709, 5952931.125 ], [ 38335.19999999999709, 5952931.049999999813735 ], [ 38335.125, 5952931.049999999813735 ], [ 38335.125, 5952930.974999999627471 ], [ 38335.05000000000291, 5952930.974999999627471 ], [ 38335.05000000000291, 5952930.900000000372529 ], [ 38334.974999999998545, 5952930.900000000372529 ], [ 38334.974999999998545, 5952930.825000000186265 ], [ 38334.900000000001455, 5952930.825000000186265 ], [ 38334.900000000001455, 5952930.75 ], [ 38334.82499999999709, 5952930.75 ], [ 38334.82499999999709, 5952930.674999999813735 ], [ 38334.75, 5952930.674999999813735 ], [ 38334.75, 5952930.599999999627471 ], [ 38334.599999999998545, 5952930.599999999627471 ], [ 38334.599999999998545, 5952930.525000000372529 ], [ 38334.525000000001455, 5952930.525000000372529 ], [ 38334.525000000001455, 5952930.450000000186265 ], [ 38334.375, 5952930.450000000186265 ], [ 38334.375, 5952930.375 ], [ 38334.30000000000291, 5952930.375 ], [ 38334.30000000000291, 5952930.299999999813735 ], [ 38334.224999999998545, 5952930.299999999813735 ], [ 38334.224999999998545, 5952930.224999999627471 ], [ 38334.150000000001455, 5952930.224999999627471 ], [ 38334.150000000001455, 5952930.150000000372529 ], [ 38334.07499999999709, 5952930.150000000372529 ], [ 38334.07499999999709, 5952930.0 ], [ 38334.0, 5952930.0 ], [ 38334.0, 5952929.924999999813735 ], [ 38333.92500000000291, 5952929.924999999813735 ], [ 38333.92500000000291, 5952929.849999999627471 ], [ 38333.849999999998545, 5952929.849999999627471 ], [ 38333.849999999998545, 5952929.700000000186265 ], [ 38333.775000000001455, 5952929.700000000186265 ], [ 38333.775000000001455, 5952929.549999999813735 ], [ 38333.69999999999709, 5952929.549999999813735 ], [ 38333.69999999999709, 5952929.174999999813735 ], [ 38333.625, 5952929.174999999813735 ], [ 38333.625, 5952928.724999999627471 ], [ 38333.55000000000291, 5952928.724999999627471 ], [ 38333.55000000000291, 5952928.275000000372529 ], [ 38333.474999999998545, 5952928.275000000372529 ], [ 38333.474999999998545, 5952927.75 ], [ 38333.400000000001455, 5952927.75 ], [ 38333.400000000001455, 5952925.049999999813735 ], [ 38333.474999999998545, 5952925.049999999813735 ], [ 38333.474999999998545, 5952924.299999999813735 ], [ 38333.55000000000291, 5952924.299999999813735 ], [ 38333.55000000000291, 5952923.700000000186265 ], [ 38333.625, 5952923.700000000186265 ], [ 38333.625, 5952923.400000000372529 ], [ 38333.69999999999709, 5952923.400000000372529 ], [ 38333.69999999999709, 5952923.099999999627471 ], [ 38333.775000000001455, 5952923.099999999627471 ], [ 38333.775000000001455, 5952922.875 ], [ 38333.849999999998545, 5952922.875 ], [ 38333.849999999998545, 5952922.650000000372529 ], [ 38333.92500000000291, 5952922.650000000372529 ], [ 38333.92500000000291, 5952922.424999999813735 ], [ 38334.0, 5952922.424999999813735 ], [ 38334.0, 5952922.275000000372529 ], [ 38334.07499999999709, 5952922.275000000372529 ], [ 38334.07499999999709, 5952922.049999999813735 ], [ 38334.150000000001455, 5952922.049999999813735 ], [ 38334.150000000001455, 5952921.900000000372529 ], [ 38334.224999999998545, 5952921.900000000372529 ], [ 38334.224999999998545, 5952921.75 ], [ 38334.30000000000291, 5952921.75 ], [ 38334.30000000000291, 5952921.674999999813735 ], [ 38334.375, 5952921.674999999813735 ], [ 38334.375, 5952921.599999999627471 ], [ 38334.44999999999709, 5952921.599999999627471 ], [ 38334.44999999999709, 5952921.525000000372529 ], [ 38334.525000000001455, 5952921.525000000372529 ], [ 38334.525000000001455, 5952921.450000000186265 ], [ 38334.599999999998545, 5952921.450000000186265 ], [ 38334.599999999998545, 5952921.375 ], [ 38334.67500000000291, 5952921.375 ], [ 38334.67500000000291, 5952921.224999999627471 ], [ 38334.75, 5952921.224999999627471 ], [ 38334.75, 5952921.150000000372529 ], [ 38334.82499999999709, 5952921.150000000372529 ], [ 38334.82499999999709, 5952921.075000000186265 ], [ 38334.900000000001455, 5952921.075000000186265 ], [ 38334.900000000001455, 5952920.924999999813735 ], [ 38334.974999999998545, 5952920.924999999813735 ], [ 38334.974999999998545, 5952920.775000000372529 ], [ 38335.05000000000291, 5952920.775000000372529 ], [ 38335.05000000000291, 5952920.700000000186265 ], [ 38335.125, 5952920.700000000186265 ], [ 38335.125, 5952920.549999999813735 ], [ 38335.19999999999709, 5952920.549999999813735 ], [ 38335.19999999999709, 5952920.400000000372529 ], [ 38335.275000000001455, 5952920.400000000372529 ], [ 38335.275000000001455, 5952920.174999999813735 ], [ 38335.349999999998545, 5952920.174999999813735 ], [ 38335.349999999998545, 5952920.025000000372529 ], [ 38335.42500000000291, 5952920.025000000372529 ], [ 38335.42500000000291, 5952919.799999999813735 ], [ 38335.5, 5952919.799999999813735 ], [ 38335.5, 5952919.650000000372529 ], [ 38335.57499999999709, 5952919.650000000372529 ], [ 38335.57499999999709, 5952919.5 ], [ 38335.650000000001455, 5952919.5 ], [ 38335.650000000001455, 5952919.424999999813735 ], [ 38335.724999999998545, 5952919.424999999813735 ], [ 38335.724999999998545, 5952919.275000000372529 ], [ 38335.80000000000291, 5952919.275000000372529 ], [ 38335.80000000000291, 5952919.200000000186265 ], [ 38335.875, 5952919.200000000186265 ], [ 38335.875, 5952919.125 ], [ 38335.94999999999709, 5952919.125 ], [ 38335.94999999999709, 5952918.974999999627471 ], [ 38336.025000000001455, 5952918.974999999627471 ], [ 38336.025000000001455, 5952918.900000000372529 ], [ 38336.099999999998545, 5952918.900000000372529 ], [ 38336.099999999998545, 5952918.825000000186265 ], [ 38336.17500000000291, 5952918.825000000186265 ], [ 38336.17500000000291, 5952918.75 ], [ 38336.32499999999709, 5952918.75 ], [ 38336.32499999999709, 5952918.674999999813735 ], [ 38336.400000000001455, 5952918.674999999813735 ], [ 38336.400000000001455, 5952918.599999999627471 ], [ 38336.474999999998545, 5952918.599999999627471 ], [ 38336.474999999998545, 5952918.525000000372529 ], [ 38336.55000000000291, 5952918.525000000372529 ], [ 38336.55000000000291, 5952918.450000000186265 ], [ 38336.625, 5952918.450000000186265 ], [ 38336.625, 5952918.375 ], [ 38336.69999999999709, 5952918.375 ], [ 38336.69999999999709, 5952918.224999999627471 ], [ 38336.775000000001455, 5952918.224999999627471 ], [ 38336.775000000001455, 5952918.150000000372529 ], [ 38336.849999999998545, 5952918.150000000372529 ], [ 38336.849999999998545, 5952918.075000000186265 ], [ 38336.92500000000291, 5952918.075000000186265 ], [ 38336.92500000000291, 5952917.924999999813735 ], [ 38337.0, 5952917.924999999813735 ], [ 38337.0, 5952917.700000000186265 ], [ 38337.07499999999709, 5952917.700000000186265 ], [ 38337.07499999999709, 5952917.549999999813735 ], [ 38337.150000000001455, 5952917.549999999813735 ], [ 38337.150000000001455, 5952917.325000000186265 ], [ 38337.224999999998545, 5952917.325000000186265 ], [ 38337.224999999998545, 5952917.174999999813735 ], [ 38337.30000000000291, 5952917.174999999813735 ], [ 38337.30000000000291, 5952917.025000000372529 ], [ 38337.375, 5952917.025000000372529 ], [ 38337.375, 5952916.875 ], [ 38337.44999999999709, 5952916.875 ], [ 38337.44999999999709, 5952916.799999999813735 ], [ 38337.525000000001455, 5952916.799999999813735 ], [ 38337.525000000001455, 5952916.724999999627471 ], [ 38337.599999999998545, 5952916.724999999627471 ], [ 38337.599999999998545, 5952916.575000000186265 ], [ 38337.67500000000291, 5952916.575000000186265 ], [ 38337.67500000000291, 5952916.5 ], [ 38337.75, 5952916.5 ], [ 38337.75, 5952916.424999999813735 ], [ 38337.82499999999709, 5952916.424999999813735 ], [ 38337.82499999999709, 5952916.349999999627471 ], [ 38337.900000000001455, 5952916.349999999627471 ], [ 38337.900000000001455, 5952916.275000000372529 ], [ 38337.974999999998545, 5952916.275000000372529 ], [ 38337.974999999998545, 5952916.200000000186265 ], [ 38338.125, 5952916.200000000186265 ], [ 38338.125, 5952916.125 ], [ 38338.19999999999709, 5952916.125 ], [ 38338.19999999999709, 5952916.049999999813735 ], [ 38338.275000000001455, 5952916.049999999813735 ], [ 38338.275000000001455, 5952915.974999999627471 ], [ 38338.349999999998545, 5952915.974999999627471 ], [ 38338.349999999998545, 5952915.900000000372529 ], [ 38338.42500000000291, 5952915.900000000372529 ], [ 38338.42500000000291, 5952915.375 ], [ 38338.5, 5952915.375 ], [ 38338.5, 5952914.924999999813735 ], [ 38338.57499999999709, 5952914.924999999813735 ], [ 38338.57499999999709, 5952914.400000000372529 ], [ 38338.650000000001455, 5952914.400000000372529 ], [ 38338.650000000001455, 5952913.950000000186265 ], [ 38338.724999999998545, 5952913.950000000186265 ], [ 38338.724999999998545, 5952913.650000000372529 ], [ 38338.80000000000291, 5952913.650000000372529 ], [ 38338.80000000000291, 5952913.349999999627471 ], [ 38338.875, 5952913.349999999627471 ], [ 38338.875, 5952913.200000000186265 ], [ 38338.94999999999709, 5952913.200000000186265 ], [ 38338.94999999999709, 5952912.974999999627471 ], [ 38339.025000000001455, 5952912.974999999627471 ], [ 38339.025000000001455, 5952912.825000000186265 ], [ 38339.099999999998545, 5952912.825000000186265 ], [ 38339.099999999998545, 5952912.75 ], [ 38339.17500000000291, 5952912.75 ], [ 38339.17500000000291, 5952912.599999999627471 ], [ 38339.25, 5952912.599999999627471 ], [ 38339.25, 5952912.525000000372529 ], [ 38339.32499999999709, 5952912.525000000372529 ], [ 38339.32499999999709, 5952912.450000000186265 ], [ 38339.400000000001455, 5952912.450000000186265 ], [ 38339.400000000001455, 5952912.375 ], [ 38339.474999999998545, 5952912.375 ], [ 38339.474999999998545, 5952912.299999999813735 ], [ 38339.625, 5952912.299999999813735 ], [ 38339.625, 5952912.224999999627471 ], [ 38339.69999999999709, 5952912.224999999627471 ], [ 38339.69999999999709, 5952912.150000000372529 ], [ 38339.849999999998545, 5952912.150000000372529 ], [ 38339.849999999998545, 5952912.075000000186265 ], [ 38340.0, 5952912.075000000186265 ], [ 38340.0, 5952912.0 ], [ 38340.07499999999709, 5952912.0 ], [ 38340.07499999999709, 5952911.924999999813735 ], [ 38340.150000000001455, 5952911.924999999813735 ], [ 38340.150000000001455, 5952911.625 ], [ 38340.224999999998545, 5952911.625 ], [ 38340.224999999998545, 5952910.799999999813735 ], [ 38340.30000000000291, 5952910.799999999813735 ], [ 38340.30000000000291, 5952909.75 ], [ 38340.224999999998545, 5952909.75 ], [ 38340.224999999998545, 5952909.375 ], [ 38340.150000000001455, 5952909.375 ], [ 38340.150000000001455, 5952909.224999999627471 ], [ 38340.07499999999709, 5952909.224999999627471 ], [ 38340.07499999999709, 5952909.0 ], [ 38340.0, 5952909.0 ], [ 38340.0, 5952908.849999999627471 ], [ 38339.92500000000291, 5952908.849999999627471 ], [ 38339.92500000000291, 5952908.549999999813735 ], [ 38339.849999999998545, 5952908.549999999813735 ], [ 38339.849999999998545, 5952908.325000000186265 ], [ 38339.775000000001455, 5952908.325000000186265 ], [ 38339.775000000001455, 5952908.099999999627471 ], [ 38339.69999999999709, 5952908.099999999627471 ], [ 38339.69999999999709, 5952907.950000000186265 ], [ 38339.625, 5952907.950000000186265 ], [ 38339.625, 5952907.875 ], [ 38339.55000000000291, 5952907.875 ], [ 38339.55000000000291, 5952907.724999999627471 ], [ 38339.474999999998545, 5952907.724999999627471 ], [ 38339.474999999998545, 5952907.575000000186265 ], [ 38339.400000000001455, 5952907.575000000186265 ], [ 38339.400000000001455, 5952907.424999999813735 ], [ 38339.32499999999709, 5952907.424999999813735 ], [ 38339.32499999999709, 5952907.200000000186265 ], [ 38339.25, 5952907.200000000186265 ], [ 38339.25, 5952906.974999999627471 ], [ 38339.17500000000291, 5952906.974999999627471 ], [ 38339.17500000000291, 5952906.674999999813735 ], [ 38339.099999999998545, 5952906.674999999813735 ], [ 38339.099999999998545, 5952906.299999999813735 ], [ 38339.025000000001455, 5952906.299999999813735 ], [ 38339.025000000001455, 5952905.849999999627471 ], [ 38338.94999999999709, 5952905.849999999627471 ], [ 38338.94999999999709, 5952905.174999999813735 ], [ 38338.875, 5952905.174999999813735 ], [ 38338.875, 5952904.275000000372529 ], [ 38338.80000000000291, 5952904.275000000372529 ], [ 38338.80000000000291, 5952904.125 ], [ 38338.875, 5952904.125 ], [ 38338.875, 5952903.299999999813735 ], [ 38338.94999999999709, 5952903.299999999813735 ], [ 38338.94999999999709, 5952902.775000000372529 ], [ 38339.025000000001455, 5952902.775000000372529 ], [ 38339.025000000001455, 5952902.325000000186265 ], [ 38339.099999999998545, 5952902.325000000186265 ], [ 38339.099999999998545, 5952902.025000000372529 ], [ 38339.17500000000291, 5952902.025000000372529 ], [ 38339.17500000000291, 5952901.799999999813735 ], [ 38339.25, 5952901.799999999813735 ], [ 38339.25, 5952901.650000000372529 ], [ 38339.32499999999709, 5952901.650000000372529 ], [ 38339.32499999999709, 5952901.5 ], [ 38339.400000000001455, 5952901.5 ], [ 38339.400000000001455, 5952901.349999999627471 ], [ 38339.474999999998545, 5952901.349999999627471 ], [ 38339.474999999998545, 5952901.200000000186265 ], [ 38339.55000000000291, 5952901.200000000186265 ], [ 38339.55000000000291, 5952901.125 ], [ 38339.625, 5952901.125 ], [ 38339.625, 5952901.049999999813735 ], [ 38339.69999999999709, 5952901.049999999813735 ], [ 38339.69999999999709, 5952900.974999999627471 ], [ 38339.775000000001455, 5952900.974999999627471 ], [ 38339.775000000001455, 5952900.900000000372529 ], [ 38339.849999999998545, 5952900.900000000372529 ], [ 38339.849999999998545, 5952900.825000000186265 ], [ 38340.0, 5952900.825000000186265 ], [ 38340.0, 5952900.75 ], [ 38340.150000000001455, 5952900.75 ], [ 38340.150000000001455, 5952900.674999999813735 ], [ 38340.30000000000291, 5952900.674999999813735 ], [ 38340.30000000000291, 5952900.599999999627471 ], [ 38340.525000000001455, 5952900.599999999627471 ], [ 38340.525000000001455, 5952900.525000000372529 ], [ 38340.82499999999709, 5952900.525000000372529 ], [ 38340.82499999999709, 5952900.450000000186265 ], [ 38341.125, 5952900.450000000186265 ], [ 38341.125, 5952900.375 ], [ 38341.57499999999709, 5952900.375 ], [ 38341.57499999999709, 5952900.299999999813735 ], [ 38341.94999999999709, 5952900.299999999813735 ], [ 38341.94999999999709, 5952900.224999999627471 ], [ 38342.025000000001455, 5952900.224999999627471 ], [ 38342.025000000001455, 5952900.150000000372529 ], [ 38342.17500000000291, 5952900.150000000372529 ], [ 38342.17500000000291, 5952900.075000000186265 ], [ 38342.25, 5952900.075000000186265 ], [ 38342.25, 5952900.0 ], [ 38342.32499999999709, 5952900.0 ], [ 38342.32499999999709, 5952899.924999999813735 ], [ 38342.400000000001455, 5952899.924999999813735 ], [ 38342.400000000001455, 5952899.849999999627471 ], [ 38342.474999999998545, 5952899.849999999627471 ], [ 38342.474999999998545, 5952899.775000000372529 ], [ 38342.55000000000291, 5952899.775000000372529 ], [ 38342.55000000000291, 5952899.700000000186265 ], [ 38342.625, 5952899.700000000186265 ], [ 38342.625, 5952899.625 ], [ 38342.775000000001455, 5952899.625 ], [ 38342.775000000001455, 5952899.549999999813735 ], [ 38342.849999999998545, 5952899.549999999813735 ], [ 38342.849999999998545, 5952899.474999999627471 ], [ 38343.0, 5952899.474999999627471 ], [ 38343.0, 5952899.400000000372529 ], [ 38343.150000000001455, 5952899.400000000372529 ], [ 38343.150000000001455, 5952899.325000000186265 ], [ 38343.30000000000291, 5952899.325000000186265 ], [ 38343.30000000000291, 5952899.25 ], [ 38343.525000000001455, 5952899.25 ], [ 38343.525000000001455, 5952899.174999999813735 ], [ 38343.82499999999709, 5952899.174999999813735 ], [ 38343.82499999999709, 5952899.099999999627471 ], [ 38344.125, 5952899.099999999627471 ], [ 38344.125, 5952899.025000000372529 ], [ 38346.0, 5952899.025000000372529 ], [ 38346.0, 5952898.950000000186265 ], [ 38346.150000000001455, 5952898.950000000186265 ], [ 38346.150000000001455, 5952899.025000000372529 ], [ 38349.525000000001455, 5952899.025000000372529 ], [ 38349.525000000001455, 5952899.099999999627471 ], [ 38350.19999999999709, 5952899.099999999627471 ], [ 38350.19999999999709, 5952899.174999999813735 ], [ 38350.5, 5952899.174999999813735 ], [ 38350.5, 5952899.25 ], [ 38350.724999999998545, 5952899.25 ], [ 38350.724999999998545, 5952899.325000000186265 ], [ 38350.94999999999709, 5952899.325000000186265 ], [ 38350.94999999999709, 5952899.400000000372529 ], [ 38351.17500000000291, 5952899.400000000372529 ], [ 38351.17500000000291, 5952899.474999999627471 ], [ 38351.400000000001455, 5952899.474999999627471 ], [ 38351.400000000001455, 5952899.549999999813735 ], [ 38351.55000000000291, 5952899.549999999813735 ], [ 38351.55000000000291, 5952899.625 ], [ 38351.69999999999709, 5952899.625 ], [ 38351.69999999999709, 5952899.700000000186265 ], [ 38351.849999999998545, 5952899.700000000186265 ], [ 38351.849999999998545, 5952899.775000000372529 ], [ 38352.0, 5952899.775000000372529 ], [ 38352.0, 5952899.849999999627471 ], [ 38352.150000000001455, 5952899.849999999627471 ], [ 38352.150000000001455, 5952899.924999999813735 ], [ 38352.30000000000291, 5952899.924999999813735 ], [ 38352.30000000000291, 5952900.0 ], [ 38352.375, 5952900.0 ], [ 38352.375, 5952900.075000000186265 ], [ 38352.525000000001455, 5952900.075000000186265 ], [ 38352.525000000001455, 5952900.150000000372529 ], [ 38352.599999999998545, 5952900.150000000372529 ], [ 38352.599999999998545, 5952900.224999999627471 ], [ 38352.67500000000291, 5952900.224999999627471 ], [ 38352.67500000000291, 5952900.299999999813735 ], [ 38352.82499999999709, 5952900.299999999813735 ], [ 38352.82499999999709, 5952900.375 ], [ 38352.900000000001455, 5952900.375 ], [ 38352.900000000001455, 5952900.450000000186265 ], [ 38353.05000000000291, 5952900.450000000186265 ], [ 38353.05000000000291, 5952900.525000000372529 ], [ 38353.19999999999709, 5952900.525000000372529 ], [ 38353.19999999999709, 5952900.599999999627471 ], [ 38353.349999999998545, 5952900.599999999627471 ], [ 38353.349999999998545, 5952900.674999999813735 ], [ 38353.5, 5952900.674999999813735 ], [ 38353.5, 5952900.75 ], [ 38353.650000000001455, 5952900.75 ], [ 38353.650000000001455, 5952900.825000000186265 ], [ 38353.875, 5952900.825000000186265 ], [ 38353.875, 5952900.900000000372529 ], [ 38354.025000000001455, 5952900.900000000372529 ], [ 38354.025000000001455, 5952900.974999999627471 ], [ 38354.17500000000291, 5952900.974999999627471 ], [ 38354.17500000000291, 5952901.049999999813735 ], [ 38354.32499999999709, 5952901.049999999813735 ], [ 38354.32499999999709, 5952901.125 ], [ 38354.400000000001455, 5952901.125 ], [ 38354.400000000001455, 5952901.200000000186265 ], [ 38354.55000000000291, 5952901.200000000186265 ], [ 38354.55000000000291, 5952901.275000000372529 ], [ 38354.625, 5952901.275000000372529 ], [ 38354.625, 5952901.349999999627471 ], [ 38354.69999999999709, 5952901.349999999627471 ], [ 38354.69999999999709, 5952901.424999999813735 ], [ 38354.775000000001455, 5952901.424999999813735 ], [ 38354.775000000001455, 5952901.5 ], [ 38354.849999999998545, 5952901.5 ], [ 38354.849999999998545, 5952901.575000000186265 ], [ 38354.92500000000291, 5952901.575000000186265 ], [ 38354.92500000000291, 5952901.650000000372529 ], [ 38355.0, 5952901.650000000372529 ], [ 38355.0, 5952901.724999999627471 ], [ 38355.07499999999709, 5952901.724999999627471 ], [ 38355.07499999999709, 5952901.799999999813735 ], [ 38355.150000000001455, 5952901.799999999813735 ], [ 38355.150000000001455, 5952901.875 ], [ 38355.224999999998545, 5952901.875 ], [ 38355.224999999998545, 5952901.950000000186265 ], [ 38355.30000000000291, 5952901.950000000186265 ], [ 38355.30000000000291, 5952902.099999999627471 ], [ 38355.375, 5952902.099999999627471 ], [ 38355.375, 5952902.25 ], [ 38355.44999999999709, 5952902.25 ], [ 38355.44999999999709, 5952902.325000000186265 ], [ 38355.525000000001455, 5952902.325000000186265 ], [ 38355.525000000001455, 5952902.400000000372529 ], [ 38355.599999999998545, 5952902.400000000372529 ], [ 38355.599999999998545, 5952902.474999999627471 ], [ 38355.67500000000291, 5952902.474999999627471 ], [ 38355.67500000000291, 5952902.549999999813735 ], [ 38355.75, 5952902.549999999813735 ], [ 38355.75, 5952902.625 ], [ 38355.82499999999709, 5952902.625 ], [ 38355.82499999999709, 5952902.700000000186265 ], [ 38355.900000000001455, 5952902.700000000186265 ], [ 38355.900000000001455, 5952902.775000000372529 ], [ 38355.974999999998545, 5952902.775000000372529 ], [ 38355.974999999998545, 5952902.849999999627471 ], [ 38356.125, 5952902.849999999627471 ], [ 38356.125, 5952902.924999999813735 ], [ 38356.19999999999709, 5952902.924999999813735 ], [ 38356.19999999999709, 5952903.0 ], [ 38356.275000000001455, 5952903.0 ], [ 38356.275000000001455, 5952903.075000000186265 ], [ 38356.349999999998545, 5952903.075000000186265 ], [ 38356.349999999998545, 5952903.150000000372529 ], [ 38356.42500000000291, 5952903.150000000372529 ], [ 38356.42500000000291, 5952903.224999999627471 ], [ 38356.5, 5952903.224999999627471 ], [ 38356.5, 5952903.299999999813735 ], [ 38356.57499999999709, 5952903.299999999813735 ], [ 38356.57499999999709, 5952903.375 ], [ 38356.650000000001455, 5952903.375 ], [ 38356.650000000001455, 5952903.450000000186265 ], [ 38356.724999999998545, 5952903.450000000186265 ], [ 38356.724999999998545, 5952903.599999999627471 ], [ 38356.80000000000291, 5952903.599999999627471 ], [ 38356.80000000000291, 5952903.674999999813735 ], [ 38356.875, 5952903.674999999813735 ], [ 38356.875, 5952903.825000000186265 ], [ 38356.94999999999709, 5952903.825000000186265 ], [ 38356.94999999999709, 5952903.974999999627471 ], [ 38357.025000000001455, 5952903.974999999627471 ], [ 38357.025000000001455, 5952904.125 ], [ 38357.099999999998545, 5952904.125 ], [ 38357.099999999998545, 5952904.424999999813735 ], [ 38357.17500000000291, 5952904.424999999813735 ], [ 38357.17500000000291, 5952905.025000000372529 ], [ 38357.25, 5952905.025000000372529 ], [ 38357.25, 5952905.700000000186265 ], [ 38357.17500000000291, 5952905.700000000186265 ], [ 38357.17500000000291, 5952906.299999999813735 ], [ 38357.099999999998545, 5952906.299999999813735 ], [ 38357.099999999998545, 5952906.900000000372529 ], [ 38357.025000000001455, 5952906.900000000372529 ], [ 38357.025000000001455, 5952907.5 ], [ 38356.94999999999709, 5952907.5 ], [ 38356.94999999999709, 5952908.174999999813735 ], [ 38356.875, 5952908.174999999813735 ], [ 38356.875, 5952909.075000000186265 ], [ 38356.80000000000291, 5952909.075000000186265 ], [ 38356.80000000000291, 5952909.974999999627471 ], [ 38356.724999999998545, 5952909.974999999627471 ], [ 38356.724999999998545, 5952911.400000000372529 ], [ 38356.650000000001455, 5952911.400000000372529 ], [ 38356.650000000001455, 5952912.525000000372529 ], [ 38356.57499999999709, 5952912.525000000372529 ], [ 38356.57499999999709, 5952913.275000000372529 ], [ 38356.5, 5952913.275000000372529 ], [ 38356.5, 5952914.025000000372529 ], [ 38356.42500000000291, 5952914.025000000372529 ], [ 38356.42500000000291, 5952914.474999999627471 ], [ 38356.349999999998545, 5952914.474999999627471 ], [ 38356.349999999998545, 5952914.849999999627471 ], [ 38356.275000000001455, 5952914.849999999627471 ], [ 38356.275000000001455, 5952915.224999999627471 ], [ 38356.19999999999709, 5952915.224999999627471 ], [ 38356.19999999999709, 5952915.525000000372529 ], [ 38356.125, 5952915.525000000372529 ], [ 38356.125, 5952915.825000000186265 ], [ 38356.05000000000291, 5952915.825000000186265 ], [ 38356.05000000000291, 5952916.200000000186265 ], [ 38355.974999999998545, 5952916.200000000186265 ], [ 38355.974999999998545, 5952916.5 ], [ 38355.900000000001455, 5952916.5 ], [ 38355.900000000001455, 5952916.724999999627471 ], [ 38355.82499999999709, 5952916.724999999627471 ], [ 38355.82499999999709, 5952917.025000000372529 ], [ 38355.75, 5952917.025000000372529 ], [ 38355.75, 5952917.325000000186265 ], [ 38355.67500000000291, 5952917.325000000186265 ], [ 38355.67500000000291, 5952917.700000000186265 ], [ 38355.599999999998545, 5952917.700000000186265 ], [ 38355.599999999998545, 5952918.224999999627471 ], [ 38355.525000000001455, 5952918.224999999627471 ], [ 38355.525000000001455, 5952919.200000000186265 ], [ 38355.44999999999709, 5952919.200000000186265 ], [ 38355.44999999999709, 5952920.474999999627471 ], [ 38355.375, 5952920.474999999627471 ], [ 38355.375, 5952922.5 ], [ 38355.30000000000291, 5952922.5 ], [ 38355.30000000000291, 5952924.599999999627471 ], [ 38355.224999999998545, 5952924.599999999627471 ], [ 38355.224999999998545, 5952925.950000000186265 ], [ 38355.150000000001455, 5952925.950000000186265 ], [ 38355.150000000001455, 5952926.474999999627471 ], [ 38355.07499999999709, 5952926.474999999627471 ], [ 38355.07499999999709, 5952927.0 ], [ 38355.0, 5952927.0 ], [ 38355.0, 5952927.599999999627471 ], [ 38354.92500000000291, 5952927.599999999627471 ], [ 38354.92500000000291, 5952927.974999999627471 ], [ 38354.849999999998545, 5952927.974999999627471 ], [ 38354.849999999998545, 5952928.349999999627471 ], [ 38354.775000000001455, 5952928.349999999627471 ], [ 38354.775000000001455, 5952928.650000000372529 ], [ 38354.69999999999709, 5952928.650000000372529 ], [ 38354.69999999999709, 5952928.950000000186265 ], [ 38354.625, 5952928.950000000186265 ], [ 38354.625, 5952929.25 ], [ 38354.55000000000291, 5952929.25 ], [ 38354.55000000000291, 5952929.474999999627471 ], [ 38354.474999999998545, 5952929.474999999627471 ], [ 38354.474999999998545, 5952929.625 ], [ 38354.400000000001455, 5952929.625 ], [ 38354.400000000001455, 5952929.775000000372529 ], [ 38354.32499999999709, 5952929.775000000372529 ], [ 38354.32499999999709, 5952929.849999999627471 ], [ 38354.25, 5952929.849999999627471 ], [ 38354.25, 5952929.924999999813735 ], [ 38354.17500000000291, 5952929.924999999813735 ], [ 38354.17500000000291, 5952930.0 ], [ 38354.099999999998545, 5952930.0 ], [ 38354.099999999998545, 5952930.075000000186265 ], [ 38354.025000000001455, 5952930.075000000186265 ], [ 38354.025000000001455, 5952930.150000000372529 ], [ 38353.94999999999709, 5952930.150000000372529 ], [ 38353.94999999999709, 5952930.224999999627471 ], [ 38353.80000000000291, 5952930.224999999627471 ], [ 38353.80000000000291, 5952930.299999999813735 ], [ 38353.724999999998545, 5952930.299999999813735 ], [ 38353.724999999998545, 5952930.375 ], [ 38353.650000000001455, 5952930.375 ], [ 38353.650000000001455, 5952930.450000000186265 ], [ 38353.5, 5952930.450000000186265 ], [ 38353.5, 5952930.525000000372529 ], [ 38353.42500000000291, 5952930.525000000372529 ], [ 38353.42500000000291, 5952930.599999999627471 ], [ 38353.349999999998545, 5952930.599999999627471 ], [ 38353.349999999998545, 5952930.674999999813735 ], [ 38353.275000000001455, 5952930.674999999813735 ], [ 38353.275000000001455, 5952930.75 ], [ 38353.19999999999709, 5952930.75 ], [ 38353.19999999999709, 5952930.825000000186265 ], [ 38353.125, 5952930.825000000186265 ], [ 38353.125, 5952930.900000000372529 ], [ 38353.05000000000291, 5952930.900000000372529 ], [ 38353.05000000000291, 5952931.049999999813735 ], [ 38352.974999999998545, 5952931.049999999813735 ], [ 38352.974999999998545, 5952931.125 ], [ 38352.900000000001455, 5952931.125 ], [ 38352.900000000001455, 5952931.200000000186265 ], [ 38352.82499999999709, 5952931.200000000186265 ], [ 38352.82499999999709, 5952931.349999999627471 ], [ 38352.75, 5952931.349999999627471 ], [ 38352.75, 5952931.424999999813735 ], [ 38352.67500000000291, 5952931.424999999813735 ], [ 38352.67500000000291, 5952931.575000000186265 ], [ 38352.599999999998545, 5952931.575000000186265 ], [ 38352.599999999998545, 5952931.650000000372529 ], [ 38352.525000000001455, 5952931.650000000372529 ], [ 38352.525000000001455, 5952931.724999999627471 ], [ 38352.44999999999709, 5952931.724999999627471 ], [ 38352.44999999999709, 5952931.875 ], [ 38352.375, 5952931.875 ], [ 38352.375, 5952931.950000000186265 ], [ 38352.224999999998545, 5952931.950000000186265 ], [ 38352.224999999998545, 5952932.025000000372529 ], [ 38352.150000000001455, 5952932.025000000372529 ], [ 38352.150000000001455, 5952932.099999999627471 ], [ 38352.07499999999709, 5952932.099999999627471 ], [ 38352.07499999999709, 5952932.174999999813735 ], [ 38351.92500000000291, 5952932.174999999813735 ], [ 38351.92500000000291, 5952932.25 ], [ 38351.625, 5952932.25 ], [ 38351.625, 5952932.325000000186265 ], [ 38351.25, 5952932.325000000186265 ], [ 38351.25, 5952932.400000000372529 ], [ 38350.875, 5952932.400000000372529 ], [ 38350.875, 5952932.474999999627471 ], [ 38350.5, 5952932.474999999627471 ], [ 38350.5, 5952932.549999999813735 ], [ 38350.125, 5952932.549999999813735 ], [ 38350.125, 5952932.625 ], [ 38349.525000000001455, 5952932.625 ], [ 38349.525000000001455, 5952932.700000000186265 ], [ 38348.625, 5952932.700000000186265 ], [ 38348.625, 5952932.775000000372529 ], [ 38347.724999999998545, 5952932.775000000372529 ], [ 38347.724999999998545, 5952932.849999999627471 ], [ 38346.900000000001455, 5952932.849999999627471 ], [ 38346.900000000001455, 5952932.924999999813735 ], [ 38346.150000000001455, 5952932.924999999813735 ], [ 38346.150000000001455, 5952933.0 ], [ 38345.400000000001455, 5952933.0 ], [ 38345.400000000001455, 5952933.075000000186265 ], [ 38344.724999999998545, 5952933.075000000186265 ], [ 38344.724999999998545, 5952933.150000000372529 ], [ 38342.099999999998545, 5952933.150000000372529 ] ] ] } }
]
}
