{
"type": "FeatureCollection",
"name": "37683E594582N_buildings",
"crs": { "type": "name", "properties": { "name": "urn:ogc:def:crs:EPSG::3776" } },
"features": [
{ "type": "Feature", "properties": { "value": 1.0, "building_id": 0, "area": 325.57500000041779 }, "geometry": { "type": "Polygon", "coordinates": [ [ [ 38335.724999999998545, 5946215.174999999813735 ], [ 38335.724999999998545, 5946215.099999999627471 ], [ 38334.974999999998545, 5946215.099999999627471 ], [ 38334.974999999998545, 5946215.025000000372529 ], [ 38334.375, 5946215.025000000372529 ], [ 38334.375, 5946214.950000000186265 ], [ 38334.150000000001455, 5946214.950000000186265 ], [ 38334.150000000001455, 5946214.875 ], [ 38334.0, 5946214.875 ], [ 38334.0, 5946214.799999999813735 ], [ 38333.92500000000291, 5946214.799999999813735 ], [ 38333.92500000000291, 5946214.724999999627471 ], [ 38333.625, 5946214.724999999627471 ], [ 38333.625, 5946214.650000000372529 ], [ 38333.32499999999709, 5946214.650000000372529 ], [ 38333.32499999999709, 5946214.575000000186265 ], [ 38332.94999999999709, 5946214.575000000186265 ], [ 38332.94999999999709, 5946214.5 ], [ 38332.57499999999709, 5946214.5 ], [ 38332.57499999999709, 5946214.424999999813735 ], [ 38332.05000000000291, 5946214.424999999813735 ], [ 38332.05000000000291, 5946214.349999999627471 ], [ 38331.44999999999709, 5946214.349999999627471 ], [ 38331.44999999999709, 5946214.275000000372529 ], [ 38331.150000000001455, 5946214.275000000372529 ], [ 38331.150000000001455, 5946214.200000000186265 ], [ 38330.849999999998545, 5946214.200000000186265 ], [ 38330.849999999998545, 5946214.125 ], [ 38330.55000000000291, 5946214.125 ], [ 38330.55000000000291, 5946214.049999999813735 ], [ 38330.32499999999709, 5946214.049999999813735 ], [ 38330.32499999999709, 5946213.974999999627471 ], [ 38330.17500000000291, 5946213.974999999627471 ], [ 38330.17500000000291, 5946213.900000000372529 ], [ 38330.025000000001455, 5946213.900000000372529 ], [ 38330.025000000001455, 5946213.825000000186265 ], [ 38329.875, 5946213.825000000186265 ], [ 38329.875, 5946213.75 ], [ 38329.80000000000291, 5946213.75 ], [ 38329.80000000000291, 5946213.674999999813735 ], [ 38329.650000000001455, 5946213.674999999813735 ], [ 38329.650000000001455, 5946213.599999999627471 ], [ 38329.57499999999709, 5946213.599999999627471 ], [ 38329.57499999999709, 5946213.525000000372529 ], [ 38329.42500000000291, 5946213.525000000372529 ], [ 38329.42500000000291, 5946213.450000000186265 ], [ 38329.349999999998545, 5946213.450000000186265 ], [ 38329.349999999998545, 5946213.375 ], [ 38329.275000000001455, 5946213.375 ], [ 38329.275000000001455, 5946213.299999999813735 ], [ 38329.19999999999709, 5946213.299999999813735 ], [ 38329.19999999999709, 5946213.224999999627471 ], [ 38329.125, 5946213.224999999627471 ], [ 38329.125, 5946213.150000000372529 ], [ 38329.05000000000291, 5946213.150000000372529 ], [ 38329.05000000000291, 5946213.075000000186265 ], [ 38328.974999999998545, 5946213.075000000186265 ], [ 38328.974999999998545, 5946213.0 ], [ 38328.900000000001455, 5946213.0 ], [ 38328.900000000001455, 5946212.924999999813735 ], [ 38328.82499999999709, 5946212.924999999813735 ], [ 38328.82499999999709, 5946212.775000000372529 ], [ 38328.75, 5946212.775000000372529 ], [ 38328.75, 5946212.700000000186265 ], [ 38328.67500000000291, 5946212.700000000186265 ], [ 38328.67500000000291, 5946212.625 ], [ 38328.599999999998545, 5946212.625 ], [ 38328.599999999998545, 5946212.549999999813735 ], [ 38328.525000000001455, 5946212.549999999813735 ], [ 38328.525000000001455, 5946212.474999999627471 ], [ 38328.44999999999709, 5946212.474999999627471 ], [ 38328.44999999999709, 5946212.400000000372529 ], [ 38328.375, 5946212.400000000372529 ], [ 38328.375, 5946212.325000000186265 ], [ 38328.30000000000291, 5946212.325000000186265 ], [ 38328.30000000000291, 5946212.25 ], [ 38328.224999999998545, 5946212.25 ], [ 38328.224999999998545, 5946212.174999999813735 ], [ 38328.150000000001455, 5946212.174999999813735 ], [ 38328.150000000001455, 5946212.099999999627471 ], [ 38328.07499999999709, 5946212.099999999627471 ], [ 38328.07499999999709, 5946211.950000000186265 ], [ 38328.0, 5946211.950000000186265 ], [ 38328.0, 5946211.875 ], [ 38327.92500000000291, 5946211.875 ], [ 38327.92500000000291, 5946211.724999999627471 ], [ 38327.849999999998545, 5946211.724999999627471 ], [ 38327.849999999998545, 5946211.650000000372529 ], [ 38327.775000000001455, 5946211.650000000372529 ], [ 38327.775000000001455, 5946211.5 ], [ 38327.69999999999709, 5946211.5 ], [ 38327.69999999999709, 5946211.349999999627471 ], [ 38327.625, 5946211.349999999627471 ], [ 38327.625, 5946211.200000000186265 ], [ 38327.55000000000291, 5946211.200000000186265 ], [ 38327.55000000000291, 5946210.974999999627471 ], [ 38327.474999999998545, 5946210.974999999627471 ], [ 38327.474999999998545, 5946210.75 ], [ 38327.400000000001455, 5946210.75 ], [ 38327.400000000001455, 5946210.375 ], [ 38327.32499999999709, 5946210.375 ], [ 38327.32499999999709, 5946209.924999999813735 ], [ 38327.25, 5946209.924999999813735 ], [ 38327.25, 5946209.549999999813735 ], [ 38327.17500000000291, 5946209.549999999813735 ], [ 38327.17500000000291, 5946208.950000000186265 ], [ 38327.099999999998545, 5946208.950000000186265 ], [ 38327.099999999998545, 5946207.825000000186265 ], [ 38327.17500000000291, 5946207.825000000186265 ], [ 38327.17500000000291, 5946206.775000000372529 ], [ 38327.25, 5946206.775000000372529 ], [ 38327.25, 5946206.474999999627471 ], [ 38327.32499999999709, 5946206.474999999627471 ], [ 38327.32499999999709, 5946206.174999999813735 ], [ 38327.400000000001455, 5946206.174999999813735 ], [ 38327.400000000001455, 5946205.799999999813735 ], [ 38327.474999999998545, 5946205.799999999813735 ], [ 38327.474999999998545, 5946205.424999999813735 ], [ 38327.55000000000291, 5946205.424999999813735 ], [ 38327.55000000000291, 5946204.974999999627471 ], [ 38327.625, 5946204.974999999627471 ], [ 38327.625, 5946204.674999999813735 ], [ 38327.69999999999709, 5946204.674999999813735 ], [ 38327.69999999999709, 5946204.299999999813735 ], [ 38327.775000000001455, 5946204.299999999813735 ], [ 38327.775000000001455, 5946204.0 ], [ 38327.849999999998545, 5946204.0 ], [ 38327.849999999998545, 5946203.775000000372529 ], [ 38327.92500000000291, 5946203.775000000372529 ], [ 38327.92500000000291, 5946203.474999999627471 ], [ 38328.0, 5946203.474999999627471 ], [ 38328.0, 5946203.25 ], [ 38328.07499999999709, 5946203.25 ], [ 38328.07499999999709, 5946203.025000000372529 ], [ 38328.150000000001455, 5946203.025000000372529 ], [ 38328.150000000001455, 5946202.950000000186265 ], [ 38328.224999999998545, 5946202.950000000186265 ], [ 38328.224999999998545, 5946202.799999999813735 ], [ 38328.30000000000291, 5946202.799999999813735 ], [ 38328.30000000000291, 5946202.650000000372529 ], [ 38328.375, 5946202.650000000372529 ], [ 38328.375, 5946202.575000000186265 ], [ 38328.44999999999709, 5946202.575000000186265 ], [ 38328.44999999999709, 5946202.5 ], [ 38328.525000000001455, 5946202.5 ], [ 38328.525000000001455, 5946202.424999999813735 ], [ 38328.599999999998545, 5946202.424999999813735 ], [ 38328.599999999998545, 5946202.275000000372529 ], [ 38328.67500000000291, 5946202.275000000372529 ], [ 38328.67500000000291, 5946202.200000000186265 ], [ 38328.75, 5946202.200000000186265 ], [ 38328.75, 5946202.049999999813735 ], [ 38328.82499999999709, 5946202.049999999813735 ], [ 38328.82499999999709, 5946201.974999999627471 ], [ 38328.900000000001455, 5946201.974999999627471 ], [ 38328.900000000001455, 5946201.825000000186265 ], [ 38328.974999999998545, 5946201.825000000186265 ], [ 38328.974999999998545, 5946201.674999999813735 ], [ 38329.05000000000291, 5946201.674999999813735 ], [ 38329.05000000000291, 5946201.525000000372529 ], [ 38329.125, 5946201.525000000372529 ], [ 38329.125, 5946201.299999999813735 ], [ 38329.19999999999709, 5946201.299999999813735 ], [ 38329.19999999999709, 5946201.075000000186265 ], [ 38329.275000000001455, 5946201.075000000186265 ], [ 38329.275000000001455, 5946200.549999999813735 ], [ 38329.349999999998545, 5946200.549999999813735 ], [ 38329.349999999998545, 5946199.875 ], [ 38329.42500000000291, 5946199.875 ], [ 38329.42500000000291, 5946199.200000000186265 ], [ 38329.5, 5946199.200000000186265 ], [ 38329.5, 5946198.450000000186265 ], [ 38329.57499999999709, 5946198.450000000186265 ], [ 38329.57499999999709, 5946198.075000000186265 ], [ 38329.650000000001455, 5946198.075000000186265 ], [ 38329.650000000001455, 5946197.849999999627471 ], [ 38329.724999999998545, 5946197.849999999627471 ], [ 38329.724999999998545, 5946197.775000000372529 ], [ 38329.80000000000291, 5946197.775000000372529 ], [ 38329.80000000000291, 5946197.700000000186265 ], [ 38329.875, 5946197.700000000186265 ], [ 38329.875, 5946197.625 ], [ 38330.025000000001455, 5946197.625 ], [ 38330.025000000001455, 5946197.549999999813735 ], [ 38330.25, 5946197.549999999813735 ], [ 38330.25, 5946197.474999999627471 ], [ 38330.400000000001455, 5946197.474999999627471 ], [ 38330.400000000001455, 5946197.400000000372529 ], [ 38330.55000000000291, 5946197.400000000372529 ], [ 38330.55000000000291, 5946197.325000000186265 ], [ 38330.625, 5946197.325000000186265 ], [ 38330.625, 5946197.25 ], [ 38330.69999999999709, 5946197.25 ], [ 38330.69999999999709, 5946197.099999999627471 ], [ 38330.775000000001455, 5946197.099999999627471 ], [ 38330.775000000001455, 5946196.950000000186265 ], [ 38330.849999999998545, 5946196.950000000186265 ], [ 38330.849999999998545, 5946196.875 ], [ 38330.92500000000291, 5946196.875 ], [ 38330.92500000000291, 5946196.724999999627471 ], [ 38331.0, 5946196.724999999627471 ], [ 38331.0, 5946196.650000000372529 ], [ 38331.07499999999709, 5946196.650000000372529 ], [ 38331.07499999999709, 5946196.5 ], [ 38331.150000000001455, 5946196.5 ], [ 38331.150000000001455, 5946196.424999999813735 ], [ 38331.224999999998545, 5946196.424999999813735 ], [ 38331.224999999998545, 5946196.349999999627471 ], [ 38331.30000000000291, 5946196.349999999627471 ], [ 38331.30000000000291, 5946196.275000000372529 ], [ 38331.375, 5946196.275000000372529 ], [ 38331.375, 5946196.200000000186265 ], [ 38331.525000000001455, 5946196.200000000186265 ], [ 38331.525000000001455, 5946196.125 ], [ 38331.599999999998545, 5946196.125 ], [ 38331.599999999998545, 5946196.049999999813735 ], [ 38331.75, 5946196.049999999813735 ], [ 38331.75, 5946195.974999999627471 ], [ 38331.82499999999709, 5946195.974999999627471 ], [ 38331.82499999999709, 5946195.900000000372529 ], [ 38331.974999999998545, 5946195.900000000372529 ], [ 38331.974999999998545, 5946195.825000000186265 ], [ 38332.19999999999709, 5946195.825000000186265 ], [ 38332.19999999999709, 5946195.75 ], [ 38332.349999999998545, 5946195.75 ], [ 38332.349999999998545, 5946195.674999999813735 ], [ 38332.5, 5946195.674999999813735 ], [ 38332.5, 5946195.599999999627471 ], [ 38332.57499999999709, 5946195.599999999627471 ], [ 38332.57499999999709, 5946195.525000000372529 ], [ 38332.724999999998545, 5946195.525000000372529 ], [ 38332.724999999998545, 5946195.450000000186265 ], [ 38332.80000000000291, 5946195.450000000186265 ], [ 38332.80000000000291, 5946195.375 ], [ 38332.875, 5946195.375 ], [ 38332.875, 5946195.299999999813735 ], [ 38332.94999999999709, 5946195.299999999813735 ], [ 38332.94999999999709, 5946195.224999999627471 ], [ 38333.025000000001455, 5946195.224999999627471 ], [ 38333.025000000001455, 5946195.150000000372529 ], [ 38333.099999999998545, 5946195.150000000372529 ], [ 38333.099999999998545, 5946195.075000000186265 ], [ 38333.17500000000291, 5946195.075000000186265 ], [ 38333.17500000000291, 5946194.924999999813735 ], [ 38333.32499999999709, 5946194.924999999813735 ], [ 38333.32499999999709, 5946194.849999999627471 ], [ 38333.400000000001455, 5946194.849999999627471 ], [ 38333.400000000001455, 5946194.775000000372529 ], [ 38333.474999999998545, 5946194.775000000372529 ], [ 38333.474999999998545, 5946194.700000000186265 ], [ 38333.55000000000291, 5946194.700000000186265 ], [ 38333.55000000000291, 5946194.625 ], [ 38333.69999999999709, 5946194.625 ], [ 38333.69999999999709, 5946194.549999999813735 ], [ 38333.775000000001455, 5946194.549999999813735 ], [ 38333.775000000001455, 5946194.474999999627471 ], [ 38333.92500000000291, 5946194.474999999627471 ], [ 38333.92500000000291, 5946194.400000000372529 ], [ 38334.07499999999709, 5946194.400000000372529 ], [ 38334.07499999999709, 5946194.325000000186265 ], [ 38334.224999999998545, 5946194.325000000186265 ], [ 38334.224999999998545, 5946194.25 ], [ 38334.82499999999709, 5946194.25 ], [ 38334.82499999999709, 5946194.174999999813735 ], [ 38335.94999999999709, 5946194.174999999813735 ], [ 38335.94999999999709, 5946194.099999999627471 ], [ 38336.775000000001455, 5946194.099999999627471 ], [ 38336.775000000001455, 5946194.174999999813735 ], [ 38338.275000000001455, 5946194.174999999813735 ], [ 38338.275000000001455, 5946194.25 ], [ 38339.25, 5946194.25 ], [ 38339.25, 5946194.325000000186265 ], [ 38340.150000000001455, 5946194.325000000186265 ], [ 38340.150000000001455, 5946194.400000000372529 ], [ 38340.67500000000291, 5946194.400000000372529 ], [ 38340.67500000000291, 5946194.474999999627471 ], [ 38341.125, 5946194.474999999627471 ], [ 38341.125, 5946194.549999999813735 ], [ 38341.5, 5946194.549999999813735 ], [ 38341.5, 5946194.625 ], [ 38341.875, 5946194.625 ], [ 38341.875, 5946194.700000000186265 ], [ 38342.17500000000291, 5946194.700000000186265 ], [ 38342.17500000000291, 5946194.775000000372529 ], [ 38342.400000000001455, 5946194.775000000372529 ], [ 38342.400000000001455, 5946194.849999999627471 ], [ 38342.55000000000291, 5946194.849999999627471 ], [ 38342.55000000000291, 5946194.924999999813735 ], [ 38342.625, 5946194.924999999813735 ], [ 38342.625, 5946195.0 ], [ 38342.775000000001455, 5946195.0 ], [ 38342.775000000001455, 5946195.075000000186265 ], [ 38342.92500000000291, 5946195.075000000186265 ], [ 38342.92500000000291, 5946195.150000000372529 ], [ 38343.0, 5946195.150000000372529 ], [ 38343.0, 5946195.224999999627471 ], [ 38343.150000000001455, 5946195.224999999627471 ], [ 38343.150000000001455, 5946195.299999999813735 ], [ 38343.224999999998545, 5946195.299999999813735 ], [ 38343.224999999998545, 5946195.375 ], [ 38343.30000000000291, 5946195.375 ], [ 38343.30000000000291, 5946195.450000000186265 ], [ 38343.375, 5946195.450000000186265 ], [ 38343.375, 5946195.525000000372529 ], [ 38343.44999999999709, 5946195.525000000372529 ], [ 38343.44999999999709, 5946195.599999999627471 ], [ 38343.525000000001455, 5946195.599999999627471 ], [ 38343.525000000001455, 5946195.674999999813735 ], [ 38343.67500000000291, 5946195.674999999813735 ], [ 38343.67500000000291, 5946195.75 ], [ 38343.75, 5946195.75 ], [ 38343.75, 5946195.825000000186265 ], [ 38343.82499999999709, 5946195.825000000186265 ], [ 38343.82499999999709, 5946195.900000000372529 ], [ 38343.974999999998545, 5946195.900000000372529 ], [ 38343.974999999998545, 5946195.974999999627471 ], [ 38344.05000000000291, 5946195.974999999627471 ], [ 38344.05000000000291, 5946196.049999999813735 ], [ 38344.19999999999709, 5946196.049999999813735 ], [ 38344.19999999999709, 5946196.125 ], [ 38344.275000000001455, 5946196.125 ], [ 38344.275000000001455, 5946196.200000000186265 ], [ 38344.349999999998545, 5946196.200000000186265 ], [ 38344.349999999998545, 5946196.275000000372529 ], [ 38344.42500000000291, 5946196.275000000372529 ], [ 38344.42500000000291, 5946196.349999999627471 ], [ 38344.5, 5946196.349999999627471 ], [ 38344.5, 5946196.424999999813735 ], [ 38344.57499999999709, 5946196.424999999813735 ], [ 38344.57499999999709, 5946196.5 ], [ 38344.650000000001455, 5946196.5 ], [ 38344.650000000001455, 5946196.650000000372529 ], [ 38344.724999999998545, 5946196.650000000372529 ], [ 38344.724999999998545, 5946196.724999999627471 ], [ 38344.80000000000291, 5946196.724999999627471 ], [ 38344.80000000000291, 5946196.875 ], [ 38344.875, 5946196.875 ], [ 38344.875, 5946196.950000000186265 ], [ 38344.94999999999709, 5946196.950000000186265 ], [ 38344.94999999999709, 5946197.099999999627471 ], [ 38345.025000000001455, 5946197.099999999627471 ], [ 38345.025000000001455, 5946197.325000000186265 ], [ 38345.099999999998545, 5946197.325000000186265 ], [ 38345.099999999998545, 5946197.474999999627471 ], [ 38345.17500000000291, 5946197.474999999627471 ], [ 38345.17500000000291, 5946197.700000000186265 ], [ 38345.25, 5946197.700000000186265 ], [ 38345.25, 5946197.849999999627471 ], [ 38345.32499999999709, 5946197.849999999627471 ], [ 38345.32499999999709, 5946197.924999999813735 ], [ 38345.400000000001455, 5946197.924999999813735 ], [ 38345.400000000001455, 5946198.075000000186265 ], [ 38345.474999999998545, 5946198.075000000186265 ], [ 38345.474999999998545, 5946198.150000000372529 ], [ 38345.55000000000291, 5946198.150000000372529 ], [ 38345.55000000000291, 5946198.299999999813735 ], [ 38345.625, 5946198.299999999813735 ], [ 38345.625, 5946198.375 ], [ 38345.69999999999709, 5946198.375 ], [ 38345.69999999999709, 5946198.450000000186265 ], [ 38345.775000000001455, 5946198.450000000186265 ], [ 38345.775000000001455, 5946198.525000000372529 ], [ 38345.849999999998545, 5946198.525000000372529 ], [ 38345.849999999998545, 5946198.599999999627471 ], [ 38345.92500000000291, 5946198.599999999627471 ], [ 38345.92500000000291, 5946198.674999999813735 ], [ 38346.0, 5946198.674999999813735 ], [ 38346.0, 5946198.75 ], [ 38346.07499999999709, 5946198.75 ], [ 38346.07499999999709, 5946198.825000000186265 ], [ 38346.150000000001455, 5946198.825000000186265 ], [ 38346.150000000001455, 5946198.900000000372529 ], [ 38346.224999999998545, 5946198.900000000372529 ], [ 38346.224999999998545, 5946198.974999999627471 ], [ 38346.30000000000291, 5946198.974999999627471 ], [ 38346.30000000000291, 5946199.049999999813735 ], [ 38346.375, 5946199.049999999813735 ], [ 38346.375, 5946199.349999999627471 ], [ 38346.44999999999709, 5946199.349999999627471 ], [ 38346.44999999999709, 5946199.724999999627471 ], [ 38346.525000000001455, 5946199.724999999627471 ], [ 38346.525000000001455, 5946200.025000000372529 ], [ 38346.599999999998545, 5946200.025000000372529 ], [ 38346.599999999998545, 5946200.325000000186265 ], [ 38346.67500000000291, 5946200.325000000186265 ], [ 38346.67500000000291, 5946200.549999999813735 ], [ 38346.75, 5946200.549999999813735 ], [ 38346.75, 5946200.849999999627471 ], [ 38346.82499999999709, 5946200.849999999627471 ], [ 38346.82499999999709, 5946201.525000000372529 ], [ 38346.75, 5946201.525000000372529 ], [ 38346.75, 5946201.825000000186265 ], [ 38346.67500000000291, 5946201.825000000186265 ], [ 38346.67500000000291, 5946201.974999999627471 ], [ 38346.599999999998545, 5946201.974999999627471 ], [ 38346.599999999998545, 5946202.125 ], [ 38346.525000000001455, 5946202.125 ], [ 38346.525000000001455, 5946202.200000000186265 ], [ 38346.44999999999709, 5946202.200000000186265 ], [ 38346.44999999999709, 5946202.275000000372529 ], [ 38346.375, 5946202.275000000372529 ], [ 38346.375, 5946202.349999999627471 ], [ 38346.224999999998545, 5946202.349999999627471 ], [ 38346.224999999998545, 5946202.424999999813735 ], [ 38346.150000000001455, 5946202.424999999813735 ], [ 38346.150000000001455, 5946202.5 ], [ 38346.07499999999709, 5946202.5 ], [ 38346.07499999999709, 5946202.575000000186265 ], [ 38346.0, 5946202.575000000186265 ], [ 38346.0, 5946202.799999999813735 ], [ 38345.92500000000291, 5946202.799999999813735 ], [ 38345.92500000000291, 5946202.950000000186265 ], [ 38345.849999999998545, 5946202.950000000186265 ], [ 38345.849999999998545, 5946203.400000000372529 ], [ 38345.775000000001455, 5946203.400000000372529 ], [ 38345.775000000001455, 5946204.150000000372529 ], [ 38345.69999999999709, 5946204.150000000372529 ], [ 38345.69999999999709, 5946204.900000000372529 ], [ 38345.625, 5946204.900000000372529 ], [ 38345.625, 5946205.650000000372529 ], [ 38345.55000000000291, 5946205.650000000372529 ], [ 38345.55000000000291, 5946206.474999999627471 ], [ 38345.474999999998545, 5946206.474999999627471 ], [ 38345.474999999998545, 5946207.974999999627471 ], [ 38345.400000000001455, 5946207.974999999627471 ], [ 38345.400000000001455, 5946209.099999999627471 ], [ 38345.32499999999709, 5946209.099999999627471 ], [ 38345.32499999999709, 5946209.325000000186265 ], [ 38345.25, 5946209.325000000186265 ], [ 38345.25, 5946209.474999999627471 ], [ 38345.17500000000291, 5946209.474999999627471 ], [ 38345.17500000000291, 5946209.625 ], [ 38345.099999999998545, 5946209.625 ], [ 38345.099999999998545, 5946209.775000000372529 ], [ 38345.025000000001455, 5946209.775000000372529 ], [ 38345.025000000001455, 5946209.924999999813735 ], [ 38344.94999999999709, 5946209.924999999813735 ], [ 38344.94999999999709, 5946210.075000000186265 ], [ 38344.875, 5946210.075000000186265 ], [ 38344.875, 5946210.150000000372529 ], [ 38344.80000000000291, 5946210.150000000372529 ], [ 38344.80000000000291, 5946210.299999999813735 ], [ 38344.724999999998545, 5946210.299999999813735 ], [ 38344.724999999998545, 5946210.375 ], [ 38344.650000000001455, 5946210.375 ], [ 38344.650000000001455, 5946210.525000000372529 ], [ 38344.57499999999709, 5946210.525000000372529 ], [ 38344.57499999999709, 5946210.599999999627471 ], [ 38344.5, 5946210.599999999627471 ], [ 38344.5, 5946210.674999999813735 ], [ 38344.42500000000291, 5946210.674999999813735 ], [ 38344.42500000000291, 5946210.75 ], [ 38344.349999999998545, 5946210.75 ], [ 38344.349999999998545, 5946210.825000000186265 ], [ 38344.275000000001455, 5946210.825000000186265 ], [ 38344.275000000001455, 5946210.900000000372529 ], [ 38344.19999999999709, 5946210.900000000372529 ], [ 38344.19999999999709, 5946210.974999999627471 ], [ 38344.125, 5946210.974999999627471 ], [ 38344.125, 5946211.049999999813735 ], [ 38344.05000000000291, 5946211.049999999813735 ], [ 38344.05000000000291, 5946211.125 ], [ 38343.974999999998545, 5946211.125 ], [ 38343.974999999998545, 5946211.275000000372529 ], [ 38343.900000000001455, 5946211.275000000372529 ], [ 38343.900000000001455, 5946211.349999999627471 ], [ 38343.82499999999709, 5946211.349999999627471 ], [ 38343.82499999999709, 5946211.424999999813735 ], [ 38343.75, 5946211.424999999813735 ], [ 38343.75, 5946211.575000000186265 ], [ 38343.67500000000291, 5946211.575000000186265 ], [ 38343.67500000000291, 5946211.650000000372529 ], [ 38343.599999999998545, 5946211.650000000372529 ], [ 38343.599999999998545, 5946211.799999999813735 ], [ 38343.525000000001455, 5946211.799999999813735 ], [ 38343.525000000001455, 5946211.950000000186265 ], [ 38343.44999999999709, 5946211.950000000186265 ], [ 38343.44999999999709, 5946212.099999999627471 ], [ 38343.375, 5946212.099999999627471 ], [ 38343.375, 5946212.25 ], [ 38343.30000000000291, 5946212.25 ], [ 38343.30000000000291, 5946212.400000000372529 ], [ 38343.224999999998545, 5946212.400000000372529 ], [ 38343.224999999998545, 5946212.549999999813735 ], [ 38343.150000000001455, 5946212.549999999813735 ], [ 38343.150000000001455, 5946212.700000000186265 ], [ 38343.07499999999709, 5946212.700000000186265 ], [ 38343.07499999999709, 5946212.849999999627471 ], [ 38343.0, 5946212.849999999627471 ], [ 38343.0, 5946213.0 ], [ 38342.92500000000291, 5946213.0 ], [ 38342.92500000000291, 5946213.075000000186265 ], [ 38342.849999999998545, 5946213.075000000186265 ], [ 38342.849999999998545, 5946213.150000000372529 ], [ 38342.775000000001455, 5946213.150000000372529 ], [ 38342.775000000001455, 5946213.224999999627471 ], [ 38342.69999999999709, 5946213.224999999627471 ], [ 38342.69999999999709, 5946213.299999999813735 ], [ 38342.625, 5946213.299999999813735 ], [ 38342.625, 5946213.375 ], [ 38342.55000000000291, 5946213.375 ], [ 38342.55000000000291, 5946213.450000000186265 ], [ 38342.474999999998545, 5946213.450000000186265 ], [ 38342.474999999998545, 5946213.525000000372529 ], [ 38342.400000000001455, 5946213.525000000372529 ], [ 38342.400000000001455, 5946213.599999999627471 ], [ 38342.25, 5946213.599999999627471 ], [ 38342.25, 5946213.674999999813735 ], [ 38342.099999999998545, 5946213.674999999813735 ], [ 38342.099999999998545, 5946213.75 ], [ 38341.80000000000291, 5946213.75 ], [ 38341.80000000000291, 5946213.825000000186265 ], [ 38341.5, 5946213.825000000186265 ], [ 38341.5, 5946213.900000000372529 ], [ 38341.275000000001455, 5946213.900000000372529 ], [ 38341.275000000001455, 5946213.974999999627471 ], [ 38340.974999999998545, 5946213.974999999627471 ], [ 38340.974999999998545, 5946214.049999999813735 ], [ 38340.67500000000291, 5946214.049999999813735 ], [ 38340.67500000000291, 5946214.125 ], [ 38340.44999999999709, 5946214.125 ], [ 38340.44999999999709, 5946214.200000000186265 ], [ 38340.150000000001455, 5946214.200000000186265 ], [ 38340.150000000001455, 5946214.275000000372529 ], [ 38339.849999999998545, 5946214.275000000372529 ], [ 38339.849999999998545, 5946214.349999999627471 ], [ 38339.55000000000291, 5946214.349999999627471 ], [ 38339.55000000000291, 5946214.424999999813735 ], [ 38339.32499999999709, 5946214.424999999813735 ], [ 38339.32499999999709, 5946214.5 ], [ 38339.099999999998545, 5946214.5 ], [ 38339.099999999998545, 5946214.575000000186265 ], [ 38338.724999999998545, 5946214.575000000186265 ], [ 38338.724999999998545, 5946214.650000000372529 ], [ 38338.125, 5946214.650000000372529 ], [ 38338.125, 5946214.724999999627471 ], [ 38337.75, 5946214.724999999627471 ], [ 38337.75, 5946214.799999999813735 ], [ 38337.599999999998545, 5946214.799999999813735 ], [ 38337.599999999998545, 5946214.875 ], [ 38337.375, 5946214.875 ], [ 38337.375, 5946214.950000000186265 ], [ 38337.150000000001455, 5946214.950000000186265 ], [ 38337.150000000001455, 5946215.025000000372529 ], [ 38336.92500000000291, 5946215.025000000372529 ], [ 38336.92500000000291, 5946215.099999999627471 ], [ 38336.625, 5946215.099999999627471 ], [ 38336.625, 5946215.174999999813735 ], [ 38335.724999999998545, 5946215.174999999813735 ] ] ] } }
]
}
