{
"type": "FeatureCollection",
"name": "37683E594807N_buildings",
"crs": { "type": "name", "properties": { "name": "urn:ogc:def:crs:EPSG::3776" } },
"features": [
{ "type": "Feature", "properties": { "value": 1.0, "building_id": 0, "area": 49.421249999944408 }, "geometry": { "type": "Polygon", "coordinates": [ [ [ 37794.599999999998545, 5948735.625 ], [ 37794.599999999998545, 5948735.549999999813735 ], [ 37794.525000000001455, 5948735.549999999813735 ], [ 37794.525000000001455, 5948735.474999999627471 ], [ 37794.375, 5948735.474999999627471 ], [ 37794.375, 5948735.400000000372529 ], [ 37794.30000000000291, 5948735.400000000372529 ], [ 37794.30000000000291, 5948735.325000000186265 ], [ 37794.150000000001455, 5948735.325000000186265 ], [ 37794.150000000001455, 5948735.25 ], [ 37794.07499999999709, 5948735.25 ], [ 37794.07499999999709, 5948735.174999999813735 ], [ 37793.92500000000291, 5948735.174999999813735 ], [ 37793.92500000000291, 5948735.099999999627471 ], [ 37793.849999999998545, 5948735.099999999627471 ], [ 37793.849999999998545, 5948735.025000000372529 ], [ 37793.69999999999709, 5948735.025000000372529 ], [ 37793.69999999999709, 5948734.950000000186265 ], [ 37793.625, 5948734.950000000186265 ], [ 37793.625, 5948734.875 ], [ 37793.474999999998545, 5948734.875 ], [ 37793.474999999998545, 5948734.799999999813735 ], [ 37793.400000000001455, 5948734.799999999813735 ], [ 37793.400000000001455, 5948734.724999999627471 ], [ 37793.32499999999709, 5948734.724999999627471 ], [ 37793.32499999999709, 5948734.650000000372529 ], [ 37793.25, 5948734.650000000372529 ], [ 37793.25, 5948734.5 ], [ 37793.17500000000291, 5948734.5 ], [ 37793.17500000000291, 5948734.200000000186265 ], [ 37793.099999999998545, 5948734.200000000186265 ], [ 37793.099999999998545, 5948734.125 ], [ 37793.025000000001455, 5948734.125 ], [ 37793.025000000001455, 5948734.049999999813735 ], [ 37792.94999999999709, 5948734.049999999813735 ], [ 37792.94999999999709, 5948733.974999999627471 ], [ 37792.875, 5948733.974999999627471 ], [ 37792.875, 5948733.825000000186265 ], [ 37792.80000000000291, 5948733.825000000186265 ], [ 37792.80000000000291, 5948733.75 ], [ 37792.724999999998545, 5948733.75 ], [ 37792.724999999998545, 5948733.599999999627471 ], [ 37792.650000000001455, 5948733.599999999627471 ], [ 37792.650000000001455, 5948733.450000000186265 ], [ 37792.57499999999709, 5948733.450000000186265 ], [ 37792.57499999999709, 5948733.299999999813735 ], [ 37792.5, 5948733.299999999813735 ], [ 37792.5, 5948733.150000000372529 ], [ 37792.42500000000291, 5948733.150000000372529 ], [ 37792.42500000000291, 5948733.0 ], [ 37792.349999999998545, 5948733.0 ], [ 37792.349999999998545, 5948732.775000000372529 ], [ 37792.275000000001455, 5948732.775000000372529 ], [ 37792.275000000001455, 5948732.549999999813735 ], [ 37792.19999999999709, 5948732.549999999813735 ], [ 37792.19999999999709, 5948731.5 ], [ 37792.275000000001455, 5948731.5 ], [ 37792.275000000001455, 5948730.674999999813735 ], [ 37792.349999999998545, 5948730.674999999813735 ], [ 37792.349999999998545, 5948730.224999999627471 ], [ 37792.42500000000291, 5948730.224999999627471 ], [ 37792.42500000000291, 5948730.075000000186265 ], [ 37792.5, 5948730.075000000186265 ], [ 37792.5, 5948729.849999999627471 ], [ 37792.57499999999709, 5948729.849999999627471 ], [ 37792.57499999999709, 5948729.700000000186265 ], [ 37792.650000000001455, 5948729.700000000186265 ], [ 37792.650000000001455, 5948729.549999999813735 ], [ 37792.724999999998545, 5948729.549999999813735 ], [ 37792.724999999998545, 5948729.400000000372529 ], [ 37792.80000000000291, 5948729.400000000372529 ], [ 37792.80000000000291, 5948729.25 ], [ 37792.875, 5948729.25 ], [ 37792.875, 5948729.174999999813735 ], [ 37792.94999999999709, 5948729.174999999813735 ], [ 37792.94999999999709, 5948729.025000000372529 ], [ 37793.025000000001455, 5948729.025000000372529 ], [ 37793.025000000001455, 5948728.950000000186265 ], [ 37793.099999999998545, 5948728.950000000186265 ], [ 37793.099999999998545, 5948728.875 ], [ 37793.17500000000291, 5948728.875 ], [ 37793.17500000000291, 5948728.724999999627471 ], [ 37793.25, 5948728.724999999627471 ], [ 37793.25, 5948728.650000000372529 ], [ 37793.32499999999709, 5948728.650000000372529 ], [ 37793.32499999999709, 5948728.575000000186265 ], [ 37793.400000000001455, 5948728.575000000186265 ], [ 37793.400000000001455, 5948728.5 ], [ 37793.55000000000291, 5948728.5 ], [ 37793.55000000000291, 5948728.424999999813735 ], [ 37793.775000000001455, 5948728.424999999813735 ], [ 37793.775000000001455, 5948728.349999999627471 ], [ 37793.92500000000291, 5948728.349999999627471 ], [ 37793.92500000000291, 5948728.275000000372529 ], [ 37794.0, 5948728.275000000372529 ], [ 37794.0, 5948728.200000000186265 ], [ 37794.150000000001455, 5948728.200000000186265 ], [ 37794.150000000001455, 5948728.125 ], [ 37794.375, 5948728.125 ], [ 37794.375, 5948728.049999999813735 ], [ 37794.525000000001455, 5948728.049999999813735 ], [ 37794.525000000001455, 5948727.974999999627471 ], [ 37794.75, 5948727.974999999627471 ], [ 37794.75, 5948727.900000000372529 ], [ 37795.05000000000291, 5948727.900000000372529 ], [ 37795.05000000000291, 5948727.825000000186265 ], [ 37795.724999999998545, 5948727.825000000186265 ], [ 37795.724999999998545, 5948727.900000000372529 ], [ 37796.400000000001455, 5948727.900000000372529 ], [ 37796.400000000001455, 5948727.974999999627471 ], [ 37797.150000000001455, 5948727.974999999627471 ], [ 37797.150000000001455, 5948728.049999999813735 ], [ 37797.375, 5948728.049999999813735 ], [ 37797.375, 5948728.125 ], [ 37797.44999999999709, 5948728.125 ], [ 37797.44999999999709, 5948728.200000000186265 ], [ 37797.525000000001455, 5948728.200000000186265 ], [ 37797.525000000001455, 5948728.275000000372529 ], [ 37797.67500000000291, 5948728.275000000372529 ], [ 37797.67500000000291, 5948728.349999999627471 ], [ 37797.75, 5948728.349999999627471 ], [ 37797.75, 5948728.424999999813735 ], [ 37798.05000000000291, 5948728.424999999813735 ], [ 37798.05000000000291, 5948728.5 ], [ 37798.349999999998545, 5948728.5 ], [ 37798.349999999998545, 5948728.575000000186265 ], [ 37798.57499999999709, 5948728.575000000186265 ], [ 37798.57499999999709, 5948728.650000000372529 ], [ 37798.80000000000291, 5948728.650000000372529 ], [ 37798.80000000000291, 5948728.724999999627471 ], [ 37798.94999999999709, 5948728.724999999627471 ], [ 37798.94999999999709, 5948728.799999999813735 ], [ 37799.099999999998545, 5948728.799999999813735 ], [ 37799.099999999998545, 5948728.875 ], [ 37799.25, 5948728.875 ], [ 37799.25, 5948728.950000000186265 ], [ 37799.400000000001455, 5948728.950000000186265 ], [ 37799.400000000001455, 5948729.025000000372529 ], [ 37799.474999999998545, 5948729.025000000372529 ], [ 37799.474999999998545, 5948729.099999999627471 ], [ 37799.625, 5948729.099999999627471 ], [ 37799.625, 5948729.174999999813735 ], [ 37799.69999999999709, 5948729.174999999813735 ], [ 37799.69999999999709, 5948729.25 ], [ 37799.849999999998545, 5948729.25 ], [ 37799.849999999998545, 5948729.325000000186265 ], [ 37799.92500000000291, 5948729.325000000186265 ], [ 37799.92500000000291, 5948729.400000000372529 ], [ 37800.0, 5948729.400000000372529 ], [ 37800.0, 5948729.474999999627471 ], [ 37800.07499999999709, 5948729.474999999627471 ], [ 37800.07499999999709, 5948729.549999999813735 ], [ 37800.150000000001455, 5948729.549999999813735 ], [ 37800.150000000001455, 5948729.625 ], [ 37800.224999999998545, 5948729.625 ], [ 37800.224999999998545, 5948729.700000000186265 ], [ 37800.30000000000291, 5948729.700000000186265 ], [ 37800.30000000000291, 5948729.775000000372529 ], [ 37800.375, 5948729.775000000372529 ], [ 37800.375, 5948729.849999999627471 ], [ 37800.44999999999709, 5948729.849999999627471 ], [ 37800.44999999999709, 5948729.924999999813735 ], [ 37800.525000000001455, 5948729.924999999813735 ], [ 37800.525000000001455, 5948730.075000000186265 ], [ 37800.599999999998545, 5948730.075000000186265 ], [ 37800.599999999998545, 5948730.224999999627471 ], [ 37800.67500000000291, 5948730.224999999627471 ], [ 37800.67500000000291, 5948730.299999999813735 ], [ 37800.75, 5948730.299999999813735 ], [ 37800.75, 5948730.825000000186265 ], [ 37800.82499999999709, 5948730.825000000186265 ], [ 37800.82499999999709, 5948731.424999999813735 ], [ 37800.900000000001455, 5948731.424999999813735 ], [ 37800.900000000001455, 5948732.174999999813735 ], [ 37800.974999999998545, 5948732.174999999813735 ], [ 37800.974999999998545, 5948732.325000000186265 ], [ 37800.900000000001455, 5948732.325000000186265 ], [ 37800.900000000001455, 5948732.549999999813735 ], [ 37800.82499999999709, 5948732.549999999813735 ], [ 37800.82499999999709, 5948732.700000000186265 ], [ 37800.75, 5948732.700000000186265 ], [ 37800.75, 5948732.849999999627471 ], [ 37800.67500000000291, 5948732.849999999627471 ], [ 37800.67500000000291, 5948733.0 ], [ 37800.599999999998545, 5948733.0 ], [ 37800.599999999998545, 5948733.075000000186265 ], [ 37800.525000000001455, 5948733.075000000186265 ], [ 37800.525000000001455, 5948733.150000000372529 ], [ 37800.44999999999709, 5948733.150000000372529 ], [ 37800.44999999999709, 5948733.224999999627471 ], [ 37800.30000000000291, 5948733.224999999627471 ], [ 37800.30000000000291, 5948733.299999999813735 ], [ 37800.150000000001455, 5948733.299999999813735 ], [ 37800.150000000001455, 5948733.375 ], [ 37800.07499999999709, 5948733.375 ], [ 37800.07499999999709, 5948733.450000000186265 ], [ 37799.92500000000291, 5948733.450000000186265 ], [ 37799.92500000000291, 5948733.525000000372529 ], [ 37799.69999999999709, 5948733.525000000372529 ], [ 37799.69999999999709, 5948733.599999999627471 ], [ 37799.55000000000291, 5948733.599999999627471 ], [ 37799.55000000000291, 5948733.674999999813735 ], [ 37799.32499999999709, 5948733.674999999813735 ], [ 37799.32499999999709, 5948733.75 ], [ 37799.17500000000291, 5948733.75 ], [ 37799.17500000000291, 5948733.825000000186265 ], [ 37799.025000000001455, 5948733.825000000186265 ], [ 37799.025000000001455, 5948733.900000000372529 ], [ 37798.875, 5948733.900000000372529 ], [ 37798.875, 5948733.974999999627471 ], [ 37798.650000000001455, 5948733.974999999627471 ], [ 37798.650000000001455, 5948734.049999999813735 ], [ 37798.42500000000291, 5948734.049999999813735 ], [ 37798.42500000000291, 5948734.125 ], [ 37798.05000000000291, 5948734.125 ], [ 37798.05000000000291, 5948734.200000000186265 ], [ 37797.67500000000291, 5948734.200000000186265 ], [ 37797.67500000000291, 5948734.275000000372529 ], [ 37797.375, 5948734.275000000372529 ], [ 37797.375, 5948734.349999999627471 ], [ 37797.224999999998545, 5948734.349999999627471 ], [ 37797.224999999998545, 5948734.424999999813735 ], [ 37797.0, 5948734.424999999813735 ], [ 37797.0, 5948734.5 ], [ 37796.849999999998545, 5948734.5 ], [ 37796.849999999998545, 5948734.575000000186265 ], [ 37796.625, 5948734.575000000186265 ], [ 37796.625, 5948734.650000000372529 ], [ 37796.474999999998545, 5948734.650000000372529 ], [ 37796.474999999998545, 5948734.724999999627471 ], [ 37796.32499999999709, 5948734.724999999627471 ], [ 37796.32499999999709, 5948734.799999999813735 ], [ 37796.17500000000291, 5948734.799999999813735 ], [ 37796.17500000000291, 5948734.875 ], [ 37796.025000000001455, 5948734.875 ], [ 37796.025000000001455, 5948734.950000000186265 ], [ 37795.875, 5948734.950000000186265 ], [ 37795.875, 5948735.025000000372529 ], [ 37795.80000000000291, 5948735.025000000372529 ], [ 37795.80000000000291, 5948735.099999999627471 ], [ 37795.650000000001455, 5948735.099999999627471 ], [ 37795.650000000001455, 5948735.174999999813735 ], [ 37795.57499999999709, 5948735.174999999813735 ], [ 37795.57499999999709, 5948735.25 ], [ 37795.42500000000291, 5948735.25 ], [ 37795.42500000000291, 5948735.325000000186265 ], [ 37795.349999999998545, 5948735.325000000186265 ], [ 37795.349999999998545, 5948735.400000000372529 ], [ 37795.19999999999709, 5948735.400000000372529 ], [ 37795.19999999999709, 5948735.474999999627471 ], [ 37794.974999999998545, 5948735.474999999627471 ], [ 37794.974999999998545, 5948735.549999999813735 ], [ 37794.82499999999709, 5948735.549999999813735 ], [ 37794.82499999999709, 5948735.625 ], [ 37794.599999999998545, 5948735.625 ] ] ] } },
{ "type": "Feature", "properties": { "value": 1.0, "building_id": 1, "area": 22.544999999625428 }, "geometry": { "type": "Polygon", "coordinates": [ [ [ 38295.224999999998545, 5948084.174999999813735 ], [ 38295.224999999998545, 5948084.099999999627471 ], [ 38295.150000000001455, 5948084.099999999627471 ], [ 38295.150000000001455, 5948084.025000000372529 ], [ 38295.07499999999709, 5948084.025000000372529 ], [ 38295.07499999999709, 5948083.950000000186265 ], [ 38295.0, 5948083.950000000186265 ], [ 38295.0, 5948083.724999999627471 ], [ 38294.92500000000291, 5948083.724999999627471 ], [ 38294.92500000000291, 5948083.349999999627471 ], [ 38294.849999999998545, 5948083.349999999627471 ], [ 38294.849999999998545, 5948083.049999999813735 ], [ 38294.775000000001455, 5948083.049999999813735 ], [ 38294.775000000001455, 5948082.75 ], [ 38294.69999999999709, 5948082.75 ], [ 38294.69999999999709, 5948082.525000000372529 ], [ 38294.625, 5948082.525000000372529 ], [ 38294.625, 5948082.299999999813735 ], [ 38294.55000000000291, 5948082.299999999813735 ], [ 38294.55000000000291, 5948082.150000000372529 ], [ 38294.474999999998545, 5948082.150000000372529 ], [ 38294.474999999998545, 5948082.0 ], [ 38294.400000000001455, 5948082.0 ], [ 38294.400000000001455, 5948079.0 ], [ 38299.42500000000291, 5948079.0 ], [ 38299.42500000000291, 5948082.0 ], [ 38299.349999999998545, 5948082.0 ], [ 38299.349999999998545, 5948082.150000000372529 ], [ 38299.275000000001455, 5948082.150000000372529 ], [ 38299.275000000001455, 5948082.224999999627471 ], [ 38299.19999999999709, 5948082.224999999627471 ], [ 38299.19999999999709, 5948082.299999999813735 ], [ 38298.974999999998545, 5948082.299999999813735 ], [ 38298.974999999998545, 5948082.375 ], [ 38298.82499999999709, 5948082.375 ], [ 38298.82499999999709, 5948082.450000000186265 ], [ 38298.75, 5948082.450000000186265 ], [ 38298.75, 5948082.525000000372529 ], [ 38298.599999999998545, 5948082.525000000372529 ], [ 38298.599999999998545, 5948082.599999999627471 ], [ 38298.525000000001455, 5948082.599999999627471 ], [ 38298.525000000001455, 5948082.674999999813735 ], [ 38298.44999999999709, 5948082.674999999813735 ], [ 38298.44999999999709, 5948082.75 ], [ 38298.375, 5948082.75 ], [ 38298.375, 5948082.825000000186265 ], [ 38298.30000000000291, 5948082.825000000186265 ], [ 38298.30000000000291, 5948082.900000000372529 ], [ 38298.224999999998545, 5948082.900000000372529 ], [ 38298.224999999998545, 5948082.974999999627471 ], [ 38298.150000000001455, 5948082.974999999627471 ], [ 38298.150000000001455, 5948083.049999999813735 ], [ 38298.07499999999709, 5948083.049999999813735 ], [ 38298.07499999999709, 5948083.200000000186265 ], [ 38298.0, 5948083.200000000186265 ], [ 38298.0, 5948083.275000000372529 ], [ 38297.92500000000291, 5948083.275000000372529 ], [ 38297.92500000000291, 5948083.424999999813735 ], [ 38297.849999999998545, 5948083.424999999813735 ], [ 38297.849999999998545, 5948083.650000000372529 ], [ 38297.775000000001455, 5948083.650000000372529 ], [ 38297.775000000001455, 5948083.799999999813735 ], [ 38297.69999999999709, 5948083.799999999813735 ], [ 38297.69999999999709, 5948083.950000000186265 ], [ 38297.55000000000291, 5948083.950000000186265 ], [ 38297.55000000000291, 5948084.025000000372529 ], [ 38297.474999999998545, 5948084.025000000372529 ], [ 38297.474999999998545, 5948084.099999999627471 ], [ 38297.32499999999709, 5948084.099999999627471 ], [ 38297.32499999999709, 5948084.174999999813735 ], [ 38295.224999999998545, 5948084.174999999813735 ] ] ] } }
]
}
