{
"type": "FeatureCollection",
"name": "38433E595107N_buildings",
"crs": { "type": "name", "properties": { "name": "urn:ogc:def:crs:EPSG::3776" } },
"features": [
{ "type": "Feature", "properties": { "value": 1.0, "building_id": 0, "area": 18.489375000241417 }, "geometry": { "type": "Polygon", "coordinates": [ [ [ 38484.150000000001455, 5951829.0 ], [ 38484.150000000001455, 5951826.0 ], [ 38484.224999999998545, 5951826.0 ], [ 38484.224999999998545, 5951825.924999999813735 ], [ 38484.30000000000291, 5951825.924999999813735 ], [ 38484.30000000000291, 5951825.849999999627471 ], [ 38484.375, 5951825.849999999627471 ], [ 38484.375, 5951825.775000000372529 ], [ 38484.44999999999709, 5951825.775000000372529 ], [ 38484.44999999999709, 5951825.700000000186265 ], [ 38484.525000000001455, 5951825.700000000186265 ], [ 38484.525000000001455, 5951825.625 ], [ 38484.599999999998545, 5951825.625 ], [ 38484.599999999998545, 5951825.549999999813735 ], [ 38484.67500000000291, 5951825.549999999813735 ], [ 38484.67500000000291, 5951825.474999999627471 ], [ 38484.974999999998545, 5951825.474999999627471 ], [ 38484.974999999998545, 5951825.549999999813735 ], [ 38485.5, 5951825.549999999813735 ], [ 38485.5, 5951825.625 ], [ 38486.025000000001455, 5951825.625 ], [ 38486.025000000001455, 5951825.700000000186265 ], [ 38486.625, 5951825.700000000186265 ], [ 38486.625, 5951825.775000000372529 ], [ 38487.224999999998545, 5951825.775000000372529 ], [ 38487.224999999998545, 5951825.849999999627471 ], [ 38487.974999999998545, 5951825.849999999627471 ], [ 38487.974999999998545, 5951825.924999999813735 ], [ 38488.724999999998545, 5951825.924999999813735 ], [ 38488.724999999998545, 5951826.0 ], [ 38489.55000000000291, 5951826.0 ], [ 38489.55000000000291, 5951826.075000000186265 ], [ 38489.92500000000291, 5951826.075000000186265 ], [ 38489.92500000000291, 5951829.0 ], [ 38484.150000000001455, 5951829.0 ] ] ] } }
]
}
