{
"type": "FeatureCollection",
"name": "38433E591882N_buildings",
"crs": { "type": "name", "properties": { "name": "urn:ogc:def:crs:EPSG::3776" } },
"features": [
{ "type": "Feature", "properties": { "value": 1.0, "building_id": 0, "area": 2.3850000000528229 }, "geometry": { "type": "Polygon", "coordinates": [ [ [ 39101.775000000001455, 5919566.625 ], [ 39101.775000000001455, 5919566.549999999813735 ], [ 39101.55000000000291, 5919566.549999999813735 ], [ 39101.55000000000291, 5919566.474999999627471 ], [ 39101.400000000001455, 5919566.474999999627471 ], [ 39101.400000000001455, 5919566.400000000372529 ], [ 39101.25, 5919566.400000000372529 ], [ 39101.25, 5919566.325000000186265 ], [ 39101.17500000000291, 5919566.325000000186265 ], [ 39101.17500000000291, 5919566.099999999627471 ], [ 39101.25, 5919566.099999999627471 ], [ 39101.25, 5919565.799999999813735 ], [ 39101.32499999999709, 5919565.799999999813735 ], [ 39101.32499999999709, 5919565.424999999813735 ], [ 39101.400000000001455, 5919565.424999999813735 ], [ 39101.400000000001455, 5919565.049999999813735 ], [ 39101.474999999998545, 5919565.049999999813735 ], [ 39101.474999999998545, 5919564.674999999813735 ], [ 39101.55000000000291, 5919564.674999999813735 ], [ 39101.55000000000291, 5919564.224999999627471 ], [ 39101.625, 5919564.224999999627471 ], [ 39101.625, 5919563.849999999627471 ], [ 39101.69999999999709, 5919563.849999999627471 ], [ 39101.69999999999709, 5919563.400000000372529 ], [ 39101.775000000001455, 5919563.400000000372529 ], [ 39101.775000000001455, 5919562.950000000186265 ], [ 39101.849999999998545, 5919562.950000000186265 ], [ 39101.849999999998545, 5919562.424999999813735 ], [ 39101.92500000000291, 5919562.424999999813735 ], [ 39101.92500000000291, 5919562.275000000372529 ], [ 39102.0, 5919562.275000000372529 ], [ 39102.0, 5919563.25 ], [ 39102.07499999999709, 5919563.25 ], [ 39102.07499999999709, 5919564.299999999813735 ], [ 39102.150000000001455, 5919564.299999999813735 ], [ 39102.150000000001455, 5919565.5 ], [ 39102.224999999998545, 5919565.5 ], [ 39102.224999999998545, 5919566.400000000372529 ], [ 39102.150000000001455, 5919566.400000000372529 ], [ 39102.150000000001455, 5919566.474999999627471 ], [ 39102.07499999999709, 5919566.474999999627471 ], [ 39102.07499999999709, 5919566.549999999813735 ], [ 39102.0, 5919566.549999999813735 ], [ 39102.0, 5919566.625 ], [ 39101.775000000001455, 5919566.625 ] ] ] } },
{ "type": "Feature", "properties": { "value": 1.0, "building_id": 1, "area": 188.57249999900128 }, "geometry": { "type": "Polygon", "coordinates": [ [ [ 38459.32499999999709, 5919503.099999999627471 ], [ 38459.32499999999709, 5919503.025000000372529 ], [ 38459.099999999998545, 5919503.025000000372529 ], [ 38459.099999999998545, 5919502.950000000186265 ], [ 38458.94999999999709, 5919502.950000000186265 ], [ 38458.94999999999709, 5919502.875 ], [ 38458.724999999998545, 5919502.875 ], [ 38458.724999999998545, 5919502.799999999813735 ], [ 38458.57499999999709, 5919502.799999999813735 ], [ 38458.57499999999709, 5919502.724999999627471 ], [ 38458.42500000000291, 5919502.724999999627471 ], [ 38458.42500000000291, 5919502.650000000372529 ], [ 38458.349999999998545, 5919502.650000000372529 ], [ 38458.349999999998545, 5919502.575000000186265 ], [ 38458.19999999999709, 5919502.575000000186265 ], [ 38458.19999999999709, 5919502.5 ], [ 38458.125, 5919502.5 ], [ 38458.125, 5919502.424999999813735 ], [ 38458.05000000000291, 5919502.424999999813735 ], [ 38458.05000000000291, 5919502.349999999627471 ], [ 38457.974999999998545, 5919502.349999999627471 ], [ 38457.974999999998545, 5919502.275000000372529 ], [ 38457.900000000001455, 5919502.275000000372529 ], [ 38457.900000000001455, 5919502.200000000186265 ], [ 38457.82499999999709, 5919502.200000000186265 ], [ 38457.82499999999709, 5919502.125 ], [ 38457.75, 5919502.125 ], [ 38457.75, 5919502.049999999813735 ], [ 38457.67500000000291, 5919502.049999999813735 ], [ 38457.67500000000291, 5919501.974999999627471 ], [ 38457.599999999998545, 5919501.974999999627471 ], [ 38457.599999999998545, 5919501.900000000372529 ], [ 38457.525000000001455, 5919501.900000000372529 ], [ 38457.525000000001455, 5919501.825000000186265 ], [ 38457.44999999999709, 5919501.825000000186265 ], [ 38457.44999999999709, 5919501.75 ], [ 38457.30000000000291, 5919501.75 ], [ 38457.30000000000291, 5919501.674999999813735 ], [ 38457.07499999999709, 5919501.674999999813735 ], [ 38457.07499999999709, 5919501.599999999627471 ], [ 38456.849999999998545, 5919501.599999999627471 ], [ 38456.849999999998545, 5919501.525000000372529 ], [ 38456.69999999999709, 5919501.525000000372529 ], [ 38456.69999999999709, 5919501.450000000186265 ], [ 38456.55000000000291, 5919501.450000000186265 ], [ 38456.55000000000291, 5919501.375 ], [ 38456.32499999999709, 5919501.375 ], [ 38456.32499999999709, 5919501.299999999813735 ], [ 38456.25, 5919501.299999999813735 ], [ 38456.25, 5919501.224999999627471 ], [ 38456.099999999998545, 5919501.224999999627471 ], [ 38456.099999999998545, 5919501.150000000372529 ], [ 38455.94999999999709, 5919501.150000000372529 ], [ 38455.94999999999709, 5919501.075000000186265 ], [ 38455.875, 5919501.075000000186265 ], [ 38455.875, 5919501.0 ], [ 38455.80000000000291, 5919501.0 ], [ 38455.80000000000291, 5919500.924999999813735 ], [ 38455.724999999998545, 5919500.924999999813735 ], [ 38455.724999999998545, 5919500.849999999627471 ], [ 38455.650000000001455, 5919500.849999999627471 ], [ 38455.650000000001455, 5919500.775000000372529 ], [ 38455.57499999999709, 5919500.775000000372529 ], [ 38455.57499999999709, 5919500.700000000186265 ], [ 38455.5, 5919500.700000000186265 ], [ 38455.5, 5919500.625 ], [ 38455.42500000000291, 5919500.625 ], [ 38455.42500000000291, 5919500.549999999813735 ], [ 38455.349999999998545, 5919500.549999999813735 ], [ 38455.349999999998545, 5919500.474999999627471 ], [ 38455.275000000001455, 5919500.474999999627471 ], [ 38455.275000000001455, 5919500.400000000372529 ], [ 38455.19999999999709, 5919500.400000000372529 ], [ 38455.19999999999709, 5919500.325000000186265 ], [ 38455.125, 5919500.325000000186265 ], [ 38455.125, 5919500.25 ], [ 38455.05000000000291, 5919500.25 ], [ 38455.05000000000291, 5919500.174999999813735 ], [ 38454.974999999998545, 5919500.174999999813735 ], [ 38454.974999999998545, 5919500.099999999627471 ], [ 38454.900000000001455, 5919500.099999999627471 ], [ 38454.900000000001455, 5919499.950000000186265 ], [ 38454.82499999999709, 5919499.950000000186265 ], [ 38454.82499999999709, 5919499.875 ], [ 38454.75, 5919499.875 ], [ 38454.75, 5919499.799999999813735 ], [ 38454.599999999998545, 5919499.799999999813735 ], [ 38454.599999999998545, 5919499.724999999627471 ], [ 38454.525000000001455, 5919499.724999999627471 ], [ 38454.525000000001455, 5919499.650000000372529 ], [ 38454.44999999999709, 5919499.650000000372529 ], [ 38454.44999999999709, 5919499.575000000186265 ], [ 38454.375, 5919499.575000000186265 ], [ 38454.375, 5919499.5 ], [ 38454.30000000000291, 5919499.5 ], [ 38454.30000000000291, 5919499.424999999813735 ], [ 38454.224999999998545, 5919499.424999999813735 ], [ 38454.224999999998545, 5919499.349999999627471 ], [ 38454.07499999999709, 5919499.349999999627471 ], [ 38454.07499999999709, 5919499.275000000372529 ], [ 38454.0, 5919499.275000000372529 ], [ 38454.0, 5919499.200000000186265 ], [ 38453.92500000000291, 5919499.200000000186265 ], [ 38453.92500000000291, 5919499.125 ], [ 38453.849999999998545, 5919499.125 ], [ 38453.849999999998545, 5919499.049999999813735 ], [ 38453.775000000001455, 5919499.049999999813735 ], [ 38453.775000000001455, 5919498.974999999627471 ], [ 38453.69999999999709, 5919498.974999999627471 ], [ 38453.69999999999709, 5919498.900000000372529 ], [ 38453.625, 5919498.900000000372529 ], [ 38453.625, 5919498.825000000186265 ], [ 38453.55000000000291, 5919498.825000000186265 ], [ 38453.55000000000291, 5919498.75 ], [ 38453.474999999998545, 5919498.75 ], [ 38453.474999999998545, 5919498.674999999813735 ], [ 38453.400000000001455, 5919498.674999999813735 ], [ 38453.400000000001455, 5919498.599999999627471 ], [ 38453.32499999999709, 5919498.599999999627471 ], [ 38453.32499999999709, 5919498.525000000372529 ], [ 38453.25, 5919498.525000000372529 ], [ 38453.25, 5919498.375 ], [ 38453.17500000000291, 5919498.375 ], [ 38453.17500000000291, 5919498.299999999813735 ], [ 38453.099999999998545, 5919498.299999999813735 ], [ 38453.099999999998545, 5919498.150000000372529 ], [ 38453.025000000001455, 5919498.150000000372529 ], [ 38453.025000000001455, 5919498.075000000186265 ], [ 38452.94999999999709, 5919498.075000000186265 ], [ 38452.94999999999709, 5919497.924999999813735 ], [ 38452.875, 5919497.924999999813735 ], [ 38452.875, 5919497.775000000372529 ], [ 38452.80000000000291, 5919497.775000000372529 ], [ 38452.80000000000291, 5919497.549999999813735 ], [ 38452.724999999998545, 5919497.549999999813735 ], [ 38452.724999999998545, 5919497.325000000186265 ], [ 38452.650000000001455, 5919497.325000000186265 ], [ 38452.650000000001455, 5919497.099999999627471 ], [ 38452.57499999999709, 5919497.099999999627471 ], [ 38452.57499999999709, 5919496.875 ], [ 38452.5, 5919496.875 ], [ 38452.5, 5919496.5 ], [ 38452.42500000000291, 5919496.5 ], [ 38452.42500000000291, 5919496.200000000186265 ], [ 38452.349999999998545, 5919496.200000000186265 ], [ 38452.349999999998545, 5919494.325000000186265 ], [ 38452.42500000000291, 5919494.325000000186265 ], [ 38452.42500000000291, 5919490.200000000186265 ], [ 38452.5, 5919490.200000000186265 ], [ 38452.5, 5919489.974999999627471 ], [ 38452.57499999999709, 5919489.974999999627471 ], [ 38452.57499999999709, 5919489.825000000186265 ], [ 38452.650000000001455, 5919489.825000000186265 ], [ 38452.650000000001455, 5919489.674999999813735 ], [ 38452.724999999998545, 5919489.674999999813735 ], [ 38452.724999999998545, 5919489.599999999627471 ], [ 38452.80000000000291, 5919489.599999999627471 ], [ 38452.80000000000291, 5919489.450000000186265 ], [ 38452.875, 5919489.450000000186265 ], [ 38452.875, 5919489.299999999813735 ], [ 38452.94999999999709, 5919489.299999999813735 ], [ 38452.94999999999709, 5919489.224999999627471 ], [ 38453.025000000001455, 5919489.224999999627471 ], [ 38453.025000000001455, 5919489.150000000372529 ], [ 38453.099999999998545, 5919489.150000000372529 ], [ 38453.099999999998545, 5919489.0 ], [ 38453.17500000000291, 5919489.0 ], [ 38453.17500000000291, 5919488.924999999813735 ], [ 38453.25, 5919488.924999999813735 ], [ 38453.25, 5919488.849999999627471 ], [ 38453.32499999999709, 5919488.849999999627471 ], [ 38453.32499999999709, 5919488.775000000372529 ], [ 38453.400000000001455, 5919488.775000000372529 ], [ 38453.400000000001455, 5919488.700000000186265 ], [ 38453.474999999998545, 5919488.700000000186265 ], [ 38453.474999999998545, 5919488.625 ], [ 38453.55000000000291, 5919488.625 ], [ 38453.55000000000291, 5919488.549999999813735 ], [ 38453.625, 5919488.549999999813735 ], [ 38453.625, 5919488.474999999627471 ], [ 38453.69999999999709, 5919488.474999999627471 ], [ 38453.69999999999709, 5919488.400000000372529 ], [ 38453.775000000001455, 5919488.400000000372529 ], [ 38453.775000000001455, 5919488.325000000186265 ], [ 38453.849999999998545, 5919488.325000000186265 ], [ 38453.849999999998545, 5919488.25 ], [ 38453.92500000000291, 5919488.25 ], [ 38453.92500000000291, 5919488.174999999813735 ], [ 38454.0, 5919488.174999999813735 ], [ 38454.0, 5919488.099999999627471 ], [ 38454.07499999999709, 5919488.099999999627471 ], [ 38454.07499999999709, 5919488.025000000372529 ], [ 38454.224999999998545, 5919488.025000000372529 ], [ 38454.224999999998545, 5919487.950000000186265 ], [ 38454.30000000000291, 5919487.950000000186265 ], [ 38454.30000000000291, 5919487.875 ], [ 38454.375, 5919487.875 ], [ 38454.375, 5919487.799999999813735 ], [ 38454.525000000001455, 5919487.799999999813735 ], [ 38454.525000000001455, 5919487.724999999627471 ], [ 38454.67500000000291, 5919487.724999999627471 ], [ 38454.67500000000291, 5919487.650000000372529 ], [ 38454.82499999999709, 5919487.650000000372529 ], [ 38454.82499999999709, 5919487.575000000186265 ], [ 38454.974999999998545, 5919487.575000000186265 ], [ 38454.974999999998545, 5919487.5 ], [ 38455.125, 5919487.5 ], [ 38455.125, 5919487.424999999813735 ], [ 38455.275000000001455, 5919487.424999999813735 ], [ 38455.275000000001455, 5919487.349999999627471 ], [ 38455.57499999999709, 5919487.349999999627471 ], [ 38455.57499999999709, 5919487.275000000372529 ], [ 38456.025000000001455, 5919487.275000000372529 ], [ 38456.025000000001455, 5919487.200000000186265 ], [ 38456.625, 5919487.200000000186265 ], [ 38456.625, 5919487.125 ], [ 38457.150000000001455, 5919487.125 ], [ 38457.150000000001455, 5919487.049999999813735 ], [ 38457.67500000000291, 5919487.049999999813735 ], [ 38457.67500000000291, 5919486.974999999627471 ], [ 38458.19999999999709, 5919486.974999999627471 ], [ 38458.19999999999709, 5919486.900000000372529 ], [ 38458.650000000001455, 5919486.900000000372529 ], [ 38458.650000000001455, 5919486.825000000186265 ], [ 38459.17500000000291, 5919486.825000000186265 ], [ 38459.17500000000291, 5919486.75 ], [ 38461.349999999998545, 5919486.75 ], [ 38461.349999999998545, 5919486.825000000186265 ], [ 38461.724999999998545, 5919486.825000000186265 ], [ 38461.724999999998545, 5919486.900000000372529 ], [ 38462.099999999998545, 5919486.900000000372529 ], [ 38462.099999999998545, 5919486.974999999627471 ], [ 38462.32499999999709, 5919486.974999999627471 ], [ 38462.32499999999709, 5919487.049999999813735 ], [ 38462.55000000000291, 5919487.049999999813735 ], [ 38462.55000000000291, 5919487.125 ], [ 38462.775000000001455, 5919487.125 ], [ 38462.775000000001455, 5919487.200000000186265 ], [ 38462.92500000000291, 5919487.200000000186265 ], [ 38462.92500000000291, 5919487.275000000372529 ], [ 38463.07499999999709, 5919487.275000000372529 ], [ 38463.07499999999709, 5919487.349999999627471 ], [ 38463.224999999998545, 5919487.349999999627471 ], [ 38463.224999999998545, 5919487.424999999813735 ], [ 38463.30000000000291, 5919487.424999999813735 ], [ 38463.30000000000291, 5919487.5 ], [ 38463.44999999999709, 5919487.5 ], [ 38463.44999999999709, 5919487.575000000186265 ], [ 38463.525000000001455, 5919487.575000000186265 ], [ 38463.525000000001455, 5919487.650000000372529 ], [ 38463.599999999998545, 5919487.650000000372529 ], [ 38463.599999999998545, 5919487.724999999627471 ], [ 38463.67500000000291, 5919487.724999999627471 ], [ 38463.67500000000291, 5919487.799999999813735 ], [ 38463.75, 5919487.799999999813735 ], [ 38463.75, 5919487.875 ], [ 38463.82499999999709, 5919487.875 ], [ 38463.82499999999709, 5919487.950000000186265 ], [ 38463.900000000001455, 5919487.950000000186265 ], [ 38463.900000000001455, 5919488.025000000372529 ], [ 38463.974999999998545, 5919488.025000000372529 ], [ 38463.974999999998545, 5919488.174999999813735 ], [ 38464.05000000000291, 5919488.174999999813735 ], [ 38464.05000000000291, 5919488.25 ], [ 38464.125, 5919488.25 ], [ 38464.125, 5919488.325000000186265 ], [ 38464.19999999999709, 5919488.325000000186265 ], [ 38464.19999999999709, 5919488.474999999627471 ], [ 38464.275000000001455, 5919488.474999999627471 ], [ 38464.275000000001455, 5919488.625 ], [ 38464.349999999998545, 5919488.625 ], [ 38464.349999999998545, 5919488.775000000372529 ], [ 38464.42500000000291, 5919488.775000000372529 ], [ 38464.42500000000291, 5919488.924999999813735 ], [ 38464.5, 5919488.924999999813735 ], [ 38464.5, 5919489.075000000186265 ], [ 38464.57499999999709, 5919489.075000000186265 ], [ 38464.57499999999709, 5919489.299999999813735 ], [ 38464.650000000001455, 5919489.299999999813735 ], [ 38464.650000000001455, 5919489.525000000372529 ], [ 38464.724999999998545, 5919489.525000000372529 ], [ 38464.724999999998545, 5919489.825000000186265 ], [ 38464.80000000000291, 5919489.825000000186265 ], [ 38464.80000000000291, 5919490.125 ], [ 38464.875, 5919490.125 ], [ 38464.875, 5919490.275000000372529 ], [ 38464.94999999999709, 5919490.275000000372529 ], [ 38464.94999999999709, 5919490.424999999813735 ], [ 38465.025000000001455, 5919490.424999999813735 ], [ 38465.025000000001455, 5919490.5 ], [ 38465.099999999998545, 5919490.5 ], [ 38465.099999999998545, 5919490.650000000372529 ], [ 38465.17500000000291, 5919490.650000000372529 ], [ 38465.17500000000291, 5919490.724999999627471 ], [ 38465.25, 5919490.724999999627471 ], [ 38465.25, 5919490.799999999813735 ], [ 38465.32499999999709, 5919490.799999999813735 ], [ 38465.32499999999709, 5919490.875 ], [ 38465.400000000001455, 5919490.875 ], [ 38465.400000000001455, 5919490.950000000186265 ], [ 38465.474999999998545, 5919490.950000000186265 ], [ 38465.474999999998545, 5919491.025000000372529 ], [ 38465.55000000000291, 5919491.025000000372529 ], [ 38465.55000000000291, 5919491.099999999627471 ], [ 38465.625, 5919491.099999999627471 ], [ 38465.625, 5919491.25 ], [ 38465.69999999999709, 5919491.25 ], [ 38465.69999999999709, 5919491.325000000186265 ], [ 38465.775000000001455, 5919491.325000000186265 ], [ 38465.775000000001455, 5919491.474999999627471 ], [ 38465.849999999998545, 5919491.474999999627471 ], [ 38465.849999999998545, 5919491.625 ], [ 38465.92500000000291, 5919491.625 ], [ 38465.92500000000291, 5919491.775000000372529 ], [ 38466.0, 5919491.775000000372529 ], [ 38466.0, 5919491.924999999813735 ], [ 38466.07499999999709, 5919491.924999999813735 ], [ 38466.07499999999709, 5919492.150000000372529 ], [ 38466.150000000001455, 5919492.150000000372529 ], [ 38466.150000000001455, 5919492.599999999627471 ], [ 38466.224999999998545, 5919492.599999999627471 ], [ 38466.224999999998545, 5919493.049999999813735 ], [ 38466.30000000000291, 5919493.049999999813735 ], [ 38466.30000000000291, 5919493.575000000186265 ], [ 38466.375, 5919493.575000000186265 ], [ 38466.375, 5919494.099999999627471 ], [ 38466.44999999999709, 5919494.099999999627471 ], [ 38466.44999999999709, 5919494.25 ], [ 38466.525000000001455, 5919494.25 ], [ 38466.525000000001455, 5919494.474999999627471 ], [ 38466.599999999998545, 5919494.474999999627471 ], [ 38466.599999999998545, 5919494.625 ], [ 38466.67500000000291, 5919494.625 ], [ 38466.67500000000291, 5919494.775000000372529 ], [ 38466.75, 5919494.775000000372529 ], [ 38466.75, 5919494.924999999813735 ], [ 38466.82499999999709, 5919494.924999999813735 ], [ 38466.82499999999709, 5919495.075000000186265 ], [ 38466.900000000001455, 5919495.075000000186265 ], [ 38466.900000000001455, 5919495.150000000372529 ], [ 38466.974999999998545, 5919495.150000000372529 ], [ 38466.974999999998545, 5919495.299999999813735 ], [ 38467.05000000000291, 5919495.299999999813735 ], [ 38467.05000000000291, 5919495.375 ], [ 38467.125, 5919495.375 ], [ 38467.125, 5919495.450000000186265 ], [ 38467.19999999999709, 5919495.450000000186265 ], [ 38467.19999999999709, 5919495.525000000372529 ], [ 38467.275000000001455, 5919495.525000000372529 ], [ 38467.275000000001455, 5919495.674999999813735 ], [ 38467.349999999998545, 5919495.674999999813735 ], [ 38467.349999999998545, 5919495.75 ], [ 38467.42500000000291, 5919495.75 ], [ 38467.42500000000291, 5919495.900000000372529 ], [ 38467.5, 5919495.900000000372529 ], [ 38467.5, 5919496.275000000372529 ], [ 38467.42500000000291, 5919496.275000000372529 ], [ 38467.42500000000291, 5919496.575000000186265 ], [ 38467.349999999998545, 5919496.575000000186265 ], [ 38467.349999999998545, 5919496.799999999813735 ], [ 38467.275000000001455, 5919496.799999999813735 ], [ 38467.275000000001455, 5919497.099999999627471 ], [ 38467.19999999999709, 5919497.099999999627471 ], [ 38467.19999999999709, 5919497.325000000186265 ], [ 38467.125, 5919497.325000000186265 ], [ 38467.125, 5919497.549999999813735 ], [ 38467.05000000000291, 5919497.549999999813735 ], [ 38467.05000000000291, 5919497.775000000372529 ], [ 38466.974999999998545, 5919497.775000000372529 ], [ 38466.974999999998545, 5919498.0 ], [ 38466.900000000001455, 5919498.0 ], [ 38466.900000000001455, 5919498.075000000186265 ], [ 38466.82499999999709, 5919498.075000000186265 ], [ 38466.82499999999709, 5919498.224999999627471 ], [ 38466.75, 5919498.224999999627471 ], [ 38466.75, 5919498.299999999813735 ], [ 38466.67500000000291, 5919498.299999999813735 ], [ 38466.67500000000291, 5919498.375 ], [ 38466.599999999998545, 5919498.375 ], [ 38466.599999999998545, 5919498.525000000372529 ], [ 38466.525000000001455, 5919498.525000000372529 ], [ 38466.525000000001455, 5919498.599999999627471 ], [ 38466.44999999999709, 5919498.599999999627471 ], [ 38466.44999999999709, 5919498.674999999813735 ], [ 38466.375, 5919498.674999999813735 ], [ 38466.375, 5919498.825000000186265 ], [ 38466.30000000000291, 5919498.825000000186265 ], [ 38466.30000000000291, 5919498.900000000372529 ], [ 38466.224999999998545, 5919498.900000000372529 ], [ 38466.224999999998545, 5919498.974999999627471 ], [ 38466.150000000001455, 5919498.974999999627471 ], [ 38466.150000000001455, 5919499.049999999813735 ], [ 38466.07499999999709, 5919499.049999999813735 ], [ 38466.07499999999709, 5919499.125 ], [ 38466.0, 5919499.125 ], [ 38466.0, 5919499.200000000186265 ], [ 38465.92500000000291, 5919499.200000000186265 ], [ 38465.92500000000291, 5919499.275000000372529 ], [ 38465.849999999998545, 5919499.275000000372529 ], [ 38465.849999999998545, 5919499.349999999627471 ], [ 38465.775000000001455, 5919499.349999999627471 ], [ 38465.775000000001455, 5919499.424999999813735 ], [ 38465.69999999999709, 5919499.424999999813735 ], [ 38465.69999999999709, 5919499.5 ], [ 38465.625, 5919499.5 ], [ 38465.625, 5919499.575000000186265 ], [ 38465.55000000000291, 5919499.575000000186265 ], [ 38465.55000000000291, 5919499.650000000372529 ], [ 38465.474999999998545, 5919499.650000000372529 ], [ 38465.474999999998545, 5919499.724999999627471 ], [ 38465.400000000001455, 5919499.724999999627471 ], [ 38465.400000000001455, 5919499.799999999813735 ], [ 38465.32499999999709, 5919499.799999999813735 ], [ 38465.32499999999709, 5919499.875 ], [ 38465.25, 5919499.875 ], [ 38465.25, 5919499.950000000186265 ], [ 38465.17500000000291, 5919499.950000000186265 ], [ 38465.17500000000291, 5919500.099999999627471 ], [ 38465.099999999998545, 5919500.099999999627471 ], [ 38465.099999999998545, 5919500.174999999813735 ], [ 38465.025000000001455, 5919500.174999999813735 ], [ 38465.025000000001455, 5919500.325000000186265 ], [ 38464.94999999999709, 5919500.325000000186265 ], [ 38464.94999999999709, 5919500.400000000372529 ], [ 38464.875, 5919500.400000000372529 ], [ 38464.875, 5919500.549999999813735 ], [ 38464.80000000000291, 5919500.549999999813735 ], [ 38464.80000000000291, 5919500.625 ], [ 38464.724999999998545, 5919500.625 ], [ 38464.724999999998545, 5919500.700000000186265 ], [ 38464.650000000001455, 5919500.700000000186265 ], [ 38464.650000000001455, 5919500.775000000372529 ], [ 38464.57499999999709, 5919500.775000000372529 ], [ 38464.57499999999709, 5919500.849999999627471 ], [ 38464.5, 5919500.849999999627471 ], [ 38464.5, 5919500.924999999813735 ], [ 38464.42500000000291, 5919500.924999999813735 ], [ 38464.42500000000291, 5919501.0 ], [ 38464.349999999998545, 5919501.0 ], [ 38464.349999999998545, 5919501.075000000186265 ], [ 38464.275000000001455, 5919501.075000000186265 ], [ 38464.275000000001455, 5919501.150000000372529 ], [ 38464.125, 5919501.150000000372529 ], [ 38464.125, 5919501.224999999627471 ], [ 38463.974999999998545, 5919501.224999999627471 ], [ 38463.974999999998545, 5919501.299999999813735 ], [ 38463.900000000001455, 5919501.299999999813735 ], [ 38463.900000000001455, 5919501.375 ], [ 38463.75, 5919501.375 ], [ 38463.75, 5919501.450000000186265 ], [ 38463.599999999998545, 5919501.450000000186265 ], [ 38463.599999999998545, 5919501.525000000372529 ], [ 38463.375, 5919501.525000000372529 ], [ 38463.375, 5919501.599999999627471 ], [ 38463.224999999998545, 5919501.599999999627471 ], [ 38463.224999999998545, 5919501.674999999813735 ], [ 38463.150000000001455, 5919501.674999999813735 ], [ 38463.150000000001455, 5919501.75 ], [ 38463.07499999999709, 5919501.75 ], [ 38463.07499999999709, 5919501.825000000186265 ], [ 38463.0, 5919501.825000000186265 ], [ 38463.0, 5919501.974999999627471 ], [ 38462.92500000000291, 5919501.974999999627471 ], [ 38462.92500000000291, 5919502.125 ], [ 38462.849999999998545, 5919502.125 ], [ 38462.849999999998545, 5919502.275000000372529 ], [ 38462.775000000001455, 5919502.275000000372529 ], [ 38462.775000000001455, 5919502.424999999813735 ], [ 38462.69999999999709, 5919502.424999999813735 ], [ 38462.69999999999709, 5919502.5 ], [ 38462.55000000000291, 5919502.5 ], [ 38462.55000000000291, 5919502.575000000186265 ], [ 38462.474999999998545, 5919502.575000000186265 ], [ 38462.474999999998545, 5919502.650000000372529 ], [ 38462.32499999999709, 5919502.650000000372529 ], [ 38462.32499999999709, 5919502.724999999627471 ], [ 38462.17500000000291, 5919502.724999999627471 ], [ 38462.17500000000291, 5919502.799999999813735 ], [ 38462.025000000001455, 5919502.799999999813735 ], [ 38462.025000000001455, 5919502.875 ], [ 38461.875, 5919502.875 ], [ 38461.875, 5919502.950000000186265 ], [ 38461.650000000001455, 5919502.950000000186265 ], [ 38461.650000000001455, 5919503.025000000372529 ], [ 38461.42500000000291, 5919503.025000000372529 ], [ 38461.42500000000291, 5919503.099999999627471 ], [ 38459.32499999999709, 5919503.099999999627471 ] ] ] } },
{ "type": "Feature", "properties": { "value": 1.0, "building_id": 2, "area": 14.894999999971404 }, "geometry": { "type": "Polygon", "coordinates": [ [ [ 38623.42500000000291, 5919136.799999999813735 ], [ 38623.42500000000291, 5919136.724999999627471 ], [ 38623.275000000001455, 5919136.724999999627471 ], [ 38623.275000000001455, 5919136.5 ], [ 38623.19999999999709, 5919136.5 ], [ 38623.19999999999709, 5919135.450000000186265 ], [ 38623.125, 5919135.450000000186265 ], [ 38623.125, 5919134.25 ], [ 38623.05000000000291, 5919134.25 ], [ 38623.05000000000291, 5919132.825000000186265 ], [ 38622.974999999998545, 5919132.825000000186265 ], [ 38622.974999999998545, 5919131.325000000186265 ], [ 38622.900000000001455, 5919131.325000000186265 ], [ 38622.900000000001455, 5919130.724999999627471 ], [ 38622.974999999998545, 5919130.724999999627471 ], [ 38622.974999999998545, 5919130.5 ], [ 38623.05000000000291, 5919130.5 ], [ 38623.05000000000291, 5919130.349999999627471 ], [ 38623.125, 5919130.349999999627471 ], [ 38623.125, 5919130.125 ], [ 38623.19999999999709, 5919130.125 ], [ 38623.19999999999709, 5919129.974999999627471 ], [ 38623.275000000001455, 5919129.974999999627471 ], [ 38623.275000000001455, 5919129.825000000186265 ], [ 38623.349999999998545, 5919129.825000000186265 ], [ 38623.349999999998545, 5919129.75 ], [ 38623.42500000000291, 5919129.75 ], [ 38623.42500000000291, 5919129.674999999813735 ], [ 38623.57499999999709, 5919129.674999999813735 ], [ 38623.57499999999709, 5919129.599999999627471 ], [ 38624.025000000001455, 5919129.599999999627471 ], [ 38624.025000000001455, 5919129.525000000372529 ], [ 38624.400000000001455, 5919129.525000000372529 ], [ 38624.400000000001455, 5919129.450000000186265 ], [ 38624.775000000001455, 5919129.450000000186265 ], [ 38624.775000000001455, 5919129.375 ], [ 38625.0, 5919129.375 ], [ 38625.0, 5919129.299999999813735 ], [ 38625.30000000000291, 5919129.299999999813735 ], [ 38625.30000000000291, 5919129.224999999627471 ], [ 38625.375, 5919129.224999999627471 ], [ 38625.375, 5919129.299999999813735 ], [ 38625.44999999999709, 5919129.299999999813735 ], [ 38625.44999999999709, 5919129.525000000372529 ], [ 38625.525000000001455, 5919129.525000000372529 ], [ 38625.525000000001455, 5919129.75 ], [ 38625.599999999998545, 5919129.75 ], [ 38625.599999999998545, 5919129.974999999627471 ], [ 38625.67500000000291, 5919129.974999999627471 ], [ 38625.67500000000291, 5919130.275000000372529 ], [ 38625.75, 5919130.275000000372529 ], [ 38625.75, 5919130.575000000186265 ], [ 38625.82499999999709, 5919130.575000000186265 ], [ 38625.82499999999709, 5919131.174999999813735 ], [ 38625.75, 5919131.174999999813735 ], [ 38625.75, 5919132.0 ], [ 38625.67500000000291, 5919132.0 ], [ 38625.67500000000291, 5919132.75 ], [ 38625.599999999998545, 5919132.75 ], [ 38625.599999999998545, 5919133.125 ], [ 38625.525000000001455, 5919133.125 ], [ 38625.525000000001455, 5919133.424999999813735 ], [ 38625.44999999999709, 5919133.424999999813735 ], [ 38625.44999999999709, 5919133.724999999627471 ], [ 38625.375, 5919133.724999999627471 ], [ 38625.375, 5919133.875 ], [ 38625.30000000000291, 5919133.875 ], [ 38625.30000000000291, 5919133.950000000186265 ], [ 38625.224999999998545, 5919133.950000000186265 ], [ 38625.224999999998545, 5919134.025000000372529 ], [ 38625.150000000001455, 5919134.025000000372529 ], [ 38625.150000000001455, 5919134.099999999627471 ], [ 38625.07499999999709, 5919134.099999999627471 ], [ 38625.07499999999709, 5919134.174999999813735 ], [ 38625.0, 5919134.174999999813735 ], [ 38625.0, 5919134.325000000186265 ], [ 38624.92500000000291, 5919134.325000000186265 ], [ 38624.92500000000291, 5919134.400000000372529 ], [ 38624.849999999998545, 5919134.400000000372529 ], [ 38624.849999999998545, 5919134.474999999627471 ], [ 38624.775000000001455, 5919134.474999999627471 ], [ 38624.775000000001455, 5919134.549999999813735 ], [ 38624.69999999999709, 5919134.549999999813735 ], [ 38624.69999999999709, 5919134.700000000186265 ], [ 38624.625, 5919134.700000000186265 ], [ 38624.625, 5919134.775000000372529 ], [ 38624.55000000000291, 5919134.775000000372529 ], [ 38624.55000000000291, 5919134.849999999627471 ], [ 38624.474999999998545, 5919134.849999999627471 ], [ 38624.474999999998545, 5919134.924999999813735 ], [ 38624.400000000001455, 5919134.924999999813735 ], [ 38624.400000000001455, 5919135.075000000186265 ], [ 38624.32499999999709, 5919135.075000000186265 ], [ 38624.32499999999709, 5919135.224999999627471 ], [ 38624.25, 5919135.224999999627471 ], [ 38624.25, 5919135.299999999813735 ], [ 38624.17500000000291, 5919135.299999999813735 ], [ 38624.17500000000291, 5919135.450000000186265 ], [ 38624.099999999998545, 5919135.450000000186265 ], [ 38624.099999999998545, 5919135.674999999813735 ], [ 38624.025000000001455, 5919135.674999999813735 ], [ 38624.025000000001455, 5919135.825000000186265 ], [ 38623.94999999999709, 5919135.825000000186265 ], [ 38623.94999999999709, 5919136.049999999813735 ], [ 38623.875, 5919136.049999999813735 ], [ 38623.875, 5919136.349999999627471 ], [ 38623.80000000000291, 5919136.349999999627471 ], [ 38623.80000000000291, 5919136.650000000372529 ], [ 38623.650000000001455, 5919136.650000000372529 ], [ 38623.650000000001455, 5919136.724999999627471 ], [ 38623.5, 5919136.724999999627471 ], [ 38623.5, 5919136.799999999813735 ], [ 38623.42500000000291, 5919136.799999999813735 ] ] ] } },
{ "type": "Feature", "properties": { "value": 1.0, "building_id": 3, "area": 221.91749999987479 }, "geometry": { "type": "Polygon", "coordinates": [ [ [ 38561.92500000000291, 5919147.974999999627471 ], [ 38561.92500000000291, 5919147.900000000372529 ], [ 38561.099999999998545, 5919147.900000000372529 ], [ 38561.099999999998545, 5919147.825000000186265 ], [ 38560.80000000000291, 5919147.825000000186265 ], [ 38560.80000000000291, 5919147.75 ], [ 38560.650000000001455, 5919147.75 ], [ 38560.650000000001455, 5919147.674999999813735 ], [ 38560.57499999999709, 5919147.674999999813735 ], [ 38560.57499999999709, 5919147.599999999627471 ], [ 38560.42500000000291, 5919147.599999999627471 ], [ 38560.42500000000291, 5919147.525000000372529 ], [ 38560.349999999998545, 5919147.525000000372529 ], [ 38560.349999999998545, 5919147.450000000186265 ], [ 38560.275000000001455, 5919147.450000000186265 ], [ 38560.275000000001455, 5919147.375 ], [ 38560.19999999999709, 5919147.375 ], [ 38560.19999999999709, 5919147.299999999813735 ], [ 38560.125, 5919147.299999999813735 ], [ 38560.125, 5919147.224999999627471 ], [ 38560.05000000000291, 5919147.224999999627471 ], [ 38560.05000000000291, 5919147.075000000186265 ], [ 38559.974999999998545, 5919147.075000000186265 ], [ 38559.974999999998545, 5919147.0 ], [ 38559.900000000001455, 5919147.0 ], [ 38559.900000000001455, 5919146.849999999627471 ], [ 38559.82499999999709, 5919146.849999999627471 ], [ 38559.82499999999709, 5919146.700000000186265 ], [ 38559.75, 5919146.700000000186265 ], [ 38559.75, 5919146.474999999627471 ], [ 38559.67500000000291, 5919146.474999999627471 ], [ 38559.67500000000291, 5919146.174999999813735 ], [ 38559.599999999998545, 5919146.174999999813735 ], [ 38559.599999999998545, 5919145.799999999813735 ], [ 38559.525000000001455, 5919145.799999999813735 ], [ 38559.525000000001455, 5919145.349999999627471 ], [ 38559.44999999999709, 5919145.349999999627471 ], [ 38559.44999999999709, 5919144.900000000372529 ], [ 38559.375, 5919144.900000000372529 ], [ 38559.375, 5919144.375 ], [ 38559.30000000000291, 5919144.375 ], [ 38559.30000000000291, 5919143.400000000372529 ], [ 38559.224999999998545, 5919143.400000000372529 ], [ 38559.224999999998545, 5919142.5 ], [ 38559.150000000001455, 5919142.5 ], [ 38559.150000000001455, 5919141.075000000186265 ], [ 38559.07499999999709, 5919141.075000000186265 ], [ 38559.07499999999709, 5919139.049999999813735 ], [ 38559.0, 5919139.049999999813735 ], [ 38559.0, 5919136.799999999813735 ], [ 38558.92500000000291, 5919136.799999999813735 ], [ 38558.92500000000291, 5919136.349999999627471 ], [ 38558.849999999998545, 5919136.349999999627471 ], [ 38558.849999999998545, 5919136.049999999813735 ], [ 38558.775000000001455, 5919136.049999999813735 ], [ 38558.775000000001455, 5919135.674999999813735 ], [ 38558.69999999999709, 5919135.674999999813735 ], [ 38558.69999999999709, 5919135.375 ], [ 38558.625, 5919135.375 ], [ 38558.625, 5919134.924999999813735 ], [ 38558.55000000000291, 5919134.924999999813735 ], [ 38558.55000000000291, 5919134.625 ], [ 38558.474999999998545, 5919134.625 ], [ 38558.474999999998545, 5919134.400000000372529 ], [ 38558.400000000001455, 5919134.400000000372529 ], [ 38558.400000000001455, 5919134.174999999813735 ], [ 38558.32499999999709, 5919134.174999999813735 ], [ 38558.32499999999709, 5919133.950000000186265 ], [ 38558.25, 5919133.950000000186265 ], [ 38558.25, 5919133.724999999627471 ], [ 38558.17500000000291, 5919133.724999999627471 ], [ 38558.17500000000291, 5919133.424999999813735 ], [ 38558.099999999998545, 5919133.424999999813735 ], [ 38558.099999999998545, 5919133.049999999813735 ], [ 38558.025000000001455, 5919133.049999999813735 ], [ 38558.025000000001455, 5919132.75 ], [ 38557.94999999999709, 5919132.75 ], [ 38557.94999999999709, 5919132.224999999627471 ], [ 38557.875, 5919132.224999999627471 ], [ 38557.875, 5919131.700000000186265 ], [ 38557.80000000000291, 5919131.700000000186265 ], [ 38557.80000000000291, 5919131.025000000372529 ], [ 38557.724999999998545, 5919131.025000000372529 ], [ 38557.724999999998545, 5919130.650000000372529 ], [ 38557.80000000000291, 5919130.650000000372529 ], [ 38557.80000000000291, 5919130.5 ], [ 38557.875, 5919130.5 ], [ 38557.875, 5919130.349999999627471 ], [ 38557.94999999999709, 5919130.349999999627471 ], [ 38557.94999999999709, 5919130.200000000186265 ], [ 38558.025000000001455, 5919130.200000000186265 ], [ 38558.025000000001455, 5919130.049999999813735 ], [ 38558.099999999998545, 5919130.049999999813735 ], [ 38558.099999999998545, 5919129.900000000372529 ], [ 38558.17500000000291, 5919129.900000000372529 ], [ 38558.17500000000291, 5919129.825000000186265 ], [ 38558.25, 5919129.825000000186265 ], [ 38558.25, 5919129.674999999813735 ], [ 38558.32499999999709, 5919129.674999999813735 ], [ 38558.32499999999709, 5919129.599999999627471 ], [ 38558.400000000001455, 5919129.599999999627471 ], [ 38558.400000000001455, 5919129.525000000372529 ], [ 38558.474999999998545, 5919129.525000000372529 ], [ 38558.474999999998545, 5919129.450000000186265 ], [ 38558.55000000000291, 5919129.450000000186265 ], [ 38558.55000000000291, 5919129.375 ], [ 38558.625, 5919129.375 ], [ 38558.625, 5919129.299999999813735 ], [ 38558.69999999999709, 5919129.299999999813735 ], [ 38558.69999999999709, 5919129.224999999627471 ], [ 38558.849999999998545, 5919129.224999999627471 ], [ 38558.849999999998545, 5919129.150000000372529 ], [ 38558.92500000000291, 5919129.150000000372529 ], [ 38558.92500000000291, 5919129.075000000186265 ], [ 38559.0, 5919129.075000000186265 ], [ 38559.0, 5919129.0 ], [ 38559.07499999999709, 5919129.0 ], [ 38559.07499999999709, 5919128.924999999813735 ], [ 38559.150000000001455, 5919128.924999999813735 ], [ 38559.150000000001455, 5919128.849999999627471 ], [ 38559.224999999998545, 5919128.849999999627471 ], [ 38559.224999999998545, 5919128.700000000186265 ], [ 38559.30000000000291, 5919128.700000000186265 ], [ 38559.30000000000291, 5919128.625 ], [ 38559.375, 5919128.625 ], [ 38559.375, 5919128.474999999627471 ], [ 38559.44999999999709, 5919128.474999999627471 ], [ 38559.44999999999709, 5919128.400000000372529 ], [ 38559.525000000001455, 5919128.400000000372529 ], [ 38559.525000000001455, 5919128.25 ], [ 38559.599999999998545, 5919128.25 ], [ 38559.599999999998545, 5919128.174999999813735 ], [ 38559.67500000000291, 5919128.174999999813735 ], [ 38559.67500000000291, 5919128.099999999627471 ], [ 38559.75, 5919128.099999999627471 ], [ 38559.75, 5919128.025000000372529 ], [ 38559.82499999999709, 5919128.025000000372529 ], [ 38559.82499999999709, 5919127.950000000186265 ], [ 38559.900000000001455, 5919127.950000000186265 ], [ 38559.900000000001455, 5919127.875 ], [ 38559.974999999998545, 5919127.875 ], [ 38559.974999999998545, 5919127.799999999813735 ], [ 38560.125, 5919127.799999999813735 ], [ 38560.125, 5919127.724999999627471 ], [ 38560.19999999999709, 5919127.724999999627471 ], [ 38560.19999999999709, 5919127.650000000372529 ], [ 38560.349999999998545, 5919127.650000000372529 ], [ 38560.349999999998545, 5919127.575000000186265 ], [ 38560.5, 5919127.575000000186265 ], [ 38560.5, 5919127.5 ], [ 38560.650000000001455, 5919127.5 ], [ 38560.650000000001455, 5919127.424999999813735 ], [ 38560.80000000000291, 5919127.424999999813735 ], [ 38560.80000000000291, 5919127.349999999627471 ], [ 38561.849999999998545, 5919127.349999999627471 ], [ 38561.849999999998545, 5919127.275000000372529 ], [ 38563.125, 5919127.275000000372529 ], [ 38563.125, 5919127.349999999627471 ], [ 38563.80000000000291, 5919127.349999999627471 ], [ 38563.80000000000291, 5919127.424999999813735 ], [ 38564.474999999998545, 5919127.424999999813735 ], [ 38564.474999999998545, 5919127.5 ], [ 38565.150000000001455, 5919127.5 ], [ 38565.150000000001455, 5919127.575000000186265 ], [ 38565.82499999999709, 5919127.575000000186265 ], [ 38565.82499999999709, 5919127.650000000372529 ], [ 38566.5, 5919127.650000000372529 ], [ 38566.5, 5919127.724999999627471 ], [ 38567.099999999998545, 5919127.724999999627471 ], [ 38567.099999999998545, 5919127.799999999813735 ], [ 38567.625, 5919127.799999999813735 ], [ 38567.625, 5919127.875 ], [ 38568.07499999999709, 5919127.875 ], [ 38568.07499999999709, 5919127.950000000186265 ], [ 38568.525000000001455, 5919127.950000000186265 ], [ 38568.525000000001455, 5919128.025000000372529 ], [ 38568.82499999999709, 5919128.025000000372529 ], [ 38568.82499999999709, 5919128.099999999627471 ], [ 38568.900000000001455, 5919128.099999999627471 ], [ 38568.900000000001455, 5919128.174999999813735 ], [ 38569.05000000000291, 5919128.174999999813735 ], [ 38569.05000000000291, 5919128.25 ], [ 38569.125, 5919128.25 ], [ 38569.125, 5919128.325000000186265 ], [ 38569.19999999999709, 5919128.325000000186265 ], [ 38569.19999999999709, 5919128.400000000372529 ], [ 38569.275000000001455, 5919128.400000000372529 ], [ 38569.275000000001455, 5919128.474999999627471 ], [ 38569.349999999998545, 5919128.474999999627471 ], [ 38569.349999999998545, 5919128.549999999813735 ], [ 38569.42500000000291, 5919128.549999999813735 ], [ 38569.42500000000291, 5919128.700000000186265 ], [ 38569.5, 5919128.700000000186265 ], [ 38569.5, 5919128.775000000372529 ], [ 38569.57499999999709, 5919128.775000000372529 ], [ 38569.57499999999709, 5919129.075000000186265 ], [ 38569.650000000001455, 5919129.075000000186265 ], [ 38569.650000000001455, 5919129.450000000186265 ], [ 38569.724999999998545, 5919129.450000000186265 ], [ 38569.724999999998545, 5919129.825000000186265 ], [ 38569.80000000000291, 5919129.825000000186265 ], [ 38569.80000000000291, 5919130.200000000186265 ], [ 38569.875, 5919130.200000000186265 ], [ 38569.875, 5919130.650000000372529 ], [ 38569.94999999999709, 5919130.650000000372529 ], [ 38569.94999999999709, 5919132.299999999813735 ], [ 38570.025000000001455, 5919132.299999999813735 ], [ 38570.025000000001455, 5919134.700000000186265 ], [ 38570.099999999998545, 5919134.700000000186265 ], [ 38570.099999999998545, 5919144.599999999627471 ], [ 38570.025000000001455, 5919144.599999999627471 ], [ 38570.025000000001455, 5919144.974999999627471 ], [ 38569.94999999999709, 5919144.974999999627471 ], [ 38569.94999999999709, 5919145.349999999627471 ], [ 38569.875, 5919145.349999999627471 ], [ 38569.875, 5919145.724999999627471 ], [ 38569.80000000000291, 5919145.724999999627471 ], [ 38569.80000000000291, 5919146.099999999627471 ], [ 38569.724999999998545, 5919146.099999999627471 ], [ 38569.724999999998545, 5919146.400000000372529 ], [ 38569.650000000001455, 5919146.400000000372529 ], [ 38569.650000000001455, 5919146.549999999813735 ], [ 38569.57499999999709, 5919146.549999999813735 ], [ 38569.57499999999709, 5919146.700000000186265 ], [ 38569.5, 5919146.700000000186265 ], [ 38569.5, 5919146.775000000372529 ], [ 38569.42500000000291, 5919146.775000000372529 ], [ 38569.42500000000291, 5919146.849999999627471 ], [ 38569.349999999998545, 5919146.849999999627471 ], [ 38569.349999999998545, 5919147.0 ], [ 38569.275000000001455, 5919147.0 ], [ 38569.275000000001455, 5919147.075000000186265 ], [ 38569.19999999999709, 5919147.075000000186265 ], [ 38569.19999999999709, 5919147.150000000372529 ], [ 38569.05000000000291, 5919147.150000000372529 ], [ 38569.05000000000291, 5919147.224999999627471 ], [ 38568.974999999998545, 5919147.224999999627471 ], [ 38568.974999999998545, 5919147.299999999813735 ], [ 38568.900000000001455, 5919147.299999999813735 ], [ 38568.900000000001455, 5919147.375 ], [ 38568.75, 5919147.375 ], [ 38568.75, 5919147.450000000186265 ], [ 38568.224999999998545, 5919147.450000000186265 ], [ 38568.224999999998545, 5919147.525000000372529 ], [ 38567.474999999998545, 5919147.525000000372529 ], [ 38567.474999999998545, 5919147.599999999627471 ], [ 38566.80000000000291, 5919147.599999999627471 ], [ 38566.80000000000291, 5919147.674999999813735 ], [ 38566.05000000000291, 5919147.674999999813735 ], [ 38566.05000000000291, 5919147.75 ], [ 38565.30000000000291, 5919147.75 ], [ 38565.30000000000291, 5919147.825000000186265 ], [ 38564.55000000000291, 5919147.825000000186265 ], [ 38564.55000000000291, 5919147.900000000372529 ], [ 38563.650000000001455, 5919147.900000000372529 ], [ 38563.650000000001455, 5919147.974999999627471 ], [ 38561.92500000000291, 5919147.974999999627471 ] ] ] } }
]
}
