{
"type": "FeatureCollection",
"name": "38433E595032N_buildings",
"crs": { "type": "name", "properties": { "name": "urn:ogc:def:crs:EPSG::3776" } },
"features": [
{ "type": "Feature", "properties": { "value": 1.0, "building_id": 0, "area": 8.021249999661233 }, "geometry": { "type": "Polygon", "coordinates": [ [ [ 38998.94999999999709, 5950842.75 ], [ 38998.94999999999709, 5950842.674999999813735 ], [ 38998.650000000001455, 5950842.674999999813735 ], [ 38998.650000000001455, 5950842.599999999627471 ], [ 38998.42500000000291, 5950842.599999999627471 ], [ 38998.42500000000291, 5950842.525000000372529 ], [ 38998.275000000001455, 5950842.525000000372529 ], [ 38998.275000000001455, 5950842.450000000186265 ], [ 38998.19999999999709, 5950842.450000000186265 ], [ 38998.19999999999709, 5950842.375 ], [ 38998.125, 5950842.375 ], [ 38998.125, 5950842.299999999813735 ], [ 38998.05000000000291, 5950842.299999999813735 ], [ 38998.05000000000291, 5950842.224999999627471 ], [ 38997.974999999998545, 5950842.224999999627471 ], [ 38997.974999999998545, 5950842.075000000186265 ], [ 38997.900000000001455, 5950842.075000000186265 ], [ 38997.900000000001455, 5950842.0 ], [ 38997.82499999999709, 5950842.0 ], [ 38997.82499999999709, 5950841.849999999627471 ], [ 38997.75, 5950841.849999999627471 ], [ 38997.75, 5950841.775000000372529 ], [ 38997.67500000000291, 5950841.775000000372529 ], [ 38997.67500000000291, 5950840.724999999627471 ], [ 38997.75, 5950840.724999999627471 ], [ 38997.75, 5950840.575000000186265 ], [ 38997.82499999999709, 5950840.575000000186265 ], [ 38997.82499999999709, 5950840.424999999813735 ], [ 38997.900000000001455, 5950840.424999999813735 ], [ 38997.900000000001455, 5950840.275000000372529 ], [ 38997.974999999998545, 5950840.275000000372529 ], [ 38997.974999999998545, 5950840.200000000186265 ], [ 38998.05000000000291, 5950840.200000000186265 ], [ 38998.05000000000291, 5950840.049999999813735 ], [ 38998.125, 5950840.049999999813735 ], [ 38998.125, 5950839.900000000372529 ], [ 38998.19999999999709, 5950839.900000000372529 ], [ 38998.19999999999709, 5950839.825000000186265 ], [ 38998.275000000001455, 5950839.825000000186265 ], [ 38998.275000000001455, 5950839.75 ], [ 38998.349999999998545, 5950839.75 ], [ 38998.349999999998545, 5950839.674999999813735 ], [ 38998.875, 5950839.674999999813735 ], [ 38998.875, 5950839.75 ], [ 38999.32499999999709, 5950839.75 ], [ 38999.32499999999709, 5950839.825000000186265 ], [ 38999.55000000000291, 5950839.825000000186265 ], [ 38999.55000000000291, 5950839.900000000372529 ], [ 38999.849999999998545, 5950839.900000000372529 ], [ 38999.849999999998545, 5950839.974999999627471 ], [ 39000.150000000001455, 5950839.974999999627471 ], [ 39000.150000000001455, 5950840.049999999813735 ], [ 39000.375, 5950840.049999999813735 ], [ 39000.375, 5950840.125 ], [ 39000.44999999999709, 5950840.125 ], [ 39000.44999999999709, 5950840.275000000372529 ], [ 39000.525000000001455, 5950840.275000000372529 ], [ 39000.525000000001455, 5950840.424999999813735 ], [ 39000.599999999998545, 5950840.424999999813735 ], [ 39000.599999999998545, 5950840.575000000186265 ], [ 39000.67500000000291, 5950840.575000000186265 ], [ 39000.67500000000291, 5950840.799999999813735 ], [ 39000.75, 5950840.799999999813735 ], [ 39000.75, 5950841.025000000372529 ], [ 39000.82499999999709, 5950841.025000000372529 ], [ 39000.82499999999709, 5950841.174999999813735 ], [ 39000.900000000001455, 5950841.174999999813735 ], [ 39000.900000000001455, 5950841.400000000372529 ], [ 39000.974999999998545, 5950841.400000000372529 ], [ 39000.974999999998545, 5950841.849999999627471 ], [ 39000.900000000001455, 5950841.849999999627471 ], [ 39000.900000000001455, 5950842.0 ], [ 39000.82499999999709, 5950842.0 ], [ 39000.82499999999709, 5950842.150000000372529 ], [ 39000.75, 5950842.150000000372529 ], [ 39000.75, 5950842.224999999627471 ], [ 39000.67500000000291, 5950842.224999999627471 ], [ 39000.67500000000291, 5950842.299999999813735 ], [ 39000.599999999998545, 5950842.299999999813735 ], [ 39000.599999999998545, 5950842.450000000186265 ], [ 39000.525000000001455, 5950842.450000000186265 ], [ 39000.525000000001455, 5950842.525000000372529 ], [ 39000.44999999999709, 5950842.525000000372529 ], [ 39000.44999999999709, 5950842.599999999627471 ], [ 39000.150000000001455, 5950842.599999999627471 ], [ 39000.150000000001455, 5950842.674999999813735 ], [ 38999.474999999998545, 5950842.674999999813735 ], [ 38999.474999999998545, 5950842.75 ], [ 38998.94999999999709, 5950842.75 ] ] ] } },
{ "type": "Feature", "properties": { "value": 1.0, "building_id": 1, "area": 177.88499999985549 }, "geometry": { "type": "Polygon", "coordinates": [ [ [ 38989.94999999999709, 5950820.625 ], [ 38989.94999999999709, 5950820.549999999813735 ], [ 38988.974999999998545, 5950820.549999999813735 ], [ 38988.974999999998545, 5950820.474999999627471 ], [ 38988.150000000001455, 5950820.474999999627471 ], [ 38988.150000000001455, 5950820.400000000372529 ], [ 38987.32499999999709, 5950820.400000000372529 ], [ 38987.32499999999709, 5950820.325000000186265 ], [ 38986.650000000001455, 5950820.325000000186265 ], [ 38986.650000000001455, 5950820.25 ], [ 38986.125, 5950820.25 ], [ 38986.125, 5950820.174999999813735 ], [ 38985.974999999998545, 5950820.174999999813735 ], [ 38985.974999999998545, 5950820.099999999627471 ], [ 38985.75, 5950820.099999999627471 ], [ 38985.75, 5950820.025000000372529 ], [ 38985.599999999998545, 5950820.025000000372529 ], [ 38985.599999999998545, 5950819.950000000186265 ], [ 38985.44999999999709, 5950819.950000000186265 ], [ 38985.44999999999709, 5950819.875 ], [ 38985.30000000000291, 5950819.875 ], [ 38985.30000000000291, 5950819.799999999813735 ], [ 38985.07499999999709, 5950819.799999999813735 ], [ 38985.07499999999709, 5950819.724999999627471 ], [ 38984.92500000000291, 5950819.724999999627471 ], [ 38984.92500000000291, 5950819.650000000372529 ], [ 38984.775000000001455, 5950819.650000000372529 ], [ 38984.775000000001455, 5950819.575000000186265 ], [ 38984.69999999999709, 5950819.575000000186265 ], [ 38984.69999999999709, 5950819.424999999813735 ], [ 38984.625, 5950819.424999999813735 ], [ 38984.625, 5950819.349999999627471 ], [ 38984.55000000000291, 5950819.349999999627471 ], [ 38984.55000000000291, 5950819.200000000186265 ], [ 38984.474999999998545, 5950819.200000000186265 ], [ 38984.474999999998545, 5950819.125 ], [ 38984.400000000001455, 5950819.125 ], [ 38984.400000000001455, 5950819.049999999813735 ], [ 38984.32499999999709, 5950819.049999999813735 ], [ 38984.32499999999709, 5950818.974999999627471 ], [ 38984.17500000000291, 5950818.974999999627471 ], [ 38984.17500000000291, 5950818.900000000372529 ], [ 38984.099999999998545, 5950818.900000000372529 ], [ 38984.099999999998545, 5950818.825000000186265 ], [ 38983.94999999999709, 5950818.825000000186265 ], [ 38983.94999999999709, 5950818.75 ], [ 38983.80000000000291, 5950818.75 ], [ 38983.80000000000291, 5950818.674999999813735 ], [ 38983.650000000001455, 5950818.674999999813735 ], [ 38983.650000000001455, 5950818.599999999627471 ], [ 38983.42500000000291, 5950818.599999999627471 ], [ 38983.42500000000291, 5950818.525000000372529 ], [ 38983.19999999999709, 5950818.525000000372529 ], [ 38983.19999999999709, 5950818.450000000186265 ], [ 38982.82499999999709, 5950818.450000000186265 ], [ 38982.82499999999709, 5950818.375 ], [ 38982.75, 5950818.375 ], [ 38982.75, 5950818.299999999813735 ], [ 38982.67500000000291, 5950818.299999999813735 ], [ 38982.67500000000291, 5950817.700000000186265 ], [ 38982.599999999998545, 5950817.700000000186265 ], [ 38982.599999999998545, 5950815.224999999627471 ], [ 38982.525000000001455, 5950815.224999999627471 ], [ 38982.525000000001455, 5950812.075000000186265 ], [ 38982.599999999998545, 5950812.075000000186265 ], [ 38982.599999999998545, 5950810.575000000186265 ], [ 38982.67500000000291, 5950810.575000000186265 ], [ 38982.67500000000291, 5950809.974999999627471 ], [ 38982.75, 5950809.974999999627471 ], [ 38982.75, 5950809.450000000186265 ], [ 38982.82499999999709, 5950809.450000000186265 ], [ 38982.82499999999709, 5950809.224999999627471 ], [ 38982.900000000001455, 5950809.224999999627471 ], [ 38982.900000000001455, 5950809.0 ], [ 38982.974999999998545, 5950809.0 ], [ 38982.974999999998545, 5950808.775000000372529 ], [ 38983.05000000000291, 5950808.775000000372529 ], [ 38983.05000000000291, 5950808.549999999813735 ], [ 38983.125, 5950808.549999999813735 ], [ 38983.125, 5950807.724999999627471 ], [ 38983.19999999999709, 5950807.724999999627471 ], [ 38983.19999999999709, 5950806.299999999813735 ], [ 38983.275000000001455, 5950806.299999999813735 ], [ 38983.275000000001455, 5950804.424999999813735 ], [ 38983.349999999998545, 5950804.424999999813735 ], [ 38983.349999999998545, 5950802.625 ], [ 38983.42500000000291, 5950802.625 ], [ 38983.42500000000291, 5950802.474999999627471 ], [ 38983.5, 5950802.474999999627471 ], [ 38983.5, 5950802.400000000372529 ], [ 38983.57499999999709, 5950802.400000000372529 ], [ 38983.57499999999709, 5950802.325000000186265 ], [ 38983.650000000001455, 5950802.325000000186265 ], [ 38983.650000000001455, 5950802.25 ], [ 38983.724999999998545, 5950802.25 ], [ 38983.724999999998545, 5950802.174999999813735 ], [ 38983.875, 5950802.174999999813735 ], [ 38983.875, 5950802.099999999627471 ], [ 38983.94999999999709, 5950802.099999999627471 ], [ 38983.94999999999709, 5950802.025000000372529 ], [ 38984.025000000001455, 5950802.025000000372529 ], [ 38984.025000000001455, 5950801.950000000186265 ], [ 38984.17500000000291, 5950801.950000000186265 ], [ 38984.17500000000291, 5950801.875 ], [ 38984.25, 5950801.875 ], [ 38984.25, 5950801.799999999813735 ], [ 38984.400000000001455, 5950801.799999999813735 ], [ 38984.400000000001455, 5950801.724999999627471 ], [ 38984.474999999998545, 5950801.724999999627471 ], [ 38984.474999999998545, 5950801.650000000372529 ], [ 38984.625, 5950801.650000000372529 ], [ 38984.625, 5950801.575000000186265 ], [ 38985.150000000001455, 5950801.575000000186265 ], [ 38985.150000000001455, 5950801.650000000372529 ], [ 38985.75, 5950801.650000000372529 ], [ 38985.75, 5950801.724999999627471 ], [ 38986.349999999998545, 5950801.724999999627471 ], [ 38986.349999999998545, 5950801.799999999813735 ], [ 38986.875, 5950801.799999999813735 ], [ 38986.875, 5950801.875 ], [ 38987.32499999999709, 5950801.875 ], [ 38987.32499999999709, 5950801.950000000186265 ], [ 38987.775000000001455, 5950801.950000000186265 ], [ 38987.775000000001455, 5950802.025000000372529 ], [ 38988.150000000001455, 5950802.025000000372529 ], [ 38988.150000000001455, 5950802.099999999627471 ], [ 38988.525000000001455, 5950802.099999999627471 ], [ 38988.525000000001455, 5950802.174999999813735 ], [ 38988.75, 5950802.174999999813735 ], [ 38988.75, 5950802.25 ], [ 38988.974999999998545, 5950802.25 ], [ 38988.974999999998545, 5950802.325000000186265 ], [ 38989.19999999999709, 5950802.325000000186265 ], [ 38989.19999999999709, 5950802.400000000372529 ], [ 38989.349999999998545, 5950802.400000000372529 ], [ 38989.349999999998545, 5950802.474999999627471 ], [ 38989.5, 5950802.474999999627471 ], [ 38989.5, 5950802.549999999813735 ], [ 38989.650000000001455, 5950802.549999999813735 ], [ 38989.650000000001455, 5950802.625 ], [ 38989.724999999998545, 5950802.625 ], [ 38989.724999999998545, 5950803.75 ], [ 38989.80000000000291, 5950803.75 ], [ 38989.80000000000291, 5950807.5 ], [ 38989.875, 5950807.5 ], [ 38989.875, 5950808.549999999813735 ], [ 38989.94999999999709, 5950808.549999999813735 ], [ 38989.94999999999709, 5950808.625 ], [ 38990.025000000001455, 5950808.625 ], [ 38990.025000000001455, 5950808.700000000186265 ], [ 38990.099999999998545, 5950808.700000000186265 ], [ 38990.099999999998545, 5950808.775000000372529 ], [ 38990.25, 5950808.775000000372529 ], [ 38990.25, 5950808.849999999627471 ], [ 38990.32499999999709, 5950808.849999999627471 ], [ 38990.32499999999709, 5950808.924999999813735 ], [ 38990.474999999998545, 5950808.924999999813735 ], [ 38990.474999999998545, 5950809.0 ], [ 38990.625, 5950809.0 ], [ 38990.625, 5950809.075000000186265 ], [ 38990.69999999999709, 5950809.075000000186265 ], [ 38990.69999999999709, 5950809.150000000372529 ], [ 38990.775000000001455, 5950809.150000000372529 ], [ 38990.775000000001455, 5950809.299999999813735 ], [ 38990.849999999998545, 5950809.299999999813735 ], [ 38990.849999999998545, 5950809.375 ], [ 38990.92500000000291, 5950809.375 ], [ 38990.92500000000291, 5950809.450000000186265 ], [ 38991.0, 5950809.450000000186265 ], [ 38991.0, 5950809.599999999627471 ], [ 38991.07499999999709, 5950809.599999999627471 ], [ 38991.07499999999709, 5950809.75 ], [ 38991.150000000001455, 5950809.75 ], [ 38991.150000000001455, 5950809.900000000372529 ], [ 38991.224999999998545, 5950809.900000000372529 ], [ 38991.224999999998545, 5950810.049999999813735 ], [ 38991.30000000000291, 5950810.049999999813735 ], [ 38991.30000000000291, 5950810.200000000186265 ], [ 38991.375, 5950810.200000000186265 ], [ 38991.375, 5950810.349999999627471 ], [ 38991.44999999999709, 5950810.349999999627471 ], [ 38991.44999999999709, 5950810.575000000186265 ], [ 38991.525000000001455, 5950810.575000000186265 ], [ 38991.525000000001455, 5950810.650000000372529 ], [ 38991.599999999998545, 5950810.650000000372529 ], [ 38991.599999999998545, 5950810.799999999813735 ], [ 38991.67500000000291, 5950810.799999999813735 ], [ 38991.67500000000291, 5950810.875 ], [ 38991.75, 5950810.875 ], [ 38991.75, 5950810.950000000186265 ], [ 38991.82499999999709, 5950810.950000000186265 ], [ 38991.82499999999709, 5950811.025000000372529 ], [ 38991.900000000001455, 5950811.025000000372529 ], [ 38991.900000000001455, 5950811.099999999627471 ], [ 38991.974999999998545, 5950811.099999999627471 ], [ 38991.974999999998545, 5950811.174999999813735 ], [ 38992.05000000000291, 5950811.174999999813735 ], [ 38992.05000000000291, 5950811.25 ], [ 38992.125, 5950811.25 ], [ 38992.125, 5950811.325000000186265 ], [ 38992.275000000001455, 5950811.325000000186265 ], [ 38992.275000000001455, 5950811.400000000372529 ], [ 38992.349999999998545, 5950811.400000000372529 ], [ 38992.349999999998545, 5950811.474999999627471 ], [ 38992.5, 5950811.474999999627471 ], [ 38992.5, 5950811.549999999813735 ], [ 38992.650000000001455, 5950811.549999999813735 ], [ 38992.650000000001455, 5950811.625 ], [ 38992.724999999998545, 5950811.625 ], [ 38992.724999999998545, 5950811.700000000186265 ], [ 38992.80000000000291, 5950811.700000000186265 ], [ 38992.80000000000291, 5950811.775000000372529 ], [ 38992.875, 5950811.775000000372529 ], [ 38992.875, 5950811.849999999627471 ], [ 38992.94999999999709, 5950811.849999999627471 ], [ 38992.94999999999709, 5950811.924999999813735 ], [ 38993.025000000001455, 5950811.924999999813735 ], [ 38993.025000000001455, 5950812.0 ], [ 38993.099999999998545, 5950812.0 ], [ 38993.099999999998545, 5950812.150000000372529 ], [ 38993.17500000000291, 5950812.150000000372529 ], [ 38993.17500000000291, 5950812.224999999627471 ], [ 38993.25, 5950812.224999999627471 ], [ 38993.25, 5950812.375 ], [ 38993.32499999999709, 5950812.375 ], [ 38993.32499999999709, 5950812.525000000372529 ], [ 38993.400000000001455, 5950812.525000000372529 ], [ 38993.400000000001455, 5950812.674999999813735 ], [ 38993.474999999998545, 5950812.674999999813735 ], [ 38993.474999999998545, 5950812.825000000186265 ], [ 38993.55000000000291, 5950812.825000000186265 ], [ 38993.55000000000291, 5950812.900000000372529 ], [ 38993.625, 5950812.900000000372529 ], [ 38993.625, 5950813.049999999813735 ], [ 38993.69999999999709, 5950813.049999999813735 ], [ 38993.69999999999709, 5950813.125 ], [ 38993.775000000001455, 5950813.125 ], [ 38993.775000000001455, 5950813.275000000372529 ], [ 38993.849999999998545, 5950813.275000000372529 ], [ 38993.849999999998545, 5950813.349999999627471 ], [ 38993.92500000000291, 5950813.349999999627471 ], [ 38993.92500000000291, 5950813.424999999813735 ], [ 38994.0, 5950813.424999999813735 ], [ 38994.0, 5950813.5 ], [ 38994.07499999999709, 5950813.5 ], [ 38994.07499999999709, 5950813.575000000186265 ], [ 38994.224999999998545, 5950813.575000000186265 ], [ 38994.224999999998545, 5950813.650000000372529 ], [ 38994.30000000000291, 5950813.650000000372529 ], [ 38994.30000000000291, 5950813.724999999627471 ], [ 38994.375, 5950813.724999999627471 ], [ 38994.375, 5950813.799999999813735 ], [ 38994.525000000001455, 5950813.799999999813735 ], [ 38994.525000000001455, 5950813.875 ], [ 38994.599999999998545, 5950813.875 ], [ 38994.599999999998545, 5950813.950000000186265 ], [ 38994.67500000000291, 5950813.950000000186265 ], [ 38994.67500000000291, 5950814.025000000372529 ], [ 38994.75, 5950814.025000000372529 ], [ 38994.75, 5950814.099999999627471 ], [ 38994.82499999999709, 5950814.099999999627471 ], [ 38994.82499999999709, 5950814.174999999813735 ], [ 38994.900000000001455, 5950814.174999999813735 ], [ 38994.900000000001455, 5950814.25 ], [ 38994.974999999998545, 5950814.25 ], [ 38994.974999999998545, 5950814.400000000372529 ], [ 38995.05000000000291, 5950814.400000000372529 ], [ 38995.05000000000291, 5950814.549999999813735 ], [ 38995.125, 5950814.549999999813735 ], [ 38995.125, 5950814.700000000186265 ], [ 38995.19999999999709, 5950814.700000000186265 ], [ 38995.19999999999709, 5950814.775000000372529 ], [ 38995.275000000001455, 5950814.775000000372529 ], [ 38995.275000000001455, 5950814.924999999813735 ], [ 38995.349999999998545, 5950814.924999999813735 ], [ 38995.349999999998545, 5950815.0 ], [ 38995.42500000000291, 5950815.0 ], [ 38995.42500000000291, 5950815.075000000186265 ], [ 38995.5, 5950815.075000000186265 ], [ 38995.5, 5950815.224999999627471 ], [ 38995.57499999999709, 5950815.224999999627471 ], [ 38995.57499999999709, 5950815.299999999813735 ], [ 38995.650000000001455, 5950815.299999999813735 ], [ 38995.650000000001455, 5950815.375 ], [ 38995.80000000000291, 5950815.375 ], [ 38995.80000000000291, 5950815.450000000186265 ], [ 38995.875, 5950815.450000000186265 ], [ 38995.875, 5950815.525000000372529 ], [ 38995.94999999999709, 5950815.525000000372529 ], [ 38995.94999999999709, 5950815.599999999627471 ], [ 38996.099999999998545, 5950815.599999999627471 ], [ 38996.099999999998545, 5950815.674999999813735 ], [ 38996.25, 5950815.674999999813735 ], [ 38996.25, 5950815.75 ], [ 38996.400000000001455, 5950815.75 ], [ 38996.400000000001455, 5950815.825000000186265 ], [ 38996.55000000000291, 5950815.825000000186265 ], [ 38996.55000000000291, 5950815.900000000372529 ], [ 38996.625, 5950815.900000000372529 ], [ 38996.625, 5950815.974999999627471 ], [ 38996.69999999999709, 5950815.974999999627471 ], [ 38996.69999999999709, 5950816.049999999813735 ], [ 38996.775000000001455, 5950816.049999999813735 ], [ 38996.775000000001455, 5950816.125 ], [ 38996.849999999998545, 5950816.125 ], [ 38996.849999999998545, 5950816.200000000186265 ], [ 38996.92500000000291, 5950816.200000000186265 ], [ 38996.92500000000291, 5950816.5 ], [ 38997.0, 5950816.5 ], [ 38997.0, 5950817.099999999627471 ], [ 38997.07499999999709, 5950817.099999999627471 ], [ 38997.07499999999709, 5950817.549999999813735 ], [ 38997.150000000001455, 5950817.549999999813735 ], [ 38997.150000000001455, 5950817.924999999813735 ], [ 38997.224999999998545, 5950817.924999999813735 ], [ 38997.224999999998545, 5950818.224999999627471 ], [ 38997.30000000000291, 5950818.224999999627471 ], [ 38997.30000000000291, 5950818.299999999813735 ], [ 38997.150000000001455, 5950818.299999999813735 ], [ 38997.150000000001455, 5950818.375 ], [ 38997.07499999999709, 5950818.375 ], [ 38997.07499999999709, 5950818.450000000186265 ], [ 38997.0, 5950818.450000000186265 ], [ 38997.0, 5950818.525000000372529 ], [ 38996.92500000000291, 5950818.525000000372529 ], [ 38996.92500000000291, 5950818.599999999627471 ], [ 38996.775000000001455, 5950818.599999999627471 ], [ 38996.775000000001455, 5950818.674999999813735 ], [ 38996.69999999999709, 5950818.674999999813735 ], [ 38996.69999999999709, 5950818.75 ], [ 38996.55000000000291, 5950818.75 ], [ 38996.55000000000291, 5950818.825000000186265 ], [ 38996.32499999999709, 5950818.825000000186265 ], [ 38996.32499999999709, 5950818.900000000372529 ], [ 38996.099999999998545, 5950818.900000000372529 ], [ 38996.099999999998545, 5950818.974999999627471 ], [ 38995.94999999999709, 5950818.974999999627471 ], [ 38995.94999999999709, 5950819.049999999813735 ], [ 38995.724999999998545, 5950819.049999999813735 ], [ 38995.724999999998545, 5950819.125 ], [ 38995.57499999999709, 5950819.125 ], [ 38995.57499999999709, 5950819.200000000186265 ], [ 38995.42500000000291, 5950819.200000000186265 ], [ 38995.42500000000291, 5950819.275000000372529 ], [ 38995.275000000001455, 5950819.275000000372529 ], [ 38995.275000000001455, 5950819.349999999627471 ], [ 38995.125, 5950819.349999999627471 ], [ 38995.125, 5950819.424999999813735 ], [ 38995.05000000000291, 5950819.424999999813735 ], [ 38995.05000000000291, 5950819.5 ], [ 38994.900000000001455, 5950819.5 ], [ 38994.900000000001455, 5950819.575000000186265 ], [ 38994.82499999999709, 5950819.575000000186265 ], [ 38994.82499999999709, 5950819.650000000372529 ], [ 38994.75, 5950819.650000000372529 ], [ 38994.75, 5950819.724999999627471 ], [ 38994.599999999998545, 5950819.724999999627471 ], [ 38994.599999999998545, 5950819.799999999813735 ], [ 38994.525000000001455, 5950819.799999999813735 ], [ 38994.525000000001455, 5950819.875 ], [ 38994.375, 5950819.875 ], [ 38994.375, 5950819.950000000186265 ], [ 38994.30000000000291, 5950819.950000000186265 ], [ 38994.30000000000291, 5950820.025000000372529 ], [ 38994.150000000001455, 5950820.025000000372529 ], [ 38994.150000000001455, 5950820.099999999627471 ], [ 38994.07499999999709, 5950820.099999999627471 ], [ 38994.07499999999709, 5950820.174999999813735 ], [ 38993.92500000000291, 5950820.174999999813735 ], [ 38993.92500000000291, 5950820.25 ], [ 38993.69999999999709, 5950820.25 ], [ 38993.69999999999709, 5950820.325000000186265 ], [ 38993.474999999998545, 5950820.325000000186265 ], [ 38993.474999999998545, 5950820.400000000372529 ], [ 38993.25, 5950820.400000000372529 ], [ 38993.25, 5950820.474999999627471 ], [ 38993.025000000001455, 5950820.474999999627471 ], [ 38993.025000000001455, 5950820.549999999813735 ], [ 38992.724999999998545, 5950820.549999999813735 ], [ 38992.724999999998545, 5950820.625 ], [ 38989.94999999999709, 5950820.625 ] ] ] } }
]
}
