{
"type": "FeatureCollection",
"name": "38433E594657N_buildings",
"crs": { "type": "name", "properties": { "name": "urn:ogc:def:crs:EPSG::3776" } },
"features": [
{ "type": "Feature", "properties": { "value": 1.0, "building_id": 0, "area": 366.31687499976925 }, "geometry": { "type": "Polygon", "coordinates": [ [ [ 38554.57499999999709, 5946948.299999999813735 ], [ 38554.57499999999709, 5946948.224999999627471 ], [ 38553.07499999999709, 5946948.224999999627471 ], [ 38553.07499999999709, 5946948.150000000372529 ], [ 38552.849999999998545, 5946948.150000000372529 ], [ 38552.849999999998545, 5946948.075000000186265 ], [ 38552.625, 5946948.075000000186265 ], [ 38552.625, 5946948.0 ], [ 38552.474999999998545, 5946948.0 ], [ 38552.474999999998545, 5946947.924999999813735 ], [ 38552.32499999999709, 5946947.924999999813735 ], [ 38552.32499999999709, 5946947.849999999627471 ], [ 38552.17500000000291, 5946947.849999999627471 ], [ 38552.17500000000291, 5946947.775000000372529 ], [ 38552.025000000001455, 5946947.775000000372529 ], [ 38552.025000000001455, 5946947.700000000186265 ], [ 38551.94999999999709, 5946947.700000000186265 ], [ 38551.94999999999709, 5946947.625 ], [ 38551.80000000000291, 5946947.625 ], [ 38551.80000000000291, 5946947.549999999813735 ], [ 38551.724999999998545, 5946947.549999999813735 ], [ 38551.724999999998545, 5946947.474999999627471 ], [ 38551.57499999999709, 5946947.474999999627471 ], [ 38551.57499999999709, 5946947.400000000372529 ], [ 38551.5, 5946947.400000000372529 ], [ 38551.5, 5946947.325000000186265 ], [ 38551.42500000000291, 5946947.325000000186265 ], [ 38551.42500000000291, 5946947.25 ], [ 38551.349999999998545, 5946947.25 ], [ 38551.349999999998545, 5946947.174999999813735 ], [ 38551.275000000001455, 5946947.174999999813735 ], [ 38551.275000000001455, 5946947.099999999627471 ], [ 38551.19999999999709, 5946947.099999999627471 ], [ 38551.19999999999709, 5946947.025000000372529 ], [ 38551.125, 5946947.025000000372529 ], [ 38551.125, 5946946.950000000186265 ], [ 38551.05000000000291, 5946946.950000000186265 ], [ 38551.05000000000291, 5946946.875 ], [ 38550.974999999998545, 5946946.875 ], [ 38550.974999999998545, 5946946.799999999813735 ], [ 38550.900000000001455, 5946946.799999999813735 ], [ 38550.900000000001455, 5946946.724999999627471 ], [ 38550.82499999999709, 5946946.724999999627471 ], [ 38550.82499999999709, 5946946.650000000372529 ], [ 38550.75, 5946946.650000000372529 ], [ 38550.75, 5946946.575000000186265 ], [ 38550.67500000000291, 5946946.575000000186265 ], [ 38550.67500000000291, 5946946.5 ], [ 38550.599999999998545, 5946946.5 ], [ 38550.599999999998545, 5946946.424999999813735 ], [ 38550.525000000001455, 5946946.424999999813735 ], [ 38550.525000000001455, 5946946.349999999627471 ], [ 38550.44999999999709, 5946946.349999999627471 ], [ 38550.44999999999709, 5946946.275000000372529 ], [ 38550.375, 5946946.275000000372529 ], [ 38550.375, 5946946.125 ], [ 38550.30000000000291, 5946946.125 ], [ 38550.30000000000291, 5946946.049999999813735 ], [ 38550.224999999998545, 5946946.049999999813735 ], [ 38550.224999999998545, 5946945.900000000372529 ], [ 38550.150000000001455, 5946945.900000000372529 ], [ 38550.150000000001455, 5946945.825000000186265 ], [ 38550.07499999999709, 5946945.825000000186265 ], [ 38550.07499999999709, 5946945.674999999813735 ], [ 38550.0, 5946945.674999999813735 ], [ 38550.0, 5946945.525000000372529 ], [ 38549.92500000000291, 5946945.525000000372529 ], [ 38549.92500000000291, 5946945.375 ], [ 38549.849999999998545, 5946945.375 ], [ 38549.849999999998545, 5946945.224999999627471 ], [ 38549.775000000001455, 5946945.224999999627471 ], [ 38549.775000000001455, 5946945.150000000372529 ], [ 38549.69999999999709, 5946945.150000000372529 ], [ 38549.69999999999709, 5946945.0 ], [ 38549.625, 5946945.0 ], [ 38549.625, 5946944.924999999813735 ], [ 38549.55000000000291, 5946944.924999999813735 ], [ 38549.55000000000291, 5946944.849999999627471 ], [ 38549.474999999998545, 5946944.849999999627471 ], [ 38549.474999999998545, 5946944.775000000372529 ], [ 38549.400000000001455, 5946944.775000000372529 ], [ 38549.400000000001455, 5946944.700000000186265 ], [ 38549.32499999999709, 5946944.700000000186265 ], [ 38549.32499999999709, 5946944.625 ], [ 38549.25, 5946944.625 ], [ 38549.25, 5946944.549999999813735 ], [ 38549.17500000000291, 5946944.549999999813735 ], [ 38549.17500000000291, 5946944.474999999627471 ], [ 38549.025000000001455, 5946944.474999999627471 ], [ 38549.025000000001455, 5946944.400000000372529 ], [ 38548.94999999999709, 5946944.400000000372529 ], [ 38548.94999999999709, 5946944.325000000186265 ], [ 38548.875, 5946944.325000000186265 ], [ 38548.875, 5946944.25 ], [ 38548.80000000000291, 5946944.25 ], [ 38548.80000000000291, 5946944.099999999627471 ], [ 38548.724999999998545, 5946944.099999999627471 ], [ 38548.724999999998545, 5946944.025000000372529 ], [ 38548.650000000001455, 5946944.025000000372529 ], [ 38548.650000000001455, 5946943.950000000186265 ], [ 38548.57499999999709, 5946943.950000000186265 ], [ 38548.57499999999709, 5946943.799999999813735 ], [ 38548.5, 5946943.799999999813735 ], [ 38548.5, 5946943.650000000372529 ], [ 38548.42500000000291, 5946943.650000000372529 ], [ 38548.42500000000291, 5946943.5 ], [ 38548.349999999998545, 5946943.5 ], [ 38548.349999999998545, 5946943.349999999627471 ], [ 38548.275000000001455, 5946943.349999999627471 ], [ 38548.275000000001455, 5946942.450000000186265 ], [ 38548.19999999999709, 5946942.450000000186265 ], [ 38548.19999999999709, 5946939.299999999813735 ], [ 38548.275000000001455, 5946939.299999999813735 ], [ 38548.275000000001455, 5946938.625 ], [ 38548.349999999998545, 5946938.625 ], [ 38548.349999999998545, 5946938.025000000372529 ], [ 38548.42500000000291, 5946938.025000000372529 ], [ 38548.42500000000291, 5946937.5 ], [ 38548.5, 5946937.5 ], [ 38548.5, 5946937.200000000186265 ], [ 38548.57499999999709, 5946937.200000000186265 ], [ 38548.57499999999709, 5946936.974999999627471 ], [ 38548.650000000001455, 5946936.974999999627471 ], [ 38548.650000000001455, 5946936.75 ], [ 38548.724999999998545, 5946936.75 ], [ 38548.724999999998545, 5946936.599999999627471 ], [ 38548.80000000000291, 5946936.599999999627471 ], [ 38548.80000000000291, 5946936.375 ], [ 38548.875, 5946936.375 ], [ 38548.875, 5946936.224999999627471 ], [ 38548.94999999999709, 5946936.224999999627471 ], [ 38548.94999999999709, 5946936.075000000186265 ], [ 38549.025000000001455, 5946936.075000000186265 ], [ 38549.025000000001455, 5946936.0 ], [ 38549.099999999998545, 5946936.0 ], [ 38549.099999999998545, 5946935.849999999627471 ], [ 38549.17500000000291, 5946935.849999999627471 ], [ 38549.17500000000291, 5946935.700000000186265 ], [ 38549.25, 5946935.700000000186265 ], [ 38549.25, 5946935.625 ], [ 38549.32499999999709, 5946935.625 ], [ 38549.32499999999709, 5946935.474999999627471 ], [ 38549.400000000001455, 5946935.474999999627471 ], [ 38549.400000000001455, 5946933.450000000186265 ], [ 38549.32499999999709, 5946933.450000000186265 ], [ 38549.32499999999709, 5946933.224999999627471 ], [ 38549.25, 5946933.224999999627471 ], [ 38549.25, 5946933.075000000186265 ], [ 38549.17500000000291, 5946933.075000000186265 ], [ 38549.17500000000291, 5946932.849999999627471 ], [ 38549.099999999998545, 5946932.849999999627471 ], [ 38549.099999999998545, 5946932.700000000186265 ], [ 38549.025000000001455, 5946932.700000000186265 ], [ 38549.025000000001455, 5946932.549999999813735 ], [ 38548.94999999999709, 5946932.549999999813735 ], [ 38548.94999999999709, 5946932.325000000186265 ], [ 38548.875, 5946932.325000000186265 ], [ 38548.875, 5946932.099999999627471 ], [ 38548.80000000000291, 5946932.099999999627471 ], [ 38548.80000000000291, 5946931.875 ], [ 38548.724999999998545, 5946931.875 ], [ 38548.724999999998545, 5946931.575000000186265 ], [ 38548.650000000001455, 5946931.575000000186265 ], [ 38548.650000000001455, 5946931.349999999627471 ], [ 38548.57499999999709, 5946931.349999999627471 ], [ 38548.57499999999709, 5946931.049999999813735 ], [ 38548.5, 5946931.049999999813735 ], [ 38548.5, 5946930.75 ], [ 38548.42500000000291, 5946930.75 ], [ 38548.42500000000291, 5946930.450000000186265 ], [ 38548.349999999998545, 5946930.450000000186265 ], [ 38548.349999999998545, 5946930.075000000186265 ], [ 38548.275000000001455, 5946930.075000000186265 ], [ 38548.275000000001455, 5946929.700000000186265 ], [ 38548.19999999999709, 5946929.700000000186265 ], [ 38548.19999999999709, 5946928.424999999813735 ], [ 38548.125, 5946928.424999999813735 ], [ 38548.125, 5946925.424999999813735 ], [ 38548.19999999999709, 5946925.424999999813735 ], [ 38548.19999999999709, 5946924.974999999627471 ], [ 38548.275000000001455, 5946924.974999999627471 ], [ 38548.275000000001455, 5946924.599999999627471 ], [ 38548.349999999998545, 5946924.599999999627471 ], [ 38548.349999999998545, 5946924.224999999627471 ], [ 38548.42500000000291, 5946924.224999999627471 ], [ 38548.42500000000291, 5946923.924999999813735 ], [ 38548.5, 5946923.924999999813735 ], [ 38548.5, 5946923.700000000186265 ], [ 38548.57499999999709, 5946923.700000000186265 ], [ 38548.57499999999709, 5946923.549999999813735 ], [ 38548.650000000001455, 5946923.549999999813735 ], [ 38548.650000000001455, 5946923.400000000372529 ], [ 38548.724999999998545, 5946923.400000000372529 ], [ 38548.724999999998545, 5946923.25 ], [ 38548.80000000000291, 5946923.25 ], [ 38548.80000000000291, 5946923.099999999627471 ], [ 38548.875, 5946923.099999999627471 ], [ 38548.875, 5946923.025000000372529 ], [ 38548.94999999999709, 5946923.025000000372529 ], [ 38548.94999999999709, 5946922.950000000186265 ], [ 38549.025000000001455, 5946922.950000000186265 ], [ 38549.025000000001455, 5946922.799999999813735 ], [ 38549.099999999998545, 5946922.799999999813735 ], [ 38549.099999999998545, 5946922.724999999627471 ], [ 38549.17500000000291, 5946922.724999999627471 ], [ 38549.17500000000291, 5946922.650000000372529 ], [ 38549.25, 5946922.650000000372529 ], [ 38549.25, 5946922.575000000186265 ], [ 38549.32499999999709, 5946922.575000000186265 ], [ 38549.32499999999709, 5946922.5 ], [ 38549.400000000001455, 5946922.5 ], [ 38549.400000000001455, 5946922.349999999627471 ], [ 38549.474999999998545, 5946922.349999999627471 ], [ 38549.474999999998545, 5946922.275000000372529 ], [ 38549.55000000000291, 5946922.275000000372529 ], [ 38549.55000000000291, 5946922.125 ], [ 38549.625, 5946922.125 ], [ 38549.625, 5946921.974999999627471 ], [ 38549.69999999999709, 5946921.974999999627471 ], [ 38549.69999999999709, 5946921.825000000186265 ], [ 38549.775000000001455, 5946921.825000000186265 ], [ 38549.775000000001455, 5946921.674999999813735 ], [ 38549.849999999998545, 5946921.674999999813735 ], [ 38549.849999999998545, 5946921.525000000372529 ], [ 38549.92500000000291, 5946921.525000000372529 ], [ 38549.92500000000291, 5946921.375 ], [ 38550.0, 5946921.375 ], [ 38550.0, 5946921.299999999813735 ], [ 38550.07499999999709, 5946921.299999999813735 ], [ 38550.07499999999709, 5946921.150000000372529 ], [ 38550.150000000001455, 5946921.150000000372529 ], [ 38550.150000000001455, 5946921.075000000186265 ], [ 38550.224999999998545, 5946921.075000000186265 ], [ 38550.224999999998545, 5946921.0 ], [ 38550.30000000000291, 5946921.0 ], [ 38550.30000000000291, 5946920.924999999813735 ], [ 38550.375, 5946920.924999999813735 ], [ 38550.375, 5946920.849999999627471 ], [ 38550.44999999999709, 5946920.849999999627471 ], [ 38550.44999999999709, 5946920.775000000372529 ], [ 38550.525000000001455, 5946920.775000000372529 ], [ 38550.525000000001455, 5946920.700000000186265 ], [ 38550.67500000000291, 5946920.700000000186265 ], [ 38550.67500000000291, 5946920.625 ], [ 38550.75, 5946920.625 ], [ 38550.75, 5946920.549999999813735 ], [ 38550.900000000001455, 5946920.549999999813735 ], [ 38550.900000000001455, 5946920.474999999627471 ], [ 38551.05000000000291, 5946920.474999999627471 ], [ 38551.05000000000291, 5946920.400000000372529 ], [ 38551.19999999999709, 5946920.400000000372529 ], [ 38551.19999999999709, 5946920.325000000186265 ], [ 38551.349999999998545, 5946920.325000000186265 ], [ 38551.349999999998545, 5946920.25 ], [ 38551.42500000000291, 5946920.25 ], [ 38551.42500000000291, 5946920.174999999813735 ], [ 38551.57499999999709, 5946920.174999999813735 ], [ 38551.57499999999709, 5946920.099999999627471 ], [ 38551.650000000001455, 5946920.099999999627471 ], [ 38551.650000000001455, 5946920.025000000372529 ], [ 38551.724999999998545, 5946920.025000000372529 ], [ 38551.724999999998545, 5946919.950000000186265 ], [ 38551.80000000000291, 5946919.950000000186265 ], [ 38551.80000000000291, 5946919.875 ], [ 38551.875, 5946919.875 ], [ 38551.875, 5946919.799999999813735 ], [ 38551.94999999999709, 5946919.799999999813735 ], [ 38551.94999999999709, 5946919.724999999627471 ], [ 38552.025000000001455, 5946919.724999999627471 ], [ 38552.025000000001455, 5946919.650000000372529 ], [ 38552.099999999998545, 5946919.650000000372529 ], [ 38552.099999999998545, 5946919.575000000186265 ], [ 38552.17500000000291, 5946919.575000000186265 ], [ 38552.17500000000291, 5946919.5 ], [ 38552.25, 5946919.5 ], [ 38552.25, 5946919.424999999813735 ], [ 38552.32499999999709, 5946919.424999999813735 ], [ 38552.32499999999709, 5946919.349999999627471 ], [ 38552.400000000001455, 5946919.349999999627471 ], [ 38552.400000000001455, 5946919.275000000372529 ], [ 38552.55000000000291, 5946919.275000000372529 ], [ 38552.55000000000291, 5946919.200000000186265 ], [ 38552.625, 5946919.200000000186265 ], [ 38552.625, 5946919.125 ], [ 38552.775000000001455, 5946919.125 ], [ 38552.775000000001455, 5946919.049999999813735 ], [ 38552.92500000000291, 5946919.049999999813735 ], [ 38552.92500000000291, 5946918.974999999627471 ], [ 38553.07499999999709, 5946918.974999999627471 ], [ 38553.07499999999709, 5946918.900000000372529 ], [ 38553.375, 5946918.900000000372529 ], [ 38553.375, 5946918.974999999627471 ], [ 38554.05000000000291, 5946918.974999999627471 ], [ 38554.05000000000291, 5946919.049999999813735 ], [ 38554.724999999998545, 5946919.049999999813735 ], [ 38554.724999999998545, 5946919.125 ], [ 38555.099999999998545, 5946919.125 ], [ 38555.099999999998545, 5946919.200000000186265 ], [ 38555.25, 5946919.200000000186265 ], [ 38555.25, 5946919.275000000372529 ], [ 38555.32499999999709, 5946919.275000000372529 ], [ 38555.32499999999709, 5946919.349999999627471 ], [ 38555.400000000001455, 5946919.349999999627471 ], [ 38555.400000000001455, 5946919.424999999813735 ], [ 38555.474999999998545, 5946919.424999999813735 ], [ 38555.474999999998545, 5946919.5 ], [ 38555.625, 5946919.5 ], [ 38555.625, 5946919.575000000186265 ], [ 38555.69999999999709, 5946919.575000000186265 ], [ 38555.69999999999709, 5946919.724999999627471 ], [ 38555.775000000001455, 5946919.724999999627471 ], [ 38555.775000000001455, 5946919.799999999813735 ], [ 38555.849999999998545, 5946919.799999999813735 ], [ 38555.849999999998545, 5946919.875 ], [ 38555.92500000000291, 5946919.875 ], [ 38555.92500000000291, 5946919.950000000186265 ], [ 38556.0, 5946919.950000000186265 ], [ 38556.0, 5946920.025000000372529 ], [ 38556.07499999999709, 5946920.025000000372529 ], [ 38556.07499999999709, 5946920.099999999627471 ], [ 38556.224999999998545, 5946920.099999999627471 ], [ 38556.224999999998545, 5946920.174999999813735 ], [ 38556.30000000000291, 5946920.174999999813735 ], [ 38556.30000000000291, 5946920.25 ], [ 38556.375, 5946920.25 ], [ 38556.375, 5946920.325000000186265 ], [ 38556.525000000001455, 5946920.325000000186265 ], [ 38556.525000000001455, 5946920.400000000372529 ], [ 38556.67500000000291, 5946920.400000000372529 ], [ 38556.67500000000291, 5946920.474999999627471 ], [ 38556.82499999999709, 5946920.474999999627471 ], [ 38556.82499999999709, 5946920.549999999813735 ], [ 38556.974999999998545, 5946920.549999999813735 ], [ 38556.974999999998545, 5946920.625 ], [ 38557.19999999999709, 5946920.625 ], [ 38557.19999999999709, 5946920.700000000186265 ], [ 38557.5, 5946920.700000000186265 ], [ 38557.5, 5946920.775000000372529 ], [ 38557.80000000000291, 5946920.775000000372529 ], [ 38557.80000000000291, 5946920.849999999627471 ], [ 38558.025000000001455, 5946920.849999999627471 ], [ 38558.025000000001455, 5946920.924999999813735 ], [ 38558.25, 5946920.924999999813735 ], [ 38558.25, 5946921.0 ], [ 38558.474999999998545, 5946921.0 ], [ 38558.474999999998545, 5946921.075000000186265 ], [ 38558.69999999999709, 5946921.075000000186265 ], [ 38558.69999999999709, 5946921.150000000372529 ], [ 38558.92500000000291, 5946921.150000000372529 ], [ 38558.92500000000291, 5946921.224999999627471 ], [ 38559.07499999999709, 5946921.224999999627471 ], [ 38559.07499999999709, 5946921.299999999813735 ], [ 38559.150000000001455, 5946921.299999999813735 ], [ 38559.150000000001455, 5946921.375 ], [ 38559.224999999998545, 5946921.375 ], [ 38559.224999999998545, 5946921.450000000186265 ], [ 38559.30000000000291, 5946921.450000000186265 ], [ 38559.30000000000291, 5946921.525000000372529 ], [ 38559.375, 5946921.525000000372529 ], [ 38559.375, 5946921.599999999627471 ], [ 38559.44999999999709, 5946921.599999999627471 ], [ 38559.44999999999709, 5946921.674999999813735 ], [ 38559.525000000001455, 5946921.674999999813735 ], [ 38559.525000000001455, 5946921.75 ], [ 38559.599999999998545, 5946921.75 ], [ 38559.599999999998545, 5946921.900000000372529 ], [ 38559.67500000000291, 5946921.900000000372529 ], [ 38559.67500000000291, 5946921.974999999627471 ], [ 38559.75, 5946921.974999999627471 ], [ 38559.75, 5946922.049999999813735 ], [ 38559.82499999999709, 5946922.049999999813735 ], [ 38559.82499999999709, 5946922.125 ], [ 38559.900000000001455, 5946922.125 ], [ 38559.900000000001455, 5946922.200000000186265 ], [ 38559.974999999998545, 5946922.200000000186265 ], [ 38559.974999999998545, 5946922.275000000372529 ], [ 38560.05000000000291, 5946922.275000000372529 ], [ 38560.05000000000291, 5946922.349999999627471 ], [ 38560.125, 5946922.349999999627471 ], [ 38560.125, 5946922.424999999813735 ], [ 38560.19999999999709, 5946922.424999999813735 ], [ 38560.19999999999709, 5946922.5 ], [ 38560.349999999998545, 5946922.5 ], [ 38560.349999999998545, 5946922.575000000186265 ], [ 38560.42500000000291, 5946922.575000000186265 ], [ 38560.42500000000291, 5946922.650000000372529 ], [ 38560.5, 5946922.650000000372529 ], [ 38560.5, 5946922.724999999627471 ], [ 38560.650000000001455, 5946922.724999999627471 ], [ 38560.650000000001455, 5946922.799999999813735 ], [ 38560.80000000000291, 5946922.799999999813735 ], [ 38560.80000000000291, 5946922.875 ], [ 38560.94999999999709, 5946922.875 ], [ 38560.94999999999709, 5946922.950000000186265 ], [ 38561.025000000001455, 5946922.950000000186265 ], [ 38561.025000000001455, 5946923.025000000372529 ], [ 38561.17500000000291, 5946923.025000000372529 ], [ 38561.17500000000291, 5946923.099999999627471 ], [ 38561.25, 5946923.099999999627471 ], [ 38561.25, 5946923.174999999813735 ], [ 38561.32499999999709, 5946923.174999999813735 ], [ 38561.32499999999709, 5946923.25 ], [ 38561.400000000001455, 5946923.25 ], [ 38561.400000000001455, 5946923.325000000186265 ], [ 38561.474999999998545, 5946923.325000000186265 ], [ 38561.474999999998545, 5946923.400000000372529 ], [ 38561.55000000000291, 5946923.400000000372529 ], [ 38561.55000000000291, 5946923.474999999627471 ], [ 38561.625, 5946923.474999999627471 ], [ 38561.625, 5946923.549999999813735 ], [ 38561.69999999999709, 5946923.549999999813735 ], [ 38561.69999999999709, 5946923.700000000186265 ], [ 38561.775000000001455, 5946923.700000000186265 ], [ 38561.775000000001455, 5946923.849999999627471 ], [ 38561.849999999998545, 5946923.849999999627471 ], [ 38561.849999999998545, 5946924.075000000186265 ], [ 38561.92500000000291, 5946924.075000000186265 ], [ 38561.92500000000291, 5946924.224999999627471 ], [ 38562.0, 5946924.224999999627471 ], [ 38562.0, 5946924.450000000186265 ], [ 38562.07499999999709, 5946924.450000000186265 ], [ 38562.07499999999709, 5946924.599999999627471 ], [ 38562.150000000001455, 5946924.599999999627471 ], [ 38562.150000000001455, 5946924.75 ], [ 38562.224999999998545, 5946924.75 ], [ 38562.224999999998545, 5946924.900000000372529 ], [ 38562.30000000000291, 5946924.900000000372529 ], [ 38562.30000000000291, 5946925.049999999813735 ], [ 38562.375, 5946925.049999999813735 ], [ 38562.375, 5946925.200000000186265 ], [ 38562.44999999999709, 5946925.200000000186265 ], [ 38562.44999999999709, 5946925.349999999627471 ], [ 38562.525000000001455, 5946925.349999999627471 ], [ 38562.525000000001455, 5946925.424999999813735 ], [ 38562.599999999998545, 5946925.424999999813735 ], [ 38562.599999999998545, 5946925.575000000186265 ], [ 38562.67500000000291, 5946925.575000000186265 ], [ 38562.67500000000291, 5946925.650000000372529 ], [ 38562.75, 5946925.650000000372529 ], [ 38562.75, 5946925.799999999813735 ], [ 38562.82499999999709, 5946925.799999999813735 ], [ 38562.82499999999709, 5946925.875 ], [ 38562.900000000001455, 5946925.875 ], [ 38562.900000000001455, 5946925.950000000186265 ], [ 38562.974999999998545, 5946925.950000000186265 ], [ 38562.974999999998545, 5946926.099999999627471 ], [ 38563.05000000000291, 5946926.099999999627471 ], [ 38563.05000000000291, 5946926.174999999813735 ], [ 38563.125, 5946926.174999999813735 ], [ 38563.125, 5946926.25 ], [ 38563.19999999999709, 5946926.25 ], [ 38563.19999999999709, 5946926.400000000372529 ], [ 38563.275000000001455, 5946926.400000000372529 ], [ 38563.275000000001455, 5946926.549999999813735 ], [ 38563.349999999998545, 5946926.549999999813735 ], [ 38563.349999999998545, 5946926.700000000186265 ], [ 38563.42500000000291, 5946926.700000000186265 ], [ 38563.42500000000291, 5946926.849999999627471 ], [ 38563.5, 5946926.849999999627471 ], [ 38563.5, 5946927.0 ], [ 38563.57499999999709, 5946927.0 ], [ 38563.57499999999709, 5946927.224999999627471 ], [ 38563.650000000001455, 5946927.224999999627471 ], [ 38563.650000000001455, 5946927.450000000186265 ], [ 38563.724999999998545, 5946927.450000000186265 ], [ 38563.724999999998545, 5946928.125 ], [ 38563.650000000001455, 5946928.125 ], [ 38563.650000000001455, 5946928.575000000186265 ], [ 38563.57499999999709, 5946928.575000000186265 ], [ 38563.57499999999709, 5946929.025000000372529 ], [ 38563.5, 5946929.025000000372529 ], [ 38563.5, 5946929.400000000372529 ], [ 38563.42500000000291, 5946929.400000000372529 ], [ 38563.42500000000291, 5946929.700000000186265 ], [ 38563.349999999998545, 5946929.700000000186265 ], [ 38563.349999999998545, 5946929.924999999813735 ], [ 38563.275000000001455, 5946929.924999999813735 ], [ 38563.275000000001455, 5946930.150000000372529 ], [ 38563.19999999999709, 5946930.150000000372529 ], [ 38563.19999999999709, 5946930.299999999813735 ], [ 38563.125, 5946930.299999999813735 ], [ 38563.125, 5946930.525000000372529 ], [ 38563.05000000000291, 5946930.525000000372529 ], [ 38563.05000000000291, 5946930.674999999813735 ], [ 38562.974999999998545, 5946930.674999999813735 ], [ 38562.974999999998545, 5946930.825000000186265 ], [ 38562.900000000001455, 5946930.825000000186265 ], [ 38562.900000000001455, 5946930.974999999627471 ], [ 38562.82499999999709, 5946930.974999999627471 ], [ 38562.82499999999709, 5946931.125 ], [ 38562.75, 5946931.125 ], [ 38562.75, 5946931.275000000372529 ], [ 38562.67500000000291, 5946931.275000000372529 ], [ 38562.67500000000291, 5946931.424999999813735 ], [ 38562.599999999998545, 5946931.424999999813735 ], [ 38562.599999999998545, 5946931.724999999627471 ], [ 38562.525000000001455, 5946931.724999999627471 ], [ 38562.525000000001455, 5946932.025000000372529 ], [ 38562.44999999999709, 5946932.025000000372529 ], [ 38562.44999999999709, 5946932.400000000372529 ], [ 38562.375, 5946932.400000000372529 ], [ 38562.375, 5946932.849999999627471 ], [ 38562.30000000000291, 5946932.849999999627471 ], [ 38562.30000000000291, 5946933.299999999813735 ], [ 38562.224999999998545, 5946933.299999999813735 ], [ 38562.224999999998545, 5946934.799999999813735 ], [ 38562.150000000001455, 5946934.799999999813735 ], [ 38562.150000000001455, 5946937.950000000186265 ], [ 38562.224999999998545, 5946937.950000000186265 ], [ 38562.224999999998545, 5946940.575000000186265 ], [ 38562.30000000000291, 5946940.575000000186265 ], [ 38562.30000000000291, 5946941.474999999627471 ], [ 38562.224999999998545, 5946941.474999999627471 ], [ 38562.224999999998545, 5946942.0 ], [ 38562.150000000001455, 5946942.0 ], [ 38562.150000000001455, 5946942.599999999627471 ], [ 38562.07499999999709, 5946942.599999999627471 ], [ 38562.07499999999709, 5946943.200000000186265 ], [ 38562.0, 5946943.200000000186265 ], [ 38562.0, 5946943.724999999627471 ], [ 38561.92500000000291, 5946943.724999999627471 ], [ 38561.92500000000291, 5946944.25 ], [ 38561.849999999998545, 5946944.25 ], [ 38561.849999999998545, 5946944.775000000372529 ], [ 38561.775000000001455, 5946944.775000000372529 ], [ 38561.775000000001455, 5946945.224999999627471 ], [ 38561.69999999999709, 5946945.224999999627471 ], [ 38561.69999999999709, 5946945.375 ], [ 38561.625, 5946945.375 ], [ 38561.625, 5946945.525000000372529 ], [ 38561.55000000000291, 5946945.525000000372529 ], [ 38561.55000000000291, 5946945.599999999627471 ], [ 38561.474999999998545, 5946945.599999999627471 ], [ 38561.474999999998545, 5946945.75 ], [ 38561.400000000001455, 5946945.75 ], [ 38561.400000000001455, 5946945.825000000186265 ], [ 38561.32499999999709, 5946945.825000000186265 ], [ 38561.32499999999709, 5946945.900000000372529 ], [ 38561.25, 5946945.900000000372529 ], [ 38561.25, 5946946.049999999813735 ], [ 38561.17500000000291, 5946946.049999999813735 ], [ 38561.17500000000291, 5946946.125 ], [ 38561.099999999998545, 5946946.125 ], [ 38561.099999999998545, 5946946.200000000186265 ], [ 38561.025000000001455, 5946946.200000000186265 ], [ 38561.025000000001455, 5946946.275000000372529 ], [ 38560.875, 5946946.275000000372529 ], [ 38560.875, 5946946.349999999627471 ], [ 38560.80000000000291, 5946946.349999999627471 ], [ 38560.80000000000291, 5946946.424999999813735 ], [ 38560.650000000001455, 5946946.424999999813735 ], [ 38560.650000000001455, 5946946.5 ], [ 38560.57499999999709, 5946946.5 ], [ 38560.57499999999709, 5946946.575000000186265 ], [ 38560.5, 5946946.575000000186265 ], [ 38560.5, 5946946.650000000372529 ], [ 38560.42500000000291, 5946946.650000000372529 ], [ 38560.42500000000291, 5946946.724999999627471 ], [ 38560.349999999998545, 5946946.724999999627471 ], [ 38560.349999999998545, 5946946.799999999813735 ], [ 38560.275000000001455, 5946946.799999999813735 ], [ 38560.275000000001455, 5946946.875 ], [ 38560.19999999999709, 5946946.875 ], [ 38560.19999999999709, 5946946.950000000186265 ], [ 38560.125, 5946946.950000000186265 ], [ 38560.125, 5946947.025000000372529 ], [ 38560.05000000000291, 5946947.025000000372529 ], [ 38560.05000000000291, 5946947.099999999627471 ], [ 38559.974999999998545, 5946947.099999999627471 ], [ 38559.974999999998545, 5946947.174999999813735 ], [ 38559.900000000001455, 5946947.174999999813735 ], [ 38559.900000000001455, 5946947.25 ], [ 38559.82499999999709, 5946947.25 ], [ 38559.82499999999709, 5946947.325000000186265 ], [ 38559.75, 5946947.325000000186265 ], [ 38559.75, 5946947.400000000372529 ], [ 38559.67500000000291, 5946947.400000000372529 ], [ 38559.67500000000291, 5946947.474999999627471 ], [ 38559.599999999998545, 5946947.474999999627471 ], [ 38559.599999999998545, 5946947.549999999813735 ], [ 38559.44999999999709, 5946947.549999999813735 ], [ 38559.44999999999709, 5946947.625 ], [ 38559.375, 5946947.625 ], [ 38559.375, 5946947.700000000186265 ], [ 38559.224999999998545, 5946947.700000000186265 ], [ 38559.224999999998545, 5946947.775000000372529 ], [ 38559.150000000001455, 5946947.775000000372529 ], [ 38559.150000000001455, 5946947.849999999627471 ], [ 38558.92500000000291, 5946947.849999999627471 ], [ 38558.92500000000291, 5946947.924999999813735 ], [ 38558.400000000001455, 5946947.924999999813735 ], [ 38558.400000000001455, 5946948.0 ], [ 38557.875, 5946948.0 ], [ 38557.875, 5946948.075000000186265 ], [ 38557.19999999999709, 5946948.075000000186265 ], [ 38557.19999999999709, 5946948.150000000372529 ], [ 38556.375, 5946948.150000000372529 ], [ 38556.375, 5946948.224999999627471 ], [ 38555.32499999999709, 5946948.224999999627471 ], [ 38555.32499999999709, 5946948.299999999813735 ], [ 38554.57499999999709, 5946948.299999999813735 ] ] ] } },
{ "type": "Feature", "properties": { "value": 1.0, "building_id": 1, "area": 0.039374999957108227 }, "geometry": { "type": "Polygon", "coordinates": [ [ [ 38568.67500000000291, 5946904.349999999627471 ], [ 38568.67500000000291, 5946904.125 ], [ 38568.82499999999709, 5946904.125 ], [ 38568.82499999999709, 5946904.200000000186265 ], [ 38568.900000000001455, 5946904.200000000186265 ], [ 38568.900000000001455, 5946904.275000000372529 ], [ 38568.82499999999709, 5946904.275000000372529 ], [ 38568.82499999999709, 5946904.349999999627471 ], [ 38568.67500000000291, 5946904.349999999627471 ] ] ] } }
]
}
