{
"type": "FeatureCollection",
"name": "38433E591732N_buildings",
"crs": { "type": "name", "properties": { "name": "urn:ogc:def:crs:EPSG::3776" } },
"features": [
{ "type": "Feature", "properties": { "value": 1.0, "building_id": 0, "area": 289.58625000016929 }, "geometry": { "type": "Polygon", "coordinates": [ [ [ 38789.32499999999709, 5917793.924999999813735 ], [ 38789.32499999999709, 5917793.849999999627471 ], [ 38789.17500000000291, 5917793.849999999627471 ], [ 38789.17500000000291, 5917793.775000000372529 ], [ 38789.025000000001455, 5917793.775000000372529 ], [ 38789.025000000001455, 5917793.700000000186265 ], [ 38788.875, 5917793.700000000186265 ], [ 38788.875, 5917793.625 ], [ 38788.724999999998545, 5917793.625 ], [ 38788.724999999998545, 5917793.549999999813735 ], [ 38788.650000000001455, 5917793.549999999813735 ], [ 38788.650000000001455, 5917793.474999999627471 ], [ 38788.5, 5917793.474999999627471 ], [ 38788.5, 5917793.400000000372529 ], [ 38788.42500000000291, 5917793.400000000372529 ], [ 38788.42500000000291, 5917793.325000000186265 ], [ 38788.349999999998545, 5917793.325000000186265 ], [ 38788.349999999998545, 5917793.25 ], [ 38788.275000000001455, 5917793.25 ], [ 38788.275000000001455, 5917793.174999999813735 ], [ 38788.19999999999709, 5917793.174999999813735 ], [ 38788.19999999999709, 5917793.099999999627471 ], [ 38788.125, 5917793.099999999627471 ], [ 38788.125, 5917793.025000000372529 ], [ 38788.05000000000291, 5917793.025000000372529 ], [ 38788.05000000000291, 5917792.950000000186265 ], [ 38787.974999999998545, 5917792.950000000186265 ], [ 38787.974999999998545, 5917792.875 ], [ 38787.900000000001455, 5917792.875 ], [ 38787.900000000001455, 5917792.799999999813735 ], [ 38787.82499999999709, 5917792.799999999813735 ], [ 38787.82499999999709, 5917792.724999999627471 ], [ 38787.75, 5917792.724999999627471 ], [ 38787.75, 5917792.650000000372529 ], [ 38787.67500000000291, 5917792.650000000372529 ], [ 38787.67500000000291, 5917792.575000000186265 ], [ 38787.525000000001455, 5917792.575000000186265 ], [ 38787.525000000001455, 5917792.5 ], [ 38787.44999999999709, 5917792.5 ], [ 38787.44999999999709, 5917792.424999999813735 ], [ 38787.30000000000291, 5917792.424999999813735 ], [ 38787.30000000000291, 5917792.349999999627471 ], [ 38787.150000000001455, 5917792.349999999627471 ], [ 38787.150000000001455, 5917792.275000000372529 ], [ 38787.07499999999709, 5917792.275000000372529 ], [ 38787.07499999999709, 5917792.200000000186265 ], [ 38786.92500000000291, 5917792.200000000186265 ], [ 38786.92500000000291, 5917792.125 ], [ 38786.849999999998545, 5917792.125 ], [ 38786.849999999998545, 5917792.049999999813735 ], [ 38786.69999999999709, 5917792.049999999813735 ], [ 38786.69999999999709, 5917791.974999999627471 ], [ 38786.625, 5917791.974999999627471 ], [ 38786.625, 5917791.900000000372529 ], [ 38786.55000000000291, 5917791.900000000372529 ], [ 38786.55000000000291, 5917791.825000000186265 ], [ 38786.474999999998545, 5917791.825000000186265 ], [ 38786.474999999998545, 5917791.75 ], [ 38786.400000000001455, 5917791.75 ], [ 38786.400000000001455, 5917791.674999999813735 ], [ 38786.32499999999709, 5917791.674999999813735 ], [ 38786.32499999999709, 5917791.599999999627471 ], [ 38786.25, 5917791.599999999627471 ], [ 38786.25, 5917791.525000000372529 ], [ 38786.17500000000291, 5917791.525000000372529 ], [ 38786.17500000000291, 5917791.450000000186265 ], [ 38786.099999999998545, 5917791.450000000186265 ], [ 38786.099999999998545, 5917791.375 ], [ 38786.025000000001455, 5917791.375 ], [ 38786.025000000001455, 5917791.299999999813735 ], [ 38785.94999999999709, 5917791.299999999813735 ], [ 38785.94999999999709, 5917791.224999999627471 ], [ 38785.875, 5917791.224999999627471 ], [ 38785.875, 5917791.150000000372529 ], [ 38785.80000000000291, 5917791.150000000372529 ], [ 38785.80000000000291, 5917791.0 ], [ 38785.724999999998545, 5917791.0 ], [ 38785.724999999998545, 5917790.924999999813735 ], [ 38785.650000000001455, 5917790.924999999813735 ], [ 38785.650000000001455, 5917790.849999999627471 ], [ 38785.57499999999709, 5917790.849999999627471 ], [ 38785.57499999999709, 5917790.775000000372529 ], [ 38785.5, 5917790.775000000372529 ], [ 38785.5, 5917790.700000000186265 ], [ 38785.349999999998545, 5917790.700000000186265 ], [ 38785.349999999998545, 5917790.625 ], [ 38785.19999999999709, 5917790.625 ], [ 38785.19999999999709, 5917790.549999999813735 ], [ 38785.125, 5917790.549999999813735 ], [ 38785.125, 5917790.474999999627471 ], [ 38784.974999999998545, 5917790.474999999627471 ], [ 38784.974999999998545, 5917790.400000000372529 ], [ 38784.900000000001455, 5917790.400000000372529 ], [ 38784.900000000001455, 5917790.325000000186265 ], [ 38784.75, 5917790.325000000186265 ], [ 38784.75, 5917790.25 ], [ 38784.67500000000291, 5917790.25 ], [ 38784.67500000000291, 5917790.174999999813735 ], [ 38784.599999999998545, 5917790.174999999813735 ], [ 38784.599999999998545, 5917790.099999999627471 ], [ 38784.525000000001455, 5917790.099999999627471 ], [ 38784.525000000001455, 5917790.025000000372529 ], [ 38784.375, 5917790.025000000372529 ], [ 38784.375, 5917789.950000000186265 ], [ 38784.30000000000291, 5917789.950000000186265 ], [ 38784.30000000000291, 5917789.875 ], [ 38784.224999999998545, 5917789.875 ], [ 38784.224999999998545, 5917789.799999999813735 ], [ 38784.150000000001455, 5917789.799999999813735 ], [ 38784.150000000001455, 5917789.724999999627471 ], [ 38784.07499999999709, 5917789.724999999627471 ], [ 38784.07499999999709, 5917789.650000000372529 ], [ 38784.0, 5917789.650000000372529 ], [ 38784.0, 5917789.5 ], [ 38783.92500000000291, 5917789.5 ], [ 38783.92500000000291, 5917789.424999999813735 ], [ 38783.849999999998545, 5917789.424999999813735 ], [ 38783.849999999998545, 5917789.349999999627471 ], [ 38783.775000000001455, 5917789.349999999627471 ], [ 38783.775000000001455, 5917789.275000000372529 ], [ 38783.69999999999709, 5917789.275000000372529 ], [ 38783.69999999999709, 5917789.125 ], [ 38783.625, 5917789.125 ], [ 38783.625, 5917789.049999999813735 ], [ 38783.55000000000291, 5917789.049999999813735 ], [ 38783.55000000000291, 5917788.974999999627471 ], [ 38783.474999999998545, 5917788.974999999627471 ], [ 38783.474999999998545, 5917788.900000000372529 ], [ 38783.400000000001455, 5917788.900000000372529 ], [ 38783.400000000001455, 5917788.825000000186265 ], [ 38783.25, 5917788.825000000186265 ], [ 38783.25, 5917788.75 ], [ 38783.17500000000291, 5917788.75 ], [ 38783.17500000000291, 5917788.674999999813735 ], [ 38783.025000000001455, 5917788.674999999813735 ], [ 38783.025000000001455, 5917788.599999999627471 ], [ 38782.875, 5917788.599999999627471 ], [ 38782.875, 5917788.525000000372529 ], [ 38782.80000000000291, 5917788.525000000372529 ], [ 38782.80000000000291, 5917788.450000000186265 ], [ 38782.650000000001455, 5917788.450000000186265 ], [ 38782.650000000001455, 5917788.375 ], [ 38782.5, 5917788.375 ], [ 38782.5, 5917788.299999999813735 ], [ 38782.275000000001455, 5917788.299999999813735 ], [ 38782.275000000001455, 5917788.224999999627471 ], [ 38782.125, 5917788.224999999627471 ], [ 38782.125, 5917788.150000000372529 ], [ 38781.974999999998545, 5917788.150000000372529 ], [ 38781.974999999998545, 5917788.075000000186265 ], [ 38781.75, 5917788.075000000186265 ], [ 38781.75, 5917788.0 ], [ 38781.599999999998545, 5917788.0 ], [ 38781.599999999998545, 5917787.924999999813735 ], [ 38781.44999999999709, 5917787.924999999813735 ], [ 38781.44999999999709, 5917787.849999999627471 ], [ 38781.375, 5917787.849999999627471 ], [ 38781.375, 5917787.775000000372529 ], [ 38781.224999999998545, 5917787.775000000372529 ], [ 38781.224999999998545, 5917787.700000000186265 ], [ 38781.150000000001455, 5917787.700000000186265 ], [ 38781.150000000001455, 5917787.625 ], [ 38781.07499999999709, 5917787.625 ], [ 38781.07499999999709, 5917787.549999999813735 ], [ 38781.0, 5917787.549999999813735 ], [ 38781.0, 5917787.474999999627471 ], [ 38780.92500000000291, 5917787.474999999627471 ], [ 38780.92500000000291, 5917787.400000000372529 ], [ 38780.849999999998545, 5917787.400000000372529 ], [ 38780.849999999998545, 5917787.25 ], [ 38780.775000000001455, 5917787.25 ], [ 38780.775000000001455, 5917787.174999999813735 ], [ 38780.69999999999709, 5917787.174999999813735 ], [ 38780.69999999999709, 5917787.025000000372529 ], [ 38780.625, 5917787.025000000372529 ], [ 38780.625, 5917786.875 ], [ 38780.55000000000291, 5917786.875 ], [ 38780.55000000000291, 5917786.724999999627471 ], [ 38780.474999999998545, 5917786.724999999627471 ], [ 38780.474999999998545, 5917786.575000000186265 ], [ 38780.400000000001455, 5917786.575000000186265 ], [ 38780.400000000001455, 5917786.424999999813735 ], [ 38780.32499999999709, 5917786.424999999813735 ], [ 38780.32499999999709, 5917786.349999999627471 ], [ 38780.25, 5917786.349999999627471 ], [ 38780.25, 5917786.200000000186265 ], [ 38780.17500000000291, 5917786.200000000186265 ], [ 38780.17500000000291, 5917786.125 ], [ 38780.099999999998545, 5917786.125 ], [ 38780.099999999998545, 5917786.049999999813735 ], [ 38780.025000000001455, 5917786.049999999813735 ], [ 38780.025000000001455, 5917785.974999999627471 ], [ 38779.94999999999709, 5917785.974999999627471 ], [ 38779.94999999999709, 5917785.825000000186265 ], [ 38779.875, 5917785.825000000186265 ], [ 38779.875, 5917785.75 ], [ 38779.724999999998545, 5917785.75 ], [ 38779.724999999998545, 5917785.674999999813735 ], [ 38779.650000000001455, 5917785.674999999813735 ], [ 38779.650000000001455, 5917785.599999999627471 ], [ 38779.57499999999709, 5917785.599999999627471 ], [ 38779.57499999999709, 5917785.525000000372529 ], [ 38779.5, 5917785.525000000372529 ], [ 38779.5, 5917785.450000000186265 ], [ 38779.42500000000291, 5917785.450000000186265 ], [ 38779.42500000000291, 5917785.375 ], [ 38779.349999999998545, 5917785.375 ], [ 38779.349999999998545, 5917785.299999999813735 ], [ 38779.275000000001455, 5917785.299999999813735 ], [ 38779.275000000001455, 5917785.224999999627471 ], [ 38779.19999999999709, 5917785.224999999627471 ], [ 38779.19999999999709, 5917785.150000000372529 ], [ 38779.125, 5917785.150000000372529 ], [ 38779.125, 5917784.775000000372529 ], [ 38779.19999999999709, 5917784.775000000372529 ], [ 38779.19999999999709, 5917784.474999999627471 ], [ 38779.275000000001455, 5917784.474999999627471 ], [ 38779.275000000001455, 5917784.174999999813735 ], [ 38779.349999999998545, 5917784.174999999813735 ], [ 38779.349999999998545, 5917783.950000000186265 ], [ 38779.42500000000291, 5917783.950000000186265 ], [ 38779.42500000000291, 5917783.724999999627471 ], [ 38779.5, 5917783.724999999627471 ], [ 38779.5, 5917783.5 ], [ 38779.57499999999709, 5917783.5 ], [ 38779.57499999999709, 5917783.349999999627471 ], [ 38779.650000000001455, 5917783.349999999627471 ], [ 38779.650000000001455, 5917783.200000000186265 ], [ 38779.724999999998545, 5917783.200000000186265 ], [ 38779.724999999998545, 5917782.974999999627471 ], [ 38779.80000000000291, 5917782.974999999627471 ], [ 38779.80000000000291, 5917782.674999999813735 ], [ 38779.875, 5917782.674999999813735 ], [ 38779.875, 5917782.450000000186265 ], [ 38779.94999999999709, 5917782.450000000186265 ], [ 38779.94999999999709, 5917782.150000000372529 ], [ 38780.025000000001455, 5917782.150000000372529 ], [ 38780.025000000001455, 5917781.849999999627471 ], [ 38780.099999999998545, 5917781.849999999627471 ], [ 38780.099999999998545, 5917781.474999999627471 ], [ 38780.17500000000291, 5917781.474999999627471 ], [ 38780.17500000000291, 5917781.025000000372529 ], [ 38780.25, 5917781.025000000372529 ], [ 38780.25, 5917780.575000000186265 ], [ 38780.32499999999709, 5917780.575000000186265 ], [ 38780.32499999999709, 5917780.125 ], [ 38780.400000000001455, 5917780.125 ], [ 38780.400000000001455, 5917779.75 ], [ 38780.474999999998545, 5917779.75 ], [ 38780.474999999998545, 5917779.299999999813735 ], [ 38780.55000000000291, 5917779.299999999813735 ], [ 38780.55000000000291, 5917778.849999999627471 ], [ 38780.625, 5917778.849999999627471 ], [ 38780.625, 5917778.474999999627471 ], [ 38780.69999999999709, 5917778.474999999627471 ], [ 38780.69999999999709, 5917778.174999999813735 ], [ 38780.775000000001455, 5917778.174999999813735 ], [ 38780.775000000001455, 5917777.875 ], [ 38780.849999999998545, 5917777.875 ], [ 38780.849999999998545, 5917777.650000000372529 ], [ 38780.92500000000291, 5917777.650000000372529 ], [ 38780.92500000000291, 5917777.5 ], [ 38781.0, 5917777.5 ], [ 38781.0, 5917777.275000000372529 ], [ 38781.07499999999709, 5917777.275000000372529 ], [ 38781.07499999999709, 5917776.974999999627471 ], [ 38781.150000000001455, 5917776.974999999627471 ], [ 38781.150000000001455, 5917776.75 ], [ 38781.224999999998545, 5917776.75 ], [ 38781.224999999998545, 5917776.599999999627471 ], [ 38781.30000000000291, 5917776.599999999627471 ], [ 38781.30000000000291, 5917776.525000000372529 ], [ 38781.375, 5917776.525000000372529 ], [ 38781.375, 5917776.375 ], [ 38781.44999999999709, 5917776.375 ], [ 38781.44999999999709, 5917776.299999999813735 ], [ 38781.525000000001455, 5917776.299999999813735 ], [ 38781.525000000001455, 5917776.224999999627471 ], [ 38781.599999999998545, 5917776.224999999627471 ], [ 38781.599999999998545, 5917776.150000000372529 ], [ 38781.67500000000291, 5917776.150000000372529 ], [ 38781.67500000000291, 5917776.0 ], [ 38781.75, 5917776.0 ], [ 38781.75, 5917775.924999999813735 ], [ 38781.82499999999709, 5917775.924999999813735 ], [ 38781.82499999999709, 5917775.849999999627471 ], [ 38781.900000000001455, 5917775.849999999627471 ], [ 38781.900000000001455, 5917775.775000000372529 ], [ 38781.974999999998545, 5917775.775000000372529 ], [ 38781.974999999998545, 5917775.700000000186265 ], [ 38782.19999999999709, 5917775.700000000186265 ], [ 38782.19999999999709, 5917775.625 ], [ 38782.42500000000291, 5917775.625 ], [ 38782.42500000000291, 5917775.549999999813735 ], [ 38782.724999999998545, 5917775.549999999813735 ], [ 38782.724999999998545, 5917775.474999999627471 ], [ 38783.099999999998545, 5917775.474999999627471 ], [ 38783.099999999998545, 5917775.400000000372529 ], [ 38783.474999999998545, 5917775.400000000372529 ], [ 38783.474999999998545, 5917775.325000000186265 ], [ 38783.69999999999709, 5917775.325000000186265 ], [ 38783.69999999999709, 5917775.25 ], [ 38783.775000000001455, 5917775.25 ], [ 38783.775000000001455, 5917775.174999999813735 ], [ 38783.92500000000291, 5917775.174999999813735 ], [ 38783.92500000000291, 5917775.099999999627471 ], [ 38784.07499999999709, 5917775.099999999627471 ], [ 38784.07499999999709, 5917775.025000000372529 ], [ 38784.224999999998545, 5917775.025000000372529 ], [ 38784.224999999998545, 5917774.950000000186265 ], [ 38784.375, 5917774.950000000186265 ], [ 38784.375, 5917774.875 ], [ 38784.599999999998545, 5917774.875 ], [ 38784.599999999998545, 5917774.799999999813735 ], [ 38784.75, 5917774.799999999813735 ], [ 38784.75, 5917774.724999999627471 ], [ 38784.974999999998545, 5917774.724999999627471 ], [ 38784.974999999998545, 5917774.650000000372529 ], [ 38785.275000000001455, 5917774.650000000372529 ], [ 38785.275000000001455, 5917774.575000000186265 ], [ 38785.650000000001455, 5917774.575000000186265 ], [ 38785.650000000001455, 5917774.5 ], [ 38786.32499999999709, 5917774.5 ], [ 38786.32499999999709, 5917774.424999999813735 ], [ 38786.92500000000291, 5917774.424999999813735 ], [ 38786.92500000000291, 5917774.349999999627471 ], [ 38787.30000000000291, 5917774.349999999627471 ], [ 38787.30000000000291, 5917774.275000000372529 ], [ 38787.75, 5917774.275000000372529 ], [ 38787.75, 5917774.200000000186265 ], [ 38788.19999999999709, 5917774.200000000186265 ], [ 38788.19999999999709, 5917774.125 ], [ 38788.5, 5917774.125 ], [ 38788.5, 5917774.049999999813735 ], [ 38788.724999999998545, 5917774.049999999813735 ], [ 38788.724999999998545, 5917773.974999999627471 ], [ 38788.94999999999709, 5917773.974999999627471 ], [ 38788.94999999999709, 5917773.900000000372529 ], [ 38789.17500000000291, 5917773.900000000372529 ], [ 38789.17500000000291, 5917773.825000000186265 ], [ 38789.32499999999709, 5917773.825000000186265 ], [ 38789.32499999999709, 5917773.75 ], [ 38789.400000000001455, 5917773.75 ], [ 38789.400000000001455, 5917773.674999999813735 ], [ 38790.30000000000291, 5917773.674999999813735 ], [ 38790.30000000000291, 5917773.599999999627471 ], [ 38791.05000000000291, 5917773.599999999627471 ], [ 38791.05000000000291, 5917773.525000000372529 ], [ 38791.57499999999709, 5917773.525000000372529 ], [ 38791.57499999999709, 5917773.450000000186265 ], [ 38792.17500000000291, 5917773.450000000186265 ], [ 38792.17500000000291, 5917773.375 ], [ 38792.625, 5917773.375 ], [ 38792.625, 5917773.299999999813735 ], [ 38793.30000000000291, 5917773.299999999813735 ], [ 38793.30000000000291, 5917773.224999999627471 ], [ 38793.75, 5917773.224999999627471 ], [ 38793.75, 5917773.150000000372529 ], [ 38794.125, 5917773.150000000372529 ], [ 38794.125, 5917773.075000000186265 ], [ 38794.349999999998545, 5917773.075000000186265 ], [ 38794.349999999998545, 5917773.0 ], [ 38794.5, 5917773.0 ], [ 38794.5, 5917772.924999999813735 ], [ 38794.650000000001455, 5917772.924999999813735 ], [ 38794.650000000001455, 5917772.849999999627471 ], [ 38794.724999999998545, 5917772.849999999627471 ], [ 38794.724999999998545, 5917772.775000000372529 ], [ 38794.80000000000291, 5917772.775000000372529 ], [ 38794.80000000000291, 5917772.700000000186265 ], [ 38794.875, 5917772.700000000186265 ], [ 38794.875, 5917772.625 ], [ 38794.94999999999709, 5917772.625 ], [ 38794.94999999999709, 5917772.474999999627471 ], [ 38795.025000000001455, 5917772.474999999627471 ], [ 38795.025000000001455, 5917772.325000000186265 ], [ 38795.099999999998545, 5917772.325000000186265 ], [ 38795.099999999998545, 5917772.099999999627471 ], [ 38795.17500000000291, 5917772.099999999627471 ], [ 38795.17500000000291, 5917771.799999999813735 ], [ 38795.25, 5917771.799999999813735 ], [ 38795.25, 5917771.349999999627471 ], [ 38796.224999999998545, 5917771.349999999627471 ], [ 38796.224999999998545, 5917771.275000000372529 ], [ 38797.19999999999709, 5917771.275000000372529 ], [ 38797.19999999999709, 5917771.200000000186265 ], [ 38797.275000000001455, 5917771.200000000186265 ], [ 38797.275000000001455, 5917771.275000000372529 ], [ 38797.5, 5917771.275000000372529 ], [ 38797.5, 5917771.349999999627471 ], [ 38797.650000000001455, 5917771.349999999627471 ], [ 38797.650000000001455, 5917772.099999999627471 ], [ 38797.57499999999709, 5917772.099999999627471 ], [ 38797.57499999999709, 5917773.375 ], [ 38797.5, 5917773.375 ], [ 38797.5, 5917773.974999999627471 ], [ 38797.42500000000291, 5917773.974999999627471 ], [ 38797.42500000000291, 5917774.650000000372529 ], [ 38797.349999999998545, 5917774.650000000372529 ], [ 38797.349999999998545, 5917775.325000000186265 ], [ 38797.275000000001455, 5917775.325000000186265 ], [ 38797.275000000001455, 5917775.625 ], [ 38797.19999999999709, 5917775.625 ], [ 38797.19999999999709, 5917775.849999999627471 ], [ 38797.125, 5917775.849999999627471 ], [ 38797.125, 5917776.075000000186265 ], [ 38797.05000000000291, 5917776.075000000186265 ], [ 38797.05000000000291, 5917776.375 ], [ 38796.974999999998545, 5917776.375 ], [ 38796.974999999998545, 5917776.825000000186265 ], [ 38796.900000000001455, 5917776.825000000186265 ], [ 38796.900000000001455, 5917777.275000000372529 ], [ 38796.82499999999709, 5917777.275000000372529 ], [ 38796.82499999999709, 5917777.575000000186265 ], [ 38796.75, 5917777.575000000186265 ], [ 38796.75, 5917777.875 ], [ 38796.67500000000291, 5917777.875 ], [ 38796.67500000000291, 5917778.400000000372529 ], [ 38796.599999999998545, 5917778.400000000372529 ], [ 38796.599999999998545, 5917779.299999999813735 ], [ 38796.525000000001455, 5917779.299999999813735 ], [ 38796.525000000001455, 5917781.700000000186265 ], [ 38796.599999999998545, 5917781.700000000186265 ], [ 38796.599999999998545, 5917782.299999999813735 ], [ 38796.67500000000291, 5917782.299999999813735 ], [ 38796.67500000000291, 5917783.125 ], [ 38796.75, 5917783.125 ], [ 38796.75, 5917783.650000000372529 ], [ 38796.82499999999709, 5917783.650000000372529 ], [ 38796.82499999999709, 5917784.174999999813735 ], [ 38796.900000000001455, 5917784.174999999813735 ], [ 38796.900000000001455, 5917784.775000000372529 ], [ 38796.974999999998545, 5917784.775000000372529 ], [ 38796.974999999998545, 5917785.599999999627471 ], [ 38797.05000000000291, 5917785.599999999627471 ], [ 38797.05000000000291, 5917785.900000000372529 ], [ 38796.974999999998545, 5917785.900000000372529 ], [ 38796.974999999998545, 5917786.799999999813735 ], [ 38796.900000000001455, 5917786.799999999813735 ], [ 38796.900000000001455, 5917787.700000000186265 ], [ 38796.82499999999709, 5917787.700000000186265 ], [ 38796.82499999999709, 5917788.450000000186265 ], [ 38796.75, 5917788.450000000186265 ], [ 38796.75, 5917789.049999999813735 ], [ 38796.67500000000291, 5917789.049999999813735 ], [ 38796.67500000000291, 5917789.275000000372529 ], [ 38796.599999999998545, 5917789.275000000372529 ], [ 38796.599999999998545, 5917789.5 ], [ 38796.525000000001455, 5917789.5 ], [ 38796.525000000001455, 5917789.724999999627471 ], [ 38796.44999999999709, 5917789.724999999627471 ], [ 38796.44999999999709, 5917789.875 ], [ 38796.375, 5917789.875 ], [ 38796.375, 5917790.025000000372529 ], [ 38796.30000000000291, 5917790.025000000372529 ], [ 38796.30000000000291, 5917790.099999999627471 ], [ 38796.224999999998545, 5917790.099999999627471 ], [ 38796.224999999998545, 5917790.25 ], [ 38796.150000000001455, 5917790.25 ], [ 38796.150000000001455, 5917790.325000000186265 ], [ 38796.07499999999709, 5917790.325000000186265 ], [ 38796.07499999999709, 5917790.400000000372529 ], [ 38796.0, 5917790.400000000372529 ], [ 38796.0, 5917790.474999999627471 ], [ 38795.92500000000291, 5917790.474999999627471 ], [ 38795.92500000000291, 5917790.549999999813735 ], [ 38795.849999999998545, 5917790.549999999813735 ], [ 38795.849999999998545, 5917790.625 ], [ 38795.775000000001455, 5917790.625 ], [ 38795.775000000001455, 5917790.700000000186265 ], [ 38795.69999999999709, 5917790.700000000186265 ], [ 38795.69999999999709, 5917790.775000000372529 ], [ 38795.55000000000291, 5917790.775000000372529 ], [ 38795.55000000000291, 5917790.849999999627471 ], [ 38795.474999999998545, 5917790.849999999627471 ], [ 38795.474999999998545, 5917790.924999999813735 ], [ 38795.32499999999709, 5917790.924999999813735 ], [ 38795.32499999999709, 5917791.075000000186265 ], [ 38795.25, 5917791.075000000186265 ], [ 38795.25, 5917791.224999999627471 ], [ 38795.17500000000291, 5917791.224999999627471 ], [ 38795.17500000000291, 5917791.375 ], [ 38795.099999999998545, 5917791.375 ], [ 38795.099999999998545, 5917791.525000000372529 ], [ 38795.025000000001455, 5917791.525000000372529 ], [ 38795.025000000001455, 5917791.599999999627471 ], [ 38794.94999999999709, 5917791.599999999627471 ], [ 38794.94999999999709, 5917791.75 ], [ 38794.875, 5917791.75 ], [ 38794.875, 5917791.825000000186265 ], [ 38794.80000000000291, 5917791.825000000186265 ], [ 38794.80000000000291, 5917791.900000000372529 ], [ 38794.724999999998545, 5917791.900000000372529 ], [ 38794.724999999998545, 5917792.049999999813735 ], [ 38794.650000000001455, 5917792.049999999813735 ], [ 38794.650000000001455, 5917792.125 ], [ 38794.57499999999709, 5917792.125 ], [ 38794.57499999999709, 5917792.200000000186265 ], [ 38794.5, 5917792.200000000186265 ], [ 38794.5, 5917792.275000000372529 ], [ 38794.42500000000291, 5917792.275000000372529 ], [ 38794.42500000000291, 5917792.349999999627471 ], [ 38794.349999999998545, 5917792.349999999627471 ], [ 38794.349999999998545, 5917792.424999999813735 ], [ 38794.19999999999709, 5917792.424999999813735 ], [ 38794.19999999999709, 5917792.5 ], [ 38794.05000000000291, 5917792.5 ], [ 38794.05000000000291, 5917792.575000000186265 ], [ 38793.82499999999709, 5917792.575000000186265 ], [ 38793.82499999999709, 5917792.650000000372529 ], [ 38793.67500000000291, 5917792.650000000372529 ], [ 38793.67500000000291, 5917792.724999999627471 ], [ 38793.375, 5917792.724999999627471 ], [ 38793.375, 5917792.799999999813735 ], [ 38793.224999999998545, 5917792.799999999813735 ], [ 38793.224999999998545, 5917792.875 ], [ 38793.150000000001455, 5917792.875 ], [ 38793.150000000001455, 5917792.950000000186265 ], [ 38793.07499999999709, 5917792.950000000186265 ], [ 38793.07499999999709, 5917793.025000000372529 ], [ 38792.92500000000291, 5917793.025000000372529 ], [ 38792.92500000000291, 5917793.099999999627471 ], [ 38792.849999999998545, 5917793.099999999627471 ], [ 38792.849999999998545, 5917793.174999999813735 ], [ 38792.69999999999709, 5917793.174999999813735 ], [ 38792.69999999999709, 5917793.25 ], [ 38792.55000000000291, 5917793.25 ], [ 38792.55000000000291, 5917793.325000000186265 ], [ 38792.400000000001455, 5917793.325000000186265 ], [ 38792.400000000001455, 5917793.400000000372529 ], [ 38792.25, 5917793.400000000372529 ], [ 38792.25, 5917793.474999999627471 ], [ 38792.099999999998545, 5917793.474999999627471 ], [ 38792.099999999998545, 5917793.549999999813735 ], [ 38791.875, 5917793.549999999813735 ], [ 38791.875, 5917793.625 ], [ 38791.650000000001455, 5917793.625 ], [ 38791.650000000001455, 5917793.700000000186265 ], [ 38791.349999999998545, 5917793.700000000186265 ], [ 38791.349999999998545, 5917793.775000000372529 ], [ 38790.67500000000291, 5917793.775000000372529 ], [ 38790.67500000000291, 5917793.849999999627471 ], [ 38790.0, 5917793.849999999627471 ], [ 38790.0, 5917793.924999999813735 ], [ 38789.32499999999709, 5917793.924999999813735 ] ] ] } },
{ "type": "Feature", "properties": { "value": 1.0, "building_id": 1, "area": 136.33312500003066 }, "geometry": { "type": "Polygon", "coordinates": [ [ [ 38802.82499999999709, 5917412.849999999627471 ], [ 38802.82499999999709, 5917412.775000000372529 ], [ 38802.44999999999709, 5917412.775000000372529 ], [ 38802.44999999999709, 5917412.700000000186265 ], [ 38802.150000000001455, 5917412.700000000186265 ], [ 38802.150000000001455, 5917412.625 ], [ 38801.849999999998545, 5917412.625 ], [ 38801.849999999998545, 5917412.549999999813735 ], [ 38801.55000000000291, 5917412.549999999813735 ], [ 38801.55000000000291, 5917412.474999999627471 ], [ 38801.32499999999709, 5917412.474999999627471 ], [ 38801.32499999999709, 5917412.400000000372529 ], [ 38801.099999999998545, 5917412.400000000372529 ], [ 38801.099999999998545, 5917412.325000000186265 ], [ 38800.875, 5917412.325000000186265 ], [ 38800.875, 5917412.25 ], [ 38800.724999999998545, 5917412.25 ], [ 38800.724999999998545, 5917412.174999999813735 ], [ 38800.5, 5917412.174999999813735 ], [ 38800.5, 5917412.099999999627471 ], [ 38800.349999999998545, 5917412.099999999627471 ], [ 38800.349999999998545, 5917412.025000000372529 ], [ 38800.19999999999709, 5917412.025000000372529 ], [ 38800.19999999999709, 5917411.950000000186265 ], [ 38800.05000000000291, 5917411.950000000186265 ], [ 38800.05000000000291, 5917411.875 ], [ 38799.900000000001455, 5917411.875 ], [ 38799.900000000001455, 5917411.799999999813735 ], [ 38799.75, 5917411.799999999813735 ], [ 38799.75, 5917411.724999999627471 ], [ 38799.525000000001455, 5917411.724999999627471 ], [ 38799.525000000001455, 5917411.650000000372529 ], [ 38799.30000000000291, 5917411.650000000372529 ], [ 38799.30000000000291, 5917411.575000000186265 ], [ 38799.07499999999709, 5917411.575000000186265 ], [ 38799.07499999999709, 5917411.5 ], [ 38798.69999999999709, 5917411.5 ], [ 38798.69999999999709, 5917411.424999999813735 ], [ 38798.32499999999709, 5917411.424999999813735 ], [ 38798.32499999999709, 5917411.349999999627471 ], [ 38797.94999999999709, 5917411.349999999627471 ], [ 38797.94999999999709, 5917411.275000000372529 ], [ 38797.650000000001455, 5917411.275000000372529 ], [ 38797.650000000001455, 5917411.200000000186265 ], [ 38797.275000000001455, 5917411.200000000186265 ], [ 38797.275000000001455, 5917411.125 ], [ 38797.125, 5917411.125 ], [ 38797.125, 5917411.049999999813735 ], [ 38796.974999999998545, 5917411.049999999813735 ], [ 38796.974999999998545, 5917410.974999999627471 ], [ 38796.900000000001455, 5917410.974999999627471 ], [ 38796.900000000001455, 5917410.900000000372529 ], [ 38796.82499999999709, 5917410.900000000372529 ], [ 38796.82499999999709, 5917410.825000000186265 ], [ 38796.67500000000291, 5917410.825000000186265 ], [ 38796.67500000000291, 5917410.75 ], [ 38796.599999999998545, 5917410.75 ], [ 38796.599999999998545, 5917410.674999999813735 ], [ 38796.525000000001455, 5917410.674999999813735 ], [ 38796.525000000001455, 5917410.599999999627471 ], [ 38796.44999999999709, 5917410.599999999627471 ], [ 38796.44999999999709, 5917410.525000000372529 ], [ 38796.375, 5917410.525000000372529 ], [ 38796.375, 5917410.450000000186265 ], [ 38796.30000000000291, 5917410.450000000186265 ], [ 38796.30000000000291, 5917410.299999999813735 ], [ 38796.224999999998545, 5917410.299999999813735 ], [ 38796.224999999998545, 5917410.224999999627471 ], [ 38796.150000000001455, 5917410.224999999627471 ], [ 38796.150000000001455, 5917410.075000000186265 ], [ 38796.07499999999709, 5917410.075000000186265 ], [ 38796.07499999999709, 5917409.849999999627471 ], [ 38796.150000000001455, 5917409.849999999627471 ], [ 38796.150000000001455, 5917409.25 ], [ 38796.224999999998545, 5917409.25 ], [ 38796.224999999998545, 5917408.575000000186265 ], [ 38796.30000000000291, 5917408.575000000186265 ], [ 38796.30000000000291, 5917407.825000000186265 ], [ 38796.375, 5917407.825000000186265 ], [ 38796.375, 5917406.924999999813735 ], [ 38796.44999999999709, 5917406.924999999813735 ], [ 38796.44999999999709, 5917405.875 ], [ 38796.525000000001455, 5917405.875 ], [ 38796.525000000001455, 5917404.674999999813735 ], [ 38796.599999999998545, 5917404.674999999813735 ], [ 38796.599999999998545, 5917404.075000000186265 ], [ 38796.67500000000291, 5917404.075000000186265 ], [ 38796.67500000000291, 5917404.0 ], [ 38796.75, 5917404.0 ], [ 38796.75, 5917403.849999999627471 ], [ 38796.82499999999709, 5917403.849999999627471 ], [ 38796.82499999999709, 5917403.775000000372529 ], [ 38796.900000000001455, 5917403.775000000372529 ], [ 38796.900000000001455, 5917403.625 ], [ 38796.974999999998545, 5917403.625 ], [ 38796.974999999998545, 5917403.549999999813735 ], [ 38797.05000000000291, 5917403.549999999813735 ], [ 38797.05000000000291, 5917403.474999999627471 ], [ 38797.125, 5917403.474999999627471 ], [ 38797.125, 5917403.400000000372529 ], [ 38797.19999999999709, 5917403.400000000372529 ], [ 38797.19999999999709, 5917403.325000000186265 ], [ 38797.275000000001455, 5917403.325000000186265 ], [ 38797.275000000001455, 5917403.25 ], [ 38797.349999999998545, 5917403.25 ], [ 38797.349999999998545, 5917403.174999999813735 ], [ 38797.42500000000291, 5917403.174999999813735 ], [ 38797.42500000000291, 5917403.099999999627471 ], [ 38797.5, 5917403.099999999627471 ], [ 38797.5, 5917403.025000000372529 ], [ 38797.57499999999709, 5917403.025000000372529 ], [ 38797.57499999999709, 5917402.950000000186265 ], [ 38797.650000000001455, 5917402.950000000186265 ], [ 38797.650000000001455, 5917402.875 ], [ 38797.724999999998545, 5917402.875 ], [ 38797.724999999998545, 5917402.799999999813735 ], [ 38797.80000000000291, 5917402.799999999813735 ], [ 38797.80000000000291, 5917402.650000000372529 ], [ 38797.875, 5917402.650000000372529 ], [ 38797.875, 5917402.575000000186265 ], [ 38797.94999999999709, 5917402.575000000186265 ], [ 38797.94999999999709, 5917402.5 ], [ 38798.025000000001455, 5917402.5 ], [ 38798.025000000001455, 5917402.349999999627471 ], [ 38798.099999999998545, 5917402.349999999627471 ], [ 38798.099999999998545, 5917402.200000000186265 ], [ 38798.17500000000291, 5917402.200000000186265 ], [ 38798.17500000000291, 5917402.125 ], [ 38798.25, 5917402.125 ], [ 38798.25, 5917402.049999999813735 ], [ 38798.32499999999709, 5917402.049999999813735 ], [ 38798.32499999999709, 5917401.974999999627471 ], [ 38798.400000000001455, 5917401.974999999627471 ], [ 38798.400000000001455, 5917401.900000000372529 ], [ 38798.474999999998545, 5917401.900000000372529 ], [ 38798.474999999998545, 5917401.825000000186265 ], [ 38798.55000000000291, 5917401.825000000186265 ], [ 38798.55000000000291, 5917401.75 ], [ 38798.625, 5917401.75 ], [ 38798.625, 5917401.674999999813735 ], [ 38798.69999999999709, 5917401.674999999813735 ], [ 38798.69999999999709, 5917401.599999999627471 ], [ 38798.775000000001455, 5917401.599999999627471 ], [ 38798.775000000001455, 5917401.525000000372529 ], [ 38798.849999999998545, 5917401.525000000372529 ], [ 38798.849999999998545, 5917401.450000000186265 ], [ 38799.0, 5917401.450000000186265 ], [ 38799.0, 5917401.375 ], [ 38799.07499999999709, 5917401.375 ], [ 38799.07499999999709, 5917401.299999999813735 ], [ 38799.224999999998545, 5917401.299999999813735 ], [ 38799.224999999998545, 5917401.224999999627471 ], [ 38799.375, 5917401.224999999627471 ], [ 38799.375, 5917401.150000000372529 ], [ 38799.44999999999709, 5917401.150000000372529 ], [ 38799.44999999999709, 5917401.075000000186265 ], [ 38799.599999999998545, 5917401.075000000186265 ], [ 38799.599999999998545, 5917401.0 ], [ 38799.75, 5917401.0 ], [ 38799.75, 5917400.924999999813735 ], [ 38799.82499999999709, 5917400.924999999813735 ], [ 38799.82499999999709, 5917400.849999999627471 ], [ 38799.900000000001455, 5917400.849999999627471 ], [ 38799.900000000001455, 5917400.775000000372529 ], [ 38800.05000000000291, 5917400.775000000372529 ], [ 38800.05000000000291, 5917400.700000000186265 ], [ 38800.125, 5917400.700000000186265 ], [ 38800.125, 5917400.625 ], [ 38800.19999999999709, 5917400.625 ], [ 38800.19999999999709, 5917400.549999999813735 ], [ 38800.275000000001455, 5917400.549999999813735 ], [ 38800.275000000001455, 5917400.474999999627471 ], [ 38800.349999999998545, 5917400.474999999627471 ], [ 38800.349999999998545, 5917400.400000000372529 ], [ 38800.42500000000291, 5917400.400000000372529 ], [ 38800.42500000000291, 5917400.325000000186265 ], [ 38800.5, 5917400.325000000186265 ], [ 38800.5, 5917400.25 ], [ 38800.57499999999709, 5917400.25 ], [ 38800.57499999999709, 5917400.174999999813735 ], [ 38800.650000000001455, 5917400.174999999813735 ], [ 38800.650000000001455, 5917400.099999999627471 ], [ 38800.724999999998545, 5917400.099999999627471 ], [ 38800.724999999998545, 5917400.025000000372529 ], [ 38800.80000000000291, 5917400.025000000372529 ], [ 38800.80000000000291, 5917399.875 ], [ 38800.875, 5917399.875 ], [ 38800.875, 5917399.799999999813735 ], [ 38800.94999999999709, 5917399.799999999813735 ], [ 38800.94999999999709, 5917399.724999999627471 ], [ 38801.025000000001455, 5917399.724999999627471 ], [ 38801.025000000001455, 5917399.650000000372529 ], [ 38801.099999999998545, 5917399.650000000372529 ], [ 38801.099999999998545, 5917399.575000000186265 ], [ 38801.17500000000291, 5917399.575000000186265 ], [ 38801.17500000000291, 5917399.5 ], [ 38801.25, 5917399.5 ], [ 38801.25, 5917399.424999999813735 ], [ 38801.32499999999709, 5917399.424999999813735 ], [ 38801.32499999999709, 5917399.349999999627471 ], [ 38801.400000000001455, 5917399.349999999627471 ], [ 38801.400000000001455, 5917399.275000000372529 ], [ 38801.474999999998545, 5917399.275000000372529 ], [ 38801.474999999998545, 5917399.200000000186265 ], [ 38801.55000000000291, 5917399.200000000186265 ], [ 38801.55000000000291, 5917399.125 ], [ 38801.625, 5917399.125 ], [ 38801.625, 5917398.974999999627471 ], [ 38801.69999999999709, 5917398.974999999627471 ], [ 38801.69999999999709, 5917398.900000000372529 ], [ 38801.775000000001455, 5917398.900000000372529 ], [ 38801.775000000001455, 5917398.75 ], [ 38801.849999999998545, 5917398.75 ], [ 38801.849999999998545, 5917398.674999999813735 ], [ 38801.92500000000291, 5917398.674999999813735 ], [ 38801.92500000000291, 5917398.525000000372529 ], [ 38802.0, 5917398.525000000372529 ], [ 38802.0, 5917398.450000000186265 ], [ 38802.07499999999709, 5917398.450000000186265 ], [ 38802.07499999999709, 5917398.299999999813735 ], [ 38802.150000000001455, 5917398.299999999813735 ], [ 38802.150000000001455, 5917398.150000000372529 ], [ 38802.224999999998545, 5917398.150000000372529 ], [ 38802.224999999998545, 5917398.075000000186265 ], [ 38802.30000000000291, 5917398.075000000186265 ], [ 38802.30000000000291, 5917397.924999999813735 ], [ 38802.375, 5917397.924999999813735 ], [ 38802.375, 5917397.849999999627471 ], [ 38802.44999999999709, 5917397.849999999627471 ], [ 38802.44999999999709, 5917397.775000000372529 ], [ 38802.525000000001455, 5917397.775000000372529 ], [ 38802.525000000001455, 5917397.625 ], [ 38802.599999999998545, 5917397.625 ], [ 38802.599999999998545, 5917397.549999999813735 ], [ 38802.67500000000291, 5917397.549999999813735 ], [ 38802.67500000000291, 5917397.474999999627471 ], [ 38802.75, 5917397.474999999627471 ], [ 38802.75, 5917397.400000000372529 ], [ 38802.82499999999709, 5917397.400000000372529 ], [ 38802.82499999999709, 5917397.325000000186265 ], [ 38802.974999999998545, 5917397.325000000186265 ], [ 38802.974999999998545, 5917397.25 ], [ 38803.05000000000291, 5917397.25 ], [ 38803.05000000000291, 5917397.174999999813735 ], [ 38803.125, 5917397.174999999813735 ], [ 38803.125, 5917397.099999999627471 ], [ 38803.275000000001455, 5917397.099999999627471 ], [ 38803.275000000001455, 5917397.025000000372529 ], [ 38803.349999999998545, 5917397.025000000372529 ], [ 38803.349999999998545, 5917396.950000000186265 ], [ 38803.42500000000291, 5917396.950000000186265 ], [ 38803.42500000000291, 5917396.875 ], [ 38803.57499999999709, 5917396.875 ], [ 38803.57499999999709, 5917396.799999999813735 ], [ 38803.650000000001455, 5917396.799999999813735 ], [ 38803.650000000001455, 5917396.724999999627471 ], [ 38803.724999999998545, 5917396.724999999627471 ], [ 38803.724999999998545, 5917396.650000000372529 ], [ 38803.80000000000291, 5917396.650000000372529 ], [ 38803.80000000000291, 5917396.575000000186265 ], [ 38803.875, 5917396.575000000186265 ], [ 38803.875, 5917396.5 ], [ 38803.94999999999709, 5917396.5 ], [ 38803.94999999999709, 5917396.424999999813735 ], [ 38804.025000000001455, 5917396.424999999813735 ], [ 38804.025000000001455, 5917396.349999999627471 ], [ 38804.099999999998545, 5917396.349999999627471 ], [ 38804.099999999998545, 5917396.275000000372529 ], [ 38804.17500000000291, 5917396.275000000372529 ], [ 38804.17500000000291, 5917396.200000000186265 ], [ 38804.25, 5917396.200000000186265 ], [ 38804.25, 5917396.125 ], [ 38804.32499999999709, 5917396.125 ], [ 38804.32499999999709, 5917396.049999999813735 ], [ 38804.400000000001455, 5917396.049999999813735 ], [ 38804.400000000001455, 5917395.974999999627471 ], [ 38804.474999999998545, 5917395.974999999627471 ], [ 38804.474999999998545, 5917395.900000000372529 ], [ 38804.625, 5917395.900000000372529 ], [ 38804.625, 5917395.825000000186265 ], [ 38804.69999999999709, 5917395.825000000186265 ], [ 38804.69999999999709, 5917395.75 ], [ 38804.849999999998545, 5917395.75 ], [ 38804.849999999998545, 5917395.674999999813735 ], [ 38804.92500000000291, 5917395.674999999813735 ], [ 38804.92500000000291, 5917395.599999999627471 ], [ 38805.525000000001455, 5917395.599999999627471 ], [ 38805.525000000001455, 5917395.674999999813735 ], [ 38805.599999999998545, 5917395.674999999813735 ], [ 38805.599999999998545, 5917395.75 ], [ 38805.67500000000291, 5917395.75 ], [ 38805.67500000000291, 5917395.825000000186265 ], [ 38805.82499999999709, 5917395.825000000186265 ], [ 38805.82499999999709, 5917395.900000000372529 ], [ 38805.900000000001455, 5917395.900000000372529 ], [ 38805.900000000001455, 5917395.974999999627471 ], [ 38805.974999999998545, 5917395.974999999627471 ], [ 38805.974999999998545, 5917396.049999999813735 ], [ 38806.05000000000291, 5917396.049999999813735 ], [ 38806.05000000000291, 5917396.125 ], [ 38806.125, 5917396.125 ], [ 38806.125, 5917396.275000000372529 ], [ 38806.19999999999709, 5917396.275000000372529 ], [ 38806.19999999999709, 5917396.349999999627471 ], [ 38806.275000000001455, 5917396.349999999627471 ], [ 38806.275000000001455, 5917396.424999999813735 ], [ 38806.349999999998545, 5917396.424999999813735 ], [ 38806.349999999998545, 5917396.5 ], [ 38806.5, 5917396.5 ], [ 38806.5, 5917396.575000000186265 ], [ 38806.57499999999709, 5917396.575000000186265 ], [ 38806.57499999999709, 5917396.650000000372529 ], [ 38806.650000000001455, 5917396.650000000372529 ], [ 38806.650000000001455, 5917396.724999999627471 ], [ 38806.80000000000291, 5917396.724999999627471 ], [ 38806.80000000000291, 5917396.799999999813735 ], [ 38806.875, 5917396.799999999813735 ], [ 38806.875, 5917396.875 ], [ 38806.94999999999709, 5917396.875 ], [ 38806.94999999999709, 5917396.950000000186265 ], [ 38807.025000000001455, 5917396.950000000186265 ], [ 38807.025000000001455, 5917397.025000000372529 ], [ 38807.099999999998545, 5917397.025000000372529 ], [ 38807.099999999998545, 5917397.099999999627471 ], [ 38807.17500000000291, 5917397.099999999627471 ], [ 38807.17500000000291, 5917397.174999999813735 ], [ 38807.25, 5917397.174999999813735 ], [ 38807.25, 5917397.25 ], [ 38807.32499999999709, 5917397.25 ], [ 38807.32499999999709, 5917397.325000000186265 ], [ 38807.400000000001455, 5917397.325000000186265 ], [ 38807.400000000001455, 5917397.400000000372529 ], [ 38807.474999999998545, 5917397.400000000372529 ], [ 38807.474999999998545, 5917397.549999999813735 ], [ 38807.55000000000291, 5917397.549999999813735 ], [ 38807.55000000000291, 5917397.625 ], [ 38807.625, 5917397.625 ], [ 38807.625, 5917397.700000000186265 ], [ 38807.69999999999709, 5917397.700000000186265 ], [ 38807.69999999999709, 5917397.849999999627471 ], [ 38807.775000000001455, 5917397.849999999627471 ], [ 38807.775000000001455, 5917397.924999999813735 ], [ 38807.849999999998545, 5917397.924999999813735 ], [ 38807.849999999998545, 5917398.075000000186265 ], [ 38807.92500000000291, 5917398.075000000186265 ], [ 38807.92500000000291, 5917398.150000000372529 ], [ 38808.0, 5917398.150000000372529 ], [ 38808.0, 5917398.299999999813735 ], [ 38808.07499999999709, 5917398.299999999813735 ], [ 38808.07499999999709, 5917398.450000000186265 ], [ 38808.150000000001455, 5917398.450000000186265 ], [ 38808.150000000001455, 5917398.674999999813735 ], [ 38808.07499999999709, 5917398.674999999813735 ], [ 38808.07499999999709, 5917399.424999999813735 ], [ 38808.0, 5917399.424999999813735 ], [ 38808.0, 5917400.775000000372529 ], [ 38807.92500000000291, 5917400.775000000372529 ], [ 38807.92500000000291, 5917402.424999999813735 ], [ 38807.849999999998545, 5917402.424999999813735 ], [ 38807.849999999998545, 5917402.875 ], [ 38807.775000000001455, 5917402.875 ], [ 38807.775000000001455, 5917403.25 ], [ 38807.69999999999709, 5917403.25 ], [ 38807.69999999999709, 5917403.625 ], [ 38807.625, 5917403.625 ], [ 38807.625, 5917404.0 ], [ 38807.55000000000291, 5917404.0 ], [ 38807.55000000000291, 5917404.299999999813735 ], [ 38807.474999999998545, 5917404.299999999813735 ], [ 38807.474999999998545, 5917404.450000000186265 ], [ 38807.400000000001455, 5917404.450000000186265 ], [ 38807.400000000001455, 5917404.599999999627471 ], [ 38807.32499999999709, 5917404.599999999627471 ], [ 38807.32499999999709, 5917404.75 ], [ 38807.25, 5917404.75 ], [ 38807.25, 5917404.900000000372529 ], [ 38807.17500000000291, 5917404.900000000372529 ], [ 38807.17500000000291, 5917405.049999999813735 ], [ 38807.099999999998545, 5917405.049999999813735 ], [ 38807.099999999998545, 5917405.200000000186265 ], [ 38807.025000000001455, 5917405.200000000186265 ], [ 38807.025000000001455, 5917405.275000000372529 ], [ 38806.94999999999709, 5917405.275000000372529 ], [ 38806.94999999999709, 5917405.424999999813735 ], [ 38806.875, 5917405.424999999813735 ], [ 38806.875, 5917405.575000000186265 ], [ 38806.80000000000291, 5917405.575000000186265 ], [ 38806.80000000000291, 5917405.724999999627471 ], [ 38806.724999999998545, 5917405.724999999627471 ], [ 38806.724999999998545, 5917405.950000000186265 ], [ 38806.650000000001455, 5917405.950000000186265 ], [ 38806.650000000001455, 5917406.174999999813735 ], [ 38806.57499999999709, 5917406.174999999813735 ], [ 38806.57499999999709, 5917406.474999999627471 ], [ 38806.5, 5917406.474999999627471 ], [ 38806.5, 5917406.849999999627471 ], [ 38806.42500000000291, 5917406.849999999627471 ], [ 38806.42500000000291, 5917407.224999999627471 ], [ 38806.349999999998545, 5917407.224999999627471 ], [ 38806.349999999998545, 5917407.599999999627471 ], [ 38806.275000000001455, 5917407.599999999627471 ], [ 38806.275000000001455, 5917408.049999999813735 ], [ 38806.19999999999709, 5917408.049999999813735 ], [ 38806.19999999999709, 5917408.575000000186265 ], [ 38806.125, 5917408.575000000186265 ], [ 38806.125, 5917409.025000000372529 ], [ 38806.05000000000291, 5917409.025000000372529 ], [ 38806.05000000000291, 5917409.474999999627471 ], [ 38805.974999999998545, 5917409.474999999627471 ], [ 38805.974999999998545, 5917410.0 ], [ 38805.900000000001455, 5917410.0 ], [ 38805.900000000001455, 5917410.224999999627471 ], [ 38805.82499999999709, 5917410.224999999627471 ], [ 38805.82499999999709, 5917410.375 ], [ 38805.75, 5917410.375 ], [ 38805.75, 5917410.525000000372529 ], [ 38805.67500000000291, 5917410.525000000372529 ], [ 38805.67500000000291, 5917410.674999999813735 ], [ 38805.599999999998545, 5917410.674999999813735 ], [ 38805.599999999998545, 5917410.75 ], [ 38805.525000000001455, 5917410.75 ], [ 38805.525000000001455, 5917410.900000000372529 ], [ 38805.44999999999709, 5917410.900000000372529 ], [ 38805.44999999999709, 5917410.974999999627471 ], [ 38805.375, 5917410.974999999627471 ], [ 38805.375, 5917411.049999999813735 ], [ 38805.30000000000291, 5917411.049999999813735 ], [ 38805.30000000000291, 5917411.125 ], [ 38805.224999999998545, 5917411.125 ], [ 38805.224999999998545, 5917411.200000000186265 ], [ 38805.150000000001455, 5917411.200000000186265 ], [ 38805.150000000001455, 5917411.275000000372529 ], [ 38805.07499999999709, 5917411.275000000372529 ], [ 38805.07499999999709, 5917411.349999999627471 ], [ 38805.0, 5917411.349999999627471 ], [ 38805.0, 5917411.424999999813735 ], [ 38804.849999999998545, 5917411.424999999813735 ], [ 38804.849999999998545, 5917411.5 ], [ 38804.775000000001455, 5917411.5 ], [ 38804.775000000001455, 5917411.575000000186265 ], [ 38804.69999999999709, 5917411.575000000186265 ], [ 38804.69999999999709, 5917411.650000000372529 ], [ 38804.625, 5917411.650000000372529 ], [ 38804.625, 5917411.724999999627471 ], [ 38804.55000000000291, 5917411.724999999627471 ], [ 38804.55000000000291, 5917411.799999999813735 ], [ 38804.474999999998545, 5917411.799999999813735 ], [ 38804.474999999998545, 5917411.875 ], [ 38804.400000000001455, 5917411.875 ], [ 38804.400000000001455, 5917411.950000000186265 ], [ 38804.32499999999709, 5917411.950000000186265 ], [ 38804.32499999999709, 5917412.025000000372529 ], [ 38804.25, 5917412.025000000372529 ], [ 38804.25, 5917412.099999999627471 ], [ 38804.17500000000291, 5917412.099999999627471 ], [ 38804.17500000000291, 5917412.174999999813735 ], [ 38804.099999999998545, 5917412.174999999813735 ], [ 38804.099999999998545, 5917412.25 ], [ 38804.025000000001455, 5917412.25 ], [ 38804.025000000001455, 5917412.325000000186265 ], [ 38803.94999999999709, 5917412.325000000186265 ], [ 38803.94999999999709, 5917412.400000000372529 ], [ 38803.875, 5917412.400000000372529 ], [ 38803.875, 5917412.474999999627471 ], [ 38803.80000000000291, 5917412.474999999627471 ], [ 38803.80000000000291, 5917412.549999999813735 ], [ 38803.650000000001455, 5917412.549999999813735 ], [ 38803.650000000001455, 5917412.625 ], [ 38803.5, 5917412.625 ], [ 38803.5, 5917412.700000000186265 ], [ 38803.42500000000291, 5917412.700000000186265 ], [ 38803.42500000000291, 5917412.775000000372529 ], [ 38803.275000000001455, 5917412.775000000372529 ], [ 38803.275000000001455, 5917412.849999999627471 ], [ 38802.82499999999709, 5917412.849999999627471 ] ] ] } },
{ "type": "Feature", "properties": { "value": 1.0, "building_id": 2, "area": 367.90874999840776 }, "geometry": { "type": "Polygon", "coordinates": [ [ [ 38837.55000000000291, 5917409.625 ], [ 38837.55000000000291, 5917409.549999999813735 ], [ 38836.275000000001455, 5917409.549999999813735 ], [ 38836.275000000001455, 5917409.474999999627471 ], [ 38836.125, 5917409.474999999627471 ], [ 38836.125, 5917409.400000000372529 ], [ 38835.974999999998545, 5917409.400000000372529 ], [ 38835.974999999998545, 5917409.325000000186265 ], [ 38835.82499999999709, 5917409.325000000186265 ], [ 38835.82499999999709, 5917409.25 ], [ 38835.67500000000291, 5917409.25 ], [ 38835.67500000000291, 5917409.174999999813735 ], [ 38835.525000000001455, 5917409.174999999813735 ], [ 38835.525000000001455, 5917409.099999999627471 ], [ 38835.375, 5917409.099999999627471 ], [ 38835.375, 5917409.025000000372529 ], [ 38835.150000000001455, 5917409.025000000372529 ], [ 38835.150000000001455, 5917408.950000000186265 ], [ 38835.0, 5917408.950000000186265 ], [ 38835.0, 5917408.875 ], [ 38834.775000000001455, 5917408.875 ], [ 38834.775000000001455, 5917408.799999999813735 ], [ 38834.625, 5917408.799999999813735 ], [ 38834.625, 5917408.724999999627471 ], [ 38834.400000000001455, 5917408.724999999627471 ], [ 38834.400000000001455, 5917408.650000000372529 ], [ 38834.25, 5917408.650000000372529 ], [ 38834.25, 5917408.575000000186265 ], [ 38834.17500000000291, 5917408.575000000186265 ], [ 38834.17500000000291, 5917408.5 ], [ 38834.099999999998545, 5917408.5 ], [ 38834.099999999998545, 5917408.424999999813735 ], [ 38834.025000000001455, 5917408.424999999813735 ], [ 38834.025000000001455, 5917408.349999999627471 ], [ 38833.94999999999709, 5917408.349999999627471 ], [ 38833.94999999999709, 5917408.275000000372529 ], [ 38833.875, 5917408.275000000372529 ], [ 38833.875, 5917408.200000000186265 ], [ 38833.80000000000291, 5917408.200000000186265 ], [ 38833.80000000000291, 5917408.125 ], [ 38833.724999999998545, 5917408.125 ], [ 38833.724999999998545, 5917407.974999999627471 ], [ 38833.650000000001455, 5917407.974999999627471 ], [ 38833.650000000001455, 5917407.900000000372529 ], [ 38833.57499999999709, 5917407.900000000372529 ], [ 38833.57499999999709, 5917407.825000000186265 ], [ 38833.5, 5917407.825000000186265 ], [ 38833.5, 5917407.75 ], [ 38833.42500000000291, 5917407.75 ], [ 38833.42500000000291, 5917407.599999999627471 ], [ 38833.349999999998545, 5917407.599999999627471 ], [ 38833.349999999998545, 5917407.525000000372529 ], [ 38833.19999999999709, 5917407.525000000372529 ], [ 38833.19999999999709, 5917407.450000000186265 ], [ 38833.125, 5917407.450000000186265 ], [ 38833.125, 5917407.375 ], [ 38833.05000000000291, 5917407.375 ], [ 38833.05000000000291, 5917407.299999999813735 ], [ 38832.974999999998545, 5917407.299999999813735 ], [ 38832.974999999998545, 5917407.224999999627471 ], [ 38832.82499999999709, 5917407.224999999627471 ], [ 38832.82499999999709, 5917407.150000000372529 ], [ 38832.67500000000291, 5917407.150000000372529 ], [ 38832.67500000000291, 5917407.075000000186265 ], [ 38832.599999999998545, 5917407.075000000186265 ], [ 38832.599999999998545, 5917407.0 ], [ 38832.44999999999709, 5917407.0 ], [ 38832.44999999999709, 5917406.924999999813735 ], [ 38832.30000000000291, 5917406.924999999813735 ], [ 38832.30000000000291, 5917406.849999999627471 ], [ 38832.150000000001455, 5917406.849999999627471 ], [ 38832.150000000001455, 5917406.775000000372529 ], [ 38832.07499999999709, 5917406.775000000372529 ], [ 38832.07499999999709, 5917406.700000000186265 ], [ 38832.0, 5917406.700000000186265 ], [ 38832.0, 5917406.625 ], [ 38831.92500000000291, 5917406.625 ], [ 38831.92500000000291, 5917406.549999999813735 ], [ 38831.849999999998545, 5917406.549999999813735 ], [ 38831.849999999998545, 5917406.474999999627471 ], [ 38831.775000000001455, 5917406.474999999627471 ], [ 38831.775000000001455, 5917406.400000000372529 ], [ 38831.69999999999709, 5917406.400000000372529 ], [ 38831.69999999999709, 5917406.325000000186265 ], [ 38831.625, 5917406.325000000186265 ], [ 38831.625, 5917406.25 ], [ 38831.55000000000291, 5917406.25 ], [ 38831.55000000000291, 5917406.174999999813735 ], [ 38831.474999999998545, 5917406.174999999813735 ], [ 38831.474999999998545, 5917406.025000000372529 ], [ 38831.400000000001455, 5917406.025000000372529 ], [ 38831.400000000001455, 5917405.950000000186265 ], [ 38831.32499999999709, 5917405.950000000186265 ], [ 38831.32499999999709, 5917405.875 ], [ 38831.25, 5917405.875 ], [ 38831.25, 5917405.799999999813735 ], [ 38831.17500000000291, 5917405.799999999813735 ], [ 38831.17500000000291, 5917405.724999999627471 ], [ 38831.099999999998545, 5917405.724999999627471 ], [ 38831.099999999998545, 5917405.650000000372529 ], [ 38831.025000000001455, 5917405.650000000372529 ], [ 38831.025000000001455, 5917405.575000000186265 ], [ 38830.94999999999709, 5917405.575000000186265 ], [ 38830.94999999999709, 5917405.5 ], [ 38830.80000000000291, 5917405.5 ], [ 38830.80000000000291, 5917405.424999999813735 ], [ 38830.724999999998545, 5917405.424999999813735 ], [ 38830.724999999998545, 5917405.349999999627471 ], [ 38830.57499999999709, 5917405.349999999627471 ], [ 38830.57499999999709, 5917405.275000000372529 ], [ 38830.42500000000291, 5917405.275000000372529 ], [ 38830.42500000000291, 5917405.200000000186265 ], [ 38830.275000000001455, 5917405.200000000186265 ], [ 38830.275000000001455, 5917405.125 ], [ 38830.19999999999709, 5917405.125 ], [ 38830.19999999999709, 5917405.049999999813735 ], [ 38830.05000000000291, 5917405.049999999813735 ], [ 38830.05000000000291, 5917404.974999999627471 ], [ 38829.974999999998545, 5917404.974999999627471 ], [ 38829.974999999998545, 5917404.900000000372529 ], [ 38829.82499999999709, 5917404.900000000372529 ], [ 38829.82499999999709, 5917404.825000000186265 ], [ 38829.75, 5917404.825000000186265 ], [ 38829.75, 5917404.75 ], [ 38829.67500000000291, 5917404.75 ], [ 38829.67500000000291, 5917404.674999999813735 ], [ 38829.599999999998545, 5917404.674999999813735 ], [ 38829.599999999998545, 5917404.599999999627471 ], [ 38829.525000000001455, 5917404.599999999627471 ], [ 38829.525000000001455, 5917404.525000000372529 ], [ 38829.44999999999709, 5917404.525000000372529 ], [ 38829.44999999999709, 5917404.450000000186265 ], [ 38829.375, 5917404.450000000186265 ], [ 38829.375, 5917404.375 ], [ 38829.30000000000291, 5917404.375 ], [ 38829.30000000000291, 5917404.224999999627471 ], [ 38829.224999999998545, 5917404.224999999627471 ], [ 38829.224999999998545, 5917404.0 ], [ 38829.150000000001455, 5917404.0 ], [ 38829.150000000001455, 5917403.625 ], [ 38829.07499999999709, 5917403.625 ], [ 38829.07499999999709, 5917403.25 ], [ 38829.0, 5917403.25 ], [ 38829.0, 5917402.875 ], [ 38828.92500000000291, 5917402.875 ], [ 38828.92500000000291, 5917402.5 ], [ 38828.849999999998545, 5917402.5 ], [ 38828.849999999998545, 5917402.049999999813735 ], [ 38828.92500000000291, 5917402.049999999813735 ], [ 38828.92500000000291, 5917401.825000000186265 ], [ 38829.0, 5917401.825000000186265 ], [ 38829.0, 5917401.599999999627471 ], [ 38829.07499999999709, 5917401.599999999627471 ], [ 38829.07499999999709, 5917401.450000000186265 ], [ 38829.150000000001455, 5917401.450000000186265 ], [ 38829.150000000001455, 5917401.375 ], [ 38829.224999999998545, 5917401.375 ], [ 38829.224999999998545, 5917401.224999999627471 ], [ 38829.30000000000291, 5917401.224999999627471 ], [ 38829.30000000000291, 5917401.150000000372529 ], [ 38829.375, 5917401.150000000372529 ], [ 38829.375, 5917401.075000000186265 ], [ 38829.44999999999709, 5917401.075000000186265 ], [ 38829.44999999999709, 5917401.0 ], [ 38829.525000000001455, 5917401.0 ], [ 38829.525000000001455, 5917400.924999999813735 ], [ 38829.599999999998545, 5917400.924999999813735 ], [ 38829.599999999998545, 5917400.849999999627471 ], [ 38829.75, 5917400.849999999627471 ], [ 38829.75, 5917400.775000000372529 ], [ 38829.974999999998545, 5917400.775000000372529 ], [ 38829.974999999998545, 5917400.700000000186265 ], [ 38830.19999999999709, 5917400.700000000186265 ], [ 38830.19999999999709, 5917400.625 ], [ 38830.42500000000291, 5917400.625 ], [ 38830.42500000000291, 5917400.549999999813735 ], [ 38830.57499999999709, 5917400.549999999813735 ], [ 38830.57499999999709, 5917400.474999999627471 ], [ 38830.650000000001455, 5917400.474999999627471 ], [ 38830.650000000001455, 5917400.400000000372529 ], [ 38830.724999999998545, 5917400.400000000372529 ], [ 38830.724999999998545, 5917400.325000000186265 ], [ 38830.80000000000291, 5917400.325000000186265 ], [ 38830.80000000000291, 5917400.25 ], [ 38830.875, 5917400.25 ], [ 38830.875, 5917400.099999999627471 ], [ 38830.94999999999709, 5917400.099999999627471 ], [ 38830.94999999999709, 5917400.025000000372529 ], [ 38831.025000000001455, 5917400.025000000372529 ], [ 38831.025000000001455, 5917399.875 ], [ 38831.099999999998545, 5917399.875 ], [ 38831.099999999998545, 5917399.799999999813735 ], [ 38831.17500000000291, 5917399.799999999813735 ], [ 38831.17500000000291, 5917399.724999999627471 ], [ 38831.25, 5917399.724999999627471 ], [ 38831.25, 5917399.650000000372529 ], [ 38831.32499999999709, 5917399.650000000372529 ], [ 38831.32499999999709, 5917399.575000000186265 ], [ 38831.474999999998545, 5917399.575000000186265 ], [ 38831.474999999998545, 5917399.5 ], [ 38831.55000000000291, 5917399.5 ], [ 38831.55000000000291, 5917399.424999999813735 ], [ 38831.69999999999709, 5917399.424999999813735 ], [ 38831.69999999999709, 5917399.349999999627471 ], [ 38831.775000000001455, 5917399.349999999627471 ], [ 38831.775000000001455, 5917399.275000000372529 ], [ 38831.92500000000291, 5917399.275000000372529 ], [ 38831.92500000000291, 5917399.200000000186265 ], [ 38832.07499999999709, 5917399.200000000186265 ], [ 38832.07499999999709, 5917399.125 ], [ 38832.224999999998545, 5917399.125 ], [ 38832.224999999998545, 5917399.049999999813735 ], [ 38832.44999999999709, 5917399.049999999813735 ], [ 38832.44999999999709, 5917398.974999999627471 ], [ 38832.599999999998545, 5917398.974999999627471 ], [ 38832.599999999998545, 5917398.900000000372529 ], [ 38832.67500000000291, 5917398.900000000372529 ], [ 38832.67500000000291, 5917398.825000000186265 ], [ 38832.82499999999709, 5917398.825000000186265 ], [ 38832.82499999999709, 5917398.75 ], [ 38832.900000000001455, 5917398.75 ], [ 38832.900000000001455, 5917398.674999999813735 ], [ 38832.974999999998545, 5917398.674999999813735 ], [ 38832.974999999998545, 5917398.599999999627471 ], [ 38833.125, 5917398.599999999627471 ], [ 38833.125, 5917398.525000000372529 ], [ 38833.19999999999709, 5917398.525000000372529 ], [ 38833.19999999999709, 5917398.450000000186265 ], [ 38833.275000000001455, 5917398.450000000186265 ], [ 38833.275000000001455, 5917398.375 ], [ 38833.349999999998545, 5917398.375 ], [ 38833.349999999998545, 5917398.299999999813735 ], [ 38833.42500000000291, 5917398.299999999813735 ], [ 38833.42500000000291, 5917398.224999999627471 ], [ 38833.5, 5917398.224999999627471 ], [ 38833.5, 5917398.150000000372529 ], [ 38833.57499999999709, 5917398.150000000372529 ], [ 38833.57499999999709, 5917398.075000000186265 ], [ 38833.650000000001455, 5917398.075000000186265 ], [ 38833.650000000001455, 5917398.0 ], [ 38833.724999999998545, 5917398.0 ], [ 38833.724999999998545, 5917397.924999999813735 ], [ 38833.80000000000291, 5917397.924999999813735 ], [ 38833.80000000000291, 5917397.849999999627471 ], [ 38833.94999999999709, 5917397.849999999627471 ], [ 38833.94999999999709, 5917397.775000000372529 ], [ 38834.025000000001455, 5917397.775000000372529 ], [ 38834.025000000001455, 5917397.700000000186265 ], [ 38834.17500000000291, 5917397.700000000186265 ], [ 38834.17500000000291, 5917397.625 ], [ 38834.32499999999709, 5917397.625 ], [ 38834.32499999999709, 5917397.549999999813735 ], [ 38834.474999999998545, 5917397.549999999813735 ], [ 38834.474999999998545, 5917397.474999999627471 ], [ 38834.69999999999709, 5917397.474999999627471 ], [ 38834.69999999999709, 5917397.400000000372529 ], [ 38834.849999999998545, 5917397.400000000372529 ], [ 38834.849999999998545, 5917397.325000000186265 ], [ 38835.0, 5917397.325000000186265 ], [ 38835.0, 5917397.25 ], [ 38835.150000000001455, 5917397.25 ], [ 38835.150000000001455, 5917397.174999999813735 ], [ 38835.30000000000291, 5917397.174999999813735 ], [ 38835.30000000000291, 5917397.099999999627471 ], [ 38835.375, 5917397.099999999627471 ], [ 38835.375, 5917397.025000000372529 ], [ 38835.525000000001455, 5917397.025000000372529 ], [ 38835.525000000001455, 5917396.950000000186265 ], [ 38835.67500000000291, 5917396.950000000186265 ], [ 38835.67500000000291, 5917396.875 ], [ 38835.82499999999709, 5917396.875 ], [ 38835.82499999999709, 5917396.799999999813735 ], [ 38835.900000000001455, 5917396.799999999813735 ], [ 38835.900000000001455, 5917396.724999999627471 ], [ 38836.05000000000291, 5917396.724999999627471 ], [ 38836.05000000000291, 5917396.650000000372529 ], [ 38836.125, 5917396.650000000372529 ], [ 38836.125, 5917396.575000000186265 ], [ 38836.275000000001455, 5917396.575000000186265 ], [ 38836.275000000001455, 5917396.5 ], [ 38836.349999999998545, 5917396.5 ], [ 38836.349999999998545, 5917396.424999999813735 ], [ 38836.42500000000291, 5917396.424999999813735 ], [ 38836.42500000000291, 5917396.349999999627471 ], [ 38836.5, 5917396.349999999627471 ], [ 38836.5, 5917396.275000000372529 ], [ 38836.57499999999709, 5917396.275000000372529 ], [ 38836.57499999999709, 5917396.200000000186265 ], [ 38836.650000000001455, 5917396.200000000186265 ], [ 38836.650000000001455, 5917396.125 ], [ 38836.724999999998545, 5917396.125 ], [ 38836.724999999998545, 5917396.049999999813735 ], [ 38836.875, 5917396.049999999813735 ], [ 38836.875, 5917395.974999999627471 ], [ 38836.94999999999709, 5917395.974999999627471 ], [ 38836.94999999999709, 5917395.900000000372529 ], [ 38837.025000000001455, 5917395.900000000372529 ], [ 38837.025000000001455, 5917395.825000000186265 ], [ 38837.17500000000291, 5917395.825000000186265 ], [ 38837.17500000000291, 5917395.75 ], [ 38837.25, 5917395.75 ], [ 38837.25, 5917395.674999999813735 ], [ 38837.400000000001455, 5917395.674999999813735 ], [ 38837.400000000001455, 5917395.599999999627471 ], [ 38837.55000000000291, 5917395.599999999627471 ], [ 38837.55000000000291, 5917395.525000000372529 ], [ 38837.69999999999709, 5917395.525000000372529 ], [ 38837.69999999999709, 5917395.450000000186265 ], [ 38837.849999999998545, 5917395.450000000186265 ], [ 38837.849999999998545, 5917395.375 ], [ 38838.0, 5917395.375 ], [ 38838.0, 5917395.299999999813735 ], [ 38838.150000000001455, 5917395.299999999813735 ], [ 38838.150000000001455, 5917395.224999999627471 ], [ 38838.375, 5917395.224999999627471 ], [ 38838.375, 5917395.150000000372529 ], [ 38838.525000000001455, 5917395.150000000372529 ], [ 38838.525000000001455, 5917395.075000000186265 ], [ 38838.599999999998545, 5917395.075000000186265 ], [ 38838.599999999998545, 5917395.0 ], [ 38838.75, 5917395.0 ], [ 38838.75, 5917394.924999999813735 ], [ 38838.900000000001455, 5917394.924999999813735 ], [ 38838.900000000001455, 5917394.849999999627471 ], [ 38838.974999999998545, 5917394.849999999627471 ], [ 38838.974999999998545, 5917394.775000000372529 ], [ 38839.05000000000291, 5917394.775000000372529 ], [ 38839.05000000000291, 5917394.700000000186265 ], [ 38839.19999999999709, 5917394.700000000186265 ], [ 38839.19999999999709, 5917394.625 ], [ 38839.275000000001455, 5917394.625 ], [ 38839.275000000001455, 5917394.549999999813735 ], [ 38839.349999999998545, 5917394.549999999813735 ], [ 38839.349999999998545, 5917394.474999999627471 ], [ 38839.42500000000291, 5917394.474999999627471 ], [ 38839.42500000000291, 5917394.400000000372529 ], [ 38839.5, 5917394.400000000372529 ], [ 38839.5, 5917394.325000000186265 ], [ 38839.57499999999709, 5917394.325000000186265 ], [ 38839.57499999999709, 5917394.174999999813735 ], [ 38839.650000000001455, 5917394.174999999813735 ], [ 38839.650000000001455, 5917394.099999999627471 ], [ 38839.724999999998545, 5917394.099999999627471 ], [ 38839.724999999998545, 5917394.025000000372529 ], [ 38839.875, 5917394.025000000372529 ], [ 38839.875, 5917393.950000000186265 ], [ 38839.94999999999709, 5917393.950000000186265 ], [ 38839.94999999999709, 5917393.875 ], [ 38840.025000000001455, 5917393.875 ], [ 38840.025000000001455, 5917393.799999999813735 ], [ 38840.099999999998545, 5917393.799999999813735 ], [ 38840.099999999998545, 5917393.724999999627471 ], [ 38840.25, 5917393.724999999627471 ], [ 38840.25, 5917393.650000000372529 ], [ 38840.400000000001455, 5917393.650000000372529 ], [ 38840.400000000001455, 5917393.575000000186265 ], [ 38840.474999999998545, 5917393.575000000186265 ], [ 38840.474999999998545, 5917393.5 ], [ 38840.625, 5917393.5 ], [ 38840.625, 5917393.424999999813735 ], [ 38840.775000000001455, 5917393.424999999813735 ], [ 38840.775000000001455, 5917393.349999999627471 ], [ 38840.92500000000291, 5917393.349999999627471 ], [ 38840.92500000000291, 5917393.275000000372529 ], [ 38841.07499999999709, 5917393.275000000372529 ], [ 38841.07499999999709, 5917393.200000000186265 ], [ 38841.150000000001455, 5917393.200000000186265 ], [ 38841.150000000001455, 5917393.125 ], [ 38841.30000000000291, 5917393.125 ], [ 38841.30000000000291, 5917393.049999999813735 ], [ 38841.44999999999709, 5917393.049999999813735 ], [ 38841.44999999999709, 5917392.974999999627471 ], [ 38841.525000000001455, 5917392.974999999627471 ], [ 38841.525000000001455, 5917392.900000000372529 ], [ 38841.67500000000291, 5917392.900000000372529 ], [ 38841.67500000000291, 5917392.825000000186265 ], [ 38841.82499999999709, 5917392.825000000186265 ], [ 38841.82499999999709, 5917392.75 ], [ 38841.900000000001455, 5917392.75 ], [ 38841.900000000001455, 5917392.674999999813735 ], [ 38842.05000000000291, 5917392.674999999813735 ], [ 38842.05000000000291, 5917392.599999999627471 ], [ 38842.19999999999709, 5917392.599999999627471 ], [ 38842.19999999999709, 5917392.525000000372529 ], [ 38842.724999999998545, 5917392.525000000372529 ], [ 38842.724999999998545, 5917392.450000000186265 ], [ 38843.25, 5917392.450000000186265 ], [ 38843.25, 5917392.375 ], [ 38843.69999999999709, 5917392.375 ], [ 38843.69999999999709, 5917392.299999999813735 ], [ 38844.224999999998545, 5917392.299999999813735 ], [ 38844.224999999998545, 5917392.375 ], [ 38844.30000000000291, 5917392.375 ], [ 38844.30000000000291, 5917392.450000000186265 ], [ 38844.375, 5917392.450000000186265 ], [ 38844.375, 5917392.525000000372529 ], [ 38844.44999999999709, 5917392.525000000372529 ], [ 38844.44999999999709, 5917392.599999999627471 ], [ 38844.599999999998545, 5917392.599999999627471 ], [ 38844.599999999998545, 5917392.674999999813735 ], [ 38844.67500000000291, 5917392.674999999813735 ], [ 38844.67500000000291, 5917392.75 ], [ 38844.82499999999709, 5917392.75 ], [ 38844.82499999999709, 5917392.825000000186265 ], [ 38844.974999999998545, 5917392.825000000186265 ], [ 38844.974999999998545, 5917392.900000000372529 ], [ 38845.05000000000291, 5917392.900000000372529 ], [ 38845.05000000000291, 5917392.974999999627471 ], [ 38845.19999999999709, 5917392.974999999627471 ], [ 38845.19999999999709, 5917393.049999999813735 ], [ 38845.349999999998545, 5917393.049999999813735 ], [ 38845.349999999998545, 5917393.125 ], [ 38845.57499999999709, 5917393.125 ], [ 38845.57499999999709, 5917393.200000000186265 ], [ 38845.724999999998545, 5917393.200000000186265 ], [ 38845.724999999998545, 5917393.275000000372529 ], [ 38845.94999999999709, 5917393.275000000372529 ], [ 38845.94999999999709, 5917393.349999999627471 ], [ 38846.17500000000291, 5917393.349999999627471 ], [ 38846.17500000000291, 5917393.424999999813735 ], [ 38846.55000000000291, 5917393.424999999813735 ], [ 38846.55000000000291, 5917393.5 ], [ 38846.92500000000291, 5917393.5 ], [ 38846.92500000000291, 5917393.575000000186265 ], [ 38847.30000000000291, 5917393.575000000186265 ], [ 38847.30000000000291, 5917393.650000000372529 ], [ 38847.599999999998545, 5917393.650000000372529 ], [ 38847.599999999998545, 5917393.724999999627471 ], [ 38847.974999999998545, 5917393.724999999627471 ], [ 38847.974999999998545, 5917393.799999999813735 ], [ 38848.19999999999709, 5917393.799999999813735 ], [ 38848.19999999999709, 5917393.875 ], [ 38848.42500000000291, 5917393.875 ], [ 38848.42500000000291, 5917393.950000000186265 ], [ 38848.650000000001455, 5917393.950000000186265 ], [ 38848.650000000001455, 5917394.025000000372529 ], [ 38848.80000000000291, 5917394.025000000372529 ], [ 38848.80000000000291, 5917394.099999999627471 ], [ 38848.94999999999709, 5917394.099999999627471 ], [ 38848.94999999999709, 5917394.174999999813735 ], [ 38849.099999999998545, 5917394.174999999813735 ], [ 38849.099999999998545, 5917394.25 ], [ 38849.25, 5917394.25 ], [ 38849.25, 5917394.325000000186265 ], [ 38849.400000000001455, 5917394.325000000186265 ], [ 38849.400000000001455, 5917394.400000000372529 ], [ 38849.55000000000291, 5917394.400000000372529 ], [ 38849.55000000000291, 5917394.474999999627471 ], [ 38849.69999999999709, 5917394.474999999627471 ], [ 38849.69999999999709, 5917394.549999999813735 ], [ 38849.775000000001455, 5917394.549999999813735 ], [ 38849.775000000001455, 5917394.625 ], [ 38849.92500000000291, 5917394.625 ], [ 38849.92500000000291, 5917394.700000000186265 ], [ 38850.07499999999709, 5917394.700000000186265 ], [ 38850.07499999999709, 5917394.775000000372529 ], [ 38850.30000000000291, 5917394.775000000372529 ], [ 38850.30000000000291, 5917394.849999999627471 ], [ 38850.525000000001455, 5917394.849999999627471 ], [ 38850.525000000001455, 5917394.924999999813735 ], [ 38850.67500000000291, 5917394.924999999813735 ], [ 38850.67500000000291, 5917395.0 ], [ 38850.974999999998545, 5917395.0 ], [ 38850.974999999998545, 5917395.075000000186265 ], [ 38851.19999999999709, 5917395.075000000186265 ], [ 38851.19999999999709, 5917395.150000000372529 ], [ 38851.5, 5917395.150000000372529 ], [ 38851.5, 5917395.224999999627471 ], [ 38851.80000000000291, 5917395.224999999627471 ], [ 38851.80000000000291, 5917395.299999999813735 ], [ 38852.849999999998545, 5917395.299999999813735 ], [ 38852.849999999998545, 5917395.375 ], [ 38854.05000000000291, 5917395.375 ], [ 38854.05000000000291, 5917395.450000000186265 ], [ 38854.349999999998545, 5917395.450000000186265 ], [ 38854.349999999998545, 5917395.525000000372529 ], [ 38854.57499999999709, 5917395.525000000372529 ], [ 38854.57499999999709, 5917395.599999999627471 ], [ 38854.80000000000291, 5917395.599999999627471 ], [ 38854.80000000000291, 5917395.674999999813735 ], [ 38854.94999999999709, 5917395.674999999813735 ], [ 38854.94999999999709, 5917395.75 ], [ 38855.099999999998545, 5917395.75 ], [ 38855.099999999998545, 5917395.825000000186265 ], [ 38855.25, 5917395.825000000186265 ], [ 38855.25, 5917395.900000000372529 ], [ 38855.400000000001455, 5917395.900000000372529 ], [ 38855.400000000001455, 5917395.974999999627471 ], [ 38855.55000000000291, 5917395.974999999627471 ], [ 38855.55000000000291, 5917396.049999999813735 ], [ 38855.625, 5917396.049999999813735 ], [ 38855.625, 5917396.125 ], [ 38855.69999999999709, 5917396.125 ], [ 38855.69999999999709, 5917396.200000000186265 ], [ 38855.775000000001455, 5917396.200000000186265 ], [ 38855.775000000001455, 5917396.275000000372529 ], [ 38855.92500000000291, 5917396.275000000372529 ], [ 38855.92500000000291, 5917396.349999999627471 ], [ 38856.07499999999709, 5917396.349999999627471 ], [ 38856.07499999999709, 5917396.424999999813735 ], [ 38856.224999999998545, 5917396.424999999813735 ], [ 38856.224999999998545, 5917396.5 ], [ 38856.30000000000291, 5917396.5 ], [ 38856.30000000000291, 5917396.575000000186265 ], [ 38856.375, 5917396.575000000186265 ], [ 38856.375, 5917396.650000000372529 ], [ 38856.44999999999709, 5917396.650000000372529 ], [ 38856.44999999999709, 5917396.724999999627471 ], [ 38856.525000000001455, 5917396.724999999627471 ], [ 38856.525000000001455, 5917396.875 ], [ 38856.599999999998545, 5917396.875 ], [ 38856.599999999998545, 5917397.025000000372529 ], [ 38856.67500000000291, 5917397.025000000372529 ], [ 38856.67500000000291, 5917397.174999999813735 ], [ 38856.75, 5917397.174999999813735 ], [ 38856.75, 5917397.325000000186265 ], [ 38856.82499999999709, 5917397.325000000186265 ], [ 38856.82499999999709, 5917397.474999999627471 ], [ 38856.900000000001455, 5917397.474999999627471 ], [ 38856.900000000001455, 5917397.625 ], [ 38856.974999999998545, 5917397.625 ], [ 38856.974999999998545, 5917397.849999999627471 ], [ 38857.05000000000291, 5917397.849999999627471 ], [ 38857.05000000000291, 5917398.075000000186265 ], [ 38857.125, 5917398.075000000186265 ], [ 38857.125, 5917398.299999999813735 ], [ 38857.19999999999709, 5917398.299999999813735 ], [ 38857.19999999999709, 5917398.525000000372529 ], [ 38857.275000000001455, 5917398.525000000372529 ], [ 38857.275000000001455, 5917398.75 ], [ 38857.349999999998545, 5917398.75 ], [ 38857.349999999998545, 5917398.974999999627471 ], [ 38857.42500000000291, 5917398.974999999627471 ], [ 38857.42500000000291, 5917399.125 ], [ 38857.5, 5917399.125 ], [ 38857.5, 5917399.349999999627471 ], [ 38857.57499999999709, 5917399.349999999627471 ], [ 38857.57499999999709, 5917399.5 ], [ 38857.650000000001455, 5917399.5 ], [ 38857.650000000001455, 5917399.650000000372529 ], [ 38857.724999999998545, 5917399.650000000372529 ], [ 38857.724999999998545, 5917399.724999999627471 ], [ 38857.80000000000291, 5917399.724999999627471 ], [ 38857.80000000000291, 5917399.875 ], [ 38857.875, 5917399.875 ], [ 38857.875, 5917399.950000000186265 ], [ 38857.94999999999709, 5917399.950000000186265 ], [ 38857.94999999999709, 5917400.025000000372529 ], [ 38858.025000000001455, 5917400.025000000372529 ], [ 38858.025000000001455, 5917400.174999999813735 ], [ 38858.099999999998545, 5917400.174999999813735 ], [ 38858.099999999998545, 5917400.25 ], [ 38858.17500000000291, 5917400.25 ], [ 38858.17500000000291, 5917400.400000000372529 ], [ 38858.25, 5917400.400000000372529 ], [ 38858.25, 5917400.474999999627471 ], [ 38858.32499999999709, 5917400.474999999627471 ], [ 38858.32499999999709, 5917400.625 ], [ 38858.400000000001455, 5917400.625 ], [ 38858.400000000001455, 5917400.775000000372529 ], [ 38858.474999999998545, 5917400.775000000372529 ], [ 38858.474999999998545, 5917400.924999999813735 ], [ 38858.55000000000291, 5917400.924999999813735 ], [ 38858.55000000000291, 5917401.075000000186265 ], [ 38858.625, 5917401.075000000186265 ], [ 38858.625, 5917401.299999999813735 ], [ 38858.69999999999709, 5917401.299999999813735 ], [ 38858.69999999999709, 5917401.599999999627471 ], [ 38858.775000000001455, 5917401.599999999627471 ], [ 38858.775000000001455, 5917401.974999999627471 ], [ 38858.849999999998545, 5917401.974999999627471 ], [ 38858.849999999998545, 5917402.424999999813735 ], [ 38858.775000000001455, 5917402.424999999813735 ], [ 38858.775000000001455, 5917402.650000000372529 ], [ 38858.69999999999709, 5917402.650000000372529 ], [ 38858.69999999999709, 5917402.875 ], [ 38858.625, 5917402.875 ], [ 38858.625, 5917403.099999999627471 ], [ 38858.55000000000291, 5917403.099999999627471 ], [ 38858.55000000000291, 5917403.25 ], [ 38858.474999999998545, 5917403.25 ], [ 38858.474999999998545, 5917403.400000000372529 ], [ 38858.400000000001455, 5917403.400000000372529 ], [ 38858.400000000001455, 5917403.549999999813735 ], [ 38858.32499999999709, 5917403.549999999813735 ], [ 38858.32499999999709, 5917403.700000000186265 ], [ 38858.25, 5917403.700000000186265 ], [ 38858.25, 5917403.849999999627471 ], [ 38858.17500000000291, 5917403.849999999627471 ], [ 38858.17500000000291, 5917403.924999999813735 ], [ 38858.099999999998545, 5917403.924999999813735 ], [ 38858.099999999998545, 5917404.075000000186265 ], [ 38858.025000000001455, 5917404.075000000186265 ], [ 38858.025000000001455, 5917404.150000000372529 ], [ 38857.94999999999709, 5917404.150000000372529 ], [ 38857.94999999999709, 5917404.224999999627471 ], [ 38857.875, 5917404.224999999627471 ], [ 38857.875, 5917404.299999999813735 ], [ 38857.80000000000291, 5917404.299999999813735 ], [ 38857.80000000000291, 5917404.375 ], [ 38857.724999999998545, 5917404.375 ], [ 38857.724999999998545, 5917404.450000000186265 ], [ 38857.650000000001455, 5917404.450000000186265 ], [ 38857.650000000001455, 5917404.599999999627471 ], [ 38857.57499999999709, 5917404.599999999627471 ], [ 38857.57499999999709, 5917404.674999999813735 ], [ 38857.5, 5917404.674999999813735 ], [ 38857.5, 5917404.75 ], [ 38857.42500000000291, 5917404.75 ], [ 38857.42500000000291, 5917404.900000000372529 ], [ 38857.349999999998545, 5917404.900000000372529 ], [ 38857.349999999998545, 5917404.974999999627471 ], [ 38857.275000000001455, 5917404.974999999627471 ], [ 38857.275000000001455, 5917405.049999999813735 ], [ 38857.19999999999709, 5917405.049999999813735 ], [ 38857.19999999999709, 5917405.200000000186265 ], [ 38857.125, 5917405.200000000186265 ], [ 38857.125, 5917405.275000000372529 ], [ 38857.05000000000291, 5917405.275000000372529 ], [ 38857.05000000000291, 5917405.349999999627471 ], [ 38856.974999999998545, 5917405.349999999627471 ], [ 38856.974999999998545, 5917405.424999999813735 ], [ 38856.900000000001455, 5917405.424999999813735 ], [ 38856.900000000001455, 5917405.575000000186265 ], [ 38856.82499999999709, 5917405.575000000186265 ], [ 38856.82499999999709, 5917405.650000000372529 ], [ 38856.75, 5917405.650000000372529 ], [ 38856.75, 5917405.724999999627471 ], [ 38856.67500000000291, 5917405.724999999627471 ], [ 38856.67500000000291, 5917405.799999999813735 ], [ 38856.599999999998545, 5917405.799999999813735 ], [ 38856.599999999998545, 5917405.875 ], [ 38856.525000000001455, 5917405.875 ], [ 38856.525000000001455, 5917405.950000000186265 ], [ 38856.44999999999709, 5917405.950000000186265 ], [ 38856.44999999999709, 5917406.099999999627471 ], [ 38856.375, 5917406.099999999627471 ], [ 38856.375, 5917406.174999999813735 ], [ 38856.30000000000291, 5917406.174999999813735 ], [ 38856.30000000000291, 5917406.25 ], [ 38856.224999999998545, 5917406.25 ], [ 38856.224999999998545, 5917406.325000000186265 ], [ 38856.150000000001455, 5917406.325000000186265 ], [ 38856.150000000001455, 5917406.400000000372529 ], [ 38856.07499999999709, 5917406.400000000372529 ], [ 38856.07499999999709, 5917406.474999999627471 ], [ 38856.0, 5917406.474999999627471 ], [ 38856.0, 5917406.549999999813735 ], [ 38855.92500000000291, 5917406.549999999813735 ], [ 38855.92500000000291, 5917406.625 ], [ 38855.775000000001455, 5917406.625 ], [ 38855.775000000001455, 5917406.700000000186265 ], [ 38855.69999999999709, 5917406.700000000186265 ], [ 38855.69999999999709, 5917406.775000000372529 ], [ 38855.625, 5917406.775000000372529 ], [ 38855.625, 5917406.849999999627471 ], [ 38855.55000000000291, 5917406.849999999627471 ], [ 38855.55000000000291, 5917406.924999999813735 ], [ 38855.400000000001455, 5917406.924999999813735 ], [ 38855.400000000001455, 5917407.0 ], [ 38855.32499999999709, 5917407.0 ], [ 38855.32499999999709, 5917407.075000000186265 ], [ 38855.17500000000291, 5917407.075000000186265 ], [ 38855.17500000000291, 5917407.150000000372529 ], [ 38855.025000000001455, 5917407.150000000372529 ], [ 38855.025000000001455, 5917407.224999999627471 ], [ 38854.94999999999709, 5917407.224999999627471 ], [ 38854.94999999999709, 5917407.299999999813735 ], [ 38854.80000000000291, 5917407.299999999813735 ], [ 38854.80000000000291, 5917407.375 ], [ 38854.650000000001455, 5917407.375 ], [ 38854.650000000001455, 5917407.450000000186265 ], [ 38854.5, 5917407.450000000186265 ], [ 38854.5, 5917407.525000000372529 ], [ 38854.349999999998545, 5917407.525000000372529 ], [ 38854.349999999998545, 5917407.599999999627471 ], [ 38854.125, 5917407.599999999627471 ], [ 38854.125, 5917407.674999999813735 ], [ 38853.974999999998545, 5917407.674999999813735 ], [ 38853.974999999998545, 5917407.75 ], [ 38853.82499999999709, 5917407.75 ], [ 38853.82499999999709, 5917407.825000000186265 ], [ 38853.75, 5917407.825000000186265 ], [ 38853.75, 5917407.900000000372529 ], [ 38853.67500000000291, 5917407.900000000372529 ], [ 38853.67500000000291, 5917407.974999999627471 ], [ 38853.599999999998545, 5917407.974999999627471 ], [ 38853.599999999998545, 5917408.049999999813735 ], [ 38853.525000000001455, 5917408.049999999813735 ], [ 38853.525000000001455, 5917408.125 ], [ 38853.44999999999709, 5917408.125 ], [ 38853.44999999999709, 5917408.200000000186265 ], [ 38853.375, 5917408.200000000186265 ], [ 38853.375, 5917408.275000000372529 ], [ 38853.30000000000291, 5917408.275000000372529 ], [ 38853.30000000000291, 5917408.349999999627471 ], [ 38853.224999999998545, 5917408.349999999627471 ], [ 38853.224999999998545, 5917408.424999999813735 ], [ 38853.150000000001455, 5917408.424999999813735 ], [ 38853.150000000001455, 5917408.5 ], [ 38853.07499999999709, 5917408.5 ], [ 38853.07499999999709, 5917408.575000000186265 ], [ 38852.92500000000291, 5917408.575000000186265 ], [ 38852.92500000000291, 5917408.650000000372529 ], [ 38852.849999999998545, 5917408.650000000372529 ], [ 38852.849999999998545, 5917408.724999999627471 ], [ 38852.69999999999709, 5917408.724999999627471 ], [ 38852.69999999999709, 5917408.799999999813735 ], [ 38852.55000000000291, 5917408.799999999813735 ], [ 38852.55000000000291, 5917408.875 ], [ 38852.400000000001455, 5917408.875 ], [ 38852.400000000001455, 5917408.950000000186265 ], [ 38852.17500000000291, 5917408.950000000186265 ], [ 38852.17500000000291, 5917409.025000000372529 ], [ 38851.94999999999709, 5917409.025000000372529 ], [ 38851.94999999999709, 5917409.099999999627471 ], [ 38849.55000000000291, 5917409.099999999627471 ], [ 38849.55000000000291, 5917409.174999999813735 ], [ 38846.025000000001455, 5917409.174999999813735 ], [ 38846.025000000001455, 5917409.25 ], [ 38845.275000000001455, 5917409.25 ], [ 38845.275000000001455, 5917409.325000000186265 ], [ 38844.525000000001455, 5917409.325000000186265 ], [ 38844.525000000001455, 5917409.400000000372529 ], [ 38843.92500000000291, 5917409.400000000372529 ], [ 38843.92500000000291, 5917409.474999999627471 ], [ 38843.25, 5917409.474999999627471 ], [ 38843.25, 5917409.549999999813735 ], [ 38842.650000000001455, 5917409.549999999813735 ], [ 38842.650000000001455, 5917409.625 ], [ 38837.55000000000291, 5917409.625 ] ] ] } }
]
}
