{
"type": "FeatureCollection",
"name": "38433E595332N_buildings",
"crs": { "type": "name", "properties": { "name": "urn:ogc:def:crs:EPSG::3776" } },
"features": [
{ "type": "Feature", "properties": { "value": 1.0, "building_id": 0, "area": 147.11062500100115 }, "geometry": { "type": "Polygon", "coordinates": [ [ [ 38433.0, 5954079.0 ], [ 38433.0, 5954057.849999999627471 ], [ 38436.0, 5954057.849999999627471 ], [ 38436.0, 5954057.924999999813735 ], [ 38436.07499999999709, 5954057.924999999813735 ], [ 38436.07499999999709, 5954058.0 ], [ 38436.224999999998545, 5954058.0 ], [ 38436.224999999998545, 5954058.075000000186265 ], [ 38436.30000000000291, 5954058.075000000186265 ], [ 38436.30000000000291, 5954058.150000000372529 ], [ 38436.375, 5954058.150000000372529 ], [ 38436.375, 5954058.224999999627471 ], [ 38436.44999999999709, 5954058.224999999627471 ], [ 38436.44999999999709, 5954058.299999999813735 ], [ 38436.525000000001455, 5954058.299999999813735 ], [ 38436.525000000001455, 5954058.375 ], [ 38436.599999999998545, 5954058.375 ], [ 38436.599999999998545, 5954058.450000000186265 ], [ 38436.67500000000291, 5954058.450000000186265 ], [ 38436.67500000000291, 5954058.525000000372529 ], [ 38436.75, 5954058.525000000372529 ], [ 38436.75, 5954058.599999999627471 ], [ 38436.82499999999709, 5954058.599999999627471 ], [ 38436.82499999999709, 5954058.674999999813735 ], [ 38436.900000000001455, 5954058.674999999813735 ], [ 38436.900000000001455, 5954058.75 ], [ 38436.974999999998545, 5954058.75 ], [ 38436.974999999998545, 5954058.825000000186265 ], [ 38437.125, 5954058.825000000186265 ], [ 38437.125, 5954058.900000000372529 ], [ 38437.19999999999709, 5954058.900000000372529 ], [ 38437.19999999999709, 5954058.974999999627471 ], [ 38437.349999999998545, 5954058.974999999627471 ], [ 38437.349999999998545, 5954059.049999999813735 ], [ 38437.42500000000291, 5954059.049999999813735 ], [ 38437.42500000000291, 5954059.125 ], [ 38437.57499999999709, 5954059.125 ], [ 38437.57499999999709, 5954059.200000000186265 ], [ 38437.80000000000291, 5954059.200000000186265 ], [ 38437.80000000000291, 5954059.275000000372529 ], [ 38437.94999999999709, 5954059.275000000372529 ], [ 38437.94999999999709, 5954059.349999999627471 ], [ 38438.099999999998545, 5954059.349999999627471 ], [ 38438.099999999998545, 5954059.424999999813735 ], [ 38438.25, 5954059.424999999813735 ], [ 38438.25, 5954059.5 ], [ 38438.400000000001455, 5954059.5 ], [ 38438.400000000001455, 5954059.575000000186265 ], [ 38438.474999999998545, 5954059.575000000186265 ], [ 38438.474999999998545, 5954059.650000000372529 ], [ 38438.625, 5954059.650000000372529 ], [ 38438.625, 5954059.724999999627471 ], [ 38438.69999999999709, 5954059.724999999627471 ], [ 38438.69999999999709, 5954059.799999999813735 ], [ 38438.775000000001455, 5954059.799999999813735 ], [ 38438.775000000001455, 5954059.875 ], [ 38438.849999999998545, 5954059.875 ], [ 38438.849999999998545, 5954059.950000000186265 ], [ 38438.92500000000291, 5954059.950000000186265 ], [ 38438.92500000000291, 5954060.099999999627471 ], [ 38439.0, 5954060.099999999627471 ], [ 38439.0, 5954060.174999999813735 ], [ 38439.07499999999709, 5954060.174999999813735 ], [ 38439.07499999999709, 5954060.325000000186265 ], [ 38439.150000000001455, 5954060.325000000186265 ], [ 38439.150000000001455, 5954060.625 ], [ 38439.224999999998545, 5954060.625 ], [ 38439.224999999998545, 5954061.0 ], [ 38439.30000000000291, 5954061.0 ], [ 38439.30000000000291, 5954061.375 ], [ 38439.375, 5954061.375 ], [ 38439.375, 5954061.75 ], [ 38439.44999999999709, 5954061.75 ], [ 38439.44999999999709, 5954062.125 ], [ 38439.525000000001455, 5954062.125 ], [ 38439.525000000001455, 5954062.575000000186265 ], [ 38439.599999999998545, 5954062.575000000186265 ], [ 38439.599999999998545, 5954062.950000000186265 ], [ 38439.67500000000291, 5954062.950000000186265 ], [ 38439.67500000000291, 5954063.25 ], [ 38439.75, 5954063.25 ], [ 38439.75, 5954063.625 ], [ 38439.82499999999709, 5954063.625 ], [ 38439.82499999999709, 5954063.849999999627471 ], [ 38439.900000000001455, 5954063.849999999627471 ], [ 38439.900000000001455, 5954064.0 ], [ 38439.974999999998545, 5954064.0 ], [ 38439.974999999998545, 5954064.075000000186265 ], [ 38440.05000000000291, 5954064.075000000186265 ], [ 38440.05000000000291, 5954064.224999999627471 ], [ 38440.125, 5954064.224999999627471 ], [ 38440.125, 5954064.375 ], [ 38440.275000000001455, 5954064.375 ], [ 38440.275000000001455, 5954064.450000000186265 ], [ 38440.349999999998545, 5954064.450000000186265 ], [ 38440.349999999998545, 5954064.525000000372529 ], [ 38440.42500000000291, 5954064.525000000372529 ], [ 38440.42500000000291, 5954064.599999999627471 ], [ 38440.5, 5954064.599999999627471 ], [ 38440.5, 5954064.674999999813735 ], [ 38440.57499999999709, 5954064.674999999813735 ], [ 38440.57499999999709, 5954064.75 ], [ 38440.650000000001455, 5954064.75 ], [ 38440.650000000001455, 5954064.900000000372529 ], [ 38440.724999999998545, 5954064.900000000372529 ], [ 38440.724999999998545, 5954064.974999999627471 ], [ 38440.80000000000291, 5954064.974999999627471 ], [ 38440.80000000000291, 5954065.125 ], [ 38440.875, 5954065.125 ], [ 38440.875, 5954065.275000000372529 ], [ 38440.94999999999709, 5954065.275000000372529 ], [ 38440.94999999999709, 5954065.424999999813735 ], [ 38441.025000000001455, 5954065.424999999813735 ], [ 38441.025000000001455, 5954065.650000000372529 ], [ 38441.099999999998545, 5954065.650000000372529 ], [ 38441.099999999998545, 5954065.875 ], [ 38441.17500000000291, 5954065.875 ], [ 38441.17500000000291, 5954066.099999999627471 ], [ 38441.25, 5954066.099999999627471 ], [ 38441.25, 5954067.0 ], [ 38441.32499999999709, 5954067.0 ], [ 38441.32499999999709, 5954068.650000000372529 ], [ 38441.25, 5954068.650000000372529 ], [ 38441.25, 5954069.099999999627471 ], [ 38441.17500000000291, 5954069.099999999627471 ], [ 38441.17500000000291, 5954069.474999999627471 ], [ 38441.099999999998545, 5954069.474999999627471 ], [ 38441.099999999998545, 5954069.849999999627471 ], [ 38441.025000000001455, 5954069.849999999627471 ], [ 38441.025000000001455, 5954070.075000000186265 ], [ 38440.94999999999709, 5954070.075000000186265 ], [ 38440.94999999999709, 5954070.375 ], [ 38440.875, 5954070.375 ], [ 38440.875, 5954070.674999999813735 ], [ 38440.80000000000291, 5954070.674999999813735 ], [ 38440.80000000000291, 5954070.900000000372529 ], [ 38440.724999999998545, 5954070.900000000372529 ], [ 38440.724999999998545, 5954071.125 ], [ 38440.650000000001455, 5954071.125 ], [ 38440.650000000001455, 5954071.349999999627471 ], [ 38440.57499999999709, 5954071.349999999627471 ], [ 38440.57499999999709, 5954071.5 ], [ 38440.5, 5954071.5 ], [ 38440.5, 5954071.650000000372529 ], [ 38440.42500000000291, 5954071.650000000372529 ], [ 38440.42500000000291, 5954071.799999999813735 ], [ 38440.349999999998545, 5954071.799999999813735 ], [ 38440.349999999998545, 5954071.950000000186265 ], [ 38440.275000000001455, 5954071.950000000186265 ], [ 38440.275000000001455, 5954072.099999999627471 ], [ 38440.19999999999709, 5954072.099999999627471 ], [ 38440.19999999999709, 5954072.25 ], [ 38440.125, 5954072.25 ], [ 38440.125, 5954072.625 ], [ 38440.05000000000291, 5954072.625 ], [ 38440.05000000000291, 5954073.0 ], [ 38439.974999999998545, 5954073.0 ], [ 38439.974999999998545, 5954073.299999999813735 ], [ 38439.900000000001455, 5954073.299999999813735 ], [ 38439.900000000001455, 5954073.599999999627471 ], [ 38439.82499999999709, 5954073.599999999627471 ], [ 38439.82499999999709, 5954079.0 ], [ 38433.0, 5954079.0 ] ] ] } },
{ "type": "Feature", "properties": { "value": 1.0, "building_id": 1, "area": 731.2725000002556 }, "geometry": { "type": "Polygon", "coordinates": [ [ [ 38468.775000000001455, 5954053.950000000186265 ], [ 38468.775000000001455, 5954053.875 ], [ 38468.32499999999709, 5954053.875 ], [ 38468.32499999999709, 5954053.799999999813735 ], [ 38467.94999999999709, 5954053.799999999813735 ], [ 38467.94999999999709, 5954053.724999999627471 ], [ 38467.57499999999709, 5954053.724999999627471 ], [ 38467.57499999999709, 5954053.650000000372529 ], [ 38467.275000000001455, 5954053.650000000372529 ], [ 38467.275000000001455, 5954053.575000000186265 ], [ 38467.125, 5954053.575000000186265 ], [ 38467.125, 5954053.5 ], [ 38466.974999999998545, 5954053.5 ], [ 38466.974999999998545, 5954053.424999999813735 ], [ 38466.900000000001455, 5954053.424999999813735 ], [ 38466.900000000001455, 5954053.349999999627471 ], [ 38466.82499999999709, 5954053.349999999627471 ], [ 38466.82499999999709, 5954053.275000000372529 ], [ 38466.67500000000291, 5954053.275000000372529 ], [ 38466.67500000000291, 5954053.200000000186265 ], [ 38466.599999999998545, 5954053.200000000186265 ], [ 38466.599999999998545, 5954053.125 ], [ 38466.525000000001455, 5954053.125 ], [ 38466.525000000001455, 5954053.049999999813735 ], [ 38466.44999999999709, 5954053.049999999813735 ], [ 38466.44999999999709, 5954052.974999999627471 ], [ 38466.375, 5954052.974999999627471 ], [ 38466.375, 5954052.825000000186265 ], [ 38466.30000000000291, 5954052.825000000186265 ], [ 38466.30000000000291, 5954052.75 ], [ 38466.224999999998545, 5954052.75 ], [ 38466.224999999998545, 5954052.674999999813735 ], [ 38466.150000000001455, 5954052.674999999813735 ], [ 38466.150000000001455, 5954052.375 ], [ 38466.07499999999709, 5954052.375 ], [ 38466.07499999999709, 5954052.150000000372529 ], [ 38466.0, 5954052.150000000372529 ], [ 38466.0, 5954051.775000000372529 ], [ 38465.92500000000291, 5954051.775000000372529 ], [ 38465.92500000000291, 5954051.400000000372529 ], [ 38465.849999999998545, 5954051.400000000372529 ], [ 38465.849999999998545, 5954050.875 ], [ 38465.775000000001455, 5954050.875 ], [ 38465.775000000001455, 5954050.5 ], [ 38465.849999999998545, 5954050.5 ], [ 38465.849999999998545, 5954050.125 ], [ 38465.92500000000291, 5954050.125 ], [ 38465.92500000000291, 5954049.75 ], [ 38466.0, 5954049.75 ], [ 38466.0, 5954049.450000000186265 ], [ 38466.07499999999709, 5954049.450000000186265 ], [ 38466.07499999999709, 5954049.150000000372529 ], [ 38466.150000000001455, 5954049.150000000372529 ], [ 38466.150000000001455, 5954048.849999999627471 ], [ 38466.224999999998545, 5954048.849999999627471 ], [ 38466.224999999998545, 5954048.625 ], [ 38466.30000000000291, 5954048.625 ], [ 38466.30000000000291, 5954048.474999999627471 ], [ 38466.375, 5954048.474999999627471 ], [ 38466.375, 5954048.325000000186265 ], [ 38466.44999999999709, 5954048.325000000186265 ], [ 38466.44999999999709, 5954048.174999999813735 ], [ 38466.525000000001455, 5954048.174999999813735 ], [ 38466.525000000001455, 5954048.099999999627471 ], [ 38466.599999999998545, 5954048.099999999627471 ], [ 38466.599999999998545, 5954047.950000000186265 ], [ 38466.67500000000291, 5954047.950000000186265 ], [ 38466.67500000000291, 5954047.875 ], [ 38466.75, 5954047.875 ], [ 38466.75, 5954047.724999999627471 ], [ 38466.82499999999709, 5954047.724999999627471 ], [ 38466.82499999999709, 5954047.650000000372529 ], [ 38466.900000000001455, 5954047.650000000372529 ], [ 38466.900000000001455, 5954047.575000000186265 ], [ 38466.974999999998545, 5954047.575000000186265 ], [ 38466.974999999998545, 5954047.5 ], [ 38467.05000000000291, 5954047.5 ], [ 38467.05000000000291, 5954047.424999999813735 ], [ 38467.125, 5954047.424999999813735 ], [ 38467.125, 5954047.349999999627471 ], [ 38467.19999999999709, 5954047.349999999627471 ], [ 38467.19999999999709, 5954047.275000000372529 ], [ 38467.275000000001455, 5954047.275000000372529 ], [ 38467.275000000001455, 5954047.200000000186265 ], [ 38467.349999999998545, 5954047.200000000186265 ], [ 38467.349999999998545, 5954047.049999999813735 ], [ 38467.42500000000291, 5954047.049999999813735 ], [ 38467.42500000000291, 5954046.900000000372529 ], [ 38467.5, 5954046.900000000372529 ], [ 38467.5, 5954046.825000000186265 ], [ 38467.57499999999709, 5954046.825000000186265 ], [ 38467.57499999999709, 5954046.450000000186265 ], [ 38467.650000000001455, 5954046.450000000186265 ], [ 38467.650000000001455, 5954046.150000000372529 ], [ 38467.724999999998545, 5954046.150000000372529 ], [ 38467.724999999998545, 5954045.924999999813735 ], [ 38467.80000000000291, 5954045.924999999813735 ], [ 38467.80000000000291, 5954045.775000000372529 ], [ 38467.875, 5954045.775000000372529 ], [ 38467.875, 5954045.700000000186265 ], [ 38467.94999999999709, 5954045.700000000186265 ], [ 38467.94999999999709, 5954045.549999999813735 ], [ 38468.025000000001455, 5954045.549999999813735 ], [ 38468.025000000001455, 5954045.474999999627471 ], [ 38468.099999999998545, 5954045.474999999627471 ], [ 38468.099999999998545, 5954045.325000000186265 ], [ 38468.17500000000291, 5954045.325000000186265 ], [ 38468.17500000000291, 5954045.25 ], [ 38468.25, 5954045.25 ], [ 38468.25, 5954045.174999999813735 ], [ 38468.32499999999709, 5954045.174999999813735 ], [ 38468.32499999999709, 5954045.099999999627471 ], [ 38468.400000000001455, 5954045.099999999627471 ], [ 38468.400000000001455, 5954045.025000000372529 ], [ 38468.474999999998545, 5954045.025000000372529 ], [ 38468.474999999998545, 5954044.950000000186265 ], [ 38468.625, 5954044.950000000186265 ], [ 38468.625, 5954044.875 ], [ 38468.69999999999709, 5954044.875 ], [ 38468.69999999999709, 5954044.799999999813735 ], [ 38468.775000000001455, 5954044.799999999813735 ], [ 38468.775000000001455, 5954044.724999999627471 ], [ 38468.849999999998545, 5954044.724999999627471 ], [ 38468.849999999998545, 5954044.650000000372529 ], [ 38468.92500000000291, 5954044.650000000372529 ], [ 38468.92500000000291, 5954044.575000000186265 ], [ 38469.07499999999709, 5954044.575000000186265 ], [ 38469.07499999999709, 5954044.5 ], [ 38469.150000000001455, 5954044.5 ], [ 38469.150000000001455, 5954044.349999999627471 ], [ 38469.224999999998545, 5954044.349999999627471 ], [ 38469.224999999998545, 5954044.200000000186265 ], [ 38469.30000000000291, 5954044.200000000186265 ], [ 38469.30000000000291, 5954044.049999999813735 ], [ 38469.375, 5954044.049999999813735 ], [ 38469.375, 5954043.900000000372529 ], [ 38469.44999999999709, 5954043.900000000372529 ], [ 38469.44999999999709, 5954043.75 ], [ 38469.525000000001455, 5954043.75 ], [ 38469.525000000001455, 5954043.599999999627471 ], [ 38469.599999999998545, 5954043.599999999627471 ], [ 38469.599999999998545, 5954043.375 ], [ 38469.67500000000291, 5954043.375 ], [ 38469.67500000000291, 5954043.224999999627471 ], [ 38469.75, 5954043.224999999627471 ], [ 38469.75, 5954043.0 ], [ 38469.82499999999709, 5954043.0 ], [ 38469.82499999999709, 5954042.625 ], [ 38469.900000000001455, 5954042.625 ], [ 38469.900000000001455, 5954042.474999999627471 ], [ 38469.974999999998545, 5954042.474999999627471 ], [ 38469.974999999998545, 5954042.400000000372529 ], [ 38470.05000000000291, 5954042.400000000372529 ], [ 38470.05000000000291, 5954042.25 ], [ 38470.125, 5954042.25 ], [ 38470.125, 5954042.174999999813735 ], [ 38470.19999999999709, 5954042.174999999813735 ], [ 38470.19999999999709, 5954042.099999999627471 ], [ 38470.275000000001455, 5954042.099999999627471 ], [ 38470.275000000001455, 5954042.025000000372529 ], [ 38470.349999999998545, 5954042.025000000372529 ], [ 38470.349999999998545, 5954041.950000000186265 ], [ 38470.42500000000291, 5954041.950000000186265 ], [ 38470.42500000000291, 5954041.875 ], [ 38470.5, 5954041.875 ], [ 38470.5, 5954041.799999999813735 ], [ 38470.57499999999709, 5954041.799999999813735 ], [ 38470.57499999999709, 5954041.724999999627471 ], [ 38470.650000000001455, 5954041.724999999627471 ], [ 38470.650000000001455, 5954041.650000000372529 ], [ 38470.724999999998545, 5954041.650000000372529 ], [ 38470.724999999998545, 5954041.575000000186265 ], [ 38470.875, 5954041.575000000186265 ], [ 38470.875, 5954041.5 ], [ 38470.94999999999709, 5954041.5 ], [ 38470.94999999999709, 5954041.424999999813735 ], [ 38471.099999999998545, 5954041.424999999813735 ], [ 38471.099999999998545, 5954041.349999999627471 ], [ 38471.17500000000291, 5954041.349999999627471 ], [ 38471.17500000000291, 5954041.200000000186265 ], [ 38471.25, 5954041.200000000186265 ], [ 38471.25, 5954041.125 ], [ 38471.32499999999709, 5954041.125 ], [ 38471.32499999999709, 5954040.974999999627471 ], [ 38471.400000000001455, 5954040.974999999627471 ], [ 38471.400000000001455, 5954040.674999999813735 ], [ 38471.474999999998545, 5954040.674999999813735 ], [ 38471.474999999998545, 5954040.224999999627471 ], [ 38471.55000000000291, 5954040.224999999627471 ], [ 38471.55000000000291, 5954039.700000000186265 ], [ 38471.625, 5954039.700000000186265 ], [ 38471.625, 5954039.25 ], [ 38471.69999999999709, 5954039.25 ], [ 38471.69999999999709, 5954038.799999999813735 ], [ 38471.775000000001455, 5954038.799999999813735 ], [ 38471.775000000001455, 5954038.5 ], [ 38471.849999999998545, 5954038.5 ], [ 38471.849999999998545, 5954038.200000000186265 ], [ 38471.92500000000291, 5954038.200000000186265 ], [ 38471.92500000000291, 5954037.900000000372529 ], [ 38472.0, 5954037.900000000372529 ], [ 38472.0, 5954037.674999999813735 ], [ 38472.07499999999709, 5954037.674999999813735 ], [ 38472.07499999999709, 5954037.375 ], [ 38472.150000000001455, 5954037.375 ], [ 38472.150000000001455, 5954037.150000000372529 ], [ 38472.224999999998545, 5954037.150000000372529 ], [ 38472.224999999998545, 5954036.924999999813735 ], [ 38472.30000000000291, 5954036.924999999813735 ], [ 38472.30000000000291, 5954036.700000000186265 ], [ 38472.375, 5954036.700000000186265 ], [ 38472.375, 5954036.400000000372529 ], [ 38472.44999999999709, 5954036.400000000372529 ], [ 38472.44999999999709, 5954036.174999999813735 ], [ 38472.525000000001455, 5954036.174999999813735 ], [ 38472.525000000001455, 5954035.950000000186265 ], [ 38472.599999999998545, 5954035.950000000186265 ], [ 38472.599999999998545, 5954035.799999999813735 ], [ 38472.67500000000291, 5954035.799999999813735 ], [ 38472.67500000000291, 5954035.575000000186265 ], [ 38472.75, 5954035.575000000186265 ], [ 38472.75, 5954035.424999999813735 ], [ 38472.82499999999709, 5954035.424999999813735 ], [ 38472.82499999999709, 5954035.275000000372529 ], [ 38472.900000000001455, 5954035.275000000372529 ], [ 38472.900000000001455, 5954035.125 ], [ 38472.974999999998545, 5954035.125 ], [ 38472.974999999998545, 5954034.825000000186265 ], [ 38473.05000000000291, 5954034.825000000186265 ], [ 38473.05000000000291, 5954034.450000000186265 ], [ 38473.125, 5954034.450000000186265 ], [ 38473.125, 5954033.924999999813735 ], [ 38473.19999999999709, 5954033.924999999813735 ], [ 38473.19999999999709, 5954033.325000000186265 ], [ 38473.275000000001455, 5954033.325000000186265 ], [ 38473.275000000001455, 5954032.650000000372529 ], [ 38473.349999999998545, 5954032.650000000372529 ], [ 38473.349999999998545, 5954031.75 ], [ 38473.42500000000291, 5954031.75 ], [ 38473.42500000000291, 5954030.849999999627471 ], [ 38473.5, 5954030.849999999627471 ], [ 38473.5, 5954029.875 ], [ 38473.57499999999709, 5954029.875 ], [ 38473.57499999999709, 5954029.125 ], [ 38473.650000000001455, 5954029.125 ], [ 38473.650000000001455, 5954028.674999999813735 ], [ 38473.724999999998545, 5954028.674999999813735 ], [ 38473.724999999998545, 5954028.375 ], [ 38473.80000000000291, 5954028.375 ], [ 38473.80000000000291, 5954028.075000000186265 ], [ 38473.875, 5954028.075000000186265 ], [ 38473.875, 5954027.775000000372529 ], [ 38473.94999999999709, 5954027.775000000372529 ], [ 38473.94999999999709, 5954027.474999999627471 ], [ 38474.025000000001455, 5954027.474999999627471 ], [ 38474.025000000001455, 5954027.25 ], [ 38474.099999999998545, 5954027.25 ], [ 38474.099999999998545, 5954027.099999999627471 ], [ 38474.17500000000291, 5954027.099999999627471 ], [ 38474.17500000000291, 5954027.025000000372529 ], [ 38474.25, 5954027.025000000372529 ], [ 38474.25, 5954026.950000000186265 ], [ 38474.32499999999709, 5954026.950000000186265 ], [ 38474.32499999999709, 5954026.799999999813735 ], [ 38474.400000000001455, 5954026.799999999813735 ], [ 38474.400000000001455, 5954026.724999999627471 ], [ 38474.474999999998545, 5954026.724999999627471 ], [ 38474.474999999998545, 5954026.650000000372529 ], [ 38474.55000000000291, 5954026.650000000372529 ], [ 38474.55000000000291, 5954026.575000000186265 ], [ 38474.625, 5954026.575000000186265 ], [ 38474.625, 5954026.5 ], [ 38474.775000000001455, 5954026.5 ], [ 38474.775000000001455, 5954026.424999999813735 ], [ 38474.849999999998545, 5954026.424999999813735 ], [ 38474.849999999998545, 5954026.349999999627471 ], [ 38474.92500000000291, 5954026.349999999627471 ], [ 38474.92500000000291, 5954026.275000000372529 ], [ 38475.07499999999709, 5954026.275000000372529 ], [ 38475.07499999999709, 5954026.200000000186265 ], [ 38475.150000000001455, 5954026.200000000186265 ], [ 38475.150000000001455, 5954026.125 ], [ 38475.224999999998545, 5954026.125 ], [ 38475.224999999998545, 5954025.974999999627471 ], [ 38475.30000000000291, 5954025.974999999627471 ], [ 38475.30000000000291, 5954025.900000000372529 ], [ 38475.375, 5954025.900000000372529 ], [ 38475.375, 5954025.825000000186265 ], [ 38475.44999999999709, 5954025.825000000186265 ], [ 38475.44999999999709, 5954025.75 ], [ 38475.525000000001455, 5954025.75 ], [ 38475.525000000001455, 5954025.599999999627471 ], [ 38475.599999999998545, 5954025.599999999627471 ], [ 38475.599999999998545, 5954025.525000000372529 ], [ 38475.67500000000291, 5954025.525000000372529 ], [ 38475.67500000000291, 5954025.375 ], [ 38475.75, 5954025.375 ], [ 38475.75, 5954025.224999999627471 ], [ 38475.82499999999709, 5954025.224999999627471 ], [ 38475.82499999999709, 5954025.075000000186265 ], [ 38475.900000000001455, 5954025.075000000186265 ], [ 38475.900000000001455, 5954024.924999999813735 ], [ 38475.974999999998545, 5954024.924999999813735 ], [ 38475.974999999998545, 5954024.849999999627471 ], [ 38476.05000000000291, 5954024.849999999627471 ], [ 38476.05000000000291, 5954024.700000000186265 ], [ 38476.125, 5954024.700000000186265 ], [ 38476.125, 5954024.625 ], [ 38476.19999999999709, 5954024.625 ], [ 38476.19999999999709, 5954024.474999999627471 ], [ 38476.275000000001455, 5954024.474999999627471 ], [ 38476.275000000001455, 5954024.400000000372529 ], [ 38476.349999999998545, 5954024.400000000372529 ], [ 38476.349999999998545, 5954024.325000000186265 ], [ 38476.42500000000291, 5954024.325000000186265 ], [ 38476.42500000000291, 5954024.25 ], [ 38476.5, 5954024.25 ], [ 38476.5, 5954024.174999999813735 ], [ 38476.57499999999709, 5954024.174999999813735 ], [ 38476.57499999999709, 5954024.099999999627471 ], [ 38476.650000000001455, 5954024.099999999627471 ], [ 38476.650000000001455, 5954024.025000000372529 ], [ 38476.724999999998545, 5954024.025000000372529 ], [ 38476.724999999998545, 5954023.950000000186265 ], [ 38476.80000000000291, 5954023.950000000186265 ], [ 38476.80000000000291, 5954023.875 ], [ 38476.875, 5954023.875 ], [ 38476.875, 5954023.799999999813735 ], [ 38477.025000000001455, 5954023.799999999813735 ], [ 38477.025000000001455, 5954023.724999999627471 ], [ 38477.099999999998545, 5954023.724999999627471 ], [ 38477.099999999998545, 5954023.650000000372529 ], [ 38477.17500000000291, 5954023.650000000372529 ], [ 38477.17500000000291, 5954023.575000000186265 ], [ 38477.25, 5954023.575000000186265 ], [ 38477.25, 5954023.5 ], [ 38477.32499999999709, 5954023.5 ], [ 38477.32499999999709, 5954023.424999999813735 ], [ 38477.400000000001455, 5954023.424999999813735 ], [ 38477.400000000001455, 5954023.275000000372529 ], [ 38477.474999999998545, 5954023.275000000372529 ], [ 38477.474999999998545, 5954023.200000000186265 ], [ 38477.55000000000291, 5954023.200000000186265 ], [ 38477.55000000000291, 5954023.125 ], [ 38477.625, 5954023.125 ], [ 38477.625, 5954023.049999999813735 ], [ 38477.69999999999709, 5954023.049999999813735 ], [ 38477.69999999999709, 5954022.900000000372529 ], [ 38477.775000000001455, 5954022.900000000372529 ], [ 38477.775000000001455, 5954022.825000000186265 ], [ 38477.849999999998545, 5954022.825000000186265 ], [ 38477.849999999998545, 5954022.75 ], [ 38477.92500000000291, 5954022.75 ], [ 38477.92500000000291, 5954022.674999999813735 ], [ 38478.07499999999709, 5954022.674999999813735 ], [ 38478.07499999999709, 5954022.599999999627471 ], [ 38478.150000000001455, 5954022.599999999627471 ], [ 38478.150000000001455, 5954022.525000000372529 ], [ 38478.224999999998545, 5954022.525000000372529 ], [ 38478.224999999998545, 5954022.450000000186265 ], [ 38478.30000000000291, 5954022.450000000186265 ], [ 38478.30000000000291, 5954022.375 ], [ 38478.44999999999709, 5954022.375 ], [ 38478.44999999999709, 5954022.299999999813735 ], [ 38478.525000000001455, 5954022.299999999813735 ], [ 38478.525000000001455, 5954022.224999999627471 ], [ 38478.67500000000291, 5954022.224999999627471 ], [ 38478.67500000000291, 5954022.150000000372529 ], [ 38478.75, 5954022.150000000372529 ], [ 38478.75, 5954022.075000000186265 ], [ 38478.900000000001455, 5954022.075000000186265 ], [ 38478.900000000001455, 5954022.0 ], [ 38479.05000000000291, 5954022.0 ], [ 38479.05000000000291, 5954021.924999999813735 ], [ 38479.125, 5954021.924999999813735 ], [ 38479.125, 5954021.849999999627471 ], [ 38479.275000000001455, 5954021.849999999627471 ], [ 38479.275000000001455, 5954021.775000000372529 ], [ 38479.349999999998545, 5954021.775000000372529 ], [ 38479.349999999998545, 5954021.700000000186265 ], [ 38479.5, 5954021.700000000186265 ], [ 38479.5, 5954021.625 ], [ 38479.57499999999709, 5954021.625 ], [ 38479.57499999999709, 5954021.549999999813735 ], [ 38479.650000000001455, 5954021.549999999813735 ], [ 38479.650000000001455, 5954021.474999999627471 ], [ 38479.724999999998545, 5954021.474999999627471 ], [ 38479.724999999998545, 5954021.400000000372529 ], [ 38479.80000000000291, 5954021.400000000372529 ], [ 38479.80000000000291, 5954021.325000000186265 ], [ 38479.875, 5954021.325000000186265 ], [ 38479.875, 5954021.25 ], [ 38479.94999999999709, 5954021.25 ], [ 38479.94999999999709, 5954021.099999999627471 ], [ 38480.025000000001455, 5954021.099999999627471 ], [ 38480.025000000001455, 5954021.025000000372529 ], [ 38480.099999999998545, 5954021.025000000372529 ], [ 38480.099999999998545, 5954020.950000000186265 ], [ 38480.17500000000291, 5954020.950000000186265 ], [ 38480.17500000000291, 5954020.875 ], [ 38480.25, 5954020.875 ], [ 38480.25, 5954020.799999999813735 ], [ 38480.32499999999709, 5954020.799999999813735 ], [ 38480.32499999999709, 5954020.724999999627471 ], [ 38480.400000000001455, 5954020.724999999627471 ], [ 38480.400000000001455, 5954020.650000000372529 ], [ 38480.55000000000291, 5954020.650000000372529 ], [ 38480.55000000000291, 5954020.575000000186265 ], [ 38480.625, 5954020.575000000186265 ], [ 38480.625, 5954020.5 ], [ 38480.69999999999709, 5954020.5 ], [ 38480.69999999999709, 5954020.424999999813735 ], [ 38480.849999999998545, 5954020.424999999813735 ], [ 38480.849999999998545, 5954020.349999999627471 ], [ 38480.92500000000291, 5954020.349999999627471 ], [ 38480.92500000000291, 5954020.275000000372529 ], [ 38481.07499999999709, 5954020.275000000372529 ], [ 38481.07499999999709, 5954020.200000000186265 ], [ 38481.150000000001455, 5954020.200000000186265 ], [ 38481.150000000001455, 5954020.125 ], [ 38481.30000000000291, 5954020.125 ], [ 38481.30000000000291, 5954020.049999999813735 ], [ 38481.375, 5954020.049999999813735 ], [ 38481.375, 5954019.974999999627471 ], [ 38481.44999999999709, 5954019.974999999627471 ], [ 38481.44999999999709, 5954019.900000000372529 ], [ 38481.599999999998545, 5954019.900000000372529 ], [ 38481.599999999998545, 5954019.825000000186265 ], [ 38481.67500000000291, 5954019.825000000186265 ], [ 38481.67500000000291, 5954019.75 ], [ 38481.82499999999709, 5954019.75 ], [ 38481.82499999999709, 5954019.674999999813735 ], [ 38481.900000000001455, 5954019.674999999813735 ], [ 38481.900000000001455, 5954019.599999999627471 ], [ 38481.974999999998545, 5954019.599999999627471 ], [ 38481.974999999998545, 5954019.525000000372529 ], [ 38482.125, 5954019.525000000372529 ], [ 38482.125, 5954019.450000000186265 ], [ 38482.19999999999709, 5954019.450000000186265 ], [ 38482.19999999999709, 5954019.299999999813735 ], [ 38482.275000000001455, 5954019.299999999813735 ], [ 38482.275000000001455, 5954019.224999999627471 ], [ 38482.349999999998545, 5954019.224999999627471 ], [ 38482.349999999998545, 5954019.150000000372529 ], [ 38482.42500000000291, 5954019.150000000372529 ], [ 38482.42500000000291, 5954019.075000000186265 ], [ 38482.5, 5954019.075000000186265 ], [ 38482.5, 5954019.0 ], [ 38482.57499999999709, 5954019.0 ], [ 38482.57499999999709, 5954018.849999999627471 ], [ 38482.650000000001455, 5954018.849999999627471 ], [ 38482.650000000001455, 5954018.775000000372529 ], [ 38482.724999999998545, 5954018.775000000372529 ], [ 38482.724999999998545, 5954018.700000000186265 ], [ 38482.875, 5954018.700000000186265 ], [ 38482.875, 5954018.625 ], [ 38483.099999999998545, 5954018.625 ], [ 38483.099999999998545, 5954018.549999999813735 ], [ 38483.32499999999709, 5954018.549999999813735 ], [ 38483.32499999999709, 5954018.474999999627471 ], [ 38483.55000000000291, 5954018.474999999627471 ], [ 38483.55000000000291, 5954018.400000000372529 ], [ 38483.775000000001455, 5954018.400000000372529 ], [ 38483.775000000001455, 5954018.325000000186265 ], [ 38484.07499999999709, 5954018.325000000186265 ], [ 38484.07499999999709, 5954018.25 ], [ 38484.30000000000291, 5954018.25 ], [ 38484.30000000000291, 5954018.174999999813735 ], [ 38484.599999999998545, 5954018.174999999813735 ], [ 38484.599999999998545, 5954018.099999999627471 ], [ 38484.82499999999709, 5954018.099999999627471 ], [ 38484.82499999999709, 5954018.174999999813735 ], [ 38484.974999999998545, 5954018.174999999813735 ], [ 38484.974999999998545, 5954018.25 ], [ 38485.125, 5954018.25 ], [ 38485.125, 5954018.325000000186265 ], [ 38485.275000000001455, 5954018.325000000186265 ], [ 38485.275000000001455, 5954018.400000000372529 ], [ 38485.42500000000291, 5954018.400000000372529 ], [ 38485.42500000000291, 5954018.474999999627471 ], [ 38485.57499999999709, 5954018.474999999627471 ], [ 38485.57499999999709, 5954018.549999999813735 ], [ 38485.724999999998545, 5954018.549999999813735 ], [ 38485.724999999998545, 5954018.625 ], [ 38485.875, 5954018.625 ], [ 38485.875, 5954018.700000000186265 ], [ 38486.025000000001455, 5954018.700000000186265 ], [ 38486.025000000001455, 5954018.775000000372529 ], [ 38486.17500000000291, 5954018.775000000372529 ], [ 38486.17500000000291, 5954018.849999999627471 ], [ 38486.32499999999709, 5954018.849999999627471 ], [ 38486.32499999999709, 5954018.924999999813735 ], [ 38486.474999999998545, 5954018.924999999813735 ], [ 38486.474999999998545, 5954019.0 ], [ 38486.625, 5954019.0 ], [ 38486.625, 5954019.075000000186265 ], [ 38486.775000000001455, 5954019.075000000186265 ], [ 38486.775000000001455, 5954019.150000000372529 ], [ 38486.92500000000291, 5954019.150000000372529 ], [ 38486.92500000000291, 5954019.224999999627471 ], [ 38487.07499999999709, 5954019.224999999627471 ], [ 38487.07499999999709, 5954019.299999999813735 ], [ 38487.224999999998545, 5954019.299999999813735 ], [ 38487.224999999998545, 5954019.375 ], [ 38487.375, 5954019.375 ], [ 38487.375, 5954019.450000000186265 ], [ 38487.599999999998545, 5954019.450000000186265 ], [ 38487.599999999998545, 5954019.525000000372529 ], [ 38487.82499999999709, 5954019.525000000372529 ], [ 38487.82499999999709, 5954019.599999999627471 ], [ 38488.125, 5954019.599999999627471 ], [ 38488.125, 5954019.674999999813735 ], [ 38488.349999999998545, 5954019.674999999813735 ], [ 38488.349999999998545, 5954019.75 ], [ 38488.650000000001455, 5954019.75 ], [ 38488.650000000001455, 5954019.825000000186265 ], [ 38489.025000000001455, 5954019.825000000186265 ], [ 38489.025000000001455, 5954019.900000000372529 ], [ 38489.400000000001455, 5954019.900000000372529 ], [ 38489.400000000001455, 5954019.974999999627471 ], [ 38489.775000000001455, 5954019.974999999627471 ], [ 38489.775000000001455, 5954020.049999999813735 ], [ 38490.224999999998545, 5954020.049999999813735 ], [ 38490.224999999998545, 5954020.125 ], [ 38490.67500000000291, 5954020.125 ], [ 38490.67500000000291, 5954020.200000000186265 ], [ 38490.900000000001455, 5954020.200000000186265 ], [ 38490.900000000001455, 5954020.275000000372529 ], [ 38491.19999999999709, 5954020.275000000372529 ], [ 38491.19999999999709, 5954020.349999999627471 ], [ 38491.42500000000291, 5954020.349999999627471 ], [ 38491.42500000000291, 5954020.424999999813735 ], [ 38491.650000000001455, 5954020.424999999813735 ], [ 38491.650000000001455, 5954020.5 ], [ 38491.875, 5954020.5 ], [ 38491.875, 5954020.575000000186265 ], [ 38492.099999999998545, 5954020.575000000186265 ], [ 38492.099999999998545, 5954020.650000000372529 ], [ 38492.25, 5954020.650000000372529 ], [ 38492.25, 5954020.724999999627471 ], [ 38492.474999999998545, 5954020.724999999627471 ], [ 38492.474999999998545, 5954020.799999999813735 ], [ 38492.625, 5954020.799999999813735 ], [ 38492.625, 5954020.875 ], [ 38492.69999999999709, 5954020.875 ], [ 38492.69999999999709, 5954020.950000000186265 ], [ 38492.775000000001455, 5954020.950000000186265 ], [ 38492.775000000001455, 5954021.025000000372529 ], [ 38492.92500000000291, 5954021.025000000372529 ], [ 38492.92500000000291, 5954021.099999999627471 ], [ 38493.0, 5954021.099999999627471 ], [ 38493.0, 5954021.174999999813735 ], [ 38493.07499999999709, 5954021.174999999813735 ], [ 38493.07499999999709, 5954021.25 ], [ 38493.150000000001455, 5954021.25 ], [ 38493.150000000001455, 5954021.400000000372529 ], [ 38493.224999999998545, 5954021.400000000372529 ], [ 38493.224999999998545, 5954021.474999999627471 ], [ 38493.30000000000291, 5954021.474999999627471 ], [ 38493.30000000000291, 5954021.549999999813735 ], [ 38493.375, 5954021.549999999813735 ], [ 38493.375, 5954021.625 ], [ 38493.44999999999709, 5954021.625 ], [ 38493.44999999999709, 5954021.700000000186265 ], [ 38493.525000000001455, 5954021.700000000186265 ], [ 38493.525000000001455, 5954021.775000000372529 ], [ 38493.599999999998545, 5954021.775000000372529 ], [ 38493.599999999998545, 5954021.924999999813735 ], [ 38493.67500000000291, 5954021.924999999813735 ], [ 38493.67500000000291, 5954022.0 ], [ 38493.75, 5954022.0 ], [ 38493.75, 5954022.075000000186265 ], [ 38493.82499999999709, 5954022.075000000186265 ], [ 38493.82499999999709, 5954022.150000000372529 ], [ 38493.900000000001455, 5954022.150000000372529 ], [ 38493.900000000001455, 5954022.224999999627471 ], [ 38493.974999999998545, 5954022.224999999627471 ], [ 38493.974999999998545, 5954022.299999999813735 ], [ 38494.05000000000291, 5954022.299999999813735 ], [ 38494.05000000000291, 5954022.375 ], [ 38494.19999999999709, 5954022.375 ], [ 38494.19999999999709, 5954022.450000000186265 ], [ 38494.275000000001455, 5954022.450000000186265 ], [ 38494.275000000001455, 5954022.525000000372529 ], [ 38494.349999999998545, 5954022.525000000372529 ], [ 38494.349999999998545, 5954022.599999999627471 ], [ 38494.42500000000291, 5954022.599999999627471 ], [ 38494.42500000000291, 5954022.674999999813735 ], [ 38494.5, 5954022.674999999813735 ], [ 38494.5, 5954022.75 ], [ 38494.57499999999709, 5954022.75 ], [ 38494.57499999999709, 5954022.825000000186265 ], [ 38494.650000000001455, 5954022.825000000186265 ], [ 38494.650000000001455, 5954022.900000000372529 ], [ 38494.724999999998545, 5954022.900000000372529 ], [ 38494.724999999998545, 5954022.974999999627471 ], [ 38494.80000000000291, 5954022.974999999627471 ], [ 38494.80000000000291, 5954023.049999999813735 ], [ 38494.875, 5954023.049999999813735 ], [ 38494.875, 5954023.125 ], [ 38494.94999999999709, 5954023.125 ], [ 38494.94999999999709, 5954023.200000000186265 ], [ 38495.025000000001455, 5954023.200000000186265 ], [ 38495.025000000001455, 5954023.349999999627471 ], [ 38495.099999999998545, 5954023.349999999627471 ], [ 38495.099999999998545, 5954023.575000000186265 ], [ 38495.17500000000291, 5954023.575000000186265 ], [ 38495.17500000000291, 5954023.724999999627471 ], [ 38495.25, 5954023.724999999627471 ], [ 38495.25, 5954023.950000000186265 ], [ 38495.32499999999709, 5954023.950000000186265 ], [ 38495.32499999999709, 5954024.174999999813735 ], [ 38495.400000000001455, 5954024.174999999813735 ], [ 38495.400000000001455, 5954024.400000000372529 ], [ 38495.474999999998545, 5954024.400000000372529 ], [ 38495.474999999998545, 5954024.700000000186265 ], [ 38495.55000000000291, 5954024.700000000186265 ], [ 38495.55000000000291, 5954024.924999999813735 ], [ 38495.625, 5954024.924999999813735 ], [ 38495.625, 5954025.224999999627471 ], [ 38495.69999999999709, 5954025.224999999627471 ], [ 38495.69999999999709, 5954025.525000000372529 ], [ 38495.775000000001455, 5954025.525000000372529 ], [ 38495.775000000001455, 5954025.825000000186265 ], [ 38495.849999999998545, 5954025.825000000186265 ], [ 38495.849999999998545, 5954026.049999999813735 ], [ 38495.92500000000291, 5954026.049999999813735 ], [ 38495.92500000000291, 5954026.275000000372529 ], [ 38496.0, 5954026.275000000372529 ], [ 38496.0, 5954026.5 ], [ 38496.07499999999709, 5954026.5 ], [ 38496.07499999999709, 5954026.724999999627471 ], [ 38496.150000000001455, 5954026.724999999627471 ], [ 38496.150000000001455, 5954026.950000000186265 ], [ 38496.224999999998545, 5954026.950000000186265 ], [ 38496.224999999998545, 5954027.099999999627471 ], [ 38496.30000000000291, 5954027.099999999627471 ], [ 38496.30000000000291, 5954027.775000000372529 ], [ 38496.224999999998545, 5954027.775000000372529 ], [ 38496.224999999998545, 5954028.450000000186265 ], [ 38496.150000000001455, 5954028.450000000186265 ], [ 38496.150000000001455, 5954029.200000000186265 ], [ 38496.07499999999709, 5954029.200000000186265 ], [ 38496.07499999999709, 5954029.424999999813735 ], [ 38496.0, 5954029.424999999813735 ], [ 38496.0, 5954029.650000000372529 ], [ 38495.92500000000291, 5954029.650000000372529 ], [ 38495.92500000000291, 5954029.950000000186265 ], [ 38495.849999999998545, 5954029.950000000186265 ], [ 38495.849999999998545, 5954030.25 ], [ 38495.775000000001455, 5954030.25 ], [ 38495.775000000001455, 5954030.549999999813735 ], [ 38495.69999999999709, 5954030.549999999813735 ], [ 38495.69999999999709, 5954030.849999999627471 ], [ 38495.625, 5954030.849999999627471 ], [ 38495.625, 5954031.224999999627471 ], [ 38495.55000000000291, 5954031.224999999627471 ], [ 38495.55000000000291, 5954031.525000000372529 ], [ 38495.474999999998545, 5954031.525000000372529 ], [ 38495.474999999998545, 5954031.75 ], [ 38495.400000000001455, 5954031.75 ], [ 38495.400000000001455, 5954031.974999999627471 ], [ 38495.32499999999709, 5954031.974999999627471 ], [ 38495.32499999999709, 5954032.200000000186265 ], [ 38495.25, 5954032.200000000186265 ], [ 38495.25, 5954032.424999999813735 ], [ 38495.17500000000291, 5954032.424999999813735 ], [ 38495.17500000000291, 5954032.575000000186265 ], [ 38495.099999999998545, 5954032.575000000186265 ], [ 38495.099999999998545, 5954032.724999999627471 ], [ 38495.025000000001455, 5954032.724999999627471 ], [ 38495.025000000001455, 5954032.875 ], [ 38494.94999999999709, 5954032.875 ], [ 38494.94999999999709, 5954033.025000000372529 ], [ 38494.875, 5954033.025000000372529 ], [ 38494.875, 5954033.174999999813735 ], [ 38494.80000000000291, 5954033.174999999813735 ], [ 38494.80000000000291, 5954033.25 ], [ 38494.724999999998545, 5954033.25 ], [ 38494.724999999998545, 5954033.400000000372529 ], [ 38494.650000000001455, 5954033.400000000372529 ], [ 38494.650000000001455, 5954033.474999999627471 ], [ 38494.57499999999709, 5954033.474999999627471 ], [ 38494.57499999999709, 5954033.549999999813735 ], [ 38494.5, 5954033.549999999813735 ], [ 38494.5, 5954033.700000000186265 ], [ 38494.42500000000291, 5954033.700000000186265 ], [ 38494.42500000000291, 5954033.775000000372529 ], [ 38494.349999999998545, 5954033.775000000372529 ], [ 38494.349999999998545, 5954033.849999999627471 ], [ 38494.275000000001455, 5954033.849999999627471 ], [ 38494.275000000001455, 5954034.0 ], [ 38494.19999999999709, 5954034.0 ], [ 38494.19999999999709, 5954034.150000000372529 ], [ 38494.125, 5954034.150000000372529 ], [ 38494.125, 5954034.224999999627471 ], [ 38494.05000000000291, 5954034.224999999627471 ], [ 38494.05000000000291, 5954034.375 ], [ 38493.974999999998545, 5954034.375 ], [ 38493.974999999998545, 5954034.525000000372529 ], [ 38493.900000000001455, 5954034.525000000372529 ], [ 38493.900000000001455, 5954034.674999999813735 ], [ 38493.82499999999709, 5954034.674999999813735 ], [ 38493.82499999999709, 5954034.900000000372529 ], [ 38493.75, 5954034.900000000372529 ], [ 38493.75, 5954035.049999999813735 ], [ 38493.67500000000291, 5954035.049999999813735 ], [ 38493.67500000000291, 5954035.424999999813735 ], [ 38493.599999999998545, 5954035.424999999813735 ], [ 38493.599999999998545, 5954035.724999999627471 ], [ 38493.525000000001455, 5954035.724999999627471 ], [ 38493.525000000001455, 5954036.025000000372529 ], [ 38493.44999999999709, 5954036.025000000372529 ], [ 38493.44999999999709, 5954036.25 ], [ 38493.375, 5954036.25 ], [ 38493.375, 5954036.549999999813735 ], [ 38493.30000000000291, 5954036.549999999813735 ], [ 38493.30000000000291, 5954036.775000000372529 ], [ 38493.224999999998545, 5954036.775000000372529 ], [ 38493.224999999998545, 5954037.0 ], [ 38493.150000000001455, 5954037.0 ], [ 38493.150000000001455, 5954037.150000000372529 ], [ 38493.224999999998545, 5954037.150000000372529 ], [ 38493.224999999998545, 5954037.900000000372529 ], [ 38493.30000000000291, 5954037.900000000372529 ], [ 38493.30000000000291, 5954038.724999999627471 ], [ 38493.375, 5954038.724999999627471 ], [ 38493.375, 5954040.075000000186265 ], [ 38493.44999999999709, 5954040.075000000186265 ], [ 38493.44999999999709, 5954044.799999999813735 ], [ 38493.375, 5954044.799999999813735 ], [ 38493.375, 5954045.549999999813735 ], [ 38493.30000000000291, 5954045.549999999813735 ], [ 38493.30000000000291, 5954046.224999999627471 ], [ 38493.224999999998545, 5954046.224999999627471 ], [ 38493.224999999998545, 5954046.825000000186265 ], [ 38493.150000000001455, 5954046.825000000186265 ], [ 38493.150000000001455, 5954047.275000000372529 ], [ 38493.07499999999709, 5954047.275000000372529 ], [ 38493.07499999999709, 5954047.650000000372529 ], [ 38493.0, 5954047.650000000372529 ], [ 38493.0, 5954048.025000000372529 ], [ 38492.92500000000291, 5954048.025000000372529 ], [ 38492.92500000000291, 5954048.325000000186265 ], [ 38492.849999999998545, 5954048.325000000186265 ], [ 38492.849999999998545, 5954048.700000000186265 ], [ 38492.775000000001455, 5954048.700000000186265 ], [ 38492.775000000001455, 5954048.924999999813735 ], [ 38492.69999999999709, 5954048.924999999813735 ], [ 38492.69999999999709, 5954049.150000000372529 ], [ 38492.625, 5954049.150000000372529 ], [ 38492.625, 5954049.375 ], [ 38492.55000000000291, 5954049.375 ], [ 38492.55000000000291, 5954049.525000000372529 ], [ 38492.474999999998545, 5954049.525000000372529 ], [ 38492.474999999998545, 5954049.674999999813735 ], [ 38492.400000000001455, 5954049.674999999813735 ], [ 38492.400000000001455, 5954049.825000000186265 ], [ 38492.32499999999709, 5954049.825000000186265 ], [ 38492.32499999999709, 5954049.974999999627471 ], [ 38492.25, 5954049.974999999627471 ], [ 38492.25, 5954050.200000000186265 ], [ 38492.17500000000291, 5954050.200000000186265 ], [ 38492.17500000000291, 5954050.349999999627471 ], [ 38492.099999999998545, 5954050.349999999627471 ], [ 38492.099999999998545, 5954050.575000000186265 ], [ 38492.025000000001455, 5954050.575000000186265 ], [ 38492.025000000001455, 5954050.724999999627471 ], [ 38491.94999999999709, 5954050.724999999627471 ], [ 38491.94999999999709, 5954050.799999999813735 ], [ 38491.875, 5954050.799999999813735 ], [ 38491.875, 5954050.875 ], [ 38491.80000000000291, 5954050.875 ], [ 38491.80000000000291, 5954050.950000000186265 ], [ 38491.724999999998545, 5954050.950000000186265 ], [ 38491.724999999998545, 5954051.025000000372529 ], [ 38491.57499999999709, 5954051.025000000372529 ], [ 38491.57499999999709, 5954051.099999999627471 ], [ 38491.5, 5954051.099999999627471 ], [ 38491.5, 5954051.174999999813735 ], [ 38491.349999999998545, 5954051.174999999813735 ], [ 38491.349999999998545, 5954051.25 ], [ 38491.275000000001455, 5954051.25 ], [ 38491.275000000001455, 5954051.325000000186265 ], [ 38491.125, 5954051.325000000186265 ], [ 38491.125, 5954051.400000000372529 ], [ 38491.05000000000291, 5954051.400000000372529 ], [ 38491.05000000000291, 5954051.474999999627471 ], [ 38490.900000000001455, 5954051.474999999627471 ], [ 38490.900000000001455, 5954051.549999999813735 ], [ 38490.75, 5954051.549999999813735 ], [ 38490.75, 5954051.625 ], [ 38490.599999999998545, 5954051.625 ], [ 38490.599999999998545, 5954051.700000000186265 ], [ 38490.30000000000291, 5954051.700000000186265 ], [ 38490.30000000000291, 5954051.775000000372529 ], [ 38490.0, 5954051.775000000372529 ], [ 38490.0, 5954051.849999999627471 ], [ 38489.69999999999709, 5954051.849999999627471 ], [ 38489.69999999999709, 5954051.924999999813735 ], [ 38489.474999999998545, 5954051.924999999813735 ], [ 38489.474999999998545, 5954052.0 ], [ 38489.25, 5954052.0 ], [ 38489.25, 5954052.075000000186265 ], [ 38489.025000000001455, 5954052.075000000186265 ], [ 38489.025000000001455, 5954052.150000000372529 ], [ 38488.875, 5954052.150000000372529 ], [ 38488.875, 5954052.224999999627471 ], [ 38488.650000000001455, 5954052.224999999627471 ], [ 38488.650000000001455, 5954052.299999999813735 ], [ 38488.5, 5954052.299999999813735 ], [ 38488.5, 5954052.375 ], [ 38488.349999999998545, 5954052.375 ], [ 38488.349999999998545, 5954052.450000000186265 ], [ 38488.19999999999709, 5954052.450000000186265 ], [ 38488.19999999999709, 5954052.525000000372529 ], [ 38488.05000000000291, 5954052.525000000372529 ], [ 38488.05000000000291, 5954052.599999999627471 ], [ 38487.974999999998545, 5954052.599999999627471 ], [ 38487.974999999998545, 5954052.674999999813735 ], [ 38487.82499999999709, 5954052.674999999813735 ], [ 38487.82499999999709, 5954052.75 ], [ 38487.599999999998545, 5954052.75 ], [ 38487.599999999998545, 5954052.825000000186265 ], [ 38487.44999999999709, 5954052.825000000186265 ], [ 38487.44999999999709, 5954052.900000000372529 ], [ 38487.224999999998545, 5954052.900000000372529 ], [ 38487.224999999998545, 5954052.974999999627471 ], [ 38487.07499999999709, 5954052.974999999627471 ], [ 38487.07499999999709, 5954053.049999999813735 ], [ 38486.849999999998545, 5954053.049999999813735 ], [ 38486.849999999998545, 5954053.125 ], [ 38486.55000000000291, 5954053.125 ], [ 38486.55000000000291, 5954053.200000000186265 ], [ 38486.099999999998545, 5954053.200000000186265 ], [ 38486.099999999998545, 5954053.275000000372529 ], [ 38485.650000000001455, 5954053.275000000372529 ], [ 38485.650000000001455, 5954053.349999999627471 ], [ 38485.19999999999709, 5954053.349999999627471 ], [ 38485.19999999999709, 5954053.424999999813735 ], [ 38484.44999999999709, 5954053.424999999813735 ], [ 38484.44999999999709, 5954053.5 ], [ 38482.349999999998545, 5954053.5 ], [ 38482.349999999998545, 5954053.424999999813735 ], [ 38481.67500000000291, 5954053.424999999813735 ], [ 38481.67500000000291, 5954053.349999999627471 ], [ 38481.07499999999709, 5954053.349999999627471 ], [ 38481.07499999999709, 5954053.275000000372529 ], [ 38480.625, 5954053.275000000372529 ], [ 38480.625, 5954053.200000000186265 ], [ 38480.32499999999709, 5954053.200000000186265 ], [ 38480.32499999999709, 5954053.125 ], [ 38480.099999999998545, 5954053.125 ], [ 38480.099999999998545, 5954053.049999999813735 ], [ 38479.875, 5954053.049999999813735 ], [ 38479.875, 5954052.974999999627471 ], [ 38479.650000000001455, 5954052.974999999627471 ], [ 38479.650000000001455, 5954052.900000000372529 ], [ 38479.42500000000291, 5954052.900000000372529 ], [ 38479.42500000000291, 5954052.825000000186265 ], [ 38479.275000000001455, 5954052.825000000186265 ], [ 38479.275000000001455, 5954052.75 ], [ 38479.125, 5954052.75 ], [ 38479.125, 5954052.674999999813735 ], [ 38478.974999999998545, 5954052.674999999813735 ], [ 38478.974999999998545, 5954052.599999999627471 ], [ 38478.75, 5954052.599999999627471 ], [ 38478.75, 5954052.525000000372529 ], [ 38478.525000000001455, 5954052.525000000372529 ], [ 38478.525000000001455, 5954052.450000000186265 ], [ 38478.224999999998545, 5954052.450000000186265 ], [ 38478.224999999998545, 5954052.375 ], [ 38478.0, 5954052.375 ], [ 38478.0, 5954052.299999999813735 ], [ 38477.625, 5954052.299999999813735 ], [ 38477.625, 5954052.224999999627471 ], [ 38477.32499999999709, 5954052.224999999627471 ], [ 38477.32499999999709, 5954052.150000000372529 ], [ 38476.94999999999709, 5954052.150000000372529 ], [ 38476.94999999999709, 5954052.075000000186265 ], [ 38476.875, 5954052.075000000186265 ], [ 38476.875, 5954052.150000000372529 ], [ 38475.224999999998545, 5954052.150000000372529 ], [ 38475.224999999998545, 5954052.224999999627471 ], [ 38474.849999999998545, 5954052.224999999627471 ], [ 38474.849999999998545, 5954052.299999999813735 ], [ 38474.625, 5954052.299999999813735 ], [ 38474.625, 5954052.375 ], [ 38474.400000000001455, 5954052.375 ], [ 38474.400000000001455, 5954052.450000000186265 ], [ 38474.25, 5954052.450000000186265 ], [ 38474.25, 5954052.525000000372529 ], [ 38474.099999999998545, 5954052.525000000372529 ], [ 38474.099999999998545, 5954052.599999999627471 ], [ 38473.94999999999709, 5954052.599999999627471 ], [ 38473.94999999999709, 5954052.674999999813735 ], [ 38473.875, 5954052.674999999813735 ], [ 38473.875, 5954052.75 ], [ 38473.724999999998545, 5954052.75 ], [ 38473.724999999998545, 5954052.825000000186265 ], [ 38473.57499999999709, 5954052.825000000186265 ], [ 38473.57499999999709, 5954052.900000000372529 ], [ 38473.42500000000291, 5954052.900000000372529 ], [ 38473.42500000000291, 5954052.974999999627471 ], [ 38473.275000000001455, 5954052.974999999627471 ], [ 38473.275000000001455, 5954053.049999999813735 ], [ 38473.125, 5954053.049999999813735 ], [ 38473.125, 5954053.125 ], [ 38472.974999999998545, 5954053.125 ], [ 38472.974999999998545, 5954053.200000000186265 ], [ 38472.82499999999709, 5954053.200000000186265 ], [ 38472.82499999999709, 5954053.275000000372529 ], [ 38472.599999999998545, 5954053.275000000372529 ], [ 38472.599999999998545, 5954053.349999999627471 ], [ 38472.375, 5954053.349999999627471 ], [ 38472.375, 5954053.424999999813735 ], [ 38472.150000000001455, 5954053.424999999813735 ], [ 38472.150000000001455, 5954053.5 ], [ 38471.92500000000291, 5954053.5 ], [ 38471.92500000000291, 5954053.575000000186265 ], [ 38471.625, 5954053.575000000186265 ], [ 38471.625, 5954053.650000000372529 ], [ 38471.32499999999709, 5954053.650000000372529 ], [ 38471.32499999999709, 5954053.724999999627471 ], [ 38470.875, 5954053.724999999627471 ], [ 38470.875, 5954053.799999999813735 ], [ 38470.275000000001455, 5954053.799999999813735 ], [ 38470.275000000001455, 5954053.875 ], [ 38469.525000000001455, 5954053.875 ], [ 38469.525000000001455, 5954053.950000000186265 ], [ 38468.775000000001455, 5954053.950000000186265 ] ] ] } },
{ "type": "Feature", "properties": { "value": 1.0, "building_id": 2, "area": 35.516249999077139 }, "geometry": { "type": "Polygon", "coordinates": [ [ [ 38865.525000000001455, 5953459.950000000186265 ], [ 38865.525000000001455, 5953459.875 ], [ 38865.150000000001455, 5953459.875 ], [ 38865.150000000001455, 5953459.799999999813735 ], [ 38864.775000000001455, 5953459.799999999813735 ], [ 38864.775000000001455, 5953459.724999999627471 ], [ 38864.400000000001455, 5953459.724999999627471 ], [ 38864.400000000001455, 5953459.650000000372529 ], [ 38864.099999999998545, 5953459.650000000372529 ], [ 38864.099999999998545, 5953459.575000000186265 ], [ 38863.875, 5953459.575000000186265 ], [ 38863.875, 5953459.5 ], [ 38863.650000000001455, 5953459.5 ], [ 38863.650000000001455, 5953459.424999999813735 ], [ 38863.275000000001455, 5953459.424999999813735 ], [ 38863.275000000001455, 5953459.349999999627471 ], [ 38862.974999999998545, 5953459.349999999627471 ], [ 38862.974999999998545, 5953459.275000000372529 ], [ 38862.75, 5953459.275000000372529 ], [ 38862.75, 5953459.200000000186265 ], [ 38862.44999999999709, 5953459.200000000186265 ], [ 38862.44999999999709, 5953459.125 ], [ 38862.224999999998545, 5953459.125 ], [ 38862.224999999998545, 5953459.049999999813735 ], [ 38862.0, 5953459.049999999813735 ], [ 38862.0, 5953458.974999999627471 ], [ 38861.849999999998545, 5953458.974999999627471 ], [ 38861.849999999998545, 5953458.900000000372529 ], [ 38861.625, 5953458.900000000372529 ], [ 38861.625, 5953458.75 ], [ 38861.55000000000291, 5953458.75 ], [ 38861.55000000000291, 5953458.674999999813735 ], [ 38861.474999999998545, 5953458.674999999813735 ], [ 38861.474999999998545, 5953458.599999999627471 ], [ 38861.400000000001455, 5953458.599999999627471 ], [ 38861.400000000001455, 5953458.450000000186265 ], [ 38861.32499999999709, 5953458.450000000186265 ], [ 38861.32499999999709, 5953458.375 ], [ 38861.25, 5953458.375 ], [ 38861.25, 5953458.224999999627471 ], [ 38861.17500000000291, 5953458.224999999627471 ], [ 38861.17500000000291, 5953458.150000000372529 ], [ 38861.099999999998545, 5953458.150000000372529 ], [ 38861.099999999998545, 5953458.0 ], [ 38861.025000000001455, 5953458.0 ], [ 38861.025000000001455, 5953457.924999999813735 ], [ 38860.94999999999709, 5953457.924999999813735 ], [ 38860.94999999999709, 5953457.775000000372529 ], [ 38860.875, 5953457.775000000372529 ], [ 38860.875, 5953457.625 ], [ 38860.80000000000291, 5953457.625 ], [ 38860.80000000000291, 5953457.549999999813735 ], [ 38860.724999999998545, 5953457.549999999813735 ], [ 38860.724999999998545, 5953457.400000000372529 ], [ 38860.650000000001455, 5953457.400000000372529 ], [ 38860.650000000001455, 5953457.25 ], [ 38860.57499999999709, 5953457.25 ], [ 38860.57499999999709, 5953457.099999999627471 ], [ 38860.5, 5953457.099999999627471 ], [ 38860.5, 5953456.950000000186265 ], [ 38860.42500000000291, 5953456.950000000186265 ], [ 38860.42500000000291, 5953456.875 ], [ 38860.5, 5953456.875 ], [ 38860.5, 5953456.799999999813735 ], [ 38860.650000000001455, 5953456.799999999813735 ], [ 38860.650000000001455, 5953456.724999999627471 ], [ 38860.80000000000291, 5953456.724999999627471 ], [ 38860.80000000000291, 5953456.650000000372529 ], [ 38860.875, 5953456.650000000372529 ], [ 38860.875, 5953456.575000000186265 ], [ 38861.025000000001455, 5953456.575000000186265 ], [ 38861.025000000001455, 5953456.5 ], [ 38861.17500000000291, 5953456.5 ], [ 38861.17500000000291, 5953456.424999999813735 ], [ 38861.32499999999709, 5953456.424999999813735 ], [ 38861.32499999999709, 5953456.349999999627471 ], [ 38861.474999999998545, 5953456.349999999627471 ], [ 38861.474999999998545, 5953456.275000000372529 ], [ 38861.55000000000291, 5953456.275000000372529 ], [ 38861.55000000000291, 5953456.200000000186265 ], [ 38861.69999999999709, 5953456.200000000186265 ], [ 38861.69999999999709, 5953456.125 ], [ 38861.775000000001455, 5953456.125 ], [ 38861.775000000001455, 5953456.049999999813735 ], [ 38861.92500000000291, 5953456.049999999813735 ], [ 38861.92500000000291, 5953455.974999999627471 ], [ 38862.07499999999709, 5953455.974999999627471 ], [ 38862.07499999999709, 5953455.900000000372529 ], [ 38862.150000000001455, 5953455.900000000372529 ], [ 38862.150000000001455, 5953455.825000000186265 ], [ 38862.30000000000291, 5953455.825000000186265 ], [ 38862.30000000000291, 5953455.75 ], [ 38862.44999999999709, 5953455.75 ], [ 38862.44999999999709, 5953455.674999999813735 ], [ 38862.599999999998545, 5953455.674999999813735 ], [ 38862.599999999998545, 5953455.599999999627471 ], [ 38862.82499999999709, 5953455.599999999627471 ], [ 38862.82499999999709, 5953455.525000000372529 ], [ 38862.974999999998545, 5953455.525000000372529 ], [ 38862.974999999998545, 5953455.450000000186265 ], [ 38863.19999999999709, 5953455.450000000186265 ], [ 38863.19999999999709, 5953455.375 ], [ 38863.42500000000291, 5953455.375 ], [ 38863.42500000000291, 5953455.299999999813735 ], [ 38863.724999999998545, 5953455.299999999813735 ], [ 38863.724999999998545, 5953455.224999999627471 ], [ 38864.025000000001455, 5953455.224999999627471 ], [ 38864.025000000001455, 5953455.150000000372529 ], [ 38864.625, 5953455.150000000372529 ], [ 38864.625, 5953455.075000000186265 ], [ 38868.0, 5953455.075000000186265 ], [ 38868.0, 5953455.150000000372529 ], [ 38868.375, 5953455.150000000372529 ], [ 38868.375, 5953455.224999999627471 ], [ 38868.67500000000291, 5953455.224999999627471 ], [ 38868.67500000000291, 5953455.299999999813735 ], [ 38868.900000000001455, 5953455.299999999813735 ], [ 38868.900000000001455, 5953455.375 ], [ 38869.05000000000291, 5953455.375 ], [ 38869.05000000000291, 5953455.450000000186265 ], [ 38869.125, 5953455.450000000186265 ], [ 38869.125, 5953455.525000000372529 ], [ 38869.275000000001455, 5953455.525000000372529 ], [ 38869.275000000001455, 5953455.599999999627471 ], [ 38869.349999999998545, 5953455.599999999627471 ], [ 38869.349999999998545, 5953455.674999999813735 ], [ 38869.42500000000291, 5953455.674999999813735 ], [ 38869.42500000000291, 5953455.75 ], [ 38869.5, 5953455.75 ], [ 38869.5, 5953455.825000000186265 ], [ 38869.57499999999709, 5953455.825000000186265 ], [ 38869.57499999999709, 5953455.900000000372529 ], [ 38869.650000000001455, 5953455.900000000372529 ], [ 38869.650000000001455, 5953455.974999999627471 ], [ 38869.724999999998545, 5953455.974999999627471 ], [ 38869.724999999998545, 5953456.049999999813735 ], [ 38869.80000000000291, 5953456.049999999813735 ], [ 38869.80000000000291, 5953456.125 ], [ 38869.875, 5953456.125 ], [ 38869.875, 5953456.200000000186265 ], [ 38869.94999999999709, 5953456.200000000186265 ], [ 38869.94999999999709, 5953456.275000000372529 ], [ 38870.025000000001455, 5953456.275000000372529 ], [ 38870.025000000001455, 5953456.349999999627471 ], [ 38870.099999999998545, 5953456.349999999627471 ], [ 38870.099999999998545, 5953456.5 ], [ 38870.17500000000291, 5953456.5 ], [ 38870.17500000000291, 5953456.575000000186265 ], [ 38870.25, 5953456.575000000186265 ], [ 38870.25, 5953456.724999999627471 ], [ 38870.32499999999709, 5953456.724999999627471 ], [ 38870.32499999999709, 5953456.875 ], [ 38870.400000000001455, 5953456.875 ], [ 38870.400000000001455, 5953456.950000000186265 ], [ 38870.32499999999709, 5953456.950000000186265 ], [ 38870.32499999999709, 5953457.099999999627471 ], [ 38870.25, 5953457.099999999627471 ], [ 38870.25, 5953457.174999999813735 ], [ 38870.17500000000291, 5953457.174999999813735 ], [ 38870.17500000000291, 5953457.25 ], [ 38870.099999999998545, 5953457.25 ], [ 38870.099999999998545, 5953457.325000000186265 ], [ 38870.025000000001455, 5953457.325000000186265 ], [ 38870.025000000001455, 5953457.400000000372529 ], [ 38869.94999999999709, 5953457.400000000372529 ], [ 38869.94999999999709, 5953457.549999999813735 ], [ 38869.875, 5953457.549999999813735 ], [ 38869.875, 5953457.625 ], [ 38869.80000000000291, 5953457.625 ], [ 38869.80000000000291, 5953457.700000000186265 ], [ 38869.724999999998545, 5953457.700000000186265 ], [ 38869.724999999998545, 5953457.775000000372529 ], [ 38869.650000000001455, 5953457.775000000372529 ], [ 38869.650000000001455, 5953457.849999999627471 ], [ 38869.57499999999709, 5953457.849999999627471 ], [ 38869.57499999999709, 5953457.924999999813735 ], [ 38869.5, 5953457.924999999813735 ], [ 38869.5, 5953458.075000000186265 ], [ 38869.42500000000291, 5953458.075000000186265 ], [ 38869.42500000000291, 5953458.224999999627471 ], [ 38869.349999999998545, 5953458.224999999627471 ], [ 38869.349999999998545, 5953458.375 ], [ 38869.275000000001455, 5953458.375 ], [ 38869.275000000001455, 5953458.525000000372529 ], [ 38869.19999999999709, 5953458.525000000372529 ], [ 38869.19999999999709, 5953458.599999999627471 ], [ 38869.125, 5953458.599999999627471 ], [ 38869.125, 5953458.75 ], [ 38869.05000000000291, 5953458.75 ], [ 38869.05000000000291, 5953458.825000000186265 ], [ 38868.974999999998545, 5953458.825000000186265 ], [ 38868.974999999998545, 5953458.900000000372529 ], [ 38868.900000000001455, 5953458.900000000372529 ], [ 38868.900000000001455, 5953458.974999999627471 ], [ 38868.82499999999709, 5953458.974999999627471 ], [ 38868.82499999999709, 5953459.049999999813735 ], [ 38868.75, 5953459.049999999813735 ], [ 38868.75, 5953459.125 ], [ 38868.599999999998545, 5953459.125 ], [ 38868.599999999998545, 5953459.200000000186265 ], [ 38868.44999999999709, 5953459.200000000186265 ], [ 38868.44999999999709, 5953459.275000000372529 ], [ 38868.375, 5953459.275000000372529 ], [ 38868.375, 5953459.349999999627471 ], [ 38868.224999999998545, 5953459.349999999627471 ], [ 38868.224999999998545, 5953459.424999999813735 ], [ 38868.07499999999709, 5953459.424999999813735 ], [ 38868.07499999999709, 5953459.5 ], [ 38867.92500000000291, 5953459.5 ], [ 38867.92500000000291, 5953459.575000000186265 ], [ 38867.69999999999709, 5953459.575000000186265 ], [ 38867.69999999999709, 5953459.650000000372529 ], [ 38867.474999999998545, 5953459.650000000372529 ], [ 38867.474999999998545, 5953459.724999999627471 ], [ 38866.94999999999709, 5953459.724999999627471 ], [ 38866.94999999999709, 5953459.799999999813735 ], [ 38866.349999999998545, 5953459.799999999813735 ], [ 38866.349999999998545, 5953459.875 ], [ 38865.67500000000291, 5953459.875 ], [ 38865.67500000000291, 5953459.950000000186265 ], [ 38865.525000000001455, 5953459.950000000186265 ] ] ] } }
]
}
