{
"type": "FeatureCollection",
"name": "39183E594657N_buildings",
"crs": { "type": "name", "properties": { "name": "urn:ogc:def:crs:EPSG::3776" } },
"features": [
{ "type": "Feature", "properties": { "value": 1.0, "building_id": 0, "area": 200.8631249997751 }, "geometry": { "type": "Polygon", "coordinates": [ [ [ 39787.349999999998545, 5947305.825000000186265 ], [ 39787.349999999998545, 5947305.75 ], [ 39786.974999999998545, 5947305.75 ], [ 39786.974999999998545, 5947305.674999999813735 ], [ 39786.67500000000291, 5947305.674999999813735 ], [ 39786.67500000000291, 5947305.599999999627471 ], [ 39786.525000000001455, 5947305.599999999627471 ], [ 39786.525000000001455, 5947305.525000000372529 ], [ 39786.30000000000291, 5947305.525000000372529 ], [ 39786.30000000000291, 5947305.450000000186265 ], [ 39786.150000000001455, 5947305.450000000186265 ], [ 39786.150000000001455, 5947305.375 ], [ 39786.07499999999709, 5947305.375 ], [ 39786.07499999999709, 5947305.299999999813735 ], [ 39786.0, 5947305.299999999813735 ], [ 39786.0, 5947305.224999999627471 ], [ 39785.92500000000291, 5947305.224999999627471 ], [ 39785.92500000000291, 5947305.150000000372529 ], [ 39785.849999999998545, 5947305.150000000372529 ], [ 39785.849999999998545, 5947305.075000000186265 ], [ 39785.775000000001455, 5947305.075000000186265 ], [ 39785.775000000001455, 5947305.0 ], [ 39785.69999999999709, 5947305.0 ], [ 39785.69999999999709, 5947304.849999999627471 ], [ 39785.625, 5947304.849999999627471 ], [ 39785.625, 5947304.775000000372529 ], [ 39785.55000000000291, 5947304.775000000372529 ], [ 39785.55000000000291, 5947304.625 ], [ 39785.474999999998545, 5947304.625 ], [ 39785.474999999998545, 5947304.549999999813735 ], [ 39785.17500000000291, 5947304.549999999813735 ], [ 39785.17500000000291, 5947304.474999999627471 ], [ 39784.875, 5947304.474999999627471 ], [ 39784.875, 5947304.400000000372529 ], [ 39784.724999999998545, 5947304.400000000372529 ], [ 39784.724999999998545, 5947304.325000000186265 ], [ 39784.57499999999709, 5947304.325000000186265 ], [ 39784.57499999999709, 5947304.25 ], [ 39784.42500000000291, 5947304.25 ], [ 39784.42500000000291, 5947304.099999999627471 ], [ 39784.349999999998545, 5947304.099999999627471 ], [ 39784.349999999998545, 5947303.950000000186265 ], [ 39784.275000000001455, 5947303.950000000186265 ], [ 39784.275000000001455, 5947303.799999999813735 ], [ 39784.19999999999709, 5947303.799999999813735 ], [ 39784.19999999999709, 5947303.650000000372529 ], [ 39784.125, 5947303.650000000372529 ], [ 39784.125, 5947303.349999999627471 ], [ 39784.05000000000291, 5947303.349999999627471 ], [ 39784.05000000000291, 5947303.049999999813735 ], [ 39783.974999999998545, 5947303.049999999813735 ], [ 39783.974999999998545, 5947302.674999999813735 ], [ 39783.900000000001455, 5947302.674999999813735 ], [ 39783.900000000001455, 5947302.525000000372529 ], [ 39783.82499999999709, 5947302.525000000372529 ], [ 39783.82499999999709, 5947302.375 ], [ 39783.75, 5947302.375 ], [ 39783.75, 5947302.299999999813735 ], [ 39783.67500000000291, 5947302.299999999813735 ], [ 39783.67500000000291, 5947302.224999999627471 ], [ 39783.599999999998545, 5947302.224999999627471 ], [ 39783.599999999998545, 5947302.150000000372529 ], [ 39783.525000000001455, 5947302.150000000372529 ], [ 39783.525000000001455, 5947302.075000000186265 ], [ 39783.44999999999709, 5947302.075000000186265 ], [ 39783.44999999999709, 5947302.0 ], [ 39783.375, 5947302.0 ], [ 39783.375, 5947301.924999999813735 ], [ 39783.30000000000291, 5947301.924999999813735 ], [ 39783.30000000000291, 5947301.849999999627471 ], [ 39783.224999999998545, 5947301.849999999627471 ], [ 39783.224999999998545, 5947301.775000000372529 ], [ 39783.150000000001455, 5947301.775000000372529 ], [ 39783.150000000001455, 5947301.625 ], [ 39783.07499999999709, 5947301.625 ], [ 39783.07499999999709, 5947301.549999999813735 ], [ 39783.0, 5947301.549999999813735 ], [ 39783.0, 5947301.474999999627471 ], [ 39782.92500000000291, 5947301.474999999627471 ], [ 39782.92500000000291, 5947301.325000000186265 ], [ 39782.849999999998545, 5947301.325000000186265 ], [ 39782.849999999998545, 5947301.174999999813735 ], [ 39782.775000000001455, 5947301.174999999813735 ], [ 39782.775000000001455, 5947301.025000000372529 ], [ 39782.69999999999709, 5947301.025000000372529 ], [ 39782.69999999999709, 5947300.875 ], [ 39782.625, 5947300.875 ], [ 39782.625, 5947300.650000000372529 ], [ 39782.55000000000291, 5947300.650000000372529 ], [ 39782.55000000000291, 5947300.125 ], [ 39782.474999999998545, 5947300.125 ], [ 39782.474999999998545, 5947299.525000000372529 ], [ 39782.400000000001455, 5947299.525000000372529 ], [ 39782.400000000001455, 5947298.924999999813735 ], [ 39782.32499999999709, 5947298.924999999813735 ], [ 39782.32499999999709, 5947297.950000000186265 ], [ 39782.25, 5947297.950000000186265 ], [ 39782.25, 5947296.825000000186265 ], [ 39782.17500000000291, 5947296.825000000186265 ], [ 39782.17500000000291, 5947295.325000000186265 ], [ 39782.099999999998545, 5947295.325000000186265 ], [ 39782.099999999998545, 5947294.049999999813735 ], [ 39782.025000000001455, 5947294.049999999813735 ], [ 39782.025000000001455, 5947292.325000000186265 ], [ 39782.099999999998545, 5947292.325000000186265 ], [ 39782.099999999998545, 5947291.799999999813735 ], [ 39782.17500000000291, 5947291.799999999813735 ], [ 39782.17500000000291, 5947291.424999999813735 ], [ 39782.25, 5947291.424999999813735 ], [ 39782.25, 5947291.125 ], [ 39782.32499999999709, 5947291.125 ], [ 39782.32499999999709, 5947290.900000000372529 ], [ 39782.400000000001455, 5947290.900000000372529 ], [ 39782.400000000001455, 5947290.674999999813735 ], [ 39782.474999999998545, 5947290.674999999813735 ], [ 39782.474999999998545, 5947290.525000000372529 ], [ 39782.55000000000291, 5947290.525000000372529 ], [ 39782.55000000000291, 5947290.375 ], [ 39782.625, 5947290.375 ], [ 39782.625, 5947290.224999999627471 ], [ 39782.69999999999709, 5947290.224999999627471 ], [ 39782.69999999999709, 5947290.150000000372529 ], [ 39782.775000000001455, 5947290.150000000372529 ], [ 39782.775000000001455, 5947290.075000000186265 ], [ 39782.849999999998545, 5947290.075000000186265 ], [ 39782.849999999998545, 5947289.924999999813735 ], [ 39782.92500000000291, 5947289.924999999813735 ], [ 39782.92500000000291, 5947289.849999999627471 ], [ 39783.0, 5947289.849999999627471 ], [ 39783.0, 5947289.775000000372529 ], [ 39783.150000000001455, 5947289.775000000372529 ], [ 39783.150000000001455, 5947289.700000000186265 ], [ 39783.224999999998545, 5947289.700000000186265 ], [ 39783.224999999998545, 5947289.625 ], [ 39783.30000000000291, 5947289.625 ], [ 39783.30000000000291, 5947289.549999999813735 ], [ 39783.44999999999709, 5947289.549999999813735 ], [ 39783.44999999999709, 5947289.474999999627471 ], [ 39783.599999999998545, 5947289.474999999627471 ], [ 39783.599999999998545, 5947289.325000000186265 ], [ 39783.67500000000291, 5947289.325000000186265 ], [ 39783.67500000000291, 5947289.174999999813735 ], [ 39783.75, 5947289.174999999813735 ], [ 39783.75, 5947289.025000000372529 ], [ 39783.82499999999709, 5947289.025000000372529 ], [ 39783.82499999999709, 5947288.799999999813735 ], [ 39783.900000000001455, 5947288.799999999813735 ], [ 39783.900000000001455, 5947288.575000000186265 ], [ 39783.974999999998545, 5947288.575000000186265 ], [ 39783.974999999998545, 5947288.349999999627471 ], [ 39784.05000000000291, 5947288.349999999627471 ], [ 39784.05000000000291, 5947288.200000000186265 ], [ 39784.125, 5947288.200000000186265 ], [ 39784.125, 5947288.049999999813735 ], [ 39784.19999999999709, 5947288.049999999813735 ], [ 39784.19999999999709, 5947287.974999999627471 ], [ 39784.275000000001455, 5947287.974999999627471 ], [ 39784.275000000001455, 5947287.900000000372529 ], [ 39784.349999999998545, 5947287.900000000372529 ], [ 39784.349999999998545, 5947287.825000000186265 ], [ 39784.42500000000291, 5947287.825000000186265 ], [ 39784.42500000000291, 5947287.75 ], [ 39784.5, 5947287.75 ], [ 39784.5, 5947287.674999999813735 ], [ 39784.57499999999709, 5947287.674999999813735 ], [ 39784.57499999999709, 5947287.599999999627471 ], [ 39784.724999999998545, 5947287.599999999627471 ], [ 39784.724999999998545, 5947287.525000000372529 ], [ 39784.875, 5947287.525000000372529 ], [ 39784.875, 5947287.450000000186265 ], [ 39785.025000000001455, 5947287.450000000186265 ], [ 39785.025000000001455, 5947287.375 ], [ 39785.25, 5947287.375 ], [ 39785.25, 5947287.299999999813735 ], [ 39785.474999999998545, 5947287.299999999813735 ], [ 39785.474999999998545, 5947287.224999999627471 ], [ 39785.625, 5947287.224999999627471 ], [ 39785.625, 5947287.150000000372529 ], [ 39785.69999999999709, 5947287.150000000372529 ], [ 39785.69999999999709, 5947287.075000000186265 ], [ 39785.775000000001455, 5947287.075000000186265 ], [ 39785.775000000001455, 5947287.0 ], [ 39785.849999999998545, 5947287.0 ], [ 39785.849999999998545, 5947286.924999999813735 ], [ 39785.92500000000291, 5947286.924999999813735 ], [ 39785.92500000000291, 5947286.775000000372529 ], [ 39786.0, 5947286.775000000372529 ], [ 39786.0, 5947286.625 ], [ 39786.07499999999709, 5947286.625 ], [ 39786.07499999999709, 5947286.549999999813735 ], [ 39786.150000000001455, 5947286.549999999813735 ], [ 39786.150000000001455, 5947286.474999999627471 ], [ 39786.224999999998545, 5947286.474999999627471 ], [ 39786.224999999998545, 5947286.400000000372529 ], [ 39786.30000000000291, 5947286.400000000372529 ], [ 39786.30000000000291, 5947286.325000000186265 ], [ 39786.375, 5947286.325000000186265 ], [ 39786.375, 5947286.25 ], [ 39786.525000000001455, 5947286.25 ], [ 39786.525000000001455, 5947286.174999999813735 ], [ 39786.599999999998545, 5947286.174999999813735 ], [ 39786.599999999998545, 5947286.099999999627471 ], [ 39786.75, 5947286.099999999627471 ], [ 39786.75, 5947286.025000000372529 ], [ 39786.900000000001455, 5947286.025000000372529 ], [ 39786.900000000001455, 5947285.950000000186265 ], [ 39787.125, 5947285.950000000186265 ], [ 39787.125, 5947285.875 ], [ 39787.42500000000291, 5947285.875 ], [ 39787.42500000000291, 5947285.799999999813735 ], [ 39787.650000000001455, 5947285.799999999813735 ], [ 39787.650000000001455, 5947285.875 ], [ 39788.17500000000291, 5947285.875 ], [ 39788.17500000000291, 5947285.950000000186265 ], [ 39788.625, 5947285.950000000186265 ], [ 39788.625, 5947286.025000000372529 ], [ 39789.224999999998545, 5947286.025000000372529 ], [ 39789.224999999998545, 5947286.099999999627471 ], [ 39789.525000000001455, 5947286.099999999627471 ], [ 39789.525000000001455, 5947286.174999999813735 ], [ 39789.599999999998545, 5947286.174999999813735 ], [ 39789.599999999998545, 5947286.25 ], [ 39789.75, 5947286.25 ], [ 39789.75, 5947286.325000000186265 ], [ 39789.82499999999709, 5947286.325000000186265 ], [ 39789.82499999999709, 5947286.400000000372529 ], [ 39789.900000000001455, 5947286.400000000372529 ], [ 39789.900000000001455, 5947286.474999999627471 ], [ 39789.974999999998545, 5947286.474999999627471 ], [ 39789.974999999998545, 5947286.549999999813735 ], [ 39790.05000000000291, 5947286.549999999813735 ], [ 39790.05000000000291, 5947286.625 ], [ 39790.125, 5947286.625 ], [ 39790.125, 5947286.775000000372529 ], [ 39790.19999999999709, 5947286.775000000372529 ], [ 39790.19999999999709, 5947286.849999999627471 ], [ 39790.275000000001455, 5947286.849999999627471 ], [ 39790.275000000001455, 5947287.0 ], [ 39790.349999999998545, 5947287.0 ], [ 39790.349999999998545, 5947287.075000000186265 ], [ 39790.42500000000291, 5947287.075000000186265 ], [ 39790.42500000000291, 5947287.150000000372529 ], [ 39790.5, 5947287.150000000372529 ], [ 39790.5, 5947287.224999999627471 ], [ 39790.57499999999709, 5947287.224999999627471 ], [ 39790.57499999999709, 5947287.299999999813735 ], [ 39790.650000000001455, 5947287.299999999813735 ], [ 39790.650000000001455, 5947287.375 ], [ 39790.724999999998545, 5947287.375 ], [ 39790.724999999998545, 5947287.450000000186265 ], [ 39790.80000000000291, 5947287.450000000186265 ], [ 39790.80000000000291, 5947287.525000000372529 ], [ 39790.875, 5947287.525000000372529 ], [ 39790.875, 5947287.599999999627471 ], [ 39790.94999999999709, 5947287.599999999627471 ], [ 39790.94999999999709, 5947287.674999999813735 ], [ 39791.099999999998545, 5947287.674999999813735 ], [ 39791.099999999998545, 5947287.75 ], [ 39791.25, 5947287.75 ], [ 39791.25, 5947287.825000000186265 ], [ 39791.400000000001455, 5947287.825000000186265 ], [ 39791.400000000001455, 5947287.900000000372529 ], [ 39791.55000000000291, 5947287.900000000372529 ], [ 39791.55000000000291, 5947287.974999999627471 ], [ 39791.69999999999709, 5947287.974999999627471 ], [ 39791.69999999999709, 5947288.049999999813735 ], [ 39791.849999999998545, 5947288.049999999813735 ], [ 39791.849999999998545, 5947288.125 ], [ 39792.0, 5947288.125 ], [ 39792.0, 5947288.200000000186265 ], [ 39792.150000000001455, 5947288.200000000186265 ], [ 39792.150000000001455, 5947288.275000000372529 ], [ 39792.224999999998545, 5947288.275000000372529 ], [ 39792.224999999998545, 5947288.349999999627471 ], [ 39792.375, 5947288.349999999627471 ], [ 39792.375, 5947288.424999999813735 ], [ 39792.44999999999709, 5947288.424999999813735 ], [ 39792.44999999999709, 5947288.5 ], [ 39792.525000000001455, 5947288.5 ], [ 39792.525000000001455, 5947288.575000000186265 ], [ 39792.599999999998545, 5947288.575000000186265 ], [ 39792.599999999998545, 5947288.650000000372529 ], [ 39792.67500000000291, 5947288.650000000372529 ], [ 39792.67500000000291, 5947288.724999999627471 ], [ 39792.75, 5947288.724999999627471 ], [ 39792.75, 5947288.799999999813735 ], [ 39792.82499999999709, 5947288.799999999813735 ], [ 39792.82499999999709, 5947288.875 ], [ 39792.900000000001455, 5947288.875 ], [ 39792.900000000001455, 5947289.099999999627471 ], [ 39792.974999999998545, 5947289.099999999627471 ], [ 39792.974999999998545, 5947289.325000000186265 ], [ 39793.05000000000291, 5947289.325000000186265 ], [ 39793.05000000000291, 5947289.474999999627471 ], [ 39793.125, 5947289.474999999627471 ], [ 39793.125, 5947289.625 ], [ 39793.19999999999709, 5947289.625 ], [ 39793.19999999999709, 5947289.775000000372529 ], [ 39793.275000000001455, 5947289.775000000372529 ], [ 39793.275000000001455, 5947289.924999999813735 ], [ 39793.349999999998545, 5947289.924999999813735 ], [ 39793.349999999998545, 5947290.0 ], [ 39793.57499999999709, 5947290.0 ], [ 39793.57499999999709, 5947290.075000000186265 ], [ 39793.724999999998545, 5947290.075000000186265 ], [ 39793.724999999998545, 5947290.150000000372529 ], [ 39793.875, 5947290.150000000372529 ], [ 39793.875, 5947290.224999999627471 ], [ 39794.099999999998545, 5947290.224999999627471 ], [ 39794.099999999998545, 5947290.299999999813735 ], [ 39794.25, 5947290.299999999813735 ], [ 39794.25, 5947290.375 ], [ 39794.400000000001455, 5947290.375 ], [ 39794.400000000001455, 5947290.450000000186265 ], [ 39794.55000000000291, 5947290.450000000186265 ], [ 39794.55000000000291, 5947290.525000000372529 ], [ 39794.69999999999709, 5947290.525000000372529 ], [ 39794.69999999999709, 5947290.599999999627471 ], [ 39794.849999999998545, 5947290.599999999627471 ], [ 39794.849999999998545, 5947290.674999999813735 ], [ 39795.0, 5947290.674999999813735 ], [ 39795.0, 5947290.75 ], [ 39795.150000000001455, 5947290.75 ], [ 39795.150000000001455, 5947290.825000000186265 ], [ 39795.30000000000291, 5947290.825000000186265 ], [ 39795.30000000000291, 5947292.700000000186265 ], [ 39795.224999999998545, 5947292.700000000186265 ], [ 39795.224999999998545, 5947292.924999999813735 ], [ 39795.150000000001455, 5947292.924999999813735 ], [ 39795.150000000001455, 5947293.825000000186265 ], [ 39795.07499999999709, 5947293.825000000186265 ], [ 39795.07499999999709, 5947294.349999999627471 ], [ 39795.0, 5947294.349999999627471 ], [ 39795.0, 5947294.650000000372529 ], [ 39794.92500000000291, 5947294.650000000372529 ], [ 39794.92500000000291, 5947295.025000000372529 ], [ 39794.849999999998545, 5947295.025000000372529 ], [ 39794.849999999998545, 5947295.775000000372529 ], [ 39794.775000000001455, 5947295.775000000372529 ], [ 39794.775000000001455, 5947296.450000000186265 ], [ 39794.69999999999709, 5947296.450000000186265 ], [ 39794.69999999999709, 5947296.974999999627471 ], [ 39794.625, 5947296.974999999627471 ], [ 39794.625, 5947297.575000000186265 ], [ 39794.55000000000291, 5947297.575000000186265 ], [ 39794.55000000000291, 5947298.025000000372529 ], [ 39794.474999999998545, 5947298.025000000372529 ], [ 39794.474999999998545, 5947298.474999999627471 ], [ 39794.400000000001455, 5947298.474999999627471 ], [ 39794.400000000001455, 5947298.700000000186265 ], [ 39794.32499999999709, 5947298.700000000186265 ], [ 39794.32499999999709, 5947298.775000000372529 ], [ 39794.17500000000291, 5947298.775000000372529 ], [ 39794.17500000000291, 5947298.849999999627471 ], [ 39794.025000000001455, 5947298.849999999627471 ], [ 39794.025000000001455, 5947298.924999999813735 ], [ 39793.94999999999709, 5947298.924999999813735 ], [ 39793.94999999999709, 5947299.0 ], [ 39793.875, 5947299.0 ], [ 39793.875, 5947299.075000000186265 ], [ 39793.80000000000291, 5947299.075000000186265 ], [ 39793.80000000000291, 5947299.150000000372529 ], [ 39793.724999999998545, 5947299.150000000372529 ], [ 39793.724999999998545, 5947299.299999999813735 ], [ 39793.650000000001455, 5947299.299999999813735 ], [ 39793.650000000001455, 5947299.525000000372529 ], [ 39793.57499999999709, 5947299.525000000372529 ], [ 39793.57499999999709, 5947299.825000000186265 ], [ 39793.5, 5947299.825000000186265 ], [ 39793.5, 5947300.349999999627471 ], [ 39793.42500000000291, 5947300.349999999627471 ], [ 39793.42500000000291, 5947300.724999999627471 ], [ 39793.349999999998545, 5947300.724999999627471 ], [ 39793.349999999998545, 5947300.875 ], [ 39793.275000000001455, 5947300.875 ], [ 39793.275000000001455, 5947301.25 ], [ 39793.19999999999709, 5947301.25 ], [ 39793.19999999999709, 5947302.075000000186265 ], [ 39793.125, 5947302.075000000186265 ], [ 39793.125, 5947302.75 ], [ 39793.05000000000291, 5947302.75 ], [ 39793.05000000000291, 5947302.974999999627471 ], [ 39792.974999999998545, 5947302.974999999627471 ], [ 39792.974999999998545, 5947303.200000000186265 ], [ 39792.900000000001455, 5947303.200000000186265 ], [ 39792.900000000001455, 5947303.424999999813735 ], [ 39792.82499999999709, 5947303.424999999813735 ], [ 39792.82499999999709, 5947303.650000000372529 ], [ 39792.75, 5947303.650000000372529 ], [ 39792.75, 5947303.724999999627471 ], [ 39792.599999999998545, 5947303.724999999627471 ], [ 39792.599999999998545, 5947303.799999999813735 ], [ 39792.375, 5947303.799999999813735 ], [ 39792.375, 5947303.875 ], [ 39792.224999999998545, 5947303.875 ], [ 39792.224999999998545, 5947303.950000000186265 ], [ 39792.07499999999709, 5947303.950000000186265 ], [ 39792.07499999999709, 5947304.025000000372529 ], [ 39791.849999999998545, 5947304.025000000372529 ], [ 39791.849999999998545, 5947304.099999999627471 ], [ 39791.69999999999709, 5947304.099999999627471 ], [ 39791.69999999999709, 5947304.174999999813735 ], [ 39791.55000000000291, 5947304.174999999813735 ], [ 39791.55000000000291, 5947304.25 ], [ 39791.400000000001455, 5947304.25 ], [ 39791.400000000001455, 5947304.325000000186265 ], [ 39791.32499999999709, 5947304.325000000186265 ], [ 39791.32499999999709, 5947304.400000000372529 ], [ 39791.17500000000291, 5947304.400000000372529 ], [ 39791.17500000000291, 5947304.474999999627471 ], [ 39791.099999999998545, 5947304.474999999627471 ], [ 39791.099999999998545, 5947304.549999999813735 ], [ 39791.025000000001455, 5947304.549999999813735 ], [ 39791.025000000001455, 5947304.625 ], [ 39790.94999999999709, 5947304.625 ], [ 39790.94999999999709, 5947304.700000000186265 ], [ 39790.875, 5947304.700000000186265 ], [ 39790.875, 5947304.775000000372529 ], [ 39790.80000000000291, 5947304.775000000372529 ], [ 39790.80000000000291, 5947304.849999999627471 ], [ 39790.724999999998545, 5947304.849999999627471 ], [ 39790.724999999998545, 5947304.924999999813735 ], [ 39790.650000000001455, 5947304.924999999813735 ], [ 39790.650000000001455, 5947305.0 ], [ 39790.57499999999709, 5947305.0 ], [ 39790.57499999999709, 5947305.075000000186265 ], [ 39790.42500000000291, 5947305.075000000186265 ], [ 39790.42500000000291, 5947305.150000000372529 ], [ 39790.349999999998545, 5947305.150000000372529 ], [ 39790.349999999998545, 5947305.224999999627471 ], [ 39790.19999999999709, 5947305.224999999627471 ], [ 39790.19999999999709, 5947305.299999999813735 ], [ 39790.05000000000291, 5947305.299999999813735 ], [ 39790.05000000000291, 5947305.375 ], [ 39789.900000000001455, 5947305.375 ], [ 39789.900000000001455, 5947305.450000000186265 ], [ 39789.75, 5947305.450000000186265 ], [ 39789.75, 5947305.525000000372529 ], [ 39789.525000000001455, 5947305.525000000372529 ], [ 39789.525000000001455, 5947305.599999999627471 ], [ 39789.150000000001455, 5947305.599999999627471 ], [ 39789.150000000001455, 5947305.674999999813735 ], [ 39788.400000000001455, 5947305.674999999813735 ], [ 39788.400000000001455, 5947305.75 ], [ 39787.724999999998545, 5947305.75 ], [ 39787.724999999998545, 5947305.825000000186265 ], [ 39787.349999999998545, 5947305.825000000186265 ] ] ] } },
{ "type": "Feature", "properties": { "value": 1.0, "building_id": 1, "area": 19.063125000263469 }, "geometry": { "type": "Polygon", "coordinates": [ [ [ 39880.80000000000291, 5947287.525000000372529 ], [ 39880.80000000000291, 5947287.450000000186265 ], [ 39880.349999999998545, 5947287.450000000186265 ], [ 39880.349999999998545, 5947287.375 ], [ 39879.900000000001455, 5947287.375 ], [ 39879.900000000001455, 5947287.299999999813735 ], [ 39879.525000000001455, 5947287.299999999813735 ], [ 39879.525000000001455, 5947287.224999999627471 ], [ 39879.224999999998545, 5947287.224999999627471 ], [ 39879.224999999998545, 5947287.150000000372529 ], [ 39879.150000000001455, 5947287.150000000372529 ], [ 39879.150000000001455, 5947287.075000000186265 ], [ 39879.07499999999709, 5947287.075000000186265 ], [ 39879.07499999999709, 5947286.775000000372529 ], [ 39879.0, 5947286.775000000372529 ], [ 39879.0, 5947286.174999999813735 ], [ 39878.92500000000291, 5947286.174999999813735 ], [ 39878.92500000000291, 5947285.5 ], [ 39878.849999999998545, 5947285.5 ], [ 39878.849999999998545, 5947284.974999999627471 ], [ 39878.92500000000291, 5947284.974999999627471 ], [ 39878.92500000000291, 5947284.825000000186265 ], [ 39879.0, 5947284.825000000186265 ], [ 39879.0, 5947284.75 ], [ 39879.07499999999709, 5947284.75 ], [ 39879.07499999999709, 5947284.599999999627471 ], [ 39879.150000000001455, 5947284.599999999627471 ], [ 39879.150000000001455, 5947284.525000000372529 ], [ 39879.224999999998545, 5947284.525000000372529 ], [ 39879.224999999998545, 5947284.375 ], [ 39879.375, 5947284.375 ], [ 39879.375, 5947284.299999999813735 ], [ 39879.44999999999709, 5947284.299999999813735 ], [ 39879.44999999999709, 5947284.224999999627471 ], [ 39879.525000000001455, 5947284.224999999627471 ], [ 39879.525000000001455, 5947284.150000000372529 ], [ 39879.599999999998545, 5947284.150000000372529 ], [ 39879.599999999998545, 5947284.075000000186265 ], [ 39879.67500000000291, 5947284.075000000186265 ], [ 39879.67500000000291, 5947284.0 ], [ 39879.75, 5947284.0 ], [ 39879.75, 5947283.924999999813735 ], [ 39879.82499999999709, 5947283.924999999813735 ], [ 39879.82499999999709, 5947283.775000000372529 ], [ 39879.974999999998545, 5947283.775000000372529 ], [ 39879.974999999998545, 5947283.700000000186265 ], [ 39880.05000000000291, 5947283.700000000186265 ], [ 39880.05000000000291, 5947283.625 ], [ 39880.125, 5947283.625 ], [ 39880.125, 5947283.549999999813735 ], [ 39880.19999999999709, 5947283.549999999813735 ], [ 39880.19999999999709, 5947283.474999999627471 ], [ 39880.275000000001455, 5947283.474999999627471 ], [ 39880.275000000001455, 5947283.400000000372529 ], [ 39880.349999999998545, 5947283.400000000372529 ], [ 39880.349999999998545, 5947283.25 ], [ 39880.42500000000291, 5947283.25 ], [ 39880.42500000000291, 5947283.174999999813735 ], [ 39880.5, 5947283.174999999813735 ], [ 39880.5, 5947283.025000000372529 ], [ 39880.650000000001455, 5947283.025000000372529 ], [ 39880.650000000001455, 5947282.950000000186265 ], [ 39880.724999999998545, 5947282.950000000186265 ], [ 39880.724999999998545, 5947282.875 ], [ 39880.80000000000291, 5947282.875 ], [ 39880.80000000000291, 5947282.799999999813735 ], [ 39880.94999999999709, 5947282.799999999813735 ], [ 39880.94999999999709, 5947282.724999999627471 ], [ 39881.025000000001455, 5947282.724999999627471 ], [ 39881.025000000001455, 5947282.650000000372529 ], [ 39881.17500000000291, 5947282.650000000372529 ], [ 39881.17500000000291, 5947282.575000000186265 ], [ 39881.400000000001455, 5947282.575000000186265 ], [ 39881.400000000001455, 5947282.650000000372529 ], [ 39881.775000000001455, 5947282.650000000372529 ], [ 39881.775000000001455, 5947282.724999999627471 ], [ 39882.150000000001455, 5947282.724999999627471 ], [ 39882.150000000001455, 5947282.799999999813735 ], [ 39882.525000000001455, 5947282.799999999813735 ], [ 39882.525000000001455, 5947282.875 ], [ 39882.82499999999709, 5947282.875 ], [ 39882.82499999999709, 5947282.950000000186265 ], [ 39883.19999999999709, 5947282.950000000186265 ], [ 39883.19999999999709, 5947283.025000000372529 ], [ 39883.275000000001455, 5947283.025000000372529 ], [ 39883.275000000001455, 5947283.174999999813735 ], [ 39883.349999999998545, 5947283.174999999813735 ], [ 39883.349999999998545, 5947283.549999999813735 ], [ 39883.42500000000291, 5947283.549999999813735 ], [ 39883.42500000000291, 5947283.924999999813735 ], [ 39883.5, 5947283.924999999813735 ], [ 39883.5, 5947284.375 ], [ 39883.57499999999709, 5947284.375 ], [ 39883.57499999999709, 5947284.75 ], [ 39883.650000000001455, 5947284.75 ], [ 39883.650000000001455, 5947285.575000000186265 ], [ 39883.57499999999709, 5947285.575000000186265 ], [ 39883.57499999999709, 5947286.474999999627471 ], [ 39883.5, 5947286.474999999627471 ], [ 39883.5, 5947287.075000000186265 ], [ 39883.42500000000291, 5947287.075000000186265 ], [ 39883.42500000000291, 5947287.150000000372529 ], [ 39883.349999999998545, 5947287.150000000372529 ], [ 39883.349999999998545, 5947287.224999999627471 ], [ 39883.275000000001455, 5947287.224999999627471 ], [ 39883.275000000001455, 5947287.299999999813735 ], [ 39882.974999999998545, 5947287.299999999813735 ], [ 39882.974999999998545, 5947287.375 ], [ 39882.375, 5947287.375 ], [ 39882.375, 5947287.450000000186265 ], [ 39881.775000000001455, 5947287.450000000186265 ], [ 39881.775000000001455, 5947287.525000000372529 ], [ 39880.80000000000291, 5947287.525000000372529 ] ] ] } }
]
}
