{
"type": "FeatureCollection",
"name": "39183E591807N_buildings",
"crs": { "type": "name", "properties": { "name": "urn:ogc:def:crs:EPSG::3776" } },
"features": [
{ "type": "Feature", "properties": { "value": 1.0, "building_id": 0, "area": 49.814999999594683 }, "geometry": { "type": "Polygon", "coordinates": [ [ [ 39904.5, 5918608.125 ], [ 39904.5, 5918608.049999999813735 ], [ 39903.974999999998545, 5918608.049999999813735 ], [ 39903.974999999998545, 5918607.974999999627471 ], [ 39903.44999999999709, 5918607.974999999627471 ], [ 39903.44999999999709, 5918607.900000000372529 ], [ 39903.0, 5918607.900000000372529 ], [ 39903.0, 5918607.825000000186265 ], [ 39902.69999999999709, 5918607.825000000186265 ], [ 39902.69999999999709, 5918607.75 ], [ 39902.55000000000291, 5918607.75 ], [ 39902.55000000000291, 5918607.674999999813735 ], [ 39902.474999999998545, 5918607.674999999813735 ], [ 39902.474999999998545, 5918607.599999999627471 ], [ 39902.400000000001455, 5918607.599999999627471 ], [ 39902.400000000001455, 5918607.525000000372529 ], [ 39902.32499999999709, 5918607.525000000372529 ], [ 39902.32499999999709, 5918607.450000000186265 ], [ 39902.25, 5918607.450000000186265 ], [ 39902.25, 5918607.375 ], [ 39902.17500000000291, 5918607.375 ], [ 39902.17500000000291, 5918607.299999999813735 ], [ 39902.099999999998545, 5918607.299999999813735 ], [ 39902.099999999998545, 5918607.075000000186265 ], [ 39902.025000000001455, 5918607.075000000186265 ], [ 39902.025000000001455, 5918606.849999999627471 ], [ 39901.94999999999709, 5918606.849999999627471 ], [ 39901.94999999999709, 5918606.700000000186265 ], [ 39901.875, 5918606.700000000186265 ], [ 39901.875, 5918606.549999999813735 ], [ 39901.80000000000291, 5918606.549999999813735 ], [ 39901.80000000000291, 5918606.474999999627471 ], [ 39901.724999999998545, 5918606.474999999627471 ], [ 39901.724999999998545, 5918606.325000000186265 ], [ 39901.650000000001455, 5918606.325000000186265 ], [ 39901.650000000001455, 5918606.25 ], [ 39901.57499999999709, 5918606.25 ], [ 39901.57499999999709, 5918606.174999999813735 ], [ 39901.5, 5918606.174999999813735 ], [ 39901.5, 5918606.099999999627471 ], [ 39901.42500000000291, 5918606.099999999627471 ], [ 39901.42500000000291, 5918606.025000000372529 ], [ 39901.349999999998545, 5918606.025000000372529 ], [ 39901.349999999998545, 5918605.950000000186265 ], [ 39901.275000000001455, 5918605.950000000186265 ], [ 39901.275000000001455, 5918605.875 ], [ 39901.19999999999709, 5918605.875 ], [ 39901.19999999999709, 5918605.799999999813735 ], [ 39901.125, 5918605.799999999813735 ], [ 39901.125, 5918605.724999999627471 ], [ 39900.974999999998545, 5918605.724999999627471 ], [ 39900.974999999998545, 5918605.650000000372529 ], [ 39900.82499999999709, 5918605.650000000372529 ], [ 39900.82499999999709, 5918605.575000000186265 ], [ 39900.75, 5918605.575000000186265 ], [ 39900.75, 5918605.5 ], [ 39900.67500000000291, 5918605.5 ], [ 39900.67500000000291, 5918605.424999999813735 ], [ 39900.599999999998545, 5918605.424999999813735 ], [ 39900.599999999998545, 5918605.349999999627471 ], [ 39900.67500000000291, 5918605.349999999627471 ], [ 39900.67500000000291, 5918605.200000000186265 ], [ 39900.75, 5918605.200000000186265 ], [ 39900.75, 5918605.125 ], [ 39900.900000000001455, 5918605.125 ], [ 39900.900000000001455, 5918605.049999999813735 ], [ 39901.05000000000291, 5918605.049999999813735 ], [ 39901.05000000000291, 5918604.974999999627471 ], [ 39901.125, 5918604.974999999627471 ], [ 39901.125, 5918604.900000000372529 ], [ 39901.275000000001455, 5918604.900000000372529 ], [ 39901.275000000001455, 5918604.825000000186265 ], [ 39901.349999999998545, 5918604.825000000186265 ], [ 39901.349999999998545, 5918604.75 ], [ 39901.42500000000291, 5918604.75 ], [ 39901.42500000000291, 5918604.674999999813735 ], [ 39901.5, 5918604.674999999813735 ], [ 39901.5, 5918604.599999999627471 ], [ 39901.57499999999709, 5918604.599999999627471 ], [ 39901.57499999999709, 5918604.525000000372529 ], [ 39901.650000000001455, 5918604.525000000372529 ], [ 39901.650000000001455, 5918604.450000000186265 ], [ 39901.724999999998545, 5918604.450000000186265 ], [ 39901.724999999998545, 5918604.299999999813735 ], [ 39901.80000000000291, 5918604.299999999813735 ], [ 39901.80000000000291, 5918604.224999999627471 ], [ 39901.875, 5918604.224999999627471 ], [ 39901.875, 5918604.075000000186265 ], [ 39901.94999999999709, 5918604.075000000186265 ], [ 39901.94999999999709, 5918603.924999999813735 ], [ 39902.025000000001455, 5918603.924999999813735 ], [ 39902.025000000001455, 5918603.775000000372529 ], [ 39902.099999999998545, 5918603.775000000372529 ], [ 39902.099999999998545, 5918603.625 ], [ 39902.17500000000291, 5918603.625 ], [ 39902.17500000000291, 5918603.400000000372529 ], [ 39902.25, 5918603.400000000372529 ], [ 39902.25, 5918603.325000000186265 ], [ 39902.32499999999709, 5918603.325000000186265 ], [ 39902.32499999999709, 5918603.174999999813735 ], [ 39902.400000000001455, 5918603.174999999813735 ], [ 39902.400000000001455, 5918603.099999999627471 ], [ 39902.474999999998545, 5918603.099999999627471 ], [ 39902.474999999998545, 5918603.025000000372529 ], [ 39902.55000000000291, 5918603.025000000372529 ], [ 39902.55000000000291, 5918602.950000000186265 ], [ 39902.625, 5918602.950000000186265 ], [ 39902.625, 5918602.875 ], [ 39902.69999999999709, 5918602.875 ], [ 39902.69999999999709, 5918602.799999999813735 ], [ 39902.849999999998545, 5918602.799999999813735 ], [ 39902.849999999998545, 5918602.724999999627471 ], [ 39902.92500000000291, 5918602.724999999627471 ], [ 39902.92500000000291, 5918602.650000000372529 ], [ 39903.07499999999709, 5918602.650000000372529 ], [ 39903.07499999999709, 5918602.575000000186265 ], [ 39903.150000000001455, 5918602.575000000186265 ], [ 39903.150000000001455, 5918602.5 ], [ 39903.30000000000291, 5918602.5 ], [ 39903.30000000000291, 5918602.424999999813735 ], [ 39903.375, 5918602.424999999813735 ], [ 39903.375, 5918602.349999999627471 ], [ 39903.44999999999709, 5918602.349999999627471 ], [ 39903.44999999999709, 5918602.275000000372529 ], [ 39903.525000000001455, 5918602.275000000372529 ], [ 39903.525000000001455, 5918602.200000000186265 ], [ 39903.599999999998545, 5918602.200000000186265 ], [ 39903.599999999998545, 5918602.125 ], [ 39903.67500000000291, 5918602.125 ], [ 39903.67500000000291, 5918601.974999999627471 ], [ 39903.75, 5918601.974999999627471 ], [ 39903.75, 5918601.900000000372529 ], [ 39903.82499999999709, 5918601.900000000372529 ], [ 39903.82499999999709, 5918601.825000000186265 ], [ 39903.900000000001455, 5918601.825000000186265 ], [ 39903.900000000001455, 5918601.674999999813735 ], [ 39903.974999999998545, 5918601.674999999813735 ], [ 39903.974999999998545, 5918601.525000000372529 ], [ 39904.05000000000291, 5918601.525000000372529 ], [ 39904.05000000000291, 5918601.450000000186265 ], [ 39904.125, 5918601.450000000186265 ], [ 39904.125, 5918601.375 ], [ 39904.19999999999709, 5918601.375 ], [ 39904.19999999999709, 5918601.299999999813735 ], [ 39904.275000000001455, 5918601.299999999813735 ], [ 39904.275000000001455, 5918601.224999999627471 ], [ 39904.349999999998545, 5918601.224999999627471 ], [ 39904.349999999998545, 5918601.150000000372529 ], [ 39904.42500000000291, 5918601.150000000372529 ], [ 39904.42500000000291, 5918601.075000000186265 ], [ 39904.5, 5918601.075000000186265 ], [ 39904.5, 5918601.0 ], [ 39904.650000000001455, 5918601.0 ], [ 39904.650000000001455, 5918600.924999999813735 ], [ 39904.94999999999709, 5918600.924999999813735 ], [ 39904.94999999999709, 5918601.0 ], [ 39905.92500000000291, 5918601.0 ], [ 39905.92500000000291, 5918601.075000000186265 ], [ 39906.67500000000291, 5918601.075000000186265 ], [ 39906.67500000000291, 5918601.150000000372529 ], [ 39906.75, 5918601.150000000372529 ], [ 39906.75, 5918601.224999999627471 ], [ 39906.82499999999709, 5918601.224999999627471 ], [ 39906.82499999999709, 5918601.299999999813735 ], [ 39906.900000000001455, 5918601.299999999813735 ], [ 39906.900000000001455, 5918601.375 ], [ 39906.974999999998545, 5918601.375 ], [ 39906.974999999998545, 5918601.525000000372529 ], [ 39907.05000000000291, 5918601.525000000372529 ], [ 39907.05000000000291, 5918601.674999999813735 ], [ 39907.125, 5918601.674999999813735 ], [ 39907.125, 5918601.825000000186265 ], [ 39907.19999999999709, 5918601.825000000186265 ], [ 39907.19999999999709, 5918601.974999999627471 ], [ 39907.275000000001455, 5918601.974999999627471 ], [ 39907.275000000001455, 5918602.049999999813735 ], [ 39907.349999999998545, 5918602.049999999813735 ], [ 39907.349999999998545, 5918602.200000000186265 ], [ 39907.42500000000291, 5918602.200000000186265 ], [ 39907.42500000000291, 5918602.275000000372529 ], [ 39907.5, 5918602.275000000372529 ], [ 39907.5, 5918602.349999999627471 ], [ 39907.57499999999709, 5918602.349999999627471 ], [ 39907.57499999999709, 5918602.424999999813735 ], [ 39907.650000000001455, 5918602.424999999813735 ], [ 39907.650000000001455, 5918602.5 ], [ 39907.724999999998545, 5918602.5 ], [ 39907.724999999998545, 5918602.575000000186265 ], [ 39907.875, 5918602.575000000186265 ], [ 39907.875, 5918602.650000000372529 ], [ 39907.94999999999709, 5918602.650000000372529 ], [ 39907.94999999999709, 5918602.724999999627471 ], [ 39908.099999999998545, 5918602.724999999627471 ], [ 39908.099999999998545, 5918602.799999999813735 ], [ 39908.17500000000291, 5918602.799999999813735 ], [ 39908.17500000000291, 5918602.875 ], [ 39908.32499999999709, 5918602.875 ], [ 39908.32499999999709, 5918602.950000000186265 ], [ 39908.55000000000291, 5918602.950000000186265 ], [ 39908.55000000000291, 5918603.025000000372529 ], [ 39908.625, 5918603.025000000372529 ], [ 39908.625, 5918603.099999999627471 ], [ 39908.69999999999709, 5918603.099999999627471 ], [ 39908.69999999999709, 5918603.174999999813735 ], [ 39908.849999999998545, 5918603.174999999813735 ], [ 39908.849999999998545, 5918603.25 ], [ 39908.92500000000291, 5918603.25 ], [ 39908.92500000000291, 5918603.400000000372529 ], [ 39909.0, 5918603.400000000372529 ], [ 39909.0, 5918603.474999999627471 ], [ 39909.07499999999709, 5918603.474999999627471 ], [ 39909.07499999999709, 5918603.700000000186265 ], [ 39909.150000000001455, 5918603.700000000186265 ], [ 39909.150000000001455, 5918603.849999999627471 ], [ 39909.224999999998545, 5918603.849999999627471 ], [ 39909.224999999998545, 5918603.924999999813735 ], [ 39909.30000000000291, 5918603.924999999813735 ], [ 39909.30000000000291, 5918604.075000000186265 ], [ 39909.375, 5918604.075000000186265 ], [ 39909.375, 5918604.150000000372529 ], [ 39909.44999999999709, 5918604.150000000372529 ], [ 39909.44999999999709, 5918604.224999999627471 ], [ 39909.525000000001455, 5918604.224999999627471 ], [ 39909.525000000001455, 5918604.299999999813735 ], [ 39909.599999999998545, 5918604.299999999813735 ], [ 39909.599999999998545, 5918604.375 ], [ 39909.67500000000291, 5918604.375 ], [ 39909.67500000000291, 5918604.450000000186265 ], [ 39909.75, 5918604.450000000186265 ], [ 39909.75, 5918604.525000000372529 ], [ 39909.82499999999709, 5918604.525000000372529 ], [ 39909.82499999999709, 5918604.599999999627471 ], [ 39909.900000000001455, 5918604.599999999627471 ], [ 39909.900000000001455, 5918604.674999999813735 ], [ 39910.05000000000291, 5918604.674999999813735 ], [ 39910.05000000000291, 5918604.75 ], [ 39910.19999999999709, 5918604.75 ], [ 39910.19999999999709, 5918604.825000000186265 ], [ 39910.349999999998545, 5918604.825000000186265 ], [ 39910.349999999998545, 5918604.900000000372529 ], [ 39910.5, 5918604.900000000372529 ], [ 39910.5, 5918604.974999999627471 ], [ 39910.650000000001455, 5918604.974999999627471 ], [ 39910.650000000001455, 5918605.049999999813735 ], [ 39910.80000000000291, 5918605.049999999813735 ], [ 39910.80000000000291, 5918605.125 ], [ 39910.94999999999709, 5918605.125 ], [ 39910.94999999999709, 5918605.200000000186265 ], [ 39911.099999999998545, 5918605.200000000186265 ], [ 39911.099999999998545, 5918605.275000000372529 ], [ 39911.17500000000291, 5918605.275000000372529 ], [ 39911.17500000000291, 5918605.349999999627471 ], [ 39911.25, 5918605.349999999627471 ], [ 39911.25, 5918605.5 ], [ 39911.17500000000291, 5918605.5 ], [ 39911.17500000000291, 5918605.724999999627471 ], [ 39911.099999999998545, 5918605.724999999627471 ], [ 39911.099999999998545, 5918606.025000000372529 ], [ 39911.025000000001455, 5918606.025000000372529 ], [ 39911.025000000001455, 5918606.325000000186265 ], [ 39910.94999999999709, 5918606.325000000186265 ], [ 39910.94999999999709, 5918606.700000000186265 ], [ 39910.875, 5918606.700000000186265 ], [ 39910.875, 5918607.150000000372529 ], [ 39910.80000000000291, 5918607.150000000372529 ], [ 39910.80000000000291, 5918607.375 ], [ 39910.724999999998545, 5918607.375 ], [ 39910.724999999998545, 5918607.450000000186265 ], [ 39910.650000000001455, 5918607.450000000186265 ], [ 39910.650000000001455, 5918607.525000000372529 ], [ 39910.5, 5918607.525000000372529 ], [ 39910.5, 5918607.599999999627471 ], [ 39910.05000000000291, 5918607.599999999627471 ], [ 39910.05000000000291, 5918607.674999999813735 ], [ 39909.67500000000291, 5918607.674999999813735 ], [ 39909.67500000000291, 5918607.75 ], [ 39909.224999999998545, 5918607.75 ], [ 39909.224999999998545, 5918607.825000000186265 ], [ 39908.69999999999709, 5918607.825000000186265 ], [ 39908.69999999999709, 5918607.900000000372529 ], [ 39908.17500000000291, 5918607.900000000372529 ], [ 39908.17500000000291, 5918607.974999999627471 ], [ 39907.57499999999709, 5918607.974999999627471 ], [ 39907.57499999999709, 5918608.049999999813735 ], [ 39906.974999999998545, 5918608.049999999813735 ], [ 39906.974999999998545, 5918608.125 ], [ 39904.5, 5918608.125 ] ] ] } },
{ "type": "Feature", "properties": { "value": 1.0, "building_id": 1, "area": 201.28499999970174 }, "geometry": { "type": "Polygon", "coordinates": [ [ [ 39898.650000000001455, 5918344.799999999813735 ], [ 39898.650000000001455, 5918344.724999999627471 ], [ 39896.775000000001455, 5918344.724999999627471 ], [ 39896.775000000001455, 5918344.650000000372529 ], [ 39896.400000000001455, 5918344.650000000372529 ], [ 39896.400000000001455, 5918344.575000000186265 ], [ 39896.025000000001455, 5918344.575000000186265 ], [ 39896.025000000001455, 5918344.5 ], [ 39895.650000000001455, 5918344.5 ], [ 39895.650000000001455, 5918344.424999999813735 ], [ 39895.275000000001455, 5918344.424999999813735 ], [ 39895.275000000001455, 5918344.349999999627471 ], [ 39894.900000000001455, 5918344.349999999627471 ], [ 39894.900000000001455, 5918344.275000000372529 ], [ 39894.82499999999709, 5918344.275000000372529 ], [ 39894.82499999999709, 5918344.200000000186265 ], [ 39894.75, 5918344.200000000186265 ], [ 39894.75, 5918344.125 ], [ 39894.599999999998545, 5918344.125 ], [ 39894.599999999998545, 5918344.049999999813735 ], [ 39894.525000000001455, 5918344.049999999813735 ], [ 39894.525000000001455, 5918343.974999999627471 ], [ 39894.44999999999709, 5918343.974999999627471 ], [ 39894.44999999999709, 5918343.900000000372529 ], [ 39894.375, 5918343.900000000372529 ], [ 39894.375, 5918343.75 ], [ 39894.30000000000291, 5918343.75 ], [ 39894.30000000000291, 5918343.674999999813735 ], [ 39894.224999999998545, 5918343.674999999813735 ], [ 39894.224999999998545, 5918343.525000000372529 ], [ 39894.150000000001455, 5918343.525000000372529 ], [ 39894.150000000001455, 5918343.450000000186265 ], [ 39894.07499999999709, 5918343.450000000186265 ], [ 39894.07499999999709, 5918343.299999999813735 ], [ 39894.0, 5918343.299999999813735 ], [ 39894.0, 5918343.224999999627471 ], [ 39893.92500000000291, 5918343.224999999627471 ], [ 39893.92500000000291, 5918343.075000000186265 ], [ 39893.849999999998545, 5918343.075000000186265 ], [ 39893.849999999998545, 5918343.0 ], [ 39893.775000000001455, 5918343.0 ], [ 39893.775000000001455, 5918342.924999999813735 ], [ 39893.69999999999709, 5918342.924999999813735 ], [ 39893.69999999999709, 5918342.849999999627471 ], [ 39893.625, 5918342.849999999627471 ], [ 39893.625, 5918342.775000000372529 ], [ 39893.55000000000291, 5918342.775000000372529 ], [ 39893.55000000000291, 5918342.700000000186265 ], [ 39893.474999999998545, 5918342.700000000186265 ], [ 39893.474999999998545, 5918342.625 ], [ 39893.400000000001455, 5918342.625 ], [ 39893.400000000001455, 5918342.549999999813735 ], [ 39893.32499999999709, 5918342.549999999813735 ], [ 39893.32499999999709, 5918342.474999999627471 ], [ 39893.25, 5918342.474999999627471 ], [ 39893.25, 5918342.400000000372529 ], [ 39893.099999999998545, 5918342.400000000372529 ], [ 39893.099999999998545, 5918342.325000000186265 ], [ 39893.025000000001455, 5918342.325000000186265 ], [ 39893.025000000001455, 5918342.25 ], [ 39892.875, 5918342.25 ], [ 39892.875, 5918342.174999999813735 ], [ 39892.80000000000291, 5918342.174999999813735 ], [ 39892.80000000000291, 5918342.099999999627471 ], [ 39892.724999999998545, 5918342.099999999627471 ], [ 39892.724999999998545, 5918342.025000000372529 ], [ 39892.650000000001455, 5918342.025000000372529 ], [ 39892.650000000001455, 5918341.950000000186265 ], [ 39892.57499999999709, 5918341.950000000186265 ], [ 39892.57499999999709, 5918341.799999999813735 ], [ 39892.5, 5918341.799999999813735 ], [ 39892.5, 5918341.724999999627471 ], [ 39892.42500000000291, 5918341.724999999627471 ], [ 39892.42500000000291, 5918341.349999999627471 ], [ 39892.349999999998545, 5918341.349999999627471 ], [ 39892.349999999998545, 5918340.900000000372529 ], [ 39892.275000000001455, 5918340.900000000372529 ], [ 39892.275000000001455, 5918340.375 ], [ 39892.19999999999709, 5918340.375 ], [ 39892.19999999999709, 5918339.924999999813735 ], [ 39892.125, 5918339.924999999813735 ], [ 39892.125, 5918339.400000000372529 ], [ 39892.05000000000291, 5918339.400000000372529 ], [ 39892.05000000000291, 5918338.875 ], [ 39891.974999999998545, 5918338.875 ], [ 39891.974999999998545, 5918338.424999999813735 ], [ 39891.900000000001455, 5918338.424999999813735 ], [ 39891.900000000001455, 5918337.974999999627471 ], [ 39891.82499999999709, 5918337.974999999627471 ], [ 39891.82499999999709, 5918337.599999999627471 ], [ 39891.75, 5918337.599999999627471 ], [ 39891.75, 5918337.224999999627471 ], [ 39891.67500000000291, 5918337.224999999627471 ], [ 39891.67500000000291, 5918336.924999999813735 ], [ 39891.599999999998545, 5918336.924999999813735 ], [ 39891.599999999998545, 5918336.625 ], [ 39891.525000000001455, 5918336.625 ], [ 39891.525000000001455, 5918336.325000000186265 ], [ 39891.44999999999709, 5918336.325000000186265 ], [ 39891.44999999999709, 5918336.099999999627471 ], [ 39891.375, 5918336.099999999627471 ], [ 39891.375, 5918335.875 ], [ 39891.30000000000291, 5918335.875 ], [ 39891.30000000000291, 5918335.575000000186265 ], [ 39891.224999999998545, 5918335.575000000186265 ], [ 39891.224999999998545, 5918335.275000000372529 ], [ 39891.150000000001455, 5918335.275000000372529 ], [ 39891.150000000001455, 5918334.974999999627471 ], [ 39891.07499999999709, 5918334.974999999627471 ], [ 39891.07499999999709, 5918334.674999999813735 ], [ 39891.0, 5918334.674999999813735 ], [ 39891.0, 5918334.375 ], [ 39890.92500000000291, 5918334.375 ], [ 39890.92500000000291, 5918334.0 ], [ 39890.849999999998545, 5918334.0 ], [ 39890.849999999998545, 5918333.849999999627471 ], [ 39890.92500000000291, 5918333.849999999627471 ], [ 39890.92500000000291, 5918333.700000000186265 ], [ 39891.0, 5918333.700000000186265 ], [ 39891.0, 5918333.625 ], [ 39891.07499999999709, 5918333.625 ], [ 39891.07499999999709, 5918333.549999999813735 ], [ 39891.150000000001455, 5918333.549999999813735 ], [ 39891.150000000001455, 5918333.400000000372529 ], [ 39891.224999999998545, 5918333.400000000372529 ], [ 39891.224999999998545, 5918333.325000000186265 ], [ 39891.30000000000291, 5918333.325000000186265 ], [ 39891.30000000000291, 5918333.174999999813735 ], [ 39891.375, 5918333.174999999813735 ], [ 39891.375, 5918333.099999999627471 ], [ 39891.44999999999709, 5918333.099999999627471 ], [ 39891.44999999999709, 5918332.950000000186265 ], [ 39891.525000000001455, 5918332.950000000186265 ], [ 39891.525000000001455, 5918332.799999999813735 ], [ 39891.599999999998545, 5918332.799999999813735 ], [ 39891.599999999998545, 5918332.575000000186265 ], [ 39891.67500000000291, 5918332.575000000186265 ], [ 39891.67500000000291, 5918332.424999999813735 ], [ 39891.75, 5918332.424999999813735 ], [ 39891.75, 5918332.200000000186265 ], [ 39891.82499999999709, 5918332.200000000186265 ], [ 39891.82499999999709, 5918331.974999999627471 ], [ 39891.900000000001455, 5918331.974999999627471 ], [ 39891.900000000001455, 5918331.75 ], [ 39891.974999999998545, 5918331.75 ], [ 39891.974999999998545, 5918331.525000000372529 ], [ 39892.05000000000291, 5918331.525000000372529 ], [ 39892.05000000000291, 5918331.299999999813735 ], [ 39892.125, 5918331.299999999813735 ], [ 39892.125, 5918331.075000000186265 ], [ 39892.19999999999709, 5918331.075000000186265 ], [ 39892.19999999999709, 5918330.924999999813735 ], [ 39892.275000000001455, 5918330.924999999813735 ], [ 39892.275000000001455, 5918330.775000000372529 ], [ 39892.349999999998545, 5918330.775000000372529 ], [ 39892.349999999998545, 5918330.549999999813735 ], [ 39892.42500000000291, 5918330.549999999813735 ], [ 39892.42500000000291, 5918330.400000000372529 ], [ 39892.5, 5918330.400000000372529 ], [ 39892.5, 5918330.25 ], [ 39892.57499999999709, 5918330.25 ], [ 39892.57499999999709, 5918330.099999999627471 ], [ 39892.650000000001455, 5918330.099999999627471 ], [ 39892.650000000001455, 5918330.025000000372529 ], [ 39892.724999999998545, 5918330.025000000372529 ], [ 39892.724999999998545, 5918329.875 ], [ 39892.80000000000291, 5918329.875 ], [ 39892.80000000000291, 5918329.799999999813735 ], [ 39892.875, 5918329.799999999813735 ], [ 39892.875, 5918329.724999999627471 ], [ 39892.94999999999709, 5918329.724999999627471 ], [ 39892.94999999999709, 5918329.650000000372529 ], [ 39893.099999999998545, 5918329.650000000372529 ], [ 39893.099999999998545, 5918329.575000000186265 ], [ 39893.17500000000291, 5918329.575000000186265 ], [ 39893.17500000000291, 5918329.5 ], [ 39893.32499999999709, 5918329.5 ], [ 39893.32499999999709, 5918329.424999999813735 ], [ 39893.474999999998545, 5918329.424999999813735 ], [ 39893.474999999998545, 5918329.349999999627471 ], [ 39893.625, 5918329.349999999627471 ], [ 39893.625, 5918329.275000000372529 ], [ 39893.775000000001455, 5918329.275000000372529 ], [ 39893.775000000001455, 5918329.200000000186265 ], [ 39893.92500000000291, 5918329.200000000186265 ], [ 39893.92500000000291, 5918329.125 ], [ 39894.07499999999709, 5918329.125 ], [ 39894.07499999999709, 5918329.049999999813735 ], [ 39894.30000000000291, 5918329.049999999813735 ], [ 39894.30000000000291, 5918328.974999999627471 ], [ 39894.525000000001455, 5918328.974999999627471 ], [ 39894.525000000001455, 5918328.900000000372529 ], [ 39894.75, 5918328.900000000372529 ], [ 39894.75, 5918328.825000000186265 ], [ 39894.974999999998545, 5918328.825000000186265 ], [ 39894.974999999998545, 5918328.75 ], [ 39895.19999999999709, 5918328.75 ], [ 39895.19999999999709, 5918328.674999999813735 ], [ 39895.42500000000291, 5918328.674999999813735 ], [ 39895.42500000000291, 5918328.599999999627471 ], [ 39895.650000000001455, 5918328.599999999627471 ], [ 39895.650000000001455, 5918328.525000000372529 ], [ 39895.875, 5918328.525000000372529 ], [ 39895.875, 5918328.450000000186265 ], [ 39896.025000000001455, 5918328.450000000186265 ], [ 39896.025000000001455, 5918328.375 ], [ 39896.25, 5918328.375 ], [ 39896.25, 5918328.299999999813735 ], [ 39896.400000000001455, 5918328.299999999813735 ], [ 39896.400000000001455, 5918328.224999999627471 ], [ 39896.55000000000291, 5918328.224999999627471 ], [ 39896.55000000000291, 5918328.150000000372529 ], [ 39896.625, 5918328.150000000372529 ], [ 39896.625, 5918328.075000000186265 ], [ 39896.775000000001455, 5918328.075000000186265 ], [ 39896.775000000001455, 5918328.0 ], [ 39897.07499999999709, 5918328.0 ], [ 39897.07499999999709, 5918327.924999999813735 ], [ 39897.900000000001455, 5918327.924999999813735 ], [ 39897.900000000001455, 5918327.849999999627471 ], [ 39898.724999999998545, 5918327.849999999627471 ], [ 39898.724999999998545, 5918327.775000000372529 ], [ 39898.80000000000291, 5918327.775000000372529 ], [ 39898.80000000000291, 5918327.849999999627471 ], [ 39898.94999999999709, 5918327.849999999627471 ], [ 39898.94999999999709, 5918327.924999999813735 ], [ 39899.099999999998545, 5918327.924999999813735 ], [ 39899.099999999998545, 5918328.0 ], [ 39899.17500000000291, 5918328.0 ], [ 39899.17500000000291, 5918328.075000000186265 ], [ 39899.32499999999709, 5918328.075000000186265 ], [ 39899.32499999999709, 5918328.150000000372529 ], [ 39899.400000000001455, 5918328.150000000372529 ], [ 39899.400000000001455, 5918328.224999999627471 ], [ 39899.55000000000291, 5918328.224999999627471 ], [ 39899.55000000000291, 5918328.299999999813735 ], [ 39899.69999999999709, 5918328.299999999813735 ], [ 39899.69999999999709, 5918328.375 ], [ 39899.849999999998545, 5918328.375 ], [ 39899.849999999998545, 5918328.450000000186265 ], [ 39900.0, 5918328.450000000186265 ], [ 39900.0, 5918328.525000000372529 ], [ 39900.224999999998545, 5918328.525000000372529 ], [ 39900.224999999998545, 5918328.599999999627471 ], [ 39900.375, 5918328.599999999627471 ], [ 39900.375, 5918328.674999999813735 ], [ 39900.599999999998545, 5918328.674999999813735 ], [ 39900.599999999998545, 5918328.75 ], [ 39900.900000000001455, 5918328.75 ], [ 39900.900000000001455, 5918328.825000000186265 ], [ 39901.349999999998545, 5918328.825000000186265 ], [ 39901.349999999998545, 5918328.900000000372529 ], [ 39901.875, 5918328.900000000372529 ], [ 39901.875, 5918328.974999999627471 ], [ 39902.32499999999709, 5918328.974999999627471 ], [ 39902.32499999999709, 5918329.049999999813735 ], [ 39902.69999999999709, 5918329.049999999813735 ], [ 39902.69999999999709, 5918329.125 ], [ 39902.849999999998545, 5918329.125 ], [ 39902.849999999998545, 5918329.200000000186265 ], [ 39903.0, 5918329.200000000186265 ], [ 39903.0, 5918329.275000000372529 ], [ 39903.07499999999709, 5918329.275000000372529 ], [ 39903.07499999999709, 5918329.349999999627471 ], [ 39903.150000000001455, 5918329.349999999627471 ], [ 39903.150000000001455, 5918329.424999999813735 ], [ 39903.224999999998545, 5918329.424999999813735 ], [ 39903.224999999998545, 5918329.5 ], [ 39903.30000000000291, 5918329.5 ], [ 39903.30000000000291, 5918329.575000000186265 ], [ 39903.375, 5918329.575000000186265 ], [ 39903.375, 5918329.650000000372529 ], [ 39903.44999999999709, 5918329.650000000372529 ], [ 39903.44999999999709, 5918329.724999999627471 ], [ 39903.525000000001455, 5918329.724999999627471 ], [ 39903.525000000001455, 5918329.799999999813735 ], [ 39903.599999999998545, 5918329.799999999813735 ], [ 39903.599999999998545, 5918329.875 ], [ 39903.67500000000291, 5918329.875 ], [ 39903.67500000000291, 5918330.025000000372529 ], [ 39903.75, 5918330.025000000372529 ], [ 39903.75, 5918330.174999999813735 ], [ 39903.82499999999709, 5918330.174999999813735 ], [ 39903.82499999999709, 5918330.25 ], [ 39903.900000000001455, 5918330.25 ], [ 39903.900000000001455, 5918330.325000000186265 ], [ 39903.974999999998545, 5918330.325000000186265 ], [ 39903.974999999998545, 5918330.474999999627471 ], [ 39904.05000000000291, 5918330.474999999627471 ], [ 39904.05000000000291, 5918330.549999999813735 ], [ 39904.125, 5918330.549999999813735 ], [ 39904.125, 5918330.625 ], [ 39904.19999999999709, 5918330.625 ], [ 39904.19999999999709, 5918330.700000000186265 ], [ 39904.275000000001455, 5918330.700000000186265 ], [ 39904.275000000001455, 5918330.775000000372529 ], [ 39904.42500000000291, 5918330.775000000372529 ], [ 39904.42500000000291, 5918330.849999999627471 ], [ 39904.5, 5918330.849999999627471 ], [ 39904.5, 5918330.924999999813735 ], [ 39904.650000000001455, 5918330.924999999813735 ], [ 39904.650000000001455, 5918331.0 ], [ 39904.724999999998545, 5918331.0 ], [ 39904.724999999998545, 5918331.075000000186265 ], [ 39904.875, 5918331.075000000186265 ], [ 39904.875, 5918331.150000000372529 ], [ 39904.94999999999709, 5918331.150000000372529 ], [ 39904.94999999999709, 5918331.224999999627471 ], [ 39905.025000000001455, 5918331.224999999627471 ], [ 39905.025000000001455, 5918331.299999999813735 ], [ 39905.099999999998545, 5918331.299999999813735 ], [ 39905.099999999998545, 5918331.375 ], [ 39905.17500000000291, 5918331.375 ], [ 39905.17500000000291, 5918331.450000000186265 ], [ 39905.25, 5918331.450000000186265 ], [ 39905.25, 5918331.525000000372529 ], [ 39905.32499999999709, 5918331.525000000372529 ], [ 39905.32499999999709, 5918331.599999999627471 ], [ 39905.400000000001455, 5918331.599999999627471 ], [ 39905.400000000001455, 5918331.674999999813735 ], [ 39905.474999999998545, 5918331.674999999813735 ], [ 39905.474999999998545, 5918331.825000000186265 ], [ 39905.55000000000291, 5918331.825000000186265 ], [ 39905.55000000000291, 5918332.049999999813735 ], [ 39905.625, 5918332.049999999813735 ], [ 39905.625, 5918332.950000000186265 ], [ 39905.69999999999709, 5918332.950000000186265 ], [ 39905.69999999999709, 5918333.775000000372529 ], [ 39905.775000000001455, 5918333.775000000372529 ], [ 39905.775000000001455, 5918334.0 ], [ 39905.69999999999709, 5918334.0 ], [ 39905.69999999999709, 5918335.275000000372529 ], [ 39905.625, 5918335.275000000372529 ], [ 39905.625, 5918336.700000000186265 ], [ 39905.55000000000291, 5918336.700000000186265 ], [ 39905.55000000000291, 5918338.125 ], [ 39905.474999999998545, 5918338.125 ], [ 39905.474999999998545, 5918339.474999999627471 ], [ 39905.400000000001455, 5918339.474999999627471 ], [ 39905.400000000001455, 5918340.0 ], [ 39905.32499999999709, 5918340.0 ], [ 39905.32499999999709, 5918340.224999999627471 ], [ 39905.25, 5918340.224999999627471 ], [ 39905.25, 5918340.450000000186265 ], [ 39905.17500000000291, 5918340.450000000186265 ], [ 39905.17500000000291, 5918340.674999999813735 ], [ 39905.099999999998545, 5918340.674999999813735 ], [ 39905.099999999998545, 5918340.900000000372529 ], [ 39905.025000000001455, 5918340.900000000372529 ], [ 39905.025000000001455, 5918341.049999999813735 ], [ 39904.94999999999709, 5918341.049999999813735 ], [ 39904.94999999999709, 5918341.275000000372529 ], [ 39904.875, 5918341.275000000372529 ], [ 39904.875, 5918341.424999999813735 ], [ 39904.80000000000291, 5918341.424999999813735 ], [ 39904.80000000000291, 5918341.575000000186265 ], [ 39904.724999999998545, 5918341.575000000186265 ], [ 39904.724999999998545, 5918341.724999999627471 ], [ 39904.650000000001455, 5918341.724999999627471 ], [ 39904.650000000001455, 5918341.799999999813735 ], [ 39904.57499999999709, 5918341.799999999813735 ], [ 39904.57499999999709, 5918341.875 ], [ 39904.5, 5918341.875 ], [ 39904.5, 5918341.950000000186265 ], [ 39904.42500000000291, 5918341.950000000186265 ], [ 39904.42500000000291, 5918342.025000000372529 ], [ 39904.349999999998545, 5918342.025000000372529 ], [ 39904.349999999998545, 5918342.099999999627471 ], [ 39904.275000000001455, 5918342.099999999627471 ], [ 39904.275000000001455, 5918342.174999999813735 ], [ 39904.19999999999709, 5918342.174999999813735 ], [ 39904.19999999999709, 5918342.25 ], [ 39904.125, 5918342.25 ], [ 39904.125, 5918342.325000000186265 ], [ 39904.05000000000291, 5918342.325000000186265 ], [ 39904.05000000000291, 5918342.400000000372529 ], [ 39903.974999999998545, 5918342.400000000372529 ], [ 39903.974999999998545, 5918342.474999999627471 ], [ 39903.900000000001455, 5918342.474999999627471 ], [ 39903.900000000001455, 5918342.625 ], [ 39903.82499999999709, 5918342.625 ], [ 39903.82499999999709, 5918342.700000000186265 ], [ 39903.75, 5918342.700000000186265 ], [ 39903.75, 5918342.775000000372529 ], [ 39903.67500000000291, 5918342.775000000372529 ], [ 39903.67500000000291, 5918342.849999999627471 ], [ 39903.599999999998545, 5918342.849999999627471 ], [ 39903.599999999998545, 5918343.0 ], [ 39903.525000000001455, 5918343.0 ], [ 39903.525000000001455, 5918343.075000000186265 ], [ 39903.44999999999709, 5918343.075000000186265 ], [ 39903.44999999999709, 5918343.224999999627471 ], [ 39903.375, 5918343.224999999627471 ], [ 39903.375, 5918343.299999999813735 ], [ 39903.30000000000291, 5918343.299999999813735 ], [ 39903.30000000000291, 5918343.450000000186265 ], [ 39903.224999999998545, 5918343.450000000186265 ], [ 39903.224999999998545, 5918343.525000000372529 ], [ 39903.150000000001455, 5918343.525000000372529 ], [ 39903.150000000001455, 5918343.674999999813735 ], [ 39903.07499999999709, 5918343.674999999813735 ], [ 39903.07499999999709, 5918343.75 ], [ 39903.0, 5918343.75 ], [ 39903.0, 5918343.825000000186265 ], [ 39902.92500000000291, 5918343.825000000186265 ], [ 39902.92500000000291, 5918343.900000000372529 ], [ 39902.849999999998545, 5918343.900000000372529 ], [ 39902.849999999998545, 5918343.974999999627471 ], [ 39902.775000000001455, 5918343.974999999627471 ], [ 39902.775000000001455, 5918344.049999999813735 ], [ 39902.55000000000291, 5918344.049999999813735 ], [ 39902.55000000000291, 5918344.125 ], [ 39902.32499999999709, 5918344.125 ], [ 39902.32499999999709, 5918344.200000000186265 ], [ 39902.099999999998545, 5918344.200000000186265 ], [ 39902.099999999998545, 5918344.275000000372529 ], [ 39901.80000000000291, 5918344.275000000372529 ], [ 39901.80000000000291, 5918344.349999999627471 ], [ 39901.57499999999709, 5918344.349999999627471 ], [ 39901.57499999999709, 5918344.424999999813735 ], [ 39901.19999999999709, 5918344.424999999813735 ], [ 39901.19999999999709, 5918344.5 ], [ 39900.900000000001455, 5918344.5 ], [ 39900.900000000001455, 5918344.575000000186265 ], [ 39900.30000000000291, 5918344.575000000186265 ], [ 39900.30000000000291, 5918344.650000000372529 ], [ 39899.55000000000291, 5918344.650000000372529 ], [ 39899.55000000000291, 5918344.724999999627471 ], [ 39898.875, 5918344.724999999627471 ], [ 39898.875, 5918344.799999999813735 ], [ 39898.650000000001455, 5918344.799999999813735 ] ] ] } }
]
}
