{
"type": "FeatureCollection",
"name": "39183E595257N_buildings",
"crs": { "type": "name", "properties": { "name": "urn:ogc:def:crs:EPSG::3776" } },
"features": [
{ "type": "Feature", "properties": { "value": 1.0, "building_id": 0, "area": 23.360625000041257 }, "geometry": { "type": "Polygon", "coordinates": [ [ [ 39623.099999999998545, 5953084.950000000186265 ], [ 39623.099999999998545, 5953084.875 ], [ 39622.5, 5953084.875 ], [ 39622.5, 5953084.799999999813735 ], [ 39621.900000000001455, 5953084.799999999813735 ], [ 39621.900000000001455, 5953084.724999999627471 ], [ 39621.375, 5953084.724999999627471 ], [ 39621.375, 5953084.650000000372529 ], [ 39621.0, 5953084.650000000372529 ], [ 39621.0, 5953084.575000000186265 ], [ 39620.625, 5953084.575000000186265 ], [ 39620.625, 5953084.5 ], [ 39620.32499999999709, 5953084.5 ], [ 39620.32499999999709, 5953084.424999999813735 ], [ 39619.94999999999709, 5953084.424999999813735 ], [ 39619.94999999999709, 5953084.349999999627471 ], [ 39619.650000000001455, 5953084.349999999627471 ], [ 39619.650000000001455, 5953084.275000000372529 ], [ 39619.42500000000291, 5953084.275000000372529 ], [ 39619.42500000000291, 5953084.200000000186265 ], [ 39619.19999999999709, 5953084.200000000186265 ], [ 39619.19999999999709, 5953084.125 ], [ 39618.974999999998545, 5953084.125 ], [ 39618.974999999998545, 5953084.049999999813735 ], [ 39618.82499999999709, 5953084.049999999813735 ], [ 39618.82499999999709, 5953083.974999999627471 ], [ 39618.599999999998545, 5953083.974999999627471 ], [ 39618.599999999998545, 5953083.900000000372529 ], [ 39618.525000000001455, 5953083.900000000372529 ], [ 39618.525000000001455, 5953083.825000000186265 ], [ 39618.75, 5953083.825000000186265 ], [ 39618.75, 5953083.75 ], [ 39618.900000000001455, 5953083.75 ], [ 39618.900000000001455, 5953083.674999999813735 ], [ 39619.125, 5953083.674999999813735 ], [ 39619.125, 5953083.599999999627471 ], [ 39619.349999999998545, 5953083.599999999627471 ], [ 39619.349999999998545, 5953083.525000000372529 ], [ 39619.57499999999709, 5953083.525000000372529 ], [ 39619.57499999999709, 5953083.450000000186265 ], [ 39619.875, 5953083.450000000186265 ], [ 39619.875, 5953083.375 ], [ 39620.099999999998545, 5953083.375 ], [ 39620.099999999998545, 5953083.299999999813735 ], [ 39620.400000000001455, 5953083.299999999813735 ], [ 39620.400000000001455, 5953083.224999999627471 ], [ 39620.625, 5953083.224999999627471 ], [ 39620.625, 5953083.150000000372529 ], [ 39620.92500000000291, 5953083.150000000372529 ], [ 39620.92500000000291, 5953083.075000000186265 ], [ 39621.150000000001455, 5953083.075000000186265 ], [ 39621.150000000001455, 5953083.0 ], [ 39621.44999999999709, 5953083.0 ], [ 39621.44999999999709, 5953082.924999999813735 ], [ 39621.67500000000291, 5953082.924999999813735 ], [ 39621.67500000000291, 5953082.849999999627471 ], [ 39621.900000000001455, 5953082.849999999627471 ], [ 39621.900000000001455, 5953082.775000000372529 ], [ 39622.05000000000291, 5953082.775000000372529 ], [ 39622.05000000000291, 5953082.700000000186265 ], [ 39622.275000000001455, 5953082.700000000186265 ], [ 39622.275000000001455, 5953082.625 ], [ 39622.42500000000291, 5953082.625 ], [ 39622.42500000000291, 5953082.549999999813735 ], [ 39622.650000000001455, 5953082.549999999813735 ], [ 39622.650000000001455, 5953082.474999999627471 ], [ 39622.80000000000291, 5953082.474999999627471 ], [ 39622.80000000000291, 5953082.400000000372529 ], [ 39622.94999999999709, 5953082.400000000372529 ], [ 39622.94999999999709, 5953082.325000000186265 ], [ 39623.099999999998545, 5953082.325000000186265 ], [ 39623.099999999998545, 5953082.25 ], [ 39623.17500000000291, 5953082.25 ], [ 39623.17500000000291, 5953082.174999999813735 ], [ 39623.32499999999709, 5953082.174999999813735 ], [ 39623.32499999999709, 5953082.099999999627471 ], [ 39623.55000000000291, 5953082.099999999627471 ], [ 39623.55000000000291, 5953082.025000000372529 ], [ 39624.07499999999709, 5953082.025000000372529 ], [ 39624.07499999999709, 5953081.950000000186265 ], [ 39624.599999999998545, 5953081.950000000186265 ], [ 39624.599999999998545, 5953081.875 ], [ 39625.275000000001455, 5953081.875 ], [ 39625.275000000001455, 5953081.799999999813735 ], [ 39625.42500000000291, 5953081.799999999813735 ], [ 39625.42500000000291, 5953081.875 ], [ 39625.650000000001455, 5953081.875 ], [ 39625.650000000001455, 5953081.950000000186265 ], [ 39625.875, 5953081.950000000186265 ], [ 39625.875, 5953082.025000000372529 ], [ 39626.025000000001455, 5953082.025000000372529 ], [ 39626.025000000001455, 5953082.099999999627471 ], [ 39626.25, 5953082.099999999627471 ], [ 39626.25, 5953082.174999999813735 ], [ 39626.474999999998545, 5953082.174999999813735 ], [ 39626.474999999998545, 5953082.25 ], [ 39626.625, 5953082.25 ], [ 39626.625, 5953082.325000000186265 ], [ 39626.849999999998545, 5953082.325000000186265 ], [ 39626.849999999998545, 5953082.400000000372529 ], [ 39627.07499999999709, 5953082.400000000372529 ], [ 39627.07499999999709, 5953082.474999999627471 ], [ 39627.30000000000291, 5953082.474999999627471 ], [ 39627.30000000000291, 5953082.549999999813735 ], [ 39627.525000000001455, 5953082.549999999813735 ], [ 39627.525000000001455, 5953082.625 ], [ 39627.75, 5953082.625 ], [ 39627.75, 5953082.700000000186265 ], [ 39627.974999999998545, 5953082.700000000186265 ], [ 39627.974999999998545, 5953082.775000000372529 ], [ 39628.19999999999709, 5953082.775000000372529 ], [ 39628.19999999999709, 5953082.849999999627471 ], [ 39628.42500000000291, 5953082.849999999627471 ], [ 39628.42500000000291, 5953082.924999999813735 ], [ 39628.650000000001455, 5953082.924999999813735 ], [ 39628.650000000001455, 5953083.0 ], [ 39628.875, 5953083.0 ], [ 39628.875, 5953083.075000000186265 ], [ 39629.099999999998545, 5953083.075000000186265 ], [ 39629.099999999998545, 5953083.150000000372529 ], [ 39629.32499999999709, 5953083.150000000372529 ], [ 39629.32499999999709, 5953083.224999999627471 ], [ 39629.55000000000291, 5953083.224999999627471 ], [ 39629.55000000000291, 5953083.299999999813735 ], [ 39629.69999999999709, 5953083.299999999813735 ], [ 39629.69999999999709, 5953083.375 ], [ 39629.92500000000291, 5953083.375 ], [ 39629.92500000000291, 5953083.450000000186265 ], [ 39630.07499999999709, 5953083.450000000186265 ], [ 39630.07499999999709, 5953083.525000000372529 ], [ 39630.224999999998545, 5953083.525000000372529 ], [ 39630.224999999998545, 5953083.599999999627471 ], [ 39630.44999999999709, 5953083.599999999627471 ], [ 39630.44999999999709, 5953083.674999999813735 ], [ 39630.599999999998545, 5953083.674999999813735 ], [ 39630.599999999998545, 5953083.75 ], [ 39630.75, 5953083.75 ], [ 39630.75, 5953083.825000000186265 ], [ 39630.900000000001455, 5953083.825000000186265 ], [ 39630.900000000001455, 5953083.974999999627471 ], [ 39630.75, 5953083.974999999627471 ], [ 39630.75, 5953084.049999999813735 ], [ 39630.599999999998545, 5953084.049999999813735 ], [ 39630.599999999998545, 5953084.125 ], [ 39630.375, 5953084.125 ], [ 39630.375, 5953084.200000000186265 ], [ 39630.224999999998545, 5953084.200000000186265 ], [ 39630.224999999998545, 5953084.275000000372529 ], [ 39630.0, 5953084.275000000372529 ], [ 39630.0, 5953084.349999999627471 ], [ 39629.775000000001455, 5953084.349999999627471 ], [ 39629.775000000001455, 5953084.424999999813735 ], [ 39629.55000000000291, 5953084.424999999813735 ], [ 39629.55000000000291, 5953084.5 ], [ 39629.25, 5953084.5 ], [ 39629.25, 5953084.575000000186265 ], [ 39628.80000000000291, 5953084.575000000186265 ], [ 39628.80000000000291, 5953084.650000000372529 ], [ 39628.349999999998545, 5953084.650000000372529 ], [ 39628.349999999998545, 5953084.724999999627471 ], [ 39627.82499999999709, 5953084.724999999627471 ], [ 39627.82499999999709, 5953084.799999999813735 ], [ 39627.224999999998545, 5953084.799999999813735 ], [ 39627.224999999998545, 5953084.875 ], [ 39626.32499999999709, 5953084.875 ], [ 39626.32499999999709, 5953084.950000000186265 ], [ 39623.099999999998545, 5953084.950000000186265 ] ] ] } },
{ "type": "Feature", "properties": { "value": 1.0, "building_id": 1, "area": 196.67812500014003 }, "geometry": { "type": "Polygon", "coordinates": [ [ [ 39928.80000000000291, 5952604.349999999627471 ], [ 39928.80000000000291, 5952604.275000000372529 ], [ 39927.82499999999709, 5952604.275000000372529 ], [ 39927.82499999999709, 5952604.200000000186265 ], [ 39927.375, 5952604.200000000186265 ], [ 39927.375, 5952604.125 ], [ 39926.92500000000291, 5952604.125 ], [ 39926.92500000000291, 5952604.049999999813735 ], [ 39926.474999999998545, 5952604.049999999813735 ], [ 39926.474999999998545, 5952603.974999999627471 ], [ 39926.099999999998545, 5952603.974999999627471 ], [ 39926.099999999998545, 5952603.900000000372529 ], [ 39925.80000000000291, 5952603.900000000372529 ], [ 39925.80000000000291, 5952603.825000000186265 ], [ 39925.57499999999709, 5952603.825000000186265 ], [ 39925.57499999999709, 5952603.75 ], [ 39925.275000000001455, 5952603.75 ], [ 39925.275000000001455, 5952603.674999999813735 ], [ 39925.05000000000291, 5952603.674999999813735 ], [ 39925.05000000000291, 5952603.599999999627471 ], [ 39924.82499999999709, 5952603.599999999627471 ], [ 39924.82499999999709, 5952603.525000000372529 ], [ 39924.599999999998545, 5952603.525000000372529 ], [ 39924.599999999998545, 5952603.450000000186265 ], [ 39924.44999999999709, 5952603.450000000186265 ], [ 39924.44999999999709, 5952603.375 ], [ 39924.224999999998545, 5952603.375 ], [ 39924.224999999998545, 5952603.299999999813735 ], [ 39923.92500000000291, 5952603.299999999813735 ], [ 39923.92500000000291, 5952603.224999999627471 ], [ 39923.55000000000291, 5952603.224999999627471 ], [ 39923.55000000000291, 5952603.150000000372529 ], [ 39923.17500000000291, 5952603.150000000372529 ], [ 39923.17500000000291, 5952603.075000000186265 ], [ 39922.80000000000291, 5952603.075000000186265 ], [ 39922.80000000000291, 5952603.0 ], [ 39922.349999999998545, 5952603.0 ], [ 39922.349999999998545, 5952602.924999999813735 ], [ 39921.44999999999709, 5952602.924999999813735 ], [ 39921.44999999999709, 5952602.849999999627471 ], [ 39920.32499999999709, 5952602.849999999627471 ], [ 39920.32499999999709, 5952602.775000000372529 ], [ 39917.849999999998545, 5952602.775000000372529 ], [ 39917.849999999998545, 5952602.700000000186265 ], [ 39917.400000000001455, 5952602.700000000186265 ], [ 39917.400000000001455, 5952602.625 ], [ 39917.025000000001455, 5952602.625 ], [ 39917.025000000001455, 5952602.549999999813735 ], [ 39916.724999999998545, 5952602.549999999813735 ], [ 39916.724999999998545, 5952602.474999999627471 ], [ 39916.42500000000291, 5952602.474999999627471 ], [ 39916.42500000000291, 5952602.400000000372529 ], [ 39916.275000000001455, 5952602.400000000372529 ], [ 39916.275000000001455, 5952602.325000000186265 ], [ 39916.05000000000291, 5952602.325000000186265 ], [ 39916.05000000000291, 5952602.25 ], [ 39915.900000000001455, 5952602.25 ], [ 39915.900000000001455, 5952602.174999999813735 ], [ 39915.75, 5952602.174999999813735 ], [ 39915.75, 5952602.099999999627471 ], [ 39915.599999999998545, 5952602.099999999627471 ], [ 39915.599999999998545, 5952602.025000000372529 ], [ 39915.525000000001455, 5952602.025000000372529 ], [ 39915.525000000001455, 5952601.950000000186265 ], [ 39915.44999999999709, 5952601.950000000186265 ], [ 39915.44999999999709, 5952601.875 ], [ 39915.375, 5952601.875 ], [ 39915.375, 5952601.650000000372529 ], [ 39915.30000000000291, 5952601.650000000372529 ], [ 39915.30000000000291, 5952601.424999999813735 ], [ 39915.150000000001455, 5952601.424999999813735 ], [ 39915.150000000001455, 5952601.349999999627471 ], [ 39915.07499999999709, 5952601.349999999627471 ], [ 39915.07499999999709, 5952601.275000000372529 ], [ 39915.0, 5952601.275000000372529 ], [ 39915.0, 5952601.200000000186265 ], [ 39914.92500000000291, 5952601.200000000186265 ], [ 39914.92500000000291, 5952601.125 ], [ 39914.849999999998545, 5952601.125 ], [ 39914.849999999998545, 5952601.049999999813735 ], [ 39914.775000000001455, 5952601.049999999813735 ], [ 39914.775000000001455, 5952600.974999999627471 ], [ 39914.625, 5952600.974999999627471 ], [ 39914.625, 5952600.900000000372529 ], [ 39914.55000000000291, 5952600.900000000372529 ], [ 39914.55000000000291, 5952600.825000000186265 ], [ 39914.400000000001455, 5952600.825000000186265 ], [ 39914.400000000001455, 5952600.75 ], [ 39914.32499999999709, 5952600.75 ], [ 39914.32499999999709, 5952600.674999999813735 ], [ 39914.25, 5952600.674999999813735 ], [ 39914.25, 5952600.599999999627471 ], [ 39914.17500000000291, 5952600.599999999627471 ], [ 39914.17500000000291, 5952600.525000000372529 ], [ 39914.099999999998545, 5952600.525000000372529 ], [ 39914.099999999998545, 5952600.450000000186265 ], [ 39914.025000000001455, 5952600.450000000186265 ], [ 39914.025000000001455, 5952600.375 ], [ 39913.94999999999709, 5952600.375 ], [ 39913.94999999999709, 5952600.299999999813735 ], [ 39913.875, 5952600.299999999813735 ], [ 39913.875, 5952600.150000000372529 ], [ 39913.80000000000291, 5952600.150000000372529 ], [ 39913.80000000000291, 5952600.075000000186265 ], [ 39913.724999999998545, 5952600.075000000186265 ], [ 39913.724999999998545, 5952599.924999999813735 ], [ 39913.650000000001455, 5952599.924999999813735 ], [ 39913.650000000001455, 5952599.775000000372529 ], [ 39913.57499999999709, 5952599.775000000372529 ], [ 39913.57499999999709, 5952599.625 ], [ 39913.5, 5952599.625 ], [ 39913.5, 5952597.674999999813735 ], [ 39913.57499999999709, 5952597.674999999813735 ], [ 39913.57499999999709, 5952597.375 ], [ 39913.650000000001455, 5952597.375 ], [ 39913.650000000001455, 5952597.224999999627471 ], [ 39913.724999999998545, 5952597.224999999627471 ], [ 39913.724999999998545, 5952597.075000000186265 ], [ 39913.80000000000291, 5952597.075000000186265 ], [ 39913.80000000000291, 5952597.0 ], [ 39913.875, 5952597.0 ], [ 39913.875, 5952596.849999999627471 ], [ 39913.94999999999709, 5952596.849999999627471 ], [ 39913.94999999999709, 5952596.775000000372529 ], [ 39914.025000000001455, 5952596.775000000372529 ], [ 39914.025000000001455, 5952596.700000000186265 ], [ 39914.099999999998545, 5952596.700000000186265 ], [ 39914.099999999998545, 5952596.625 ], [ 39914.17500000000291, 5952596.625 ], [ 39914.17500000000291, 5952596.549999999813735 ], [ 39914.25, 5952596.549999999813735 ], [ 39914.25, 5952596.474999999627471 ], [ 39914.32499999999709, 5952596.474999999627471 ], [ 39914.32499999999709, 5952596.400000000372529 ], [ 39914.474999999998545, 5952596.400000000372529 ], [ 39914.474999999998545, 5952596.325000000186265 ], [ 39914.55000000000291, 5952596.325000000186265 ], [ 39914.55000000000291, 5952596.25 ], [ 39914.625, 5952596.25 ], [ 39914.625, 5952596.174999999813735 ], [ 39914.69999999999709, 5952596.174999999813735 ], [ 39914.69999999999709, 5952596.099999999627471 ], [ 39914.775000000001455, 5952596.099999999627471 ], [ 39914.775000000001455, 5952596.025000000372529 ], [ 39914.849999999998545, 5952596.025000000372529 ], [ 39914.849999999998545, 5952595.950000000186265 ], [ 39914.92500000000291, 5952595.950000000186265 ], [ 39914.92500000000291, 5952595.875 ], [ 39915.0, 5952595.875 ], [ 39915.0, 5952595.724999999627471 ], [ 39915.07499999999709, 5952595.724999999627471 ], [ 39915.07499999999709, 5952595.650000000372529 ], [ 39915.150000000001455, 5952595.650000000372529 ], [ 39915.150000000001455, 5952595.5 ], [ 39915.224999999998545, 5952595.5 ], [ 39915.224999999998545, 5952595.275000000372529 ], [ 39915.30000000000291, 5952595.275000000372529 ], [ 39915.30000000000291, 5952595.125 ], [ 39915.375, 5952595.125 ], [ 39915.375, 5952595.049999999813735 ], [ 39915.44999999999709, 5952595.049999999813735 ], [ 39915.44999999999709, 5952594.900000000372529 ], [ 39915.525000000001455, 5952594.900000000372529 ], [ 39915.525000000001455, 5952594.825000000186265 ], [ 39915.599999999998545, 5952594.825000000186265 ], [ 39915.599999999998545, 5952594.75 ], [ 39915.67500000000291, 5952594.75 ], [ 39915.67500000000291, 5952594.674999999813735 ], [ 39915.75, 5952594.674999999813735 ], [ 39915.75, 5952594.599999999627471 ], [ 39915.82499999999709, 5952594.599999999627471 ], [ 39915.82499999999709, 5952594.525000000372529 ], [ 39915.900000000001455, 5952594.525000000372529 ], [ 39915.900000000001455, 5952594.450000000186265 ], [ 39915.974999999998545, 5952594.450000000186265 ], [ 39915.974999999998545, 5952594.375 ], [ 39916.125, 5952594.375 ], [ 39916.125, 5952594.299999999813735 ], [ 39916.19999999999709, 5952594.299999999813735 ], [ 39916.19999999999709, 5952594.224999999627471 ], [ 39916.349999999998545, 5952594.224999999627471 ], [ 39916.349999999998545, 5952594.150000000372529 ], [ 39916.650000000001455, 5952594.150000000372529 ], [ 39916.650000000001455, 5952594.075000000186265 ], [ 39917.099999999998545, 5952594.075000000186265 ], [ 39917.099999999998545, 5952594.0 ], [ 39917.69999999999709, 5952594.0 ], [ 39917.69999999999709, 5952593.924999999813735 ], [ 39918.30000000000291, 5952593.924999999813735 ], [ 39918.30000000000291, 5952593.849999999627471 ], [ 39918.44999999999709, 5952593.849999999627471 ], [ 39918.44999999999709, 5952593.775000000372529 ], [ 39918.525000000001455, 5952593.775000000372529 ], [ 39918.525000000001455, 5952593.700000000186265 ], [ 39918.599999999998545, 5952593.700000000186265 ], [ 39918.599999999998545, 5952593.549999999813735 ], [ 39918.67500000000291, 5952593.549999999813735 ], [ 39918.67500000000291, 5952593.400000000372529 ], [ 39918.75, 5952593.400000000372529 ], [ 39918.75, 5952593.25 ], [ 39918.82499999999709, 5952593.25 ], [ 39918.82499999999709, 5952593.099999999627471 ], [ 39918.900000000001455, 5952593.099999999627471 ], [ 39918.900000000001455, 5952593.025000000372529 ], [ 39918.974999999998545, 5952593.025000000372529 ], [ 39918.974999999998545, 5952592.950000000186265 ], [ 39919.05000000000291, 5952592.950000000186265 ], [ 39919.05000000000291, 5952592.875 ], [ 39919.125, 5952592.875 ], [ 39919.125, 5952592.799999999813735 ], [ 39919.19999999999709, 5952592.799999999813735 ], [ 39919.19999999999709, 5952592.724999999627471 ], [ 39919.275000000001455, 5952592.724999999627471 ], [ 39919.275000000001455, 5952592.650000000372529 ], [ 39919.42500000000291, 5952592.650000000372529 ], [ 39919.42500000000291, 5952592.575000000186265 ], [ 39919.57499999999709, 5952592.575000000186265 ], [ 39919.57499999999709, 5952592.5 ], [ 39919.724999999998545, 5952592.5 ], [ 39919.724999999998545, 5952592.424999999813735 ], [ 39919.94999999999709, 5952592.424999999813735 ], [ 39919.94999999999709, 5952592.349999999627471 ], [ 39920.17500000000291, 5952592.349999999627471 ], [ 39920.17500000000291, 5952592.275000000372529 ], [ 39921.974999999998545, 5952592.275000000372529 ], [ 39921.974999999998545, 5952592.349999999627471 ], [ 39925.19999999999709, 5952592.349999999627471 ], [ 39925.19999999999709, 5952592.424999999813735 ], [ 39927.67500000000291, 5952592.424999999813735 ], [ 39927.67500000000291, 5952592.5 ], [ 39933.0, 5952592.5 ], [ 39933.0, 5952604.349999999627471 ], [ 39928.80000000000291, 5952604.349999999627471 ] ] ] } }
]
}
