{
"type": "FeatureCollection",
"name": "39933E594432N_buildings",
"crs": { "type": "name", "properties": { "name": "urn:ogc:def:crs:EPSG::3776" } },
"features": [
{ "type": "Feature", "properties": { "value": 1.0, "building_id": 0, "area": 4.1399999998047532 }, "geometry": { "type": "Polygon", "coordinates": [ [ [ 40240.57499999999709, 5944389.375 ], [ 40240.57499999999709, 5944389.299999999813735 ], [ 40240.275000000001455, 5944389.299999999813735 ], [ 40240.275000000001455, 5944389.224999999627471 ], [ 40239.974999999998545, 5944389.224999999627471 ], [ 40239.974999999998545, 5944389.150000000372529 ], [ 40239.67500000000291, 5944389.150000000372529 ], [ 40239.67500000000291, 5944389.075000000186265 ], [ 40239.44999999999709, 5944389.075000000186265 ], [ 40239.44999999999709, 5944389.0 ], [ 40239.224999999998545, 5944389.0 ], [ 40239.224999999998545, 5944388.924999999813735 ], [ 40239.0, 5944388.924999999813735 ], [ 40239.0, 5944388.849999999627471 ], [ 40238.775000000001455, 5944388.849999999627471 ], [ 40238.775000000001455, 5944388.775000000372529 ], [ 40238.625, 5944388.775000000372529 ], [ 40238.625, 5944388.700000000186265 ], [ 40238.474999999998545, 5944388.700000000186265 ], [ 40238.474999999998545, 5944388.625 ], [ 40238.400000000001455, 5944388.625 ], [ 40238.400000000001455, 5944388.549999999813735 ], [ 40238.474999999998545, 5944388.549999999813735 ], [ 40238.474999999998545, 5944388.474999999627471 ], [ 40238.625, 5944388.474999999627471 ], [ 40238.625, 5944388.400000000372529 ], [ 40238.775000000001455, 5944388.400000000372529 ], [ 40238.775000000001455, 5944388.325000000186265 ], [ 40239.07499999999709, 5944388.325000000186265 ], [ 40239.07499999999709, 5944388.25 ], [ 40239.30000000000291, 5944388.25 ], [ 40239.30000000000291, 5944388.174999999813735 ], [ 40239.525000000001455, 5944388.174999999813735 ], [ 40239.525000000001455, 5944388.099999999627471 ], [ 40239.82499999999709, 5944388.099999999627471 ], [ 40239.82499999999709, 5944388.025000000372529 ], [ 40240.125, 5944388.025000000372529 ], [ 40240.125, 5944387.950000000186265 ], [ 40240.42500000000291, 5944387.950000000186265 ], [ 40240.42500000000291, 5944387.875 ], [ 40240.875, 5944387.875 ], [ 40240.875, 5944387.950000000186265 ], [ 40241.25, 5944387.950000000186265 ], [ 40241.25, 5944388.025000000372529 ], [ 40241.625, 5944388.025000000372529 ], [ 40241.625, 5944388.099999999627471 ], [ 40242.0, 5944388.099999999627471 ], [ 40242.0, 5944388.174999999813735 ], [ 40242.30000000000291, 5944388.174999999813735 ], [ 40242.30000000000291, 5944388.25 ], [ 40242.599999999998545, 5944388.25 ], [ 40242.599999999998545, 5944388.325000000186265 ], [ 40242.67500000000291, 5944388.325000000186265 ], [ 40242.67500000000291, 5944388.400000000372529 ], [ 40242.75, 5944388.400000000372529 ], [ 40242.75, 5944388.474999999627471 ], [ 40242.82499999999709, 5944388.474999999627471 ], [ 40242.82499999999709, 5944388.549999999813735 ], [ 40242.900000000001455, 5944388.549999999813735 ], [ 40242.900000000001455, 5944388.625 ], [ 40242.82499999999709, 5944388.625 ], [ 40242.82499999999709, 5944388.700000000186265 ], [ 40242.75, 5944388.700000000186265 ], [ 40242.75, 5944388.775000000372529 ], [ 40242.67500000000291, 5944388.775000000372529 ], [ 40242.67500000000291, 5944388.849999999627471 ], [ 40242.599999999998545, 5944388.849999999627471 ], [ 40242.599999999998545, 5944388.924999999813735 ], [ 40242.30000000000291, 5944388.924999999813735 ], [ 40242.30000000000291, 5944389.0 ], [ 40242.07499999999709, 5944389.0 ], [ 40242.07499999999709, 5944389.075000000186265 ], [ 40241.69999999999709, 5944389.075000000186265 ], [ 40241.69999999999709, 5944389.150000000372529 ], [ 40241.400000000001455, 5944389.150000000372529 ], [ 40241.400000000001455, 5944389.224999999627471 ], [ 40241.025000000001455, 5944389.224999999627471 ], [ 40241.025000000001455, 5944389.299999999813735 ], [ 40240.650000000001455, 5944389.299999999813735 ], [ 40240.650000000001455, 5944389.375 ], [ 40240.57499999999709, 5944389.375 ] ] ] } }
]
}
