{
"type": "FeatureCollection",
"name": "39933E594582N_buildings",
"crs": { "type": "name", "properties": { "name": "urn:ogc:def:crs:EPSG::3776" } },
"features": [
{ "type": "Feature", "properties": { "value": 1.0, "building_id": 0, "area": 396.37687500001641 }, "geometry": { "type": "Polygon", "coordinates": [ [ [ 40154.25, 5945964.075000000186265 ], [ 40154.25, 5945964.0 ], [ 40153.724999999998545, 5945964.0 ], [ 40153.724999999998545, 5945963.924999999813735 ], [ 40153.275000000001455, 5945963.924999999813735 ], [ 40153.275000000001455, 5945963.849999999627471 ], [ 40152.75, 5945963.849999999627471 ], [ 40152.75, 5945963.775000000372529 ], [ 40152.07499999999709, 5945963.775000000372529 ], [ 40152.07499999999709, 5945963.700000000186265 ], [ 40151.55000000000291, 5945963.700000000186265 ], [ 40151.55000000000291, 5945963.625 ], [ 40151.025000000001455, 5945963.625 ], [ 40151.025000000001455, 5945963.549999999813735 ], [ 40150.57499999999709, 5945963.549999999813735 ], [ 40150.57499999999709, 5945963.474999999627471 ], [ 40150.275000000001455, 5945963.474999999627471 ], [ 40150.275000000001455, 5945963.400000000372529 ], [ 40149.974999999998545, 5945963.400000000372529 ], [ 40149.974999999998545, 5945963.325000000186265 ], [ 40149.75, 5945963.325000000186265 ], [ 40149.75, 5945963.25 ], [ 40149.525000000001455, 5945963.25 ], [ 40149.525000000001455, 5945963.174999999813735 ], [ 40149.30000000000291, 5945963.174999999813735 ], [ 40149.30000000000291, 5945963.099999999627471 ], [ 40149.07499999999709, 5945963.099999999627471 ], [ 40149.07499999999709, 5945963.025000000372529 ], [ 40148.92500000000291, 5945963.025000000372529 ], [ 40148.92500000000291, 5945962.950000000186265 ], [ 40148.775000000001455, 5945962.950000000186265 ], [ 40148.775000000001455, 5945962.875 ], [ 40148.69999999999709, 5945962.875 ], [ 40148.69999999999709, 5945962.799999999813735 ], [ 40148.625, 5945962.799999999813735 ], [ 40148.625, 5945962.650000000372529 ], [ 40148.55000000000291, 5945962.650000000372529 ], [ 40148.55000000000291, 5945962.5 ], [ 40148.474999999998545, 5945962.5 ], [ 40148.474999999998545, 5945962.275000000372529 ], [ 40148.400000000001455, 5945962.275000000372529 ], [ 40148.400000000001455, 5945962.125 ], [ 40148.32499999999709, 5945962.125 ], [ 40148.32499999999709, 5945961.900000000372529 ], [ 40148.25, 5945961.900000000372529 ], [ 40148.25, 5945961.674999999813735 ], [ 40148.17500000000291, 5945961.674999999813735 ], [ 40148.17500000000291, 5945961.450000000186265 ], [ 40148.099999999998545, 5945961.450000000186265 ], [ 40148.099999999998545, 5945961.224999999627471 ], [ 40148.025000000001455, 5945961.224999999627471 ], [ 40148.025000000001455, 5945961.0 ], [ 40147.94999999999709, 5945961.0 ], [ 40147.94999999999709, 5945960.775000000372529 ], [ 40147.875, 5945960.775000000372529 ], [ 40147.875, 5945960.625 ], [ 40147.80000000000291, 5945960.625 ], [ 40147.80000000000291, 5945960.474999999627471 ], [ 40147.724999999998545, 5945960.474999999627471 ], [ 40147.724999999998545, 5945960.400000000372529 ], [ 40147.650000000001455, 5945960.400000000372529 ], [ 40147.650000000001455, 5945960.25 ], [ 40147.57499999999709, 5945960.25 ], [ 40147.57499999999709, 5945960.174999999813735 ], [ 40147.5, 5945960.174999999813735 ], [ 40147.5, 5945960.025000000372529 ], [ 40147.42500000000291, 5945960.025000000372529 ], [ 40147.42500000000291, 5945959.950000000186265 ], [ 40147.349999999998545, 5945959.950000000186265 ], [ 40147.349999999998545, 5945959.875 ], [ 40147.275000000001455, 5945959.875 ], [ 40147.275000000001455, 5945959.799999999813735 ], [ 40147.19999999999709, 5945959.799999999813735 ], [ 40147.19999999999709, 5945959.724999999627471 ], [ 40147.125, 5945959.724999999627471 ], [ 40147.125, 5945959.650000000372529 ], [ 40147.05000000000291, 5945959.650000000372529 ], [ 40147.05000000000291, 5945959.575000000186265 ], [ 40146.974999999998545, 5945959.575000000186265 ], [ 40146.974999999998545, 5945959.5 ], [ 40146.82499999999709, 5945959.5 ], [ 40146.82499999999709, 5945959.424999999813735 ], [ 40146.75, 5945959.424999999813735 ], [ 40146.75, 5945959.349999999627471 ], [ 40146.67500000000291, 5945959.349999999627471 ], [ 40146.67500000000291, 5945959.200000000186265 ], [ 40146.599999999998545, 5945959.200000000186265 ], [ 40146.599999999998545, 5945959.125 ], [ 40146.525000000001455, 5945959.125 ], [ 40146.525000000001455, 5945959.049999999813735 ], [ 40146.44999999999709, 5945959.049999999813735 ], [ 40146.44999999999709, 5945958.900000000372529 ], [ 40146.375, 5945958.900000000372529 ], [ 40146.375, 5945958.299999999813735 ], [ 40146.30000000000291, 5945958.299999999813735 ], [ 40146.30000000000291, 5945957.25 ], [ 40146.224999999998545, 5945957.25 ], [ 40146.224999999998545, 5945956.049999999813735 ], [ 40146.30000000000291, 5945956.049999999813735 ], [ 40146.30000000000291, 5945954.549999999813735 ], [ 40146.375, 5945954.549999999813735 ], [ 40146.375, 5945954.025000000372529 ], [ 40146.44999999999709, 5945954.025000000372529 ], [ 40146.44999999999709, 5945953.5 ], [ 40146.525000000001455, 5945953.5 ], [ 40146.525000000001455, 5945953.049999999813735 ], [ 40146.599999999998545, 5945953.049999999813735 ], [ 40146.599999999998545, 5945952.825000000186265 ], [ 40146.67500000000291, 5945952.825000000186265 ], [ 40146.67500000000291, 5945952.674999999813735 ], [ 40146.75, 5945952.674999999813735 ], [ 40146.75, 5945952.450000000186265 ], [ 40146.82499999999709, 5945952.450000000186265 ], [ 40146.82499999999709, 5945952.299999999813735 ], [ 40146.900000000001455, 5945952.299999999813735 ], [ 40146.900000000001455, 5945952.150000000372529 ], [ 40146.974999999998545, 5945952.150000000372529 ], [ 40146.974999999998545, 5945952.0 ], [ 40147.05000000000291, 5945952.0 ], [ 40147.05000000000291, 5945951.775000000372529 ], [ 40147.125, 5945951.775000000372529 ], [ 40147.125, 5945951.625 ], [ 40147.19999999999709, 5945951.625 ], [ 40147.19999999999709, 5945951.400000000372529 ], [ 40147.275000000001455, 5945951.400000000372529 ], [ 40147.275000000001455, 5945951.099999999627471 ], [ 40147.349999999998545, 5945951.099999999627471 ], [ 40147.349999999998545, 5945948.775000000372529 ], [ 40147.275000000001455, 5945948.775000000372529 ], [ 40147.275000000001455, 5945948.400000000372529 ], [ 40147.19999999999709, 5945948.400000000372529 ], [ 40147.19999999999709, 5945948.174999999813735 ], [ 40147.125, 5945948.174999999813735 ], [ 40147.125, 5945947.875 ], [ 40147.05000000000291, 5945947.875 ], [ 40147.05000000000291, 5945947.650000000372529 ], [ 40146.974999999998545, 5945947.650000000372529 ], [ 40146.974999999998545, 5945947.424999999813735 ], [ 40146.900000000001455, 5945947.424999999813735 ], [ 40146.900000000001455, 5945947.200000000186265 ], [ 40146.82499999999709, 5945947.200000000186265 ], [ 40146.82499999999709, 5945946.974999999627471 ], [ 40146.75, 5945946.974999999627471 ], [ 40146.75, 5945946.674999999813735 ], [ 40146.67500000000291, 5945946.674999999813735 ], [ 40146.67500000000291, 5945946.375 ], [ 40146.599999999998545, 5945946.375 ], [ 40146.599999999998545, 5945946.0 ], [ 40146.525000000001455, 5945946.0 ], [ 40146.525000000001455, 5945945.625 ], [ 40146.44999999999709, 5945945.625 ], [ 40146.44999999999709, 5945945.174999999813735 ], [ 40146.375, 5945945.174999999813735 ], [ 40146.375, 5945943.75 ], [ 40146.30000000000291, 5945943.75 ], [ 40146.30000000000291, 5945943.224999999627471 ], [ 40146.375, 5945943.224999999627471 ], [ 40146.375, 5945943.075000000186265 ], [ 40146.44999999999709, 5945943.075000000186265 ], [ 40146.44999999999709, 5945942.924999999813735 ], [ 40146.525000000001455, 5945942.924999999813735 ], [ 40146.525000000001455, 5945942.775000000372529 ], [ 40146.599999999998545, 5945942.775000000372529 ], [ 40146.599999999998545, 5945942.625 ], [ 40146.67500000000291, 5945942.625 ], [ 40146.67500000000291, 5945942.549999999813735 ], [ 40146.75, 5945942.549999999813735 ], [ 40146.75, 5945942.474999999627471 ], [ 40146.82499999999709, 5945942.474999999627471 ], [ 40146.82499999999709, 5945942.400000000372529 ], [ 40146.900000000001455, 5945942.400000000372529 ], [ 40146.900000000001455, 5945942.325000000186265 ], [ 40146.974999999998545, 5945942.325000000186265 ], [ 40146.974999999998545, 5945942.25 ], [ 40147.05000000000291, 5945942.25 ], [ 40147.05000000000291, 5945942.174999999813735 ], [ 40147.125, 5945942.174999999813735 ], [ 40147.125, 5945942.025000000372529 ], [ 40147.19999999999709, 5945942.025000000372529 ], [ 40147.19999999999709, 5945941.950000000186265 ], [ 40147.275000000001455, 5945941.950000000186265 ], [ 40147.275000000001455, 5945941.875 ], [ 40147.349999999998545, 5945941.875 ], [ 40147.349999999998545, 5945941.799999999813735 ], [ 40147.42500000000291, 5945941.799999999813735 ], [ 40147.42500000000291, 5945941.650000000372529 ], [ 40147.5, 5945941.650000000372529 ], [ 40147.5, 5945941.5 ], [ 40147.57499999999709, 5945941.5 ], [ 40147.57499999999709, 5945941.424999999813735 ], [ 40147.650000000001455, 5945941.424999999813735 ], [ 40147.650000000001455, 5945941.275000000372529 ], [ 40147.724999999998545, 5945941.275000000372529 ], [ 40147.724999999998545, 5945941.200000000186265 ], [ 40147.80000000000291, 5945941.200000000186265 ], [ 40147.80000000000291, 5945941.125 ], [ 40147.875, 5945941.125 ], [ 40147.875, 5945941.049999999813735 ], [ 40147.94999999999709, 5945941.049999999813735 ], [ 40147.94999999999709, 5945940.974999999627471 ], [ 40148.025000000001455, 5945940.974999999627471 ], [ 40148.025000000001455, 5945940.900000000372529 ], [ 40148.099999999998545, 5945940.900000000372529 ], [ 40148.099999999998545, 5945940.825000000186265 ], [ 40148.17500000000291, 5945940.825000000186265 ], [ 40148.17500000000291, 5945940.75 ], [ 40148.32499999999709, 5945940.75 ], [ 40148.32499999999709, 5945940.674999999813735 ], [ 40148.400000000001455, 5945940.674999999813735 ], [ 40148.400000000001455, 5945940.599999999627471 ], [ 40148.55000000000291, 5945940.599999999627471 ], [ 40148.55000000000291, 5945940.525000000372529 ], [ 40148.69999999999709, 5945940.525000000372529 ], [ 40148.69999999999709, 5945940.450000000186265 ], [ 40148.849999999998545, 5945940.450000000186265 ], [ 40148.849999999998545, 5945940.375 ], [ 40149.30000000000291, 5945940.375 ], [ 40149.30000000000291, 5945940.299999999813735 ], [ 40149.82499999999709, 5945940.299999999813735 ], [ 40149.82499999999709, 5945940.224999999627471 ], [ 40150.275000000001455, 5945940.224999999627471 ], [ 40150.275000000001455, 5945940.150000000372529 ], [ 40150.80000000000291, 5945940.150000000372529 ], [ 40150.80000000000291, 5945940.075000000186265 ], [ 40151.25, 5945940.075000000186265 ], [ 40151.25, 5945940.0 ], [ 40151.69999999999709, 5945940.0 ], [ 40151.69999999999709, 5945939.924999999813735 ], [ 40152.150000000001455, 5945939.924999999813735 ], [ 40152.150000000001455, 5945939.849999999627471 ], [ 40152.599999999998545, 5945939.849999999627471 ], [ 40152.599999999998545, 5945939.775000000372529 ], [ 40152.900000000001455, 5945939.775000000372529 ], [ 40152.900000000001455, 5945939.700000000186265 ], [ 40153.19999999999709, 5945939.700000000186265 ], [ 40153.19999999999709, 5945939.625 ], [ 40153.42500000000291, 5945939.625 ], [ 40153.42500000000291, 5945939.549999999813735 ], [ 40153.650000000001455, 5945939.549999999813735 ], [ 40153.650000000001455, 5945939.474999999627471 ], [ 40153.875, 5945939.474999999627471 ], [ 40153.875, 5945939.400000000372529 ], [ 40154.099999999998545, 5945939.400000000372529 ], [ 40154.099999999998545, 5945939.325000000186265 ], [ 40154.32499999999709, 5945939.325000000186265 ], [ 40154.32499999999709, 5945939.25 ], [ 40154.474999999998545, 5945939.25 ], [ 40154.474999999998545, 5945939.174999999813735 ], [ 40155.0, 5945939.174999999813735 ], [ 40155.0, 5945939.25 ], [ 40155.30000000000291, 5945939.25 ], [ 40155.30000000000291, 5945939.325000000186265 ], [ 40155.67500000000291, 5945939.325000000186265 ], [ 40155.67500000000291, 5945939.400000000372529 ], [ 40155.974999999998545, 5945939.400000000372529 ], [ 40155.974999999998545, 5945939.474999999627471 ], [ 40156.349999999998545, 5945939.474999999627471 ], [ 40156.349999999998545, 5945939.549999999813735 ], [ 40156.724999999998545, 5945939.549999999813735 ], [ 40156.724999999998545, 5945939.625 ], [ 40157.025000000001455, 5945939.625 ], [ 40157.025000000001455, 5945939.700000000186265 ], [ 40157.32499999999709, 5945939.700000000186265 ], [ 40157.32499999999709, 5945939.775000000372529 ], [ 40157.625, 5945939.775000000372529 ], [ 40157.625, 5945939.849999999627471 ], [ 40158.0, 5945939.849999999627471 ], [ 40158.0, 5945939.924999999813735 ], [ 40158.44999999999709, 5945939.924999999813735 ], [ 40158.44999999999709, 5945940.0 ], [ 40158.974999999998545, 5945940.0 ], [ 40158.974999999998545, 5945940.075000000186265 ], [ 40159.57499999999709, 5945940.075000000186265 ], [ 40159.57499999999709, 5945940.150000000372529 ], [ 40160.17500000000291, 5945940.150000000372529 ], [ 40160.17500000000291, 5945940.224999999627471 ], [ 40160.775000000001455, 5945940.224999999627471 ], [ 40160.775000000001455, 5945940.299999999813735 ], [ 40161.224999999998545, 5945940.299999999813735 ], [ 40161.224999999998545, 5945940.375 ], [ 40161.67500000000291, 5945940.375 ], [ 40161.67500000000291, 5945940.450000000186265 ], [ 40162.05000000000291, 5945940.450000000186265 ], [ 40162.05000000000291, 5945940.525000000372529 ], [ 40162.42500000000291, 5945940.525000000372529 ], [ 40162.42500000000291, 5945940.599999999627471 ], [ 40162.57499999999709, 5945940.599999999627471 ], [ 40162.57499999999709, 5945940.674999999813735 ], [ 40162.724999999998545, 5945940.674999999813735 ], [ 40162.724999999998545, 5945940.75 ], [ 40162.80000000000291, 5945940.75 ], [ 40162.80000000000291, 5945940.825000000186265 ], [ 40162.875, 5945940.825000000186265 ], [ 40162.875, 5945940.900000000372529 ], [ 40162.94999999999709, 5945940.900000000372529 ], [ 40162.94999999999709, 5945940.974999999627471 ], [ 40163.025000000001455, 5945940.974999999627471 ], [ 40163.025000000001455, 5945941.049999999813735 ], [ 40163.099999999998545, 5945941.049999999813735 ], [ 40163.099999999998545, 5945941.125 ], [ 40163.17500000000291, 5945941.125 ], [ 40163.17500000000291, 5945941.200000000186265 ], [ 40163.25, 5945941.200000000186265 ], [ 40163.25, 5945941.349999999627471 ], [ 40163.32499999999709, 5945941.349999999627471 ], [ 40163.32499999999709, 5945941.575000000186265 ], [ 40163.400000000001455, 5945941.575000000186265 ], [ 40163.400000000001455, 5945941.724999999627471 ], [ 40163.474999999998545, 5945941.724999999627471 ], [ 40163.474999999998545, 5945941.950000000186265 ], [ 40163.55000000000291, 5945941.950000000186265 ], [ 40163.55000000000291, 5945942.099999999627471 ], [ 40163.625, 5945942.099999999627471 ], [ 40163.625, 5945942.25 ], [ 40163.69999999999709, 5945942.25 ], [ 40163.69999999999709, 5945942.400000000372529 ], [ 40163.775000000001455, 5945942.400000000372529 ], [ 40163.775000000001455, 5945942.549999999813735 ], [ 40163.849999999998545, 5945942.549999999813735 ], [ 40163.849999999998545, 5945942.700000000186265 ], [ 40163.92500000000291, 5945942.700000000186265 ], [ 40163.92500000000291, 5945942.849999999627471 ], [ 40164.0, 5945942.849999999627471 ], [ 40164.0, 5945943.0 ], [ 40164.07499999999709, 5945943.0 ], [ 40164.07499999999709, 5945943.150000000372529 ], [ 40164.150000000001455, 5945943.150000000372529 ], [ 40164.150000000001455, 5945943.299999999813735 ], [ 40164.224999999998545, 5945943.299999999813735 ], [ 40164.224999999998545, 5945944.650000000372529 ], [ 40164.30000000000291, 5945944.650000000372529 ], [ 40164.30000000000291, 5945946.075000000186265 ], [ 40164.375, 5945946.075000000186265 ], [ 40164.375, 5945947.575000000186265 ], [ 40164.44999999999709, 5945947.575000000186265 ], [ 40164.44999999999709, 5945949.075000000186265 ], [ 40164.525000000001455, 5945949.075000000186265 ], [ 40164.525000000001455, 5945949.224999999627471 ], [ 40164.44999999999709, 5945949.224999999627471 ], [ 40164.44999999999709, 5945951.474999999627471 ], [ 40164.375, 5945951.474999999627471 ], [ 40164.375, 5945952.450000000186265 ], [ 40164.30000000000291, 5945952.450000000186265 ], [ 40164.30000000000291, 5945953.424999999813735 ], [ 40164.224999999998545, 5945953.424999999813735 ], [ 40164.224999999998545, 5945954.400000000372529 ], [ 40164.150000000001455, 5945954.400000000372529 ], [ 40164.150000000001455, 5945955.450000000186265 ], [ 40164.07499999999709, 5945955.450000000186265 ], [ 40164.07499999999709, 5945956.5 ], [ 40164.0, 5945956.5 ], [ 40164.0, 5945957.099999999627471 ], [ 40163.92500000000291, 5945957.099999999627471 ], [ 40163.92500000000291, 5945957.325000000186265 ], [ 40163.849999999998545, 5945957.325000000186265 ], [ 40163.849999999998545, 5945957.625 ], [ 40163.775000000001455, 5945957.625 ], [ 40163.775000000001455, 5945957.849999999627471 ], [ 40163.69999999999709, 5945957.849999999627471 ], [ 40163.69999999999709, 5945958.224999999627471 ], [ 40163.625, 5945958.224999999627471 ], [ 40163.625, 5945958.525000000372529 ], [ 40163.55000000000291, 5945958.525000000372529 ], [ 40163.55000000000291, 5945958.900000000372529 ], [ 40163.474999999998545, 5945958.900000000372529 ], [ 40163.474999999998545, 5945959.349999999627471 ], [ 40163.400000000001455, 5945959.349999999627471 ], [ 40163.400000000001455, 5945959.724999999627471 ], [ 40163.32499999999709, 5945959.724999999627471 ], [ 40163.32499999999709, 5945960.099999999627471 ], [ 40163.25, 5945960.099999999627471 ], [ 40163.25, 5945960.474999999627471 ], [ 40163.17500000000291, 5945960.474999999627471 ], [ 40163.17500000000291, 5945960.775000000372529 ], [ 40163.099999999998545, 5945960.775000000372529 ], [ 40163.099999999998545, 5945960.924999999813735 ], [ 40163.025000000001455, 5945960.924999999813735 ], [ 40163.025000000001455, 5945961.0 ], [ 40162.94999999999709, 5945961.0 ], [ 40162.94999999999709, 5945961.150000000372529 ], [ 40162.875, 5945961.150000000372529 ], [ 40162.875, 5945961.224999999627471 ], [ 40162.80000000000291, 5945961.224999999627471 ], [ 40162.80000000000291, 5945961.299999999813735 ], [ 40162.724999999998545, 5945961.299999999813735 ], [ 40162.724999999998545, 5945961.375 ], [ 40162.650000000001455, 5945961.375 ], [ 40162.650000000001455, 5945961.450000000186265 ], [ 40162.5, 5945961.450000000186265 ], [ 40162.5, 5945961.525000000372529 ], [ 40162.42500000000291, 5945961.525000000372529 ], [ 40162.42500000000291, 5945961.599999999627471 ], [ 40162.275000000001455, 5945961.599999999627471 ], [ 40162.275000000001455, 5945961.674999999813735 ], [ 40162.125, 5945961.674999999813735 ], [ 40162.125, 5945961.75 ], [ 40162.05000000000291, 5945961.75 ], [ 40162.05000000000291, 5945961.825000000186265 ], [ 40161.900000000001455, 5945961.825000000186265 ], [ 40161.900000000001455, 5945961.900000000372529 ], [ 40161.82499999999709, 5945961.900000000372529 ], [ 40161.82499999999709, 5945961.974999999627471 ], [ 40161.75, 5945961.974999999627471 ], [ 40161.75, 5945962.049999999813735 ], [ 40161.67500000000291, 5945962.049999999813735 ], [ 40161.67500000000291, 5945962.125 ], [ 40161.599999999998545, 5945962.125 ], [ 40161.599999999998545, 5945962.200000000186265 ], [ 40161.44999999999709, 5945962.200000000186265 ], [ 40161.44999999999709, 5945962.275000000372529 ], [ 40161.375, 5945962.275000000372529 ], [ 40161.375, 5945962.349999999627471 ], [ 40161.30000000000291, 5945962.349999999627471 ], [ 40161.30000000000291, 5945962.424999999813735 ], [ 40161.224999999998545, 5945962.424999999813735 ], [ 40161.224999999998545, 5945962.575000000186265 ], [ 40161.150000000001455, 5945962.575000000186265 ], [ 40161.150000000001455, 5945962.650000000372529 ], [ 40161.07499999999709, 5945962.650000000372529 ], [ 40161.07499999999709, 5945962.724999999627471 ], [ 40161.0, 5945962.724999999627471 ], [ 40161.0, 5945962.799999999813735 ], [ 40160.92500000000291, 5945962.799999999813735 ], [ 40160.92500000000291, 5945962.875 ], [ 40160.849999999998545, 5945962.875 ], [ 40160.849999999998545, 5945962.950000000186265 ], [ 40160.775000000001455, 5945962.950000000186265 ], [ 40160.775000000001455, 5945963.025000000372529 ], [ 40160.69999999999709, 5945963.025000000372529 ], [ 40160.69999999999709, 5945963.099999999627471 ], [ 40160.625, 5945963.099999999627471 ], [ 40160.625, 5945963.174999999813735 ], [ 40160.55000000000291, 5945963.174999999813735 ], [ 40160.55000000000291, 5945963.25 ], [ 40160.32499999999709, 5945963.25 ], [ 40160.32499999999709, 5945963.325000000186265 ], [ 40160.099999999998545, 5945963.325000000186265 ], [ 40160.099999999998545, 5945963.400000000372529 ], [ 40159.875, 5945963.400000000372529 ], [ 40159.875, 5945963.474999999627471 ], [ 40159.57499999999709, 5945963.474999999627471 ], [ 40159.57499999999709, 5945963.549999999813735 ], [ 40159.275000000001455, 5945963.549999999813735 ], [ 40159.275000000001455, 5945963.625 ], [ 40158.974999999998545, 5945963.625 ], [ 40158.974999999998545, 5945963.700000000186265 ], [ 40158.599999999998545, 5945963.700000000186265 ], [ 40158.599999999998545, 5945963.775000000372529 ], [ 40157.92500000000291, 5945963.775000000372529 ], [ 40157.92500000000291, 5945963.849999999627471 ], [ 40157.25, 5945963.849999999627471 ], [ 40157.25, 5945963.924999999813735 ], [ 40156.650000000001455, 5945963.924999999813735 ], [ 40156.650000000001455, 5945964.0 ], [ 40155.599999999998545, 5945964.0 ], [ 40155.599999999998545, 5945964.075000000186265 ], [ 40154.25, 5945964.075000000186265 ] ] ] } }
]
}
