{
"type": "FeatureCollection",
"name": "39933E595257N_buildings",
"crs": { "type": "name", "properties": { "name": "urn:ogc:def:crs:EPSG::3776" } },
"features": [
{ "type": "Feature", "properties": { "value": 1.0, "building_id": 0, "area": 93.650624999848247 }, "geometry": { "type": "Polygon", "coordinates": [ [ [ 40177.650000000001455, 5952586.799999999813735 ], [ 40177.650000000001455, 5952586.724999999627471 ], [ 40176.75, 5952586.724999999627471 ], [ 40176.75, 5952586.650000000372529 ], [ 40175.92500000000291, 5952586.650000000372529 ], [ 40175.92500000000291, 5952586.575000000186265 ], [ 40175.099999999998545, 5952586.575000000186265 ], [ 40175.099999999998545, 5952586.5 ], [ 40174.349999999998545, 5952586.5 ], [ 40174.349999999998545, 5952586.424999999813735 ], [ 40173.599999999998545, 5952586.424999999813735 ], [ 40173.599999999998545, 5952586.349999999627471 ], [ 40172.92500000000291, 5952586.349999999627471 ], [ 40172.92500000000291, 5952586.275000000372529 ], [ 40172.25, 5952586.275000000372529 ], [ 40172.25, 5952586.200000000186265 ], [ 40172.17500000000291, 5952586.200000000186265 ], [ 40172.17500000000291, 5952586.125 ], [ 40172.099999999998545, 5952586.125 ], [ 40172.099999999998545, 5952586.049999999813735 ], [ 40171.94999999999709, 5952586.049999999813735 ], [ 40171.94999999999709, 5952585.974999999627471 ], [ 40171.875, 5952585.974999999627471 ], [ 40171.875, 5952585.900000000372529 ], [ 40171.80000000000291, 5952585.900000000372529 ], [ 40171.80000000000291, 5952585.825000000186265 ], [ 40171.724999999998545, 5952585.825000000186265 ], [ 40171.724999999998545, 5952585.75 ], [ 40171.650000000001455, 5952585.75 ], [ 40171.650000000001455, 5952585.674999999813735 ], [ 40171.57499999999709, 5952585.674999999813735 ], [ 40171.57499999999709, 5952585.599999999627471 ], [ 40171.5, 5952585.599999999627471 ], [ 40171.5, 5952585.525000000372529 ], [ 40171.42500000000291, 5952585.525000000372529 ], [ 40171.42500000000291, 5952585.450000000186265 ], [ 40171.275000000001455, 5952585.450000000186265 ], [ 40171.275000000001455, 5952585.375 ], [ 40171.19999999999709, 5952585.375 ], [ 40171.19999999999709, 5952585.299999999813735 ], [ 40171.05000000000291, 5952585.299999999813735 ], [ 40171.05000000000291, 5952585.224999999627471 ], [ 40170.974999999998545, 5952585.224999999627471 ], [ 40170.974999999998545, 5952585.150000000372529 ], [ 40170.82499999999709, 5952585.150000000372529 ], [ 40170.82499999999709, 5952585.075000000186265 ], [ 40170.67500000000291, 5952585.075000000186265 ], [ 40170.67500000000291, 5952585.0 ], [ 40170.525000000001455, 5952585.0 ], [ 40170.525000000001455, 5952584.924999999813735 ], [ 40170.30000000000291, 5952584.924999999813735 ], [ 40170.30000000000291, 5952584.849999999627471 ], [ 40170.224999999998545, 5952584.849999999627471 ], [ 40170.224999999998545, 5952584.775000000372529 ], [ 40170.07499999999709, 5952584.775000000372529 ], [ 40170.07499999999709, 5952584.700000000186265 ], [ 40170.0, 5952584.700000000186265 ], [ 40170.0, 5952584.625 ], [ 40169.92500000000291, 5952584.625 ], [ 40169.92500000000291, 5952584.549999999813735 ], [ 40169.849999999998545, 5952584.549999999813735 ], [ 40169.849999999998545, 5952584.474999999627471 ], [ 40169.775000000001455, 5952584.474999999627471 ], [ 40169.775000000001455, 5952584.400000000372529 ], [ 40169.69999999999709, 5952584.400000000372529 ], [ 40169.69999999999709, 5952584.325000000186265 ], [ 40169.625, 5952584.325000000186265 ], [ 40169.625, 5952584.25 ], [ 40169.55000000000291, 5952584.25 ], [ 40169.55000000000291, 5952584.099999999627471 ], [ 40169.474999999998545, 5952584.099999999627471 ], [ 40169.474999999998545, 5952584.025000000372529 ], [ 40169.400000000001455, 5952584.025000000372529 ], [ 40169.400000000001455, 5952583.724999999627471 ], [ 40169.32499999999709, 5952583.724999999627471 ], [ 40169.32499999999709, 5952582.674999999813735 ], [ 40169.25, 5952582.674999999813735 ], [ 40169.25, 5952579.0 ], [ 40183.125, 5952579.0 ], [ 40183.125, 5952582.299999999813735 ], [ 40183.05000000000291, 5952582.299999999813735 ], [ 40183.05000000000291, 5952582.599999999627471 ], [ 40182.974999999998545, 5952582.599999999627471 ], [ 40182.974999999998545, 5952582.974999999627471 ], [ 40182.900000000001455, 5952582.974999999627471 ], [ 40182.900000000001455, 5952583.200000000186265 ], [ 40182.82499999999709, 5952583.200000000186265 ], [ 40182.82499999999709, 5952583.424999999813735 ], [ 40182.75, 5952583.424999999813735 ], [ 40182.75, 5952583.650000000372529 ], [ 40182.67500000000291, 5952583.650000000372529 ], [ 40182.67500000000291, 5952583.875 ], [ 40182.599999999998545, 5952583.875 ], [ 40182.599999999998545, 5952584.025000000372529 ], [ 40182.525000000001455, 5952584.025000000372529 ], [ 40182.525000000001455, 5952584.099999999627471 ], [ 40182.44999999999709, 5952584.099999999627471 ], [ 40182.44999999999709, 5952584.174999999813735 ], [ 40182.375, 5952584.174999999813735 ], [ 40182.375, 5952584.325000000186265 ], [ 40182.30000000000291, 5952584.325000000186265 ], [ 40182.30000000000291, 5952584.400000000372529 ], [ 40182.224999999998545, 5952584.400000000372529 ], [ 40182.224999999998545, 5952584.474999999627471 ], [ 40182.150000000001455, 5952584.474999999627471 ], [ 40182.150000000001455, 5952584.549999999813735 ], [ 40182.07499999999709, 5952584.549999999813735 ], [ 40182.07499999999709, 5952584.625 ], [ 40181.92500000000291, 5952584.625 ], [ 40181.92500000000291, 5952584.700000000186265 ], [ 40181.849999999998545, 5952584.700000000186265 ], [ 40181.849999999998545, 5952584.775000000372529 ], [ 40181.69999999999709, 5952584.775000000372529 ], [ 40181.69999999999709, 5952584.849999999627471 ], [ 40181.55000000000291, 5952584.849999999627471 ], [ 40181.55000000000291, 5952584.924999999813735 ], [ 40181.400000000001455, 5952584.924999999813735 ], [ 40181.400000000001455, 5952585.0 ], [ 40181.25, 5952585.0 ], [ 40181.25, 5952585.075000000186265 ], [ 40181.099999999998545, 5952585.075000000186265 ], [ 40181.099999999998545, 5952585.150000000372529 ], [ 40180.94999999999709, 5952585.150000000372529 ], [ 40180.94999999999709, 5952585.224999999627471 ], [ 40180.724999999998545, 5952585.224999999627471 ], [ 40180.724999999998545, 5952585.299999999813735 ], [ 40180.57499999999709, 5952585.299999999813735 ], [ 40180.57499999999709, 5952585.375 ], [ 40180.349999999998545, 5952585.375 ], [ 40180.349999999998545, 5952585.450000000186265 ], [ 40180.125, 5952585.450000000186265 ], [ 40180.125, 5952585.525000000372529 ], [ 40179.974999999998545, 5952585.525000000372529 ], [ 40179.974999999998545, 5952585.599999999627471 ], [ 40179.82499999999709, 5952585.599999999627471 ], [ 40179.82499999999709, 5952585.674999999813735 ], [ 40179.67500000000291, 5952585.674999999813735 ], [ 40179.67500000000291, 5952585.75 ], [ 40179.599999999998545, 5952585.75 ], [ 40179.599999999998545, 5952585.825000000186265 ], [ 40179.525000000001455, 5952585.825000000186265 ], [ 40179.525000000001455, 5952585.900000000372529 ], [ 40179.44999999999709, 5952585.900000000372529 ], [ 40179.44999999999709, 5952585.974999999627471 ], [ 40179.375, 5952585.974999999627471 ], [ 40179.375, 5952586.049999999813735 ], [ 40179.30000000000291, 5952586.049999999813735 ], [ 40179.30000000000291, 5952586.125 ], [ 40179.224999999998545, 5952586.125 ], [ 40179.224999999998545, 5952586.200000000186265 ], [ 40179.150000000001455, 5952586.200000000186265 ], [ 40179.150000000001455, 5952586.275000000372529 ], [ 40179.0, 5952586.275000000372529 ], [ 40179.0, 5952586.349999999627471 ], [ 40178.92500000000291, 5952586.349999999627471 ], [ 40178.92500000000291, 5952586.424999999813735 ], [ 40178.849999999998545, 5952586.424999999813735 ], [ 40178.849999999998545, 5952586.5 ], [ 40178.69999999999709, 5952586.5 ], [ 40178.69999999999709, 5952586.575000000186265 ], [ 40178.55000000000291, 5952586.575000000186265 ], [ 40178.55000000000291, 5952586.650000000372529 ], [ 40178.400000000001455, 5952586.650000000372529 ], [ 40178.400000000001455, 5952586.724999999627471 ], [ 40178.25, 5952586.724999999627471 ], [ 40178.25, 5952586.799999999813735 ], [ 40177.650000000001455, 5952586.799999999813735 ] ] ] } },
{ "type": "Feature", "properties": { "value": 1.0, "building_id": 1, "area": 159.1481250005869 }, "geometry": { "type": "Polygon", "coordinates": [ [ [ 40240.5, 5952587.474999999627471 ], [ 40240.5, 5952587.400000000372529 ], [ 40239.599999999998545, 5952587.400000000372529 ], [ 40239.599999999998545, 5952587.325000000186265 ], [ 40238.099999999998545, 5952587.325000000186265 ], [ 40238.099999999998545, 5952587.25 ], [ 40236.525000000001455, 5952587.25 ], [ 40236.525000000001455, 5952587.325000000186265 ], [ 40232.625, 5952587.325000000186265 ], [ 40232.625, 5952587.25 ], [ 40232.32499999999709, 5952587.25 ], [ 40232.32499999999709, 5952587.174999999813735 ], [ 40232.099999999998545, 5952587.174999999813735 ], [ 40232.099999999998545, 5952587.099999999627471 ], [ 40231.94999999999709, 5952587.099999999627471 ], [ 40231.94999999999709, 5952587.025000000372529 ], [ 40231.80000000000291, 5952587.025000000372529 ], [ 40231.80000000000291, 5952586.950000000186265 ], [ 40231.650000000001455, 5952586.950000000186265 ], [ 40231.650000000001455, 5952586.875 ], [ 40231.5, 5952586.875 ], [ 40231.5, 5952586.799999999813735 ], [ 40231.42500000000291, 5952586.799999999813735 ], [ 40231.42500000000291, 5952586.724999999627471 ], [ 40231.349999999998545, 5952586.724999999627471 ], [ 40231.349999999998545, 5952586.650000000372529 ], [ 40231.275000000001455, 5952586.650000000372529 ], [ 40231.275000000001455, 5952586.575000000186265 ], [ 40231.19999999999709, 5952586.575000000186265 ], [ 40231.19999999999709, 5952586.5 ], [ 40231.125, 5952586.5 ], [ 40231.125, 5952586.275000000372529 ], [ 40231.05000000000291, 5952586.275000000372529 ], [ 40231.05000000000291, 5952585.974999999627471 ], [ 40230.974999999998545, 5952585.974999999627471 ], [ 40230.974999999998545, 5952585.825000000186265 ], [ 40230.900000000001455, 5952585.825000000186265 ], [ 40230.900000000001455, 5952585.75 ], [ 40230.82499999999709, 5952585.75 ], [ 40230.82499999999709, 5952585.674999999813735 ], [ 40230.67500000000291, 5952585.674999999813735 ], [ 40230.67500000000291, 5952585.599999999627471 ], [ 40230.525000000001455, 5952585.599999999627471 ], [ 40230.525000000001455, 5952585.525000000372529 ], [ 40230.44999999999709, 5952585.525000000372529 ], [ 40230.44999999999709, 5952585.450000000186265 ], [ 40230.30000000000291, 5952585.450000000186265 ], [ 40230.30000000000291, 5952585.375 ], [ 40230.224999999998545, 5952585.375 ], [ 40230.224999999998545, 5952585.299999999813735 ], [ 40230.150000000001455, 5952585.299999999813735 ], [ 40230.150000000001455, 5952585.224999999627471 ], [ 40230.07499999999709, 5952585.224999999627471 ], [ 40230.07499999999709, 5952585.150000000372529 ], [ 40230.0, 5952585.150000000372529 ], [ 40230.0, 5952585.075000000186265 ], [ 40229.92500000000291, 5952585.075000000186265 ], [ 40229.92500000000291, 5952584.924999999813735 ], [ 40229.849999999998545, 5952584.924999999813735 ], [ 40229.849999999998545, 5952584.849999999627471 ], [ 40229.775000000001455, 5952584.849999999627471 ], [ 40229.775000000001455, 5952584.700000000186265 ], [ 40229.69999999999709, 5952584.700000000186265 ], [ 40229.69999999999709, 5952584.549999999813735 ], [ 40229.625, 5952584.549999999813735 ], [ 40229.625, 5952584.325000000186265 ], [ 40229.55000000000291, 5952584.325000000186265 ], [ 40229.55000000000291, 5952584.099999999627471 ], [ 40229.474999999998545, 5952584.099999999627471 ], [ 40229.474999999998545, 5952583.799999999813735 ], [ 40229.400000000001455, 5952583.799999999813735 ], [ 40229.400000000001455, 5952583.5 ], [ 40229.32499999999709, 5952583.5 ], [ 40229.32499999999709, 5952583.275000000372529 ], [ 40229.25, 5952583.275000000372529 ], [ 40229.25, 5952583.125 ], [ 40229.17500000000291, 5952583.125 ], [ 40229.17500000000291, 5952582.900000000372529 ], [ 40229.099999999998545, 5952582.900000000372529 ], [ 40229.099999999998545, 5952582.75 ], [ 40229.025000000001455, 5952582.75 ], [ 40229.025000000001455, 5952582.599999999627471 ], [ 40228.94999999999709, 5952582.599999999627471 ], [ 40228.94999999999709, 5952582.450000000186265 ], [ 40228.875, 5952582.450000000186265 ], [ 40228.875, 5952582.299999999813735 ], [ 40228.80000000000291, 5952582.299999999813735 ], [ 40228.80000000000291, 5952582.150000000372529 ], [ 40228.724999999998545, 5952582.150000000372529 ], [ 40228.724999999998545, 5952582.0 ], [ 40228.650000000001455, 5952582.0 ], [ 40228.650000000001455, 5952579.0 ], [ 40249.19999999999709, 5952579.0 ], [ 40249.19999999999709, 5952582.674999999813735 ], [ 40249.125, 5952582.674999999813735 ], [ 40249.125, 5952583.575000000186265 ], [ 40249.05000000000291, 5952583.575000000186265 ], [ 40249.05000000000291, 5952584.099999999627471 ], [ 40248.974999999998545, 5952584.099999999627471 ], [ 40248.974999999998545, 5952584.400000000372529 ], [ 40248.900000000001455, 5952584.400000000372529 ], [ 40248.900000000001455, 5952584.700000000186265 ], [ 40248.82499999999709, 5952584.700000000186265 ], [ 40248.82499999999709, 5952585.0 ], [ 40248.75, 5952585.0 ], [ 40248.75, 5952585.224999999627471 ], [ 40248.67500000000291, 5952585.224999999627471 ], [ 40248.67500000000291, 5952585.450000000186265 ], [ 40248.599999999998545, 5952585.450000000186265 ], [ 40248.599999999998545, 5952585.674999999813735 ], [ 40248.525000000001455, 5952585.674999999813735 ], [ 40248.525000000001455, 5952585.900000000372529 ], [ 40248.44999999999709, 5952585.900000000372529 ], [ 40248.44999999999709, 5952585.974999999627471 ], [ 40248.375, 5952585.974999999627471 ], [ 40248.375, 5952586.049999999813735 ], [ 40248.224999999998545, 5952586.049999999813735 ], [ 40248.224999999998545, 5952586.125 ], [ 40248.07499999999709, 5952586.125 ], [ 40248.07499999999709, 5952586.200000000186265 ], [ 40247.92500000000291, 5952586.200000000186265 ], [ 40247.92500000000291, 5952586.275000000372529 ], [ 40247.69999999999709, 5952586.275000000372529 ], [ 40247.69999999999709, 5952586.349999999627471 ], [ 40247.55000000000291, 5952586.349999999627471 ], [ 40247.55000000000291, 5952586.424999999813735 ], [ 40247.32499999999709, 5952586.424999999813735 ], [ 40247.32499999999709, 5952586.5 ], [ 40247.099999999998545, 5952586.5 ], [ 40247.099999999998545, 5952586.575000000186265 ], [ 40246.875, 5952586.575000000186265 ], [ 40246.875, 5952586.650000000372529 ], [ 40246.650000000001455, 5952586.650000000372529 ], [ 40246.650000000001455, 5952586.724999999627471 ], [ 40246.42500000000291, 5952586.724999999627471 ], [ 40246.42500000000291, 5952586.799999999813735 ], [ 40246.05000000000291, 5952586.799999999813735 ], [ 40246.05000000000291, 5952586.875 ], [ 40245.67500000000291, 5952586.875 ], [ 40245.67500000000291, 5952586.950000000186265 ], [ 40245.30000000000291, 5952586.950000000186265 ], [ 40245.30000000000291, 5952587.025000000372529 ], [ 40244.92500000000291, 5952587.025000000372529 ], [ 40244.92500000000291, 5952587.099999999627471 ], [ 40244.55000000000291, 5952587.099999999627471 ], [ 40244.55000000000291, 5952587.174999999813735 ], [ 40244.099999999998545, 5952587.174999999813735 ], [ 40244.099999999998545, 5952587.25 ], [ 40243.650000000001455, 5952587.25 ], [ 40243.650000000001455, 5952587.325000000186265 ], [ 40243.275000000001455, 5952587.325000000186265 ], [ 40243.275000000001455, 5952587.400000000372529 ], [ 40242.82499999999709, 5952587.400000000372529 ], [ 40242.82499999999709, 5952587.474999999627471 ], [ 40240.5, 5952587.474999999627471 ] ] ] } }
]
}
