{
"type": "FeatureCollection",
"name": "39933E594882N_buildings",
"crs": { "type": "name", "properties": { "name": "urn:ogc:def:crs:EPSG::3776" } },
"features": [
{ "type": "Feature", "properties": { "value": 1.0, "building_id": 0, "area": 354.60000000076661 }, "geometry": { "type": "Polygon", "coordinates": [ [ [ 39967.650000000001455, 5949123.825000000186265 ], [ 39967.650000000001455, 5949123.75 ], [ 39967.05000000000291, 5949123.75 ], [ 39967.05000000000291, 5949123.674999999813735 ], [ 39966.82499999999709, 5949123.674999999813735 ], [ 39966.82499999999709, 5949123.599999999627471 ], [ 39966.67500000000291, 5949123.599999999627471 ], [ 39966.67500000000291, 5949123.525000000372529 ], [ 39966.525000000001455, 5949123.525000000372529 ], [ 39966.525000000001455, 5949123.450000000186265 ], [ 39966.44999999999709, 5949123.450000000186265 ], [ 39966.44999999999709, 5949123.375 ], [ 39966.30000000000291, 5949123.375 ], [ 39966.30000000000291, 5949123.299999999813735 ], [ 39966.150000000001455, 5949123.299999999813735 ], [ 39966.150000000001455, 5949123.224999999627471 ], [ 39966.07499999999709, 5949123.224999999627471 ], [ 39966.07499999999709, 5949123.150000000372529 ], [ 39966.0, 5949123.150000000372529 ], [ 39966.0, 5949123.075000000186265 ], [ 39965.92500000000291, 5949123.075000000186265 ], [ 39965.92500000000291, 5949123.0 ], [ 39965.849999999998545, 5949123.0 ], [ 39965.849999999998545, 5949122.924999999813735 ], [ 39965.775000000001455, 5949122.924999999813735 ], [ 39965.775000000001455, 5949122.849999999627471 ], [ 39965.69999999999709, 5949122.849999999627471 ], [ 39965.69999999999709, 5949122.775000000372529 ], [ 39965.625, 5949122.775000000372529 ], [ 39965.625, 5949122.700000000186265 ], [ 39965.55000000000291, 5949122.700000000186265 ], [ 39965.55000000000291, 5949122.625 ], [ 39965.474999999998545, 5949122.625 ], [ 39965.474999999998545, 5949122.549999999813735 ], [ 39965.32499999999709, 5949122.549999999813735 ], [ 39965.32499999999709, 5949122.474999999627471 ], [ 39965.25, 5949122.474999999627471 ], [ 39965.25, 5949122.400000000372529 ], [ 39965.17500000000291, 5949122.400000000372529 ], [ 39965.17500000000291, 5949122.325000000186265 ], [ 39965.099999999998545, 5949122.325000000186265 ], [ 39965.099999999998545, 5949122.25 ], [ 39964.94999999999709, 5949122.25 ], [ 39964.94999999999709, 5949122.174999999813735 ], [ 39964.875, 5949122.174999999813735 ], [ 39964.875, 5949122.099999999627471 ], [ 39964.80000000000291, 5949122.099999999627471 ], [ 39964.80000000000291, 5949122.025000000372529 ], [ 39964.724999999998545, 5949122.025000000372529 ], [ 39964.724999999998545, 5949121.950000000186265 ], [ 39964.650000000001455, 5949121.950000000186265 ], [ 39964.650000000001455, 5949121.875 ], [ 39964.57499999999709, 5949121.875 ], [ 39964.57499999999709, 5949121.799999999813735 ], [ 39964.42500000000291, 5949121.799999999813735 ], [ 39964.42500000000291, 5949121.724999999627471 ], [ 39964.349999999998545, 5949121.724999999627471 ], [ 39964.349999999998545, 5949121.650000000372529 ], [ 39964.275000000001455, 5949121.650000000372529 ], [ 39964.275000000001455, 5949121.575000000186265 ], [ 39964.19999999999709, 5949121.575000000186265 ], [ 39964.19999999999709, 5949121.5 ], [ 39964.125, 5949121.5 ], [ 39964.125, 5949121.349999999627471 ], [ 39964.05000000000291, 5949121.349999999627471 ], [ 39964.05000000000291, 5949121.275000000372529 ], [ 39963.974999999998545, 5949121.275000000372529 ], [ 39963.974999999998545, 5949121.200000000186265 ], [ 39963.900000000001455, 5949121.200000000186265 ], [ 39963.900000000001455, 5949121.125 ], [ 39963.82499999999709, 5949121.125 ], [ 39963.82499999999709, 5949121.049999999813735 ], [ 39963.75, 5949121.049999999813735 ], [ 39963.75, 5949120.974999999627471 ], [ 39963.67500000000291, 5949120.974999999627471 ], [ 39963.67500000000291, 5949120.825000000186265 ], [ 39963.599999999998545, 5949120.825000000186265 ], [ 39963.599999999998545, 5949120.75 ], [ 39963.525000000001455, 5949120.75 ], [ 39963.525000000001455, 5949120.674999999813735 ], [ 39963.44999999999709, 5949120.674999999813735 ], [ 39963.44999999999709, 5949120.525000000372529 ], [ 39963.375, 5949120.525000000372529 ], [ 39963.375, 5949120.450000000186265 ], [ 39963.30000000000291, 5949120.450000000186265 ], [ 39963.30000000000291, 5949120.375 ], [ 39963.224999999998545, 5949120.375 ], [ 39963.224999999998545, 5949120.299999999813735 ], [ 39963.150000000001455, 5949120.299999999813735 ], [ 39963.150000000001455, 5949120.150000000372529 ], [ 39963.07499999999709, 5949120.150000000372529 ], [ 39963.07499999999709, 5949120.075000000186265 ], [ 39963.0, 5949120.075000000186265 ], [ 39963.0, 5949119.924999999813735 ], [ 39962.92500000000291, 5949119.924999999813735 ], [ 39962.92500000000291, 5949119.775000000372529 ], [ 39962.849999999998545, 5949119.775000000372529 ], [ 39962.849999999998545, 5949119.625 ], [ 39962.775000000001455, 5949119.625 ], [ 39962.775000000001455, 5949119.474999999627471 ], [ 39962.69999999999709, 5949119.474999999627471 ], [ 39962.69999999999709, 5949119.25 ], [ 39962.625, 5949119.25 ], [ 39962.625, 5949119.025000000372529 ], [ 39962.55000000000291, 5949119.025000000372529 ], [ 39962.55000000000291, 5949118.424999999813735 ], [ 39962.474999999998545, 5949118.424999999813735 ], [ 39962.474999999998545, 5949117.674999999813735 ], [ 39962.400000000001455, 5949117.674999999813735 ], [ 39962.400000000001455, 5949117.0 ], [ 39962.32499999999709, 5949117.0 ], [ 39962.32499999999709, 5949116.400000000372529 ], [ 39962.25, 5949116.400000000372529 ], [ 39962.25, 5949115.799999999813735 ], [ 39962.17500000000291, 5949115.799999999813735 ], [ 39962.17500000000291, 5949115.275000000372529 ], [ 39962.099999999998545, 5949115.275000000372529 ], [ 39962.099999999998545, 5949114.974999999627471 ], [ 39962.17500000000291, 5949114.974999999627471 ], [ 39962.17500000000291, 5949114.224999999627471 ], [ 39962.25, 5949114.224999999627471 ], [ 39962.25, 5949113.400000000372529 ], [ 39962.32499999999709, 5949113.400000000372529 ], [ 39962.32499999999709, 5949113.099999999627471 ], [ 39962.400000000001455, 5949113.099999999627471 ], [ 39962.400000000001455, 5949112.950000000186265 ], [ 39962.474999999998545, 5949112.950000000186265 ], [ 39962.474999999998545, 5949112.799999999813735 ], [ 39962.55000000000291, 5949112.799999999813735 ], [ 39962.55000000000291, 5949112.724999999627471 ], [ 39962.625, 5949112.724999999627471 ], [ 39962.625, 5949112.575000000186265 ], [ 39962.69999999999709, 5949112.575000000186265 ], [ 39962.69999999999709, 5949112.5 ], [ 39962.775000000001455, 5949112.5 ], [ 39962.775000000001455, 5949112.424999999813735 ], [ 39962.849999999998545, 5949112.424999999813735 ], [ 39962.849999999998545, 5949112.349999999627471 ], [ 39962.92500000000291, 5949112.349999999627471 ], [ 39962.92500000000291, 5949112.275000000372529 ], [ 39963.0, 5949112.275000000372529 ], [ 39963.0, 5949112.200000000186265 ], [ 39963.07499999999709, 5949112.200000000186265 ], [ 39963.07499999999709, 5949112.125 ], [ 39963.224999999998545, 5949112.125 ], [ 39963.224999999998545, 5949112.049999999813735 ], [ 39963.30000000000291, 5949112.049999999813735 ], [ 39963.30000000000291, 5949111.974999999627471 ], [ 39963.44999999999709, 5949111.974999999627471 ], [ 39963.44999999999709, 5949111.900000000372529 ], [ 39963.525000000001455, 5949111.900000000372529 ], [ 39963.525000000001455, 5949111.825000000186265 ], [ 39963.599999999998545, 5949111.825000000186265 ], [ 39963.599999999998545, 5949111.75 ], [ 39963.67500000000291, 5949111.75 ], [ 39963.67500000000291, 5949111.674999999813735 ], [ 39963.75, 5949111.674999999813735 ], [ 39963.75, 5949111.599999999627471 ], [ 39963.82499999999709, 5949111.599999999627471 ], [ 39963.82499999999709, 5949111.525000000372529 ], [ 39963.900000000001455, 5949111.525000000372529 ], [ 39963.900000000001455, 5949111.450000000186265 ], [ 39963.974999999998545, 5949111.450000000186265 ], [ 39963.974999999998545, 5949111.375 ], [ 39964.05000000000291, 5949111.375 ], [ 39964.05000000000291, 5949111.224999999627471 ], [ 39964.125, 5949111.224999999627471 ], [ 39964.125, 5949111.150000000372529 ], [ 39964.19999999999709, 5949111.150000000372529 ], [ 39964.19999999999709, 5949111.0 ], [ 39964.275000000001455, 5949111.0 ], [ 39964.275000000001455, 5949110.924999999813735 ], [ 39964.349999999998545, 5949110.924999999813735 ], [ 39964.349999999998545, 5949110.849999999627471 ], [ 39964.42500000000291, 5949110.849999999627471 ], [ 39964.42500000000291, 5949110.775000000372529 ], [ 39964.5, 5949110.775000000372529 ], [ 39964.5, 5949110.700000000186265 ], [ 39964.57499999999709, 5949110.700000000186265 ], [ 39964.57499999999709, 5949110.625 ], [ 39964.650000000001455, 5949110.625 ], [ 39964.650000000001455, 5949110.549999999813735 ], [ 39964.80000000000291, 5949110.549999999813735 ], [ 39964.80000000000291, 5949110.474999999627471 ], [ 39964.875, 5949110.474999999627471 ], [ 39964.875, 5949110.400000000372529 ], [ 39965.025000000001455, 5949110.400000000372529 ], [ 39965.025000000001455, 5949110.325000000186265 ], [ 39965.17500000000291, 5949110.325000000186265 ], [ 39965.17500000000291, 5949110.25 ], [ 39965.625, 5949110.25 ], [ 39965.625, 5949110.174999999813735 ], [ 39966.224999999998545, 5949110.174999999813735 ], [ 39966.224999999998545, 5949110.099999999627471 ], [ 39966.82499999999709, 5949110.099999999627471 ], [ 39966.82499999999709, 5949110.025000000372529 ], [ 39967.275000000001455, 5949110.025000000372529 ], [ 39967.275000000001455, 5949109.950000000186265 ], [ 39967.5, 5949109.950000000186265 ], [ 39967.5, 5949109.875 ], [ 39967.650000000001455, 5949109.875 ], [ 39967.650000000001455, 5949109.799999999813735 ], [ 39967.80000000000291, 5949109.799999999813735 ], [ 39967.80000000000291, 5949109.724999999627471 ], [ 39967.94999999999709, 5949109.724999999627471 ], [ 39967.94999999999709, 5949109.650000000372529 ], [ 39968.099999999998545, 5949109.650000000372529 ], [ 39968.099999999998545, 5949109.575000000186265 ], [ 39968.25, 5949109.575000000186265 ], [ 39968.25, 5949109.5 ], [ 39968.32499999999709, 5949109.5 ], [ 39968.32499999999709, 5949109.424999999813735 ], [ 39968.474999999998545, 5949109.424999999813735 ], [ 39968.474999999998545, 5949109.349999999627471 ], [ 39968.55000000000291, 5949109.349999999627471 ], [ 39968.55000000000291, 5949109.275000000372529 ], [ 39968.625, 5949109.275000000372529 ], [ 39968.625, 5949109.200000000186265 ], [ 39968.775000000001455, 5949109.200000000186265 ], [ 39968.775000000001455, 5949109.125 ], [ 39968.849999999998545, 5949109.125 ], [ 39968.849999999998545, 5949109.049999999813735 ], [ 39969.0, 5949109.049999999813735 ], [ 39969.0, 5949108.974999999627471 ], [ 39969.07499999999709, 5949108.974999999627471 ], [ 39969.07499999999709, 5949108.900000000372529 ], [ 39969.30000000000291, 5949108.900000000372529 ], [ 39969.30000000000291, 5949108.825000000186265 ], [ 39969.44999999999709, 5949108.825000000186265 ], [ 39969.44999999999709, 5949108.75 ], [ 39969.67500000000291, 5949108.75 ], [ 39969.67500000000291, 5949108.674999999813735 ], [ 39969.900000000001455, 5949108.674999999813735 ], [ 39969.900000000001455, 5949108.599999999627471 ], [ 39970.125, 5949108.599999999627471 ], [ 39970.125, 5949108.525000000372529 ], [ 39970.349999999998545, 5949108.525000000372529 ], [ 39970.349999999998545, 5949108.450000000186265 ], [ 39970.650000000001455, 5949108.450000000186265 ], [ 39970.650000000001455, 5949108.375 ], [ 39971.025000000001455, 5949108.375 ], [ 39971.025000000001455, 5949108.299999999813735 ], [ 39972.0, 5949108.299999999813735 ], [ 39972.0, 5949108.224999999627471 ], [ 39973.19999999999709, 5949108.224999999627471 ], [ 39973.19999999999709, 5949108.150000000372529 ], [ 39974.099999999998545, 5949108.150000000372529 ], [ 39974.099999999998545, 5949108.075000000186265 ], [ 39974.92500000000291, 5949108.075000000186265 ], [ 39974.92500000000291, 5949108.0 ], [ 39975.224999999998545, 5949108.0 ], [ 39975.224999999998545, 5949107.924999999813735 ], [ 39975.525000000001455, 5949107.924999999813735 ], [ 39975.525000000001455, 5949107.849999999627471 ], [ 39975.75, 5949107.849999999627471 ], [ 39975.75, 5949107.775000000372529 ], [ 39975.900000000001455, 5949107.775000000372529 ], [ 39975.900000000001455, 5949107.700000000186265 ], [ 39976.125, 5949107.700000000186265 ], [ 39976.125, 5949107.625 ], [ 39976.275000000001455, 5949107.625 ], [ 39976.275000000001455, 5949107.549999999813735 ], [ 39976.42500000000291, 5949107.549999999813735 ], [ 39976.42500000000291, 5949107.474999999627471 ], [ 39976.57499999999709, 5949107.474999999627471 ], [ 39976.57499999999709, 5949107.400000000372529 ], [ 39976.724999999998545, 5949107.400000000372529 ], [ 39976.724999999998545, 5949107.325000000186265 ], [ 39976.875, 5949107.325000000186265 ], [ 39976.875, 5949107.25 ], [ 39976.94999999999709, 5949107.25 ], [ 39976.94999999999709, 5949107.174999999813735 ], [ 39977.17500000000291, 5949107.174999999813735 ], [ 39977.17500000000291, 5949107.099999999627471 ], [ 39977.32499999999709, 5949107.099999999627471 ], [ 39977.32499999999709, 5949107.025000000372529 ], [ 39977.55000000000291, 5949107.025000000372529 ], [ 39977.55000000000291, 5949106.950000000186265 ], [ 39977.775000000001455, 5949106.950000000186265 ], [ 39977.775000000001455, 5949106.875 ], [ 39978.0, 5949106.875 ], [ 39978.0, 5949106.799999999813735 ], [ 39978.30000000000291, 5949106.799999999813735 ], [ 39978.30000000000291, 5949106.724999999627471 ], [ 39978.525000000001455, 5949106.724999999627471 ], [ 39978.525000000001455, 5949106.650000000372529 ], [ 39978.900000000001455, 5949106.650000000372529 ], [ 39978.900000000001455, 5949106.575000000186265 ], [ 39979.5, 5949106.575000000186265 ], [ 39979.5, 5949106.5 ], [ 39980.17500000000291, 5949106.5 ], [ 39980.17500000000291, 5949106.424999999813735 ], [ 39981.0, 5949106.424999999813735 ], [ 39981.0, 5949106.349999999627471 ], [ 39982.19999999999709, 5949106.349999999627471 ], [ 39982.19999999999709, 5949106.275000000372529 ], [ 39984.974999999998545, 5949106.275000000372529 ], [ 39984.974999999998545, 5949106.349999999627471 ], [ 39985.42500000000291, 5949106.349999999627471 ], [ 39985.42500000000291, 5949106.424999999813735 ], [ 39985.875, 5949106.424999999813735 ], [ 39985.875, 5949106.5 ], [ 39986.25, 5949106.5 ], [ 39986.25, 5949106.575000000186265 ], [ 39986.625, 5949106.575000000186265 ], [ 39986.625, 5949106.650000000372529 ], [ 39986.775000000001455, 5949106.650000000372529 ], [ 39986.775000000001455, 5949106.724999999627471 ], [ 39986.92500000000291, 5949106.724999999627471 ], [ 39986.92500000000291, 5949106.799999999813735 ], [ 39987.07499999999709, 5949106.799999999813735 ], [ 39987.07499999999709, 5949106.875 ], [ 39987.150000000001455, 5949106.875 ], [ 39987.150000000001455, 5949106.950000000186265 ], [ 39987.30000000000291, 5949106.950000000186265 ], [ 39987.30000000000291, 5949107.025000000372529 ], [ 39987.375, 5949107.025000000372529 ], [ 39987.375, 5949107.099999999627471 ], [ 39987.44999999999709, 5949107.099999999627471 ], [ 39987.44999999999709, 5949107.174999999813735 ], [ 39987.525000000001455, 5949107.174999999813735 ], [ 39987.525000000001455, 5949107.25 ], [ 39987.599999999998545, 5949107.25 ], [ 39987.599999999998545, 5949107.325000000186265 ], [ 39987.67500000000291, 5949107.325000000186265 ], [ 39987.67500000000291, 5949107.400000000372529 ], [ 39987.75, 5949107.400000000372529 ], [ 39987.75, 5949107.474999999627471 ], [ 39987.82499999999709, 5949107.474999999627471 ], [ 39987.82499999999709, 5949107.549999999813735 ], [ 39987.900000000001455, 5949107.549999999813735 ], [ 39987.900000000001455, 5949107.625 ], [ 39988.05000000000291, 5949107.625 ], [ 39988.05000000000291, 5949107.700000000186265 ], [ 39988.125, 5949107.700000000186265 ], [ 39988.125, 5949107.775000000372529 ], [ 39988.19999999999709, 5949107.775000000372529 ], [ 39988.19999999999709, 5949107.849999999627471 ], [ 39988.349999999998545, 5949107.849999999627471 ], [ 39988.349999999998545, 5949107.924999999813735 ], [ 39988.42500000000291, 5949107.924999999813735 ], [ 39988.42500000000291, 5949108.0 ], [ 39988.57499999999709, 5949108.0 ], [ 39988.57499999999709, 5949108.075000000186265 ], [ 39988.650000000001455, 5949108.075000000186265 ], [ 39988.650000000001455, 5949108.150000000372529 ], [ 39988.80000000000291, 5949108.150000000372529 ], [ 39988.80000000000291, 5949108.224999999627471 ], [ 39988.875, 5949108.224999999627471 ], [ 39988.875, 5949108.299999999813735 ], [ 39988.94999999999709, 5949108.299999999813735 ], [ 39988.94999999999709, 5949108.375 ], [ 39989.099999999998545, 5949108.375 ], [ 39989.099999999998545, 5949108.450000000186265 ], [ 39989.17500000000291, 5949108.450000000186265 ], [ 39989.17500000000291, 5949108.599999999627471 ], [ 39989.25, 5949108.599999999627471 ], [ 39989.25, 5949108.674999999813735 ], [ 39989.32499999999709, 5949108.674999999813735 ], [ 39989.32499999999709, 5949108.75 ], [ 39989.400000000001455, 5949108.75 ], [ 39989.400000000001455, 5949108.900000000372529 ], [ 39989.474999999998545, 5949108.900000000372529 ], [ 39989.474999999998545, 5949108.974999999627471 ], [ 39989.55000000000291, 5949108.974999999627471 ], [ 39989.55000000000291, 5949109.125 ], [ 39989.625, 5949109.125 ], [ 39989.625, 5949109.349999999627471 ], [ 39989.69999999999709, 5949109.349999999627471 ], [ 39989.69999999999709, 5949109.875 ], [ 39989.775000000001455, 5949109.875 ], [ 39989.775000000001455, 5949110.474999999627471 ], [ 39989.849999999998545, 5949110.474999999627471 ], [ 39989.849999999998545, 5949111.075000000186265 ], [ 39989.92500000000291, 5949111.075000000186265 ], [ 39989.92500000000291, 5949111.900000000372529 ], [ 39990.0, 5949111.900000000372529 ], [ 39990.0, 5949112.799999999813735 ], [ 39990.07499999999709, 5949112.799999999813735 ], [ 39990.07499999999709, 5949113.400000000372529 ], [ 39990.0, 5949113.400000000372529 ], [ 39990.0, 5949113.775000000372529 ], [ 39989.92500000000291, 5949113.775000000372529 ], [ 39989.92500000000291, 5949114.224999999627471 ], [ 39989.849999999998545, 5949114.224999999627471 ], [ 39989.849999999998545, 5949114.674999999813735 ], [ 39989.775000000001455, 5949114.674999999813735 ], [ 39989.775000000001455, 5949115.125 ], [ 39989.69999999999709, 5949115.125 ], [ 39989.69999999999709, 5949115.275000000372529 ], [ 39989.625, 5949115.275000000372529 ], [ 39989.625, 5949115.424999999813735 ], [ 39989.55000000000291, 5949115.424999999813735 ], [ 39989.55000000000291, 5949115.5 ], [ 39989.474999999998545, 5949115.5 ], [ 39989.474999999998545, 5949115.650000000372529 ], [ 39989.400000000001455, 5949115.650000000372529 ], [ 39989.400000000001455, 5949115.724999999627471 ], [ 39989.32499999999709, 5949115.724999999627471 ], [ 39989.32499999999709, 5949115.799999999813735 ], [ 39989.25, 5949115.799999999813735 ], [ 39989.25, 5949115.875 ], [ 39989.17500000000291, 5949115.875 ], [ 39989.17500000000291, 5949115.950000000186265 ], [ 39989.099999999998545, 5949115.950000000186265 ], [ 39989.099999999998545, 5949116.025000000372529 ], [ 39988.94999999999709, 5949116.025000000372529 ], [ 39988.94999999999709, 5949116.099999999627471 ], [ 39988.875, 5949116.099999999627471 ], [ 39988.875, 5949116.174999999813735 ], [ 39988.724999999998545, 5949116.174999999813735 ], [ 39988.724999999998545, 5949116.25 ], [ 39988.650000000001455, 5949116.25 ], [ 39988.650000000001455, 5949116.325000000186265 ], [ 39988.5, 5949116.325000000186265 ], [ 39988.5, 5949116.400000000372529 ], [ 39988.42500000000291, 5949116.400000000372529 ], [ 39988.42500000000291, 5949116.474999999627471 ], [ 39988.275000000001455, 5949116.474999999627471 ], [ 39988.275000000001455, 5949116.549999999813735 ], [ 39988.19999999999709, 5949116.549999999813735 ], [ 39988.19999999999709, 5949116.625 ], [ 39988.125, 5949116.625 ], [ 39988.125, 5949116.700000000186265 ], [ 39988.05000000000291, 5949116.700000000186265 ], [ 39988.05000000000291, 5949116.775000000372529 ], [ 39987.974999999998545, 5949116.775000000372529 ], [ 39987.974999999998545, 5949116.924999999813735 ], [ 39987.900000000001455, 5949116.924999999813735 ], [ 39987.900000000001455, 5949117.0 ], [ 39987.82499999999709, 5949117.0 ], [ 39987.82499999999709, 5949117.150000000372529 ], [ 39987.75, 5949117.150000000372529 ], [ 39987.75, 5949117.224999999627471 ], [ 39987.67500000000291, 5949117.224999999627471 ], [ 39987.67500000000291, 5949117.299999999813735 ], [ 39987.599999999998545, 5949117.299999999813735 ], [ 39987.599999999998545, 5949117.450000000186265 ], [ 39987.525000000001455, 5949117.450000000186265 ], [ 39987.525000000001455, 5949117.525000000372529 ], [ 39987.44999999999709, 5949117.525000000372529 ], [ 39987.44999999999709, 5949117.599999999627471 ], [ 39987.375, 5949117.599999999627471 ], [ 39987.375, 5949117.674999999813735 ], [ 39987.30000000000291, 5949117.674999999813735 ], [ 39987.30000000000291, 5949117.75 ], [ 39987.150000000001455, 5949117.75 ], [ 39987.150000000001455, 5949117.825000000186265 ], [ 39987.07499999999709, 5949117.825000000186265 ], [ 39987.07499999999709, 5949117.900000000372529 ], [ 39986.92500000000291, 5949117.900000000372529 ], [ 39986.92500000000291, 5949117.974999999627471 ], [ 39986.849999999998545, 5949117.974999999627471 ], [ 39986.849999999998545, 5949118.049999999813735 ], [ 39986.625, 5949118.049999999813735 ], [ 39986.625, 5949118.125 ], [ 39986.400000000001455, 5949118.125 ], [ 39986.400000000001455, 5949118.200000000186265 ], [ 39986.099999999998545, 5949118.200000000186265 ], [ 39986.099999999998545, 5949118.275000000372529 ], [ 39985.875, 5949118.275000000372529 ], [ 39985.875, 5949118.349999999627471 ], [ 39985.650000000001455, 5949118.349999999627471 ], [ 39985.650000000001455, 5949118.424999999813735 ], [ 39985.42500000000291, 5949118.424999999813735 ], [ 39985.42500000000291, 5949118.5 ], [ 39985.19999999999709, 5949118.5 ], [ 39985.19999999999709, 5949118.575000000186265 ], [ 39985.05000000000291, 5949118.575000000186265 ], [ 39985.05000000000291, 5949118.650000000372529 ], [ 39984.900000000001455, 5949118.650000000372529 ], [ 39984.900000000001455, 5949118.724999999627471 ], [ 39984.75, 5949118.724999999627471 ], [ 39984.75, 5949118.799999999813735 ], [ 39984.599999999998545, 5949118.799999999813735 ], [ 39984.599999999998545, 5949118.875 ], [ 39984.525000000001455, 5949118.875 ], [ 39984.525000000001455, 5949118.950000000186265 ], [ 39984.44999999999709, 5949118.950000000186265 ], [ 39984.44999999999709, 5949119.025000000372529 ], [ 39984.375, 5949119.025000000372529 ], [ 39984.375, 5949119.099999999627471 ], [ 39984.30000000000291, 5949119.099999999627471 ], [ 39984.30000000000291, 5949119.174999999813735 ], [ 39984.224999999998545, 5949119.174999999813735 ], [ 39984.224999999998545, 5949119.25 ], [ 39984.150000000001455, 5949119.25 ], [ 39984.150000000001455, 5949119.325000000186265 ], [ 39984.07499999999709, 5949119.325000000186265 ], [ 39984.07499999999709, 5949119.400000000372529 ], [ 39984.0, 5949119.400000000372529 ], [ 39984.0, 5949119.474999999627471 ], [ 39983.849999999998545, 5949119.474999999627471 ], [ 39983.849999999998545, 5949119.549999999813735 ], [ 39983.775000000001455, 5949119.549999999813735 ], [ 39983.775000000001455, 5949119.625 ], [ 39983.625, 5949119.625 ], [ 39983.625, 5949119.700000000186265 ], [ 39983.474999999998545, 5949119.700000000186265 ], [ 39983.474999999998545, 5949119.775000000372529 ], [ 39983.32499999999709, 5949119.775000000372529 ], [ 39983.32499999999709, 5949119.849999999627471 ], [ 39983.099999999998545, 5949119.849999999627471 ], [ 39983.099999999998545, 5949119.924999999813735 ], [ 39982.94999999999709, 5949119.924999999813735 ], [ 39982.94999999999709, 5949120.0 ], [ 39982.19999999999709, 5949120.0 ], [ 39982.19999999999709, 5949120.075000000186265 ], [ 39981.150000000001455, 5949120.075000000186265 ], [ 39981.150000000001455, 5949120.150000000372529 ], [ 39980.625, 5949120.150000000372529 ], [ 39980.625, 5949120.224999999627471 ], [ 39980.400000000001455, 5949120.224999999627471 ], [ 39980.400000000001455, 5949120.299999999813735 ], [ 39980.17500000000291, 5949120.299999999813735 ], [ 39980.17500000000291, 5949120.375 ], [ 39979.94999999999709, 5949120.375 ], [ 39979.94999999999709, 5949120.450000000186265 ], [ 39979.80000000000291, 5949120.450000000186265 ], [ 39979.80000000000291, 5949120.525000000372529 ], [ 39979.650000000001455, 5949120.525000000372529 ], [ 39979.650000000001455, 5949120.599999999627471 ], [ 39979.5, 5949120.599999999627471 ], [ 39979.5, 5949120.674999999813735 ], [ 39979.349999999998545, 5949120.674999999813735 ], [ 39979.349999999998545, 5949120.75 ], [ 39979.19999999999709, 5949120.75 ], [ 39979.19999999999709, 5949120.825000000186265 ], [ 39979.125, 5949120.825000000186265 ], [ 39979.125, 5949120.900000000372529 ], [ 39978.974999999998545, 5949120.900000000372529 ], [ 39978.974999999998545, 5949120.974999999627471 ], [ 39978.900000000001455, 5949120.974999999627471 ], [ 39978.900000000001455, 5949121.049999999813735 ], [ 39978.75, 5949121.049999999813735 ], [ 39978.75, 5949121.125 ], [ 39978.67500000000291, 5949121.125 ], [ 39978.67500000000291, 5949121.200000000186265 ], [ 39978.525000000001455, 5949121.200000000186265 ], [ 39978.525000000001455, 5949121.275000000372529 ], [ 39978.375, 5949121.275000000372529 ], [ 39978.375, 5949121.349999999627471 ], [ 39978.30000000000291, 5949121.349999999627471 ], [ 39978.30000000000291, 5949121.424999999813735 ], [ 39978.07499999999709, 5949121.424999999813735 ], [ 39978.07499999999709, 5949121.5 ], [ 39977.92500000000291, 5949121.5 ], [ 39977.92500000000291, 5949121.575000000186265 ], [ 39977.775000000001455, 5949121.575000000186265 ], [ 39977.775000000001455, 5949121.650000000372529 ], [ 39977.55000000000291, 5949121.650000000372529 ], [ 39977.55000000000291, 5949121.724999999627471 ], [ 39977.32499999999709, 5949121.724999999627471 ], [ 39977.32499999999709, 5949121.799999999813735 ], [ 39977.025000000001455, 5949121.799999999813735 ], [ 39977.025000000001455, 5949121.875 ], [ 39976.349999999998545, 5949121.875 ], [ 39976.349999999998545, 5949121.950000000186265 ], [ 39975.30000000000291, 5949121.950000000186265 ], [ 39975.30000000000291, 5949122.025000000372529 ], [ 39974.775000000001455, 5949122.025000000372529 ], [ 39974.775000000001455, 5949122.099999999627471 ], [ 39974.474999999998545, 5949122.099999999627471 ], [ 39974.474999999998545, 5949122.174999999813735 ], [ 39974.25, 5949122.174999999813735 ], [ 39974.25, 5949122.25 ], [ 39974.025000000001455, 5949122.25 ], [ 39974.025000000001455, 5949122.325000000186265 ], [ 39973.80000000000291, 5949122.325000000186265 ], [ 39973.80000000000291, 5949122.400000000372529 ], [ 39973.57499999999709, 5949122.400000000372529 ], [ 39973.57499999999709, 5949122.474999999627471 ], [ 39973.42500000000291, 5949122.474999999627471 ], [ 39973.42500000000291, 5949122.549999999813735 ], [ 39973.275000000001455, 5949122.549999999813735 ], [ 39973.275000000001455, 5949122.625 ], [ 39973.125, 5949122.625 ], [ 39973.125, 5949122.700000000186265 ], [ 39972.974999999998545, 5949122.700000000186265 ], [ 39972.974999999998545, 5949122.775000000372529 ], [ 39972.900000000001455, 5949122.775000000372529 ], [ 39972.900000000001455, 5949122.849999999627471 ], [ 39972.75, 5949122.849999999627471 ], [ 39972.75, 5949122.924999999813735 ], [ 39972.599999999998545, 5949122.924999999813735 ], [ 39972.599999999998545, 5949123.0 ], [ 39972.525000000001455, 5949123.0 ], [ 39972.525000000001455, 5949123.075000000186265 ], [ 39972.375, 5949123.075000000186265 ], [ 39972.375, 5949123.150000000372529 ], [ 39972.224999999998545, 5949123.150000000372529 ], [ 39972.224999999998545, 5949123.224999999627471 ], [ 39972.07499999999709, 5949123.224999999627471 ], [ 39972.07499999999709, 5949123.299999999813735 ], [ 39971.92500000000291, 5949123.299999999813735 ], [ 39971.92500000000291, 5949123.375 ], [ 39971.775000000001455, 5949123.375 ], [ 39971.775000000001455, 5949123.450000000186265 ], [ 39971.55000000000291, 5949123.450000000186265 ], [ 39971.55000000000291, 5949123.525000000372529 ], [ 39971.32499999999709, 5949123.525000000372529 ], [ 39971.32499999999709, 5949123.599999999627471 ], [ 39971.099999999998545, 5949123.599999999627471 ], [ 39971.099999999998545, 5949123.674999999813735 ], [ 39970.42500000000291, 5949123.674999999813735 ], [ 39970.42500000000291, 5949123.75 ], [ 39969.599999999998545, 5949123.75 ], [ 39969.599999999998545, 5949123.825000000186265 ], [ 39967.650000000001455, 5949123.825000000186265 ] ] ] } },
{ "type": "Feature", "properties": { "value": 1.0, "building_id": 1, "area": 397.97437500049989 }, "geometry": { "type": "Polygon", "coordinates": [ [ [ 40005.75, 5949090.450000000186265 ], [ 40005.75, 5949090.375 ], [ 40005.30000000000291, 5949090.375 ], [ 40005.30000000000291, 5949090.299999999813735 ], [ 40005.0, 5949090.299999999813735 ], [ 40005.0, 5949090.224999999627471 ], [ 40004.775000000001455, 5949090.224999999627471 ], [ 40004.775000000001455, 5949090.150000000372529 ], [ 40004.55000000000291, 5949090.150000000372529 ], [ 40004.55000000000291, 5949090.075000000186265 ], [ 40004.400000000001455, 5949090.075000000186265 ], [ 40004.400000000001455, 5949090.0 ], [ 40004.17500000000291, 5949090.0 ], [ 40004.17500000000291, 5949089.924999999813735 ], [ 40003.875, 5949089.924999999813735 ], [ 40003.875, 5949089.849999999627471 ], [ 40003.724999999998545, 5949089.849999999627471 ], [ 40003.724999999998545, 5949089.775000000372529 ], [ 40003.650000000001455, 5949089.775000000372529 ], [ 40003.650000000001455, 5949089.700000000186265 ], [ 40003.57499999999709, 5949089.700000000186265 ], [ 40003.57499999999709, 5949089.625 ], [ 40003.5, 5949089.625 ], [ 40003.5, 5949089.549999999813735 ], [ 40003.42500000000291, 5949089.549999999813735 ], [ 40003.42500000000291, 5949089.474999999627471 ], [ 40003.349999999998545, 5949089.474999999627471 ], [ 40003.349999999998545, 5949089.400000000372529 ], [ 40003.275000000001455, 5949089.400000000372529 ], [ 40003.275000000001455, 5949089.325000000186265 ], [ 40003.19999999999709, 5949089.325000000186265 ], [ 40003.19999999999709, 5949089.25 ], [ 40003.125, 5949089.25 ], [ 40003.125, 5949089.174999999813735 ], [ 40003.05000000000291, 5949089.174999999813735 ], [ 40003.05000000000291, 5949089.099999999627471 ], [ 40002.974999999998545, 5949089.099999999627471 ], [ 40002.974999999998545, 5949089.025000000372529 ], [ 40002.900000000001455, 5949089.025000000372529 ], [ 40002.900000000001455, 5949088.950000000186265 ], [ 40002.82499999999709, 5949088.950000000186265 ], [ 40002.82499999999709, 5949088.875 ], [ 40002.75, 5949088.875 ], [ 40002.75, 5949088.799999999813735 ], [ 40002.67500000000291, 5949088.799999999813735 ], [ 40002.67500000000291, 5949088.724999999627471 ], [ 40002.599999999998545, 5949088.724999999627471 ], [ 40002.599999999998545, 5949088.650000000372529 ], [ 40002.525000000001455, 5949088.650000000372529 ], [ 40002.525000000001455, 5949088.575000000186265 ], [ 40002.44999999999709, 5949088.575000000186265 ], [ 40002.44999999999709, 5949088.5 ], [ 40002.375, 5949088.5 ], [ 40002.375, 5949088.424999999813735 ], [ 40002.30000000000291, 5949088.424999999813735 ], [ 40002.30000000000291, 5949088.349999999627471 ], [ 40002.224999999998545, 5949088.349999999627471 ], [ 40002.224999999998545, 5949088.200000000186265 ], [ 40002.150000000001455, 5949088.200000000186265 ], [ 40002.150000000001455, 5949088.125 ], [ 40002.07499999999709, 5949088.125 ], [ 40002.07499999999709, 5949088.049999999813735 ], [ 40002.0, 5949088.049999999813735 ], [ 40002.0, 5949087.974999999627471 ], [ 40001.92500000000291, 5949087.974999999627471 ], [ 40001.92500000000291, 5949087.825000000186265 ], [ 40001.849999999998545, 5949087.825000000186265 ], [ 40001.849999999998545, 5949087.75 ], [ 40001.775000000001455, 5949087.75 ], [ 40001.775000000001455, 5949087.674999999813735 ], [ 40001.69999999999709, 5949087.674999999813735 ], [ 40001.69999999999709, 5949087.599999999627471 ], [ 40001.625, 5949087.599999999627471 ], [ 40001.625, 5949087.450000000186265 ], [ 40001.55000000000291, 5949087.450000000186265 ], [ 40001.55000000000291, 5949087.375 ], [ 40001.474999999998545, 5949087.375 ], [ 40001.474999999998545, 5949087.224999999627471 ], [ 40001.400000000001455, 5949087.224999999627471 ], [ 40001.400000000001455, 5949087.150000000372529 ], [ 40001.32499999999709, 5949087.150000000372529 ], [ 40001.32499999999709, 5949087.0 ], [ 40001.25, 5949087.0 ], [ 40001.25, 5949086.849999999627471 ], [ 40001.17500000000291, 5949086.849999999627471 ], [ 40001.17500000000291, 5949086.700000000186265 ], [ 40001.099999999998545, 5949086.700000000186265 ], [ 40001.099999999998545, 5949086.549999999813735 ], [ 40001.025000000001455, 5949086.549999999813735 ], [ 40001.025000000001455, 5949086.400000000372529 ], [ 40000.94999999999709, 5949086.400000000372529 ], [ 40000.94999999999709, 5949086.25 ], [ 40000.875, 5949086.25 ], [ 40000.875, 5949086.025000000372529 ], [ 40000.80000000000291, 5949086.025000000372529 ], [ 40000.80000000000291, 5949085.799999999813735 ], [ 40000.724999999998545, 5949085.799999999813735 ], [ 40000.724999999998545, 5949085.724999999627471 ], [ 40000.650000000001455, 5949085.724999999627471 ], [ 40000.650000000001455, 5949085.650000000372529 ], [ 40000.57499999999709, 5949085.650000000372529 ], [ 40000.57499999999709, 5949085.5 ], [ 40000.5, 5949085.5 ], [ 40000.5, 5949085.424999999813735 ], [ 40000.42500000000291, 5949085.424999999813735 ], [ 40000.42500000000291, 5949085.349999999627471 ], [ 40000.349999999998545, 5949085.349999999627471 ], [ 40000.349999999998545, 5949085.275000000372529 ], [ 40000.275000000001455, 5949085.275000000372529 ], [ 40000.275000000001455, 5949085.200000000186265 ], [ 40000.125, 5949085.200000000186265 ], [ 40000.125, 5949085.125 ], [ 40000.05000000000291, 5949085.125 ], [ 40000.05000000000291, 5949085.049999999813735 ], [ 39999.974999999998545, 5949085.049999999813735 ], [ 39999.974999999998545, 5949084.974999999627471 ], [ 39999.900000000001455, 5949084.974999999627471 ], [ 39999.900000000001455, 5949084.900000000372529 ], [ 39999.82499999999709, 5949084.900000000372529 ], [ 39999.82499999999709, 5949084.75 ], [ 39999.75, 5949084.75 ], [ 39999.75, 5949084.674999999813735 ], [ 39999.67500000000291, 5949084.674999999813735 ], [ 39999.67500000000291, 5949084.599999999627471 ], [ 39999.599999999998545, 5949084.599999999627471 ], [ 39999.599999999998545, 5949084.450000000186265 ], [ 39999.525000000001455, 5949084.450000000186265 ], [ 39999.525000000001455, 5949084.299999999813735 ], [ 39999.44999999999709, 5949084.299999999813735 ], [ 39999.44999999999709, 5949084.224999999627471 ], [ 39999.375, 5949084.224999999627471 ], [ 39999.375, 5949083.775000000372529 ], [ 39999.30000000000291, 5949083.775000000372529 ], [ 39999.30000000000291, 5949082.575000000186265 ], [ 39999.224999999998545, 5949082.575000000186265 ], [ 39999.224999999998545, 5949081.900000000372529 ], [ 39999.150000000001455, 5949081.900000000372529 ], [ 39999.150000000001455, 5949081.75 ], [ 39999.07499999999709, 5949081.75 ], [ 39999.07499999999709, 5949081.674999999813735 ], [ 39999.0, 5949081.674999999813735 ], [ 39999.0, 5949081.599999999627471 ], [ 39998.92500000000291, 5949081.599999999627471 ], [ 39998.92500000000291, 5949081.525000000372529 ], [ 39998.849999999998545, 5949081.525000000372529 ], [ 39998.849999999998545, 5949081.450000000186265 ], [ 39998.775000000001455, 5949081.450000000186265 ], [ 39998.775000000001455, 5949081.375 ], [ 39998.69999999999709, 5949081.375 ], [ 39998.69999999999709, 5949081.299999999813735 ], [ 39998.625, 5949081.299999999813735 ], [ 39998.625, 5949081.224999999627471 ], [ 39998.55000000000291, 5949081.224999999627471 ], [ 39998.55000000000291, 5949081.150000000372529 ], [ 39997.650000000001455, 5949081.150000000372529 ], [ 39997.650000000001455, 5949081.075000000186265 ], [ 39996.900000000001455, 5949081.075000000186265 ], [ 39996.900000000001455, 5949081.0 ], [ 39996.82499999999709, 5949081.0 ], [ 39996.82499999999709, 5949080.849999999627471 ], [ 39996.75, 5949080.849999999627471 ], [ 39996.75, 5949080.775000000372529 ], [ 39996.67500000000291, 5949080.775000000372529 ], [ 39996.67500000000291, 5949080.700000000186265 ], [ 39996.599999999998545, 5949080.700000000186265 ], [ 39996.599999999998545, 5949080.625 ], [ 39996.525000000001455, 5949080.625 ], [ 39996.525000000001455, 5949080.549999999813735 ], [ 39996.44999999999709, 5949080.549999999813735 ], [ 39996.44999999999709, 5949080.474999999627471 ], [ 39996.375, 5949080.474999999627471 ], [ 39996.375, 5949080.400000000372529 ], [ 39996.30000000000291, 5949080.400000000372529 ], [ 39996.30000000000291, 5949080.325000000186265 ], [ 39996.224999999998545, 5949080.325000000186265 ], [ 39996.224999999998545, 5949080.25 ], [ 39996.150000000001455, 5949080.25 ], [ 39996.150000000001455, 5949080.174999999813735 ], [ 39996.07499999999709, 5949080.174999999813735 ], [ 39996.07499999999709, 5949080.099999999627471 ], [ 39996.0, 5949080.099999999627471 ], [ 39996.0, 5949080.025000000372529 ], [ 39995.92500000000291, 5949080.025000000372529 ], [ 39995.92500000000291, 5949079.950000000186265 ], [ 39995.849999999998545, 5949079.950000000186265 ], [ 39995.849999999998545, 5949079.875 ], [ 39995.775000000001455, 5949079.875 ], [ 39995.775000000001455, 5949079.799999999813735 ], [ 39995.69999999999709, 5949079.799999999813735 ], [ 39995.69999999999709, 5949079.724999999627471 ], [ 39995.625, 5949079.724999999627471 ], [ 39995.625, 5949079.650000000372529 ], [ 39995.55000000000291, 5949079.650000000372529 ], [ 39995.55000000000291, 5949079.575000000186265 ], [ 39995.474999999998545, 5949079.575000000186265 ], [ 39995.474999999998545, 5949079.5 ], [ 39995.400000000001455, 5949079.5 ], [ 39995.400000000001455, 5949079.349999999627471 ], [ 39995.32499999999709, 5949079.349999999627471 ], [ 39995.32499999999709, 5949079.275000000372529 ], [ 39995.25, 5949079.275000000372529 ], [ 39995.25, 5949079.200000000186265 ], [ 39995.17500000000291, 5949079.200000000186265 ], [ 39995.17500000000291, 5949079.049999999813735 ], [ 39995.099999999998545, 5949079.049999999813735 ], [ 39995.099999999998545, 5949078.900000000372529 ], [ 39995.025000000001455, 5949078.900000000372529 ], [ 39995.025000000001455, 5949078.825000000186265 ], [ 39994.94999999999709, 5949078.825000000186265 ], [ 39994.94999999999709, 5949078.674999999813735 ], [ 39994.875, 5949078.674999999813735 ], [ 39994.875, 5949078.525000000372529 ], [ 39994.80000000000291, 5949078.525000000372529 ], [ 39994.80000000000291, 5949078.375 ], [ 39994.724999999998545, 5949078.375 ], [ 39994.724999999998545, 5949078.224999999627471 ], [ 39994.650000000001455, 5949078.224999999627471 ], [ 39994.650000000001455, 5949078.0 ], [ 39994.57499999999709, 5949078.0 ], [ 39994.57499999999709, 5949077.924999999813735 ], [ 39994.5, 5949077.924999999813735 ], [ 39994.5, 5949077.849999999627471 ], [ 39994.349999999998545, 5949077.849999999627471 ], [ 39994.349999999998545, 5949077.775000000372529 ], [ 39994.275000000001455, 5949077.775000000372529 ], [ 39994.275000000001455, 5949077.700000000186265 ], [ 39994.19999999999709, 5949077.700000000186265 ], [ 39994.19999999999709, 5949077.625 ], [ 39994.125, 5949077.625 ], [ 39994.125, 5949077.549999999813735 ], [ 39994.05000000000291, 5949077.549999999813735 ], [ 39994.05000000000291, 5949077.474999999627471 ], [ 39993.974999999998545, 5949077.474999999627471 ], [ 39993.974999999998545, 5949077.400000000372529 ], [ 39993.900000000001455, 5949077.400000000372529 ], [ 39993.900000000001455, 5949077.325000000186265 ], [ 39993.82499999999709, 5949077.325000000186265 ], [ 39993.82499999999709, 5949077.25 ], [ 39993.75, 5949077.25 ], [ 39993.75, 5949077.174999999813735 ], [ 39993.67500000000291, 5949077.174999999813735 ], [ 39993.67500000000291, 5949077.025000000372529 ], [ 39993.599999999998545, 5949077.025000000372529 ], [ 39993.599999999998545, 5949076.950000000186265 ], [ 39993.525000000001455, 5949076.950000000186265 ], [ 39993.525000000001455, 5949076.799999999813735 ], [ 39993.44999999999709, 5949076.799999999813735 ], [ 39993.44999999999709, 5949076.724999999627471 ], [ 39993.375, 5949076.724999999627471 ], [ 39993.375, 5949076.575000000186265 ], [ 39993.30000000000291, 5949076.575000000186265 ], [ 39993.30000000000291, 5949076.424999999813735 ], [ 39993.224999999998545, 5949076.424999999813735 ], [ 39993.224999999998545, 5949076.275000000372529 ], [ 39993.150000000001455, 5949076.275000000372529 ], [ 39993.150000000001455, 5949076.049999999813735 ], [ 39993.07499999999709, 5949076.049999999813735 ], [ 39993.07499999999709, 5949075.75 ], [ 39993.0, 5949075.75 ], [ 39993.0, 5949075.0 ], [ 39993.07499999999709, 5949075.0 ], [ 39993.07499999999709, 5949074.549999999813735 ], [ 39993.150000000001455, 5949074.549999999813735 ], [ 39993.150000000001455, 5949074.025000000372529 ], [ 39993.07499999999709, 5949074.025000000372529 ], [ 39993.07499999999709, 5949073.875 ], [ 39993.0, 5949073.875 ], [ 39993.0, 5949073.799999999813735 ], [ 39992.92500000000291, 5949073.799999999813735 ], [ 39992.92500000000291, 5949073.724999999627471 ], [ 39992.849999999998545, 5949073.724999999627471 ], [ 39992.849999999998545, 5949073.650000000372529 ], [ 39992.775000000001455, 5949073.650000000372529 ], [ 39992.775000000001455, 5949073.575000000186265 ], [ 39992.69999999999709, 5949073.575000000186265 ], [ 39992.69999999999709, 5949073.5 ], [ 39992.625, 5949073.5 ], [ 39992.625, 5949073.424999999813735 ], [ 39992.55000000000291, 5949073.424999999813735 ], [ 39992.55000000000291, 5949073.349999999627471 ], [ 39992.400000000001455, 5949073.349999999627471 ], [ 39992.400000000001455, 5949073.275000000372529 ], [ 39992.32499999999709, 5949073.275000000372529 ], [ 39992.32499999999709, 5949073.200000000186265 ], [ 39992.17500000000291, 5949073.200000000186265 ], [ 39992.17500000000291, 5949073.125 ], [ 39992.099999999998545, 5949073.125 ], [ 39992.099999999998545, 5949073.049999999813735 ], [ 39992.025000000001455, 5949073.049999999813735 ], [ 39992.025000000001455, 5949072.974999999627471 ], [ 39991.94999999999709, 5949072.974999999627471 ], [ 39991.94999999999709, 5949072.900000000372529 ], [ 39991.875, 5949072.900000000372529 ], [ 39991.875, 5949072.825000000186265 ], [ 39991.80000000000291, 5949072.825000000186265 ], [ 39991.80000000000291, 5949072.674999999813735 ], [ 39991.724999999998545, 5949072.674999999813735 ], [ 39991.724999999998545, 5949072.525000000372529 ], [ 39991.650000000001455, 5949072.525000000372529 ], [ 39991.650000000001455, 5949072.450000000186265 ], [ 39991.57499999999709, 5949072.450000000186265 ], [ 39991.57499999999709, 5949072.224999999627471 ], [ 39991.5, 5949072.224999999627471 ], [ 39991.5, 5949069.825000000186265 ], [ 39991.42500000000291, 5949069.825000000186265 ], [ 39991.42500000000291, 5949069.525000000372529 ], [ 39991.349999999998545, 5949069.525000000372529 ], [ 39991.349999999998545, 5949069.299999999813735 ], [ 39991.275000000001455, 5949069.299999999813735 ], [ 39991.275000000001455, 5949069.075000000186265 ], [ 39991.19999999999709, 5949069.075000000186265 ], [ 39991.19999999999709, 5949068.924999999813735 ], [ 39991.125, 5949068.924999999813735 ], [ 39991.125, 5949068.775000000372529 ], [ 39991.05000000000291, 5949068.775000000372529 ], [ 39991.05000000000291, 5949068.700000000186265 ], [ 39990.974999999998545, 5949068.700000000186265 ], [ 39990.974999999998545, 5949068.549999999813735 ], [ 39990.900000000001455, 5949068.549999999813735 ], [ 39990.900000000001455, 5949068.474999999627471 ], [ 39990.82499999999709, 5949068.474999999627471 ], [ 39990.82499999999709, 5949068.400000000372529 ], [ 39990.75, 5949068.400000000372529 ], [ 39990.75, 5949068.325000000186265 ], [ 39990.67500000000291, 5949068.325000000186265 ], [ 39990.67500000000291, 5949067.875 ], [ 39990.75, 5949067.875 ], [ 39990.75, 5949066.825000000186265 ], [ 39990.82499999999709, 5949066.825000000186265 ], [ 39990.82499999999709, 5949066.525000000372529 ], [ 39990.900000000001455, 5949066.525000000372529 ], [ 39990.900000000001455, 5949066.299999999813735 ], [ 39990.974999999998545, 5949066.299999999813735 ], [ 39990.974999999998545, 5949066.150000000372529 ], [ 39991.05000000000291, 5949066.150000000372529 ], [ 39991.05000000000291, 5949066.0 ], [ 39991.125, 5949066.0 ], [ 39991.125, 5949065.849999999627471 ], [ 39991.19999999999709, 5949065.849999999627471 ], [ 39991.19999999999709, 5949065.700000000186265 ], [ 39991.275000000001455, 5949065.700000000186265 ], [ 39991.275000000001455, 5949065.625 ], [ 39991.349999999998545, 5949065.625 ], [ 39991.349999999998545, 5949065.474999999627471 ], [ 39991.42500000000291, 5949065.474999999627471 ], [ 39991.42500000000291, 5949065.400000000372529 ], [ 39991.5, 5949065.400000000372529 ], [ 39991.5, 5949065.325000000186265 ], [ 39991.57499999999709, 5949065.325000000186265 ], [ 39991.57499999999709, 5949065.25 ], [ 39991.650000000001455, 5949065.25 ], [ 39991.650000000001455, 5949065.174999999813735 ], [ 39991.724999999998545, 5949065.174999999813735 ], [ 39991.724999999998545, 5949065.099999999627471 ], [ 39991.80000000000291, 5949065.099999999627471 ], [ 39991.80000000000291, 5949065.025000000372529 ], [ 39991.875, 5949065.025000000372529 ], [ 39991.875, 5949064.950000000186265 ], [ 39991.94999999999709, 5949064.950000000186265 ], [ 39991.94999999999709, 5949064.875 ], [ 39992.099999999998545, 5949064.875 ], [ 39992.099999999998545, 5949064.799999999813735 ], [ 39992.17500000000291, 5949064.799999999813735 ], [ 39992.17500000000291, 5949064.724999999627471 ], [ 39992.32499999999709, 5949064.724999999627471 ], [ 39992.32499999999709, 5949064.650000000372529 ], [ 39992.474999999998545, 5949064.650000000372529 ], [ 39992.474999999998545, 5949064.575000000186265 ], [ 39992.55000000000291, 5949064.575000000186265 ], [ 39992.55000000000291, 5949064.5 ], [ 39992.625, 5949064.5 ], [ 39992.625, 5949064.424999999813735 ], [ 39992.69999999999709, 5949064.424999999813735 ], [ 39992.69999999999709, 5949064.349999999627471 ], [ 39992.775000000001455, 5949064.349999999627471 ], [ 39992.775000000001455, 5949064.275000000372529 ], [ 39992.849999999998545, 5949064.275000000372529 ], [ 39992.849999999998545, 5949064.125 ], [ 39992.92500000000291, 5949064.125 ], [ 39992.92500000000291, 5949063.974999999627471 ], [ 39993.0, 5949063.974999999627471 ], [ 39993.0, 5949063.900000000372529 ], [ 39993.07499999999709, 5949063.900000000372529 ], [ 39993.07499999999709, 5949063.75 ], [ 39993.150000000001455, 5949063.75 ], [ 39993.150000000001455, 5949063.674999999813735 ], [ 39993.224999999998545, 5949063.674999999813735 ], [ 39993.224999999998545, 5949063.525000000372529 ], [ 39993.30000000000291, 5949063.525000000372529 ], [ 39993.30000000000291, 5949063.450000000186265 ], [ 39993.375, 5949063.450000000186265 ], [ 39993.375, 5949063.375 ], [ 39993.44999999999709, 5949063.375 ], [ 39993.44999999999709, 5949063.299999999813735 ], [ 39993.525000000001455, 5949063.299999999813735 ], [ 39993.525000000001455, 5949063.224999999627471 ], [ 39993.599999999998545, 5949063.224999999627471 ], [ 39993.599999999998545, 5949063.150000000372529 ], [ 39993.67500000000291, 5949063.150000000372529 ], [ 39993.67500000000291, 5949063.075000000186265 ], [ 39993.82499999999709, 5949063.075000000186265 ], [ 39993.82499999999709, 5949063.0 ], [ 39993.900000000001455, 5949063.0 ], [ 39993.900000000001455, 5949062.924999999813735 ], [ 39993.974999999998545, 5949062.924999999813735 ], [ 39993.974999999998545, 5949062.849999999627471 ], [ 39994.125, 5949062.849999999627471 ], [ 39994.125, 5949062.775000000372529 ], [ 39994.275000000001455, 5949062.775000000372529 ], [ 39994.275000000001455, 5949062.700000000186265 ], [ 39994.42500000000291, 5949062.700000000186265 ], [ 39994.42500000000291, 5949062.625 ], [ 39994.5, 5949062.625 ], [ 39994.5, 5949062.549999999813735 ], [ 39994.57499999999709, 5949062.549999999813735 ], [ 39994.57499999999709, 5949062.474999999627471 ], [ 39994.650000000001455, 5949062.474999999627471 ], [ 39994.650000000001455, 5949062.400000000372529 ], [ 39994.724999999998545, 5949062.400000000372529 ], [ 39994.724999999998545, 5949062.325000000186265 ], [ 39994.80000000000291, 5949062.325000000186265 ], [ 39994.80000000000291, 5949062.25 ], [ 39994.875, 5949062.25 ], [ 39994.875, 5949062.099999999627471 ], [ 39994.94999999999709, 5949062.099999999627471 ], [ 39994.94999999999709, 5949062.025000000372529 ], [ 39995.025000000001455, 5949062.025000000372529 ], [ 39995.025000000001455, 5949061.950000000186265 ], [ 39995.099999999998545, 5949061.950000000186265 ], [ 39995.099999999998545, 5949061.799999999813735 ], [ 39995.17500000000291, 5949061.799999999813735 ], [ 39995.17500000000291, 5949061.724999999627471 ], [ 39995.25, 5949061.724999999627471 ], [ 39995.25, 5949061.650000000372529 ], [ 39995.32499999999709, 5949061.650000000372529 ], [ 39995.32499999999709, 5949061.575000000186265 ], [ 39995.474999999998545, 5949061.575000000186265 ], [ 39995.474999999998545, 5949061.5 ], [ 39995.55000000000291, 5949061.5 ], [ 39995.55000000000291, 5949061.424999999813735 ], [ 39995.625, 5949061.424999999813735 ], [ 39995.625, 5949061.349999999627471 ], [ 39995.775000000001455, 5949061.349999999627471 ], [ 39995.775000000001455, 5949061.275000000372529 ], [ 39995.849999999998545, 5949061.275000000372529 ], [ 39995.849999999998545, 5949061.200000000186265 ], [ 39996.0, 5949061.200000000186265 ], [ 39996.0, 5949061.125 ], [ 39996.150000000001455, 5949061.125 ], [ 39996.150000000001455, 5949061.049999999813735 ], [ 39996.224999999998545, 5949061.049999999813735 ], [ 39996.224999999998545, 5949060.974999999627471 ], [ 39996.44999999999709, 5949060.974999999627471 ], [ 39996.44999999999709, 5949060.900000000372529 ], [ 39996.525000000001455, 5949060.900000000372529 ], [ 39996.525000000001455, 5949060.825000000186265 ], [ 39996.67500000000291, 5949060.825000000186265 ], [ 39996.67500000000291, 5949060.75 ], [ 39996.75, 5949060.75 ], [ 39996.75, 5949060.674999999813735 ], [ 39996.82499999999709, 5949060.674999999813735 ], [ 39996.82499999999709, 5949060.599999999627471 ], [ 39996.900000000001455, 5949060.599999999627471 ], [ 39996.900000000001455, 5949060.525000000372529 ], [ 39996.974999999998545, 5949060.525000000372529 ], [ 39996.974999999998545, 5949060.375 ], [ 39997.05000000000291, 5949060.375 ], [ 39997.05000000000291, 5949060.299999999813735 ], [ 39997.125, 5949060.299999999813735 ], [ 39997.125, 5949060.224999999627471 ], [ 39997.19999999999709, 5949060.224999999627471 ], [ 39997.19999999999709, 5949060.075000000186265 ], [ 39997.275000000001455, 5949060.075000000186265 ], [ 39997.275000000001455, 5949060.0 ], [ 39997.349999999998545, 5949060.0 ], [ 39997.349999999998545, 5949059.924999999813735 ], [ 39997.42500000000291, 5949059.924999999813735 ], [ 39997.42500000000291, 5949059.849999999627471 ], [ 39997.5, 5949059.849999999627471 ], [ 39997.5, 5949059.775000000372529 ], [ 39997.650000000001455, 5949059.775000000372529 ], [ 39997.650000000001455, 5949059.700000000186265 ], [ 39997.724999999998545, 5949059.700000000186265 ], [ 39997.724999999998545, 5949059.625 ], [ 39997.80000000000291, 5949059.625 ], [ 39997.80000000000291, 5949059.549999999813735 ], [ 39997.94999999999709, 5949059.549999999813735 ], [ 39997.94999999999709, 5949059.474999999627471 ], [ 39998.099999999998545, 5949059.474999999627471 ], [ 39998.099999999998545, 5949059.400000000372529 ], [ 39998.25, 5949059.400000000372529 ], [ 39998.25, 5949059.325000000186265 ], [ 39998.400000000001455, 5949059.325000000186265 ], [ 39998.400000000001455, 5949059.25 ], [ 39999.224999999998545, 5949059.25 ], [ 39999.224999999998545, 5949059.325000000186265 ], [ 40000.5, 5949059.325000000186265 ], [ 40000.5, 5949059.400000000372529 ], [ 40000.650000000001455, 5949059.400000000372529 ], [ 40000.650000000001455, 5949059.474999999627471 ], [ 40000.724999999998545, 5949059.474999999627471 ], [ 40000.724999999998545, 5949059.549999999813735 ], [ 40000.875, 5949059.549999999813735 ], [ 40000.875, 5949059.625 ], [ 40000.94999999999709, 5949059.625 ], [ 40000.94999999999709, 5949059.700000000186265 ], [ 40001.025000000001455, 5949059.700000000186265 ], [ 40001.025000000001455, 5949059.775000000372529 ], [ 40001.17500000000291, 5949059.775000000372529 ], [ 40001.17500000000291, 5949059.849999999627471 ], [ 40001.25, 5949059.849999999627471 ], [ 40001.25, 5949059.924999999813735 ], [ 40001.32499999999709, 5949059.924999999813735 ], [ 40001.32499999999709, 5949060.0 ], [ 40001.400000000001455, 5949060.0 ], [ 40001.400000000001455, 5949060.150000000372529 ], [ 40001.474999999998545, 5949060.150000000372529 ], [ 40001.474999999998545, 5949060.224999999627471 ], [ 40001.55000000000291, 5949060.224999999627471 ], [ 40001.55000000000291, 5949060.299999999813735 ], [ 40001.625, 5949060.299999999813735 ], [ 40001.625, 5949060.450000000186265 ], [ 40001.69999999999709, 5949060.450000000186265 ], [ 40001.69999999999709, 5949060.599999999627471 ], [ 40001.775000000001455, 5949060.599999999627471 ], [ 40001.775000000001455, 5949060.674999999813735 ], [ 40001.849999999998545, 5949060.674999999813735 ], [ 40001.849999999998545, 5949060.75 ], [ 40001.92500000000291, 5949060.75 ], [ 40001.92500000000291, 5949060.900000000372529 ], [ 40002.0, 5949060.900000000372529 ], [ 40002.0, 5949060.974999999627471 ], [ 40002.07499999999709, 5949060.974999999627471 ], [ 40002.07499999999709, 5949061.049999999813735 ], [ 40002.150000000001455, 5949061.049999999813735 ], [ 40002.150000000001455, 5949061.125 ], [ 40002.224999999998545, 5949061.125 ], [ 40002.224999999998545, 5949061.200000000186265 ], [ 40002.30000000000291, 5949061.200000000186265 ], [ 40002.30000000000291, 5949061.275000000372529 ], [ 40002.44999999999709, 5949061.275000000372529 ], [ 40002.44999999999709, 5949061.349999999627471 ], [ 40002.525000000001455, 5949061.349999999627471 ], [ 40002.525000000001455, 5949061.424999999813735 ], [ 40002.67500000000291, 5949061.424999999813735 ], [ 40002.67500000000291, 5949061.5 ], [ 40002.75, 5949061.5 ], [ 40002.75, 5949061.575000000186265 ], [ 40002.82499999999709, 5949061.575000000186265 ], [ 40002.82499999999709, 5949061.650000000372529 ], [ 40002.900000000001455, 5949061.650000000372529 ], [ 40002.900000000001455, 5949061.724999999627471 ], [ 40003.05000000000291, 5949061.724999999627471 ], [ 40003.05000000000291, 5949061.799999999813735 ], [ 40003.125, 5949061.799999999813735 ], [ 40003.125, 5949061.875 ], [ 40003.19999999999709, 5949061.875 ], [ 40003.19999999999709, 5949061.950000000186265 ], [ 40003.275000000001455, 5949061.950000000186265 ], [ 40003.275000000001455, 5949062.025000000372529 ], [ 40003.349999999998545, 5949062.025000000372529 ], [ 40003.349999999998545, 5949062.174999999813735 ], [ 40003.42500000000291, 5949062.174999999813735 ], [ 40003.42500000000291, 5949062.25 ], [ 40003.5, 5949062.25 ], [ 40003.5, 5949062.325000000186265 ], [ 40003.57499999999709, 5949062.325000000186265 ], [ 40003.57499999999709, 5949062.474999999627471 ], [ 40003.650000000001455, 5949062.474999999627471 ], [ 40003.650000000001455, 5949062.700000000186265 ], [ 40003.724999999998545, 5949062.700000000186265 ], [ 40003.724999999998545, 5949062.849999999627471 ], [ 40003.80000000000291, 5949062.849999999627471 ], [ 40003.80000000000291, 5949063.075000000186265 ], [ 40003.875, 5949063.075000000186265 ], [ 40003.875, 5949063.299999999813735 ], [ 40003.94999999999709, 5949063.299999999813735 ], [ 40003.94999999999709, 5949063.525000000372529 ], [ 40004.025000000001455, 5949063.525000000372529 ], [ 40004.025000000001455, 5949063.75 ], [ 40004.099999999998545, 5949063.75 ], [ 40004.099999999998545, 5949063.974999999627471 ], [ 40004.17500000000291, 5949063.974999999627471 ], [ 40004.17500000000291, 5949064.200000000186265 ], [ 40004.25, 5949064.200000000186265 ], [ 40004.25, 5949064.349999999627471 ], [ 40004.32499999999709, 5949064.349999999627471 ], [ 40004.32499999999709, 5949064.424999999813735 ], [ 40004.400000000001455, 5949064.424999999813735 ], [ 40004.400000000001455, 5949064.5 ], [ 40004.55000000000291, 5949064.5 ], [ 40004.55000000000291, 5949064.575000000186265 ], [ 40004.625, 5949064.575000000186265 ], [ 40004.625, 5949064.650000000372529 ], [ 40004.69999999999709, 5949064.650000000372529 ], [ 40004.69999999999709, 5949064.724999999627471 ], [ 40004.775000000001455, 5949064.724999999627471 ], [ 40004.775000000001455, 5949064.799999999813735 ], [ 40004.849999999998545, 5949064.799999999813735 ], [ 40004.849999999998545, 5949064.875 ], [ 40004.92500000000291, 5949064.875 ], [ 40004.92500000000291, 5949064.950000000186265 ], [ 40005.0, 5949064.950000000186265 ], [ 40005.0, 5949065.025000000372529 ], [ 40005.07499999999709, 5949065.025000000372529 ], [ 40005.07499999999709, 5949065.174999999813735 ], [ 40005.150000000001455, 5949065.174999999813735 ], [ 40005.150000000001455, 5949065.25 ], [ 40005.224999999998545, 5949065.25 ], [ 40005.224999999998545, 5949065.325000000186265 ], [ 40005.30000000000291, 5949065.325000000186265 ], [ 40005.30000000000291, 5949065.474999999627471 ], [ 40005.375, 5949065.474999999627471 ], [ 40005.375, 5949065.625 ], [ 40005.44999999999709, 5949065.625 ], [ 40005.44999999999709, 5949065.775000000372529 ], [ 40005.525000000001455, 5949065.775000000372529 ], [ 40005.525000000001455, 5949065.849999999627471 ], [ 40005.599999999998545, 5949065.849999999627471 ], [ 40005.599999999998545, 5949066.075000000186265 ], [ 40005.67500000000291, 5949066.075000000186265 ], [ 40005.67500000000291, 5949066.224999999627471 ], [ 40005.75, 5949066.224999999627471 ], [ 40005.75, 5949066.599999999627471 ], [ 40005.82499999999709, 5949066.599999999627471 ], [ 40005.82499999999709, 5949066.974999999627471 ], [ 40005.900000000001455, 5949066.974999999627471 ], [ 40005.900000000001455, 5949067.349999999627471 ], [ 40005.974999999998545, 5949067.349999999627471 ], [ 40005.974999999998545, 5949067.650000000372529 ], [ 40006.05000000000291, 5949067.650000000372529 ], [ 40006.05000000000291, 5949067.950000000186265 ], [ 40006.125, 5949067.950000000186265 ], [ 40006.125, 5949068.25 ], [ 40006.19999999999709, 5949068.25 ], [ 40006.19999999999709, 5949068.325000000186265 ], [ 40006.275000000001455, 5949068.325000000186265 ], [ 40006.275000000001455, 5949068.400000000372529 ], [ 40006.349999999998545, 5949068.400000000372529 ], [ 40006.349999999998545, 5949068.474999999627471 ], [ 40006.42500000000291, 5949068.474999999627471 ], [ 40006.42500000000291, 5949068.549999999813735 ], [ 40006.5, 5949068.549999999813735 ], [ 40006.5, 5949068.625 ], [ 40006.57499999999709, 5949068.625 ], [ 40006.57499999999709, 5949068.700000000186265 ], [ 40006.650000000001455, 5949068.700000000186265 ], [ 40006.650000000001455, 5949068.775000000372529 ], [ 40006.724999999998545, 5949068.775000000372529 ], [ 40006.724999999998545, 5949068.924999999813735 ], [ 40006.80000000000291, 5949068.924999999813735 ], [ 40006.80000000000291, 5949069.0 ], [ 40006.875, 5949069.0 ], [ 40006.875, 5949069.075000000186265 ], [ 40006.94999999999709, 5949069.075000000186265 ], [ 40006.94999999999709, 5949069.224999999627471 ], [ 40007.025000000001455, 5949069.224999999627471 ], [ 40007.025000000001455, 5949069.375 ], [ 40007.099999999998545, 5949069.375 ], [ 40007.099999999998545, 5949069.450000000186265 ], [ 40007.17500000000291, 5949069.450000000186265 ], [ 40007.17500000000291, 5949069.599999999627471 ], [ 40007.25, 5949069.599999999627471 ], [ 40007.25, 5949069.825000000186265 ], [ 40007.32499999999709, 5949069.825000000186265 ], [ 40007.32499999999709, 5949069.974999999627471 ], [ 40007.400000000001455, 5949069.974999999627471 ], [ 40007.400000000001455, 5949070.200000000186265 ], [ 40007.474999999998545, 5949070.200000000186265 ], [ 40007.474999999998545, 5949070.575000000186265 ], [ 40007.55000000000291, 5949070.575000000186265 ], [ 40007.55000000000291, 5949071.099999999627471 ], [ 40007.625, 5949071.099999999627471 ], [ 40007.625, 5949071.549999999813735 ], [ 40007.69999999999709, 5949071.549999999813735 ], [ 40007.69999999999709, 5949071.924999999813735 ], [ 40007.775000000001455, 5949071.924999999813735 ], [ 40007.775000000001455, 5949072.224999999627471 ], [ 40007.849999999998545, 5949072.224999999627471 ], [ 40007.849999999998545, 5949072.375 ], [ 40007.92500000000291, 5949072.375 ], [ 40007.92500000000291, 5949072.450000000186265 ], [ 40008.0, 5949072.450000000186265 ], [ 40008.0, 5949072.599999999627471 ], [ 40008.07499999999709, 5949072.599999999627471 ], [ 40008.07499999999709, 5949072.674999999813735 ], [ 40008.150000000001455, 5949072.674999999813735 ], [ 40008.150000000001455, 5949072.75 ], [ 40008.224999999998545, 5949072.75 ], [ 40008.224999999998545, 5949072.825000000186265 ], [ 40008.30000000000291, 5949072.825000000186265 ], [ 40008.30000000000291, 5949072.900000000372529 ], [ 40008.375, 5949072.900000000372529 ], [ 40008.375, 5949072.974999999627471 ], [ 40008.44999999999709, 5949072.974999999627471 ], [ 40008.44999999999709, 5949073.049999999813735 ], [ 40008.525000000001455, 5949073.049999999813735 ], [ 40008.525000000001455, 5949073.125 ], [ 40008.599999999998545, 5949073.125 ], [ 40008.599999999998545, 5949073.275000000372529 ], [ 40008.67500000000291, 5949073.275000000372529 ], [ 40008.67500000000291, 5949073.349999999627471 ], [ 40008.75, 5949073.349999999627471 ], [ 40008.75, 5949073.424999999813735 ], [ 40008.82499999999709, 5949073.424999999813735 ], [ 40008.82499999999709, 5949073.575000000186265 ], [ 40008.900000000001455, 5949073.575000000186265 ], [ 40008.900000000001455, 5949073.724999999627471 ], [ 40008.974999999998545, 5949073.724999999627471 ], [ 40008.974999999998545, 5949073.875 ], [ 40009.05000000000291, 5949073.875 ], [ 40009.05000000000291, 5949074.025000000372529 ], [ 40009.125, 5949074.025000000372529 ], [ 40009.125, 5949074.25 ], [ 40009.19999999999709, 5949074.25 ], [ 40009.19999999999709, 5949074.549999999813735 ], [ 40009.275000000001455, 5949074.549999999813735 ], [ 40009.275000000001455, 5949074.849999999627471 ], [ 40009.349999999998545, 5949074.849999999627471 ], [ 40009.349999999998545, 5949075.150000000372529 ], [ 40009.42500000000291, 5949075.150000000372529 ], [ 40009.42500000000291, 5949075.450000000186265 ], [ 40009.5, 5949075.450000000186265 ], [ 40009.5, 5949075.75 ], [ 40009.57499999999709, 5949075.75 ], [ 40009.57499999999709, 5949076.125 ], [ 40009.650000000001455, 5949076.125 ], [ 40009.650000000001455, 5949076.575000000186265 ], [ 40009.724999999998545, 5949076.575000000186265 ], [ 40009.724999999998545, 5949076.950000000186265 ], [ 40009.80000000000291, 5949076.950000000186265 ], [ 40009.80000000000291, 5949077.325000000186265 ], [ 40009.875, 5949077.325000000186265 ], [ 40009.875, 5949077.700000000186265 ], [ 40009.94999999999709, 5949077.700000000186265 ], [ 40009.94999999999709, 5949078.0 ], [ 40010.025000000001455, 5949078.0 ], [ 40010.025000000001455, 5949078.075000000186265 ], [ 40010.099999999998545, 5949078.075000000186265 ], [ 40010.099999999998545, 5949078.150000000372529 ], [ 40010.17500000000291, 5949078.150000000372529 ], [ 40010.17500000000291, 5949078.224999999627471 ], [ 40010.25, 5949078.224999999627471 ], [ 40010.25, 5949078.299999999813735 ], [ 40010.400000000001455, 5949078.299999999813735 ], [ 40010.400000000001455, 5949078.375 ], [ 40010.474999999998545, 5949078.375 ], [ 40010.474999999998545, 5949078.450000000186265 ], [ 40010.55000000000291, 5949078.450000000186265 ], [ 40010.55000000000291, 5949078.525000000372529 ], [ 40010.625, 5949078.525000000372529 ], [ 40010.625, 5949078.599999999627471 ], [ 40010.69999999999709, 5949078.599999999627471 ], [ 40010.69999999999709, 5949078.674999999813735 ], [ 40010.775000000001455, 5949078.674999999813735 ], [ 40010.775000000001455, 5949078.75 ], [ 40010.849999999998545, 5949078.75 ], [ 40010.849999999998545, 5949078.825000000186265 ], [ 40010.92500000000291, 5949078.825000000186265 ], [ 40010.92500000000291, 5949078.900000000372529 ], [ 40011.0, 5949078.900000000372529 ], [ 40011.0, 5949078.974999999627471 ], [ 40011.07499999999709, 5949078.974999999627471 ], [ 40011.07499999999709, 5949079.049999999813735 ], [ 40011.150000000001455, 5949079.049999999813735 ], [ 40011.150000000001455, 5949079.200000000186265 ], [ 40011.224999999998545, 5949079.200000000186265 ], [ 40011.224999999998545, 5949079.275000000372529 ], [ 40011.30000000000291, 5949079.275000000372529 ], [ 40011.30000000000291, 5949079.424999999813735 ], [ 40011.375, 5949079.424999999813735 ], [ 40011.375, 5949079.575000000186265 ], [ 40011.44999999999709, 5949079.575000000186265 ], [ 40011.44999999999709, 5949079.724999999627471 ], [ 40011.525000000001455, 5949079.724999999627471 ], [ 40011.525000000001455, 5949079.875 ], [ 40011.599999999998545, 5949079.875 ], [ 40011.599999999998545, 5949080.025000000372529 ], [ 40011.67500000000291, 5949080.025000000372529 ], [ 40011.67500000000291, 5949080.099999999627471 ], [ 40011.75, 5949080.099999999627471 ], [ 40011.75, 5949080.174999999813735 ], [ 40011.82499999999709, 5949080.174999999813735 ], [ 40011.82499999999709, 5949080.325000000186265 ], [ 40011.900000000001455, 5949080.325000000186265 ], [ 40011.900000000001455, 5949080.400000000372529 ], [ 40011.974999999998545, 5949080.400000000372529 ], [ 40011.974999999998545, 5949080.474999999627471 ], [ 40012.05000000000291, 5949080.474999999627471 ], [ 40012.05000000000291, 5949080.549999999813735 ], [ 40012.19999999999709, 5949080.549999999813735 ], [ 40012.19999999999709, 5949080.625 ], [ 40012.275000000001455, 5949080.625 ], [ 40012.275000000001455, 5949080.700000000186265 ], [ 40012.349999999998545, 5949080.700000000186265 ], [ 40012.349999999998545, 5949080.775000000372529 ], [ 40012.42500000000291, 5949080.775000000372529 ], [ 40012.42500000000291, 5949080.849999999627471 ], [ 40012.5, 5949080.849999999627471 ], [ 40012.5, 5949080.924999999813735 ], [ 40012.57499999999709, 5949080.924999999813735 ], [ 40012.57499999999709, 5949081.0 ], [ 40012.650000000001455, 5949081.0 ], [ 40012.650000000001455, 5949081.075000000186265 ], [ 40012.724999999998545, 5949081.075000000186265 ], [ 40012.724999999998545, 5949081.150000000372529 ], [ 40012.80000000000291, 5949081.150000000372529 ], [ 40012.80000000000291, 5949081.224999999627471 ], [ 40012.875, 5949081.224999999627471 ], [ 40012.875, 5949081.375 ], [ 40012.94999999999709, 5949081.375 ], [ 40012.94999999999709, 5949081.450000000186265 ], [ 40013.025000000001455, 5949081.450000000186265 ], [ 40013.025000000001455, 5949081.599999999627471 ], [ 40013.099999999998545, 5949081.599999999627471 ], [ 40013.099999999998545, 5949081.674999999813735 ], [ 40013.17500000000291, 5949081.674999999813735 ], [ 40013.17500000000291, 5949081.825000000186265 ], [ 40013.25, 5949081.825000000186265 ], [ 40013.25, 5949082.125 ], [ 40013.32499999999709, 5949082.125 ], [ 40013.32499999999709, 5949082.799999999813735 ], [ 40013.25, 5949082.799999999813735 ], [ 40013.25, 5949083.400000000372529 ], [ 40013.17500000000291, 5949083.400000000372529 ], [ 40013.17500000000291, 5949083.924999999813735 ], [ 40013.099999999998545, 5949083.924999999813735 ], [ 40013.099999999998545, 5949084.150000000372529 ], [ 40013.025000000001455, 5949084.150000000372529 ], [ 40013.025000000001455, 5949084.299999999813735 ], [ 40012.94999999999709, 5949084.299999999813735 ], [ 40012.94999999999709, 5949084.450000000186265 ], [ 40012.875, 5949084.450000000186265 ], [ 40012.875, 5949084.599999999627471 ], [ 40012.80000000000291, 5949084.599999999627471 ], [ 40012.80000000000291, 5949084.674999999813735 ], [ 40012.724999999998545, 5949084.674999999813735 ], [ 40012.724999999998545, 5949084.825000000186265 ], [ 40012.650000000001455, 5949084.825000000186265 ], [ 40012.650000000001455, 5949084.900000000372529 ], [ 40012.57499999999709, 5949084.900000000372529 ], [ 40012.57499999999709, 5949085.049999999813735 ], [ 40012.5, 5949085.049999999813735 ], [ 40012.5, 5949085.125 ], [ 40012.42500000000291, 5949085.125 ], [ 40012.42500000000291, 5949085.200000000186265 ], [ 40012.349999999998545, 5949085.200000000186265 ], [ 40012.349999999998545, 5949085.275000000372529 ], [ 40012.275000000001455, 5949085.275000000372529 ], [ 40012.275000000001455, 5949085.349999999627471 ], [ 40012.19999999999709, 5949085.349999999627471 ], [ 40012.19999999999709, 5949085.424999999813735 ], [ 40012.125, 5949085.424999999813735 ], [ 40012.125, 5949085.5 ], [ 40011.974999999998545, 5949085.5 ], [ 40011.974999999998545, 5949085.575000000186265 ], [ 40011.900000000001455, 5949085.575000000186265 ], [ 40011.900000000001455, 5949085.650000000372529 ], [ 40011.82499999999709, 5949085.650000000372529 ], [ 40011.82499999999709, 5949085.799999999813735 ], [ 40011.75, 5949085.799999999813735 ], [ 40011.75, 5949085.875 ], [ 40011.67500000000291, 5949085.875 ], [ 40011.67500000000291, 5949086.025000000372529 ], [ 40011.599999999998545, 5949086.025000000372529 ], [ 40011.599999999998545, 5949086.099999999627471 ], [ 40011.525000000001455, 5949086.099999999627471 ], [ 40011.525000000001455, 5949086.25 ], [ 40011.44999999999709, 5949086.25 ], [ 40011.44999999999709, 5949086.400000000372529 ], [ 40011.375, 5949086.400000000372529 ], [ 40011.375, 5949086.474999999627471 ], [ 40011.30000000000291, 5949086.474999999627471 ], [ 40011.30000000000291, 5949086.625 ], [ 40011.224999999998545, 5949086.625 ], [ 40011.224999999998545, 5949086.775000000372529 ], [ 40011.150000000001455, 5949086.775000000372529 ], [ 40011.150000000001455, 5949086.849999999627471 ], [ 40011.07499999999709, 5949086.849999999627471 ], [ 40011.07499999999709, 5949087.0 ], [ 40011.0, 5949087.0 ], [ 40011.0, 5949087.150000000372529 ], [ 40010.92500000000291, 5949087.150000000372529 ], [ 40010.92500000000291, 5949087.299999999813735 ], [ 40010.849999999998545, 5949087.299999999813735 ], [ 40010.849999999998545, 5949087.375 ], [ 40010.775000000001455, 5949087.375 ], [ 40010.775000000001455, 5949087.525000000372529 ], [ 40010.69999999999709, 5949087.525000000372529 ], [ 40010.69999999999709, 5949087.674999999813735 ], [ 40010.625, 5949087.674999999813735 ], [ 40010.625, 5949087.825000000186265 ], [ 40010.55000000000291, 5949087.825000000186265 ], [ 40010.55000000000291, 5949087.900000000372529 ], [ 40010.474999999998545, 5949087.900000000372529 ], [ 40010.474999999998545, 5949087.974999999627471 ], [ 40010.400000000001455, 5949087.974999999627471 ], [ 40010.400000000001455, 5949088.049999999813735 ], [ 40010.32499999999709, 5949088.049999999813735 ], [ 40010.32499999999709, 5949088.125 ], [ 40010.25, 5949088.125 ], [ 40010.25, 5949088.200000000186265 ], [ 40010.17500000000291, 5949088.200000000186265 ], [ 40010.17500000000291, 5949088.275000000372529 ], [ 40010.025000000001455, 5949088.275000000372529 ], [ 40010.025000000001455, 5949088.349999999627471 ], [ 40009.94999999999709, 5949088.349999999627471 ], [ 40009.94999999999709, 5949088.424999999813735 ], [ 40009.80000000000291, 5949088.424999999813735 ], [ 40009.80000000000291, 5949088.5 ], [ 40009.724999999998545, 5949088.5 ], [ 40009.724999999998545, 5949088.575000000186265 ], [ 40009.57499999999709, 5949088.575000000186265 ], [ 40009.57499999999709, 5949088.650000000372529 ], [ 40009.5, 5949088.650000000372529 ], [ 40009.5, 5949088.724999999627471 ], [ 40009.42500000000291, 5949088.724999999627471 ], [ 40009.42500000000291, 5949088.799999999813735 ], [ 40009.275000000001455, 5949088.799999999813735 ], [ 40009.275000000001455, 5949088.875 ], [ 40009.19999999999709, 5949088.875 ], [ 40009.19999999999709, 5949088.950000000186265 ], [ 40009.125, 5949088.950000000186265 ], [ 40009.125, 5949089.025000000372529 ], [ 40009.05000000000291, 5949089.025000000372529 ], [ 40009.05000000000291, 5949089.099999999627471 ], [ 40008.974999999998545, 5949089.099999999627471 ], [ 40008.974999999998545, 5949089.174999999813735 ], [ 40008.900000000001455, 5949089.174999999813735 ], [ 40008.900000000001455, 5949089.25 ], [ 40008.82499999999709, 5949089.25 ], [ 40008.82499999999709, 5949089.325000000186265 ], [ 40008.75, 5949089.325000000186265 ], [ 40008.75, 5949089.400000000372529 ], [ 40008.67500000000291, 5949089.400000000372529 ], [ 40008.67500000000291, 5949089.474999999627471 ], [ 40008.599999999998545, 5949089.474999999627471 ], [ 40008.599999999998545, 5949089.549999999813735 ], [ 40008.525000000001455, 5949089.549999999813735 ], [ 40008.525000000001455, 5949089.700000000186265 ], [ 40008.44999999999709, 5949089.700000000186265 ], [ 40008.44999999999709, 5949089.775000000372529 ], [ 40008.375, 5949089.775000000372529 ], [ 40008.375, 5949089.849999999627471 ], [ 40008.30000000000291, 5949089.849999999627471 ], [ 40008.30000000000291, 5949089.924999999813735 ], [ 40008.224999999998545, 5949089.924999999813735 ], [ 40008.224999999998545, 5949090.0 ], [ 40008.0, 5949090.0 ], [ 40008.0, 5949090.075000000186265 ], [ 40007.775000000001455, 5949090.075000000186265 ], [ 40007.775000000001455, 5949090.150000000372529 ], [ 40007.474999999998545, 5949090.150000000372529 ], [ 40007.474999999998545, 5949090.224999999627471 ], [ 40007.25, 5949090.224999999627471 ], [ 40007.25, 5949090.299999999813735 ], [ 40006.875, 5949090.299999999813735 ], [ 40006.875, 5949090.375 ], [ 40006.57499999999709, 5949090.375 ], [ 40006.57499999999709, 5949090.450000000186265 ], [ 40005.75, 5949090.450000000186265 ] ] ] } }
]
}
