{
"type": "FeatureCollection",
"name": "40683E595182N_buildings",
"crs": { "type": "name", "properties": { "name": "urn:ogc:def:crs:EPSG::3776" } },
"features": [
{ "type": "Feature", "properties": { "value": 1.0, "building_id": 0, "area": 37.153124999509949 }, "geometry": { "type": "Polygon", "coordinates": [ [ [ 40959.07499999999709, 5952356.099999999627471 ], [ 40959.07499999999709, 5952356.025000000372529 ], [ 40958.775000000001455, 5952356.025000000372529 ], [ 40958.775000000001455, 5952355.950000000186265 ], [ 40958.400000000001455, 5952355.950000000186265 ], [ 40958.400000000001455, 5952355.875 ], [ 40958.099999999998545, 5952355.875 ], [ 40958.099999999998545, 5952355.799999999813735 ], [ 40957.80000000000291, 5952355.799999999813735 ], [ 40957.80000000000291, 5952355.724999999627471 ], [ 40957.5, 5952355.724999999627471 ], [ 40957.5, 5952355.650000000372529 ], [ 40957.349999999998545, 5952355.650000000372529 ], [ 40957.349999999998545, 5952355.575000000186265 ], [ 40957.19999999999709, 5952355.575000000186265 ], [ 40957.19999999999709, 5952355.5 ], [ 40957.05000000000291, 5952355.5 ], [ 40957.05000000000291, 5952355.424999999813735 ], [ 40956.974999999998545, 5952355.424999999813735 ], [ 40956.974999999998545, 5952354.674999999813735 ], [ 40957.05000000000291, 5952354.674999999813735 ], [ 40957.05000000000291, 5952353.625 ], [ 40957.125, 5952353.625 ], [ 40957.125, 5952352.575000000186265 ], [ 40957.19999999999709, 5952352.575000000186265 ], [ 40957.19999999999709, 5952351.450000000186265 ], [ 40957.275000000001455, 5952351.450000000186265 ], [ 40957.275000000001455, 5952350.325000000186265 ], [ 40957.349999999998545, 5952350.325000000186265 ], [ 40957.349999999998545, 5952349.5 ], [ 40957.42500000000291, 5952349.5 ], [ 40957.42500000000291, 5952349.424999999813735 ], [ 40957.57499999999709, 5952349.424999999813735 ], [ 40957.57499999999709, 5952349.349999999627471 ], [ 40957.724999999998545, 5952349.349999999627471 ], [ 40957.724999999998545, 5952349.275000000372529 ], [ 40957.875, 5952349.275000000372529 ], [ 40957.875, 5952349.200000000186265 ], [ 40958.025000000001455, 5952349.200000000186265 ], [ 40958.025000000001455, 5952349.125 ], [ 40958.25, 5952349.125 ], [ 40958.25, 5952349.049999999813735 ], [ 40958.400000000001455, 5952349.049999999813735 ], [ 40958.400000000001455, 5952348.974999999627471 ], [ 40958.625, 5952348.974999999627471 ], [ 40958.625, 5952348.900000000372529 ], [ 40958.849999999998545, 5952348.900000000372529 ], [ 40958.849999999998545, 5952348.825000000186265 ], [ 40959.07499999999709, 5952348.825000000186265 ], [ 40959.07499999999709, 5952348.75 ], [ 40959.30000000000291, 5952348.75 ], [ 40959.30000000000291, 5952348.674999999813735 ], [ 40960.349999999998545, 5952348.674999999813735 ], [ 40960.349999999998545, 5952348.75 ], [ 40961.400000000001455, 5952348.75 ], [ 40961.400000000001455, 5952348.825000000186265 ], [ 40961.55000000000291, 5952348.825000000186265 ], [ 40961.55000000000291, 5952348.900000000372529 ], [ 40961.69999999999709, 5952348.900000000372529 ], [ 40961.69999999999709, 5952348.974999999627471 ], [ 40961.775000000001455, 5952348.974999999627471 ], [ 40961.775000000001455, 5952349.049999999813735 ], [ 40961.92500000000291, 5952349.049999999813735 ], [ 40961.92500000000291, 5952349.125 ], [ 40962.0, 5952349.125 ], [ 40962.0, 5952349.200000000186265 ], [ 40962.07499999999709, 5952349.200000000186265 ], [ 40962.07499999999709, 5952349.275000000372529 ], [ 40962.150000000001455, 5952349.275000000372529 ], [ 40962.150000000001455, 5952349.349999999627471 ], [ 40962.224999999998545, 5952349.349999999627471 ], [ 40962.224999999998545, 5952349.424999999813735 ], [ 40962.30000000000291, 5952349.424999999813735 ], [ 40962.30000000000291, 5952349.5 ], [ 40962.375, 5952349.5 ], [ 40962.375, 5952351.299999999813735 ], [ 40962.44999999999709, 5952351.299999999813735 ], [ 40962.44999999999709, 5952352.724999999627471 ], [ 40962.525000000001455, 5952352.724999999627471 ], [ 40962.525000000001455, 5952353.849999999627471 ], [ 40962.599999999998545, 5952353.849999999627471 ], [ 40962.599999999998545, 5952354.825000000186265 ], [ 40962.67500000000291, 5952354.825000000186265 ], [ 40962.67500000000291, 5952355.424999999813735 ], [ 40962.525000000001455, 5952355.424999999813735 ], [ 40962.525000000001455, 5952355.5 ], [ 40962.44999999999709, 5952355.5 ], [ 40962.44999999999709, 5952355.575000000186265 ], [ 40962.30000000000291, 5952355.575000000186265 ], [ 40962.30000000000291, 5952355.650000000372529 ], [ 40962.150000000001455, 5952355.650000000372529 ], [ 40962.150000000001455, 5952355.724999999627471 ], [ 40962.0, 5952355.724999999627471 ], [ 40962.0, 5952355.799999999813735 ], [ 40961.849999999998545, 5952355.799999999813735 ], [ 40961.849999999998545, 5952355.875 ], [ 40961.69999999999709, 5952355.875 ], [ 40961.69999999999709, 5952355.950000000186265 ], [ 40961.55000000000291, 5952355.950000000186265 ], [ 40961.55000000000291, 5952356.025000000372529 ], [ 40961.32499999999709, 5952356.025000000372529 ], [ 40961.32499999999709, 5952356.099999999627471 ], [ 40959.07499999999709, 5952356.099999999627471 ] ] ] } },
{ "type": "Feature", "properties": { "value": 1.0, "building_id": 1, "area": 9.663749999971964 }, "geometry": { "type": "Polygon", "coordinates": [ [ [ 40711.19999999999709, 5952311.700000000186265 ], [ 40711.19999999999709, 5952311.625 ], [ 40711.125, 5952311.625 ], [ 40711.125, 5952311.549999999813735 ], [ 40710.974999999998545, 5952311.549999999813735 ], [ 40710.974999999998545, 5952311.474999999627471 ], [ 40710.82499999999709, 5952311.474999999627471 ], [ 40710.82499999999709, 5952311.400000000372529 ], [ 40710.67500000000291, 5952311.400000000372529 ], [ 40710.67500000000291, 5952311.325000000186265 ], [ 40710.525000000001455, 5952311.325000000186265 ], [ 40710.525000000001455, 5952311.25 ], [ 40710.375, 5952311.25 ], [ 40710.375, 5952311.174999999813735 ], [ 40710.224999999998545, 5952311.174999999813735 ], [ 40710.224999999998545, 5952311.099999999627471 ], [ 40710.0, 5952311.099999999627471 ], [ 40710.0, 5952311.025000000372529 ], [ 40709.775000000001455, 5952311.025000000372529 ], [ 40709.775000000001455, 5952310.950000000186265 ], [ 40709.55000000000291, 5952310.950000000186265 ], [ 40709.55000000000291, 5952310.875 ], [ 40709.32499999999709, 5952310.875 ], [ 40709.32499999999709, 5952310.724999999627471 ], [ 40709.25, 5952310.724999999627471 ], [ 40709.25, 5952310.650000000372529 ], [ 40709.17500000000291, 5952310.650000000372529 ], [ 40709.17500000000291, 5952310.5 ], [ 40709.099999999998545, 5952310.5 ], [ 40709.099999999998545, 5952310.275000000372529 ], [ 40709.17500000000291, 5952310.275000000372529 ], [ 40709.17500000000291, 5952309.825000000186265 ], [ 40709.25, 5952309.825000000186265 ], [ 40709.25, 5952309.299999999813735 ], [ 40709.32499999999709, 5952309.299999999813735 ], [ 40709.32499999999709, 5952308.849999999627471 ], [ 40709.400000000001455, 5952308.849999999627471 ], [ 40709.400000000001455, 5952308.775000000372529 ], [ 40709.55000000000291, 5952308.775000000372529 ], [ 40709.55000000000291, 5952308.700000000186265 ], [ 40709.69999999999709, 5952308.700000000186265 ], [ 40709.69999999999709, 5952308.625 ], [ 40709.849999999998545, 5952308.625 ], [ 40709.849999999998545, 5952308.549999999813735 ], [ 40709.92500000000291, 5952308.549999999813735 ], [ 40709.92500000000291, 5952308.474999999627471 ], [ 40710.599999999998545, 5952308.474999999627471 ], [ 40710.599999999998545, 5952308.400000000372529 ], [ 40711.42500000000291, 5952308.400000000372529 ], [ 40711.42500000000291, 5952308.474999999627471 ], [ 40711.5, 5952308.474999999627471 ], [ 40711.5, 5952308.625 ], [ 40711.57499999999709, 5952308.625 ], [ 40711.57499999999709, 5952308.849999999627471 ], [ 40711.650000000001455, 5952308.849999999627471 ], [ 40711.650000000001455, 5952309.0 ], [ 40711.724999999998545, 5952309.0 ], [ 40711.724999999998545, 5952309.075000000186265 ], [ 40711.80000000000291, 5952309.075000000186265 ], [ 40711.80000000000291, 5952309.224999999627471 ], [ 40711.875, 5952309.224999999627471 ], [ 40711.875, 5952309.299999999813735 ], [ 40711.94999999999709, 5952309.299999999813735 ], [ 40711.94999999999709, 5952309.375 ], [ 40712.025000000001455, 5952309.375 ], [ 40712.025000000001455, 5952309.450000000186265 ], [ 40712.099999999998545, 5952309.450000000186265 ], [ 40712.099999999998545, 5952309.525000000372529 ], [ 40712.17500000000291, 5952309.525000000372529 ], [ 40712.17500000000291, 5952309.599999999627471 ], [ 40712.25, 5952309.599999999627471 ], [ 40712.25, 5952309.674999999813735 ], [ 40712.400000000001455, 5952309.674999999813735 ], [ 40712.400000000001455, 5952309.75 ], [ 40712.474999999998545, 5952309.75 ], [ 40712.474999999998545, 5952309.825000000186265 ], [ 40712.625, 5952309.825000000186265 ], [ 40712.625, 5952309.900000000372529 ], [ 40712.775000000001455, 5952309.900000000372529 ], [ 40712.775000000001455, 5952309.974999999627471 ], [ 40713.0, 5952309.974999999627471 ], [ 40713.0, 5952310.049999999813735 ], [ 40713.224999999998545, 5952310.049999999813735 ], [ 40713.224999999998545, 5952310.125 ], [ 40713.375, 5952310.125 ], [ 40713.375, 5952310.200000000186265 ], [ 40713.599999999998545, 5952310.200000000186265 ], [ 40713.599999999998545, 5952310.275000000372529 ], [ 40713.75, 5952310.275000000372529 ], [ 40713.75, 5952310.349999999627471 ], [ 40713.900000000001455, 5952310.349999999627471 ], [ 40713.900000000001455, 5952310.424999999813735 ], [ 40713.974999999998545, 5952310.424999999813735 ], [ 40713.974999999998545, 5952310.5 ], [ 40713.900000000001455, 5952310.5 ], [ 40713.900000000001455, 5952310.575000000186265 ], [ 40713.82499999999709, 5952310.575000000186265 ], [ 40713.82499999999709, 5952310.650000000372529 ], [ 40713.75, 5952310.650000000372529 ], [ 40713.75, 5952310.724999999627471 ], [ 40713.67500000000291, 5952310.724999999627471 ], [ 40713.67500000000291, 5952310.799999999813735 ], [ 40713.599999999998545, 5952310.799999999813735 ], [ 40713.599999999998545, 5952310.875 ], [ 40713.44999999999709, 5952310.875 ], [ 40713.44999999999709, 5952310.950000000186265 ], [ 40713.375, 5952310.950000000186265 ], [ 40713.375, 5952311.025000000372529 ], [ 40713.30000000000291, 5952311.025000000372529 ], [ 40713.30000000000291, 5952311.099999999627471 ], [ 40713.07499999999709, 5952311.099999999627471 ], [ 40713.07499999999709, 5952311.174999999813735 ], [ 40712.849999999998545, 5952311.174999999813735 ], [ 40712.849999999998545, 5952311.25 ], [ 40712.625, 5952311.25 ], [ 40712.625, 5952311.325000000186265 ], [ 40712.400000000001455, 5952311.325000000186265 ], [ 40712.400000000001455, 5952311.400000000372529 ], [ 40712.17500000000291, 5952311.400000000372529 ], [ 40712.17500000000291, 5952311.474999999627471 ], [ 40711.94999999999709, 5952311.474999999627471 ], [ 40711.94999999999709, 5952311.549999999813735 ], [ 40711.724999999998545, 5952311.549999999813735 ], [ 40711.724999999998545, 5952311.625 ], [ 40711.5, 5952311.625 ], [ 40711.5, 5952311.700000000186265 ], [ 40711.19999999999709, 5952311.700000000186265 ] ] ] } },
{ "type": "Feature", "properties": { "value": 1.0, "building_id": 2, "area": 78.946875000140849 }, "geometry": { "type": "Polygon", "coordinates": [ [ [ 40748.400000000001455, 5952297.525000000372529 ], [ 40748.400000000001455, 5952297.450000000186265 ], [ 40748.25, 5952297.450000000186265 ], [ 40748.25, 5952297.375 ], [ 40748.099999999998545, 5952297.375 ], [ 40748.099999999998545, 5952297.299999999813735 ], [ 40747.94999999999709, 5952297.299999999813735 ], [ 40747.94999999999709, 5952297.224999999627471 ], [ 40747.875, 5952297.224999999627471 ], [ 40747.875, 5952297.150000000372529 ], [ 40747.724999999998545, 5952297.150000000372529 ], [ 40747.724999999998545, 5952297.075000000186265 ], [ 40747.650000000001455, 5952297.075000000186265 ], [ 40747.650000000001455, 5952297.0 ], [ 40747.57499999999709, 5952297.0 ], [ 40747.57499999999709, 5952296.924999999813735 ], [ 40747.5, 5952296.924999999813735 ], [ 40747.5, 5952296.849999999627471 ], [ 40747.42500000000291, 5952296.849999999627471 ], [ 40747.42500000000291, 5952296.775000000372529 ], [ 40747.349999999998545, 5952296.775000000372529 ], [ 40747.349999999998545, 5952296.700000000186265 ], [ 40747.275000000001455, 5952296.700000000186265 ], [ 40747.275000000001455, 5952296.625 ], [ 40747.19999999999709, 5952296.625 ], [ 40747.19999999999709, 5952296.549999999813735 ], [ 40747.125, 5952296.549999999813735 ], [ 40747.125, 5952296.474999999627471 ], [ 40747.05000000000291, 5952296.474999999627471 ], [ 40747.05000000000291, 5952296.400000000372529 ], [ 40746.974999999998545, 5952296.400000000372529 ], [ 40746.974999999998545, 5952296.325000000186265 ], [ 40746.82499999999709, 5952296.325000000186265 ], [ 40746.82499999999709, 5952296.25 ], [ 40746.75, 5952296.25 ], [ 40746.75, 5952296.174999999813735 ], [ 40746.599999999998545, 5952296.174999999813735 ], [ 40746.599999999998545, 5952296.099999999627471 ], [ 40746.525000000001455, 5952296.099999999627471 ], [ 40746.525000000001455, 5952296.025000000372529 ], [ 40746.30000000000291, 5952296.025000000372529 ], [ 40746.30000000000291, 5952295.950000000186265 ], [ 40746.150000000001455, 5952295.950000000186265 ], [ 40746.150000000001455, 5952295.875 ], [ 40745.92500000000291, 5952295.875 ], [ 40745.92500000000291, 5952295.799999999813735 ], [ 40745.69999999999709, 5952295.799999999813735 ], [ 40745.69999999999709, 5952295.724999999627471 ], [ 40745.55000000000291, 5952295.724999999627471 ], [ 40745.55000000000291, 5952295.650000000372529 ], [ 40745.32499999999709, 5952295.650000000372529 ], [ 40745.32499999999709, 5952295.575000000186265 ], [ 40745.17500000000291, 5952295.575000000186265 ], [ 40745.17500000000291, 5952295.5 ], [ 40744.94999999999709, 5952295.5 ], [ 40744.94999999999709, 5952295.424999999813735 ], [ 40744.80000000000291, 5952295.424999999813735 ], [ 40744.80000000000291, 5952295.349999999627471 ], [ 40744.57499999999709, 5952295.349999999627471 ], [ 40744.57499999999709, 5952295.275000000372529 ], [ 40744.5, 5952295.275000000372529 ], [ 40744.5, 5952295.200000000186265 ], [ 40744.349999999998545, 5952295.200000000186265 ], [ 40744.349999999998545, 5952295.125 ], [ 40744.275000000001455, 5952295.125 ], [ 40744.275000000001455, 5952295.049999999813735 ], [ 40744.19999999999709, 5952295.049999999813735 ], [ 40744.19999999999709, 5952294.974999999627471 ], [ 40744.125, 5952294.974999999627471 ], [ 40744.125, 5952294.900000000372529 ], [ 40744.05000000000291, 5952294.900000000372529 ], [ 40744.05000000000291, 5952294.75 ], [ 40743.974999999998545, 5952294.75 ], [ 40743.974999999998545, 5952294.599999999627471 ], [ 40743.900000000001455, 5952294.599999999627471 ], [ 40743.900000000001455, 5952294.375 ], [ 40743.82499999999709, 5952294.375 ], [ 40743.82499999999709, 5952294.299999999813735 ], [ 40743.75, 5952294.299999999813735 ], [ 40743.75, 5952294.150000000372529 ], [ 40743.67500000000291, 5952294.150000000372529 ], [ 40743.67500000000291, 5952294.0 ], [ 40743.599999999998545, 5952294.0 ], [ 40743.599999999998545, 5952293.924999999813735 ], [ 40743.525000000001455, 5952293.924999999813735 ], [ 40743.525000000001455, 5952293.849999999627471 ], [ 40743.44999999999709, 5952293.849999999627471 ], [ 40743.44999999999709, 5952293.700000000186265 ], [ 40743.375, 5952293.700000000186265 ], [ 40743.375, 5952293.625 ], [ 40743.30000000000291, 5952293.625 ], [ 40743.30000000000291, 5952293.549999999813735 ], [ 40743.224999999998545, 5952293.549999999813735 ], [ 40743.224999999998545, 5952293.474999999627471 ], [ 40743.150000000001455, 5952293.474999999627471 ], [ 40743.150000000001455, 5952293.400000000372529 ], [ 40743.07499999999709, 5952293.400000000372529 ], [ 40743.07499999999709, 5952293.325000000186265 ], [ 40742.92500000000291, 5952293.325000000186265 ], [ 40742.92500000000291, 5952293.25 ], [ 40742.849999999998545, 5952293.25 ], [ 40742.849999999998545, 5952293.174999999813735 ], [ 40742.69999999999709, 5952293.174999999813735 ], [ 40742.69999999999709, 5952293.099999999627471 ], [ 40742.625, 5952293.099999999627471 ], [ 40742.625, 5952293.025000000372529 ], [ 40742.55000000000291, 5952293.025000000372529 ], [ 40742.55000000000291, 5952292.950000000186265 ], [ 40742.474999999998545, 5952292.950000000186265 ], [ 40742.474999999998545, 5952292.875 ], [ 40742.400000000001455, 5952292.875 ], [ 40742.400000000001455, 5952292.724999999627471 ], [ 40742.32499999999709, 5952292.724999999627471 ], [ 40742.32499999999709, 5952292.5 ], [ 40742.25, 5952292.5 ], [ 40742.25, 5952292.349999999627471 ], [ 40742.17500000000291, 5952292.349999999627471 ], [ 40742.17500000000291, 5952292.200000000186265 ], [ 40742.099999999998545, 5952292.200000000186265 ], [ 40742.099999999998545, 5952291.974999999627471 ], [ 40742.025000000001455, 5952291.974999999627471 ], [ 40742.025000000001455, 5952291.825000000186265 ], [ 40741.94999999999709, 5952291.825000000186265 ], [ 40741.94999999999709, 5952291.674999999813735 ], [ 40741.875, 5952291.674999999813735 ], [ 40741.875, 5952291.525000000372529 ], [ 40741.80000000000291, 5952291.525000000372529 ], [ 40741.80000000000291, 5952291.450000000186265 ], [ 40741.724999999998545, 5952291.450000000186265 ], [ 40741.724999999998545, 5952291.299999999813735 ], [ 40741.650000000001455, 5952291.299999999813735 ], [ 40741.650000000001455, 5952291.150000000372529 ], [ 40741.57499999999709, 5952291.150000000372529 ], [ 40741.57499999999709, 5952291.0 ], [ 40741.5, 5952291.0 ], [ 40741.5, 5952290.924999999813735 ], [ 40741.42500000000291, 5952290.924999999813735 ], [ 40741.42500000000291, 5952290.775000000372529 ], [ 40741.349999999998545, 5952290.775000000372529 ], [ 40741.349999999998545, 5952290.700000000186265 ], [ 40741.275000000001455, 5952290.700000000186265 ], [ 40741.275000000001455, 5952290.625 ], [ 40741.19999999999709, 5952290.625 ], [ 40741.19999999999709, 5952290.549999999813735 ], [ 40741.125, 5952290.549999999813735 ], [ 40741.125, 5952290.474999999627471 ], [ 40741.05000000000291, 5952290.474999999627471 ], [ 40741.05000000000291, 5952290.400000000372529 ], [ 40740.974999999998545, 5952290.400000000372529 ], [ 40740.974999999998545, 5952290.325000000186265 ], [ 40740.900000000001455, 5952290.325000000186265 ], [ 40740.900000000001455, 5952290.25 ], [ 40740.75, 5952290.25 ], [ 40740.75, 5952290.174999999813735 ], [ 40740.67500000000291, 5952290.174999999813735 ], [ 40740.67500000000291, 5952290.099999999627471 ], [ 40740.599999999998545, 5952290.099999999627471 ], [ 40740.599999999998545, 5952290.025000000372529 ], [ 40740.525000000001455, 5952290.025000000372529 ], [ 40740.525000000001455, 5952289.950000000186265 ], [ 40740.44999999999709, 5952289.950000000186265 ], [ 40740.44999999999709, 5952289.799999999813735 ], [ 40740.375, 5952289.799999999813735 ], [ 40740.375, 5952289.724999999627471 ], [ 40740.30000000000291, 5952289.724999999627471 ], [ 40740.30000000000291, 5952289.575000000186265 ], [ 40740.224999999998545, 5952289.575000000186265 ], [ 40740.224999999998545, 5952289.424999999813735 ], [ 40740.150000000001455, 5952289.424999999813735 ], [ 40740.150000000001455, 5952289.275000000372529 ], [ 40740.07499999999709, 5952289.275000000372529 ], [ 40740.07499999999709, 5952289.125 ], [ 40740.0, 5952289.125 ], [ 40740.0, 5952288.974999999627471 ], [ 40739.92500000000291, 5952288.974999999627471 ], [ 40739.92500000000291, 5952288.525000000372529 ], [ 40739.849999999998545, 5952288.525000000372529 ], [ 40739.849999999998545, 5952288.075000000186265 ], [ 40739.775000000001455, 5952288.075000000186265 ], [ 40739.775000000001455, 5952287.549999999813735 ], [ 40739.69999999999709, 5952287.549999999813735 ], [ 40739.69999999999709, 5952287.025000000372529 ], [ 40739.625, 5952287.025000000372529 ], [ 40739.625, 5952286.950000000186265 ], [ 40739.69999999999709, 5952286.950000000186265 ], [ 40739.69999999999709, 5952286.650000000372529 ], [ 40739.775000000001455, 5952286.650000000372529 ], [ 40739.775000000001455, 5952286.349999999627471 ], [ 40739.849999999998545, 5952286.349999999627471 ], [ 40739.849999999998545, 5952286.049999999813735 ], [ 40739.92500000000291, 5952286.049999999813735 ], [ 40739.92500000000291, 5952285.75 ], [ 40740.0, 5952285.75 ], [ 40740.0, 5952285.525000000372529 ], [ 40740.07499999999709, 5952285.525000000372529 ], [ 40740.07499999999709, 5952285.299999999813735 ], [ 40740.150000000001455, 5952285.299999999813735 ], [ 40740.150000000001455, 5952285.075000000186265 ], [ 40740.224999999998545, 5952285.075000000186265 ], [ 40740.224999999998545, 5952285.0 ], [ 40740.30000000000291, 5952285.0 ], [ 40740.30000000000291, 5952284.924999999813735 ], [ 40740.375, 5952284.924999999813735 ], [ 40740.375, 5952284.849999999627471 ], [ 40740.44999999999709, 5952284.849999999627471 ], [ 40740.44999999999709, 5952284.775000000372529 ], [ 40740.525000000001455, 5952284.775000000372529 ], [ 40740.525000000001455, 5952284.700000000186265 ], [ 40740.599999999998545, 5952284.700000000186265 ], [ 40740.599999999998545, 5952284.625 ], [ 40741.80000000000291, 5952284.625 ], [ 40741.80000000000291, 5952284.549999999813735 ], [ 40742.625, 5952284.549999999813735 ], [ 40742.625, 5952284.625 ], [ 40742.69999999999709, 5952284.625 ], [ 40742.69999999999709, 5952284.700000000186265 ], [ 40742.849999999998545, 5952284.700000000186265 ], [ 40742.849999999998545, 5952284.775000000372529 ], [ 40742.92500000000291, 5952284.775000000372529 ], [ 40742.92500000000291, 5952284.849999999627471 ], [ 40743.0, 5952284.849999999627471 ], [ 40743.0, 5952284.924999999813735 ], [ 40743.07499999999709, 5952284.924999999813735 ], [ 40743.07499999999709, 5952285.0 ], [ 40743.150000000001455, 5952285.0 ], [ 40743.150000000001455, 5952285.150000000372529 ], [ 40743.224999999998545, 5952285.150000000372529 ], [ 40743.224999999998545, 5952285.375 ], [ 40743.30000000000291, 5952285.375 ], [ 40743.30000000000291, 5952285.525000000372529 ], [ 40743.375, 5952285.525000000372529 ], [ 40743.375, 5952285.674999999813735 ], [ 40743.44999999999709, 5952285.674999999813735 ], [ 40743.44999999999709, 5952285.900000000372529 ], [ 40743.525000000001455, 5952285.900000000372529 ], [ 40743.525000000001455, 5952286.049999999813735 ], [ 40743.599999999998545, 5952286.049999999813735 ], [ 40743.599999999998545, 5952286.200000000186265 ], [ 40743.67500000000291, 5952286.200000000186265 ], [ 40743.67500000000291, 5952286.349999999627471 ], [ 40743.75, 5952286.349999999627471 ], [ 40743.75, 5952286.575000000186265 ], [ 40743.82499999999709, 5952286.575000000186265 ], [ 40743.82499999999709, 5952286.724999999627471 ], [ 40743.900000000001455, 5952286.724999999627471 ], [ 40743.900000000001455, 5952286.875 ], [ 40743.974999999998545, 5952286.875 ], [ 40743.974999999998545, 5952287.099999999627471 ], [ 40744.05000000000291, 5952287.099999999627471 ], [ 40744.05000000000291, 5952287.325000000186265 ], [ 40744.125, 5952287.325000000186265 ], [ 40744.125, 5952287.549999999813735 ], [ 40744.19999999999709, 5952287.549999999813735 ], [ 40744.19999999999709, 5952287.775000000372529 ], [ 40744.275000000001455, 5952287.775000000372529 ], [ 40744.275000000001455, 5952287.924999999813735 ], [ 40744.349999999998545, 5952287.924999999813735 ], [ 40744.349999999998545, 5952288.075000000186265 ], [ 40744.42500000000291, 5952288.075000000186265 ], [ 40744.42500000000291, 5952288.224999999627471 ], [ 40744.5, 5952288.224999999627471 ], [ 40744.5, 5952288.299999999813735 ], [ 40744.57499999999709, 5952288.299999999813735 ], [ 40744.57499999999709, 5952288.450000000186265 ], [ 40744.650000000001455, 5952288.450000000186265 ], [ 40744.650000000001455, 5952288.599999999627471 ], [ 40744.724999999998545, 5952288.599999999627471 ], [ 40744.724999999998545, 5952288.75 ], [ 40744.80000000000291, 5952288.75 ], [ 40744.80000000000291, 5952288.900000000372529 ], [ 40744.875, 5952288.900000000372529 ], [ 40744.875, 5952289.049999999813735 ], [ 40744.94999999999709, 5952289.049999999813735 ], [ 40744.94999999999709, 5952289.125 ], [ 40745.025000000001455, 5952289.125 ], [ 40745.025000000001455, 5952289.275000000372529 ], [ 40745.099999999998545, 5952289.275000000372529 ], [ 40745.099999999998545, 5952289.349999999627471 ], [ 40745.17500000000291, 5952289.349999999627471 ], [ 40745.17500000000291, 5952289.424999999813735 ], [ 40745.25, 5952289.424999999813735 ], [ 40745.25, 5952289.5 ], [ 40745.32499999999709, 5952289.5 ], [ 40745.32499999999709, 5952289.575000000186265 ], [ 40745.400000000001455, 5952289.575000000186265 ], [ 40745.400000000001455, 5952289.650000000372529 ], [ 40745.474999999998545, 5952289.650000000372529 ], [ 40745.474999999998545, 5952289.724999999627471 ], [ 40745.55000000000291, 5952289.724999999627471 ], [ 40745.55000000000291, 5952289.799999999813735 ], [ 40745.69999999999709, 5952289.799999999813735 ], [ 40745.69999999999709, 5952289.875 ], [ 40745.775000000001455, 5952289.875 ], [ 40745.775000000001455, 5952289.950000000186265 ], [ 40745.92500000000291, 5952289.950000000186265 ], [ 40745.92500000000291, 5952290.025000000372529 ], [ 40746.150000000001455, 5952290.025000000372529 ], [ 40746.150000000001455, 5952290.099999999627471 ], [ 40746.30000000000291, 5952290.099999999627471 ], [ 40746.30000000000291, 5952290.174999999813735 ], [ 40746.67500000000291, 5952290.174999999813735 ], [ 40746.67500000000291, 5952290.25 ], [ 40747.349999999998545, 5952290.25 ], [ 40747.349999999998545, 5952290.325000000186265 ], [ 40748.025000000001455, 5952290.325000000186265 ], [ 40748.025000000001455, 5952290.400000000372529 ], [ 40748.474999999998545, 5952290.400000000372529 ], [ 40748.474999999998545, 5952290.474999999627471 ], [ 40748.625, 5952290.474999999627471 ], [ 40748.625, 5952290.549999999813735 ], [ 40748.775000000001455, 5952290.549999999813735 ], [ 40748.775000000001455, 5952290.625 ], [ 40748.849999999998545, 5952290.625 ], [ 40748.849999999998545, 5952290.700000000186265 ], [ 40749.0, 5952290.700000000186265 ], [ 40749.0, 5952290.775000000372529 ], [ 40749.07499999999709, 5952290.775000000372529 ], [ 40749.07499999999709, 5952290.849999999627471 ], [ 40749.150000000001455, 5952290.849999999627471 ], [ 40749.150000000001455, 5952290.924999999813735 ], [ 40749.30000000000291, 5952290.924999999813735 ], [ 40749.30000000000291, 5952291.0 ], [ 40749.375, 5952291.0 ], [ 40749.375, 5952291.075000000186265 ], [ 40749.525000000001455, 5952291.075000000186265 ], [ 40749.525000000001455, 5952291.150000000372529 ], [ 40749.599999999998545, 5952291.150000000372529 ], [ 40749.599999999998545, 5952291.224999999627471 ], [ 40749.75, 5952291.224999999627471 ], [ 40749.75, 5952291.299999999813735 ], [ 40749.900000000001455, 5952291.299999999813735 ], [ 40749.900000000001455, 5952291.375 ], [ 40750.125, 5952291.375 ], [ 40750.125, 5952291.450000000186265 ], [ 40750.275000000001455, 5952291.450000000186265 ], [ 40750.275000000001455, 5952291.525000000372529 ], [ 40750.5, 5952291.525000000372529 ], [ 40750.5, 5952291.599999999627471 ], [ 40750.724999999998545, 5952291.599999999627471 ], [ 40750.724999999998545, 5952291.674999999813735 ], [ 40750.94999999999709, 5952291.674999999813735 ], [ 40750.94999999999709, 5952291.75 ], [ 40751.17500000000291, 5952291.75 ], [ 40751.17500000000291, 5952291.825000000186265 ], [ 40751.32499999999709, 5952291.825000000186265 ], [ 40751.32499999999709, 5952291.900000000372529 ], [ 40751.55000000000291, 5952291.900000000372529 ], [ 40751.55000000000291, 5952291.974999999627471 ], [ 40751.69999999999709, 5952291.974999999627471 ], [ 40751.69999999999709, 5952292.049999999813735 ], [ 40751.849999999998545, 5952292.049999999813735 ], [ 40751.849999999998545, 5952292.125 ], [ 40752.0, 5952292.125 ], [ 40752.0, 5952292.200000000186265 ], [ 40752.150000000001455, 5952292.200000000186265 ], [ 40752.150000000001455, 5952292.275000000372529 ], [ 40752.224999999998545, 5952292.275000000372529 ], [ 40752.224999999998545, 5952292.349999999627471 ], [ 40752.375, 5952292.349999999627471 ], [ 40752.375, 5952292.424999999813735 ], [ 40752.44999999999709, 5952292.424999999813735 ], [ 40752.44999999999709, 5952292.5 ], [ 40752.525000000001455, 5952292.5 ], [ 40752.525000000001455, 5952292.575000000186265 ], [ 40752.599999999998545, 5952292.575000000186265 ], [ 40752.599999999998545, 5952292.650000000372529 ], [ 40752.67500000000291, 5952292.650000000372529 ], [ 40752.67500000000291, 5952292.724999999627471 ], [ 40752.75, 5952292.724999999627471 ], [ 40752.75, 5952292.799999999813735 ], [ 40752.82499999999709, 5952292.799999999813735 ], [ 40752.82499999999709, 5952292.950000000186265 ], [ 40752.900000000001455, 5952292.950000000186265 ], [ 40752.900000000001455, 5952293.700000000186265 ], [ 40752.974999999998545, 5952293.700000000186265 ], [ 40752.974999999998545, 5952294.599999999627471 ], [ 40753.05000000000291, 5952294.599999999627471 ], [ 40753.05000000000291, 5952294.825000000186265 ], [ 40752.974999999998545, 5952294.825000000186265 ], [ 40752.974999999998545, 5952294.974999999627471 ], [ 40752.900000000001455, 5952294.974999999627471 ], [ 40752.900000000001455, 5952295.049999999813735 ], [ 40752.82499999999709, 5952295.049999999813735 ], [ 40752.82499999999709, 5952295.125 ], [ 40752.75, 5952295.125 ], [ 40752.75, 5952295.200000000186265 ], [ 40752.67500000000291, 5952295.200000000186265 ], [ 40752.67500000000291, 5952295.275000000372529 ], [ 40752.599999999998545, 5952295.275000000372529 ], [ 40752.599999999998545, 5952295.349999999627471 ], [ 40752.525000000001455, 5952295.349999999627471 ], [ 40752.525000000001455, 5952295.424999999813735 ], [ 40752.375, 5952295.424999999813735 ], [ 40752.375, 5952295.5 ], [ 40752.30000000000291, 5952295.5 ], [ 40752.30000000000291, 5952295.575000000186265 ], [ 40752.150000000001455, 5952295.575000000186265 ], [ 40752.150000000001455, 5952295.650000000372529 ], [ 40752.07499999999709, 5952295.650000000372529 ], [ 40752.07499999999709, 5952295.724999999627471 ], [ 40751.92500000000291, 5952295.724999999627471 ], [ 40751.92500000000291, 5952295.799999999813735 ], [ 40751.849999999998545, 5952295.799999999813735 ], [ 40751.849999999998545, 5952295.875 ], [ 40751.69999999999709, 5952295.875 ], [ 40751.69999999999709, 5952295.950000000186265 ], [ 40751.625, 5952295.950000000186265 ], [ 40751.625, 5952296.025000000372529 ], [ 40751.474999999998545, 5952296.025000000372529 ], [ 40751.474999999998545, 5952296.099999999627471 ], [ 40751.400000000001455, 5952296.099999999627471 ], [ 40751.400000000001455, 5952296.174999999813735 ], [ 40751.32499999999709, 5952296.174999999813735 ], [ 40751.32499999999709, 5952296.25 ], [ 40751.25, 5952296.25 ], [ 40751.25, 5952296.325000000186265 ], [ 40751.099999999998545, 5952296.325000000186265 ], [ 40751.099999999998545, 5952296.400000000372529 ], [ 40751.025000000001455, 5952296.400000000372529 ], [ 40751.025000000001455, 5952296.474999999627471 ], [ 40750.94999999999709, 5952296.474999999627471 ], [ 40750.94999999999709, 5952296.549999999813735 ], [ 40750.875, 5952296.549999999813735 ], [ 40750.875, 5952296.625 ], [ 40750.724999999998545, 5952296.625 ], [ 40750.724999999998545, 5952296.700000000186265 ], [ 40750.650000000001455, 5952296.700000000186265 ], [ 40750.650000000001455, 5952296.775000000372529 ], [ 40750.57499999999709, 5952296.775000000372529 ], [ 40750.57499999999709, 5952296.849999999627471 ], [ 40750.5, 5952296.849999999627471 ], [ 40750.5, 5952296.924999999813735 ], [ 40750.42500000000291, 5952296.924999999813735 ], [ 40750.42500000000291, 5952297.0 ], [ 40750.19999999999709, 5952297.0 ], [ 40750.19999999999709, 5952297.075000000186265 ], [ 40750.05000000000291, 5952297.075000000186265 ], [ 40750.05000000000291, 5952297.150000000372529 ], [ 40749.75, 5952297.150000000372529 ], [ 40749.75, 5952297.224999999627471 ], [ 40749.525000000001455, 5952297.224999999627471 ], [ 40749.525000000001455, 5952297.299999999813735 ], [ 40749.224999999998545, 5952297.299999999813735 ], [ 40749.224999999998545, 5952297.375 ], [ 40748.92500000000291, 5952297.375 ], [ 40748.92500000000291, 5952297.450000000186265 ], [ 40748.55000000000291, 5952297.450000000186265 ], [ 40748.55000000000291, 5952297.525000000372529 ], [ 40748.400000000001455, 5952297.525000000372529 ] ] ] } }
]
}
