{
"type": "FeatureCollection",
"name": "40683E594657N_buildings",
"crs": { "type": "name", "properties": { "name": "urn:ogc:def:crs:EPSG::3776" } },
"features": [
{ "type": "Feature", "properties": { "value": 1.0, "building_id": 0, "area": 109.43437500104869 }, "geometry": { "type": "Polygon", "coordinates": [ [ [ 41021.69999999999709, 5947027.724999999627471 ], [ 41021.69999999999709, 5947027.650000000372529 ], [ 41021.32499999999709, 5947027.650000000372529 ], [ 41021.32499999999709, 5947027.575000000186265 ], [ 41020.875, 5947027.575000000186265 ], [ 41020.875, 5947027.5 ], [ 41020.5, 5947027.5 ], [ 41020.5, 5947027.424999999813735 ], [ 41020.125, 5947027.424999999813735 ], [ 41020.125, 5947027.349999999627471 ], [ 41019.75, 5947027.349999999627471 ], [ 41019.75, 5947027.275000000372529 ], [ 41019.375, 5947027.275000000372529 ], [ 41019.375, 5947027.200000000186265 ], [ 41018.92500000000291, 5947027.200000000186265 ], [ 41018.92500000000291, 5947027.125 ], [ 41018.474999999998545, 5947027.125 ], [ 41018.474999999998545, 5947027.049999999813735 ], [ 41018.025000000001455, 5947027.049999999813735 ], [ 41018.025000000001455, 5947026.974999999627471 ], [ 41017.19999999999709, 5947026.974999999627471 ], [ 41017.19999999999709, 5947026.900000000372529 ], [ 41016.30000000000291, 5947026.900000000372529 ], [ 41016.30000000000291, 5947026.825000000186265 ], [ 41015.775000000001455, 5947026.825000000186265 ], [ 41015.775000000001455, 5947026.75 ], [ 41015.400000000001455, 5947026.75 ], [ 41015.400000000001455, 5947026.674999999813735 ], [ 41015.099999999998545, 5947026.674999999813735 ], [ 41015.099999999998545, 5947026.599999999627471 ], [ 41014.875, 5947026.599999999627471 ], [ 41014.875, 5947026.525000000372529 ], [ 41014.650000000001455, 5947026.525000000372529 ], [ 41014.650000000001455, 5947026.450000000186265 ], [ 41014.42500000000291, 5947026.450000000186265 ], [ 41014.42500000000291, 5947026.375 ], [ 41014.275000000001455, 5947026.375 ], [ 41014.275000000001455, 5947026.299999999813735 ], [ 41014.125, 5947026.299999999813735 ], [ 41014.125, 5947026.224999999627471 ], [ 41013.900000000001455, 5947026.224999999627471 ], [ 41013.900000000001455, 5947026.150000000372529 ], [ 41013.75, 5947026.150000000372529 ], [ 41013.75, 5947026.075000000186265 ], [ 41013.525000000001455, 5947026.075000000186265 ], [ 41013.525000000001455, 5947026.0 ], [ 41013.375, 5947026.0 ], [ 41013.375, 5947025.924999999813735 ], [ 41013.224999999998545, 5947025.924999999813735 ], [ 41013.224999999998545, 5947025.849999999627471 ], [ 41013.07499999999709, 5947025.849999999627471 ], [ 41013.07499999999709, 5947025.775000000372529 ], [ 41013.0, 5947025.775000000372529 ], [ 41013.0, 5947025.700000000186265 ], [ 41012.92500000000291, 5947025.700000000186265 ], [ 41012.92500000000291, 5947025.625 ], [ 41012.849999999998545, 5947025.625 ], [ 41012.849999999998545, 5947025.549999999813735 ], [ 41012.69999999999709, 5947025.549999999813735 ], [ 41012.69999999999709, 5947025.474999999627471 ], [ 41012.625, 5947025.474999999627471 ], [ 41012.625, 5947025.400000000372529 ], [ 41012.55000000000291, 5947025.400000000372529 ], [ 41012.55000000000291, 5947025.325000000186265 ], [ 41012.474999999998545, 5947025.325000000186265 ], [ 41012.474999999998545, 5947025.25 ], [ 41012.400000000001455, 5947025.25 ], [ 41012.400000000001455, 5947025.174999999813735 ], [ 41012.32499999999709, 5947025.174999999813735 ], [ 41012.32499999999709, 5947025.025000000372529 ], [ 41012.25, 5947025.025000000372529 ], [ 41012.25, 5947024.950000000186265 ], [ 41012.17500000000291, 5947024.950000000186265 ], [ 41012.17500000000291, 5947024.724999999627471 ], [ 41012.099999999998545, 5947024.724999999627471 ], [ 41012.099999999998545, 5947024.650000000372529 ], [ 41012.025000000001455, 5947024.650000000372529 ], [ 41012.025000000001455, 5947024.575000000186265 ], [ 41011.94999999999709, 5947024.575000000186265 ], [ 41011.94999999999709, 5947024.5 ], [ 41011.875, 5947024.5 ], [ 41011.875, 5947024.424999999813735 ], [ 41011.80000000000291, 5947024.424999999813735 ], [ 41011.80000000000291, 5947024.349999999627471 ], [ 41011.724999999998545, 5947024.349999999627471 ], [ 41011.724999999998545, 5947024.275000000372529 ], [ 41011.650000000001455, 5947024.275000000372529 ], [ 41011.650000000001455, 5947024.125 ], [ 41011.57499999999709, 5947024.125 ], [ 41011.57499999999709, 5947023.974999999627471 ], [ 41011.5, 5947023.974999999627471 ], [ 41011.5, 5947023.825000000186265 ], [ 41011.42500000000291, 5947023.825000000186265 ], [ 41011.42500000000291, 5947023.599999999627471 ], [ 41011.349999999998545, 5947023.599999999627471 ], [ 41011.349999999998545, 5947023.299999999813735 ], [ 41011.19999999999709, 5947023.299999999813735 ], [ 41011.19999999999709, 5947023.224999999627471 ], [ 41011.125, 5947023.224999999627471 ], [ 41011.125, 5947023.150000000372529 ], [ 41011.05000000000291, 5947023.150000000372529 ], [ 41011.05000000000291, 5947023.075000000186265 ], [ 41010.974999999998545, 5947023.075000000186265 ], [ 41010.974999999998545, 5947022.924999999813735 ], [ 41010.900000000001455, 5947022.924999999813735 ], [ 41010.900000000001455, 5947022.849999999627471 ], [ 41010.82499999999709, 5947022.849999999627471 ], [ 41010.82499999999709, 5947022.700000000186265 ], [ 41010.75, 5947022.700000000186265 ], [ 41010.75, 5947022.474999999627471 ], [ 41010.67500000000291, 5947022.474999999627471 ], [ 41010.67500000000291, 5947022.25 ], [ 41010.599999999998545, 5947022.25 ], [ 41010.599999999998545, 5947021.950000000186265 ], [ 41010.525000000001455, 5947021.950000000186265 ], [ 41010.525000000001455, 5947021.5 ], [ 41010.44999999999709, 5947021.5 ], [ 41010.44999999999709, 5947021.349999999627471 ], [ 41010.525000000001455, 5947021.349999999627471 ], [ 41010.525000000001455, 5947021.200000000186265 ], [ 41010.599999999998545, 5947021.200000000186265 ], [ 41010.599999999998545, 5947021.049999999813735 ], [ 41010.67500000000291, 5947021.049999999813735 ], [ 41010.67500000000291, 5947020.900000000372529 ], [ 41010.75, 5947020.900000000372529 ], [ 41010.75, 5947020.825000000186265 ], [ 41010.82499999999709, 5947020.825000000186265 ], [ 41010.82499999999709, 5947020.674999999813735 ], [ 41010.900000000001455, 5947020.674999999813735 ], [ 41010.900000000001455, 5947020.599999999627471 ], [ 41010.974999999998545, 5947020.599999999627471 ], [ 41010.974999999998545, 5947020.450000000186265 ], [ 41011.05000000000291, 5947020.450000000186265 ], [ 41011.05000000000291, 5947020.375 ], [ 41011.125, 5947020.375 ], [ 41011.125, 5947020.224999999627471 ], [ 41011.19999999999709, 5947020.224999999627471 ], [ 41011.19999999999709, 5947020.150000000372529 ], [ 41011.275000000001455, 5947020.150000000372529 ], [ 41011.275000000001455, 5947020.075000000186265 ], [ 41011.349999999998545, 5947020.075000000186265 ], [ 41011.349999999998545, 5947019.924999999813735 ], [ 41011.42500000000291, 5947019.924999999813735 ], [ 41011.42500000000291, 5947019.849999999627471 ], [ 41011.5, 5947019.849999999627471 ], [ 41011.5, 5947019.775000000372529 ], [ 41011.57499999999709, 5947019.775000000372529 ], [ 41011.57499999999709, 5947019.700000000186265 ], [ 41011.650000000001455, 5947019.700000000186265 ], [ 41011.650000000001455, 5947019.625 ], [ 41011.724999999998545, 5947019.625 ], [ 41011.724999999998545, 5947019.549999999813735 ], [ 41011.80000000000291, 5947019.549999999813735 ], [ 41011.80000000000291, 5947019.400000000372529 ], [ 41011.94999999999709, 5947019.400000000372529 ], [ 41011.94999999999709, 5947019.325000000186265 ], [ 41012.099999999998545, 5947019.325000000186265 ], [ 41012.099999999998545, 5947019.25 ], [ 41012.32499999999709, 5947019.25 ], [ 41012.32499999999709, 5947019.174999999813735 ], [ 41012.474999999998545, 5947019.174999999813735 ], [ 41012.474999999998545, 5947019.099999999627471 ], [ 41012.69999999999709, 5947019.099999999627471 ], [ 41012.69999999999709, 5947019.025000000372529 ], [ 41013.0, 5947019.025000000372529 ], [ 41013.0, 5947018.950000000186265 ], [ 41013.224999999998545, 5947018.950000000186265 ], [ 41013.224999999998545, 5947018.875 ], [ 41013.599999999998545, 5947018.875 ], [ 41013.599999999998545, 5947018.799999999813735 ], [ 41013.900000000001455, 5947018.799999999813735 ], [ 41013.900000000001455, 5947018.724999999627471 ], [ 41016.30000000000291, 5947018.724999999627471 ], [ 41016.30000000000291, 5947018.799999999813735 ], [ 41017.275000000001455, 5947018.799999999813735 ], [ 41017.275000000001455, 5947018.875 ], [ 41018.099999999998545, 5947018.875 ], [ 41018.099999999998545, 5947018.950000000186265 ], [ 41018.775000000001455, 5947018.950000000186265 ], [ 41018.775000000001455, 5947019.025000000372529 ], [ 41019.375, 5947019.025000000372529 ], [ 41019.375, 5947019.099999999627471 ], [ 41019.974999999998545, 5947019.099999999627471 ], [ 41019.974999999998545, 5947019.174999999813735 ], [ 41020.349999999998545, 5947019.174999999813735 ], [ 41020.349999999998545, 5947019.25 ], [ 41020.80000000000291, 5947019.25 ], [ 41020.80000000000291, 5947019.325000000186265 ], [ 41021.17500000000291, 5947019.325000000186265 ], [ 41021.17500000000291, 5947019.400000000372529 ], [ 41021.474999999998545, 5947019.400000000372529 ], [ 41021.474999999998545, 5947019.474999999627471 ], [ 41021.625, 5947019.474999999627471 ], [ 41021.625, 5947019.549999999813735 ], [ 41021.849999999998545, 5947019.549999999813735 ], [ 41021.849999999998545, 5947019.625 ], [ 41021.92500000000291, 5947019.625 ], [ 41021.92500000000291, 5947019.700000000186265 ], [ 41022.07499999999709, 5947019.700000000186265 ], [ 41022.07499999999709, 5947019.775000000372529 ], [ 41022.224999999998545, 5947019.775000000372529 ], [ 41022.224999999998545, 5947019.849999999627471 ], [ 41022.375, 5947019.849999999627471 ], [ 41022.375, 5947019.924999999813735 ], [ 41022.525000000001455, 5947019.924999999813735 ], [ 41022.525000000001455, 5947020.0 ], [ 41022.67500000000291, 5947020.0 ], [ 41022.67500000000291, 5947020.075000000186265 ], [ 41022.900000000001455, 5947020.075000000186265 ], [ 41022.900000000001455, 5947020.150000000372529 ], [ 41023.05000000000291, 5947020.150000000372529 ], [ 41023.05000000000291, 5947020.224999999627471 ], [ 41023.275000000001455, 5947020.224999999627471 ], [ 41023.275000000001455, 5947020.299999999813735 ], [ 41023.5, 5947020.299999999813735 ], [ 41023.5, 5947020.375 ], [ 41023.80000000000291, 5947020.375 ], [ 41023.80000000000291, 5947020.450000000186265 ], [ 41024.099999999998545, 5947020.450000000186265 ], [ 41024.099999999998545, 5947020.525000000372529 ], [ 41024.32499999999709, 5947020.525000000372529 ], [ 41024.32499999999709, 5947020.599999999627471 ], [ 41024.625, 5947020.599999999627471 ], [ 41024.625, 5947020.674999999813735 ], [ 41024.849999999998545, 5947020.674999999813735 ], [ 41024.849999999998545, 5947020.75 ], [ 41025.07499999999709, 5947020.75 ], [ 41025.07499999999709, 5947020.825000000186265 ], [ 41025.375, 5947020.825000000186265 ], [ 41025.375, 5947020.900000000372529 ], [ 41025.599999999998545, 5947020.900000000372529 ], [ 41025.599999999998545, 5947020.974999999627471 ], [ 41025.75, 5947020.974999999627471 ], [ 41025.75, 5947021.049999999813735 ], [ 41026.125, 5947021.049999999813735 ], [ 41026.125, 5947021.125 ], [ 41026.42500000000291, 5947021.125 ], [ 41026.42500000000291, 5947021.200000000186265 ], [ 41026.724999999998545, 5947021.200000000186265 ], [ 41026.724999999998545, 5947021.275000000372529 ], [ 41026.875, 5947021.275000000372529 ], [ 41026.875, 5947021.349999999627471 ], [ 41027.099999999998545, 5947021.349999999627471 ], [ 41027.099999999998545, 5947021.724999999627471 ], [ 41027.17500000000291, 5947021.724999999627471 ], [ 41027.17500000000291, 5947021.799999999813735 ], [ 41027.099999999998545, 5947021.799999999813735 ], [ 41027.099999999998545, 5947022.025000000372529 ], [ 41027.025000000001455, 5947022.025000000372529 ], [ 41027.025000000001455, 5947022.174999999813735 ], [ 41026.94999999999709, 5947022.174999999813735 ], [ 41026.94999999999709, 5947022.325000000186265 ], [ 41026.875, 5947022.325000000186265 ], [ 41026.875, 5947022.474999999627471 ], [ 41026.80000000000291, 5947022.474999999627471 ], [ 41026.80000000000291, 5947022.700000000186265 ], [ 41026.724999999998545, 5947022.700000000186265 ], [ 41026.724999999998545, 5947022.849999999627471 ], [ 41026.650000000001455, 5947022.849999999627471 ], [ 41026.650000000001455, 5947023.0 ], [ 41026.57499999999709, 5947023.0 ], [ 41026.57499999999709, 5947023.150000000372529 ], [ 41026.5, 5947023.150000000372529 ], [ 41026.5, 5947023.224999999627471 ], [ 41026.42500000000291, 5947023.224999999627471 ], [ 41026.42500000000291, 5947023.375 ], [ 41026.349999999998545, 5947023.375 ], [ 41026.349999999998545, 5947023.525000000372529 ], [ 41026.275000000001455, 5947023.525000000372529 ], [ 41026.275000000001455, 5947023.599999999627471 ], [ 41026.19999999999709, 5947023.599999999627471 ], [ 41026.19999999999709, 5947023.75 ], [ 41026.125, 5947023.75 ], [ 41026.125, 5947023.825000000186265 ], [ 41026.05000000000291, 5947023.825000000186265 ], [ 41026.05000000000291, 5947023.974999999627471 ], [ 41025.974999999998545, 5947023.974999999627471 ], [ 41025.974999999998545, 5947024.049999999813735 ], [ 41025.900000000001455, 5947024.049999999813735 ], [ 41025.900000000001455, 5947024.200000000186265 ], [ 41025.82499999999709, 5947024.200000000186265 ], [ 41025.82499999999709, 5947024.275000000372529 ], [ 41025.75, 5947024.275000000372529 ], [ 41025.75, 5947024.424999999813735 ], [ 41025.67500000000291, 5947024.424999999813735 ], [ 41025.67500000000291, 5947024.575000000186265 ], [ 41025.599999999998545, 5947024.575000000186265 ], [ 41025.599999999998545, 5947024.724999999627471 ], [ 41025.525000000001455, 5947024.724999999627471 ], [ 41025.525000000001455, 5947024.950000000186265 ], [ 41025.44999999999709, 5947024.950000000186265 ], [ 41025.44999999999709, 5947025.099999999627471 ], [ 41025.375, 5947025.099999999627471 ], [ 41025.375, 5947025.25 ], [ 41025.30000000000291, 5947025.25 ], [ 41025.30000000000291, 5947025.400000000372529 ], [ 41025.224999999998545, 5947025.400000000372529 ], [ 41025.224999999998545, 5947025.549999999813735 ], [ 41025.150000000001455, 5947025.549999999813735 ], [ 41025.150000000001455, 5947025.625 ], [ 41025.07499999999709, 5947025.625 ], [ 41025.07499999999709, 5947025.775000000372529 ], [ 41025.0, 5947025.775000000372529 ], [ 41025.0, 5947025.924999999813735 ], [ 41024.92500000000291, 5947025.924999999813735 ], [ 41024.92500000000291, 5947026.0 ], [ 41024.849999999998545, 5947026.0 ], [ 41024.849999999998545, 5947026.150000000372529 ], [ 41024.775000000001455, 5947026.150000000372529 ], [ 41024.775000000001455, 5947026.224999999627471 ], [ 41024.69999999999709, 5947026.224999999627471 ], [ 41024.69999999999709, 5947026.375 ], [ 41024.625, 5947026.375 ], [ 41024.625, 5947026.450000000186265 ], [ 41024.55000000000291, 5947026.450000000186265 ], [ 41024.55000000000291, 5947026.599999999627471 ], [ 41024.474999999998545, 5947026.599999999627471 ], [ 41024.474999999998545, 5947026.674999999813735 ], [ 41024.400000000001455, 5947026.674999999813735 ], [ 41024.400000000001455, 5947026.825000000186265 ], [ 41024.32499999999709, 5947026.825000000186265 ], [ 41024.32499999999709, 5947026.900000000372529 ], [ 41024.25, 5947026.900000000372529 ], [ 41024.25, 5947026.974999999627471 ], [ 41024.17500000000291, 5947026.974999999627471 ], [ 41024.17500000000291, 5947027.125 ], [ 41024.099999999998545, 5947027.125 ], [ 41024.099999999998545, 5947027.200000000186265 ], [ 41024.025000000001455, 5947027.200000000186265 ], [ 41024.025000000001455, 5947027.275000000372529 ], [ 41023.875, 5947027.275000000372529 ], [ 41023.875, 5947027.349999999627471 ], [ 41023.650000000001455, 5947027.349999999627471 ], [ 41023.650000000001455, 5947027.424999999813735 ], [ 41023.275000000001455, 5947027.424999999813735 ], [ 41023.275000000001455, 5947027.5 ], [ 41022.900000000001455, 5947027.5 ], [ 41022.900000000001455, 5947027.575000000186265 ], [ 41022.44999999999709, 5947027.575000000186265 ], [ 41022.44999999999709, 5947027.650000000372529 ], [ 41022.0, 5947027.650000000372529 ], [ 41022.0, 5947027.724999999627471 ], [ 41021.69999999999709, 5947027.724999999627471 ] ] ] } }
]
}
