{
"type": "FeatureCollection",
"name": "40683E592182N_buildings",
"crs": { "type": "name", "properties": { "name": "urn:ogc:def:crs:EPSG::3776" } },
"features": [
{ "type": "Feature", "properties": { "value": 1.0, "building_id": 0, "area": 65.081250000133736 }, "geometry": { "type": "Polygon", "coordinates": [ [ [ 41383.125, 5922490.650000000372529 ], [ 41383.125, 5922490.575000000186265 ], [ 41382.900000000001455, 5922490.575000000186265 ], [ 41382.900000000001455, 5922490.5 ], [ 41382.599999999998545, 5922490.5 ], [ 41382.599999999998545, 5922490.424999999813735 ], [ 41382.30000000000291, 5922490.424999999813735 ], [ 41382.30000000000291, 5922490.349999999627471 ], [ 41381.849999999998545, 5922490.349999999627471 ], [ 41381.849999999998545, 5922490.275000000372529 ], [ 41381.25, 5922490.275000000372529 ], [ 41381.25, 5922490.200000000186265 ], [ 41381.099999999998545, 5922490.200000000186265 ], [ 41381.099999999998545, 5922490.125 ], [ 41381.025000000001455, 5922490.125 ], [ 41381.025000000001455, 5922489.974999999627471 ], [ 41380.94999999999709, 5922489.974999999627471 ], [ 41380.94999999999709, 5922489.75 ], [ 41380.875, 5922489.75 ], [ 41380.875, 5922489.599999999627471 ], [ 41380.80000000000291, 5922489.599999999627471 ], [ 41380.80000000000291, 5922489.450000000186265 ], [ 41380.724999999998545, 5922489.450000000186265 ], [ 41380.724999999998545, 5922489.299999999813735 ], [ 41380.650000000001455, 5922489.299999999813735 ], [ 41380.650000000001455, 5922489.224999999627471 ], [ 41380.57499999999709, 5922489.224999999627471 ], [ 41380.57499999999709, 5922489.075000000186265 ], [ 41380.5, 5922489.075000000186265 ], [ 41380.5, 5922489.0 ], [ 41380.42500000000291, 5922489.0 ], [ 41380.42500000000291, 5922488.849999999627471 ], [ 41380.349999999998545, 5922488.849999999627471 ], [ 41380.349999999998545, 5922488.775000000372529 ], [ 41380.275000000001455, 5922488.775000000372529 ], [ 41380.275000000001455, 5922488.700000000186265 ], [ 41380.19999999999709, 5922488.700000000186265 ], [ 41380.19999999999709, 5922488.625 ], [ 41380.125, 5922488.625 ], [ 41380.125, 5922488.549999999813735 ], [ 41380.05000000000291, 5922488.549999999813735 ], [ 41380.05000000000291, 5922488.474999999627471 ], [ 41379.974999999998545, 5922488.474999999627471 ], [ 41379.974999999998545, 5922488.400000000372529 ], [ 41379.900000000001455, 5922488.400000000372529 ], [ 41379.900000000001455, 5922488.325000000186265 ], [ 41379.75, 5922488.325000000186265 ], [ 41379.75, 5922488.25 ], [ 41379.67500000000291, 5922488.25 ], [ 41379.67500000000291, 5922488.174999999813735 ], [ 41379.599999999998545, 5922488.174999999813735 ], [ 41379.599999999998545, 5922488.099999999627471 ], [ 41379.67500000000291, 5922488.099999999627471 ], [ 41379.67500000000291, 5922486.0 ], [ 41379.75, 5922486.0 ], [ 41379.75, 5922484.575000000186265 ], [ 41379.82499999999709, 5922484.575000000186265 ], [ 41379.82499999999709, 5922483.75 ], [ 41379.900000000001455, 5922483.75 ], [ 41379.900000000001455, 5922482.924999999813735 ], [ 41379.974999999998545, 5922482.924999999813735 ], [ 41379.974999999998545, 5922482.325000000186265 ], [ 41380.05000000000291, 5922482.325000000186265 ], [ 41380.05000000000291, 5922482.25 ], [ 41380.125, 5922482.25 ], [ 41380.125, 5922482.174999999813735 ], [ 41380.19999999999709, 5922482.174999999813735 ], [ 41380.19999999999709, 5922482.099999999627471 ], [ 41380.275000000001455, 5922482.099999999627471 ], [ 41380.275000000001455, 5922482.025000000372529 ], [ 41380.349999999998545, 5922482.025000000372529 ], [ 41380.349999999998545, 5922481.950000000186265 ], [ 41380.42500000000291, 5922481.950000000186265 ], [ 41380.42500000000291, 5922481.799999999813735 ], [ 41380.5, 5922481.799999999813735 ], [ 41380.5, 5922481.724999999627471 ], [ 41380.57499999999709, 5922481.724999999627471 ], [ 41380.57499999999709, 5922481.575000000186265 ], [ 41380.650000000001455, 5922481.575000000186265 ], [ 41380.650000000001455, 5922481.424999999813735 ], [ 41380.724999999998545, 5922481.424999999813735 ], [ 41380.724999999998545, 5922481.275000000372529 ], [ 41380.80000000000291, 5922481.275000000372529 ], [ 41380.80000000000291, 5922481.049999999813735 ], [ 41380.875, 5922481.049999999813735 ], [ 41380.875, 5922480.75 ], [ 41380.94999999999709, 5922480.75 ], [ 41380.94999999999709, 5922480.450000000186265 ], [ 41381.025000000001455, 5922480.450000000186265 ], [ 41381.025000000001455, 5922480.150000000372529 ], [ 41381.099999999998545, 5922480.150000000372529 ], [ 41381.099999999998545, 5922479.924999999813735 ], [ 41381.17500000000291, 5922479.924999999813735 ], [ 41381.17500000000291, 5922479.625 ], [ 41381.25, 5922479.625 ], [ 41381.25, 5922479.474999999627471 ], [ 41381.474999999998545, 5922479.474999999627471 ], [ 41381.474999999998545, 5922479.400000000372529 ], [ 41381.775000000001455, 5922479.400000000372529 ], [ 41381.775000000001455, 5922479.325000000186265 ], [ 41382.0, 5922479.325000000186265 ], [ 41382.0, 5922479.25 ], [ 41382.224999999998545, 5922479.25 ], [ 41382.224999999998545, 5922479.174999999813735 ], [ 41382.44999999999709, 5922479.174999999813735 ], [ 41382.44999999999709, 5922479.099999999627471 ], [ 41382.67500000000291, 5922479.099999999627471 ], [ 41382.67500000000291, 5922479.025000000372529 ], [ 41382.900000000001455, 5922479.025000000372529 ], [ 41382.900000000001455, 5922478.950000000186265 ], [ 41383.125, 5922478.950000000186265 ], [ 41383.125, 5922478.875 ], [ 41383.19999999999709, 5922478.875 ], [ 41383.19999999999709, 5922479.025000000372529 ], [ 41383.275000000001455, 5922479.025000000372529 ], [ 41383.275000000001455, 5922479.174999999813735 ], [ 41383.349999999998545, 5922479.174999999813735 ], [ 41383.349999999998545, 5922479.325000000186265 ], [ 41383.42500000000291, 5922479.325000000186265 ], [ 41383.42500000000291, 5922479.400000000372529 ], [ 41383.5, 5922479.400000000372529 ], [ 41383.5, 5922479.549999999813735 ], [ 41383.57499999999709, 5922479.549999999813735 ], [ 41383.57499999999709, 5922479.625 ], [ 41383.650000000001455, 5922479.625 ], [ 41383.650000000001455, 5922479.700000000186265 ], [ 41383.724999999998545, 5922479.700000000186265 ], [ 41383.724999999998545, 5922479.775000000372529 ], [ 41383.80000000000291, 5922479.775000000372529 ], [ 41383.80000000000291, 5922479.849999999627471 ], [ 41383.94999999999709, 5922479.849999999627471 ], [ 41383.94999999999709, 5922479.924999999813735 ], [ 41384.025000000001455, 5922479.924999999813735 ], [ 41384.025000000001455, 5922480.0 ], [ 41384.17500000000291, 5922480.0 ], [ 41384.17500000000291, 5922480.075000000186265 ], [ 41384.32499999999709, 5922480.075000000186265 ], [ 41384.32499999999709, 5922480.150000000372529 ], [ 41384.474999999998545, 5922480.150000000372529 ], [ 41384.474999999998545, 5922480.224999999627471 ], [ 41384.69999999999709, 5922480.224999999627471 ], [ 41384.69999999999709, 5922480.299999999813735 ], [ 41385.0, 5922480.299999999813735 ], [ 41385.0, 5922480.375 ], [ 41385.150000000001455, 5922480.375 ], [ 41385.150000000001455, 5922480.599999999627471 ], [ 41385.224999999998545, 5922480.599999999627471 ], [ 41385.224999999998545, 5922480.900000000372529 ], [ 41385.30000000000291, 5922480.900000000372529 ], [ 41385.30000000000291, 5922481.200000000186265 ], [ 41385.375, 5922481.200000000186265 ], [ 41385.375, 5922481.349999999627471 ], [ 41385.44999999999709, 5922481.349999999627471 ], [ 41385.44999999999709, 5922481.5 ], [ 41385.525000000001455, 5922481.5 ], [ 41385.525000000001455, 5922481.650000000372529 ], [ 41385.599999999998545, 5922481.650000000372529 ], [ 41385.599999999998545, 5922481.799999999813735 ], [ 41385.67500000000291, 5922481.799999999813735 ], [ 41385.67500000000291, 5922481.875 ], [ 41385.75, 5922481.875 ], [ 41385.75, 5922481.950000000186265 ], [ 41385.82499999999709, 5922481.950000000186265 ], [ 41385.82499999999709, 5922482.025000000372529 ], [ 41385.974999999998545, 5922482.025000000372529 ], [ 41385.974999999998545, 5922482.099999999627471 ], [ 41386.05000000000291, 5922482.099999999627471 ], [ 41386.05000000000291, 5922482.174999999813735 ], [ 41386.19999999999709, 5922482.174999999813735 ], [ 41386.19999999999709, 5922482.25 ], [ 41386.349999999998545, 5922482.25 ], [ 41386.349999999998545, 5922482.325000000186265 ], [ 41386.42500000000291, 5922482.325000000186265 ], [ 41386.42500000000291, 5922482.775000000372529 ], [ 41386.5, 5922482.775000000372529 ], [ 41386.5, 5922483.525000000372529 ], [ 41386.57499999999709, 5922483.525000000372529 ], [ 41386.57499999999709, 5922484.200000000186265 ], [ 41386.650000000001455, 5922484.200000000186265 ], [ 41386.650000000001455, 5922484.950000000186265 ], [ 41386.724999999998545, 5922484.950000000186265 ], [ 41386.724999999998545, 5922485.549999999813735 ], [ 41386.80000000000291, 5922485.549999999813735 ], [ 41386.80000000000291, 5922486.150000000372529 ], [ 41386.875, 5922486.150000000372529 ], [ 41386.875, 5922486.674999999813735 ], [ 41386.94999999999709, 5922486.674999999813735 ], [ 41386.94999999999709, 5922487.200000000186265 ], [ 41387.025000000001455, 5922487.200000000186265 ], [ 41387.025000000001455, 5922487.724999999627471 ], [ 41387.099999999998545, 5922487.724999999627471 ], [ 41387.099999999998545, 5922488.25 ], [ 41386.94999999999709, 5922488.25 ], [ 41386.94999999999709, 5922488.325000000186265 ], [ 41386.80000000000291, 5922488.325000000186265 ], [ 41386.80000000000291, 5922488.400000000372529 ], [ 41386.724999999998545, 5922488.400000000372529 ], [ 41386.724999999998545, 5922488.474999999627471 ], [ 41386.57499999999709, 5922488.474999999627471 ], [ 41386.57499999999709, 5922488.549999999813735 ], [ 41386.5, 5922488.549999999813735 ], [ 41386.5, 5922488.625 ], [ 41386.349999999998545, 5922488.625 ], [ 41386.349999999998545, 5922488.700000000186265 ], [ 41386.275000000001455, 5922488.700000000186265 ], [ 41386.275000000001455, 5922488.775000000372529 ], [ 41386.19999999999709, 5922488.775000000372529 ], [ 41386.19999999999709, 5922488.849999999627471 ], [ 41386.125, 5922488.849999999627471 ], [ 41386.125, 5922488.924999999813735 ], [ 41386.05000000000291, 5922488.924999999813735 ], [ 41386.05000000000291, 5922489.0 ], [ 41385.974999999998545, 5922489.0 ], [ 41385.974999999998545, 5922489.075000000186265 ], [ 41385.900000000001455, 5922489.075000000186265 ], [ 41385.900000000001455, 5922489.150000000372529 ], [ 41385.82499999999709, 5922489.150000000372529 ], [ 41385.82499999999709, 5922489.224999999627471 ], [ 41385.75, 5922489.224999999627471 ], [ 41385.75, 5922489.375 ], [ 41385.67500000000291, 5922489.375 ], [ 41385.67500000000291, 5922489.450000000186265 ], [ 41385.599999999998545, 5922489.450000000186265 ], [ 41385.599999999998545, 5922489.525000000372529 ], [ 41385.525000000001455, 5922489.525000000372529 ], [ 41385.525000000001455, 5922489.674999999813735 ], [ 41385.44999999999709, 5922489.674999999813735 ], [ 41385.44999999999709, 5922489.825000000186265 ], [ 41385.375, 5922489.825000000186265 ], [ 41385.375, 5922489.900000000372529 ], [ 41385.30000000000291, 5922489.900000000372529 ], [ 41385.30000000000291, 5922490.049999999813735 ], [ 41385.224999999998545, 5922490.049999999813735 ], [ 41385.224999999998545, 5922490.125 ], [ 41385.07499999999709, 5922490.125 ], [ 41385.07499999999709, 5922490.200000000186265 ], [ 41384.474999999998545, 5922490.200000000186265 ], [ 41384.474999999998545, 5922490.275000000372529 ], [ 41384.099999999998545, 5922490.275000000372529 ], [ 41384.099999999998545, 5922490.349999999627471 ], [ 41383.80000000000291, 5922490.349999999627471 ], [ 41383.80000000000291, 5922490.424999999813735 ], [ 41383.57499999999709, 5922490.424999999813735 ], [ 41383.57499999999709, 5922490.5 ], [ 41383.42500000000291, 5922490.5 ], [ 41383.42500000000291, 5922490.575000000186265 ], [ 41383.275000000001455, 5922490.575000000186265 ], [ 41383.275000000001455, 5922490.650000000372529 ], [ 41383.125, 5922490.650000000372529 ] ] ] } },
{ "type": "Feature", "properties": { "value": 1.0, "building_id": 1, "area": 14.045624999887814 }, "geometry": { "type": "Polygon", "coordinates": [ [ [ 41070.44999999999709, 5922366.0 ], [ 41070.44999999999709, 5922365.924999999813735 ], [ 41070.224999999998545, 5922365.924999999813735 ], [ 41070.224999999998545, 5922365.849999999627471 ], [ 41070.07499999999709, 5922365.849999999627471 ], [ 41070.07499999999709, 5922365.775000000372529 ], [ 41069.92500000000291, 5922365.775000000372529 ], [ 41069.92500000000291, 5922365.700000000186265 ], [ 41069.775000000001455, 5922365.700000000186265 ], [ 41069.775000000001455, 5922365.625 ], [ 41069.69999999999709, 5922365.625 ], [ 41069.69999999999709, 5922365.549999999813735 ], [ 41069.55000000000291, 5922365.549999999813735 ], [ 41069.55000000000291, 5922365.474999999627471 ], [ 41069.474999999998545, 5922365.474999999627471 ], [ 41069.474999999998545, 5922365.400000000372529 ], [ 41069.400000000001455, 5922365.400000000372529 ], [ 41069.400000000001455, 5922365.325000000186265 ], [ 41069.32499999999709, 5922365.325000000186265 ], [ 41069.32499999999709, 5922365.25 ], [ 41069.25, 5922365.25 ], [ 41069.25, 5922365.174999999813735 ], [ 41069.17500000000291, 5922365.174999999813735 ], [ 41069.17500000000291, 5922365.025000000372529 ], [ 41069.099999999998545, 5922365.025000000372529 ], [ 41069.099999999998545, 5922364.875 ], [ 41069.025000000001455, 5922364.875 ], [ 41069.025000000001455, 5922364.799999999813735 ], [ 41068.94999999999709, 5922364.799999999813735 ], [ 41068.94999999999709, 5922364.650000000372529 ], [ 41068.875, 5922364.650000000372529 ], [ 41068.875, 5922364.575000000186265 ], [ 41068.80000000000291, 5922364.575000000186265 ], [ 41068.80000000000291, 5922364.424999999813735 ], [ 41068.650000000001455, 5922364.424999999813735 ], [ 41068.650000000001455, 5922364.349999999627471 ], [ 41068.57499999999709, 5922364.349999999627471 ], [ 41068.57499999999709, 5922364.125 ], [ 41068.5, 5922364.125 ], [ 41068.5, 5922363.900000000372529 ], [ 41068.42500000000291, 5922363.900000000372529 ], [ 41068.42500000000291, 5922363.599999999627471 ], [ 41068.349999999998545, 5922363.599999999627471 ], [ 41068.349999999998545, 5922363.299999999813735 ], [ 41068.275000000001455, 5922363.299999999813735 ], [ 41068.275000000001455, 5922363.150000000372529 ], [ 41068.349999999998545, 5922363.150000000372529 ], [ 41068.349999999998545, 5922363.075000000186265 ], [ 41068.42500000000291, 5922363.075000000186265 ], [ 41068.42500000000291, 5922362.924999999813735 ], [ 41068.5, 5922362.924999999813735 ], [ 41068.5, 5922362.849999999627471 ], [ 41068.57499999999709, 5922362.849999999627471 ], [ 41068.57499999999709, 5922362.775000000372529 ], [ 41068.650000000001455, 5922362.775000000372529 ], [ 41068.650000000001455, 5922362.700000000186265 ], [ 41068.724999999998545, 5922362.700000000186265 ], [ 41068.724999999998545, 5922362.625 ], [ 41068.80000000000291, 5922362.625 ], [ 41068.80000000000291, 5922362.549999999813735 ], [ 41068.875, 5922362.549999999813735 ], [ 41068.875, 5922362.474999999627471 ], [ 41069.025000000001455, 5922362.474999999627471 ], [ 41069.025000000001455, 5922362.400000000372529 ], [ 41069.099999999998545, 5922362.400000000372529 ], [ 41069.099999999998545, 5922362.325000000186265 ], [ 41069.17500000000291, 5922362.325000000186265 ], [ 41069.17500000000291, 5922362.25 ], [ 41069.25, 5922362.25 ], [ 41069.25, 5922362.174999999813735 ], [ 41069.32499999999709, 5922362.174999999813735 ], [ 41069.32499999999709, 5922362.099999999627471 ], [ 41069.400000000001455, 5922362.099999999627471 ], [ 41069.400000000001455, 5922362.025000000372529 ], [ 41069.55000000000291, 5922362.025000000372529 ], [ 41069.55000000000291, 5922361.950000000186265 ], [ 41069.625, 5922361.950000000186265 ], [ 41069.625, 5922361.875 ], [ 41069.69999999999709, 5922361.875 ], [ 41069.69999999999709, 5922361.799999999813735 ], [ 41069.775000000001455, 5922361.799999999813735 ], [ 41069.775000000001455, 5922361.724999999627471 ], [ 41069.849999999998545, 5922361.724999999627471 ], [ 41069.849999999998545, 5922361.650000000372529 ], [ 41069.92500000000291, 5922361.650000000372529 ], [ 41069.92500000000291, 5922361.575000000186265 ], [ 41070.0, 5922361.575000000186265 ], [ 41070.0, 5922361.5 ], [ 41070.07499999999709, 5922361.5 ], [ 41070.07499999999709, 5922361.424999999813735 ], [ 41070.150000000001455, 5922361.424999999813735 ], [ 41070.150000000001455, 5922361.349999999627471 ], [ 41070.30000000000291, 5922361.349999999627471 ], [ 41070.30000000000291, 5922361.275000000372529 ], [ 41070.375, 5922361.275000000372529 ], [ 41070.375, 5922361.200000000186265 ], [ 41070.44999999999709, 5922361.200000000186265 ], [ 41070.44999999999709, 5922361.125 ], [ 41070.525000000001455, 5922361.125 ], [ 41070.525000000001455, 5922361.049999999813735 ], [ 41070.599999999998545, 5922361.049999999813735 ], [ 41070.599999999998545, 5922360.974999999627471 ], [ 41070.75, 5922360.974999999627471 ], [ 41070.75, 5922361.049999999813735 ], [ 41070.82499999999709, 5922361.049999999813735 ], [ 41070.82499999999709, 5922361.125 ], [ 41070.900000000001455, 5922361.125 ], [ 41070.900000000001455, 5922361.200000000186265 ], [ 41070.974999999998545, 5922361.200000000186265 ], [ 41070.974999999998545, 5922361.275000000372529 ], [ 41071.05000000000291, 5922361.275000000372529 ], [ 41071.05000000000291, 5922361.349999999627471 ], [ 41071.125, 5922361.349999999627471 ], [ 41071.125, 5922361.424999999813735 ], [ 41071.19999999999709, 5922361.424999999813735 ], [ 41071.19999999999709, 5922361.5 ], [ 41071.275000000001455, 5922361.5 ], [ 41071.275000000001455, 5922361.575000000186265 ], [ 41071.349999999998545, 5922361.575000000186265 ], [ 41071.349999999998545, 5922361.650000000372529 ], [ 41071.42500000000291, 5922361.650000000372529 ], [ 41071.42500000000291, 5922361.724999999627471 ], [ 41071.5, 5922361.724999999627471 ], [ 41071.5, 5922361.799999999813735 ], [ 41071.650000000001455, 5922361.799999999813735 ], [ 41071.650000000001455, 5922361.875 ], [ 41071.724999999998545, 5922361.875 ], [ 41071.724999999998545, 5922361.950000000186265 ], [ 41071.80000000000291, 5922361.950000000186265 ], [ 41071.80000000000291, 5922362.025000000372529 ], [ 41071.875, 5922362.025000000372529 ], [ 41071.875, 5922362.099999999627471 ], [ 41071.94999999999709, 5922362.099999999627471 ], [ 41071.94999999999709, 5922362.174999999813735 ], [ 41072.099999999998545, 5922362.174999999813735 ], [ 41072.099999999998545, 5922362.25 ], [ 41072.17500000000291, 5922362.25 ], [ 41072.17500000000291, 5922362.325000000186265 ], [ 41072.25, 5922362.325000000186265 ], [ 41072.25, 5922362.400000000372529 ], [ 41072.400000000001455, 5922362.400000000372529 ], [ 41072.400000000001455, 5922362.474999999627471 ], [ 41072.474999999998545, 5922362.474999999627471 ], [ 41072.474999999998545, 5922362.549999999813735 ], [ 41072.55000000000291, 5922362.549999999813735 ], [ 41072.55000000000291, 5922362.625 ], [ 41072.69999999999709, 5922362.625 ], [ 41072.69999999999709, 5922362.700000000186265 ], [ 41072.775000000001455, 5922362.700000000186265 ], [ 41072.775000000001455, 5922362.775000000372529 ], [ 41072.849999999998545, 5922362.775000000372529 ], [ 41072.849999999998545, 5922362.849999999627471 ], [ 41072.92500000000291, 5922362.849999999627471 ], [ 41072.92500000000291, 5922362.924999999813735 ], [ 41073.0, 5922362.924999999813735 ], [ 41073.0, 5922363.0 ], [ 41073.07499999999709, 5922363.0 ], [ 41073.07499999999709, 5922363.150000000372529 ], [ 41073.150000000001455, 5922363.150000000372529 ], [ 41073.150000000001455, 5922363.224999999627471 ], [ 41073.07499999999709, 5922363.224999999627471 ], [ 41073.07499999999709, 5922363.299999999813735 ], [ 41073.0, 5922363.299999999813735 ], [ 41073.0, 5922363.375 ], [ 41072.92500000000291, 5922363.375 ], [ 41072.92500000000291, 5922363.525000000372529 ], [ 41072.849999999998545, 5922363.525000000372529 ], [ 41072.849999999998545, 5922363.599999999627471 ], [ 41072.775000000001455, 5922363.599999999627471 ], [ 41072.775000000001455, 5922363.674999999813735 ], [ 41072.69999999999709, 5922363.674999999813735 ], [ 41072.69999999999709, 5922363.75 ], [ 41072.55000000000291, 5922363.75 ], [ 41072.55000000000291, 5922363.825000000186265 ], [ 41072.474999999998545, 5922363.825000000186265 ], [ 41072.474999999998545, 5922363.900000000372529 ], [ 41072.400000000001455, 5922363.900000000372529 ], [ 41072.400000000001455, 5922363.974999999627471 ], [ 41072.32499999999709, 5922363.974999999627471 ], [ 41072.32499999999709, 5922364.049999999813735 ], [ 41072.25, 5922364.049999999813735 ], [ 41072.25, 5922364.200000000186265 ], [ 41072.17500000000291, 5922364.200000000186265 ], [ 41072.17500000000291, 5922364.275000000372529 ], [ 41072.099999999998545, 5922364.275000000372529 ], [ 41072.099999999998545, 5922364.349999999627471 ], [ 41072.025000000001455, 5922364.349999999627471 ], [ 41072.025000000001455, 5922364.5 ], [ 41071.94999999999709, 5922364.5 ], [ 41071.94999999999709, 5922364.575000000186265 ], [ 41071.875, 5922364.575000000186265 ], [ 41071.875, 5922364.724999999627471 ], [ 41071.80000000000291, 5922364.724999999627471 ], [ 41071.80000000000291, 5922364.799999999813735 ], [ 41071.724999999998545, 5922364.799999999813735 ], [ 41071.724999999998545, 5922364.950000000186265 ], [ 41071.650000000001455, 5922364.950000000186265 ], [ 41071.650000000001455, 5922365.099999999627471 ], [ 41071.57499999999709, 5922365.099999999627471 ], [ 41071.57499999999709, 5922365.25 ], [ 41071.5, 5922365.25 ], [ 41071.5, 5922365.400000000372529 ], [ 41071.42500000000291, 5922365.400000000372529 ], [ 41071.42500000000291, 5922365.474999999627471 ], [ 41071.349999999998545, 5922365.474999999627471 ], [ 41071.349999999998545, 5922365.549999999813735 ], [ 41071.275000000001455, 5922365.549999999813735 ], [ 41071.275000000001455, 5922365.700000000186265 ], [ 41071.125, 5922365.700000000186265 ], [ 41071.125, 5922365.775000000372529 ], [ 41071.05000000000291, 5922365.775000000372529 ], [ 41071.05000000000291, 5922365.849999999627471 ], [ 41070.974999999998545, 5922365.849999999627471 ], [ 41070.974999999998545, 5922365.924999999813735 ], [ 41070.82499999999709, 5922365.924999999813735 ], [ 41070.82499999999709, 5922366.0 ], [ 41070.44999999999709, 5922366.0 ] ] ] } }
]
}
