{
"type": "FeatureCollection",
"name": "40683E595257N_buildings",
"crs": { "type": "name", "properties": { "name": "urn:ogc:def:crs:EPSG::3776" } },
"features": [
{ "type": "Feature", "properties": { "value": 1.0, "building_id": 0, "area": 80.251875000515909 }, "geometry": { "type": "Polygon", "coordinates": [ [ [ 41296.5, 5953053.525000000372529 ], [ 41296.5, 5953053.450000000186265 ], [ 41295.30000000000291, 5953053.450000000186265 ], [ 41295.30000000000291, 5953053.375 ], [ 41295.150000000001455, 5953053.375 ], [ 41295.150000000001455, 5953053.299999999813735 ], [ 41295.07499999999709, 5953053.299999999813735 ], [ 41295.07499999999709, 5953053.224999999627471 ], [ 41294.92500000000291, 5953053.224999999627471 ], [ 41294.92500000000291, 5953053.150000000372529 ], [ 41294.849999999998545, 5953053.150000000372529 ], [ 41294.849999999998545, 5953053.075000000186265 ], [ 41294.775000000001455, 5953053.075000000186265 ], [ 41294.775000000001455, 5953053.0 ], [ 41294.69999999999709, 5953053.0 ], [ 41294.69999999999709, 5953052.924999999813735 ], [ 41294.625, 5953052.924999999813735 ], [ 41294.625, 5953052.849999999627471 ], [ 41294.55000000000291, 5953052.849999999627471 ], [ 41294.55000000000291, 5953052.700000000186265 ], [ 41294.474999999998545, 5953052.700000000186265 ], [ 41294.474999999998545, 5953052.625 ], [ 41294.400000000001455, 5953052.625 ], [ 41294.400000000001455, 5953052.474999999627471 ], [ 41294.32499999999709, 5953052.474999999627471 ], [ 41294.32499999999709, 5953052.325000000186265 ], [ 41294.25, 5953052.325000000186265 ], [ 41294.25, 5953052.174999999813735 ], [ 41294.17500000000291, 5953052.174999999813735 ], [ 41294.17500000000291, 5953052.025000000372529 ], [ 41294.099999999998545, 5953052.025000000372529 ], [ 41294.099999999998545, 5953051.950000000186265 ], [ 41294.025000000001455, 5953051.950000000186265 ], [ 41294.025000000001455, 5953051.799999999813735 ], [ 41293.94999999999709, 5953051.799999999813735 ], [ 41293.94999999999709, 5953051.724999999627471 ], [ 41293.875, 5953051.724999999627471 ], [ 41293.875, 5953051.650000000372529 ], [ 41293.80000000000291, 5953051.650000000372529 ], [ 41293.80000000000291, 5953051.575000000186265 ], [ 41293.724999999998545, 5953051.575000000186265 ], [ 41293.724999999998545, 5953051.5 ], [ 41293.650000000001455, 5953051.5 ], [ 41293.650000000001455, 5953051.424999999813735 ], [ 41293.57499999999709, 5953051.424999999813735 ], [ 41293.57499999999709, 5953051.349999999627471 ], [ 41293.5, 5953051.349999999627471 ], [ 41293.5, 5953051.275000000372529 ], [ 41293.349999999998545, 5953051.275000000372529 ], [ 41293.349999999998545, 5953051.200000000186265 ], [ 41293.275000000001455, 5953051.200000000186265 ], [ 41293.275000000001455, 5953051.125 ], [ 41293.19999999999709, 5953051.125 ], [ 41293.19999999999709, 5953051.049999999813735 ], [ 41293.125, 5953051.049999999813735 ], [ 41293.125, 5953050.900000000372529 ], [ 41293.05000000000291, 5953050.900000000372529 ], [ 41293.05000000000291, 5953050.825000000186265 ], [ 41292.974999999998545, 5953050.825000000186265 ], [ 41292.974999999998545, 5953050.75 ], [ 41292.900000000001455, 5953050.75 ], [ 41292.900000000001455, 5953049.849999999627471 ], [ 41292.82499999999709, 5953049.849999999627471 ], [ 41292.82499999999709, 5953048.650000000372529 ], [ 41292.75, 5953048.650000000372529 ], [ 41292.75, 5953047.450000000186265 ], [ 41292.67500000000291, 5953047.450000000186265 ], [ 41292.67500000000291, 5953046.174999999813735 ], [ 41292.599999999998545, 5953046.174999999813735 ], [ 41292.599999999998545, 5953044.599999999627471 ], [ 41292.67500000000291, 5953044.599999999627471 ], [ 41292.67500000000291, 5953044.450000000186265 ], [ 41292.75, 5953044.450000000186265 ], [ 41292.75, 5953044.299999999813735 ], [ 41292.82499999999709, 5953044.299999999813735 ], [ 41292.82499999999709, 5953044.150000000372529 ], [ 41292.900000000001455, 5953044.150000000372529 ], [ 41292.900000000001455, 5953044.0 ], [ 41292.974999999998545, 5953044.0 ], [ 41292.974999999998545, 5953043.849999999627471 ], [ 41293.05000000000291, 5953043.849999999627471 ], [ 41293.05000000000291, 5953043.775000000372529 ], [ 41293.125, 5953043.775000000372529 ], [ 41293.125, 5953043.625 ], [ 41293.19999999999709, 5953043.625 ], [ 41293.19999999999709, 5953043.549999999813735 ], [ 41293.275000000001455, 5953043.549999999813735 ], [ 41293.275000000001455, 5953043.474999999627471 ], [ 41293.349999999998545, 5953043.474999999627471 ], [ 41293.349999999998545, 5953043.325000000186265 ], [ 41293.42500000000291, 5953043.325000000186265 ], [ 41293.42500000000291, 5953043.25 ], [ 41293.5, 5953043.25 ], [ 41293.5, 5953043.099999999627471 ], [ 41293.57499999999709, 5953043.099999999627471 ], [ 41293.57499999999709, 5953042.950000000186265 ], [ 41293.650000000001455, 5953042.950000000186265 ], [ 41293.650000000001455, 5953042.724999999627471 ], [ 41293.724999999998545, 5953042.724999999627471 ], [ 41293.724999999998545, 5953042.424999999813735 ], [ 41293.80000000000291, 5953042.424999999813735 ], [ 41293.80000000000291, 5953042.125 ], [ 41293.875, 5953042.125 ], [ 41293.875, 5953041.825000000186265 ], [ 41293.94999999999709, 5953041.825000000186265 ], [ 41293.94999999999709, 5953041.450000000186265 ], [ 41294.025000000001455, 5953041.450000000186265 ], [ 41294.025000000001455, 5953041.075000000186265 ], [ 41294.099999999998545, 5953041.075000000186265 ], [ 41294.099999999998545, 5953040.549999999813735 ], [ 41294.17500000000291, 5953040.549999999813735 ], [ 41294.17500000000291, 5953040.025000000372529 ], [ 41294.25, 5953040.025000000372529 ], [ 41294.25, 5953039.5 ], [ 41294.32499999999709, 5953039.5 ], [ 41294.32499999999709, 5953038.974999999627471 ], [ 41294.400000000001455, 5953038.974999999627471 ], [ 41294.400000000001455, 5953038.75 ], [ 41294.474999999998545, 5953038.75 ], [ 41294.474999999998545, 5953038.599999999627471 ], [ 41294.55000000000291, 5953038.599999999627471 ], [ 41294.55000000000291, 5953038.450000000186265 ], [ 41294.625, 5953038.450000000186265 ], [ 41294.625, 5953038.224999999627471 ], [ 41294.69999999999709, 5953038.224999999627471 ], [ 41294.69999999999709, 5953038.150000000372529 ], [ 41294.775000000001455, 5953038.150000000372529 ], [ 41294.775000000001455, 5953038.0 ], [ 41294.849999999998545, 5953038.0 ], [ 41294.849999999998545, 5953037.849999999627471 ], [ 41294.92500000000291, 5953037.849999999627471 ], [ 41294.92500000000291, 5953037.775000000372529 ], [ 41295.0, 5953037.775000000372529 ], [ 41295.0, 5953037.700000000186265 ], [ 41295.07499999999709, 5953037.700000000186265 ], [ 41295.07499999999709, 5953037.549999999813735 ], [ 41295.150000000001455, 5953037.549999999813735 ], [ 41295.150000000001455, 5953037.474999999627471 ], [ 41295.224999999998545, 5953037.474999999627471 ], [ 41295.224999999998545, 5953037.400000000372529 ], [ 41295.44999999999709, 5953037.400000000372529 ], [ 41295.44999999999709, 5953037.325000000186265 ], [ 41296.125, 5953037.325000000186265 ], [ 41296.125, 5953037.25 ], [ 41296.724999999998545, 5953037.25 ], [ 41296.724999999998545, 5953037.174999999813735 ], [ 41297.32499999999709, 5953037.174999999813735 ], [ 41297.32499999999709, 5953037.25 ], [ 41297.400000000001455, 5953037.25 ], [ 41297.400000000001455, 5953037.325000000186265 ], [ 41297.474999999998545, 5953037.325000000186265 ], [ 41297.474999999998545, 5953037.400000000372529 ], [ 41297.55000000000291, 5953037.400000000372529 ], [ 41297.55000000000291, 5953037.549999999813735 ], [ 41297.625, 5953037.549999999813735 ], [ 41297.625, 5953037.700000000186265 ], [ 41297.69999999999709, 5953037.700000000186265 ], [ 41297.69999999999709, 5953037.849999999627471 ], [ 41297.775000000001455, 5953037.849999999627471 ], [ 41297.775000000001455, 5953038.0 ], [ 41297.849999999998545, 5953038.0 ], [ 41297.849999999998545, 5953038.150000000372529 ], [ 41297.92500000000291, 5953038.150000000372529 ], [ 41297.92500000000291, 5953038.375 ], [ 41298.0, 5953038.375 ], [ 41298.0, 5953038.525000000372529 ], [ 41298.07499999999709, 5953038.525000000372529 ], [ 41298.07499999999709, 5953038.75 ], [ 41298.150000000001455, 5953038.75 ], [ 41298.150000000001455, 5953039.125 ], [ 41298.224999999998545, 5953039.125 ], [ 41298.224999999998545, 5953039.650000000372529 ], [ 41298.30000000000291, 5953039.650000000372529 ], [ 41298.30000000000291, 5953040.174999999813735 ], [ 41298.375, 5953040.174999999813735 ], [ 41298.375, 5953040.775000000372529 ], [ 41298.44999999999709, 5953040.775000000372529 ], [ 41298.44999999999709, 5953041.599999999627471 ], [ 41298.525000000001455, 5953041.599999999627471 ], [ 41298.525000000001455, 5953042.575000000186265 ], [ 41298.599999999998545, 5953042.575000000186265 ], [ 41298.599999999998545, 5953043.474999999627471 ], [ 41298.67500000000291, 5953043.474999999627471 ], [ 41298.67500000000291, 5953044.224999999627471 ], [ 41298.75, 5953044.224999999627471 ], [ 41298.75, 5953045.049999999813735 ], [ 41298.82499999999709, 5953045.049999999813735 ], [ 41298.82499999999709, 5953046.325000000186265 ], [ 41298.75, 5953046.325000000186265 ], [ 41298.75, 5953050.825000000186265 ], [ 41298.67500000000291, 5953050.825000000186265 ], [ 41298.67500000000291, 5953051.125 ], [ 41298.599999999998545, 5953051.125 ], [ 41298.599999999998545, 5953051.349999999627471 ], [ 41298.525000000001455, 5953051.349999999627471 ], [ 41298.525000000001455, 5953051.575000000186265 ], [ 41298.44999999999709, 5953051.575000000186265 ], [ 41298.44999999999709, 5953051.875 ], [ 41298.375, 5953051.875 ], [ 41298.375, 5953052.174999999813735 ], [ 41298.30000000000291, 5953052.174999999813735 ], [ 41298.30000000000291, 5953052.474999999627471 ], [ 41298.224999999998545, 5953052.474999999627471 ], [ 41298.224999999998545, 5953052.700000000186265 ], [ 41298.150000000001455, 5953052.700000000186265 ], [ 41298.150000000001455, 5953052.775000000372529 ], [ 41298.07499999999709, 5953052.775000000372529 ], [ 41298.07499999999709, 5953052.924999999813735 ], [ 41298.0, 5953052.924999999813735 ], [ 41298.0, 5953053.0 ], [ 41297.92500000000291, 5953053.0 ], [ 41297.92500000000291, 5953053.075000000186265 ], [ 41297.849999999998545, 5953053.075000000186265 ], [ 41297.849999999998545, 5953053.150000000372529 ], [ 41297.775000000001455, 5953053.150000000372529 ], [ 41297.775000000001455, 5953053.224999999627471 ], [ 41297.625, 5953053.224999999627471 ], [ 41297.625, 5953053.299999999813735 ], [ 41297.55000000000291, 5953053.299999999813735 ], [ 41297.55000000000291, 5953053.375 ], [ 41297.474999999998545, 5953053.375 ], [ 41297.474999999998545, 5953053.450000000186265 ], [ 41297.32499999999709, 5953053.450000000186265 ], [ 41297.32499999999709, 5953053.525000000372529 ], [ 41296.5, 5953053.525000000372529 ] ] ] } },
{ "type": "Feature", "properties": { "value": 1.0, "building_id": 1, "area": 107.30250000218069 }, "geometry": { "type": "Polygon", "coordinates": [ [ [ 40957.275000000001455, 5952723.525000000372529 ], [ 40957.275000000001455, 5952723.450000000186265 ], [ 40955.474999999998545, 5952723.450000000186265 ], [ 40955.474999999998545, 5952723.375 ], [ 40954.650000000001455, 5952723.375 ], [ 40954.650000000001455, 5952723.299999999813735 ], [ 40953.82499999999709, 5952723.299999999813735 ], [ 40953.82499999999709, 5952723.224999999627471 ], [ 40953.44999999999709, 5952723.224999999627471 ], [ 40953.44999999999709, 5952723.150000000372529 ], [ 40953.30000000000291, 5952723.150000000372529 ], [ 40953.30000000000291, 5952723.075000000186265 ], [ 40953.224999999998545, 5952723.075000000186265 ], [ 40953.224999999998545, 5952723.0 ], [ 40953.150000000001455, 5952723.0 ], [ 40953.150000000001455, 5952722.924999999813735 ], [ 40953.07499999999709, 5952722.924999999813735 ], [ 40953.07499999999709, 5952722.849999999627471 ], [ 40953.0, 5952722.849999999627471 ], [ 40953.0, 5952722.775000000372529 ], [ 40952.92500000000291, 5952722.775000000372529 ], [ 40952.92500000000291, 5952722.700000000186265 ], [ 40952.849999999998545, 5952722.700000000186265 ], [ 40952.849999999998545, 5952722.625 ], [ 40952.775000000001455, 5952722.625 ], [ 40952.775000000001455, 5952722.549999999813735 ], [ 40952.69999999999709, 5952722.549999999813735 ], [ 40952.69999999999709, 5952722.174999999813735 ], [ 40952.625, 5952722.174999999813735 ], [ 40952.625, 5952721.799999999813735 ], [ 40952.55000000000291, 5952721.799999999813735 ], [ 40952.55000000000291, 5952721.349999999627471 ], [ 40952.474999999998545, 5952721.349999999627471 ], [ 40952.474999999998545, 5952720.900000000372529 ], [ 40952.400000000001455, 5952720.900000000372529 ], [ 40952.400000000001455, 5952720.450000000186265 ], [ 40952.32499999999709, 5952720.450000000186265 ], [ 40952.32499999999709, 5952720.0 ], [ 40952.25, 5952720.0 ], [ 40952.25, 5952719.549999999813735 ], [ 40952.17500000000291, 5952719.549999999813735 ], [ 40952.17500000000291, 5952719.174999999813735 ], [ 40952.099999999998545, 5952719.174999999813735 ], [ 40952.099999999998545, 5952718.799999999813735 ], [ 40952.025000000001455, 5952718.799999999813735 ], [ 40952.025000000001455, 5952718.424999999813735 ], [ 40951.94999999999709, 5952718.424999999813735 ], [ 40951.94999999999709, 5952718.125 ], [ 40951.875, 5952718.125 ], [ 40951.875, 5952717.825000000186265 ], [ 40951.80000000000291, 5952717.825000000186265 ], [ 40951.80000000000291, 5952717.599999999627471 ], [ 40951.724999999998545, 5952717.599999999627471 ], [ 40951.724999999998545, 5952717.375 ], [ 40951.650000000001455, 5952717.375 ], [ 40951.650000000001455, 5952717.150000000372529 ], [ 40951.57499999999709, 5952717.150000000372529 ], [ 40951.57499999999709, 5952716.924999999813735 ], [ 40951.5, 5952716.924999999813735 ], [ 40951.5, 5952716.625 ], [ 40951.57499999999709, 5952716.625 ], [ 40951.57499999999709, 5952716.474999999627471 ], [ 40951.650000000001455, 5952716.474999999627471 ], [ 40951.650000000001455, 5952716.400000000372529 ], [ 40951.724999999998545, 5952716.400000000372529 ], [ 40951.724999999998545, 5952716.25 ], [ 40951.80000000000291, 5952716.25 ], [ 40951.80000000000291, 5952716.174999999813735 ], [ 40951.875, 5952716.174999999813735 ], [ 40951.875, 5952716.025000000372529 ], [ 40951.94999999999709, 5952716.025000000372529 ], [ 40951.94999999999709, 5952715.950000000186265 ], [ 40952.025000000001455, 5952715.950000000186265 ], [ 40952.025000000001455, 5952715.799999999813735 ], [ 40952.099999999998545, 5952715.799999999813735 ], [ 40952.099999999998545, 5952715.575000000186265 ], [ 40952.17500000000291, 5952715.575000000186265 ], [ 40952.17500000000291, 5952715.424999999813735 ], [ 40952.25, 5952715.424999999813735 ], [ 40952.25, 5952715.275000000372529 ], [ 40952.32499999999709, 5952715.275000000372529 ], [ 40952.32499999999709, 5952715.049999999813735 ], [ 40952.400000000001455, 5952715.049999999813735 ], [ 40952.400000000001455, 5952714.825000000186265 ], [ 40952.474999999998545, 5952714.825000000186265 ], [ 40952.474999999998545, 5952714.674999999813735 ], [ 40952.55000000000291, 5952714.674999999813735 ], [ 40952.55000000000291, 5952714.525000000372529 ], [ 40952.625, 5952714.525000000372529 ], [ 40952.625, 5952714.450000000186265 ], [ 40952.69999999999709, 5952714.450000000186265 ], [ 40952.69999999999709, 5952714.375 ], [ 40952.775000000001455, 5952714.375 ], [ 40952.775000000001455, 5952714.299999999813735 ], [ 40952.849999999998545, 5952714.299999999813735 ], [ 40952.849999999998545, 5952714.224999999627471 ], [ 40952.92500000000291, 5952714.224999999627471 ], [ 40952.92500000000291, 5952714.150000000372529 ], [ 40953.0, 5952714.150000000372529 ], [ 40953.0, 5952714.075000000186265 ], [ 40953.07499999999709, 5952714.075000000186265 ], [ 40953.07499999999709, 5952714.0 ], [ 40953.150000000001455, 5952714.0 ], [ 40953.150000000001455, 5952713.924999999813735 ], [ 40953.30000000000291, 5952713.924999999813735 ], [ 40953.30000000000291, 5952713.849999999627471 ], [ 40953.44999999999709, 5952713.849999999627471 ], [ 40953.44999999999709, 5952713.775000000372529 ], [ 40953.974999999998545, 5952713.775000000372529 ], [ 40953.974999999998545, 5952713.700000000186265 ], [ 40955.25, 5952713.700000000186265 ], [ 40955.25, 5952713.625 ], [ 40956.599999999998545, 5952713.625 ], [ 40956.599999999998545, 5952713.549999999813735 ], [ 40958.025000000001455, 5952713.549999999813735 ], [ 40958.025000000001455, 5952713.474999999627471 ], [ 40961.474999999998545, 5952713.474999999627471 ], [ 40961.474999999998545, 5952713.549999999813735 ], [ 40961.69999999999709, 5952713.549999999813735 ], [ 40961.69999999999709, 5952713.625 ], [ 40961.92500000000291, 5952713.625 ], [ 40961.92500000000291, 5952713.700000000186265 ], [ 40962.07499999999709, 5952713.700000000186265 ], [ 40962.07499999999709, 5952713.775000000372529 ], [ 40962.224999999998545, 5952713.775000000372529 ], [ 40962.224999999998545, 5952713.849999999627471 ], [ 40962.30000000000291, 5952713.849999999627471 ], [ 40962.30000000000291, 5952713.924999999813735 ], [ 40962.375, 5952713.924999999813735 ], [ 40962.375, 5952714.0 ], [ 40962.525000000001455, 5952714.0 ], [ 40962.525000000001455, 5952714.075000000186265 ], [ 40962.599999999998545, 5952714.075000000186265 ], [ 40962.599999999998545, 5952714.150000000372529 ], [ 40962.67500000000291, 5952714.150000000372529 ], [ 40962.67500000000291, 5952714.299999999813735 ], [ 40962.75, 5952714.299999999813735 ], [ 40962.75, 5952714.375 ], [ 40962.82499999999709, 5952714.375 ], [ 40962.82499999999709, 5952714.450000000186265 ], [ 40962.900000000001455, 5952714.450000000186265 ], [ 40962.900000000001455, 5952714.599999999627471 ], [ 40962.974999999998545, 5952714.599999999627471 ], [ 40962.974999999998545, 5952714.75 ], [ 40963.05000000000291, 5952714.75 ], [ 40963.05000000000291, 5952714.825000000186265 ], [ 40963.125, 5952714.825000000186265 ], [ 40963.125, 5952714.974999999627471 ], [ 40963.19999999999709, 5952714.974999999627471 ], [ 40963.19999999999709, 5952715.049999999813735 ], [ 40963.349999999998545, 5952715.049999999813735 ], [ 40963.349999999998545, 5952715.125 ], [ 40963.42500000000291, 5952715.125 ], [ 40963.42500000000291, 5952715.200000000186265 ], [ 40963.5, 5952715.200000000186265 ], [ 40963.5, 5952715.275000000372529 ], [ 40963.57499999999709, 5952715.275000000372529 ], [ 40963.57499999999709, 5952715.349999999627471 ], [ 40963.650000000001455, 5952715.349999999627471 ], [ 40963.650000000001455, 5952715.424999999813735 ], [ 40963.724999999998545, 5952715.424999999813735 ], [ 40963.724999999998545, 5952715.5 ], [ 40963.80000000000291, 5952715.5 ], [ 40963.80000000000291, 5952715.650000000372529 ], [ 40963.875, 5952715.650000000372529 ], [ 40963.875, 5952715.724999999627471 ], [ 40963.94999999999709, 5952715.724999999627471 ], [ 40963.94999999999709, 5952715.875 ], [ 40964.025000000001455, 5952715.875 ], [ 40964.025000000001455, 5952716.025000000372529 ], [ 40964.099999999998545, 5952716.025000000372529 ], [ 40964.099999999998545, 5952716.174999999813735 ], [ 40964.17500000000291, 5952716.174999999813735 ], [ 40964.17500000000291, 5952716.325000000186265 ], [ 40964.25, 5952716.325000000186265 ], [ 40964.25, 5952716.549999999813735 ], [ 40964.32499999999709, 5952716.549999999813735 ], [ 40964.32499999999709, 5952717.0 ], [ 40964.25, 5952717.0 ], [ 40964.25, 5952717.450000000186265 ], [ 40964.17500000000291, 5952717.450000000186265 ], [ 40964.17500000000291, 5952717.75 ], [ 40964.099999999998545, 5952717.75 ], [ 40964.099999999998545, 5952718.125 ], [ 40964.025000000001455, 5952718.125 ], [ 40964.025000000001455, 5952718.424999999813735 ], [ 40963.94999999999709, 5952718.424999999813735 ], [ 40963.94999999999709, 5952718.650000000372529 ], [ 40963.875, 5952718.650000000372529 ], [ 40963.875, 5952718.875 ], [ 40963.80000000000291, 5952718.875 ], [ 40963.80000000000291, 5952719.025000000372529 ], [ 40963.724999999998545, 5952719.025000000372529 ], [ 40963.724999999998545, 5952719.25 ], [ 40963.650000000001455, 5952719.25 ], [ 40963.650000000001455, 5952719.400000000372529 ], [ 40963.57499999999709, 5952719.400000000372529 ], [ 40963.57499999999709, 5952719.474999999627471 ], [ 40963.5, 5952719.474999999627471 ], [ 40963.5, 5952719.625 ], [ 40963.42500000000291, 5952719.625 ], [ 40963.42500000000291, 5952719.775000000372529 ], [ 40963.349999999998545, 5952719.775000000372529 ], [ 40963.349999999998545, 5952719.849999999627471 ], [ 40963.275000000001455, 5952719.849999999627471 ], [ 40963.275000000001455, 5952720.0 ], [ 40963.19999999999709, 5952720.0 ], [ 40963.19999999999709, 5952720.150000000372529 ], [ 40963.125, 5952720.150000000372529 ], [ 40963.125, 5952720.299999999813735 ], [ 40963.05000000000291, 5952720.299999999813735 ], [ 40963.05000000000291, 5952720.450000000186265 ], [ 40962.974999999998545, 5952720.450000000186265 ], [ 40962.974999999998545, 5952720.599999999627471 ], [ 40962.900000000001455, 5952720.599999999627471 ], [ 40962.900000000001455, 5952720.825000000186265 ], [ 40962.82499999999709, 5952720.825000000186265 ], [ 40962.82499999999709, 5952721.049999999813735 ], [ 40962.75, 5952721.049999999813735 ], [ 40962.75, 5952721.200000000186265 ], [ 40962.67500000000291, 5952721.200000000186265 ], [ 40962.67500000000291, 5952721.424999999813735 ], [ 40962.599999999998545, 5952721.424999999813735 ], [ 40962.599999999998545, 5952721.650000000372529 ], [ 40962.525000000001455, 5952721.650000000372529 ], [ 40962.525000000001455, 5952721.799999999813735 ], [ 40962.44999999999709, 5952721.799999999813735 ], [ 40962.44999999999709, 5952722.025000000372529 ], [ 40962.375, 5952722.025000000372529 ], [ 40962.375, 5952722.174999999813735 ], [ 40962.30000000000291, 5952722.174999999813735 ], [ 40962.30000000000291, 5952722.400000000372529 ], [ 40962.224999999998545, 5952722.400000000372529 ], [ 40962.224999999998545, 5952722.549999999813735 ], [ 40962.150000000001455, 5952722.549999999813735 ], [ 40962.150000000001455, 5952722.625 ], [ 40962.07499999999709, 5952722.625 ], [ 40962.07499999999709, 5952722.700000000186265 ], [ 40962.0, 5952722.700000000186265 ], [ 40962.0, 5952722.775000000372529 ], [ 40961.92500000000291, 5952722.775000000372529 ], [ 40961.92500000000291, 5952722.849999999627471 ], [ 40961.849999999998545, 5952722.849999999627471 ], [ 40961.849999999998545, 5952722.924999999813735 ], [ 40961.775000000001455, 5952722.924999999813735 ], [ 40961.775000000001455, 5952723.0 ], [ 40961.69999999999709, 5952723.0 ], [ 40961.69999999999709, 5952723.075000000186265 ], [ 40961.55000000000291, 5952723.075000000186265 ], [ 40961.55000000000291, 5952723.150000000372529 ], [ 40961.474999999998545, 5952723.150000000372529 ], [ 40961.474999999998545, 5952723.224999999627471 ], [ 40961.32499999999709, 5952723.224999999627471 ], [ 40961.32499999999709, 5952723.299999999813735 ], [ 40960.80000000000291, 5952723.299999999813735 ], [ 40960.80000000000291, 5952723.375 ], [ 40960.275000000001455, 5952723.375 ], [ 40960.275000000001455, 5952723.450000000186265 ], [ 40959.67500000000291, 5952723.450000000186265 ], [ 40959.67500000000291, 5952723.525000000372529 ], [ 40957.275000000001455, 5952723.525000000372529 ] ] ] } }
]
}
