{
"type": "FeatureCollection",
"name": "40683E593682N_buildings",
"crs": { "type": "name", "properties": { "name": "urn:ogc:def:crs:EPSG::3776" } },
"features": [
{ "type": "Feature", "properties": { "value": 1.0, "building_id": 0, "area": 7.0481250001105584 }, "geometry": { "type": "Polygon", "coordinates": [ [ [ 40969.05000000000291, 5937540.0 ], [ 40969.05000000000291, 5937539.924999999813735 ], [ 40968.974999999998545, 5937539.924999999813735 ], [ 40968.974999999998545, 5937539.849999999627471 ], [ 40968.900000000001455, 5937539.849999999627471 ], [ 40968.900000000001455, 5937539.775000000372529 ], [ 40968.82499999999709, 5937539.775000000372529 ], [ 40968.82499999999709, 5937539.700000000186265 ], [ 40968.75, 5937539.700000000186265 ], [ 40968.75, 5937539.625 ], [ 40968.67500000000291, 5937539.625 ], [ 40968.67500000000291, 5937539.474999999627471 ], [ 40968.599999999998545, 5937539.474999999627471 ], [ 40968.599999999998545, 5937539.400000000372529 ], [ 40968.525000000001455, 5937539.400000000372529 ], [ 40968.525000000001455, 5937539.325000000186265 ], [ 40968.44999999999709, 5937539.325000000186265 ], [ 40968.44999999999709, 5937539.25 ], [ 40968.375, 5937539.25 ], [ 40968.375, 5937539.099999999627471 ], [ 40968.30000000000291, 5937539.099999999627471 ], [ 40968.30000000000291, 5937539.025000000372529 ], [ 40968.224999999998545, 5937539.025000000372529 ], [ 40968.224999999998545, 5937538.950000000186265 ], [ 40968.150000000001455, 5937538.950000000186265 ], [ 40968.150000000001455, 5937538.424999999813735 ], [ 40968.07499999999709, 5937538.424999999813735 ], [ 40968.07499999999709, 5937537.900000000372529 ], [ 40968.0, 5937537.900000000372529 ], [ 40968.0, 5937537.450000000186265 ], [ 40967.92500000000291, 5937537.450000000186265 ], [ 40967.92500000000291, 5937537.075000000186265 ], [ 40967.849999999998545, 5937537.075000000186265 ], [ 40967.849999999998545, 5937537.0 ], [ 40967.92500000000291, 5937537.0 ], [ 40967.92500000000291, 5937536.924999999813735 ], [ 40968.0, 5937536.924999999813735 ], [ 40968.0, 5937536.849999999627471 ], [ 40968.07499999999709, 5937536.849999999627471 ], [ 40968.07499999999709, 5937536.775000000372529 ], [ 40968.224999999998545, 5937536.775000000372529 ], [ 40968.224999999998545, 5937536.700000000186265 ], [ 40968.30000000000291, 5937536.700000000186265 ], [ 40968.30000000000291, 5937536.625 ], [ 40968.375, 5937536.625 ], [ 40968.375, 5937536.549999999813735 ], [ 40968.525000000001455, 5937536.549999999813735 ], [ 40968.525000000001455, 5937536.474999999627471 ], [ 40968.599999999998545, 5937536.474999999627471 ], [ 40968.599999999998545, 5937536.400000000372529 ], [ 40968.67500000000291, 5937536.400000000372529 ], [ 40968.67500000000291, 5937536.325000000186265 ], [ 40968.75, 5937536.325000000186265 ], [ 40968.75, 5937536.25 ], [ 40968.900000000001455, 5937536.25 ], [ 40968.900000000001455, 5937536.174999999813735 ], [ 40968.974999999998545, 5937536.174999999813735 ], [ 40968.974999999998545, 5937536.099999999627471 ], [ 40969.05000000000291, 5937536.099999999627471 ], [ 40969.05000000000291, 5937536.025000000372529 ], [ 40969.275000000001455, 5937536.025000000372529 ], [ 40969.275000000001455, 5937536.099999999627471 ], [ 40969.42500000000291, 5937536.099999999627471 ], [ 40969.42500000000291, 5937536.174999999813735 ], [ 40969.57499999999709, 5937536.174999999813735 ], [ 40969.57499999999709, 5937536.25 ], [ 40969.724999999998545, 5937536.25 ], [ 40969.724999999998545, 5937536.325000000186265 ], [ 40969.875, 5937536.325000000186265 ], [ 40969.875, 5937536.400000000372529 ], [ 40970.025000000001455, 5937536.400000000372529 ], [ 40970.025000000001455, 5937536.474999999627471 ], [ 40970.17500000000291, 5937536.474999999627471 ], [ 40970.17500000000291, 5937536.549999999813735 ], [ 40970.25, 5937536.549999999813735 ], [ 40970.25, 5937536.625 ], [ 40970.400000000001455, 5937536.625 ], [ 40970.400000000001455, 5937536.700000000186265 ], [ 40970.474999999998545, 5937536.700000000186265 ], [ 40970.474999999998545, 5937536.775000000372529 ], [ 40970.625, 5937536.775000000372529 ], [ 40970.625, 5937536.849999999627471 ], [ 40970.69999999999709, 5937536.849999999627471 ], [ 40970.69999999999709, 5937537.150000000372529 ], [ 40970.625, 5937537.150000000372529 ], [ 40970.625, 5937537.375 ], [ 40970.55000000000291, 5937537.375 ], [ 40970.55000000000291, 5937537.525000000372529 ], [ 40970.474999999998545, 5937537.525000000372529 ], [ 40970.474999999998545, 5937537.75 ], [ 40970.400000000001455, 5937537.75 ], [ 40970.400000000001455, 5937537.900000000372529 ], [ 40970.32499999999709, 5937537.900000000372529 ], [ 40970.32499999999709, 5937538.125 ], [ 40970.25, 5937538.125 ], [ 40970.25, 5937538.275000000372529 ], [ 40970.17500000000291, 5937538.275000000372529 ], [ 40970.17500000000291, 5937538.5 ], [ 40970.099999999998545, 5937538.5 ], [ 40970.099999999998545, 5937538.650000000372529 ], [ 40970.025000000001455, 5937538.650000000372529 ], [ 40970.025000000001455, 5937538.799999999813735 ], [ 40969.94999999999709, 5937538.799999999813735 ], [ 40969.94999999999709, 5937538.950000000186265 ], [ 40969.875, 5937538.950000000186265 ], [ 40969.875, 5937539.099999999627471 ], [ 40969.80000000000291, 5937539.099999999627471 ], [ 40969.80000000000291, 5937539.25 ], [ 40969.724999999998545, 5937539.25 ], [ 40969.724999999998545, 5937539.325000000186265 ], [ 40969.650000000001455, 5937539.325000000186265 ], [ 40969.650000000001455, 5937539.474999999627471 ], [ 40969.57499999999709, 5937539.474999999627471 ], [ 40969.57499999999709, 5937539.549999999813735 ], [ 40969.5, 5937539.549999999813735 ], [ 40969.5, 5937539.625 ], [ 40969.42500000000291, 5937539.625 ], [ 40969.42500000000291, 5937539.775000000372529 ], [ 40969.349999999998545, 5937539.775000000372529 ], [ 40969.349999999998545, 5937539.849999999627471 ], [ 40969.275000000001455, 5937539.849999999627471 ], [ 40969.275000000001455, 5937539.924999999813735 ], [ 40969.19999999999709, 5937539.924999999813735 ], [ 40969.19999999999709, 5937540.0 ], [ 40969.05000000000291, 5937540.0 ] ] ] } },
{ "type": "Feature", "properties": { "value": 1.0, "building_id": 1, "area": 0.81562500007039473 }, "geometry": { "type": "Polygon", "coordinates": [ [ [ 40820.625, 5937481.200000000186265 ], [ 40820.625, 5937481.125 ], [ 40820.55000000000291, 5937481.125 ], [ 40820.55000000000291, 5937481.049999999813735 ], [ 40820.474999999998545, 5937481.049999999813735 ], [ 40820.474999999998545, 5937480.974999999627471 ], [ 40820.400000000001455, 5937480.974999999627471 ], [ 40820.400000000001455, 5937480.900000000372529 ], [ 40820.32499999999709, 5937480.900000000372529 ], [ 40820.32499999999709, 5937480.825000000186265 ], [ 40820.25, 5937480.825000000186265 ], [ 40820.25, 5937480.75 ], [ 40820.17500000000291, 5937480.75 ], [ 40820.17500000000291, 5937480.674999999813735 ], [ 40820.099999999998545, 5937480.674999999813735 ], [ 40820.099999999998545, 5937480.525000000372529 ], [ 40820.025000000001455, 5937480.525000000372529 ], [ 40820.025000000001455, 5937480.450000000186265 ], [ 40819.94999999999709, 5937480.450000000186265 ], [ 40819.94999999999709, 5937480.299999999813735 ], [ 40820.099999999998545, 5937480.299999999813735 ], [ 40820.099999999998545, 5937480.224999999627471 ], [ 40820.17500000000291, 5937480.224999999627471 ], [ 40820.17500000000291, 5937480.150000000372529 ], [ 40820.32499999999709, 5937480.150000000372529 ], [ 40820.32499999999709, 5937480.075000000186265 ], [ 40820.474999999998545, 5937480.075000000186265 ], [ 40820.474999999998545, 5937480.0 ], [ 40820.775000000001455, 5937480.0 ], [ 40820.775000000001455, 5937480.075000000186265 ], [ 40820.849999999998545, 5937480.075000000186265 ], [ 40820.849999999998545, 5937480.150000000372529 ], [ 40820.92500000000291, 5937480.150000000372529 ], [ 40820.92500000000291, 5937480.224999999627471 ], [ 40821.0, 5937480.224999999627471 ], [ 40821.0, 5937480.299999999813735 ], [ 40821.07499999999709, 5937480.299999999813735 ], [ 40821.07499999999709, 5937480.525000000372529 ], [ 40821.0, 5937480.525000000372529 ], [ 40821.0, 5937480.75 ], [ 40820.92500000000291, 5937480.75 ], [ 40820.92500000000291, 5937480.900000000372529 ], [ 40820.849999999998545, 5937480.900000000372529 ], [ 40820.849999999998545, 5937481.049999999813735 ], [ 40820.775000000001455, 5937481.049999999813735 ], [ 40820.775000000001455, 5937481.200000000186265 ], [ 40820.625, 5937481.200000000186265 ] ] ] } },
{ "type": "Feature", "properties": { "value": 1.0, "building_id": 2, "area": 32.034374999866309 }, "geometry": { "type": "Polygon", "coordinates": [ [ [ 40758.150000000001455, 5937418.575000000186265 ], [ 40758.150000000001455, 5937418.5 ], [ 40758.07499999999709, 5937418.5 ], [ 40758.07499999999709, 5937418.424999999813735 ], [ 40757.92500000000291, 5937418.424999999813735 ], [ 40757.92500000000291, 5937418.349999999627471 ], [ 40757.849999999998545, 5937418.349999999627471 ], [ 40757.849999999998545, 5937418.275000000372529 ], [ 40757.775000000001455, 5937418.275000000372529 ], [ 40757.775000000001455, 5937418.200000000186265 ], [ 40757.69999999999709, 5937418.200000000186265 ], [ 40757.69999999999709, 5937418.125 ], [ 40757.625, 5937418.125 ], [ 40757.625, 5937418.049999999813735 ], [ 40757.55000000000291, 5937418.049999999813735 ], [ 40757.55000000000291, 5937417.974999999627471 ], [ 40757.474999999998545, 5937417.974999999627471 ], [ 40757.474999999998545, 5937417.825000000186265 ], [ 40757.400000000001455, 5937417.825000000186265 ], [ 40757.400000000001455, 5937417.75 ], [ 40757.25, 5937417.75 ], [ 40757.25, 5937417.674999999813735 ], [ 40757.17500000000291, 5937417.674999999813735 ], [ 40757.17500000000291, 5937417.599999999627471 ], [ 40757.099999999998545, 5937417.599999999627471 ], [ 40757.099999999998545, 5937417.525000000372529 ], [ 40757.025000000001455, 5937417.525000000372529 ], [ 40757.025000000001455, 5937417.450000000186265 ], [ 40756.94999999999709, 5937417.450000000186265 ], [ 40756.94999999999709, 5937417.375 ], [ 40756.875, 5937417.375 ], [ 40756.875, 5937417.299999999813735 ], [ 40756.80000000000291, 5937417.299999999813735 ], [ 40756.80000000000291, 5937417.224999999627471 ], [ 40756.724999999998545, 5937417.224999999627471 ], [ 40756.724999999998545, 5937417.150000000372529 ], [ 40756.650000000001455, 5937417.150000000372529 ], [ 40756.650000000001455, 5937417.075000000186265 ], [ 40756.57499999999709, 5937417.075000000186265 ], [ 40756.57499999999709, 5937417.0 ], [ 40756.5, 5937417.0 ], [ 40756.5, 5937416.924999999813735 ], [ 40756.42500000000291, 5937416.924999999813735 ], [ 40756.42500000000291, 5937416.849999999627471 ], [ 40756.349999999998545, 5937416.849999999627471 ], [ 40756.349999999998545, 5937416.775000000372529 ], [ 40756.19999999999709, 5937416.775000000372529 ], [ 40756.19999999999709, 5937416.700000000186265 ], [ 40756.05000000000291, 5937416.700000000186265 ], [ 40756.05000000000291, 5937416.625 ], [ 40755.974999999998545, 5937416.625 ], [ 40755.974999999998545, 5937411.974999999627471 ], [ 40756.05000000000291, 5937411.974999999627471 ], [ 40756.05000000000291, 5937411.900000000372529 ], [ 40756.125, 5937411.900000000372529 ], [ 40756.125, 5937411.75 ], [ 40756.19999999999709, 5937411.75 ], [ 40756.19999999999709, 5937411.674999999813735 ], [ 40756.349999999998545, 5937411.674999999813735 ], [ 40756.349999999998545, 5937411.599999999627471 ], [ 40756.42500000000291, 5937411.599999999627471 ], [ 40756.42500000000291, 5937411.525000000372529 ], [ 40756.5, 5937411.525000000372529 ], [ 40756.5, 5937411.450000000186265 ], [ 40756.650000000001455, 5937411.450000000186265 ], [ 40756.650000000001455, 5937411.375 ], [ 40756.724999999998545, 5937411.375 ], [ 40756.724999999998545, 5937411.299999999813735 ], [ 40756.875, 5937411.299999999813735 ], [ 40756.875, 5937411.224999999627471 ], [ 40756.94999999999709, 5937411.224999999627471 ], [ 40756.94999999999709, 5937411.150000000372529 ], [ 40757.099999999998545, 5937411.150000000372529 ], [ 40757.099999999998545, 5937411.075000000186265 ], [ 40757.25, 5937411.075000000186265 ], [ 40757.25, 5937411.0 ], [ 40757.32499999999709, 5937411.0 ], [ 40757.32499999999709, 5937410.924999999813735 ], [ 40757.474999999998545, 5937410.924999999813735 ], [ 40757.474999999998545, 5937410.849999999627471 ], [ 40757.625, 5937410.849999999627471 ], [ 40757.625, 5937410.775000000372529 ], [ 40757.775000000001455, 5937410.775000000372529 ], [ 40757.775000000001455, 5937410.700000000186265 ], [ 40757.92500000000291, 5937410.700000000186265 ], [ 40757.92500000000291, 5937410.625 ], [ 40758.07499999999709, 5937410.625 ], [ 40758.07499999999709, 5937410.549999999813735 ], [ 40758.150000000001455, 5937410.549999999813735 ], [ 40758.150000000001455, 5937410.474999999627471 ], [ 40758.224999999998545, 5937410.474999999627471 ], [ 40758.224999999998545, 5937410.549999999813735 ], [ 40758.599999999998545, 5937410.549999999813735 ], [ 40758.599999999998545, 5937410.625 ], [ 40758.974999999998545, 5937410.625 ], [ 40758.974999999998545, 5937410.700000000186265 ], [ 40759.349999999998545, 5937410.700000000186265 ], [ 40759.349999999998545, 5937410.775000000372529 ], [ 40759.724999999998545, 5937410.775000000372529 ], [ 40759.724999999998545, 5937410.849999999627471 ], [ 40760.099999999998545, 5937410.849999999627471 ], [ 40760.099999999998545, 5937410.924999999813735 ], [ 40760.400000000001455, 5937410.924999999813735 ], [ 40760.400000000001455, 5937411.0 ], [ 40760.625, 5937411.0 ], [ 40760.625, 5937411.075000000186265 ], [ 40760.849999999998545, 5937411.075000000186265 ], [ 40760.849999999998545, 5937411.150000000372529 ], [ 40761.07499999999709, 5937411.150000000372529 ], [ 40761.07499999999709, 5937411.224999999627471 ], [ 40761.224999999998545, 5937411.224999999627471 ], [ 40761.224999999998545, 5937411.299999999813735 ], [ 40761.375, 5937411.299999999813735 ], [ 40761.375, 5937411.375 ], [ 40761.525000000001455, 5937411.375 ], [ 40761.525000000001455, 5937411.450000000186265 ], [ 40761.67500000000291, 5937411.450000000186265 ], [ 40761.67500000000291, 5937411.525000000372529 ], [ 40761.82499999999709, 5937411.525000000372529 ], [ 40761.82499999999709, 5937411.599999999627471 ], [ 40761.900000000001455, 5937411.599999999627471 ], [ 40761.900000000001455, 5937411.674999999813735 ], [ 40762.05000000000291, 5937411.674999999813735 ], [ 40762.05000000000291, 5937411.75 ], [ 40762.125, 5937411.75 ], [ 40762.125, 5937411.825000000186265 ], [ 40762.275000000001455, 5937411.825000000186265 ], [ 40762.275000000001455, 5937411.900000000372529 ], [ 40762.349999999998545, 5937411.900000000372529 ], [ 40762.349999999998545, 5937411.974999999627471 ], [ 40762.5, 5937411.974999999627471 ], [ 40762.5, 5937412.049999999813735 ], [ 40762.42500000000291, 5937412.049999999813735 ], [ 40762.42500000000291, 5937412.125 ], [ 40762.275000000001455, 5937412.125 ], [ 40762.275000000001455, 5937412.200000000186265 ], [ 40762.19999999999709, 5937412.200000000186265 ], [ 40762.19999999999709, 5937412.275000000372529 ], [ 40762.125, 5937412.275000000372529 ], [ 40762.125, 5937412.349999999627471 ], [ 40762.05000000000291, 5937412.349999999627471 ], [ 40762.05000000000291, 5937412.424999999813735 ], [ 40761.974999999998545, 5937412.424999999813735 ], [ 40761.974999999998545, 5937412.5 ], [ 40761.900000000001455, 5937412.5 ], [ 40761.900000000001455, 5937412.575000000186265 ], [ 40761.82499999999709, 5937412.575000000186265 ], [ 40761.82499999999709, 5937412.724999999627471 ], [ 40761.75, 5937412.724999999627471 ], [ 40761.75, 5937412.799999999813735 ], [ 40761.67500000000291, 5937412.799999999813735 ], [ 40761.67500000000291, 5937412.875 ], [ 40761.599999999998545, 5937412.875 ], [ 40761.599999999998545, 5937412.950000000186265 ], [ 40761.525000000001455, 5937412.950000000186265 ], [ 40761.525000000001455, 5937413.099999999627471 ], [ 40761.44999999999709, 5937413.099999999627471 ], [ 40761.44999999999709, 5937413.174999999813735 ], [ 40761.375, 5937413.174999999813735 ], [ 40761.375, 5937413.25 ], [ 40761.30000000000291, 5937413.25 ], [ 40761.30000000000291, 5937413.325000000186265 ], [ 40761.224999999998545, 5937413.325000000186265 ], [ 40761.224999999998545, 5937413.474999999627471 ], [ 40761.150000000001455, 5937413.474999999627471 ], [ 40761.150000000001455, 5937413.549999999813735 ], [ 40761.07499999999709, 5937413.549999999813735 ], [ 40761.07499999999709, 5937413.700000000186265 ], [ 40761.0, 5937413.700000000186265 ], [ 40761.0, 5937413.775000000372529 ], [ 40760.92500000000291, 5937413.775000000372529 ], [ 40760.92500000000291, 5937413.849999999627471 ], [ 40760.849999999998545, 5937413.849999999627471 ], [ 40760.849999999998545, 5937414.0 ], [ 40760.775000000001455, 5937414.0 ], [ 40760.775000000001455, 5937414.150000000372529 ], [ 40760.69999999999709, 5937414.150000000372529 ], [ 40760.69999999999709, 5937414.299999999813735 ], [ 40760.625, 5937414.299999999813735 ], [ 40760.625, 5937414.375 ], [ 40760.55000000000291, 5937414.375 ], [ 40760.55000000000291, 5937414.525000000372529 ], [ 40760.474999999998545, 5937414.525000000372529 ], [ 40760.474999999998545, 5937414.599999999627471 ], [ 40760.400000000001455, 5937414.599999999627471 ], [ 40760.400000000001455, 5937414.75 ], [ 40760.32499999999709, 5937414.75 ], [ 40760.32499999999709, 5937414.825000000186265 ], [ 40760.25, 5937414.825000000186265 ], [ 40760.25, 5937414.974999999627471 ], [ 40760.17500000000291, 5937414.974999999627471 ], [ 40760.17500000000291, 5937415.049999999813735 ], [ 40760.099999999998545, 5937415.049999999813735 ], [ 40760.099999999998545, 5937415.200000000186265 ], [ 40760.025000000001455, 5937415.200000000186265 ], [ 40760.025000000001455, 5937415.349999999627471 ], [ 40759.94999999999709, 5937415.349999999627471 ], [ 40759.94999999999709, 5937415.575000000186265 ], [ 40759.875, 5937415.575000000186265 ], [ 40759.875, 5937415.724999999627471 ], [ 40759.80000000000291, 5937415.724999999627471 ], [ 40759.80000000000291, 5937415.950000000186265 ], [ 40759.724999999998545, 5937415.950000000186265 ], [ 40759.724999999998545, 5937416.25 ], [ 40759.650000000001455, 5937416.25 ], [ 40759.650000000001455, 5937416.549999999813735 ], [ 40759.57499999999709, 5937416.549999999813735 ], [ 40759.57499999999709, 5937416.924999999813735 ], [ 40759.5, 5937416.924999999813735 ], [ 40759.5, 5937417.224999999627471 ], [ 40759.42500000000291, 5937417.224999999627471 ], [ 40759.42500000000291, 5937417.599999999627471 ], [ 40759.349999999998545, 5937417.599999999627471 ], [ 40759.349999999998545, 5937417.825000000186265 ], [ 40759.275000000001455, 5937417.825000000186265 ], [ 40759.275000000001455, 5937417.900000000372529 ], [ 40759.19999999999709, 5937417.900000000372529 ], [ 40759.19999999999709, 5937418.049999999813735 ], [ 40759.125, 5937418.049999999813735 ], [ 40759.125, 5937418.125 ], [ 40759.05000000000291, 5937418.125 ], [ 40759.05000000000291, 5937418.200000000186265 ], [ 40758.974999999998545, 5937418.200000000186265 ], [ 40758.974999999998545, 5937418.275000000372529 ], [ 40758.82499999999709, 5937418.275000000372529 ], [ 40758.82499999999709, 5937418.349999999627471 ], [ 40758.75, 5937418.349999999627471 ], [ 40758.75, 5937418.424999999813735 ], [ 40758.525000000001455, 5937418.424999999813735 ], [ 40758.525000000001455, 5937418.5 ], [ 40758.30000000000291, 5937418.5 ], [ 40758.30000000000291, 5937418.575000000186265 ], [ 40758.150000000001455, 5937418.575000000186265 ] ] ] } },
{ "type": "Feature", "properties": { "value": 1.0, "building_id": 3, "area": 83.328749999850899 }, "geometry": { "type": "Polygon", "coordinates": [ [ [ 40773.75, 5937128.174999999813735 ], [ 40773.75, 5937128.099999999627471 ], [ 40773.599999999998545, 5937128.099999999627471 ], [ 40773.599999999998545, 5937128.025000000372529 ], [ 40773.375, 5937128.025000000372529 ], [ 40773.375, 5937127.950000000186265 ], [ 40773.30000000000291, 5937127.950000000186265 ], [ 40773.30000000000291, 5937127.875 ], [ 40773.150000000001455, 5937127.875 ], [ 40773.150000000001455, 5937127.799999999813735 ], [ 40773.0, 5937127.799999999813735 ], [ 40773.0, 5937127.724999999627471 ], [ 40772.92500000000291, 5937127.724999999627471 ], [ 40772.92500000000291, 5937127.650000000372529 ], [ 40772.775000000001455, 5937127.650000000372529 ], [ 40772.775000000001455, 5937127.575000000186265 ], [ 40772.69999999999709, 5937127.575000000186265 ], [ 40772.69999999999709, 5937127.5 ], [ 40772.625, 5937127.5 ], [ 40772.625, 5937127.424999999813735 ], [ 40772.55000000000291, 5937127.424999999813735 ], [ 40772.55000000000291, 5937127.349999999627471 ], [ 40772.474999999998545, 5937127.349999999627471 ], [ 40772.474999999998545, 5937127.275000000372529 ], [ 40772.400000000001455, 5937127.275000000372529 ], [ 40772.400000000001455, 5937127.200000000186265 ], [ 40772.32499999999709, 5937127.200000000186265 ], [ 40772.32499999999709, 5937127.125 ], [ 40772.25, 5937127.125 ], [ 40772.25, 5937126.974999999627471 ], [ 40772.17500000000291, 5937126.974999999627471 ], [ 40772.17500000000291, 5937126.900000000372529 ], [ 40772.099999999998545, 5937126.900000000372529 ], [ 40772.099999999998545, 5937126.825000000186265 ], [ 40772.025000000001455, 5937126.825000000186265 ], [ 40772.025000000001455, 5937126.75 ], [ 40771.94999999999709, 5937126.75 ], [ 40771.94999999999709, 5937126.674999999813735 ], [ 40771.875, 5937126.674999999813735 ], [ 40771.875, 5937126.599999999627471 ], [ 40771.724999999998545, 5937126.599999999627471 ], [ 40771.724999999998545, 5937126.525000000372529 ], [ 40771.650000000001455, 5937126.525000000372529 ], [ 40771.650000000001455, 5937126.450000000186265 ], [ 40771.5, 5937126.450000000186265 ], [ 40771.5, 5937126.375 ], [ 40771.42500000000291, 5937126.375 ], [ 40771.42500000000291, 5937126.299999999813735 ], [ 40771.349999999998545, 5937126.299999999813735 ], [ 40771.349999999998545, 5937126.224999999627471 ], [ 40771.275000000001455, 5937126.224999999627471 ], [ 40771.275000000001455, 5937126.150000000372529 ], [ 40771.19999999999709, 5937126.150000000372529 ], [ 40771.19999999999709, 5937126.075000000186265 ], [ 40771.125, 5937126.075000000186265 ], [ 40771.125, 5937126.0 ], [ 40771.05000000000291, 5937126.0 ], [ 40771.05000000000291, 5937125.924999999813735 ], [ 40770.974999999998545, 5937125.924999999813735 ], [ 40770.974999999998545, 5937125.849999999627471 ], [ 40770.900000000001455, 5937125.849999999627471 ], [ 40770.900000000001455, 5937125.775000000372529 ], [ 40770.82499999999709, 5937125.775000000372529 ], [ 40770.82499999999709, 5937125.700000000186265 ], [ 40770.75, 5937125.700000000186265 ], [ 40770.75, 5937125.549999999813735 ], [ 40770.67500000000291, 5937125.549999999813735 ], [ 40770.67500000000291, 5937125.400000000372529 ], [ 40770.599999999998545, 5937125.400000000372529 ], [ 40770.599999999998545, 5937125.325000000186265 ], [ 40770.525000000001455, 5937125.325000000186265 ], [ 40770.525000000001455, 5937125.174999999813735 ], [ 40770.44999999999709, 5937125.174999999813735 ], [ 40770.44999999999709, 5937124.950000000186265 ], [ 40770.375, 5937124.950000000186265 ], [ 40770.375, 5937124.650000000372529 ], [ 40770.30000000000291, 5937124.650000000372529 ], [ 40770.30000000000291, 5937124.125 ], [ 40770.224999999998545, 5937124.125 ], [ 40770.224999999998545, 5937123.674999999813735 ], [ 40770.150000000001455, 5937123.674999999813735 ], [ 40770.150000000001455, 5937123.224999999627471 ], [ 40770.07499999999709, 5937123.224999999627471 ], [ 40770.07499999999709, 5937120.525000000372529 ], [ 40770.150000000001455, 5937120.525000000372529 ], [ 40770.150000000001455, 5937119.924999999813735 ], [ 40770.224999999998545, 5937119.924999999813735 ], [ 40770.224999999998545, 5937119.325000000186265 ], [ 40770.30000000000291, 5937119.325000000186265 ], [ 40770.30000000000291, 5937118.950000000186265 ], [ 40770.375, 5937118.950000000186265 ], [ 40770.375, 5937118.724999999627471 ], [ 40770.44999999999709, 5937118.724999999627471 ], [ 40770.44999999999709, 5937118.575000000186265 ], [ 40770.525000000001455, 5937118.575000000186265 ], [ 40770.525000000001455, 5937118.5 ], [ 40770.599999999998545, 5937118.5 ], [ 40770.599999999998545, 5937118.349999999627471 ], [ 40770.67500000000291, 5937118.349999999627471 ], [ 40770.67500000000291, 5937118.275000000372529 ], [ 40770.75, 5937118.275000000372529 ], [ 40770.75, 5937118.125 ], [ 40770.82499999999709, 5937118.125 ], [ 40770.82499999999709, 5937118.049999999813735 ], [ 40770.900000000001455, 5937118.049999999813735 ], [ 40770.900000000001455, 5937117.974999999627471 ], [ 40770.974999999998545, 5937117.974999999627471 ], [ 40770.974999999998545, 5937117.900000000372529 ], [ 40771.05000000000291, 5937117.900000000372529 ], [ 40771.05000000000291, 5937117.825000000186265 ], [ 40771.80000000000291, 5937117.825000000186265 ], [ 40771.80000000000291, 5937117.75 ], [ 40771.875, 5937117.75 ], [ 40771.875, 5937117.825000000186265 ], [ 40772.775000000001455, 5937117.825000000186265 ], [ 40772.775000000001455, 5937117.900000000372529 ], [ 40773.525000000001455, 5937117.900000000372529 ], [ 40773.525000000001455, 5937117.974999999627471 ], [ 40775.55000000000291, 5937117.974999999627471 ], [ 40775.55000000000291, 5937118.049999999813735 ], [ 40775.69999999999709, 5937118.049999999813735 ], [ 40775.69999999999709, 5937118.125 ], [ 40775.849999999998545, 5937118.125 ], [ 40775.849999999998545, 5937118.200000000186265 ], [ 40775.92500000000291, 5937118.200000000186265 ], [ 40775.92500000000291, 5937118.275000000372529 ], [ 40776.07499999999709, 5937118.275000000372529 ], [ 40776.07499999999709, 5937118.349999999627471 ], [ 40776.150000000001455, 5937118.349999999627471 ], [ 40776.150000000001455, 5937118.424999999813735 ], [ 40776.224999999998545, 5937118.424999999813735 ], [ 40776.224999999998545, 5937118.5 ], [ 40776.30000000000291, 5937118.5 ], [ 40776.30000000000291, 5937118.575000000186265 ], [ 40776.44999999999709, 5937118.575000000186265 ], [ 40776.44999999999709, 5937118.650000000372529 ], [ 40776.525000000001455, 5937118.650000000372529 ], [ 40776.525000000001455, 5937118.799999999813735 ], [ 40776.599999999998545, 5937118.799999999813735 ], [ 40776.599999999998545, 5937118.875 ], [ 40776.67500000000291, 5937118.875 ], [ 40776.67500000000291, 5937118.950000000186265 ], [ 40776.75, 5937118.950000000186265 ], [ 40776.75, 5937119.025000000372529 ], [ 40776.82499999999709, 5937119.025000000372529 ], [ 40776.82499999999709, 5937119.099999999627471 ], [ 40776.900000000001455, 5937119.099999999627471 ], [ 40776.900000000001455, 5937119.174999999813735 ], [ 40776.974999999998545, 5937119.174999999813735 ], [ 40776.974999999998545, 5937119.25 ], [ 40777.05000000000291, 5937119.25 ], [ 40777.05000000000291, 5937119.325000000186265 ], [ 40777.125, 5937119.325000000186265 ], [ 40777.125, 5937119.400000000372529 ], [ 40777.19999999999709, 5937119.400000000372529 ], [ 40777.19999999999709, 5937119.474999999627471 ], [ 40777.349999999998545, 5937119.474999999627471 ], [ 40777.349999999998545, 5937119.549999999813735 ], [ 40777.42500000000291, 5937119.549999999813735 ], [ 40777.42500000000291, 5937119.625 ], [ 40777.57499999999709, 5937119.625 ], [ 40777.57499999999709, 5937119.700000000186265 ], [ 40777.724999999998545, 5937119.700000000186265 ], [ 40777.724999999998545, 5937119.775000000372529 ], [ 40777.875, 5937119.775000000372529 ], [ 40777.875, 5937119.849999999627471 ], [ 40777.94999999999709, 5937119.849999999627471 ], [ 40777.94999999999709, 5937119.924999999813735 ], [ 40778.099999999998545, 5937119.924999999813735 ], [ 40778.099999999998545, 5937120.0 ], [ 40778.17500000000291, 5937120.0 ], [ 40778.17500000000291, 5937120.075000000186265 ], [ 40778.32499999999709, 5937120.075000000186265 ], [ 40778.32499999999709, 5937120.150000000372529 ], [ 40778.400000000001455, 5937120.150000000372529 ], [ 40778.400000000001455, 5937120.224999999627471 ], [ 40778.474999999998545, 5937120.224999999627471 ], [ 40778.474999999998545, 5937120.299999999813735 ], [ 40778.55000000000291, 5937120.299999999813735 ], [ 40778.55000000000291, 5937120.375 ], [ 40778.625, 5937120.375 ], [ 40778.625, 5937120.450000000186265 ], [ 40778.69999999999709, 5937120.450000000186265 ], [ 40778.69999999999709, 5937120.525000000372529 ], [ 40778.775000000001455, 5937120.525000000372529 ], [ 40778.775000000001455, 5937120.599999999627471 ], [ 40778.849999999998545, 5937120.599999999627471 ], [ 40778.849999999998545, 5937120.674999999813735 ], [ 40778.92500000000291, 5937120.674999999813735 ], [ 40778.92500000000291, 5937120.75 ], [ 40779.0, 5937120.75 ], [ 40779.0, 5937121.049999999813735 ], [ 40779.07499999999709, 5937121.049999999813735 ], [ 40779.07499999999709, 5937121.200000000186265 ], [ 40779.150000000001455, 5937121.200000000186265 ], [ 40779.150000000001455, 5937121.424999999813735 ], [ 40779.224999999998545, 5937121.424999999813735 ], [ 40779.224999999998545, 5937121.575000000186265 ], [ 40779.30000000000291, 5937121.575000000186265 ], [ 40779.30000000000291, 5937121.724999999627471 ], [ 40779.375, 5937121.724999999627471 ], [ 40779.375, 5937121.799999999813735 ], [ 40779.44999999999709, 5937121.799999999813735 ], [ 40779.44999999999709, 5937121.950000000186265 ], [ 40779.525000000001455, 5937121.950000000186265 ], [ 40779.525000000001455, 5937122.025000000372529 ], [ 40779.599999999998545, 5937122.025000000372529 ], [ 40779.599999999998545, 5937122.174999999813735 ], [ 40779.67500000000291, 5937122.174999999813735 ], [ 40779.67500000000291, 5937122.25 ], [ 40779.75, 5937122.25 ], [ 40779.75, 5937122.325000000186265 ], [ 40779.82499999999709, 5937122.325000000186265 ], [ 40779.82499999999709, 5937122.400000000372529 ], [ 40779.900000000001455, 5937122.400000000372529 ], [ 40779.900000000001455, 5937122.474999999627471 ], [ 40779.974999999998545, 5937122.474999999627471 ], [ 40779.974999999998545, 5937122.549999999813735 ], [ 40780.05000000000291, 5937122.549999999813735 ], [ 40780.05000000000291, 5937122.700000000186265 ], [ 40780.125, 5937122.700000000186265 ], [ 40780.125, 5937122.849999999627471 ], [ 40780.19999999999709, 5937122.849999999627471 ], [ 40780.19999999999709, 5937123.450000000186265 ], [ 40780.125, 5937123.450000000186265 ], [ 40780.125, 5937123.900000000372529 ], [ 40780.05000000000291, 5937123.900000000372529 ], [ 40780.05000000000291, 5937124.275000000372529 ], [ 40779.974999999998545, 5937124.275000000372529 ], [ 40779.974999999998545, 5937124.650000000372529 ], [ 40779.900000000001455, 5937124.650000000372529 ], [ 40779.900000000001455, 5937124.950000000186265 ], [ 40779.82499999999709, 5937124.950000000186265 ], [ 40779.82499999999709, 5937125.25 ], [ 40779.75, 5937125.25 ], [ 40779.75, 5937125.474999999627471 ], [ 40779.67500000000291, 5937125.474999999627471 ], [ 40779.67500000000291, 5937125.775000000372529 ], [ 40779.599999999998545, 5937125.775000000372529 ], [ 40779.599999999998545, 5937126.0 ], [ 40779.525000000001455, 5937126.0 ], [ 40779.525000000001455, 5937126.224999999627471 ], [ 40779.44999999999709, 5937126.224999999627471 ], [ 40779.44999999999709, 5937126.450000000186265 ], [ 40779.375, 5937126.450000000186265 ], [ 40779.375, 5937126.599999999627471 ], [ 40779.30000000000291, 5937126.599999999627471 ], [ 40779.30000000000291, 5937126.825000000186265 ], [ 40779.224999999998545, 5937126.825000000186265 ], [ 40779.224999999998545, 5937126.974999999627471 ], [ 40779.150000000001455, 5937126.974999999627471 ], [ 40779.150000000001455, 5937127.049999999813735 ], [ 40779.07499999999709, 5937127.049999999813735 ], [ 40779.07499999999709, 5937127.200000000186265 ], [ 40779.0, 5937127.200000000186265 ], [ 40779.0, 5937127.275000000372529 ], [ 40778.92500000000291, 5937127.275000000372529 ], [ 40778.92500000000291, 5937127.349999999627471 ], [ 40778.849999999998545, 5937127.349999999627471 ], [ 40778.849999999998545, 5937127.424999999813735 ], [ 40778.775000000001455, 5937127.424999999813735 ], [ 40778.775000000001455, 5937127.5 ], [ 40778.625, 5937127.5 ], [ 40778.625, 5937127.575000000186265 ], [ 40778.474999999998545, 5937127.575000000186265 ], [ 40778.474999999998545, 5937127.650000000372529 ], [ 40778.25, 5937127.650000000372529 ], [ 40778.25, 5937127.724999999627471 ], [ 40778.025000000001455, 5937127.724999999627471 ], [ 40778.025000000001455, 5937127.799999999813735 ], [ 40777.80000000000291, 5937127.799999999813735 ], [ 40777.80000000000291, 5937127.875 ], [ 40777.42500000000291, 5937127.875 ], [ 40777.42500000000291, 5937127.950000000186265 ], [ 40776.900000000001455, 5937127.950000000186265 ], [ 40776.900000000001455, 5937128.025000000372529 ], [ 40776.224999999998545, 5937128.025000000372529 ], [ 40776.224999999998545, 5937128.099999999627471 ], [ 40774.80000000000291, 5937128.099999999627471 ], [ 40774.80000000000291, 5937128.174999999813735 ], [ 40773.75, 5937128.174999999813735 ] ] ] } },
{ "type": "Feature", "properties": { "value": 1.0, "building_id": 4, "area": 90.596249999663456 }, "geometry": { "type": "Polygon", "coordinates": [ [ [ 40897.349999999998545, 5937032.174999999813735 ], [ 40897.349999999998545, 5937032.099999999627471 ], [ 40896.75, 5937032.099999999627471 ], [ 40896.75, 5937032.025000000372529 ], [ 40896.525000000001455, 5937032.025000000372529 ], [ 40896.525000000001455, 5937031.950000000186265 ], [ 40896.44999999999709, 5937031.950000000186265 ], [ 40896.44999999999709, 5937031.875 ], [ 40896.30000000000291, 5937031.875 ], [ 40896.30000000000291, 5937031.799999999813735 ], [ 40896.150000000001455, 5937031.799999999813735 ], [ 40896.150000000001455, 5937031.724999999627471 ], [ 40896.07499999999709, 5937031.724999999627471 ], [ 40896.07499999999709, 5937031.650000000372529 ], [ 40896.0, 5937031.650000000372529 ], [ 40896.0, 5937031.575000000186265 ], [ 40895.92500000000291, 5937031.575000000186265 ], [ 40895.92500000000291, 5937031.5 ], [ 40895.849999999998545, 5937031.5 ], [ 40895.849999999998545, 5937031.424999999813735 ], [ 40895.775000000001455, 5937031.424999999813735 ], [ 40895.775000000001455, 5937031.349999999627471 ], [ 40895.69999999999709, 5937031.349999999627471 ], [ 40895.69999999999709, 5937031.275000000372529 ], [ 40895.625, 5937031.275000000372529 ], [ 40895.625, 5937031.200000000186265 ], [ 40895.55000000000291, 5937031.200000000186265 ], [ 40895.55000000000291, 5937031.125 ], [ 40895.474999999998545, 5937031.125 ], [ 40895.474999999998545, 5937031.049999999813735 ], [ 40895.400000000001455, 5937031.049999999813735 ], [ 40895.400000000001455, 5937030.974999999627471 ], [ 40895.32499999999709, 5937030.974999999627471 ], [ 40895.32499999999709, 5937030.900000000372529 ], [ 40895.25, 5937030.900000000372529 ], [ 40895.25, 5937030.825000000186265 ], [ 40895.17500000000291, 5937030.825000000186265 ], [ 40895.17500000000291, 5937030.75 ], [ 40895.099999999998545, 5937030.75 ], [ 40895.099999999998545, 5937030.674999999813735 ], [ 40895.025000000001455, 5937030.674999999813735 ], [ 40895.025000000001455, 5937030.599999999627471 ], [ 40894.94999999999709, 5937030.599999999627471 ], [ 40894.94999999999709, 5937030.525000000372529 ], [ 40894.80000000000291, 5937030.525000000372529 ], [ 40894.80000000000291, 5937030.450000000186265 ], [ 40894.724999999998545, 5937030.450000000186265 ], [ 40894.724999999998545, 5937030.375 ], [ 40894.650000000001455, 5937030.375 ], [ 40894.650000000001455, 5937030.299999999813735 ], [ 40894.5, 5937030.299999999813735 ], [ 40894.5, 5937030.224999999627471 ], [ 40894.42500000000291, 5937030.224999999627471 ], [ 40894.42500000000291, 5937030.150000000372529 ], [ 40894.349999999998545, 5937030.150000000372529 ], [ 40894.349999999998545, 5937030.075000000186265 ], [ 40894.275000000001455, 5937030.075000000186265 ], [ 40894.275000000001455, 5937029.924999999813735 ], [ 40894.19999999999709, 5937029.924999999813735 ], [ 40894.19999999999709, 5937029.849999999627471 ], [ 40894.125, 5937029.849999999627471 ], [ 40894.125, 5937029.775000000372529 ], [ 40894.05000000000291, 5937029.775000000372529 ], [ 40894.05000000000291, 5937029.625 ], [ 40893.974999999998545, 5937029.625 ], [ 40893.974999999998545, 5937029.549999999813735 ], [ 40893.900000000001455, 5937029.549999999813735 ], [ 40893.900000000001455, 5937029.400000000372529 ], [ 40893.82499999999709, 5937029.400000000372529 ], [ 40893.82499999999709, 5937029.25 ], [ 40893.75, 5937029.25 ], [ 40893.75, 5937028.950000000186265 ], [ 40893.67500000000291, 5937028.950000000186265 ], [ 40893.67500000000291, 5937028.650000000372529 ], [ 40893.599999999998545, 5937028.650000000372529 ], [ 40893.599999999998545, 5937028.275000000372529 ], [ 40893.525000000001455, 5937028.275000000372529 ], [ 40893.525000000001455, 5937027.974999999627471 ], [ 40893.44999999999709, 5937027.974999999627471 ], [ 40893.44999999999709, 5937027.75 ], [ 40893.375, 5937027.75 ], [ 40893.375, 5937027.450000000186265 ], [ 40893.30000000000291, 5937027.450000000186265 ], [ 40893.30000000000291, 5937026.849999999627471 ], [ 40893.375, 5937026.849999999627471 ], [ 40893.375, 5937026.400000000372529 ], [ 40893.44999999999709, 5937026.400000000372529 ], [ 40893.44999999999709, 5937025.950000000186265 ], [ 40893.525000000001455, 5937025.950000000186265 ], [ 40893.525000000001455, 5937025.5 ], [ 40893.599999999998545, 5937025.5 ], [ 40893.599999999998545, 5937024.900000000372529 ], [ 40893.67500000000291, 5937024.900000000372529 ], [ 40893.67500000000291, 5937024.299999999813735 ], [ 40893.75, 5937024.299999999813735 ], [ 40893.75, 5937023.700000000186265 ], [ 40893.82499999999709, 5937023.700000000186265 ], [ 40893.82499999999709, 5937023.174999999813735 ], [ 40893.900000000001455, 5937023.174999999813735 ], [ 40893.900000000001455, 5937022.875 ], [ 40893.974999999998545, 5937022.875 ], [ 40893.974999999998545, 5937022.5 ], [ 40894.05000000000291, 5937022.5 ], [ 40894.05000000000291, 5937022.200000000186265 ], [ 40894.125, 5937022.200000000186265 ], [ 40894.125, 5937021.974999999627471 ], [ 40894.19999999999709, 5937021.974999999627471 ], [ 40894.19999999999709, 5937021.75 ], [ 40894.275000000001455, 5937021.75 ], [ 40894.275000000001455, 5937021.525000000372529 ], [ 40894.349999999998545, 5937021.525000000372529 ], [ 40894.349999999998545, 5937021.299999999813735 ], [ 40894.42500000000291, 5937021.299999999813735 ], [ 40894.42500000000291, 5937021.224999999627471 ], [ 40894.5, 5937021.224999999627471 ], [ 40894.5, 5937021.150000000372529 ], [ 40894.57499999999709, 5937021.150000000372529 ], [ 40894.57499999999709, 5937021.075000000186265 ], [ 40894.650000000001455, 5937021.075000000186265 ], [ 40894.650000000001455, 5937021.0 ], [ 40894.724999999998545, 5937021.0 ], [ 40894.724999999998545, 5937020.924999999813735 ], [ 40894.80000000000291, 5937020.924999999813735 ], [ 40894.80000000000291, 5937020.849999999627471 ], [ 40894.875, 5937020.849999999627471 ], [ 40894.875, 5937020.775000000372529 ], [ 40894.94999999999709, 5937020.775000000372529 ], [ 40894.94999999999709, 5937020.700000000186265 ], [ 40895.099999999998545, 5937020.700000000186265 ], [ 40895.099999999998545, 5937020.625 ], [ 40895.17500000000291, 5937020.625 ], [ 40895.17500000000291, 5937020.549999999813735 ], [ 40895.32499999999709, 5937020.549999999813735 ], [ 40895.32499999999709, 5937020.474999999627471 ], [ 40895.400000000001455, 5937020.474999999627471 ], [ 40895.400000000001455, 5937020.400000000372529 ], [ 40895.55000000000291, 5937020.400000000372529 ], [ 40895.55000000000291, 5937020.325000000186265 ], [ 40895.625, 5937020.325000000186265 ], [ 40895.625, 5937020.25 ], [ 40895.69999999999709, 5937020.25 ], [ 40895.69999999999709, 5937020.174999999813735 ], [ 40895.849999999998545, 5937020.174999999813735 ], [ 40895.849999999998545, 5937020.099999999627471 ], [ 40895.92500000000291, 5937020.099999999627471 ], [ 40895.92500000000291, 5937020.025000000372529 ], [ 40896.0, 5937020.025000000372529 ], [ 40896.0, 5937019.950000000186265 ], [ 40896.07499999999709, 5937019.950000000186265 ], [ 40896.07499999999709, 5937019.875 ], [ 40896.224999999998545, 5937019.875 ], [ 40896.224999999998545, 5937019.799999999813735 ], [ 40896.30000000000291, 5937019.799999999813735 ], [ 40896.30000000000291, 5937019.724999999627471 ], [ 40896.375, 5937019.724999999627471 ], [ 40896.375, 5937019.650000000372529 ], [ 40896.44999999999709, 5937019.650000000372529 ], [ 40896.44999999999709, 5937019.575000000186265 ], [ 40896.525000000001455, 5937019.575000000186265 ], [ 40896.525000000001455, 5937019.5 ], [ 40896.599999999998545, 5937019.5 ], [ 40896.599999999998545, 5937019.424999999813735 ], [ 40896.67500000000291, 5937019.424999999813735 ], [ 40896.67500000000291, 5937019.349999999627471 ], [ 40896.82499999999709, 5937019.349999999627471 ], [ 40896.82499999999709, 5937019.275000000372529 ], [ 40897.19999999999709, 5937019.275000000372529 ], [ 40897.19999999999709, 5937019.349999999627471 ], [ 40897.57499999999709, 5937019.349999999627471 ], [ 40897.57499999999709, 5937019.424999999813735 ], [ 40897.94999999999709, 5937019.424999999813735 ], [ 40897.94999999999709, 5937019.5 ], [ 40898.400000000001455, 5937019.5 ], [ 40898.400000000001455, 5937019.575000000186265 ], [ 40898.849999999998545, 5937019.575000000186265 ], [ 40898.849999999998545, 5937019.650000000372529 ], [ 40898.92500000000291, 5937019.650000000372529 ], [ 40898.92500000000291, 5937019.724999999627471 ], [ 40899.07499999999709, 5937019.724999999627471 ], [ 40899.07499999999709, 5937019.799999999813735 ], [ 40899.150000000001455, 5937019.799999999813735 ], [ 40899.150000000001455, 5937019.875 ], [ 40899.224999999998545, 5937019.875 ], [ 40899.224999999998545, 5937019.950000000186265 ], [ 40899.375, 5937019.950000000186265 ], [ 40899.375, 5937020.025000000372529 ], [ 40899.44999999999709, 5937020.025000000372529 ], [ 40899.44999999999709, 5937020.099999999627471 ], [ 40899.525000000001455, 5937020.099999999627471 ], [ 40899.525000000001455, 5937020.174999999813735 ], [ 40899.599999999998545, 5937020.174999999813735 ], [ 40899.599999999998545, 5937020.25 ], [ 40899.67500000000291, 5937020.25 ], [ 40899.67500000000291, 5937020.325000000186265 ], [ 40899.75, 5937020.325000000186265 ], [ 40899.75, 5937020.400000000372529 ], [ 40899.82499999999709, 5937020.400000000372529 ], [ 40899.82499999999709, 5937020.474999999627471 ], [ 40899.900000000001455, 5937020.474999999627471 ], [ 40899.900000000001455, 5937020.549999999813735 ], [ 40899.974999999998545, 5937020.549999999813735 ], [ 40899.974999999998545, 5937020.625 ], [ 40900.05000000000291, 5937020.625 ], [ 40900.05000000000291, 5937020.700000000186265 ], [ 40900.125, 5937020.700000000186265 ], [ 40900.125, 5937020.775000000372529 ], [ 40900.19999999999709, 5937020.775000000372529 ], [ 40900.19999999999709, 5937020.849999999627471 ], [ 40900.275000000001455, 5937020.849999999627471 ], [ 40900.275000000001455, 5937021.0 ], [ 40900.349999999998545, 5937021.0 ], [ 40900.349999999998545, 5937021.075000000186265 ], [ 40900.42500000000291, 5937021.075000000186265 ], [ 40900.42500000000291, 5937021.224999999627471 ], [ 40900.5, 5937021.224999999627471 ], [ 40900.5, 5937021.299999999813735 ], [ 40900.57499999999709, 5937021.299999999813735 ], [ 40900.57499999999709, 5937021.375 ], [ 40900.650000000001455, 5937021.375 ], [ 40900.650000000001455, 5937021.525000000372529 ], [ 40900.724999999998545, 5937021.525000000372529 ], [ 40900.724999999998545, 5937021.599999999627471 ], [ 40900.80000000000291, 5937021.599999999627471 ], [ 40900.80000000000291, 5937021.674999999813735 ], [ 40900.94999999999709, 5937021.674999999813735 ], [ 40900.94999999999709, 5937021.75 ], [ 40901.025000000001455, 5937021.75 ], [ 40901.025000000001455, 5937021.825000000186265 ], [ 40901.099999999998545, 5937021.825000000186265 ], [ 40901.099999999998545, 5937021.900000000372529 ], [ 40901.17500000000291, 5937021.900000000372529 ], [ 40901.17500000000291, 5937021.974999999627471 ], [ 40901.25, 5937021.974999999627471 ], [ 40901.25, 5937022.049999999813735 ], [ 40901.32499999999709, 5937022.049999999813735 ], [ 40901.32499999999709, 5937022.125 ], [ 40901.400000000001455, 5937022.125 ], [ 40901.400000000001455, 5937022.275000000372529 ], [ 40901.474999999998545, 5937022.275000000372529 ], [ 40901.474999999998545, 5937022.349999999627471 ], [ 40901.55000000000291, 5937022.349999999627471 ], [ 40901.55000000000291, 5937022.5 ], [ 40901.625, 5937022.5 ], [ 40901.625, 5937022.650000000372529 ], [ 40901.69999999999709, 5937022.650000000372529 ], [ 40901.69999999999709, 5937022.799999999813735 ], [ 40901.775000000001455, 5937022.799999999813735 ], [ 40901.775000000001455, 5937023.025000000372529 ], [ 40901.849999999998545, 5937023.025000000372529 ], [ 40901.849999999998545, 5937023.25 ], [ 40901.92500000000291, 5937023.25 ], [ 40901.92500000000291, 5937023.625 ], [ 40902.0, 5937023.625 ], [ 40902.0, 5937024.150000000372529 ], [ 40902.07499999999709, 5937024.150000000372529 ], [ 40902.07499999999709, 5937024.825000000186265 ], [ 40902.150000000001455, 5937024.825000000186265 ], [ 40902.150000000001455, 5937025.424999999813735 ], [ 40902.224999999998545, 5937025.424999999813735 ], [ 40902.224999999998545, 5937025.875 ], [ 40902.30000000000291, 5937025.875 ], [ 40902.30000000000291, 5937026.325000000186265 ], [ 40902.375, 5937026.325000000186265 ], [ 40902.375, 5937026.700000000186265 ], [ 40902.44999999999709, 5937026.700000000186265 ], [ 40902.44999999999709, 5937027.075000000186265 ], [ 40902.525000000001455, 5937027.075000000186265 ], [ 40902.525000000001455, 5937027.375 ], [ 40902.44999999999709, 5937027.375 ], [ 40902.44999999999709, 5937027.75 ], [ 40902.375, 5937027.75 ], [ 40902.375, 5937028.125 ], [ 40902.30000000000291, 5937028.125 ], [ 40902.30000000000291, 5937028.575000000186265 ], [ 40902.224999999998545, 5937028.575000000186265 ], [ 40902.224999999998545, 5937029.025000000372529 ], [ 40902.150000000001455, 5937029.025000000372529 ], [ 40902.150000000001455, 5937029.325000000186265 ], [ 40902.07499999999709, 5937029.325000000186265 ], [ 40902.07499999999709, 5937029.474999999627471 ], [ 40902.0, 5937029.474999999627471 ], [ 40902.0, 5937029.625 ], [ 40901.92500000000291, 5937029.625 ], [ 40901.92500000000291, 5937029.700000000186265 ], [ 40901.849999999998545, 5937029.700000000186265 ], [ 40901.849999999998545, 5937029.849999999627471 ], [ 40901.775000000001455, 5937029.849999999627471 ], [ 40901.775000000001455, 5937029.924999999813735 ], [ 40901.69999999999709, 5937029.924999999813735 ], [ 40901.69999999999709, 5937030.0 ], [ 40901.625, 5937030.0 ], [ 40901.625, 5937030.075000000186265 ], [ 40901.55000000000291, 5937030.075000000186265 ], [ 40901.55000000000291, 5937030.150000000372529 ], [ 40901.474999999998545, 5937030.150000000372529 ], [ 40901.474999999998545, 5937030.224999999627471 ], [ 40901.400000000001455, 5937030.224999999627471 ], [ 40901.400000000001455, 5937030.299999999813735 ], [ 40901.32499999999709, 5937030.299999999813735 ], [ 40901.32499999999709, 5937030.375 ], [ 40901.25, 5937030.375 ], [ 40901.25, 5937030.450000000186265 ], [ 40901.17500000000291, 5937030.450000000186265 ], [ 40901.17500000000291, 5937030.525000000372529 ], [ 40901.025000000001455, 5937030.525000000372529 ], [ 40901.025000000001455, 5937030.599999999627471 ], [ 40900.94999999999709, 5937030.599999999627471 ], [ 40900.94999999999709, 5937030.674999999813735 ], [ 40900.80000000000291, 5937030.674999999813735 ], [ 40900.80000000000291, 5937030.75 ], [ 40900.650000000001455, 5937030.75 ], [ 40900.650000000001455, 5937030.825000000186265 ], [ 40900.57499999999709, 5937030.825000000186265 ], [ 40900.57499999999709, 5937030.900000000372529 ], [ 40900.5, 5937030.900000000372529 ], [ 40900.5, 5937030.974999999627471 ], [ 40900.42500000000291, 5937030.974999999627471 ], [ 40900.42500000000291, 5937031.049999999813735 ], [ 40900.349999999998545, 5937031.049999999813735 ], [ 40900.349999999998545, 5937031.125 ], [ 40900.275000000001455, 5937031.125 ], [ 40900.275000000001455, 5937031.200000000186265 ], [ 40900.19999999999709, 5937031.200000000186265 ], [ 40900.19999999999709, 5937031.275000000372529 ], [ 40900.125, 5937031.275000000372529 ], [ 40900.125, 5937031.424999999813735 ], [ 40900.05000000000291, 5937031.424999999813735 ], [ 40900.05000000000291, 5937031.5 ], [ 40899.974999999998545, 5937031.5 ], [ 40899.974999999998545, 5937031.575000000186265 ], [ 40899.82499999999709, 5937031.575000000186265 ], [ 40899.82499999999709, 5937031.650000000372529 ], [ 40899.75, 5937031.650000000372529 ], [ 40899.75, 5937031.724999999627471 ], [ 40899.67500000000291, 5937031.724999999627471 ], [ 40899.67500000000291, 5937031.799999999813735 ], [ 40899.525000000001455, 5937031.799999999813735 ], [ 40899.525000000001455, 5937031.875 ], [ 40899.375, 5937031.875 ], [ 40899.375, 5937031.950000000186265 ], [ 40899.224999999998545, 5937031.950000000186265 ], [ 40899.224999999998545, 5937032.025000000372529 ], [ 40899.07499999999709, 5937032.025000000372529 ], [ 40899.07499999999709, 5937032.099999999627471 ], [ 40898.92500000000291, 5937032.099999999627471 ], [ 40898.92500000000291, 5937032.174999999813735 ], [ 40897.349999999998545, 5937032.174999999813735 ] ] ] } },
{ "type": "Feature", "properties": { "value": 1.0, "building_id": 5, "area": 203.38312499967006 }, "geometry": { "type": "Polygon", "coordinates": [ [ [ 41286.75, 5936961.450000000186265 ], [ 41286.75, 5936961.375 ], [ 41286.375, 5936961.375 ], [ 41286.375, 5936961.299999999813735 ], [ 41286.150000000001455, 5936961.299999999813735 ], [ 41286.150000000001455, 5936961.224999999627471 ], [ 41286.07499999999709, 5936961.224999999627471 ], [ 41286.07499999999709, 5936961.150000000372529 ], [ 41285.92500000000291, 5936961.150000000372529 ], [ 41285.92500000000291, 5936961.075000000186265 ], [ 41285.849999999998545, 5936961.075000000186265 ], [ 41285.849999999998545, 5936960.924999999813735 ], [ 41285.775000000001455, 5936960.924999999813735 ], [ 41285.775000000001455, 5936960.775000000372529 ], [ 41285.69999999999709, 5936960.775000000372529 ], [ 41285.69999999999709, 5936960.400000000372529 ], [ 41285.625, 5936960.400000000372529 ], [ 41285.625, 5936959.875 ], [ 41285.55000000000291, 5936959.875 ], [ 41285.55000000000291, 5936959.424999999813735 ], [ 41285.474999999998545, 5936959.424999999813735 ], [ 41285.474999999998545, 5936959.275000000372529 ], [ 41285.400000000001455, 5936959.275000000372529 ], [ 41285.400000000001455, 5936959.049999999813735 ], [ 41285.32499999999709, 5936959.049999999813735 ], [ 41285.32499999999709, 5936958.900000000372529 ], [ 41285.25, 5936958.900000000372529 ], [ 41285.25, 5936958.825000000186265 ], [ 41285.17500000000291, 5936958.825000000186265 ], [ 41285.17500000000291, 5936958.75 ], [ 41285.099999999998545, 5936958.75 ], [ 41285.099999999998545, 5936958.674999999813735 ], [ 41285.025000000001455, 5936958.674999999813735 ], [ 41285.025000000001455, 5936958.599999999627471 ], [ 41284.94999999999709, 5936958.599999999627471 ], [ 41284.94999999999709, 5936958.525000000372529 ], [ 41284.875, 5936958.525000000372529 ], [ 41284.875, 5936958.450000000186265 ], [ 41284.80000000000291, 5936958.450000000186265 ], [ 41284.80000000000291, 5936958.375 ], [ 41284.724999999998545, 5936958.375 ], [ 41284.724999999998545, 5936958.224999999627471 ], [ 41284.650000000001455, 5936958.224999999627471 ], [ 41284.650000000001455, 5936958.150000000372529 ], [ 41284.57499999999709, 5936958.150000000372529 ], [ 41284.57499999999709, 5936958.0 ], [ 41284.5, 5936958.0 ], [ 41284.5, 5936957.849999999627471 ], [ 41284.42500000000291, 5936957.849999999627471 ], [ 41284.42500000000291, 5936957.700000000186265 ], [ 41284.349999999998545, 5936957.700000000186265 ], [ 41284.349999999998545, 5936957.474999999627471 ], [ 41284.275000000001455, 5936957.474999999627471 ], [ 41284.275000000001455, 5936957.25 ], [ 41284.19999999999709, 5936957.25 ], [ 41284.19999999999709, 5936956.950000000186265 ], [ 41284.125, 5936956.950000000186265 ], [ 41284.125, 5936956.049999999813735 ], [ 41284.05000000000291, 5936956.049999999813735 ], [ 41284.05000000000291, 5936952.900000000372529 ], [ 41283.974999999998545, 5936952.900000000372529 ], [ 41283.974999999998545, 5936951.549999999813735 ], [ 41283.900000000001455, 5936951.549999999813735 ], [ 41283.900000000001455, 5936950.724999999627471 ], [ 41283.974999999998545, 5936950.724999999627471 ], [ 41283.974999999998545, 5936949.75 ], [ 41284.05000000000291, 5936949.75 ], [ 41284.05000000000291, 5936949.0 ], [ 41284.125, 5936949.0 ], [ 41284.125, 5936948.700000000186265 ], [ 41284.19999999999709, 5936948.700000000186265 ], [ 41284.19999999999709, 5936948.474999999627471 ], [ 41284.275000000001455, 5936948.474999999627471 ], [ 41284.275000000001455, 5936948.25 ], [ 41284.349999999998545, 5936948.25 ], [ 41284.349999999998545, 5936948.099999999627471 ], [ 41284.42500000000291, 5936948.099999999627471 ], [ 41284.42500000000291, 5936947.950000000186265 ], [ 41284.5, 5936947.950000000186265 ], [ 41284.5, 5936947.799999999813735 ], [ 41284.57499999999709, 5936947.799999999813735 ], [ 41284.57499999999709, 5936947.650000000372529 ], [ 41284.650000000001455, 5936947.650000000372529 ], [ 41284.650000000001455, 5936947.575000000186265 ], [ 41284.724999999998545, 5936947.575000000186265 ], [ 41284.724999999998545, 5936947.5 ], [ 41284.80000000000291, 5936947.5 ], [ 41284.80000000000291, 5936947.424999999813735 ], [ 41284.875, 5936947.424999999813735 ], [ 41284.875, 5936947.349999999627471 ], [ 41284.94999999999709, 5936947.349999999627471 ], [ 41284.94999999999709, 5936947.275000000372529 ], [ 41285.025000000001455, 5936947.275000000372529 ], [ 41285.025000000001455, 5936947.200000000186265 ], [ 41285.17500000000291, 5936947.200000000186265 ], [ 41285.17500000000291, 5936947.049999999813735 ], [ 41285.25, 5936947.049999999813735 ], [ 41285.25, 5936946.900000000372529 ], [ 41285.32499999999709, 5936946.900000000372529 ], [ 41285.32499999999709, 5936946.825000000186265 ], [ 41285.400000000001455, 5936946.825000000186265 ], [ 41285.400000000001455, 5936946.75 ], [ 41285.55000000000291, 5936946.75 ], [ 41285.55000000000291, 5936946.599999999627471 ], [ 41285.625, 5936946.599999999627471 ], [ 41285.625, 5936946.525000000372529 ], [ 41285.69999999999709, 5936946.525000000372529 ], [ 41285.69999999999709, 5936946.450000000186265 ], [ 41285.775000000001455, 5936946.450000000186265 ], [ 41285.775000000001455, 5936946.299999999813735 ], [ 41285.849999999998545, 5936946.299999999813735 ], [ 41285.849999999998545, 5936946.224999999627471 ], [ 41286.0, 5936946.224999999627471 ], [ 41286.0, 5936946.150000000372529 ], [ 41286.07499999999709, 5936946.150000000372529 ], [ 41286.07499999999709, 5936946.075000000186265 ], [ 41286.150000000001455, 5936946.075000000186265 ], [ 41286.150000000001455, 5936946.0 ], [ 41286.30000000000291, 5936946.0 ], [ 41286.30000000000291, 5936945.924999999813735 ], [ 41286.44999999999709, 5936945.924999999813735 ], [ 41286.44999999999709, 5936945.849999999627471 ], [ 41286.67500000000291, 5936945.849999999627471 ], [ 41286.67500000000291, 5936945.775000000372529 ], [ 41286.900000000001455, 5936945.775000000372529 ], [ 41286.900000000001455, 5936945.700000000186265 ], [ 41287.19999999999709, 5936945.700000000186265 ], [ 41287.19999999999709, 5936945.625 ], [ 41287.724999999998545, 5936945.625 ], [ 41287.724999999998545, 5936945.549999999813735 ], [ 41289.44999999999709, 5936945.549999999813735 ], [ 41289.44999999999709, 5936945.625 ], [ 41290.650000000001455, 5936945.625 ], [ 41290.650000000001455, 5936945.700000000186265 ], [ 41292.30000000000291, 5936945.700000000186265 ], [ 41292.30000000000291, 5936945.775000000372529 ], [ 41293.80000000000291, 5936945.775000000372529 ], [ 41293.80000000000291, 5936945.849999999627471 ], [ 41294.625, 5936945.849999999627471 ], [ 41294.625, 5936945.924999999813735 ], [ 41295.30000000000291, 5936945.924999999813735 ], [ 41295.30000000000291, 5936946.0 ], [ 41295.599999999998545, 5936946.0 ], [ 41295.599999999998545, 5936946.075000000186265 ], [ 41295.82499999999709, 5936946.075000000186265 ], [ 41295.82499999999709, 5936946.150000000372529 ], [ 41296.05000000000291, 5936946.150000000372529 ], [ 41296.05000000000291, 5936946.224999999627471 ], [ 41296.19999999999709, 5936946.224999999627471 ], [ 41296.19999999999709, 5936946.299999999813735 ], [ 41296.275000000001455, 5936946.299999999813735 ], [ 41296.275000000001455, 5936946.375 ], [ 41296.349999999998545, 5936946.375 ], [ 41296.349999999998545, 5936946.450000000186265 ], [ 41296.5, 5936946.450000000186265 ], [ 41296.5, 5936946.599999999627471 ], [ 41296.57499999999709, 5936946.599999999627471 ], [ 41296.57499999999709, 5936946.674999999813735 ], [ 41296.650000000001455, 5936946.674999999813735 ], [ 41296.650000000001455, 5936946.75 ], [ 41296.724999999998545, 5936946.75 ], [ 41296.724999999998545, 5936946.900000000372529 ], [ 41296.80000000000291, 5936946.900000000372529 ], [ 41296.80000000000291, 5936947.125 ], [ 41296.875, 5936947.125 ], [ 41296.875, 5936947.200000000186265 ], [ 41296.94999999999709, 5936947.200000000186265 ], [ 41296.94999999999709, 5936947.275000000372529 ], [ 41297.025000000001455, 5936947.275000000372529 ], [ 41297.025000000001455, 5936947.349999999627471 ], [ 41297.17500000000291, 5936947.349999999627471 ], [ 41297.17500000000291, 5936947.424999999813735 ], [ 41297.32499999999709, 5936947.424999999813735 ], [ 41297.32499999999709, 5936947.5 ], [ 41297.775000000001455, 5936947.5 ], [ 41297.775000000001455, 5936947.575000000186265 ], [ 41298.0, 5936947.575000000186265 ], [ 41298.0, 5936947.650000000372529 ], [ 41298.224999999998545, 5936947.650000000372529 ], [ 41298.224999999998545, 5936947.724999999627471 ], [ 41298.375, 5936947.724999999627471 ], [ 41298.375, 5936947.799999999813735 ], [ 41298.44999999999709, 5936947.799999999813735 ], [ 41298.44999999999709, 5936947.875 ], [ 41298.525000000001455, 5936947.875 ], [ 41298.525000000001455, 5936947.950000000186265 ], [ 41298.599999999998545, 5936947.950000000186265 ], [ 41298.599999999998545, 5936948.025000000372529 ], [ 41298.67500000000291, 5936948.025000000372529 ], [ 41298.67500000000291, 5936948.099999999627471 ], [ 41298.75, 5936948.099999999627471 ], [ 41298.75, 5936948.25 ], [ 41298.82499999999709, 5936948.25 ], [ 41298.82499999999709, 5936948.400000000372529 ], [ 41298.900000000001455, 5936948.400000000372529 ], [ 41298.900000000001455, 5936948.625 ], [ 41298.974999999998545, 5936948.625 ], [ 41298.974999999998545, 5936949.0 ], [ 41299.05000000000291, 5936949.0 ], [ 41299.05000000000291, 5936949.299999999813735 ], [ 41299.125, 5936949.299999999813735 ], [ 41299.125, 5936949.599999999627471 ], [ 41299.19999999999709, 5936949.599999999627471 ], [ 41299.19999999999709, 5936949.75 ], [ 41299.275000000001455, 5936949.75 ], [ 41299.275000000001455, 5936949.825000000186265 ], [ 41299.349999999998545, 5936949.825000000186265 ], [ 41299.349999999998545, 5936949.900000000372529 ], [ 41299.42500000000291, 5936949.900000000372529 ], [ 41299.42500000000291, 5936950.049999999813735 ], [ 41299.5, 5936950.049999999813735 ], [ 41299.5, 5936950.200000000186265 ], [ 41299.57499999999709, 5936950.200000000186265 ], [ 41299.57499999999709, 5936950.349999999627471 ], [ 41299.650000000001455, 5936950.349999999627471 ], [ 41299.650000000001455, 5936950.650000000372529 ], [ 41299.724999999998545, 5936950.650000000372529 ], [ 41299.724999999998545, 5936951.025000000372529 ], [ 41299.80000000000291, 5936951.025000000372529 ], [ 41299.80000000000291, 5936951.099999999627471 ], [ 41299.724999999998545, 5936951.099999999627471 ], [ 41299.724999999998545, 5936951.174999999813735 ], [ 41299.650000000001455, 5936951.174999999813735 ], [ 41299.650000000001455, 5936951.325000000186265 ], [ 41299.57499999999709, 5936951.325000000186265 ], [ 41299.57499999999709, 5936951.474999999627471 ], [ 41299.5, 5936951.474999999627471 ], [ 41299.5, 5936951.625 ], [ 41299.42500000000291, 5936951.625 ], [ 41299.42500000000291, 5936951.700000000186265 ], [ 41299.349999999998545, 5936951.700000000186265 ], [ 41299.349999999998545, 5936951.849999999627471 ], [ 41299.275000000001455, 5936951.849999999627471 ], [ 41299.275000000001455, 5936952.0 ], [ 41299.19999999999709, 5936952.0 ], [ 41299.19999999999709, 5936952.150000000372529 ], [ 41299.125, 5936952.150000000372529 ], [ 41299.125, 5936952.224999999627471 ], [ 41299.05000000000291, 5936952.224999999627471 ], [ 41299.05000000000291, 5936952.375 ], [ 41298.974999999998545, 5936952.375 ], [ 41298.974999999998545, 5936952.525000000372529 ], [ 41298.900000000001455, 5936952.525000000372529 ], [ 41298.900000000001455, 5936952.599999999627471 ], [ 41298.82499999999709, 5936952.599999999627471 ], [ 41298.82499999999709, 5936952.75 ], [ 41298.75, 5936952.75 ], [ 41298.75, 5936952.900000000372529 ], [ 41298.67500000000291, 5936952.900000000372529 ], [ 41298.67500000000291, 5936953.049999999813735 ], [ 41298.599999999998545, 5936953.049999999813735 ], [ 41298.599999999998545, 5936953.275000000372529 ], [ 41298.525000000001455, 5936953.275000000372529 ], [ 41298.525000000001455, 5936953.5 ], [ 41298.44999999999709, 5936953.5 ], [ 41298.44999999999709, 5936953.799999999813735 ], [ 41298.375, 5936953.799999999813735 ], [ 41298.375, 5936954.025000000372529 ], [ 41298.30000000000291, 5936954.025000000372529 ], [ 41298.30000000000291, 5936954.325000000186265 ], [ 41298.224999999998545, 5936954.325000000186265 ], [ 41298.224999999998545, 5936954.549999999813735 ], [ 41298.150000000001455, 5936954.549999999813735 ], [ 41298.150000000001455, 5936954.849999999627471 ], [ 41298.07499999999709, 5936954.849999999627471 ], [ 41298.07499999999709, 5936955.224999999627471 ], [ 41298.0, 5936955.224999999627471 ], [ 41298.0, 5936955.674999999813735 ], [ 41297.92500000000291, 5936955.674999999813735 ], [ 41297.92500000000291, 5936956.200000000186265 ], [ 41297.849999999998545, 5936956.200000000186265 ], [ 41297.849999999998545, 5936956.650000000372529 ], [ 41297.775000000001455, 5936956.650000000372529 ], [ 41297.775000000001455, 5936957.025000000372529 ], [ 41297.69999999999709, 5936957.025000000372529 ], [ 41297.69999999999709, 5936957.174999999813735 ], [ 41297.625, 5936957.174999999813735 ], [ 41297.625, 5936957.400000000372529 ], [ 41297.55000000000291, 5936957.400000000372529 ], [ 41297.55000000000291, 5936957.700000000186265 ], [ 41297.474999999998545, 5936957.700000000186265 ], [ 41297.474999999998545, 5936958.075000000186265 ], [ 41297.400000000001455, 5936958.075000000186265 ], [ 41297.400000000001455, 5936958.525000000372529 ], [ 41297.32499999999709, 5936958.525000000372529 ], [ 41297.32499999999709, 5936958.900000000372529 ], [ 41297.25, 5936958.900000000372529 ], [ 41297.25, 5936958.974999999627471 ], [ 41296.80000000000291, 5936958.974999999627471 ], [ 41296.80000000000291, 5936959.049999999813735 ], [ 41296.5, 5936959.049999999813735 ], [ 41296.5, 5936959.125 ], [ 41296.19999999999709, 5936959.125 ], [ 41296.19999999999709, 5936959.200000000186265 ], [ 41295.974999999998545, 5936959.200000000186265 ], [ 41295.974999999998545, 5936959.275000000372529 ], [ 41295.82499999999709, 5936959.275000000372529 ], [ 41295.82499999999709, 5936959.349999999627471 ], [ 41295.67500000000291, 5936959.349999999627471 ], [ 41295.67500000000291, 5936959.424999999813735 ], [ 41295.599999999998545, 5936959.424999999813735 ], [ 41295.599999999998545, 5936959.5 ], [ 41295.44999999999709, 5936959.5 ], [ 41295.44999999999709, 5936959.575000000186265 ], [ 41295.375, 5936959.575000000186265 ], [ 41295.375, 5936959.650000000372529 ], [ 41295.30000000000291, 5936959.650000000372529 ], [ 41295.30000000000291, 5936959.724999999627471 ], [ 41295.07499999999709, 5936959.724999999627471 ], [ 41295.07499999999709, 5936959.799999999813735 ], [ 41294.849999999998545, 5936959.799999999813735 ], [ 41294.849999999998545, 5936959.875 ], [ 41294.625, 5936959.875 ], [ 41294.625, 5936959.950000000186265 ], [ 41294.474999999998545, 5936959.950000000186265 ], [ 41294.474999999998545, 5936960.025000000372529 ], [ 41294.32499999999709, 5936960.025000000372529 ], [ 41294.32499999999709, 5936960.099999999627471 ], [ 41294.17500000000291, 5936960.099999999627471 ], [ 41294.17500000000291, 5936960.174999999813735 ], [ 41294.025000000001455, 5936960.174999999813735 ], [ 41294.025000000001455, 5936960.25 ], [ 41293.875, 5936960.25 ], [ 41293.875, 5936960.325000000186265 ], [ 41293.80000000000291, 5936960.325000000186265 ], [ 41293.80000000000291, 5936960.400000000372529 ], [ 41293.650000000001455, 5936960.400000000372529 ], [ 41293.650000000001455, 5936960.474999999627471 ], [ 41293.57499999999709, 5936960.474999999627471 ], [ 41293.57499999999709, 5936960.549999999813735 ], [ 41293.42500000000291, 5936960.549999999813735 ], [ 41293.42500000000291, 5936960.625 ], [ 41293.349999999998545, 5936960.625 ], [ 41293.349999999998545, 5936960.700000000186265 ], [ 41293.125, 5936960.700000000186265 ], [ 41293.125, 5936960.775000000372529 ], [ 41292.974999999998545, 5936960.775000000372529 ], [ 41292.974999999998545, 5936960.849999999627471 ], [ 41292.30000000000291, 5936960.849999999627471 ], [ 41292.30000000000291, 5936960.924999999813735 ], [ 41291.55000000000291, 5936960.924999999813735 ], [ 41291.55000000000291, 5936961.0 ], [ 41290.80000000000291, 5936961.0 ], [ 41290.80000000000291, 5936961.075000000186265 ], [ 41290.19999999999709, 5936961.075000000186265 ], [ 41290.19999999999709, 5936961.150000000372529 ], [ 41289.75, 5936961.150000000372529 ], [ 41289.75, 5936961.224999999627471 ], [ 41289.44999999999709, 5936961.224999999627471 ], [ 41289.44999999999709, 5936961.299999999813735 ], [ 41289.0, 5936961.299999999813735 ], [ 41289.0, 5936961.375 ], [ 41288.400000000001455, 5936961.375 ], [ 41288.400000000001455, 5936961.450000000186265 ], [ 41286.75, 5936961.450000000186265 ] ] ] } }
]
}
