{
"type": "FeatureCollection",
"name": "41433E592032N_buildings",
"crs": { "type": "name", "properties": { "name": "urn:ogc:def:crs:EPSG::3776" } },
"features": [
{ "type": "Feature", "properties": { "value": 1.0, "building_id": 0, "area": 376.78499999984433 }, "geometry": { "type": "Polygon", "coordinates": [ [ [ 42070.57499999999709, 5921019.75 ], [ 42070.57499999999709, 5921019.674999999813735 ], [ 42070.349999999998545, 5921019.674999999813735 ], [ 42070.349999999998545, 5921019.599999999627471 ], [ 42070.125, 5921019.599999999627471 ], [ 42070.125, 5921019.525000000372529 ], [ 42069.900000000001455, 5921019.525000000372529 ], [ 42069.900000000001455, 5921019.450000000186265 ], [ 42069.67500000000291, 5921019.450000000186265 ], [ 42069.67500000000291, 5921019.375 ], [ 42069.44999999999709, 5921019.375 ], [ 42069.44999999999709, 5921019.299999999813735 ], [ 42069.150000000001455, 5921019.299999999813735 ], [ 42069.150000000001455, 5921019.224999999627471 ], [ 42068.849999999998545, 5921019.224999999627471 ], [ 42068.849999999998545, 5921019.150000000372529 ], [ 42068.474999999998545, 5921019.150000000372529 ], [ 42068.474999999998545, 5921019.075000000186265 ], [ 42067.94999999999709, 5921019.075000000186265 ], [ 42067.94999999999709, 5921019.0 ], [ 42067.80000000000291, 5921019.0 ], [ 42067.80000000000291, 5921018.924999999813735 ], [ 42067.724999999998545, 5921018.924999999813735 ], [ 42067.724999999998545, 5921018.849999999627471 ], [ 42067.57499999999709, 5921018.849999999627471 ], [ 42067.57499999999709, 5921018.775000000372529 ], [ 42067.42500000000291, 5921018.775000000372529 ], [ 42067.42500000000291, 5921018.700000000186265 ], [ 42067.275000000001455, 5921018.700000000186265 ], [ 42067.275000000001455, 5921018.625 ], [ 42067.19999999999709, 5921018.625 ], [ 42067.19999999999709, 5921018.549999999813735 ], [ 42066.974999999998545, 5921018.549999999813735 ], [ 42066.974999999998545, 5921018.474999999627471 ], [ 42066.82499999999709, 5921018.474999999627471 ], [ 42066.82499999999709, 5921018.400000000372529 ], [ 42066.75, 5921018.400000000372529 ], [ 42066.75, 5921018.325000000186265 ], [ 42066.599999999998545, 5921018.325000000186265 ], [ 42066.599999999998545, 5921018.25 ], [ 42066.525000000001455, 5921018.25 ], [ 42066.525000000001455, 5921018.174999999813735 ], [ 42066.44999999999709, 5921018.174999999813735 ], [ 42066.44999999999709, 5921018.099999999627471 ], [ 42066.375, 5921018.099999999627471 ], [ 42066.375, 5921018.025000000372529 ], [ 42066.30000000000291, 5921018.025000000372529 ], [ 42066.30000000000291, 5921017.950000000186265 ], [ 42066.224999999998545, 5921017.950000000186265 ], [ 42066.224999999998545, 5921017.875 ], [ 42066.150000000001455, 5921017.875 ], [ 42066.150000000001455, 5921017.724999999627471 ], [ 42066.07499999999709, 5921017.724999999627471 ], [ 42066.07499999999709, 5921017.650000000372529 ], [ 42066.0, 5921017.650000000372529 ], [ 42066.0, 5921017.5 ], [ 42065.92500000000291, 5921017.5 ], [ 42065.92500000000291, 5921017.349999999627471 ], [ 42065.849999999998545, 5921017.349999999627471 ], [ 42065.849999999998545, 5921017.200000000186265 ], [ 42065.775000000001455, 5921017.200000000186265 ], [ 42065.775000000001455, 5921016.974999999627471 ], [ 42065.69999999999709, 5921016.974999999627471 ], [ 42065.69999999999709, 5921016.825000000186265 ], [ 42065.625, 5921016.825000000186265 ], [ 42065.625, 5921016.674999999813735 ], [ 42065.55000000000291, 5921016.674999999813735 ], [ 42065.55000000000291, 5921016.525000000372529 ], [ 42065.474999999998545, 5921016.525000000372529 ], [ 42065.474999999998545, 5921016.375 ], [ 42065.400000000001455, 5921016.375 ], [ 42065.400000000001455, 5921016.299999999813735 ], [ 42065.32499999999709, 5921016.299999999813735 ], [ 42065.32499999999709, 5921016.150000000372529 ], [ 42065.25, 5921016.150000000372529 ], [ 42065.25, 5921016.075000000186265 ], [ 42065.17500000000291, 5921016.075000000186265 ], [ 42065.17500000000291, 5921015.924999999813735 ], [ 42065.099999999998545, 5921015.924999999813735 ], [ 42065.099999999998545, 5921015.849999999627471 ], [ 42065.025000000001455, 5921015.849999999627471 ], [ 42065.025000000001455, 5921015.700000000186265 ], [ 42064.94999999999709, 5921015.700000000186265 ], [ 42064.94999999999709, 5921015.625 ], [ 42064.875, 5921015.625 ], [ 42064.875, 5921015.549999999813735 ], [ 42064.80000000000291, 5921015.549999999813735 ], [ 42064.80000000000291, 5921015.474999999627471 ], [ 42064.724999999998545, 5921015.474999999627471 ], [ 42064.724999999998545, 5921015.400000000372529 ], [ 42064.650000000001455, 5921015.400000000372529 ], [ 42064.650000000001455, 5921015.25 ], [ 42064.57499999999709, 5921015.25 ], [ 42064.57499999999709, 5921015.174999999813735 ], [ 42064.5, 5921015.174999999813735 ], [ 42064.5, 5921015.099999999627471 ], [ 42064.42500000000291, 5921015.099999999627471 ], [ 42064.42500000000291, 5921014.950000000186265 ], [ 42064.349999999998545, 5921014.950000000186265 ], [ 42064.349999999998545, 5921014.875 ], [ 42064.275000000001455, 5921014.875 ], [ 42064.275000000001455, 5921014.724999999627471 ], [ 42064.19999999999709, 5921014.724999999627471 ], [ 42064.19999999999709, 5921014.575000000186265 ], [ 42064.125, 5921014.575000000186265 ], [ 42064.125, 5921014.424999999813735 ], [ 42064.05000000000291, 5921014.424999999813735 ], [ 42064.05000000000291, 5921014.200000000186265 ], [ 42063.974999999998545, 5921014.200000000186265 ], [ 42063.974999999998545, 5921014.049999999813735 ], [ 42063.900000000001455, 5921014.049999999813735 ], [ 42063.900000000001455, 5921013.825000000186265 ], [ 42063.82499999999709, 5921013.825000000186265 ], [ 42063.82499999999709, 5921013.525000000372529 ], [ 42063.75, 5921013.525000000372529 ], [ 42063.75, 5921011.5 ], [ 42063.82499999999709, 5921011.5 ], [ 42063.82499999999709, 5921011.200000000186265 ], [ 42063.900000000001455, 5921011.200000000186265 ], [ 42063.900000000001455, 5921010.974999999627471 ], [ 42063.974999999998545, 5921010.974999999627471 ], [ 42063.974999999998545, 5921010.674999999813735 ], [ 42064.05000000000291, 5921010.674999999813735 ], [ 42064.05000000000291, 5921010.525000000372529 ], [ 42064.125, 5921010.525000000372529 ], [ 42064.125, 5921010.299999999813735 ], [ 42064.19999999999709, 5921010.299999999813735 ], [ 42064.19999999999709, 5921010.075000000186265 ], [ 42064.275000000001455, 5921010.075000000186265 ], [ 42064.275000000001455, 5921009.924999999813735 ], [ 42064.349999999998545, 5921009.924999999813735 ], [ 42064.349999999998545, 5921009.775000000372529 ], [ 42064.42500000000291, 5921009.775000000372529 ], [ 42064.42500000000291, 5921009.625 ], [ 42064.5, 5921009.625 ], [ 42064.5, 5921009.474999999627471 ], [ 42064.57499999999709, 5921009.474999999627471 ], [ 42064.57499999999709, 5921009.325000000186265 ], [ 42064.650000000001455, 5921009.325000000186265 ], [ 42064.650000000001455, 5921009.25 ], [ 42064.724999999998545, 5921009.25 ], [ 42064.724999999998545, 5921009.099999999627471 ], [ 42064.80000000000291, 5921009.099999999627471 ], [ 42064.80000000000291, 5921009.025000000372529 ], [ 42064.875, 5921009.025000000372529 ], [ 42064.875, 5921008.950000000186265 ], [ 42064.94999999999709, 5921008.950000000186265 ], [ 42064.94999999999709, 5921008.799999999813735 ], [ 42065.025000000001455, 5921008.799999999813735 ], [ 42065.025000000001455, 5921008.650000000372529 ], [ 42065.099999999998545, 5921008.650000000372529 ], [ 42065.099999999998545, 5921008.575000000186265 ], [ 42065.17500000000291, 5921008.575000000186265 ], [ 42065.17500000000291, 5921008.424999999813735 ], [ 42065.25, 5921008.424999999813735 ], [ 42065.25, 5921008.200000000186265 ], [ 42065.32499999999709, 5921008.200000000186265 ], [ 42065.32499999999709, 5921008.049999999813735 ], [ 42065.400000000001455, 5921008.049999999813735 ], [ 42065.400000000001455, 5921007.825000000186265 ], [ 42065.474999999998545, 5921007.825000000186265 ], [ 42065.474999999998545, 5921007.674999999813735 ], [ 42065.55000000000291, 5921007.674999999813735 ], [ 42065.55000000000291, 5921007.450000000186265 ], [ 42065.625, 5921007.450000000186265 ], [ 42065.625, 5921007.299999999813735 ], [ 42065.69999999999709, 5921007.299999999813735 ], [ 42065.69999999999709, 5921007.150000000372529 ], [ 42065.775000000001455, 5921007.150000000372529 ], [ 42065.775000000001455, 5921007.0 ], [ 42065.849999999998545, 5921007.0 ], [ 42065.849999999998545, 5921006.849999999627471 ], [ 42065.92500000000291, 5921006.849999999627471 ], [ 42065.92500000000291, 5921006.700000000186265 ], [ 42066.0, 5921006.700000000186265 ], [ 42066.0, 5921006.625 ], [ 42066.07499999999709, 5921006.625 ], [ 42066.07499999999709, 5921006.474999999627471 ], [ 42066.150000000001455, 5921006.474999999627471 ], [ 42066.150000000001455, 5921006.400000000372529 ], [ 42066.224999999998545, 5921006.400000000372529 ], [ 42066.224999999998545, 5921006.25 ], [ 42066.30000000000291, 5921006.25 ], [ 42066.30000000000291, 5921006.174999999813735 ], [ 42066.375, 5921006.174999999813735 ], [ 42066.375, 5921006.099999999627471 ], [ 42066.44999999999709, 5921006.099999999627471 ], [ 42066.44999999999709, 5921006.025000000372529 ], [ 42066.525000000001455, 5921006.025000000372529 ], [ 42066.525000000001455, 5921005.950000000186265 ], [ 42066.75, 5921005.950000000186265 ], [ 42066.75, 5921005.875 ], [ 42066.900000000001455, 5921005.875 ], [ 42066.900000000001455, 5921005.799999999813735 ], [ 42066.974999999998545, 5921005.799999999813735 ], [ 42066.974999999998545, 5921005.650000000372529 ], [ 42067.05000000000291, 5921005.650000000372529 ], [ 42067.05000000000291, 5921005.5 ], [ 42067.125, 5921005.5 ], [ 42067.125, 5921005.349999999627471 ], [ 42067.19999999999709, 5921005.349999999627471 ], [ 42067.19999999999709, 5921005.275000000372529 ], [ 42067.275000000001455, 5921005.275000000372529 ], [ 42067.275000000001455, 5921005.125 ], [ 42067.349999999998545, 5921005.125 ], [ 42067.349999999998545, 5921005.049999999813735 ], [ 42067.42500000000291, 5921005.049999999813735 ], [ 42067.42500000000291, 5921004.900000000372529 ], [ 42067.5, 5921004.900000000372529 ], [ 42067.5, 5921004.825000000186265 ], [ 42067.57499999999709, 5921004.825000000186265 ], [ 42067.57499999999709, 5921004.75 ], [ 42067.650000000001455, 5921004.75 ], [ 42067.650000000001455, 5921004.674999999813735 ], [ 42067.724999999998545, 5921004.674999999813735 ], [ 42067.724999999998545, 5921004.525000000372529 ], [ 42067.80000000000291, 5921004.525000000372529 ], [ 42067.80000000000291, 5921004.450000000186265 ], [ 42067.875, 5921004.450000000186265 ], [ 42067.875, 5921004.375 ], [ 42067.94999999999709, 5921004.375 ], [ 42067.94999999999709, 5921004.299999999813735 ], [ 42068.099999999998545, 5921004.299999999813735 ], [ 42068.099999999998545, 5921004.224999999627471 ], [ 42068.17500000000291, 5921004.224999999627471 ], [ 42068.17500000000291, 5921004.150000000372529 ], [ 42068.25, 5921004.150000000372529 ], [ 42068.25, 5921004.075000000186265 ], [ 42068.32499999999709, 5921004.075000000186265 ], [ 42068.32499999999709, 5921004.0 ], [ 42068.400000000001455, 5921004.0 ], [ 42068.400000000001455, 5921003.924999999813735 ], [ 42068.55000000000291, 5921003.924999999813735 ], [ 42068.55000000000291, 5921003.849999999627471 ], [ 42068.625, 5921003.849999999627471 ], [ 42068.625, 5921003.775000000372529 ], [ 42068.775000000001455, 5921003.775000000372529 ], [ 42068.775000000001455, 5921003.700000000186265 ], [ 42068.92500000000291, 5921003.700000000186265 ], [ 42068.92500000000291, 5921003.625 ], [ 42069.07499999999709, 5921003.625 ], [ 42069.07499999999709, 5921003.549999999813735 ], [ 42069.30000000000291, 5921003.549999999813735 ], [ 42069.30000000000291, 5921003.474999999627471 ], [ 42069.525000000001455, 5921003.474999999627471 ], [ 42069.525000000001455, 5921003.400000000372529 ], [ 42069.75, 5921003.400000000372529 ], [ 42069.75, 5921003.325000000186265 ], [ 42069.974999999998545, 5921003.325000000186265 ], [ 42069.974999999998545, 5921003.25 ], [ 42070.275000000001455, 5921003.25 ], [ 42070.275000000001455, 5921003.174999999813735 ], [ 42070.57499999999709, 5921003.174999999813735 ], [ 42070.57499999999709, 5921003.099999999627471 ], [ 42071.025000000001455, 5921003.099999999627471 ], [ 42071.025000000001455, 5921003.174999999813735 ], [ 42072.0, 5921003.174999999813735 ], [ 42072.0, 5921003.25 ], [ 42072.82499999999709, 5921003.25 ], [ 42072.82499999999709, 5921003.325000000186265 ], [ 42073.650000000001455, 5921003.325000000186265 ], [ 42073.650000000001455, 5921003.400000000372529 ], [ 42074.400000000001455, 5921003.400000000372529 ], [ 42074.400000000001455, 5921003.474999999627471 ], [ 42075.0, 5921003.474999999627471 ], [ 42075.0, 5921003.549999999813735 ], [ 42075.599999999998545, 5921003.549999999813735 ], [ 42075.599999999998545, 5921003.625 ], [ 42076.125, 5921003.625 ], [ 42076.125, 5921003.700000000186265 ], [ 42077.849999999998545, 5921003.700000000186265 ], [ 42077.849999999998545, 5921003.775000000372529 ], [ 42078.525000000001455, 5921003.775000000372529 ], [ 42078.525000000001455, 5921003.700000000186265 ], [ 42079.19999999999709, 5921003.700000000186265 ], [ 42079.19999999999709, 5921003.625 ], [ 42079.875, 5921003.625 ], [ 42079.875, 5921003.549999999813735 ], [ 42080.69999999999709, 5921003.549999999813735 ], [ 42080.69999999999709, 5921003.474999999627471 ], [ 42081.75, 5921003.474999999627471 ], [ 42081.75, 5921003.400000000372529 ], [ 42082.875, 5921003.400000000372529 ], [ 42082.875, 5921003.325000000186265 ], [ 42084.150000000001455, 5921003.325000000186265 ], [ 42084.150000000001455, 5921003.25 ], [ 42084.44999999999709, 5921003.25 ], [ 42084.44999999999709, 5921003.325000000186265 ], [ 42084.75, 5921003.325000000186265 ], [ 42084.75, 5921003.400000000372529 ], [ 42085.05000000000291, 5921003.400000000372529 ], [ 42085.05000000000291, 5921003.474999999627471 ], [ 42085.349999999998545, 5921003.474999999627471 ], [ 42085.349999999998545, 5921003.549999999813735 ], [ 42085.57499999999709, 5921003.549999999813735 ], [ 42085.57499999999709, 5921003.625 ], [ 42085.875, 5921003.625 ], [ 42085.875, 5921003.700000000186265 ], [ 42086.099999999998545, 5921003.700000000186265 ], [ 42086.099999999998545, 5921003.775000000372529 ], [ 42086.32499999999709, 5921003.775000000372529 ], [ 42086.32499999999709, 5921003.924999999813735 ], [ 42086.400000000001455, 5921003.924999999813735 ], [ 42086.400000000001455, 5921004.0 ], [ 42086.474999999998545, 5921004.0 ], [ 42086.474999999998545, 5921004.075000000186265 ], [ 42086.55000000000291, 5921004.075000000186265 ], [ 42086.55000000000291, 5921004.224999999627471 ], [ 42086.625, 5921004.224999999627471 ], [ 42086.625, 5921004.299999999813735 ], [ 42086.69999999999709, 5921004.299999999813735 ], [ 42086.69999999999709, 5921004.450000000186265 ], [ 42086.775000000001455, 5921004.450000000186265 ], [ 42086.775000000001455, 5921004.525000000372529 ], [ 42086.849999999998545, 5921004.525000000372529 ], [ 42086.849999999998545, 5921004.599999999627471 ], [ 42086.92500000000291, 5921004.599999999627471 ], [ 42086.92500000000291, 5921004.674999999813735 ], [ 42087.0, 5921004.674999999813735 ], [ 42087.0, 5921004.75 ], [ 42087.07499999999709, 5921004.75 ], [ 42087.07499999999709, 5921004.900000000372529 ], [ 42087.150000000001455, 5921004.900000000372529 ], [ 42087.150000000001455, 5921004.974999999627471 ], [ 42087.224999999998545, 5921004.974999999627471 ], [ 42087.224999999998545, 5921005.049999999813735 ], [ 42087.30000000000291, 5921005.049999999813735 ], [ 42087.30000000000291, 5921005.125 ], [ 42087.375, 5921005.125 ], [ 42087.375, 5921005.200000000186265 ], [ 42087.44999999999709, 5921005.200000000186265 ], [ 42087.44999999999709, 5921005.275000000372529 ], [ 42087.525000000001455, 5921005.275000000372529 ], [ 42087.525000000001455, 5921005.349999999627471 ], [ 42087.599999999998545, 5921005.349999999627471 ], [ 42087.599999999998545, 5921005.424999999813735 ], [ 42087.75, 5921005.424999999813735 ], [ 42087.75, 5921005.5 ], [ 42087.82499999999709, 5921005.5 ], [ 42087.82499999999709, 5921005.575000000186265 ], [ 42087.900000000001455, 5921005.575000000186265 ], [ 42087.900000000001455, 5921005.650000000372529 ], [ 42087.974999999998545, 5921005.650000000372529 ], [ 42087.974999999998545, 5921005.724999999627471 ], [ 42088.05000000000291, 5921005.724999999627471 ], [ 42088.05000000000291, 5921005.799999999813735 ], [ 42088.19999999999709, 5921005.799999999813735 ], [ 42088.19999999999709, 5921005.875 ], [ 42088.275000000001455, 5921005.875 ], [ 42088.275000000001455, 5921005.950000000186265 ], [ 42088.349999999998545, 5921005.950000000186265 ], [ 42088.349999999998545, 5921006.025000000372529 ], [ 42088.42500000000291, 5921006.025000000372529 ], [ 42088.42500000000291, 5921006.099999999627471 ], [ 42088.5, 5921006.099999999627471 ], [ 42088.5, 5921006.174999999813735 ], [ 42088.57499999999709, 5921006.174999999813735 ], [ 42088.57499999999709, 5921006.325000000186265 ], [ 42088.650000000001455, 5921006.325000000186265 ], [ 42088.650000000001455, 5921006.400000000372529 ], [ 42088.724999999998545, 5921006.400000000372529 ], [ 42088.724999999998545, 5921006.474999999627471 ], [ 42088.80000000000291, 5921006.474999999627471 ], [ 42088.80000000000291, 5921006.549999999813735 ], [ 42088.875, 5921006.549999999813735 ], [ 42088.875, 5921006.700000000186265 ], [ 42088.94999999999709, 5921006.700000000186265 ], [ 42088.94999999999709, 5921006.775000000372529 ], [ 42089.025000000001455, 5921006.775000000372529 ], [ 42089.025000000001455, 5921006.849999999627471 ], [ 42089.099999999998545, 5921006.849999999627471 ], [ 42089.099999999998545, 5921007.0 ], [ 42089.17500000000291, 5921007.0 ], [ 42089.17500000000291, 5921007.075000000186265 ], [ 42089.25, 5921007.075000000186265 ], [ 42089.25, 5921007.224999999627471 ], [ 42089.32499999999709, 5921007.224999999627471 ], [ 42089.32499999999709, 5921007.299999999813735 ], [ 42089.400000000001455, 5921007.299999999813735 ], [ 42089.400000000001455, 5921007.450000000186265 ], [ 42089.474999999998545, 5921007.450000000186265 ], [ 42089.474999999998545, 5921007.525000000372529 ], [ 42089.55000000000291, 5921007.525000000372529 ], [ 42089.55000000000291, 5921007.674999999813735 ], [ 42089.625, 5921007.674999999813735 ], [ 42089.625, 5921007.75 ], [ 42089.69999999999709, 5921007.75 ], [ 42089.69999999999709, 5921007.900000000372529 ], [ 42089.775000000001455, 5921007.900000000372529 ], [ 42089.775000000001455, 5921007.974999999627471 ], [ 42089.849999999998545, 5921007.974999999627471 ], [ 42089.849999999998545, 5921008.049999999813735 ], [ 42089.92500000000291, 5921008.049999999813735 ], [ 42089.92500000000291, 5921008.125 ], [ 42090.0, 5921008.125 ], [ 42090.0, 5921008.200000000186265 ], [ 42090.07499999999709, 5921008.200000000186265 ], [ 42090.07499999999709, 5921008.275000000372529 ], [ 42090.224999999998545, 5921008.275000000372529 ], [ 42090.224999999998545, 5921008.349999999627471 ], [ 42090.30000000000291, 5921008.349999999627471 ], [ 42090.30000000000291, 5921008.424999999813735 ], [ 42090.375, 5921008.424999999813735 ], [ 42090.375, 5921008.5 ], [ 42090.44999999999709, 5921008.5 ], [ 42090.44999999999709, 5921008.575000000186265 ], [ 42090.525000000001455, 5921008.575000000186265 ], [ 42090.525000000001455, 5921008.650000000372529 ], [ 42090.599999999998545, 5921008.650000000372529 ], [ 42090.599999999998545, 5921008.724999999627471 ], [ 42090.67500000000291, 5921008.724999999627471 ], [ 42090.67500000000291, 5921008.799999999813735 ], [ 42090.75, 5921008.799999999813735 ], [ 42090.75, 5921008.950000000186265 ], [ 42090.82499999999709, 5921008.950000000186265 ], [ 42090.82499999999709, 5921009.025000000372529 ], [ 42090.900000000001455, 5921009.025000000372529 ], [ 42090.900000000001455, 5921009.174999999813735 ], [ 42090.974999999998545, 5921009.174999999813735 ], [ 42090.974999999998545, 5921009.25 ], [ 42091.05000000000291, 5921009.25 ], [ 42091.05000000000291, 5921009.400000000372529 ], [ 42091.125, 5921009.400000000372529 ], [ 42091.125, 5921009.549999999813735 ], [ 42091.19999999999709, 5921009.549999999813735 ], [ 42091.19999999999709, 5921009.775000000372529 ], [ 42091.275000000001455, 5921009.775000000372529 ], [ 42091.275000000001455, 5921009.924999999813735 ], [ 42091.349999999998545, 5921009.924999999813735 ], [ 42091.349999999998545, 5921010.075000000186265 ], [ 42091.42500000000291, 5921010.075000000186265 ], [ 42091.42500000000291, 5921010.150000000372529 ], [ 42091.5, 5921010.150000000372529 ], [ 42091.5, 5921010.299999999813735 ], [ 42091.57499999999709, 5921010.299999999813735 ], [ 42091.57499999999709, 5921010.450000000186265 ], [ 42091.650000000001455, 5921010.450000000186265 ], [ 42091.650000000001455, 5921010.525000000372529 ], [ 42091.724999999998545, 5921010.525000000372529 ], [ 42091.724999999998545, 5921010.599999999627471 ], [ 42091.80000000000291, 5921010.599999999627471 ], [ 42091.80000000000291, 5921010.674999999813735 ], [ 42091.875, 5921010.674999999813735 ], [ 42091.875, 5921010.825000000186265 ], [ 42091.94999999999709, 5921010.825000000186265 ], [ 42091.94999999999709, 5921010.900000000372529 ], [ 42092.025000000001455, 5921010.900000000372529 ], [ 42092.025000000001455, 5921010.974999999627471 ], [ 42092.099999999998545, 5921010.974999999627471 ], [ 42092.099999999998545, 5921011.049999999813735 ], [ 42092.25, 5921011.049999999813735 ], [ 42092.25, 5921011.125 ], [ 42092.32499999999709, 5921011.125 ], [ 42092.32499999999709, 5921011.200000000186265 ], [ 42092.400000000001455, 5921011.200000000186265 ], [ 42092.400000000001455, 5921011.275000000372529 ], [ 42092.474999999998545, 5921011.275000000372529 ], [ 42092.474999999998545, 5921011.424999999813735 ], [ 42092.55000000000291, 5921011.424999999813735 ], [ 42092.55000000000291, 5921011.5 ], [ 42092.625, 5921011.5 ], [ 42092.625, 5921011.575000000186265 ], [ 42092.69999999999709, 5921011.575000000186265 ], [ 42092.69999999999709, 5921011.724999999627471 ], [ 42092.625, 5921011.724999999627471 ], [ 42092.625, 5921012.174999999813735 ], [ 42092.55000000000291, 5921012.174999999813735 ], [ 42092.55000000000291, 5921012.549999999813735 ], [ 42092.474999999998545, 5921012.549999999813735 ], [ 42092.474999999998545, 5921012.924999999813735 ], [ 42092.400000000001455, 5921012.924999999813735 ], [ 42092.400000000001455, 5921013.224999999627471 ], [ 42092.32499999999709, 5921013.224999999627471 ], [ 42092.32499999999709, 5921013.525000000372529 ], [ 42092.25, 5921013.525000000372529 ], [ 42092.25, 5921013.599999999627471 ], [ 42092.17500000000291, 5921013.599999999627471 ], [ 42092.17500000000291, 5921013.674999999813735 ], [ 42092.099999999998545, 5921013.674999999813735 ], [ 42092.099999999998545, 5921013.825000000186265 ], [ 42092.025000000001455, 5921013.825000000186265 ], [ 42092.025000000001455, 5921013.900000000372529 ], [ 42091.94999999999709, 5921013.900000000372529 ], [ 42091.94999999999709, 5921013.974999999627471 ], [ 42091.875, 5921013.974999999627471 ], [ 42091.875, 5921014.049999999813735 ], [ 42091.80000000000291, 5921014.049999999813735 ], [ 42091.80000000000291, 5921014.125 ], [ 42091.724999999998545, 5921014.125 ], [ 42091.724999999998545, 5921014.200000000186265 ], [ 42091.650000000001455, 5921014.200000000186265 ], [ 42091.650000000001455, 5921014.275000000372529 ], [ 42091.57499999999709, 5921014.275000000372529 ], [ 42091.57499999999709, 5921014.349999999627471 ], [ 42091.5, 5921014.349999999627471 ], [ 42091.5, 5921014.5 ], [ 42091.42500000000291, 5921014.5 ], [ 42091.42500000000291, 5921014.575000000186265 ], [ 42091.349999999998545, 5921014.575000000186265 ], [ 42091.349999999998545, 5921014.650000000372529 ], [ 42091.275000000001455, 5921014.650000000372529 ], [ 42091.275000000001455, 5921014.724999999627471 ], [ 42091.19999999999709, 5921014.724999999627471 ], [ 42091.19999999999709, 5921014.799999999813735 ], [ 42091.125, 5921014.799999999813735 ], [ 42091.125, 5921014.950000000186265 ], [ 42091.05000000000291, 5921014.950000000186265 ], [ 42091.05000000000291, 5921015.025000000372529 ], [ 42090.974999999998545, 5921015.025000000372529 ], [ 42090.974999999998545, 5921015.099999999627471 ], [ 42090.900000000001455, 5921015.099999999627471 ], [ 42090.900000000001455, 5921015.174999999813735 ], [ 42090.82499999999709, 5921015.174999999813735 ], [ 42090.82499999999709, 5921015.325000000186265 ], [ 42090.75, 5921015.325000000186265 ], [ 42090.75, 5921015.400000000372529 ], [ 42090.67500000000291, 5921015.400000000372529 ], [ 42090.67500000000291, 5921015.474999999627471 ], [ 42090.599999999998545, 5921015.474999999627471 ], [ 42090.599999999998545, 5921015.549999999813735 ], [ 42090.525000000001455, 5921015.549999999813735 ], [ 42090.525000000001455, 5921015.700000000186265 ], [ 42090.44999999999709, 5921015.700000000186265 ], [ 42090.44999999999709, 5921015.775000000372529 ], [ 42090.375, 5921015.775000000372529 ], [ 42090.375, 5921015.849999999627471 ], [ 42090.224999999998545, 5921015.849999999627471 ], [ 42090.224999999998545, 5921015.924999999813735 ], [ 42090.150000000001455, 5921015.924999999813735 ], [ 42090.150000000001455, 5921016.0 ], [ 42090.07499999999709, 5921016.0 ], [ 42090.07499999999709, 5921016.075000000186265 ], [ 42089.92500000000291, 5921016.075000000186265 ], [ 42089.92500000000291, 5921016.150000000372529 ], [ 42089.849999999998545, 5921016.150000000372529 ], [ 42089.849999999998545, 5921016.224999999627471 ], [ 42089.69999999999709, 5921016.224999999627471 ], [ 42089.69999999999709, 5921016.299999999813735 ], [ 42089.625, 5921016.299999999813735 ], [ 42089.625, 5921016.375 ], [ 42089.474999999998545, 5921016.375 ], [ 42089.474999999998545, 5921016.450000000186265 ], [ 42089.32499999999709, 5921016.450000000186265 ], [ 42089.32499999999709, 5921016.525000000372529 ], [ 42089.17500000000291, 5921016.525000000372529 ], [ 42089.17500000000291, 5921016.599999999627471 ], [ 42089.099999999998545, 5921016.599999999627471 ], [ 42089.099999999998545, 5921016.674999999813735 ], [ 42088.94999999999709, 5921016.674999999813735 ], [ 42088.94999999999709, 5921016.75 ], [ 42088.80000000000291, 5921016.75 ], [ 42088.80000000000291, 5921016.825000000186265 ], [ 42088.650000000001455, 5921016.825000000186265 ], [ 42088.650000000001455, 5921016.900000000372529 ], [ 42088.5, 5921016.900000000372529 ], [ 42088.5, 5921016.974999999627471 ], [ 42088.349999999998545, 5921016.974999999627471 ], [ 42088.349999999998545, 5921017.049999999813735 ], [ 42088.19999999999709, 5921017.049999999813735 ], [ 42088.19999999999709, 5921017.125 ], [ 42088.125, 5921017.125 ], [ 42088.125, 5921017.200000000186265 ], [ 42088.05000000000291, 5921017.200000000186265 ], [ 42088.05000000000291, 5921017.275000000372529 ], [ 42087.900000000001455, 5921017.275000000372529 ], [ 42087.900000000001455, 5921017.349999999627471 ], [ 42087.82499999999709, 5921017.349999999627471 ], [ 42087.82499999999709, 5921017.5 ], [ 42087.75, 5921017.5 ], [ 42087.75, 5921017.575000000186265 ], [ 42087.67500000000291, 5921017.575000000186265 ], [ 42087.67500000000291, 5921017.650000000372529 ], [ 42087.599999999998545, 5921017.650000000372529 ], [ 42087.599999999998545, 5921017.724999999627471 ], [ 42087.525000000001455, 5921017.724999999627471 ], [ 42087.525000000001455, 5921017.799999999813735 ], [ 42087.44999999999709, 5921017.799999999813735 ], [ 42087.44999999999709, 5921017.875 ], [ 42087.30000000000291, 5921017.875 ], [ 42087.30000000000291, 5921017.950000000186265 ], [ 42087.224999999998545, 5921017.950000000186265 ], [ 42087.224999999998545, 5921018.025000000372529 ], [ 42087.150000000001455, 5921018.025000000372529 ], [ 42087.150000000001455, 5921018.099999999627471 ], [ 42087.0, 5921018.099999999627471 ], [ 42087.0, 5921018.174999999813735 ], [ 42086.849999999998545, 5921018.174999999813735 ], [ 42086.849999999998545, 5921018.25 ], [ 42086.69999999999709, 5921018.25 ], [ 42086.69999999999709, 5921018.325000000186265 ], [ 42086.55000000000291, 5921018.325000000186265 ], [ 42086.55000000000291, 5921018.400000000372529 ], [ 42086.400000000001455, 5921018.400000000372529 ], [ 42086.400000000001455, 5921018.474999999627471 ], [ 42085.724999999998545, 5921018.474999999627471 ], [ 42085.724999999998545, 5921018.549999999813735 ], [ 42084.900000000001455, 5921018.549999999813735 ], [ 42084.900000000001455, 5921018.625 ], [ 42081.07499999999709, 5921018.625 ], [ 42081.07499999999709, 5921018.700000000186265 ], [ 42076.125, 5921018.700000000186265 ], [ 42076.125, 5921018.775000000372529 ], [ 42074.55000000000291, 5921018.775000000372529 ], [ 42074.55000000000291, 5921018.849999999627471 ], [ 42073.875, 5921018.849999999627471 ], [ 42073.875, 5921018.924999999813735 ], [ 42073.275000000001455, 5921018.924999999813735 ], [ 42073.275000000001455, 5921019.0 ], [ 42072.67500000000291, 5921019.0 ], [ 42072.67500000000291, 5921019.075000000186265 ], [ 42072.375, 5921019.075000000186265 ], [ 42072.375, 5921019.150000000372529 ], [ 42072.150000000001455, 5921019.150000000372529 ], [ 42072.150000000001455, 5921019.224999999627471 ], [ 42071.92500000000291, 5921019.224999999627471 ], [ 42071.92500000000291, 5921019.299999999813735 ], [ 42071.69999999999709, 5921019.299999999813735 ], [ 42071.69999999999709, 5921019.375 ], [ 42071.474999999998545, 5921019.375 ], [ 42071.474999999998545, 5921019.450000000186265 ], [ 42071.32499999999709, 5921019.450000000186265 ], [ 42071.32499999999709, 5921019.525000000372529 ], [ 42071.17500000000291, 5921019.525000000372529 ], [ 42071.17500000000291, 5921019.599999999627471 ], [ 42070.94999999999709, 5921019.599999999627471 ], [ 42070.94999999999709, 5921019.674999999813735 ], [ 42070.80000000000291, 5921019.674999999813735 ], [ 42070.80000000000291, 5921019.75 ], [ 42070.57499999999709, 5921019.75 ] ] ] } },
{ "type": "Feature", "properties": { "value": 1.0, "building_id": 1, "area": 424.41749999793575 }, "geometry": { "type": "Polygon", "coordinates": [ [ [ 42029.474999999998545, 5921014.575000000186265 ], [ 42029.474999999998545, 5921014.5 ], [ 42028.724999999998545, 5921014.5 ], [ 42028.724999999998545, 5921014.424999999813735 ], [ 42028.05000000000291, 5921014.424999999813735 ], [ 42028.05000000000291, 5921014.349999999627471 ], [ 42027.599999999998545, 5921014.349999999627471 ], [ 42027.599999999998545, 5921014.275000000372529 ], [ 42027.375, 5921014.275000000372529 ], [ 42027.375, 5921014.200000000186265 ], [ 42027.150000000001455, 5921014.200000000186265 ], [ 42027.150000000001455, 5921014.125 ], [ 42027.0, 5921014.125 ], [ 42027.0, 5921014.049999999813735 ], [ 42026.775000000001455, 5921014.049999999813735 ], [ 42026.775000000001455, 5921013.974999999627471 ], [ 42026.625, 5921013.974999999627471 ], [ 42026.625, 5921013.900000000372529 ], [ 42026.474999999998545, 5921013.900000000372529 ], [ 42026.474999999998545, 5921013.825000000186265 ], [ 42026.32499999999709, 5921013.825000000186265 ], [ 42026.32499999999709, 5921013.75 ], [ 42026.25, 5921013.75 ], [ 42026.25, 5921013.674999999813735 ], [ 42026.099999999998545, 5921013.674999999813735 ], [ 42026.099999999998545, 5921013.599999999627471 ], [ 42026.025000000001455, 5921013.599999999627471 ], [ 42026.025000000001455, 5921013.525000000372529 ], [ 42025.875, 5921013.525000000372529 ], [ 42025.875, 5921013.450000000186265 ], [ 42025.724999999998545, 5921013.450000000186265 ], [ 42025.724999999998545, 5921013.375 ], [ 42025.57499999999709, 5921013.375 ], [ 42025.57499999999709, 5921013.299999999813735 ], [ 42025.349999999998545, 5921013.299999999813735 ], [ 42025.349999999998545, 5921013.224999999627471 ], [ 42025.19999999999709, 5921013.224999999627471 ], [ 42025.19999999999709, 5921013.150000000372529 ], [ 42024.974999999998545, 5921013.150000000372529 ], [ 42024.974999999998545, 5921013.075000000186265 ], [ 42024.75, 5921013.075000000186265 ], [ 42024.75, 5921013.0 ], [ 42024.525000000001455, 5921013.0 ], [ 42024.525000000001455, 5921012.924999999813735 ], [ 42024.30000000000291, 5921012.924999999813735 ], [ 42024.30000000000291, 5921012.849999999627471 ], [ 42024.0, 5921012.849999999627471 ], [ 42024.0, 5921012.775000000372529 ], [ 42023.775000000001455, 5921012.775000000372529 ], [ 42023.775000000001455, 5921012.700000000186265 ], [ 42023.625, 5921012.700000000186265 ], [ 42023.625, 5921012.625 ], [ 42023.400000000001455, 5921012.625 ], [ 42023.400000000001455, 5921012.549999999813735 ], [ 42023.32499999999709, 5921012.549999999813735 ], [ 42023.32499999999709, 5921012.474999999627471 ], [ 42023.17500000000291, 5921012.474999999627471 ], [ 42023.17500000000291, 5921012.400000000372529 ], [ 42023.025000000001455, 5921012.400000000372529 ], [ 42023.025000000001455, 5921012.325000000186265 ], [ 42022.94999999999709, 5921012.325000000186265 ], [ 42022.94999999999709, 5921012.25 ], [ 42022.80000000000291, 5921012.25 ], [ 42022.80000000000291, 5921012.174999999813735 ], [ 42022.724999999998545, 5921012.174999999813735 ], [ 42022.724999999998545, 5921012.099999999627471 ], [ 42022.650000000001455, 5921012.099999999627471 ], [ 42022.650000000001455, 5921012.025000000372529 ], [ 42022.57499999999709, 5921012.025000000372529 ], [ 42022.57499999999709, 5921011.950000000186265 ], [ 42022.5, 5921011.950000000186265 ], [ 42022.5, 5921011.875 ], [ 42022.42500000000291, 5921011.875 ], [ 42022.42500000000291, 5921011.799999999813735 ], [ 42022.349999999998545, 5921011.799999999813735 ], [ 42022.349999999998545, 5921011.724999999627471 ], [ 42022.275000000001455, 5921011.724999999627471 ], [ 42022.275000000001455, 5921011.650000000372529 ], [ 42022.19999999999709, 5921011.650000000372529 ], [ 42022.19999999999709, 5921011.349999999627471 ], [ 42022.125, 5921011.349999999627471 ], [ 42022.125, 5921010.900000000372529 ], [ 42022.05000000000291, 5921010.900000000372529 ], [ 42022.05000000000291, 5921010.525000000372529 ], [ 42021.974999999998545, 5921010.525000000372529 ], [ 42021.974999999998545, 5921010.075000000186265 ], [ 42021.900000000001455, 5921010.075000000186265 ], [ 42021.900000000001455, 5921009.700000000186265 ], [ 42021.82499999999709, 5921009.700000000186265 ], [ 42021.82499999999709, 5921009.25 ], [ 42021.75, 5921009.25 ], [ 42021.75, 5921008.799999999813735 ], [ 42021.67500000000291, 5921008.799999999813735 ], [ 42021.67500000000291, 5921008.200000000186265 ], [ 42021.599999999998545, 5921008.200000000186265 ], [ 42021.599999999998545, 5921007.674999999813735 ], [ 42021.525000000001455, 5921007.674999999813735 ], [ 42021.525000000001455, 5921007.0 ], [ 42021.44999999999709, 5921007.0 ], [ 42021.44999999999709, 5921006.174999999813735 ], [ 42021.375, 5921006.174999999813735 ], [ 42021.375, 5921004.150000000372529 ], [ 42021.30000000000291, 5921004.150000000372529 ], [ 42021.30000000000291, 5921003.625 ], [ 42021.375, 5921003.625 ], [ 42021.375, 5921001.674999999813735 ], [ 42021.44999999999709, 5921001.674999999813735 ], [ 42021.44999999999709, 5920999.950000000186265 ], [ 42021.525000000001455, 5920999.950000000186265 ], [ 42021.525000000001455, 5920998.299999999813735 ], [ 42021.599999999998545, 5920998.299999999813735 ], [ 42021.599999999998545, 5920997.849999999627471 ], [ 42021.67500000000291, 5920997.849999999627471 ], [ 42021.67500000000291, 5920997.775000000372529 ], [ 42021.75, 5920997.775000000372529 ], [ 42021.75, 5920997.625 ], [ 42021.82499999999709, 5920997.625 ], [ 42021.82499999999709, 5920997.549999999813735 ], [ 42021.900000000001455, 5920997.549999999813735 ], [ 42021.900000000001455, 5920997.474999999627471 ], [ 42021.974999999998545, 5920997.474999999627471 ], [ 42021.974999999998545, 5920997.400000000372529 ], [ 42022.05000000000291, 5920997.400000000372529 ], [ 42022.05000000000291, 5920997.325000000186265 ], [ 42022.125, 5920997.325000000186265 ], [ 42022.125, 5920997.25 ], [ 42022.19999999999709, 5920997.25 ], [ 42022.19999999999709, 5920997.174999999813735 ], [ 42022.275000000001455, 5920997.174999999813735 ], [ 42022.275000000001455, 5920997.099999999627471 ], [ 42022.349999999998545, 5920997.099999999627471 ], [ 42022.349999999998545, 5920997.025000000372529 ], [ 42022.42500000000291, 5920997.025000000372529 ], [ 42022.42500000000291, 5920996.950000000186265 ], [ 42022.5, 5920996.950000000186265 ], [ 42022.5, 5920996.875 ], [ 42022.57499999999709, 5920996.875 ], [ 42022.57499999999709, 5920996.799999999813735 ], [ 42022.650000000001455, 5920996.799999999813735 ], [ 42022.650000000001455, 5920996.650000000372529 ], [ 42022.724999999998545, 5920996.650000000372529 ], [ 42022.724999999998545, 5920996.575000000186265 ], [ 42022.80000000000291, 5920996.575000000186265 ], [ 42022.80000000000291, 5920996.5 ], [ 42022.875, 5920996.5 ], [ 42022.875, 5920996.349999999627471 ], [ 42022.94999999999709, 5920996.349999999627471 ], [ 42022.94999999999709, 5920996.275000000372529 ], [ 42023.025000000001455, 5920996.275000000372529 ], [ 42023.025000000001455, 5920996.125 ], [ 42023.099999999998545, 5920996.125 ], [ 42023.099999999998545, 5920995.974999999627471 ], [ 42023.17500000000291, 5920995.974999999627471 ], [ 42023.17500000000291, 5920995.900000000372529 ], [ 42023.25, 5920995.900000000372529 ], [ 42023.25, 5920995.825000000186265 ], [ 42023.32499999999709, 5920995.825000000186265 ], [ 42023.32499999999709, 5920995.75 ], [ 42023.474999999998545, 5920995.75 ], [ 42023.474999999998545, 5920995.674999999813735 ], [ 42023.55000000000291, 5920995.674999999813735 ], [ 42023.55000000000291, 5920995.599999999627471 ], [ 42023.625, 5920995.599999999627471 ], [ 42023.625, 5920995.525000000372529 ], [ 42023.775000000001455, 5920995.525000000372529 ], [ 42023.775000000001455, 5920995.450000000186265 ], [ 42029.775000000001455, 5920995.450000000186265 ], [ 42029.775000000001455, 5920995.525000000372529 ], [ 42030.82499999999709, 5920995.525000000372529 ], [ 42030.82499999999709, 5920995.599999999627471 ], [ 42031.650000000001455, 5920995.599999999627471 ], [ 42031.650000000001455, 5920995.674999999813735 ], [ 42031.875, 5920995.674999999813735 ], [ 42031.875, 5920995.75 ], [ 42032.099999999998545, 5920995.75 ], [ 42032.099999999998545, 5920995.825000000186265 ], [ 42032.32499999999709, 5920995.825000000186265 ], [ 42032.32499999999709, 5920995.900000000372529 ], [ 42032.474999999998545, 5920995.900000000372529 ], [ 42032.474999999998545, 5920995.974999999627471 ], [ 42032.625, 5920995.974999999627471 ], [ 42032.625, 5920996.049999999813735 ], [ 42032.775000000001455, 5920996.049999999813735 ], [ 42032.775000000001455, 5920996.125 ], [ 42032.92500000000291, 5920996.125 ], [ 42032.92500000000291, 5920996.200000000186265 ], [ 42033.150000000001455, 5920996.200000000186265 ], [ 42033.150000000001455, 5920996.275000000372529 ], [ 42033.30000000000291, 5920996.275000000372529 ], [ 42033.30000000000291, 5920996.349999999627471 ], [ 42033.525000000001455, 5920996.349999999627471 ], [ 42033.525000000001455, 5920996.424999999813735 ], [ 42033.67500000000291, 5920996.424999999813735 ], [ 42033.67500000000291, 5920996.5 ], [ 42033.900000000001455, 5920996.5 ], [ 42033.900000000001455, 5920996.575000000186265 ], [ 42034.125, 5920996.575000000186265 ], [ 42034.125, 5920996.650000000372529 ], [ 42034.349999999998545, 5920996.650000000372529 ], [ 42034.349999999998545, 5920996.724999999627471 ], [ 42034.650000000001455, 5920996.724999999627471 ], [ 42034.650000000001455, 5920996.799999999813735 ], [ 42034.94999999999709, 5920996.799999999813735 ], [ 42034.94999999999709, 5920996.875 ], [ 42035.25, 5920996.875 ], [ 42035.25, 5920996.950000000186265 ], [ 42035.625, 5920996.950000000186265 ], [ 42035.625, 5920997.025000000372529 ], [ 42036.224999999998545, 5920997.025000000372529 ], [ 42036.224999999998545, 5920997.099999999627471 ], [ 42036.75, 5920997.099999999627471 ], [ 42036.75, 5920997.174999999813735 ], [ 42037.349999999998545, 5920997.174999999813735 ], [ 42037.349999999998545, 5920997.25 ], [ 42037.80000000000291, 5920997.25 ], [ 42037.80000000000291, 5920997.325000000186265 ], [ 42038.17500000000291, 5920997.325000000186265 ], [ 42038.17500000000291, 5920997.400000000372529 ], [ 42038.474999999998545, 5920997.400000000372529 ], [ 42038.474999999998545, 5920997.474999999627471 ], [ 42038.849999999998545, 5920997.474999999627471 ], [ 42038.849999999998545, 5920997.549999999813735 ], [ 42039.07499999999709, 5920997.549999999813735 ], [ 42039.07499999999709, 5920997.625 ], [ 42039.375, 5920997.625 ], [ 42039.375, 5920997.700000000186265 ], [ 42039.82499999999709, 5920997.700000000186265 ], [ 42039.82499999999709, 5920997.775000000372529 ], [ 42040.275000000001455, 5920997.775000000372529 ], [ 42040.275000000001455, 5920997.849999999627471 ], [ 42040.724999999998545, 5920997.849999999627471 ], [ 42040.724999999998545, 5920997.924999999813735 ], [ 42041.17500000000291, 5920997.924999999813735 ], [ 42041.17500000000291, 5920998.0 ], [ 42041.625, 5920998.0 ], [ 42041.625, 5920998.075000000186265 ], [ 42042.150000000001455, 5920998.075000000186265 ], [ 42042.150000000001455, 5920998.150000000372529 ], [ 42042.67500000000291, 5920998.150000000372529 ], [ 42042.67500000000291, 5920998.224999999627471 ], [ 42043.19999999999709, 5920998.224999999627471 ], [ 42043.19999999999709, 5920998.299999999813735 ], [ 42043.80000000000291, 5920998.299999999813735 ], [ 42043.80000000000291, 5920998.375 ], [ 42044.400000000001455, 5920998.375 ], [ 42044.400000000001455, 5920998.450000000186265 ], [ 42045.0, 5920998.450000000186265 ], [ 42045.0, 5920998.525000000372529 ], [ 42045.375, 5920998.525000000372529 ], [ 42045.375, 5920998.599999999627471 ], [ 42045.525000000001455, 5920998.599999999627471 ], [ 42045.525000000001455, 5920998.674999999813735 ], [ 42045.67500000000291, 5920998.674999999813735 ], [ 42045.67500000000291, 5920998.75 ], [ 42045.82499999999709, 5920998.75 ], [ 42045.82499999999709, 5920998.825000000186265 ], [ 42045.974999999998545, 5920998.825000000186265 ], [ 42045.974999999998545, 5920998.900000000372529 ], [ 42046.125, 5920998.900000000372529 ], [ 42046.125, 5920998.974999999627471 ], [ 42046.19999999999709, 5920998.974999999627471 ], [ 42046.19999999999709, 5920999.049999999813735 ], [ 42046.349999999998545, 5920999.049999999813735 ], [ 42046.349999999998545, 5920999.125 ], [ 42046.42500000000291, 5920999.125 ], [ 42046.42500000000291, 5920999.200000000186265 ], [ 42046.5, 5920999.200000000186265 ], [ 42046.5, 5920999.275000000372529 ], [ 42046.650000000001455, 5920999.275000000372529 ], [ 42046.650000000001455, 5920999.349999999627471 ], [ 42046.724999999998545, 5920999.349999999627471 ], [ 42046.724999999998545, 5920999.424999999813735 ], [ 42046.80000000000291, 5920999.424999999813735 ], [ 42046.80000000000291, 5920999.5 ], [ 42046.875, 5920999.5 ], [ 42046.875, 5920999.575000000186265 ], [ 42046.94999999999709, 5920999.575000000186265 ], [ 42046.94999999999709, 5920999.650000000372529 ], [ 42047.025000000001455, 5920999.650000000372529 ], [ 42047.025000000001455, 5920999.799999999813735 ], [ 42047.099999999998545, 5920999.799999999813735 ], [ 42047.099999999998545, 5920999.875 ], [ 42047.17500000000291, 5920999.875 ], [ 42047.17500000000291, 5920999.950000000186265 ], [ 42047.25, 5920999.950000000186265 ], [ 42047.25, 5921000.025000000372529 ], [ 42047.400000000001455, 5921000.025000000372529 ], [ 42047.400000000001455, 5921000.099999999627471 ], [ 42047.474999999998545, 5921000.099999999627471 ], [ 42047.474999999998545, 5921000.174999999813735 ], [ 42047.625, 5921000.174999999813735 ], [ 42047.625, 5921000.25 ], [ 42047.69999999999709, 5921000.25 ], [ 42047.69999999999709, 5921000.325000000186265 ], [ 42047.849999999998545, 5921000.325000000186265 ], [ 42047.849999999998545, 5921000.400000000372529 ], [ 42047.92500000000291, 5921000.400000000372529 ], [ 42047.92500000000291, 5921000.474999999627471 ], [ 42048.0, 5921000.474999999627471 ], [ 42048.0, 5921000.549999999813735 ], [ 42048.07499999999709, 5921000.549999999813735 ], [ 42048.07499999999709, 5921000.625 ], [ 42048.150000000001455, 5921000.625 ], [ 42048.150000000001455, 5921000.700000000186265 ], [ 42048.224999999998545, 5921000.700000000186265 ], [ 42048.224999999998545, 5921000.775000000372529 ], [ 42048.30000000000291, 5921000.775000000372529 ], [ 42048.30000000000291, 5921000.924999999813735 ], [ 42048.375, 5921000.924999999813735 ], [ 42048.375, 5921001.0 ], [ 42048.44999999999709, 5921001.0 ], [ 42048.44999999999709, 5921001.150000000372529 ], [ 42048.525000000001455, 5921001.150000000372529 ], [ 42048.525000000001455, 5921001.900000000372529 ], [ 42048.44999999999709, 5921001.900000000372529 ], [ 42048.44999999999709, 5921002.200000000186265 ], [ 42048.375, 5921002.200000000186265 ], [ 42048.375, 5921002.5 ], [ 42048.30000000000291, 5921002.5 ], [ 42048.30000000000291, 5921002.875 ], [ 42048.224999999998545, 5921002.875 ], [ 42048.224999999998545, 5921003.325000000186265 ], [ 42048.150000000001455, 5921003.325000000186265 ], [ 42048.150000000001455, 5921003.849999999627471 ], [ 42048.07499999999709, 5921003.849999999627471 ], [ 42048.07499999999709, 5921004.450000000186265 ], [ 42048.0, 5921004.450000000186265 ], [ 42048.0, 5921004.974999999627471 ], [ 42047.92500000000291, 5921004.974999999627471 ], [ 42047.92500000000291, 5921005.5 ], [ 42047.849999999998545, 5921005.5 ], [ 42047.849999999998545, 5921006.099999999627471 ], [ 42047.775000000001455, 5921006.099999999627471 ], [ 42047.775000000001455, 5921006.700000000186265 ], [ 42047.69999999999709, 5921006.700000000186265 ], [ 42047.69999999999709, 5921007.224999999627471 ], [ 42047.625, 5921007.224999999627471 ], [ 42047.625, 5921007.75 ], [ 42047.55000000000291, 5921007.75 ], [ 42047.55000000000291, 5921008.349999999627471 ], [ 42047.474999999998545, 5921008.349999999627471 ], [ 42047.474999999998545, 5921008.875 ], [ 42047.400000000001455, 5921008.875 ], [ 42047.400000000001455, 5921009.400000000372529 ], [ 42047.32499999999709, 5921009.400000000372529 ], [ 42047.32499999999709, 5921009.924999999813735 ], [ 42047.25, 5921009.924999999813735 ], [ 42047.25, 5921010.299999999813735 ], [ 42047.17500000000291, 5921010.299999999813735 ], [ 42047.17500000000291, 5921010.674999999813735 ], [ 42047.099999999998545, 5921010.674999999813735 ], [ 42047.099999999998545, 5921010.974999999627471 ], [ 42047.025000000001455, 5921010.974999999627471 ], [ 42047.025000000001455, 5921011.275000000372529 ], [ 42046.94999999999709, 5921011.275000000372529 ], [ 42046.94999999999709, 5921011.575000000186265 ], [ 42046.875, 5921011.575000000186265 ], [ 42046.875, 5921011.650000000372529 ], [ 42046.80000000000291, 5921011.650000000372529 ], [ 42046.80000000000291, 5921011.724999999627471 ], [ 42046.724999999998545, 5921011.724999999627471 ], [ 42046.724999999998545, 5921011.799999999813735 ], [ 42046.650000000001455, 5921011.799999999813735 ], [ 42046.650000000001455, 5921011.875 ], [ 42046.5, 5921011.875 ], [ 42046.5, 5921011.950000000186265 ], [ 42046.42500000000291, 5921011.950000000186265 ], [ 42046.42500000000291, 5921012.025000000372529 ], [ 42046.275000000001455, 5921012.025000000372529 ], [ 42046.275000000001455, 5921012.099999999627471 ], [ 42046.19999999999709, 5921012.099999999627471 ], [ 42046.19999999999709, 5921012.174999999813735 ], [ 42046.05000000000291, 5921012.174999999813735 ], [ 42046.05000000000291, 5921012.25 ], [ 42045.974999999998545, 5921012.25 ], [ 42045.974999999998545, 5921012.325000000186265 ], [ 42045.82499999999709, 5921012.325000000186265 ], [ 42045.82499999999709, 5921012.400000000372529 ], [ 42045.67500000000291, 5921012.400000000372529 ], [ 42045.67500000000291, 5921012.474999999627471 ], [ 42045.599999999998545, 5921012.474999999627471 ], [ 42045.599999999998545, 5921012.549999999813735 ], [ 42045.44999999999709, 5921012.549999999813735 ], [ 42045.44999999999709, 5921012.625 ], [ 42045.30000000000291, 5921012.625 ], [ 42045.30000000000291, 5921012.700000000186265 ], [ 42045.07499999999709, 5921012.700000000186265 ], [ 42045.07499999999709, 5921012.775000000372529 ], [ 42044.849999999998545, 5921012.775000000372529 ], [ 42044.849999999998545, 5921012.849999999627471 ], [ 42044.625, 5921012.849999999627471 ], [ 42044.625, 5921012.924999999813735 ], [ 42044.400000000001455, 5921012.924999999813735 ], [ 42044.400000000001455, 5921013.0 ], [ 42044.17500000000291, 5921013.0 ], [ 42044.17500000000291, 5921013.075000000186265 ], [ 42043.875, 5921013.075000000186265 ], [ 42043.875, 5921013.150000000372529 ], [ 42043.650000000001455, 5921013.150000000372529 ], [ 42043.650000000001455, 5921013.224999999627471 ], [ 42043.42500000000291, 5921013.224999999627471 ], [ 42043.42500000000291, 5921013.299999999813735 ], [ 42042.900000000001455, 5921013.299999999813735 ], [ 42042.900000000001455, 5921013.375 ], [ 42042.525000000001455, 5921013.375 ], [ 42042.525000000001455, 5921013.299999999813735 ], [ 42042.30000000000291, 5921013.299999999813735 ], [ 42042.30000000000291, 5921013.224999999627471 ], [ 42042.07499999999709, 5921013.224999999627471 ], [ 42042.07499999999709, 5921013.150000000372529 ], [ 42041.849999999998545, 5921013.150000000372529 ], [ 42041.849999999998545, 5921013.075000000186265 ], [ 42041.625, 5921013.075000000186265 ], [ 42041.625, 5921013.0 ], [ 42041.400000000001455, 5921013.0 ], [ 42041.400000000001455, 5921012.924999999813735 ], [ 42041.17500000000291, 5921012.924999999813735 ], [ 42041.17500000000291, 5921012.849999999627471 ], [ 42041.025000000001455, 5921012.849999999627471 ], [ 42041.025000000001455, 5921012.775000000372529 ], [ 42040.80000000000291, 5921012.775000000372529 ], [ 42040.80000000000291, 5921012.700000000186265 ], [ 42040.650000000001455, 5921012.700000000186265 ], [ 42040.650000000001455, 5921012.625 ], [ 42040.5, 5921012.625 ], [ 42040.5, 5921012.549999999813735 ], [ 42040.349999999998545, 5921012.549999999813735 ], [ 42040.349999999998545, 5921012.474999999627471 ], [ 42040.125, 5921012.474999999627471 ], [ 42040.125, 5921012.400000000372529 ], [ 42039.974999999998545, 5921012.400000000372529 ], [ 42039.974999999998545, 5921012.325000000186265 ], [ 42039.82499999999709, 5921012.325000000186265 ], [ 42039.82499999999709, 5921012.25 ], [ 42039.67500000000291, 5921012.25 ], [ 42039.67500000000291, 5921012.174999999813735 ], [ 42039.525000000001455, 5921012.174999999813735 ], [ 42039.525000000001455, 5921012.099999999627471 ], [ 42038.849999999998545, 5921012.099999999627471 ], [ 42038.849999999998545, 5921012.174999999813735 ], [ 42037.5, 5921012.174999999813735 ], [ 42037.5, 5921012.25 ], [ 42037.19999999999709, 5921012.25 ], [ 42037.19999999999709, 5921012.325000000186265 ], [ 42036.974999999998545, 5921012.325000000186265 ], [ 42036.974999999998545, 5921012.400000000372529 ], [ 42036.67500000000291, 5921012.400000000372529 ], [ 42036.67500000000291, 5921012.474999999627471 ], [ 42036.375, 5921012.474999999627471 ], [ 42036.375, 5921012.549999999813735 ], [ 42036.07499999999709, 5921012.549999999813735 ], [ 42036.07499999999709, 5921012.625 ], [ 42035.775000000001455, 5921012.625 ], [ 42035.775000000001455, 5921012.700000000186265 ], [ 42035.474999999998545, 5921012.700000000186265 ], [ 42035.474999999998545, 5921012.775000000372529 ], [ 42035.32499999999709, 5921012.775000000372529 ], [ 42035.32499999999709, 5921012.849999999627471 ], [ 42035.099999999998545, 5921012.849999999627471 ], [ 42035.099999999998545, 5921012.924999999813735 ], [ 42034.94999999999709, 5921012.924999999813735 ], [ 42034.94999999999709, 5921013.0 ], [ 42034.80000000000291, 5921013.0 ], [ 42034.80000000000291, 5921013.075000000186265 ], [ 42034.650000000001455, 5921013.075000000186265 ], [ 42034.650000000001455, 5921013.150000000372529 ], [ 42034.5, 5921013.150000000372529 ], [ 42034.5, 5921013.224999999627471 ], [ 42034.349999999998545, 5921013.224999999627471 ], [ 42034.349999999998545, 5921013.299999999813735 ], [ 42034.275000000001455, 5921013.299999999813735 ], [ 42034.275000000001455, 5921013.375 ], [ 42034.125, 5921013.375 ], [ 42034.125, 5921013.450000000186265 ], [ 42034.05000000000291, 5921013.450000000186265 ], [ 42034.05000000000291, 5921013.525000000372529 ], [ 42033.900000000001455, 5921013.525000000372529 ], [ 42033.900000000001455, 5921013.599999999627471 ], [ 42033.82499999999709, 5921013.599999999627471 ], [ 42033.82499999999709, 5921013.674999999813735 ], [ 42033.75, 5921013.674999999813735 ], [ 42033.75, 5921013.75 ], [ 42033.67500000000291, 5921013.75 ], [ 42033.67500000000291, 5921013.825000000186265 ], [ 42033.599999999998545, 5921013.825000000186265 ], [ 42033.599999999998545, 5921013.900000000372529 ], [ 42033.44999999999709, 5921013.900000000372529 ], [ 42033.44999999999709, 5921013.974999999627471 ], [ 42033.224999999998545, 5921013.974999999627471 ], [ 42033.224999999998545, 5921014.049999999813735 ], [ 42033.07499999999709, 5921014.049999999813735 ], [ 42033.07499999999709, 5921014.125 ], [ 42032.849999999998545, 5921014.125 ], [ 42032.849999999998545, 5921014.200000000186265 ], [ 42032.625, 5921014.200000000186265 ], [ 42032.625, 5921014.275000000372529 ], [ 42032.400000000001455, 5921014.275000000372529 ], [ 42032.400000000001455, 5921014.349999999627471 ], [ 42032.099999999998545, 5921014.349999999627471 ], [ 42032.099999999998545, 5921014.424999999813735 ], [ 42031.80000000000291, 5921014.424999999813735 ], [ 42031.80000000000291, 5921014.5 ], [ 42030.525000000001455, 5921014.5 ], [ 42030.525000000001455, 5921014.575000000186265 ], [ 42029.474999999998545, 5921014.575000000186265 ] ] ] } }
]
}
