{
"type": "FeatureCollection",
"name": "41433E591582N_buildings",
"crs": { "type": "name", "properties": { "name": "urn:ogc:def:crs:EPSG::3776" } },
"features": [
{ "type": "Feature", "properties": { "value": 1.0, "building_id": 0, "area": 71.043749999458129 }, "geometry": { "type": "Polygon", "coordinates": [ [ [ 42087.82499999999709, 5916579.0 ], [ 42087.82499999999709, 5916576.0 ], [ 42087.900000000001455, 5916576.0 ], [ 42087.900000000001455, 5916575.924999999813735 ], [ 42087.974999999998545, 5916575.924999999813735 ], [ 42087.974999999998545, 5916575.775000000372529 ], [ 42088.05000000000291, 5916575.775000000372529 ], [ 42088.05000000000291, 5916575.700000000186265 ], [ 42088.125, 5916575.700000000186265 ], [ 42088.125, 5916575.625 ], [ 42088.19999999999709, 5916575.625 ], [ 42088.19999999999709, 5916575.549999999813735 ], [ 42088.275000000001455, 5916575.549999999813735 ], [ 42088.275000000001455, 5916575.474999999627471 ], [ 42088.349999999998545, 5916575.474999999627471 ], [ 42088.349999999998545, 5916575.400000000372529 ], [ 42088.42500000000291, 5916575.400000000372529 ], [ 42088.42500000000291, 5916575.325000000186265 ], [ 42088.5, 5916575.325000000186265 ], [ 42088.5, 5916575.25 ], [ 42088.57499999999709, 5916575.25 ], [ 42088.57499999999709, 5916575.174999999813735 ], [ 42088.650000000001455, 5916575.174999999813735 ], [ 42088.650000000001455, 5916575.099999999627471 ], [ 42088.724999999998545, 5916575.099999999627471 ], [ 42088.724999999998545, 5916574.950000000186265 ], [ 42088.80000000000291, 5916574.950000000186265 ], [ 42088.80000000000291, 5916574.875 ], [ 42088.875, 5916574.875 ], [ 42088.875, 5916574.724999999627471 ], [ 42088.94999999999709, 5916574.724999999627471 ], [ 42088.94999999999709, 5916574.650000000372529 ], [ 42089.025000000001455, 5916574.650000000372529 ], [ 42089.025000000001455, 5916574.5 ], [ 42089.099999999998545, 5916574.5 ], [ 42089.099999999998545, 5916574.275000000372529 ], [ 42089.17500000000291, 5916574.275000000372529 ], [ 42089.17500000000291, 5916574.125 ], [ 42089.25, 5916574.125 ], [ 42089.25, 5916573.974999999627471 ], [ 42089.32499999999709, 5916573.974999999627471 ], [ 42089.32499999999709, 5916573.825000000186265 ], [ 42089.400000000001455, 5916573.825000000186265 ], [ 42089.400000000001455, 5916573.674999999813735 ], [ 42089.474999999998545, 5916573.674999999813735 ], [ 42089.474999999998545, 5916573.599999999627471 ], [ 42089.55000000000291, 5916573.599999999627471 ], [ 42089.55000000000291, 5916573.525000000372529 ], [ 42089.625, 5916573.525000000372529 ], [ 42089.625, 5916573.375 ], [ 42089.69999999999709, 5916573.375 ], [ 42089.69999999999709, 5916573.299999999813735 ], [ 42089.775000000001455, 5916573.299999999813735 ], [ 42089.775000000001455, 5916573.224999999627471 ], [ 42089.849999999998545, 5916573.224999999627471 ], [ 42089.849999999998545, 5916573.150000000372529 ], [ 42089.92500000000291, 5916573.150000000372529 ], [ 42089.92500000000291, 5916573.075000000186265 ], [ 42090.0, 5916573.075000000186265 ], [ 42090.0, 5916573.0 ], [ 42090.07499999999709, 5916573.0 ], [ 42090.07499999999709, 5916572.924999999813735 ], [ 42090.224999999998545, 5916572.924999999813735 ], [ 42090.224999999998545, 5916572.849999999627471 ], [ 42090.30000000000291, 5916572.849999999627471 ], [ 42090.30000000000291, 5916572.775000000372529 ], [ 42090.375, 5916572.775000000372529 ], [ 42090.375, 5916572.700000000186265 ], [ 42090.525000000001455, 5916572.700000000186265 ], [ 42090.525000000001455, 5916572.625 ], [ 42090.599999999998545, 5916572.625 ], [ 42090.599999999998545, 5916572.549999999813735 ], [ 42090.67500000000291, 5916572.549999999813735 ], [ 42090.67500000000291, 5916572.474999999627471 ], [ 42090.75, 5916572.474999999627471 ], [ 42090.75, 5916572.400000000372529 ], [ 42090.82499999999709, 5916572.400000000372529 ], [ 42090.82499999999709, 5916572.325000000186265 ], [ 42090.900000000001455, 5916572.325000000186265 ], [ 42090.900000000001455, 5916572.174999999813735 ], [ 42090.974999999998545, 5916572.174999999813735 ], [ 42090.974999999998545, 5916572.099999999627471 ], [ 42091.05000000000291, 5916572.099999999627471 ], [ 42091.05000000000291, 5916572.025000000372529 ], [ 42091.125, 5916572.025000000372529 ], [ 42091.125, 5916571.950000000186265 ], [ 42091.19999999999709, 5916571.950000000186265 ], [ 42091.19999999999709, 5916571.875 ], [ 42091.275000000001455, 5916571.875 ], [ 42091.275000000001455, 5916571.799999999813735 ], [ 42091.349999999998545, 5916571.799999999813735 ], [ 42091.349999999998545, 5916571.724999999627471 ], [ 42091.42500000000291, 5916571.724999999627471 ], [ 42091.42500000000291, 5916571.650000000372529 ], [ 42091.57499999999709, 5916571.650000000372529 ], [ 42091.57499999999709, 5916571.575000000186265 ], [ 42091.650000000001455, 5916571.575000000186265 ], [ 42091.650000000001455, 5916571.5 ], [ 42091.80000000000291, 5916571.5 ], [ 42091.80000000000291, 5916571.424999999813735 ], [ 42091.94999999999709, 5916571.424999999813735 ], [ 42091.94999999999709, 5916571.349999999627471 ], [ 42092.099999999998545, 5916571.349999999627471 ], [ 42092.099999999998545, 5916571.275000000372529 ], [ 42093.224999999998545, 5916571.275000000372529 ], [ 42093.224999999998545, 5916571.200000000186265 ], [ 42094.275000000001455, 5916571.200000000186265 ], [ 42094.275000000001455, 5916571.275000000372529 ], [ 42094.57499999999709, 5916571.275000000372529 ], [ 42094.57499999999709, 5916571.349999999627471 ], [ 42094.94999999999709, 5916571.349999999627471 ], [ 42094.94999999999709, 5916571.424999999813735 ], [ 42095.25, 5916571.424999999813735 ], [ 42095.25, 5916571.5 ], [ 42095.55000000000291, 5916571.5 ], [ 42095.55000000000291, 5916571.575000000186265 ], [ 42095.775000000001455, 5916571.575000000186265 ], [ 42095.775000000001455, 5916571.650000000372529 ], [ 42096.0, 5916571.650000000372529 ], [ 42096.0, 5916571.724999999627471 ], [ 42096.150000000001455, 5916571.724999999627471 ], [ 42096.150000000001455, 5916571.799999999813735 ], [ 42096.224999999998545, 5916571.799999999813735 ], [ 42096.224999999998545, 5916571.875 ], [ 42096.30000000000291, 5916571.875 ], [ 42096.30000000000291, 5916571.950000000186265 ], [ 42096.375, 5916571.950000000186265 ], [ 42096.375, 5916572.025000000372529 ], [ 42096.44999999999709, 5916572.025000000372529 ], [ 42096.44999999999709, 5916572.099999999627471 ], [ 42096.525000000001455, 5916572.099999999627471 ], [ 42096.525000000001455, 5916572.174999999813735 ], [ 42096.599999999998545, 5916572.174999999813735 ], [ 42096.599999999998545, 5916572.25 ], [ 42096.67500000000291, 5916572.25 ], [ 42096.67500000000291, 5916572.400000000372529 ], [ 42096.75, 5916572.400000000372529 ], [ 42096.75, 5916572.474999999627471 ], [ 42096.82499999999709, 5916572.474999999627471 ], [ 42096.82499999999709, 5916572.549999999813735 ], [ 42096.900000000001455, 5916572.549999999813735 ], [ 42096.900000000001455, 5916572.700000000186265 ], [ 42096.974999999998545, 5916572.700000000186265 ], [ 42096.974999999998545, 5916572.775000000372529 ], [ 42097.05000000000291, 5916572.775000000372529 ], [ 42097.05000000000291, 5916572.849999999627471 ], [ 42097.125, 5916572.849999999627471 ], [ 42097.125, 5916572.924999999813735 ], [ 42097.19999999999709, 5916572.924999999813735 ], [ 42097.19999999999709, 5916573.0 ], [ 42097.275000000001455, 5916573.0 ], [ 42097.275000000001455, 5916573.075000000186265 ], [ 42097.42500000000291, 5916573.075000000186265 ], [ 42097.42500000000291, 5916573.150000000372529 ], [ 42097.5, 5916573.150000000372529 ], [ 42097.5, 5916573.224999999627471 ], [ 42097.57499999999709, 5916573.224999999627471 ], [ 42097.57499999999709, 5916573.299999999813735 ], [ 42097.724999999998545, 5916573.299999999813735 ], [ 42097.724999999998545, 5916573.375 ], [ 42097.80000000000291, 5916573.375 ], [ 42097.80000000000291, 5916573.450000000186265 ], [ 42097.94999999999709, 5916573.450000000186265 ], [ 42097.94999999999709, 5916573.525000000372529 ], [ 42098.099999999998545, 5916573.525000000372529 ], [ 42098.099999999998545, 5916573.599999999627471 ], [ 42098.17500000000291, 5916573.599999999627471 ], [ 42098.17500000000291, 5916573.674999999813735 ], [ 42098.25, 5916573.674999999813735 ], [ 42098.25, 5916573.75 ], [ 42098.32499999999709, 5916573.75 ], [ 42098.32499999999709, 5916573.825000000186265 ], [ 42098.400000000001455, 5916573.825000000186265 ], [ 42098.400000000001455, 5916573.900000000372529 ], [ 42098.474999999998545, 5916573.900000000372529 ], [ 42098.474999999998545, 5916573.974999999627471 ], [ 42098.55000000000291, 5916573.974999999627471 ], [ 42098.55000000000291, 5916574.049999999813735 ], [ 42098.625, 5916574.049999999813735 ], [ 42098.625, 5916574.424999999813735 ], [ 42098.69999999999709, 5916574.424999999813735 ], [ 42098.69999999999709, 5916574.875 ], [ 42098.775000000001455, 5916574.875 ], [ 42098.775000000001455, 5916575.400000000372529 ], [ 42098.849999999998545, 5916575.400000000372529 ], [ 42098.849999999998545, 5916575.924999999813735 ], [ 42098.92500000000291, 5916575.924999999813735 ], [ 42098.92500000000291, 5916579.0 ], [ 42087.82499999999709, 5916579.0 ] ] ] } },
{ "type": "Feature", "properties": { "value": 1.0, "building_id": 1, "area": 212.59687499944573 }, "geometry": { "type": "Polygon", "coordinates": [ [ [ 42146.775000000001455, 5916073.349999999627471 ], [ 42146.775000000001455, 5916073.275000000372529 ], [ 42146.55000000000291, 5916073.275000000372529 ], [ 42146.55000000000291, 5916073.200000000186265 ], [ 42146.25, 5916073.200000000186265 ], [ 42146.25, 5916073.125 ], [ 42146.025000000001455, 5916073.125 ], [ 42146.025000000001455, 5916073.049999999813735 ], [ 42145.80000000000291, 5916073.049999999813735 ], [ 42145.80000000000291, 5916072.974999999627471 ], [ 42145.57499999999709, 5916072.974999999627471 ], [ 42145.57499999999709, 5916072.900000000372529 ], [ 42145.42500000000291, 5916072.900000000372529 ], [ 42145.42500000000291, 5916072.825000000186265 ], [ 42145.19999999999709, 5916072.825000000186265 ], [ 42145.19999999999709, 5916072.75 ], [ 42145.05000000000291, 5916072.75 ], [ 42145.05000000000291, 5916072.674999999813735 ], [ 42144.900000000001455, 5916072.674999999813735 ], [ 42144.900000000001455, 5916072.599999999627471 ], [ 42144.82499999999709, 5916072.599999999627471 ], [ 42144.82499999999709, 5916072.525000000372529 ], [ 42144.75, 5916072.525000000372529 ], [ 42144.75, 5916072.450000000186265 ], [ 42144.67500000000291, 5916072.450000000186265 ], [ 42144.67500000000291, 5916072.375 ], [ 42144.599999999998545, 5916072.375 ], [ 42144.599999999998545, 5916072.299999999813735 ], [ 42144.525000000001455, 5916072.299999999813735 ], [ 42144.525000000001455, 5916072.224999999627471 ], [ 42144.44999999999709, 5916072.224999999627471 ], [ 42144.44999999999709, 5916072.150000000372529 ], [ 42144.375, 5916072.150000000372529 ], [ 42144.375, 5916072.0 ], [ 42144.30000000000291, 5916072.0 ], [ 42144.30000000000291, 5916071.849999999627471 ], [ 42144.224999999998545, 5916071.849999999627471 ], [ 42144.224999999998545, 5916071.625 ], [ 42144.150000000001455, 5916071.625 ], [ 42144.150000000001455, 5916071.474999999627471 ], [ 42144.07499999999709, 5916071.474999999627471 ], [ 42144.07499999999709, 5916071.325000000186265 ], [ 42144.0, 5916071.325000000186265 ], [ 42144.0, 5916071.174999999813735 ], [ 42143.92500000000291, 5916071.174999999813735 ], [ 42143.92500000000291, 5916070.950000000186265 ], [ 42143.849999999998545, 5916070.950000000186265 ], [ 42143.849999999998545, 5916070.799999999813735 ], [ 42143.775000000001455, 5916070.799999999813735 ], [ 42143.775000000001455, 5916070.575000000186265 ], [ 42143.69999999999709, 5916070.575000000186265 ], [ 42143.69999999999709, 5916070.424999999813735 ], [ 42143.625, 5916070.424999999813735 ], [ 42143.625, 5916070.200000000186265 ], [ 42143.55000000000291, 5916070.200000000186265 ], [ 42143.55000000000291, 5916070.049999999813735 ], [ 42143.474999999998545, 5916070.049999999813735 ], [ 42143.474999999998545, 5916069.974999999627471 ], [ 42143.400000000001455, 5916069.974999999627471 ], [ 42143.400000000001455, 5916069.825000000186265 ], [ 42143.32499999999709, 5916069.825000000186265 ], [ 42143.32499999999709, 5916069.75 ], [ 42143.25, 5916069.75 ], [ 42143.25, 5916069.599999999627471 ], [ 42143.17500000000291, 5916069.599999999627471 ], [ 42143.17500000000291, 5916069.525000000372529 ], [ 42143.099999999998545, 5916069.525000000372529 ], [ 42143.099999999998545, 5916069.450000000186265 ], [ 42143.025000000001455, 5916069.450000000186265 ], [ 42143.025000000001455, 5916069.375 ], [ 42142.94999999999709, 5916069.375 ], [ 42142.94999999999709, 5916069.299999999813735 ], [ 42142.875, 5916069.299999999813735 ], [ 42142.875, 5916069.224999999627471 ], [ 42142.80000000000291, 5916069.224999999627471 ], [ 42142.80000000000291, 5916069.150000000372529 ], [ 42142.724999999998545, 5916069.150000000372529 ], [ 42142.724999999998545, 5916069.0 ], [ 42142.650000000001455, 5916069.0 ], [ 42142.650000000001455, 5916068.924999999813735 ], [ 42142.57499999999709, 5916068.924999999813735 ], [ 42142.57499999999709, 5916068.775000000372529 ], [ 42142.5, 5916068.775000000372529 ], [ 42142.5, 5916068.625 ], [ 42142.42500000000291, 5916068.625 ], [ 42142.42500000000291, 5916068.474999999627471 ], [ 42142.349999999998545, 5916068.474999999627471 ], [ 42142.349999999998545, 5916068.325000000186265 ], [ 42142.275000000001455, 5916068.325000000186265 ], [ 42142.275000000001455, 5916067.950000000186265 ], [ 42142.19999999999709, 5916067.950000000186265 ], [ 42142.19999999999709, 5916067.200000000186265 ], [ 42142.125, 5916067.200000000186265 ], [ 42142.125, 5916066.450000000186265 ], [ 42142.05000000000291, 5916066.450000000186265 ], [ 42142.05000000000291, 5916065.325000000186265 ], [ 42141.974999999998545, 5916065.325000000186265 ], [ 42141.974999999998545, 5916064.049999999813735 ], [ 42141.900000000001455, 5916064.049999999813735 ], [ 42141.900000000001455, 5916062.700000000186265 ], [ 42141.82499999999709, 5916062.700000000186265 ], [ 42141.82499999999709, 5916061.424999999813735 ], [ 42141.75, 5916061.424999999813735 ], [ 42141.75, 5916059.174999999813735 ], [ 42141.82499999999709, 5916059.174999999813735 ], [ 42141.82499999999709, 5916058.349999999627471 ], [ 42141.900000000001455, 5916058.349999999627471 ], [ 42141.900000000001455, 5916058.200000000186265 ], [ 42141.974999999998545, 5916058.200000000186265 ], [ 42141.974999999998545, 5916057.974999999627471 ], [ 42142.05000000000291, 5916057.974999999627471 ], [ 42142.05000000000291, 5916057.825000000186265 ], [ 42142.125, 5916057.825000000186265 ], [ 42142.125, 5916057.674999999813735 ], [ 42142.19999999999709, 5916057.674999999813735 ], [ 42142.19999999999709, 5916057.599999999627471 ], [ 42142.275000000001455, 5916057.599999999627471 ], [ 42142.275000000001455, 5916057.450000000186265 ], [ 42142.349999999998545, 5916057.450000000186265 ], [ 42142.349999999998545, 5916057.299999999813735 ], [ 42142.42500000000291, 5916057.299999999813735 ], [ 42142.42500000000291, 5916057.224999999627471 ], [ 42142.5, 5916057.224999999627471 ], [ 42142.5, 5916057.150000000372529 ], [ 42142.57499999999709, 5916057.150000000372529 ], [ 42142.57499999999709, 5916057.075000000186265 ], [ 42142.650000000001455, 5916057.075000000186265 ], [ 42142.650000000001455, 5916057.0 ], [ 42142.724999999998545, 5916057.0 ], [ 42142.724999999998545, 5916056.924999999813735 ], [ 42142.80000000000291, 5916056.924999999813735 ], [ 42142.80000000000291, 5916056.849999999627471 ], [ 42142.875, 5916056.849999999627471 ], [ 42142.875, 5916056.775000000372529 ], [ 42142.94999999999709, 5916056.775000000372529 ], [ 42142.94999999999709, 5916056.700000000186265 ], [ 42143.025000000001455, 5916056.700000000186265 ], [ 42143.025000000001455, 5916056.625 ], [ 42143.099999999998545, 5916056.625 ], [ 42143.099999999998545, 5916056.549999999813735 ], [ 42143.17500000000291, 5916056.549999999813735 ], [ 42143.17500000000291, 5916056.400000000372529 ], [ 42143.25, 5916056.400000000372529 ], [ 42143.25, 5916056.325000000186265 ], [ 42143.32499999999709, 5916056.325000000186265 ], [ 42143.32499999999709, 5916056.25 ], [ 42143.400000000001455, 5916056.25 ], [ 42143.400000000001455, 5916056.099999999627471 ], [ 42143.474999999998545, 5916056.099999999627471 ], [ 42143.474999999998545, 5916056.025000000372529 ], [ 42143.55000000000291, 5916056.025000000372529 ], [ 42143.55000000000291, 5916055.950000000186265 ], [ 42143.625, 5916055.950000000186265 ], [ 42143.625, 5916055.875 ], [ 42143.69999999999709, 5916055.875 ], [ 42143.69999999999709, 5916055.799999999813735 ], [ 42143.775000000001455, 5916055.799999999813735 ], [ 42143.775000000001455, 5916055.724999999627471 ], [ 42143.849999999998545, 5916055.724999999627471 ], [ 42143.849999999998545, 5916055.650000000372529 ], [ 42143.92500000000291, 5916055.650000000372529 ], [ 42143.92500000000291, 5916055.575000000186265 ], [ 42144.0, 5916055.575000000186265 ], [ 42144.0, 5916055.5 ], [ 42144.07499999999709, 5916055.5 ], [ 42144.07499999999709, 5916055.424999999813735 ], [ 42144.150000000001455, 5916055.424999999813735 ], [ 42144.150000000001455, 5916055.349999999627471 ], [ 42144.224999999998545, 5916055.349999999627471 ], [ 42144.224999999998545, 5916055.275000000372529 ], [ 42144.30000000000291, 5916055.275000000372529 ], [ 42144.30000000000291, 5916055.200000000186265 ], [ 42144.44999999999709, 5916055.200000000186265 ], [ 42144.44999999999709, 5916055.125 ], [ 42144.525000000001455, 5916055.125 ], [ 42144.525000000001455, 5916055.049999999813735 ], [ 42144.599999999998545, 5916055.049999999813735 ], [ 42144.599999999998545, 5916054.974999999627471 ], [ 42144.75, 5916054.974999999627471 ], [ 42144.75, 5916054.900000000372529 ], [ 42144.82499999999709, 5916054.900000000372529 ], [ 42144.82499999999709, 5916054.825000000186265 ], [ 42144.974999999998545, 5916054.825000000186265 ], [ 42144.974999999998545, 5916054.75 ], [ 42145.05000000000291, 5916054.75 ], [ 42145.05000000000291, 5916054.674999999813735 ], [ 42145.125, 5916054.674999999813735 ], [ 42145.125, 5916054.599999999627471 ], [ 42145.19999999999709, 5916054.599999999627471 ], [ 42145.19999999999709, 5916054.525000000372529 ], [ 42145.275000000001455, 5916054.525000000372529 ], [ 42145.275000000001455, 5916054.375 ], [ 42145.349999999998545, 5916054.375 ], [ 42145.349999999998545, 5916054.299999999813735 ], [ 42145.42500000000291, 5916054.299999999813735 ], [ 42145.42500000000291, 5916054.224999999627471 ], [ 42145.57499999999709, 5916054.224999999627471 ], [ 42145.57499999999709, 5916054.150000000372529 ], [ 42145.650000000001455, 5916054.150000000372529 ], [ 42145.650000000001455, 5916054.075000000186265 ], [ 42145.724999999998545, 5916054.075000000186265 ], [ 42145.724999999998545, 5916054.0 ], [ 42145.80000000000291, 5916054.0 ], [ 42145.80000000000291, 5916053.924999999813735 ], [ 42145.94999999999709, 5916053.924999999813735 ], [ 42145.94999999999709, 5916053.849999999627471 ], [ 42146.099999999998545, 5916053.849999999627471 ], [ 42146.099999999998545, 5916053.775000000372529 ], [ 42146.17500000000291, 5916053.775000000372529 ], [ 42146.17500000000291, 5916053.700000000186265 ], [ 42146.32499999999709, 5916053.700000000186265 ], [ 42146.32499999999709, 5916053.625 ], [ 42146.55000000000291, 5916053.625 ], [ 42146.55000000000291, 5916053.549999999813735 ], [ 42146.69999999999709, 5916053.549999999813735 ], [ 42146.69999999999709, 5916053.474999999627471 ], [ 42147.599999999998545, 5916053.474999999627471 ], [ 42147.599999999998545, 5916053.400000000372529 ], [ 42149.025000000001455, 5916053.400000000372529 ], [ 42149.025000000001455, 5916053.474999999627471 ], [ 42149.55000000000291, 5916053.474999999627471 ], [ 42149.55000000000291, 5916053.549999999813735 ], [ 42150.07499999999709, 5916053.549999999813735 ], [ 42150.07499999999709, 5916053.625 ], [ 42150.525000000001455, 5916053.625 ], [ 42150.525000000001455, 5916053.700000000186265 ], [ 42150.82499999999709, 5916053.700000000186265 ], [ 42150.82499999999709, 5916053.775000000372529 ], [ 42150.974999999998545, 5916053.775000000372529 ], [ 42150.974999999998545, 5916053.849999999627471 ], [ 42151.05000000000291, 5916053.849999999627471 ], [ 42151.05000000000291, 5916053.924999999813735 ], [ 42151.125, 5916053.924999999813735 ], [ 42151.125, 5916054.0 ], [ 42151.275000000001455, 5916054.0 ], [ 42151.275000000001455, 5916054.075000000186265 ], [ 42151.349999999998545, 5916054.075000000186265 ], [ 42151.349999999998545, 5916054.150000000372529 ], [ 42151.42500000000291, 5916054.150000000372529 ], [ 42151.42500000000291, 5916054.224999999627471 ], [ 42151.5, 5916054.224999999627471 ], [ 42151.5, 5916054.375 ], [ 42151.57499999999709, 5916054.375 ], [ 42151.57499999999709, 5916054.450000000186265 ], [ 42151.650000000001455, 5916054.450000000186265 ], [ 42151.650000000001455, 5916054.525000000372529 ], [ 42151.724999999998545, 5916054.525000000372529 ], [ 42151.724999999998545, 5916054.674999999813735 ], [ 42151.80000000000291, 5916054.674999999813735 ], [ 42151.80000000000291, 5916054.75 ], [ 42151.875, 5916054.75 ], [ 42151.875, 5916054.900000000372529 ], [ 42151.94999999999709, 5916054.900000000372529 ], [ 42151.94999999999709, 5916054.974999999627471 ], [ 42152.025000000001455, 5916054.974999999627471 ], [ 42152.025000000001455, 5916055.049999999813735 ], [ 42152.099999999998545, 5916055.049999999813735 ], [ 42152.099999999998545, 5916055.125 ], [ 42152.17500000000291, 5916055.125 ], [ 42152.17500000000291, 5916055.200000000186265 ], [ 42152.25, 5916055.200000000186265 ], [ 42152.25, 5916055.275000000372529 ], [ 42152.32499999999709, 5916055.275000000372529 ], [ 42152.32499999999709, 5916055.349999999627471 ], [ 42152.400000000001455, 5916055.349999999627471 ], [ 42152.400000000001455, 5916055.424999999813735 ], [ 42152.474999999998545, 5916055.424999999813735 ], [ 42152.474999999998545, 5916055.5 ], [ 42152.625, 5916055.5 ], [ 42152.625, 5916055.575000000186265 ], [ 42152.69999999999709, 5916055.575000000186265 ], [ 42152.69999999999709, 5916055.650000000372529 ], [ 42152.849999999998545, 5916055.650000000372529 ], [ 42152.849999999998545, 5916055.724999999627471 ], [ 42152.92500000000291, 5916055.724999999627471 ], [ 42152.92500000000291, 5916055.799999999813735 ], [ 42153.0, 5916055.799999999813735 ], [ 42153.0, 5916055.875 ], [ 42153.07499999999709, 5916055.875 ], [ 42153.07499999999709, 5916055.950000000186265 ], [ 42153.150000000001455, 5916055.950000000186265 ], [ 42153.150000000001455, 5916056.025000000372529 ], [ 42153.224999999998545, 5916056.025000000372529 ], [ 42153.224999999998545, 5916056.174999999813735 ], [ 42153.30000000000291, 5916056.174999999813735 ], [ 42153.30000000000291, 5916056.25 ], [ 42153.375, 5916056.25 ], [ 42153.375, 5916056.400000000372529 ], [ 42153.44999999999709, 5916056.400000000372529 ], [ 42153.44999999999709, 5916056.549999999813735 ], [ 42153.525000000001455, 5916056.549999999813735 ], [ 42153.525000000001455, 5916057.0 ], [ 42153.599999999998545, 5916057.0 ], [ 42153.599999999998545, 5916057.599999999627471 ], [ 42153.67500000000291, 5916057.599999999627471 ], [ 42153.67500000000291, 5916058.200000000186265 ], [ 42153.75, 5916058.200000000186265 ], [ 42153.75, 5916058.724999999627471 ], [ 42153.82499999999709, 5916058.724999999627471 ], [ 42153.82499999999709, 5916059.025000000372529 ], [ 42153.900000000001455, 5916059.025000000372529 ], [ 42153.900000000001455, 5916059.25 ], [ 42153.974999999998545, 5916059.25 ], [ 42153.974999999998545, 5916059.474999999627471 ], [ 42154.05000000000291, 5916059.474999999627471 ], [ 42154.05000000000291, 5916059.700000000186265 ], [ 42154.125, 5916059.700000000186265 ], [ 42154.125, 5916059.924999999813735 ], [ 42154.19999999999709, 5916059.924999999813735 ], [ 42154.19999999999709, 5916060.075000000186265 ], [ 42154.275000000001455, 5916060.075000000186265 ], [ 42154.275000000001455, 5916060.299999999813735 ], [ 42154.349999999998545, 5916060.299999999813735 ], [ 42154.349999999998545, 5916060.450000000186265 ], [ 42154.42500000000291, 5916060.450000000186265 ], [ 42154.42500000000291, 5916061.049999999813735 ], [ 42154.5, 5916061.049999999813735 ], [ 42154.5, 5916061.650000000372529 ], [ 42154.57499999999709, 5916061.650000000372529 ], [ 42154.57499999999709, 5916062.25 ], [ 42154.650000000001455, 5916062.25 ], [ 42154.650000000001455, 5916062.775000000372529 ], [ 42154.724999999998545, 5916062.775000000372529 ], [ 42154.724999999998545, 5916063.299999999813735 ], [ 42154.80000000000291, 5916063.299999999813735 ], [ 42154.80000000000291, 5916063.825000000186265 ], [ 42154.875, 5916063.825000000186265 ], [ 42154.875, 5916064.424999999813735 ], [ 42154.94999999999709, 5916064.424999999813735 ], [ 42154.94999999999709, 5916065.025000000372529 ], [ 42155.025000000001455, 5916065.025000000372529 ], [ 42155.025000000001455, 5916065.625 ], [ 42155.099999999998545, 5916065.625 ], [ 42155.099999999998545, 5916066.224999999627471 ], [ 42155.17500000000291, 5916066.224999999627471 ], [ 42155.17500000000291, 5916066.299999999813735 ], [ 42155.099999999998545, 5916066.299999999813735 ], [ 42155.099999999998545, 5916066.525000000372529 ], [ 42155.025000000001455, 5916066.525000000372529 ], [ 42155.025000000001455, 5916066.674999999813735 ], [ 42154.94999999999709, 5916066.674999999813735 ], [ 42154.94999999999709, 5916066.825000000186265 ], [ 42154.875, 5916066.825000000186265 ], [ 42154.875, 5916066.974999999627471 ], [ 42154.80000000000291, 5916066.974999999627471 ], [ 42154.80000000000291, 5916067.125 ], [ 42154.724999999998545, 5916067.125 ], [ 42154.724999999998545, 5916067.275000000372529 ], [ 42154.650000000001455, 5916067.275000000372529 ], [ 42154.650000000001455, 5916067.349999999627471 ], [ 42154.57499999999709, 5916067.349999999627471 ], [ 42154.57499999999709, 5916067.5 ], [ 42154.5, 5916067.5 ], [ 42154.5, 5916067.650000000372529 ], [ 42154.42500000000291, 5916067.650000000372529 ], [ 42154.42500000000291, 5916067.799999999813735 ], [ 42154.349999999998545, 5916067.799999999813735 ], [ 42154.349999999998545, 5916067.950000000186265 ], [ 42154.275000000001455, 5916067.950000000186265 ], [ 42154.275000000001455, 5916068.099999999627471 ], [ 42154.19999999999709, 5916068.099999999627471 ], [ 42154.19999999999709, 5916068.325000000186265 ], [ 42154.125, 5916068.325000000186265 ], [ 42154.125, 5916068.549999999813735 ], [ 42154.05000000000291, 5916068.549999999813735 ], [ 42154.05000000000291, 5916068.700000000186265 ], [ 42153.974999999998545, 5916068.700000000186265 ], [ 42153.974999999998545, 5916068.924999999813735 ], [ 42153.900000000001455, 5916068.924999999813735 ], [ 42153.900000000001455, 5916069.150000000372529 ], [ 42153.82499999999709, 5916069.150000000372529 ], [ 42153.82499999999709, 5916069.375 ], [ 42153.75, 5916069.375 ], [ 42153.75, 5916069.599999999627471 ], [ 42153.67500000000291, 5916069.599999999627471 ], [ 42153.67500000000291, 5916069.825000000186265 ], [ 42153.599999999998545, 5916069.825000000186265 ], [ 42153.599999999998545, 5916070.049999999813735 ], [ 42153.525000000001455, 5916070.049999999813735 ], [ 42153.525000000001455, 5916070.275000000372529 ], [ 42153.44999999999709, 5916070.275000000372529 ], [ 42153.44999999999709, 5916070.349999999627471 ], [ 42153.375, 5916070.349999999627471 ], [ 42153.375, 5916070.424999999813735 ], [ 42153.30000000000291, 5916070.424999999813735 ], [ 42153.30000000000291, 5916070.575000000186265 ], [ 42153.224999999998545, 5916070.575000000186265 ], [ 42153.224999999998545, 5916070.650000000372529 ], [ 42153.150000000001455, 5916070.650000000372529 ], [ 42153.150000000001455, 5916070.724999999627471 ], [ 42153.07499999999709, 5916070.724999999627471 ], [ 42153.07499999999709, 5916070.799999999813735 ], [ 42153.0, 5916070.799999999813735 ], [ 42153.0, 5916070.875 ], [ 42152.92500000000291, 5916070.875 ], [ 42152.92500000000291, 5916070.950000000186265 ], [ 42152.775000000001455, 5916070.950000000186265 ], [ 42152.775000000001455, 5916071.025000000372529 ], [ 42152.69999999999709, 5916071.025000000372529 ], [ 42152.69999999999709, 5916071.099999999627471 ], [ 42152.55000000000291, 5916071.099999999627471 ], [ 42152.55000000000291, 5916071.174999999813735 ], [ 42152.474999999998545, 5916071.174999999813735 ], [ 42152.474999999998545, 5916071.25 ], [ 42152.32499999999709, 5916071.25 ], [ 42152.32499999999709, 5916071.325000000186265 ], [ 42152.25, 5916071.325000000186265 ], [ 42152.25, 5916071.400000000372529 ], [ 42152.17500000000291, 5916071.400000000372529 ], [ 42152.17500000000291, 5916071.474999999627471 ], [ 42152.025000000001455, 5916071.474999999627471 ], [ 42152.025000000001455, 5916071.549999999813735 ], [ 42151.94999999999709, 5916071.549999999813735 ], [ 42151.94999999999709, 5916071.625 ], [ 42151.875, 5916071.625 ], [ 42151.875, 5916071.700000000186265 ], [ 42151.80000000000291, 5916071.700000000186265 ], [ 42151.80000000000291, 5916071.775000000372529 ], [ 42151.724999999998545, 5916071.775000000372529 ], [ 42151.724999999998545, 5916071.849999999627471 ], [ 42151.650000000001455, 5916071.849999999627471 ], [ 42151.650000000001455, 5916072.0 ], [ 42151.57499999999709, 5916072.0 ], [ 42151.57499999999709, 5916072.075000000186265 ], [ 42151.5, 5916072.075000000186265 ], [ 42151.5, 5916072.150000000372529 ], [ 42151.42500000000291, 5916072.150000000372529 ], [ 42151.42500000000291, 5916072.224999999627471 ], [ 42151.349999999998545, 5916072.224999999627471 ], [ 42151.349999999998545, 5916072.299999999813735 ], [ 42151.275000000001455, 5916072.299999999813735 ], [ 42151.275000000001455, 5916072.375 ], [ 42151.19999999999709, 5916072.375 ], [ 42151.19999999999709, 5916072.450000000186265 ], [ 42151.125, 5916072.450000000186265 ], [ 42151.125, 5916072.525000000372529 ], [ 42151.05000000000291, 5916072.525000000372529 ], [ 42151.05000000000291, 5916072.599999999627471 ], [ 42150.974999999998545, 5916072.599999999627471 ], [ 42150.974999999998545, 5916072.674999999813735 ], [ 42150.900000000001455, 5916072.674999999813735 ], [ 42150.900000000001455, 5916072.75 ], [ 42150.75, 5916072.75 ], [ 42150.75, 5916072.825000000186265 ], [ 42150.525000000001455, 5916072.825000000186265 ], [ 42150.525000000001455, 5916072.900000000372529 ], [ 42150.30000000000291, 5916072.900000000372529 ], [ 42150.30000000000291, 5916072.974999999627471 ], [ 42150.07499999999709, 5916072.974999999627471 ], [ 42150.07499999999709, 5916073.049999999813735 ], [ 42149.775000000001455, 5916073.049999999813735 ], [ 42149.775000000001455, 5916073.125 ], [ 42149.55000000000291, 5916073.125 ], [ 42149.55000000000291, 5916073.200000000186265 ], [ 42149.17500000000291, 5916073.200000000186265 ], [ 42149.17500000000291, 5916073.275000000372529 ], [ 42148.875, 5916073.275000000372529 ], [ 42148.875, 5916073.349999999627471 ], [ 42146.775000000001455, 5916073.349999999627471 ] ] ] } },
{ "type": "Feature", "properties": { "value": 1.0, "building_id": 2, "area": 176.0456250000947 }, "geometry": { "type": "Polygon", "coordinates": [ [ [ 42125.400000000001455, 5915964.974999999627471 ], [ 42125.400000000001455, 5915964.900000000372529 ], [ 42125.32499999999709, 5915964.900000000372529 ], [ 42125.32499999999709, 5915964.825000000186265 ], [ 42125.25, 5915964.825000000186265 ], [ 42125.25, 5915964.75 ], [ 42125.17500000000291, 5915964.75 ], [ 42125.17500000000291, 5915964.674999999813735 ], [ 42125.099999999998545, 5915964.674999999813735 ], [ 42125.099999999998545, 5915964.525000000372529 ], [ 42125.025000000001455, 5915964.525000000372529 ], [ 42125.025000000001455, 5915964.375 ], [ 42124.94999999999709, 5915964.375 ], [ 42124.94999999999709, 5915964.299999999813735 ], [ 42124.875, 5915964.299999999813735 ], [ 42124.875, 5915964.150000000372529 ], [ 42124.80000000000291, 5915964.150000000372529 ], [ 42124.80000000000291, 5915964.075000000186265 ], [ 42124.724999999998545, 5915964.075000000186265 ], [ 42124.724999999998545, 5915964.0 ], [ 42124.650000000001455, 5915964.0 ], [ 42124.650000000001455, 5915963.924999999813735 ], [ 42124.57499999999709, 5915963.924999999813735 ], [ 42124.57499999999709, 5915963.849999999627471 ], [ 42124.5, 5915963.849999999627471 ], [ 42124.5, 5915963.775000000372529 ], [ 42124.42500000000291, 5915963.775000000372529 ], [ 42124.42500000000291, 5915963.700000000186265 ], [ 42124.275000000001455, 5915963.700000000186265 ], [ 42124.275000000001455, 5915963.625 ], [ 42124.19999999999709, 5915963.625 ], [ 42124.19999999999709, 5915963.549999999813735 ], [ 42124.125, 5915963.549999999813735 ], [ 42124.125, 5915963.474999999627471 ], [ 42123.974999999998545, 5915963.474999999627471 ], [ 42123.974999999998545, 5915963.400000000372529 ], [ 42123.82499999999709, 5915963.400000000372529 ], [ 42123.82499999999709, 5915963.325000000186265 ], [ 42123.67500000000291, 5915963.325000000186265 ], [ 42123.67500000000291, 5915963.25 ], [ 42123.525000000001455, 5915963.25 ], [ 42123.525000000001455, 5915963.174999999813735 ], [ 42123.375, 5915963.174999999813735 ], [ 42123.375, 5915963.099999999627471 ], [ 42123.30000000000291, 5915963.099999999627471 ], [ 42123.30000000000291, 5915963.025000000372529 ], [ 42123.224999999998545, 5915963.025000000372529 ], [ 42123.224999999998545, 5915962.950000000186265 ], [ 42123.150000000001455, 5915962.950000000186265 ], [ 42123.150000000001455, 5915962.799999999813735 ], [ 42123.07499999999709, 5915962.799999999813735 ], [ 42123.07499999999709, 5915962.575000000186265 ], [ 42123.0, 5915962.575000000186265 ], [ 42123.0, 5915962.049999999813735 ], [ 42122.92500000000291, 5915962.049999999813735 ], [ 42122.92500000000291, 5915961.525000000372529 ], [ 42122.849999999998545, 5915961.525000000372529 ], [ 42122.849999999998545, 5915961.0 ], [ 42122.775000000001455, 5915961.0 ], [ 42122.775000000001455, 5915960.700000000186265 ], [ 42122.69999999999709, 5915960.700000000186265 ], [ 42122.69999999999709, 5915960.549999999813735 ], [ 42122.625, 5915960.549999999813735 ], [ 42122.625, 5915960.325000000186265 ], [ 42122.55000000000291, 5915960.325000000186265 ], [ 42122.55000000000291, 5915960.174999999813735 ], [ 42122.474999999998545, 5915960.174999999813735 ], [ 42122.474999999998545, 5915960.099999999627471 ], [ 42122.400000000001455, 5915960.099999999627471 ], [ 42122.400000000001455, 5915959.950000000186265 ], [ 42122.32499999999709, 5915959.950000000186265 ], [ 42122.32499999999709, 5915959.875 ], [ 42122.25, 5915959.875 ], [ 42122.25, 5915959.724999999627471 ], [ 42122.17500000000291, 5915959.724999999627471 ], [ 42122.17500000000291, 5915959.650000000372529 ], [ 42122.099999999998545, 5915959.650000000372529 ], [ 42122.099999999998545, 5915959.575000000186265 ], [ 42122.025000000001455, 5915959.575000000186265 ], [ 42122.025000000001455, 5915959.5 ], [ 42121.94999999999709, 5915959.5 ], [ 42121.94999999999709, 5915959.424999999813735 ], [ 42121.875, 5915959.424999999813735 ], [ 42121.875, 5915959.349999999627471 ], [ 42121.80000000000291, 5915959.349999999627471 ], [ 42121.80000000000291, 5915959.275000000372529 ], [ 42121.650000000001455, 5915959.275000000372529 ], [ 42121.650000000001455, 5915959.200000000186265 ], [ 42121.57499999999709, 5915959.200000000186265 ], [ 42121.57499999999709, 5915959.125 ], [ 42121.5, 5915959.125 ], [ 42121.5, 5915959.049999999813735 ], [ 42121.42500000000291, 5915959.049999999813735 ], [ 42121.42500000000291, 5915958.974999999627471 ], [ 42121.349999999998545, 5915958.974999999627471 ], [ 42121.349999999998545, 5915958.900000000372529 ], [ 42121.275000000001455, 5915958.900000000372529 ], [ 42121.275000000001455, 5915958.450000000186265 ], [ 42121.349999999998545, 5915958.450000000186265 ], [ 42121.349999999998545, 5915957.25 ], [ 42121.42500000000291, 5915957.25 ], [ 42121.42500000000291, 5915956.875 ], [ 42121.5, 5915956.875 ], [ 42121.5, 5915956.799999999813735 ], [ 42121.650000000001455, 5915956.799999999813735 ], [ 42121.650000000001455, 5915956.724999999627471 ], [ 42121.724999999998545, 5915956.724999999627471 ], [ 42121.724999999998545, 5915956.650000000372529 ], [ 42121.80000000000291, 5915956.650000000372529 ], [ 42121.80000000000291, 5915956.575000000186265 ], [ 42121.875, 5915956.575000000186265 ], [ 42121.875, 5915956.5 ], [ 42121.94999999999709, 5915956.5 ], [ 42121.94999999999709, 5915956.424999999813735 ], [ 42122.025000000001455, 5915956.424999999813735 ], [ 42122.025000000001455, 5915956.349999999627471 ], [ 42122.099999999998545, 5915956.349999999627471 ], [ 42122.099999999998545, 5915956.275000000372529 ], [ 42122.17500000000291, 5915956.275000000372529 ], [ 42122.17500000000291, 5915956.200000000186265 ], [ 42122.25, 5915956.200000000186265 ], [ 42122.25, 5915956.125 ], [ 42122.32499999999709, 5915956.125 ], [ 42122.32499999999709, 5915955.974999999627471 ], [ 42122.400000000001455, 5915955.974999999627471 ], [ 42122.400000000001455, 5915955.900000000372529 ], [ 42122.474999999998545, 5915955.900000000372529 ], [ 42122.474999999998545, 5915955.75 ], [ 42122.55000000000291, 5915955.75 ], [ 42122.55000000000291, 5915955.674999999813735 ], [ 42122.625, 5915955.674999999813735 ], [ 42122.625, 5915955.525000000372529 ], [ 42122.69999999999709, 5915955.525000000372529 ], [ 42122.69999999999709, 5915955.375 ], [ 42122.775000000001455, 5915955.375 ], [ 42122.775000000001455, 5915955.150000000372529 ], [ 42122.849999999998545, 5915955.150000000372529 ], [ 42122.849999999998545, 5915955.0 ], [ 42122.92500000000291, 5915955.0 ], [ 42122.92500000000291, 5915954.849999999627471 ], [ 42123.0, 5915954.849999999627471 ], [ 42123.0, 5915954.775000000372529 ], [ 42123.07499999999709, 5915954.775000000372529 ], [ 42123.07499999999709, 5915954.700000000186265 ], [ 42123.150000000001455, 5915954.700000000186265 ], [ 42123.150000000001455, 5915954.625 ], [ 42123.224999999998545, 5915954.625 ], [ 42123.224999999998545, 5915954.549999999813735 ], [ 42123.30000000000291, 5915954.549999999813735 ], [ 42123.30000000000291, 5915954.474999999627471 ], [ 42123.375, 5915954.474999999627471 ], [ 42123.375, 5915954.400000000372529 ], [ 42123.599999999998545, 5915954.400000000372529 ], [ 42123.599999999998545, 5915954.325000000186265 ], [ 42123.82499999999709, 5915954.325000000186265 ], [ 42123.82499999999709, 5915954.25 ], [ 42124.05000000000291, 5915954.25 ], [ 42124.05000000000291, 5915954.174999999813735 ], [ 42124.275000000001455, 5915954.174999999813735 ], [ 42124.275000000001455, 5915954.099999999627471 ], [ 42124.5, 5915954.099999999627471 ], [ 42124.5, 5915954.025000000372529 ], [ 42124.724999999998545, 5915954.025000000372529 ], [ 42124.724999999998545, 5915953.950000000186265 ], [ 42124.875, 5915953.950000000186265 ], [ 42124.875, 5915953.875 ], [ 42125.099999999998545, 5915953.875 ], [ 42125.099999999998545, 5915953.799999999813735 ], [ 42125.32499999999709, 5915953.799999999813735 ], [ 42125.32499999999709, 5915953.724999999627471 ], [ 42126.67500000000291, 5915953.724999999627471 ], [ 42126.67500000000291, 5915953.650000000372529 ], [ 42128.775000000001455, 5915953.650000000372529 ], [ 42128.775000000001455, 5915953.575000000186265 ], [ 42130.5, 5915953.575000000186265 ], [ 42130.5, 5915953.5 ], [ 42132.0, 5915953.5 ], [ 42132.0, 5915953.575000000186265 ], [ 42133.349999999998545, 5915953.575000000186265 ], [ 42133.349999999998545, 5915953.650000000372529 ], [ 42133.875, 5915953.650000000372529 ], [ 42133.875, 5915953.724999999627471 ], [ 42134.400000000001455, 5915953.724999999627471 ], [ 42134.400000000001455, 5915953.799999999813735 ], [ 42135.0, 5915953.799999999813735 ], [ 42135.0, 5915953.875 ], [ 42135.525000000001455, 5915953.875 ], [ 42135.525000000001455, 5915953.950000000186265 ], [ 42136.05000000000291, 5915953.950000000186265 ], [ 42136.05000000000291, 5915954.025000000372529 ], [ 42136.5, 5915954.025000000372529 ], [ 42136.5, 5915954.099999999627471 ], [ 42136.94999999999709, 5915954.099999999627471 ], [ 42136.94999999999709, 5915954.174999999813735 ], [ 42137.32499999999709, 5915954.174999999813735 ], [ 42137.32499999999709, 5915954.25 ], [ 42137.625, 5915954.25 ], [ 42137.625, 5915954.325000000186265 ], [ 42137.92500000000291, 5915954.325000000186265 ], [ 42137.92500000000291, 5915954.400000000372529 ], [ 42138.224999999998545, 5915954.400000000372529 ], [ 42138.224999999998545, 5915954.474999999627471 ], [ 42138.44999999999709, 5915954.474999999627471 ], [ 42138.44999999999709, 5915954.549999999813735 ], [ 42138.67500000000291, 5915954.549999999813735 ], [ 42138.67500000000291, 5915954.625 ], [ 42138.900000000001455, 5915954.625 ], [ 42138.900000000001455, 5915954.700000000186265 ], [ 42139.05000000000291, 5915954.700000000186265 ], [ 42139.05000000000291, 5915954.775000000372529 ], [ 42139.125, 5915954.775000000372529 ], [ 42139.125, 5915954.849999999627471 ], [ 42139.19999999999709, 5915954.849999999627471 ], [ 42139.19999999999709, 5915954.924999999813735 ], [ 42139.275000000001455, 5915954.924999999813735 ], [ 42139.275000000001455, 5915955.0 ], [ 42139.349999999998545, 5915955.0 ], [ 42139.349999999998545, 5915955.150000000372529 ], [ 42139.42500000000291, 5915955.150000000372529 ], [ 42139.42500000000291, 5915955.299999999813735 ], [ 42139.5, 5915955.299999999813735 ], [ 42139.5, 5915955.450000000186265 ], [ 42139.57499999999709, 5915955.450000000186265 ], [ 42139.57499999999709, 5915955.599999999627471 ], [ 42139.650000000001455, 5915955.599999999627471 ], [ 42139.650000000001455, 5915955.75 ], [ 42139.724999999998545, 5915955.75 ], [ 42139.724999999998545, 5915955.900000000372529 ], [ 42139.80000000000291, 5915955.900000000372529 ], [ 42139.80000000000291, 5915956.049999999813735 ], [ 42139.875, 5915956.049999999813735 ], [ 42139.875, 5915956.125 ], [ 42139.94999999999709, 5915956.125 ], [ 42139.94999999999709, 5915956.275000000372529 ], [ 42140.025000000001455, 5915956.275000000372529 ], [ 42140.025000000001455, 5915956.349999999627471 ], [ 42140.099999999998545, 5915956.349999999627471 ], [ 42140.099999999998545, 5915956.5 ], [ 42140.17500000000291, 5915956.5 ], [ 42140.17500000000291, 5915956.575000000186265 ], [ 42140.25, 5915956.575000000186265 ], [ 42140.25, 5915956.650000000372529 ], [ 42140.32499999999709, 5915956.650000000372529 ], [ 42140.32499999999709, 5915956.724999999627471 ], [ 42140.400000000001455, 5915956.724999999627471 ], [ 42140.400000000001455, 5915956.799999999813735 ], [ 42140.474999999998545, 5915956.799999999813735 ], [ 42140.474999999998545, 5915956.950000000186265 ], [ 42140.55000000000291, 5915956.950000000186265 ], [ 42140.55000000000291, 5915957.400000000372529 ], [ 42140.625, 5915957.400000000372529 ], [ 42140.625, 5915958.0 ], [ 42140.69999999999709, 5915958.0 ], [ 42140.69999999999709, 5915958.599999999627471 ], [ 42140.775000000001455, 5915958.599999999627471 ], [ 42140.775000000001455, 5915958.900000000372529 ], [ 42140.69999999999709, 5915958.900000000372529 ], [ 42140.69999999999709, 5915958.974999999627471 ], [ 42140.625, 5915958.974999999627471 ], [ 42140.625, 5915959.049999999813735 ], [ 42140.55000000000291, 5915959.049999999813735 ], [ 42140.55000000000291, 5915959.125 ], [ 42140.474999999998545, 5915959.125 ], [ 42140.474999999998545, 5915959.200000000186265 ], [ 42140.400000000001455, 5915959.200000000186265 ], [ 42140.400000000001455, 5915959.275000000372529 ], [ 42140.32499999999709, 5915959.275000000372529 ], [ 42140.32499999999709, 5915959.424999999813735 ], [ 42140.25, 5915959.424999999813735 ], [ 42140.25, 5915959.5 ], [ 42140.17500000000291, 5915959.5 ], [ 42140.17500000000291, 5915959.575000000186265 ], [ 42140.099999999998545, 5915959.575000000186265 ], [ 42140.099999999998545, 5915959.724999999627471 ], [ 42140.025000000001455, 5915959.724999999627471 ], [ 42140.025000000001455, 5915959.799999999813735 ], [ 42139.94999999999709, 5915959.799999999813735 ], [ 42139.94999999999709, 5915959.950000000186265 ], [ 42139.875, 5915959.950000000186265 ], [ 42139.875, 5915960.099999999627471 ], [ 42139.80000000000291, 5915960.099999999627471 ], [ 42139.80000000000291, 5915960.25 ], [ 42139.724999999998545, 5915960.25 ], [ 42139.724999999998545, 5915960.400000000372529 ], [ 42139.650000000001455, 5915960.400000000372529 ], [ 42139.650000000001455, 5915960.625 ], [ 42139.57499999999709, 5915960.625 ], [ 42139.57499999999709, 5915960.775000000372529 ], [ 42139.5, 5915960.775000000372529 ], [ 42139.5, 5915960.924999999813735 ], [ 42139.42500000000291, 5915960.924999999813735 ], [ 42139.42500000000291, 5915961.075000000186265 ], [ 42139.349999999998545, 5915961.075000000186265 ], [ 42139.349999999998545, 5915961.150000000372529 ], [ 42139.275000000001455, 5915961.150000000372529 ], [ 42139.275000000001455, 5915961.224999999627471 ], [ 42139.19999999999709, 5915961.224999999627471 ], [ 42139.19999999999709, 5915961.375 ], [ 42139.125, 5915961.375 ], [ 42139.125, 5915961.450000000186265 ], [ 42138.974999999998545, 5915961.450000000186265 ], [ 42138.974999999998545, 5915961.525000000372529 ], [ 42138.900000000001455, 5915961.525000000372529 ], [ 42138.900000000001455, 5915961.599999999627471 ], [ 42138.75, 5915961.599999999627471 ], [ 42138.75, 5915961.674999999813735 ], [ 42138.67500000000291, 5915961.674999999813735 ], [ 42138.67500000000291, 5915961.75 ], [ 42138.599999999998545, 5915961.75 ], [ 42138.599999999998545, 5915961.825000000186265 ], [ 42138.525000000001455, 5915961.825000000186265 ], [ 42138.525000000001455, 5915961.900000000372529 ], [ 42138.375, 5915961.900000000372529 ], [ 42138.375, 5915961.974999999627471 ], [ 42138.30000000000291, 5915961.974999999627471 ], [ 42138.30000000000291, 5915962.049999999813735 ], [ 42138.224999999998545, 5915962.049999999813735 ], [ 42138.224999999998545, 5915962.125 ], [ 42138.150000000001455, 5915962.125 ], [ 42138.150000000001455, 5915962.200000000186265 ], [ 42138.07499999999709, 5915962.200000000186265 ], [ 42138.07499999999709, 5915962.349999999627471 ], [ 42138.0, 5915962.349999999627471 ], [ 42138.0, 5915962.424999999813735 ], [ 42137.92500000000291, 5915962.424999999813735 ], [ 42137.92500000000291, 5915962.5 ], [ 42137.849999999998545, 5915962.5 ], [ 42137.849999999998545, 5915962.575000000186265 ], [ 42137.775000000001455, 5915962.575000000186265 ], [ 42137.775000000001455, 5915962.724999999627471 ], [ 42137.69999999999709, 5915962.724999999627471 ], [ 42137.69999999999709, 5915962.799999999813735 ], [ 42137.625, 5915962.799999999813735 ], [ 42137.625, 5915962.875 ], [ 42137.55000000000291, 5915962.875 ], [ 42137.55000000000291, 5915962.950000000186265 ], [ 42137.474999999998545, 5915962.950000000186265 ], [ 42137.474999999998545, 5915963.025000000372529 ], [ 42137.32499999999709, 5915963.025000000372529 ], [ 42137.32499999999709, 5915963.099999999627471 ], [ 42137.25, 5915963.099999999627471 ], [ 42137.25, 5915963.174999999813735 ], [ 42137.099999999998545, 5915963.174999999813735 ], [ 42137.099999999998545, 5915963.25 ], [ 42136.875, 5915963.25 ], [ 42136.875, 5915963.325000000186265 ], [ 42136.5, 5915963.325000000186265 ], [ 42136.5, 5915963.400000000372529 ], [ 42136.19999999999709, 5915963.400000000372529 ], [ 42136.19999999999709, 5915963.474999999627471 ], [ 42135.82499999999709, 5915963.474999999627471 ], [ 42135.82499999999709, 5915963.549999999813735 ], [ 42135.44999999999709, 5915963.549999999813735 ], [ 42135.44999999999709, 5915963.625 ], [ 42135.0, 5915963.625 ], [ 42135.0, 5915963.700000000186265 ], [ 42134.69999999999709, 5915963.700000000186265 ], [ 42134.69999999999709, 5915963.775000000372529 ], [ 42134.32499999999709, 5915963.775000000372529 ], [ 42134.32499999999709, 5915963.849999999627471 ], [ 42134.025000000001455, 5915963.849999999627471 ], [ 42134.025000000001455, 5915963.924999999813735 ], [ 42133.724999999998545, 5915963.924999999813735 ], [ 42133.724999999998545, 5915964.0 ], [ 42133.349999999998545, 5915964.0 ], [ 42133.349999999998545, 5915964.075000000186265 ], [ 42133.05000000000291, 5915964.075000000186265 ], [ 42133.05000000000291, 5915964.150000000372529 ], [ 42132.75, 5915964.150000000372529 ], [ 42132.75, 5915964.224999999627471 ], [ 42132.44999999999709, 5915964.224999999627471 ], [ 42132.44999999999709, 5915964.299999999813735 ], [ 42132.150000000001455, 5915964.299999999813735 ], [ 42132.150000000001455, 5915964.375 ], [ 42131.92500000000291, 5915964.375 ], [ 42131.92500000000291, 5915964.450000000186265 ], [ 42131.69999999999709, 5915964.450000000186265 ], [ 42131.69999999999709, 5915964.525000000372529 ], [ 42131.474999999998545, 5915964.525000000372529 ], [ 42131.474999999998545, 5915964.599999999627471 ], [ 42131.32499999999709, 5915964.599999999627471 ], [ 42131.32499999999709, 5915964.674999999813735 ], [ 42130.5, 5915964.674999999813735 ], [ 42130.5, 5915964.75 ], [ 42129.30000000000291, 5915964.75 ], [ 42129.30000000000291, 5915964.825000000186265 ], [ 42127.724999999998545, 5915964.825000000186265 ], [ 42127.724999999998545, 5915964.900000000372529 ], [ 42125.625, 5915964.900000000372529 ], [ 42125.625, 5915964.974999999627471 ], [ 42125.400000000001455, 5915964.974999999627471 ] ] ] } }
]
}
