{
"type": "FeatureCollection",
"name": "41433E594957N_buildings",
"crs": { "type": "name", "properties": { "name": "urn:ogc:def:crs:EPSG::3776" } },
"features": [
{ "type": "Feature", "properties": { "value": 1.0, "building_id": 0, "area": 370.49624999946354 }, "geometry": { "type": "Polygon", "coordinates": [ [ [ 41967.44999999999709, 5949698.099999999627471 ], [ 41967.44999999999709, 5949698.025000000372529 ], [ 41967.0, 5949698.025000000372529 ], [ 41967.0, 5949697.950000000186265 ], [ 41966.849999999998545, 5949697.950000000186265 ], [ 41966.849999999998545, 5949697.875 ], [ 41966.69999999999709, 5949697.875 ], [ 41966.69999999999709, 5949697.799999999813735 ], [ 41966.55000000000291, 5949697.799999999813735 ], [ 41966.55000000000291, 5949697.724999999627471 ], [ 41966.400000000001455, 5949697.724999999627471 ], [ 41966.400000000001455, 5949697.650000000372529 ], [ 41966.25, 5949697.650000000372529 ], [ 41966.25, 5949697.575000000186265 ], [ 41966.17500000000291, 5949697.575000000186265 ], [ 41966.17500000000291, 5949697.5 ], [ 41966.025000000001455, 5949697.5 ], [ 41966.025000000001455, 5949697.424999999813735 ], [ 41965.94999999999709, 5949697.424999999813735 ], [ 41965.94999999999709, 5949697.349999999627471 ], [ 41965.875, 5949697.349999999627471 ], [ 41965.875, 5949697.275000000372529 ], [ 41965.80000000000291, 5949697.275000000372529 ], [ 41965.80000000000291, 5949697.200000000186265 ], [ 41965.724999999998545, 5949697.200000000186265 ], [ 41965.724999999998545, 5949697.125 ], [ 41965.650000000001455, 5949697.125 ], [ 41965.650000000001455, 5949697.049999999813735 ], [ 41965.5, 5949697.049999999813735 ], [ 41965.5, 5949696.974999999627471 ], [ 41965.42500000000291, 5949696.974999999627471 ], [ 41965.42500000000291, 5949696.900000000372529 ], [ 41965.349999999998545, 5949696.900000000372529 ], [ 41965.349999999998545, 5949696.825000000186265 ], [ 41965.19999999999709, 5949696.825000000186265 ], [ 41965.19999999999709, 5949696.75 ], [ 41964.974999999998545, 5949696.75 ], [ 41964.974999999998545, 5949696.674999999813735 ], [ 41964.82499999999709, 5949696.674999999813735 ], [ 41964.82499999999709, 5949696.599999999627471 ], [ 41964.67500000000291, 5949696.599999999627471 ], [ 41964.67500000000291, 5949696.525000000372529 ], [ 41964.44999999999709, 5949696.525000000372529 ], [ 41964.44999999999709, 5949696.450000000186265 ], [ 41964.30000000000291, 5949696.450000000186265 ], [ 41964.30000000000291, 5949696.375 ], [ 41964.150000000001455, 5949696.375 ], [ 41964.150000000001455, 5949696.299999999813735 ], [ 41964.07499999999709, 5949696.299999999813735 ], [ 41964.07499999999709, 5949696.224999999627471 ], [ 41963.92500000000291, 5949696.224999999627471 ], [ 41963.92500000000291, 5949696.150000000372529 ], [ 41963.775000000001455, 5949696.150000000372529 ], [ 41963.775000000001455, 5949696.075000000186265 ], [ 41963.69999999999709, 5949696.075000000186265 ], [ 41963.69999999999709, 5949696.0 ], [ 41963.55000000000291, 5949696.0 ], [ 41963.55000000000291, 5949695.924999999813735 ], [ 41963.474999999998545, 5949695.924999999813735 ], [ 41963.474999999998545, 5949695.849999999627471 ], [ 41963.32499999999709, 5949695.849999999627471 ], [ 41963.32499999999709, 5949695.775000000372529 ], [ 41963.25, 5949695.775000000372529 ], [ 41963.25, 5949695.700000000186265 ], [ 41963.17500000000291, 5949695.700000000186265 ], [ 41963.17500000000291, 5949695.625 ], [ 41963.099999999998545, 5949695.625 ], [ 41963.099999999998545, 5949695.549999999813735 ], [ 41963.025000000001455, 5949695.549999999813735 ], [ 41963.025000000001455, 5949695.474999999627471 ], [ 41962.94999999999709, 5949695.474999999627471 ], [ 41962.94999999999709, 5949695.325000000186265 ], [ 41962.875, 5949695.325000000186265 ], [ 41962.875, 5949695.25 ], [ 41962.80000000000291, 5949695.25 ], [ 41962.80000000000291, 5949695.099999999627471 ], [ 41962.724999999998545, 5949695.099999999627471 ], [ 41962.724999999998545, 5949694.950000000186265 ], [ 41962.650000000001455, 5949694.950000000186265 ], [ 41962.650000000001455, 5949694.799999999813735 ], [ 41962.57499999999709, 5949694.799999999813735 ], [ 41962.57499999999709, 5949694.575000000186265 ], [ 41962.5, 5949694.575000000186265 ], [ 41962.5, 5949694.424999999813735 ], [ 41962.42500000000291, 5949694.424999999813735 ], [ 41962.42500000000291, 5949694.200000000186265 ], [ 41962.349999999998545, 5949694.200000000186265 ], [ 41962.349999999998545, 5949693.974999999627471 ], [ 41962.275000000001455, 5949693.974999999627471 ], [ 41962.275000000001455, 5949693.674999999813735 ], [ 41962.19999999999709, 5949693.674999999813735 ], [ 41962.19999999999709, 5949693.375 ], [ 41962.125, 5949693.375 ], [ 41962.125, 5949692.700000000186265 ], [ 41962.05000000000291, 5949692.700000000186265 ], [ 41962.05000000000291, 5949691.799999999813735 ], [ 41961.974999999998545, 5949691.799999999813735 ], [ 41961.974999999998545, 5949690.525000000372529 ], [ 41961.900000000001455, 5949690.525000000372529 ], [ 41961.900000000001455, 5949688.875 ], [ 41961.82499999999709, 5949688.875 ], [ 41961.82499999999709, 5949687.525000000372529 ], [ 41961.75, 5949687.525000000372529 ], [ 41961.75, 5949686.400000000372529 ], [ 41961.67500000000291, 5949686.400000000372529 ], [ 41961.67500000000291, 5949685.424999999813735 ], [ 41961.599999999998545, 5949685.424999999813735 ], [ 41961.599999999998545, 5949684.375 ], [ 41961.525000000001455, 5949684.375 ], [ 41961.525000000001455, 5949683.400000000372529 ], [ 41961.44999999999709, 5949683.400000000372529 ], [ 41961.44999999999709, 5949682.424999999813735 ], [ 41961.375, 5949682.424999999813735 ], [ 41961.375, 5949681.525000000372529 ], [ 41961.30000000000291, 5949681.525000000372529 ], [ 41961.30000000000291, 5949680.625 ], [ 41961.224999999998545, 5949680.625 ], [ 41961.224999999998545, 5949679.799999999813735 ], [ 41961.150000000001455, 5949679.799999999813735 ], [ 41961.150000000001455, 5949678.75 ], [ 41961.07499999999709, 5949678.75 ], [ 41961.07499999999709, 5949677.775000000372529 ], [ 41961.0, 5949677.775000000372529 ], [ 41961.0, 5949677.625 ], [ 41961.07499999999709, 5949677.625 ], [ 41961.07499999999709, 5949677.549999999813735 ], [ 41961.150000000001455, 5949677.549999999813735 ], [ 41961.150000000001455, 5949677.400000000372529 ], [ 41961.224999999998545, 5949677.400000000372529 ], [ 41961.224999999998545, 5949677.325000000186265 ], [ 41961.30000000000291, 5949677.325000000186265 ], [ 41961.30000000000291, 5949677.25 ], [ 41961.375, 5949677.25 ], [ 41961.375, 5949677.174999999813735 ], [ 41961.44999999999709, 5949677.174999999813735 ], [ 41961.44999999999709, 5949677.099999999627471 ], [ 41961.525000000001455, 5949677.099999999627471 ], [ 41961.525000000001455, 5949677.025000000372529 ], [ 41961.599999999998545, 5949677.025000000372529 ], [ 41961.599999999998545, 5949676.875 ], [ 41961.67500000000291, 5949676.875 ], [ 41961.67500000000291, 5949676.799999999813735 ], [ 41961.75, 5949676.799999999813735 ], [ 41961.75, 5949676.650000000372529 ], [ 41961.82499999999709, 5949676.650000000372529 ], [ 41961.82499999999709, 5949676.575000000186265 ], [ 41961.900000000001455, 5949676.575000000186265 ], [ 41961.900000000001455, 5949676.424999999813735 ], [ 41961.974999999998545, 5949676.424999999813735 ], [ 41961.974999999998545, 5949676.275000000372529 ], [ 41962.05000000000291, 5949676.275000000372529 ], [ 41962.05000000000291, 5949676.125 ], [ 41962.125, 5949676.125 ], [ 41962.125, 5949675.974999999627471 ], [ 41962.19999999999709, 5949675.974999999627471 ], [ 41962.19999999999709, 5949675.75 ], [ 41962.275000000001455, 5949675.75 ], [ 41962.275000000001455, 5949675.599999999627471 ], [ 41962.349999999998545, 5949675.599999999627471 ], [ 41962.349999999998545, 5949675.525000000372529 ], [ 41962.42500000000291, 5949675.525000000372529 ], [ 41962.42500000000291, 5949675.375 ], [ 41962.5, 5949675.375 ], [ 41962.5, 5949675.299999999813735 ], [ 41962.57499999999709, 5949675.299999999813735 ], [ 41962.57499999999709, 5949675.224999999627471 ], [ 41962.650000000001455, 5949675.224999999627471 ], [ 41962.650000000001455, 5949675.150000000372529 ], [ 41962.724999999998545, 5949675.150000000372529 ], [ 41962.724999999998545, 5949675.075000000186265 ], [ 41962.80000000000291, 5949675.075000000186265 ], [ 41962.80000000000291, 5949675.0 ], [ 41962.875, 5949675.0 ], [ 41962.875, 5949674.924999999813735 ], [ 41963.025000000001455, 5949674.924999999813735 ], [ 41963.025000000001455, 5949674.849999999627471 ], [ 41963.099999999998545, 5949674.849999999627471 ], [ 41963.099999999998545, 5949674.775000000372529 ], [ 41963.25, 5949674.775000000372529 ], [ 41963.25, 5949674.700000000186265 ], [ 41963.474999999998545, 5949674.700000000186265 ], [ 41963.474999999998545, 5949674.625 ], [ 41963.69999999999709, 5949674.625 ], [ 41963.69999999999709, 5949674.549999999813735 ], [ 41964.0, 5949674.549999999813735 ], [ 41964.0, 5949674.474999999627471 ], [ 41964.224999999998545, 5949674.474999999627471 ], [ 41964.224999999998545, 5949674.400000000372529 ], [ 41964.44999999999709, 5949674.400000000372529 ], [ 41964.44999999999709, 5949674.325000000186265 ], [ 41964.67500000000291, 5949674.325000000186265 ], [ 41964.67500000000291, 5949674.25 ], [ 41964.900000000001455, 5949674.25 ], [ 41964.900000000001455, 5949674.174999999813735 ], [ 41965.125, 5949674.174999999813735 ], [ 41965.125, 5949674.099999999627471 ], [ 41965.275000000001455, 5949674.099999999627471 ], [ 41965.275000000001455, 5949674.025000000372529 ], [ 41965.349999999998545, 5949674.025000000372529 ], [ 41965.349999999998545, 5949673.950000000186265 ], [ 41965.42500000000291, 5949673.950000000186265 ], [ 41965.42500000000291, 5949673.875 ], [ 41965.5, 5949673.875 ], [ 41965.5, 5949673.799999999813735 ], [ 41965.57499999999709, 5949673.799999999813735 ], [ 41965.57499999999709, 5949673.724999999627471 ], [ 41965.650000000001455, 5949673.724999999627471 ], [ 41965.650000000001455, 5949673.650000000372529 ], [ 41965.724999999998545, 5949673.650000000372529 ], [ 41965.724999999998545, 5949673.575000000186265 ], [ 41965.80000000000291, 5949673.575000000186265 ], [ 41965.80000000000291, 5949673.5 ], [ 41965.875, 5949673.5 ], [ 41965.875, 5949673.424999999813735 ], [ 41966.025000000001455, 5949673.424999999813735 ], [ 41966.025000000001455, 5949673.349999999627471 ], [ 41966.099999999998545, 5949673.349999999627471 ], [ 41966.099999999998545, 5949673.275000000372529 ], [ 41966.25, 5949673.275000000372529 ], [ 41966.25, 5949673.200000000186265 ], [ 41966.32499999999709, 5949673.200000000186265 ], [ 41966.32499999999709, 5949673.125 ], [ 41966.474999999998545, 5949673.125 ], [ 41966.474999999998545, 5949673.049999999813735 ], [ 41966.625, 5949673.049999999813735 ], [ 41966.625, 5949672.974999999627471 ], [ 41966.775000000001455, 5949672.974999999627471 ], [ 41966.775000000001455, 5949672.900000000372529 ], [ 41967.0, 5949672.900000000372529 ], [ 41967.0, 5949672.825000000186265 ], [ 41967.150000000001455, 5949672.825000000186265 ], [ 41967.150000000001455, 5949672.75 ], [ 41969.474999999998545, 5949672.75 ], [ 41969.474999999998545, 5949672.825000000186265 ], [ 41970.44999999999709, 5949672.825000000186265 ], [ 41970.44999999999709, 5949672.900000000372529 ], [ 41971.275000000001455, 5949672.900000000372529 ], [ 41971.275000000001455, 5949672.974999999627471 ], [ 41971.80000000000291, 5949672.974999999627471 ], [ 41971.80000000000291, 5949673.049999999813735 ], [ 41972.25, 5949673.049999999813735 ], [ 41972.25, 5949673.125 ], [ 41972.69999999999709, 5949673.125 ], [ 41972.69999999999709, 5949673.200000000186265 ], [ 41973.07499999999709, 5949673.200000000186265 ], [ 41973.07499999999709, 5949673.275000000372529 ], [ 41973.224999999998545, 5949673.275000000372529 ], [ 41973.224999999998545, 5949673.349999999627471 ], [ 41973.375, 5949673.349999999627471 ], [ 41973.375, 5949673.424999999813735 ], [ 41973.525000000001455, 5949673.424999999813735 ], [ 41973.525000000001455, 5949673.5 ], [ 41973.67500000000291, 5949673.5 ], [ 41973.67500000000291, 5949673.575000000186265 ], [ 41973.82499999999709, 5949673.575000000186265 ], [ 41973.82499999999709, 5949673.650000000372529 ], [ 41973.900000000001455, 5949673.650000000372529 ], [ 41973.900000000001455, 5949673.724999999627471 ], [ 41973.974999999998545, 5949673.724999999627471 ], [ 41973.974999999998545, 5949673.799999999813735 ], [ 41974.125, 5949673.799999999813735 ], [ 41974.125, 5949673.875 ], [ 41974.19999999999709, 5949673.875 ], [ 41974.19999999999709, 5949673.950000000186265 ], [ 41974.275000000001455, 5949673.950000000186265 ], [ 41974.275000000001455, 5949674.025000000372529 ], [ 41974.42500000000291, 5949674.025000000372529 ], [ 41974.42500000000291, 5949674.099999999627471 ], [ 41974.5, 5949674.099999999627471 ], [ 41974.5, 5949674.174999999813735 ], [ 41974.650000000001455, 5949674.174999999813735 ], [ 41974.650000000001455, 5949674.25 ], [ 41974.80000000000291, 5949674.25 ], [ 41974.80000000000291, 5949674.325000000186265 ], [ 41974.94999999999709, 5949674.325000000186265 ], [ 41974.94999999999709, 5949674.400000000372529 ], [ 41975.099999999998545, 5949674.400000000372529 ], [ 41975.099999999998545, 5949674.474999999627471 ], [ 41975.32499999999709, 5949674.474999999627471 ], [ 41975.32499999999709, 5949674.549999999813735 ], [ 41975.474999999998545, 5949674.549999999813735 ], [ 41975.474999999998545, 5949674.625 ], [ 41975.625, 5949674.625 ], [ 41975.625, 5949674.700000000186265 ], [ 41975.775000000001455, 5949674.700000000186265 ], [ 41975.775000000001455, 5949674.775000000372529 ], [ 41975.92500000000291, 5949674.775000000372529 ], [ 41975.92500000000291, 5949674.849999999627471 ], [ 41976.150000000001455, 5949674.849999999627471 ], [ 41976.150000000001455, 5949674.924999999813735 ], [ 41976.30000000000291, 5949674.924999999813735 ], [ 41976.30000000000291, 5949675.0 ], [ 41976.44999999999709, 5949675.0 ], [ 41976.44999999999709, 5949675.075000000186265 ], [ 41976.67500000000291, 5949675.075000000186265 ], [ 41976.67500000000291, 5949675.150000000372529 ], [ 41976.82499999999709, 5949675.150000000372529 ], [ 41976.82499999999709, 5949675.224999999627471 ], [ 41976.974999999998545, 5949675.224999999627471 ], [ 41976.974999999998545, 5949675.299999999813735 ], [ 41977.05000000000291, 5949675.299999999813735 ], [ 41977.05000000000291, 5949675.375 ], [ 41977.125, 5949675.375 ], [ 41977.125, 5949675.450000000186265 ], [ 41977.19999999999709, 5949675.450000000186265 ], [ 41977.19999999999709, 5949675.525000000372529 ], [ 41977.275000000001455, 5949675.525000000372529 ], [ 41977.275000000001455, 5949675.599999999627471 ], [ 41977.349999999998545, 5949675.599999999627471 ], [ 41977.349999999998545, 5949675.75 ], [ 41977.42500000000291, 5949675.75 ], [ 41977.42500000000291, 5949676.049999999813735 ], [ 41977.5, 5949676.049999999813735 ], [ 41977.5, 5949676.424999999813735 ], [ 41977.57499999999709, 5949676.424999999813735 ], [ 41977.57499999999709, 5949676.799999999813735 ], [ 41977.650000000001455, 5949676.799999999813735 ], [ 41977.650000000001455, 5949677.174999999813735 ], [ 41977.724999999998545, 5949677.174999999813735 ], [ 41977.724999999998545, 5949677.625 ], [ 41977.80000000000291, 5949677.625 ], [ 41977.80000000000291, 5949679.950000000186265 ], [ 41977.875, 5949679.950000000186265 ], [ 41977.875, 5949682.200000000186265 ], [ 41977.94999999999709, 5949682.200000000186265 ], [ 41977.94999999999709, 5949684.224999999627471 ], [ 41978.025000000001455, 5949684.224999999627471 ], [ 41978.025000000001455, 5949686.700000000186265 ], [ 41978.099999999998545, 5949686.700000000186265 ], [ 41978.099999999998545, 5949689.099999999627471 ], [ 41978.17500000000291, 5949689.099999999627471 ], [ 41978.17500000000291, 5949690.974999999627471 ], [ 41978.25, 5949690.974999999627471 ], [ 41978.25, 5949691.424999999813735 ], [ 41978.17500000000291, 5949691.424999999813735 ], [ 41978.17500000000291, 5949692.025000000372529 ], [ 41978.099999999998545, 5949692.025000000372529 ], [ 41978.099999999998545, 5949692.700000000186265 ], [ 41978.025000000001455, 5949692.700000000186265 ], [ 41978.025000000001455, 5949693.299999999813735 ], [ 41977.94999999999709, 5949693.299999999813735 ], [ 41977.94999999999709, 5949693.450000000186265 ], [ 41977.875, 5949693.450000000186265 ], [ 41977.875, 5949693.599999999627471 ], [ 41977.80000000000291, 5949693.599999999627471 ], [ 41977.80000000000291, 5949693.75 ], [ 41977.724999999998545, 5949693.75 ], [ 41977.724999999998545, 5949693.900000000372529 ], [ 41977.650000000001455, 5949693.900000000372529 ], [ 41977.650000000001455, 5949693.974999999627471 ], [ 41977.57499999999709, 5949693.974999999627471 ], [ 41977.57499999999709, 5949694.125 ], [ 41977.5, 5949694.125 ], [ 41977.5, 5949694.200000000186265 ], [ 41977.42500000000291, 5949694.200000000186265 ], [ 41977.42500000000291, 5949694.275000000372529 ], [ 41977.349999999998545, 5949694.275000000372529 ], [ 41977.349999999998545, 5949694.349999999627471 ], [ 41977.275000000001455, 5949694.349999999627471 ], [ 41977.275000000001455, 5949694.424999999813735 ], [ 41977.19999999999709, 5949694.424999999813735 ], [ 41977.19999999999709, 5949694.5 ], [ 41977.125, 5949694.5 ], [ 41977.125, 5949694.575000000186265 ], [ 41977.05000000000291, 5949694.575000000186265 ], [ 41977.05000000000291, 5949694.650000000372529 ], [ 41976.974999999998545, 5949694.650000000372529 ], [ 41976.974999999998545, 5949694.724999999627471 ], [ 41976.900000000001455, 5949694.724999999627471 ], [ 41976.900000000001455, 5949694.799999999813735 ], [ 41976.75, 5949694.799999999813735 ], [ 41976.75, 5949694.875 ], [ 41976.67500000000291, 5949694.875 ], [ 41976.67500000000291, 5949694.950000000186265 ], [ 41976.599999999998545, 5949694.950000000186265 ], [ 41976.599999999998545, 5949695.025000000372529 ], [ 41976.525000000001455, 5949695.025000000372529 ], [ 41976.525000000001455, 5949695.174999999813735 ], [ 41976.44999999999709, 5949695.174999999813735 ], [ 41976.44999999999709, 5949695.25 ], [ 41976.375, 5949695.25 ], [ 41976.375, 5949695.325000000186265 ], [ 41976.30000000000291, 5949695.325000000186265 ], [ 41976.30000000000291, 5949695.400000000372529 ], [ 41976.224999999998545, 5949695.400000000372529 ], [ 41976.224999999998545, 5949695.549999999813735 ], [ 41976.150000000001455, 5949695.549999999813735 ], [ 41976.150000000001455, 5949695.625 ], [ 41976.07499999999709, 5949695.625 ], [ 41976.07499999999709, 5949695.700000000186265 ], [ 41975.92500000000291, 5949695.700000000186265 ], [ 41975.92500000000291, 5949695.775000000372529 ], [ 41975.849999999998545, 5949695.775000000372529 ], [ 41975.849999999998545, 5949695.849999999627471 ], [ 41975.775000000001455, 5949695.849999999627471 ], [ 41975.775000000001455, 5949695.924999999813735 ], [ 41975.69999999999709, 5949695.924999999813735 ], [ 41975.69999999999709, 5949696.0 ], [ 41975.55000000000291, 5949696.0 ], [ 41975.55000000000291, 5949696.075000000186265 ], [ 41975.400000000001455, 5949696.075000000186265 ], [ 41975.400000000001455, 5949696.150000000372529 ], [ 41975.32499999999709, 5949696.150000000372529 ], [ 41975.32499999999709, 5949696.224999999627471 ], [ 41975.17500000000291, 5949696.224999999627471 ], [ 41975.17500000000291, 5949696.299999999813735 ], [ 41974.94999999999709, 5949696.299999999813735 ], [ 41974.94999999999709, 5949696.375 ], [ 41974.5, 5949696.375 ], [ 41974.5, 5949696.450000000186265 ], [ 41974.05000000000291, 5949696.450000000186265 ], [ 41974.05000000000291, 5949696.525000000372529 ], [ 41973.67500000000291, 5949696.525000000372529 ], [ 41973.67500000000291, 5949696.599999999627471 ], [ 41973.224999999998545, 5949696.599999999627471 ], [ 41973.224999999998545, 5949696.674999999813735 ], [ 41972.92500000000291, 5949696.674999999813735 ], [ 41972.92500000000291, 5949696.75 ], [ 41972.69999999999709, 5949696.75 ], [ 41972.69999999999709, 5949696.825000000186265 ], [ 41972.474999999998545, 5949696.825000000186265 ], [ 41972.474999999998545, 5949696.900000000372529 ], [ 41972.32499999999709, 5949696.900000000372529 ], [ 41972.32499999999709, 5949696.974999999627471 ], [ 41972.17500000000291, 5949696.974999999627471 ], [ 41972.17500000000291, 5949697.049999999813735 ], [ 41971.94999999999709, 5949697.049999999813735 ], [ 41971.94999999999709, 5949697.125 ], [ 41971.875, 5949697.125 ], [ 41971.875, 5949697.200000000186265 ], [ 41971.724999999998545, 5949697.200000000186265 ], [ 41971.724999999998545, 5949697.275000000372529 ], [ 41971.57499999999709, 5949697.275000000372529 ], [ 41971.57499999999709, 5949697.349999999627471 ], [ 41971.42500000000291, 5949697.349999999627471 ], [ 41971.42500000000291, 5949697.424999999813735 ], [ 41971.19999999999709, 5949697.424999999813735 ], [ 41971.19999999999709, 5949697.5 ], [ 41971.05000000000291, 5949697.5 ], [ 41971.05000000000291, 5949697.575000000186265 ], [ 41970.900000000001455, 5949697.575000000186265 ], [ 41970.900000000001455, 5949697.650000000372529 ], [ 41970.67500000000291, 5949697.650000000372529 ], [ 41970.67500000000291, 5949697.724999999627471 ], [ 41970.44999999999709, 5949697.724999999627471 ], [ 41970.44999999999709, 5949697.799999999813735 ], [ 41970.224999999998545, 5949697.799999999813735 ], [ 41970.224999999998545, 5949697.875 ], [ 41970.0, 5949697.875 ], [ 41970.0, 5949697.950000000186265 ], [ 41969.69999999999709, 5949697.950000000186265 ], [ 41969.69999999999709, 5949698.025000000372529 ], [ 41969.400000000001455, 5949698.025000000372529 ], [ 41969.400000000001455, 5949698.099999999627471 ], [ 41967.44999999999709, 5949698.099999999627471 ] ] ] } },
{ "type": "Feature", "properties": { "value": 1.0, "building_id": 1, "area": 35.915625000275547 }, "geometry": { "type": "Polygon", "coordinates": [ [ [ 41843.849999999998545, 5949633.075000000186265 ], [ 41843.849999999998545, 5949633.0 ], [ 41843.55000000000291, 5949633.0 ], [ 41843.55000000000291, 5949632.924999999813735 ], [ 41843.32499999999709, 5949632.924999999813735 ], [ 41843.32499999999709, 5949632.849999999627471 ], [ 41843.025000000001455, 5949632.849999999627471 ], [ 41843.025000000001455, 5949632.775000000372529 ], [ 41842.80000000000291, 5949632.775000000372529 ], [ 41842.80000000000291, 5949632.700000000186265 ], [ 41842.57499999999709, 5949632.700000000186265 ], [ 41842.57499999999709, 5949632.625 ], [ 41842.349999999998545, 5949632.625 ], [ 41842.349999999998545, 5949632.549999999813735 ], [ 41842.125, 5949632.549999999813735 ], [ 41842.125, 5949632.474999999627471 ], [ 41842.05000000000291, 5949632.474999999627471 ], [ 41842.05000000000291, 5949632.400000000372529 ], [ 41841.974999999998545, 5949632.400000000372529 ], [ 41841.974999999998545, 5949632.325000000186265 ], [ 41841.82499999999709, 5949632.325000000186265 ], [ 41841.82499999999709, 5949632.25 ], [ 41841.75, 5949632.25 ], [ 41841.75, 5949632.174999999813735 ], [ 41841.67500000000291, 5949632.174999999813735 ], [ 41841.67500000000291, 5949632.099999999627471 ], [ 41841.599999999998545, 5949632.099999999627471 ], [ 41841.599999999998545, 5949632.025000000372529 ], [ 41841.525000000001455, 5949632.025000000372529 ], [ 41841.525000000001455, 5949631.950000000186265 ], [ 41841.375, 5949631.950000000186265 ], [ 41841.375, 5949631.875 ], [ 41841.30000000000291, 5949631.875 ], [ 41841.30000000000291, 5949631.799999999813735 ], [ 41841.224999999998545, 5949631.799999999813735 ], [ 41841.224999999998545, 5949631.724999999627471 ], [ 41841.150000000001455, 5949631.724999999627471 ], [ 41841.150000000001455, 5949631.650000000372529 ], [ 41841.07499999999709, 5949631.650000000372529 ], [ 41841.07499999999709, 5949631.575000000186265 ], [ 41841.0, 5949631.575000000186265 ], [ 41841.0, 5949631.5 ], [ 41840.92500000000291, 5949631.5 ], [ 41840.92500000000291, 5949631.424999999813735 ], [ 41840.849999999998545, 5949631.424999999813735 ], [ 41840.849999999998545, 5949631.349999999627471 ], [ 41840.775000000001455, 5949631.349999999627471 ], [ 41840.775000000001455, 5949631.275000000372529 ], [ 41840.69999999999709, 5949631.275000000372529 ], [ 41840.69999999999709, 5949631.200000000186265 ], [ 41840.625, 5949631.200000000186265 ], [ 41840.625, 5949631.125 ], [ 41840.55000000000291, 5949631.125 ], [ 41840.55000000000291, 5949630.974999999627471 ], [ 41840.474999999998545, 5949630.974999999627471 ], [ 41840.474999999998545, 5949630.900000000372529 ], [ 41840.400000000001455, 5949630.900000000372529 ], [ 41840.400000000001455, 5949630.825000000186265 ], [ 41840.32499999999709, 5949630.825000000186265 ], [ 41840.32499999999709, 5949630.674999999813735 ], [ 41840.25, 5949630.674999999813735 ], [ 41840.25, 5949630.299999999813735 ], [ 41840.17500000000291, 5949630.299999999813735 ], [ 41840.17500000000291, 5949629.924999999813735 ], [ 41840.099999999998545, 5949629.924999999813735 ], [ 41840.099999999998545, 5949629.474999999627471 ], [ 41840.025000000001455, 5949629.474999999627471 ], [ 41840.025000000001455, 5949629.099999999627471 ], [ 41839.94999999999709, 5949629.099999999627471 ], [ 41839.94999999999709, 5949628.724999999627471 ], [ 41840.025000000001455, 5949628.724999999627471 ], [ 41840.025000000001455, 5949628.650000000372529 ], [ 41840.099999999998545, 5949628.650000000372529 ], [ 41840.099999999998545, 5949628.575000000186265 ], [ 41840.17500000000291, 5949628.575000000186265 ], [ 41840.17500000000291, 5949628.5 ], [ 41840.25, 5949628.5 ], [ 41840.25, 5949628.424999999813735 ], [ 41840.32499999999709, 5949628.424999999813735 ], [ 41840.32499999999709, 5949628.349999999627471 ], [ 41840.400000000001455, 5949628.349999999627471 ], [ 41840.400000000001455, 5949628.275000000372529 ], [ 41840.474999999998545, 5949628.275000000372529 ], [ 41840.474999999998545, 5949628.125 ], [ 41840.55000000000291, 5949628.125 ], [ 41840.55000000000291, 5949628.049999999813735 ], [ 41840.625, 5949628.049999999813735 ], [ 41840.625, 5949627.974999999627471 ], [ 41840.69999999999709, 5949627.974999999627471 ], [ 41840.69999999999709, 5949627.900000000372529 ], [ 41840.775000000001455, 5949627.900000000372529 ], [ 41840.775000000001455, 5949627.825000000186265 ], [ 41840.849999999998545, 5949627.825000000186265 ], [ 41840.849999999998545, 5949627.75 ], [ 41840.92500000000291, 5949627.75 ], [ 41840.92500000000291, 5949627.599999999627471 ], [ 41841.0, 5949627.599999999627471 ], [ 41841.0, 5949627.525000000372529 ], [ 41841.07499999999709, 5949627.525000000372529 ], [ 41841.07499999999709, 5949627.450000000186265 ], [ 41841.150000000001455, 5949627.450000000186265 ], [ 41841.150000000001455, 5949627.375 ], [ 41841.224999999998545, 5949627.375 ], [ 41841.224999999998545, 5949627.224999999627471 ], [ 41841.30000000000291, 5949627.224999999627471 ], [ 41841.30000000000291, 5949627.150000000372529 ], [ 41841.375, 5949627.150000000372529 ], [ 41841.375, 5949627.0 ], [ 41841.44999999999709, 5949627.0 ], [ 41841.44999999999709, 5949626.924999999813735 ], [ 41841.525000000001455, 5949626.924999999813735 ], [ 41841.525000000001455, 5949626.849999999627471 ], [ 41841.599999999998545, 5949626.849999999627471 ], [ 41841.599999999998545, 5949626.700000000186265 ], [ 41841.67500000000291, 5949626.700000000186265 ], [ 41841.67500000000291, 5949626.625 ], [ 41841.82499999999709, 5949626.625 ], [ 41841.82499999999709, 5949626.549999999813735 ], [ 41841.900000000001455, 5949626.549999999813735 ], [ 41841.900000000001455, 5949626.474999999627471 ], [ 41841.974999999998545, 5949626.474999999627471 ], [ 41841.974999999998545, 5949626.400000000372529 ], [ 41842.05000000000291, 5949626.400000000372529 ], [ 41842.05000000000291, 5949626.325000000186265 ], [ 41842.19999999999709, 5949626.325000000186265 ], [ 41842.19999999999709, 5949626.25 ], [ 41842.94999999999709, 5949626.25 ], [ 41842.94999999999709, 5949626.174999999813735 ], [ 41843.849999999998545, 5949626.174999999813735 ], [ 41843.849999999998545, 5949626.099999999627471 ], [ 41844.150000000001455, 5949626.099999999627471 ], [ 41844.150000000001455, 5949626.174999999813735 ], [ 41844.30000000000291, 5949626.174999999813735 ], [ 41844.30000000000291, 5949626.25 ], [ 41844.44999999999709, 5949626.25 ], [ 41844.44999999999709, 5949626.325000000186265 ], [ 41844.599999999998545, 5949626.325000000186265 ], [ 41844.599999999998545, 5949626.400000000372529 ], [ 41844.67500000000291, 5949626.400000000372529 ], [ 41844.67500000000291, 5949626.474999999627471 ], [ 41844.82499999999709, 5949626.474999999627471 ], [ 41844.82499999999709, 5949626.549999999813735 ], [ 41844.900000000001455, 5949626.549999999813735 ], [ 41844.900000000001455, 5949626.625 ], [ 41844.974999999998545, 5949626.625 ], [ 41844.974999999998545, 5949626.700000000186265 ], [ 41845.05000000000291, 5949626.700000000186265 ], [ 41845.05000000000291, 5949626.775000000372529 ], [ 41845.19999999999709, 5949626.775000000372529 ], [ 41845.19999999999709, 5949626.849999999627471 ], [ 41845.275000000001455, 5949626.849999999627471 ], [ 41845.275000000001455, 5949627.0 ], [ 41845.349999999998545, 5949627.0 ], [ 41845.349999999998545, 5949627.075000000186265 ], [ 41845.42500000000291, 5949627.075000000186265 ], [ 41845.42500000000291, 5949627.150000000372529 ], [ 41845.5, 5949627.150000000372529 ], [ 41845.5, 5949627.224999999627471 ], [ 41845.57499999999709, 5949627.224999999627471 ], [ 41845.57499999999709, 5949627.299999999813735 ], [ 41845.724999999998545, 5949627.299999999813735 ], [ 41845.724999999998545, 5949627.375 ], [ 41845.80000000000291, 5949627.375 ], [ 41845.80000000000291, 5949627.450000000186265 ], [ 41845.875, 5949627.450000000186265 ], [ 41845.875, 5949627.525000000372529 ], [ 41845.94999999999709, 5949627.525000000372529 ], [ 41845.94999999999709, 5949627.599999999627471 ], [ 41846.099999999998545, 5949627.599999999627471 ], [ 41846.099999999998545, 5949627.674999999813735 ], [ 41846.17500000000291, 5949627.674999999813735 ], [ 41846.17500000000291, 5949627.75 ], [ 41846.25, 5949627.75 ], [ 41846.25, 5949627.825000000186265 ], [ 41846.32499999999709, 5949627.825000000186265 ], [ 41846.32499999999709, 5949627.900000000372529 ], [ 41846.400000000001455, 5949627.900000000372529 ], [ 41846.400000000001455, 5949627.974999999627471 ], [ 41846.474999999998545, 5949627.974999999627471 ], [ 41846.474999999998545, 5949628.049999999813735 ], [ 41846.55000000000291, 5949628.049999999813735 ], [ 41846.55000000000291, 5949628.200000000186265 ], [ 41846.625, 5949628.200000000186265 ], [ 41846.625, 5949628.275000000372529 ], [ 41846.69999999999709, 5949628.275000000372529 ], [ 41846.69999999999709, 5949628.349999999627471 ], [ 41846.775000000001455, 5949628.349999999627471 ], [ 41846.775000000001455, 5949628.5 ], [ 41846.849999999998545, 5949628.5 ], [ 41846.849999999998545, 5949628.575000000186265 ], [ 41846.92500000000291, 5949628.575000000186265 ], [ 41846.92500000000291, 5949628.650000000372529 ], [ 41847.0, 5949628.650000000372529 ], [ 41847.0, 5949628.799999999813735 ], [ 41847.07499999999709, 5949628.799999999813735 ], [ 41847.07499999999709, 5949630.825000000186265 ], [ 41847.0, 5949630.825000000186265 ], [ 41847.0, 5949630.900000000372529 ], [ 41846.92500000000291, 5949630.900000000372529 ], [ 41846.92500000000291, 5949630.974999999627471 ], [ 41846.849999999998545, 5949630.974999999627471 ], [ 41846.849999999998545, 5949631.125 ], [ 41846.775000000001455, 5949631.125 ], [ 41846.775000000001455, 5949631.200000000186265 ], [ 41846.69999999999709, 5949631.200000000186265 ], [ 41846.69999999999709, 5949631.275000000372529 ], [ 41846.625, 5949631.275000000372529 ], [ 41846.625, 5949631.349999999627471 ], [ 41846.55000000000291, 5949631.349999999627471 ], [ 41846.55000000000291, 5949631.424999999813735 ], [ 41846.474999999998545, 5949631.424999999813735 ], [ 41846.474999999998545, 5949631.5 ], [ 41846.400000000001455, 5949631.5 ], [ 41846.400000000001455, 5949631.575000000186265 ], [ 41846.32499999999709, 5949631.575000000186265 ], [ 41846.32499999999709, 5949631.650000000372529 ], [ 41846.25, 5949631.650000000372529 ], [ 41846.25, 5949631.724999999627471 ], [ 41846.17500000000291, 5949631.724999999627471 ], [ 41846.17500000000291, 5949631.799999999813735 ], [ 41846.025000000001455, 5949631.799999999813735 ], [ 41846.025000000001455, 5949631.875 ], [ 41845.94999999999709, 5949631.875 ], [ 41845.94999999999709, 5949631.950000000186265 ], [ 41845.80000000000291, 5949631.950000000186265 ], [ 41845.80000000000291, 5949632.025000000372529 ], [ 41845.650000000001455, 5949632.025000000372529 ], [ 41845.650000000001455, 5949632.099999999627471 ], [ 41845.57499999999709, 5949632.099999999627471 ], [ 41845.57499999999709, 5949632.174999999813735 ], [ 41845.42500000000291, 5949632.174999999813735 ], [ 41845.42500000000291, 5949632.25 ], [ 41845.349999999998545, 5949632.25 ], [ 41845.349999999998545, 5949632.325000000186265 ], [ 41845.275000000001455, 5949632.325000000186265 ], [ 41845.275000000001455, 5949632.400000000372529 ], [ 41845.125, 5949632.400000000372529 ], [ 41845.125, 5949632.474999999627471 ], [ 41845.05000000000291, 5949632.474999999627471 ], [ 41845.05000000000291, 5949632.549999999813735 ], [ 41844.974999999998545, 5949632.549999999813735 ], [ 41844.974999999998545, 5949632.625 ], [ 41844.900000000001455, 5949632.625 ], [ 41844.900000000001455, 5949632.700000000186265 ], [ 41844.75, 5949632.700000000186265 ], [ 41844.75, 5949632.775000000372529 ], [ 41844.67500000000291, 5949632.775000000372529 ], [ 41844.67500000000291, 5949632.849999999627471 ], [ 41844.525000000001455, 5949632.849999999627471 ], [ 41844.525000000001455, 5949632.924999999813735 ], [ 41844.375, 5949632.924999999813735 ], [ 41844.375, 5949633.0 ], [ 41844.30000000000291, 5949633.0 ], [ 41844.30000000000291, 5949633.075000000186265 ], [ 41843.849999999998545, 5949633.075000000186265 ] ] ] } },
{ "type": "Feature", "properties": { "value": 1.0, "building_id": 2, "area": 1351.8731249986279 }, "geometry": { "type": "Polygon", "coordinates": [ [ [ 41913.224999999998545, 5949653.700000000186265 ], [ 41913.224999999998545, 5949653.625 ], [ 41912.400000000001455, 5949653.625 ], [ 41912.400000000001455, 5949653.549999999813735 ], [ 41912.025000000001455, 5949653.549999999813735 ], [ 41912.025000000001455, 5949653.474999999627471 ], [ 41911.57499999999709, 5949653.474999999627471 ], [ 41911.57499999999709, 5949653.400000000372529 ], [ 41911.125, 5949653.400000000372529 ], [ 41911.125, 5949653.325000000186265 ], [ 41910.67500000000291, 5949653.325000000186265 ], [ 41910.67500000000291, 5949653.25 ], [ 41909.92500000000291, 5949653.25 ], [ 41909.92500000000291, 5949653.174999999813735 ], [ 41909.25, 5949653.174999999813735 ], [ 41909.25, 5949653.099999999627471 ], [ 41908.57499999999709, 5949653.099999999627471 ], [ 41908.57499999999709, 5949653.025000000372529 ], [ 41908.275000000001455, 5949653.025000000372529 ], [ 41908.275000000001455, 5949652.950000000186265 ], [ 41908.05000000000291, 5949652.950000000186265 ], [ 41908.05000000000291, 5949652.875 ], [ 41907.82499999999709, 5949652.875 ], [ 41907.82499999999709, 5949652.799999999813735 ], [ 41907.599999999998545, 5949652.799999999813735 ], [ 41907.599999999998545, 5949652.724999999627471 ], [ 41907.44999999999709, 5949652.724999999627471 ], [ 41907.44999999999709, 5949652.650000000372529 ], [ 41907.224999999998545, 5949652.650000000372529 ], [ 41907.224999999998545, 5949652.575000000186265 ], [ 41907.07499999999709, 5949652.575000000186265 ], [ 41907.07499999999709, 5949652.5 ], [ 41906.92500000000291, 5949652.5 ], [ 41906.92500000000291, 5949652.424999999813735 ], [ 41906.849999999998545, 5949652.424999999813735 ], [ 41906.849999999998545, 5949652.349999999627471 ], [ 41906.69999999999709, 5949652.349999999627471 ], [ 41906.69999999999709, 5949652.275000000372529 ], [ 41906.55000000000291, 5949652.275000000372529 ], [ 41906.55000000000291, 5949652.200000000186265 ], [ 41906.400000000001455, 5949652.200000000186265 ], [ 41906.400000000001455, 5949652.125 ], [ 41906.17500000000291, 5949652.125 ], [ 41906.17500000000291, 5949652.049999999813735 ], [ 41905.94999999999709, 5949652.049999999813735 ], [ 41905.94999999999709, 5949651.974999999627471 ], [ 41905.724999999998545, 5949651.974999999627471 ], [ 41905.724999999998545, 5949651.900000000372529 ], [ 41905.5, 5949651.900000000372529 ], [ 41905.5, 5949651.825000000186265 ], [ 41905.19999999999709, 5949651.825000000186265 ], [ 41905.19999999999709, 5949651.75 ], [ 41904.900000000001455, 5949651.75 ], [ 41904.900000000001455, 5949651.674999999813735 ], [ 41904.224999999998545, 5949651.674999999813735 ], [ 41904.224999999998545, 5949651.599999999627471 ], [ 41903.17500000000291, 5949651.599999999627471 ], [ 41903.17500000000291, 5949651.525000000372529 ], [ 41901.900000000001455, 5949651.525000000372529 ], [ 41901.900000000001455, 5949651.450000000186265 ], [ 41900.025000000001455, 5949651.450000000186265 ], [ 41900.025000000001455, 5949651.375 ], [ 41897.025000000001455, 5949651.375 ], [ 41897.025000000001455, 5949651.299999999813735 ], [ 41888.92500000000291, 5949651.299999999813735 ], [ 41888.92500000000291, 5949651.224999999627471 ], [ 41887.57499999999709, 5949651.224999999627471 ], [ 41887.57499999999709, 5949651.150000000372529 ], [ 41886.900000000001455, 5949651.150000000372529 ], [ 41886.900000000001455, 5949651.075000000186265 ], [ 41886.599999999998545, 5949651.075000000186265 ], [ 41886.599999999998545, 5949651.0 ], [ 41886.375, 5949651.0 ], [ 41886.375, 5949650.924999999813735 ], [ 41886.150000000001455, 5949650.924999999813735 ], [ 41886.150000000001455, 5949650.849999999627471 ], [ 41885.92500000000291, 5949650.849999999627471 ], [ 41885.92500000000291, 5949650.775000000372529 ], [ 41885.775000000001455, 5949650.775000000372529 ], [ 41885.775000000001455, 5949650.700000000186265 ], [ 41885.55000000000291, 5949650.700000000186265 ], [ 41885.55000000000291, 5949650.625 ], [ 41885.400000000001455, 5949650.625 ], [ 41885.400000000001455, 5949650.549999999813735 ], [ 41885.32499999999709, 5949650.549999999813735 ], [ 41885.32499999999709, 5949650.474999999627471 ], [ 41885.17500000000291, 5949650.474999999627471 ], [ 41885.17500000000291, 5949650.400000000372529 ], [ 41885.099999999998545, 5949650.400000000372529 ], [ 41885.099999999998545, 5949650.325000000186265 ], [ 41884.94999999999709, 5949650.325000000186265 ], [ 41884.94999999999709, 5949650.25 ], [ 41884.875, 5949650.25 ], [ 41884.875, 5949650.174999999813735 ], [ 41884.80000000000291, 5949650.174999999813735 ], [ 41884.80000000000291, 5949650.099999999627471 ], [ 41884.724999999998545, 5949650.099999999627471 ], [ 41884.724999999998545, 5949650.025000000372529 ], [ 41884.650000000001455, 5949650.025000000372529 ], [ 41884.650000000001455, 5949649.950000000186265 ], [ 41884.57499999999709, 5949649.950000000186265 ], [ 41884.57499999999709, 5949649.875 ], [ 41884.42500000000291, 5949649.875 ], [ 41884.42500000000291, 5949649.799999999813735 ], [ 41884.349999999998545, 5949649.799999999813735 ], [ 41884.349999999998545, 5949649.724999999627471 ], [ 41884.275000000001455, 5949649.724999999627471 ], [ 41884.275000000001455, 5949649.650000000372529 ], [ 41884.125, 5949649.650000000372529 ], [ 41884.125, 5949649.575000000186265 ], [ 41884.05000000000291, 5949649.575000000186265 ], [ 41884.05000000000291, 5949649.5 ], [ 41883.974999999998545, 5949649.5 ], [ 41883.974999999998545, 5949649.424999999813735 ], [ 41883.82499999999709, 5949649.424999999813735 ], [ 41883.82499999999709, 5949649.349999999627471 ], [ 41883.75, 5949649.349999999627471 ], [ 41883.75, 5949649.275000000372529 ], [ 41883.599999999998545, 5949649.275000000372529 ], [ 41883.599999999998545, 5949649.200000000186265 ], [ 41883.525000000001455, 5949649.200000000186265 ], [ 41883.525000000001455, 5949649.125 ], [ 41883.375, 5949649.125 ], [ 41883.375, 5949649.049999999813735 ], [ 41883.30000000000291, 5949649.049999999813735 ], [ 41883.30000000000291, 5949648.974999999627471 ], [ 41883.150000000001455, 5949648.974999999627471 ], [ 41883.150000000001455, 5949648.900000000372529 ], [ 41883.07499999999709, 5949648.900000000372529 ], [ 41883.07499999999709, 5949648.825000000186265 ], [ 41883.0, 5949648.825000000186265 ], [ 41883.0, 5949648.75 ], [ 41882.92500000000291, 5949648.75 ], [ 41882.92500000000291, 5949648.674999999813735 ], [ 41882.849999999998545, 5949648.674999999813735 ], [ 41882.849999999998545, 5949648.599999999627471 ], [ 41882.775000000001455, 5949648.599999999627471 ], [ 41882.775000000001455, 5949648.450000000186265 ], [ 41882.69999999999709, 5949648.450000000186265 ], [ 41882.69999999999709, 5949648.375 ], [ 41882.625, 5949648.375 ], [ 41882.625, 5949648.224999999627471 ], [ 41882.55000000000291, 5949648.224999999627471 ], [ 41882.55000000000291, 5949648.0 ], [ 41882.474999999998545, 5949648.0 ], [ 41882.474999999998545, 5949647.775000000372529 ], [ 41882.400000000001455, 5949647.775000000372529 ], [ 41882.400000000001455, 5949647.549999999813735 ], [ 41882.32499999999709, 5949647.549999999813735 ], [ 41882.32499999999709, 5949647.325000000186265 ], [ 41882.25, 5949647.325000000186265 ], [ 41882.25, 5949647.099999999627471 ], [ 41882.17500000000291, 5949647.099999999627471 ], [ 41882.17500000000291, 5949646.799999999813735 ], [ 41882.099999999998545, 5949646.799999999813735 ], [ 41882.099999999998545, 5949646.575000000186265 ], [ 41882.025000000001455, 5949646.575000000186265 ], [ 41882.025000000001455, 5949646.125 ], [ 41881.94999999999709, 5949646.125 ], [ 41881.94999999999709, 5949645.525000000372529 ], [ 41881.875, 5949645.525000000372529 ], [ 41881.875, 5949645.0 ], [ 41881.80000000000291, 5949645.0 ], [ 41881.80000000000291, 5949644.474999999627471 ], [ 41881.724999999998545, 5949644.474999999627471 ], [ 41881.724999999998545, 5949644.400000000372529 ], [ 41881.80000000000291, 5949644.400000000372529 ], [ 41881.80000000000291, 5949642.974999999627471 ], [ 41881.875, 5949642.974999999627471 ], [ 41881.875, 5949640.875 ], [ 41881.94999999999709, 5949640.875 ], [ 41881.94999999999709, 5949637.799999999813735 ], [ 41882.025000000001455, 5949637.799999999813735 ], [ 41882.025000000001455, 5949636.224999999627471 ], [ 41882.099999999998545, 5949636.224999999627471 ], [ 41882.099999999998545, 5949634.875 ], [ 41882.17500000000291, 5949634.875 ], [ 41882.17500000000291, 5949633.599999999627471 ], [ 41882.25, 5949633.599999999627471 ], [ 41882.25, 5949632.549999999813735 ], [ 41882.32499999999709, 5949632.549999999813735 ], [ 41882.32499999999709, 5949631.950000000186265 ], [ 41882.400000000001455, 5949631.950000000186265 ], [ 41882.400000000001455, 5949631.349999999627471 ], [ 41882.474999999998545, 5949631.349999999627471 ], [ 41882.474999999998545, 5949630.825000000186265 ], [ 41882.55000000000291, 5949630.825000000186265 ], [ 41882.55000000000291, 5949630.525000000372529 ], [ 41882.625, 5949630.525000000372529 ], [ 41882.625, 5949630.299999999813735 ], [ 41882.69999999999709, 5949630.299999999813735 ], [ 41882.69999999999709, 5949630.075000000186265 ], [ 41882.775000000001455, 5949630.075000000186265 ], [ 41882.775000000001455, 5949629.849999999627471 ], [ 41882.849999999998545, 5949629.849999999627471 ], [ 41882.849999999998545, 5949629.625 ], [ 41882.92500000000291, 5949629.625 ], [ 41882.92500000000291, 5949629.474999999627471 ], [ 41883.0, 5949629.474999999627471 ], [ 41883.0, 5949629.325000000186265 ], [ 41883.07499999999709, 5949629.325000000186265 ], [ 41883.07499999999709, 5949629.174999999813735 ], [ 41883.150000000001455, 5949629.174999999813735 ], [ 41883.150000000001455, 5949629.025000000372529 ], [ 41883.224999999998545, 5949629.025000000372529 ], [ 41883.224999999998545, 5949628.875 ], [ 41883.30000000000291, 5949628.875 ], [ 41883.30000000000291, 5949628.724999999627471 ], [ 41883.375, 5949628.724999999627471 ], [ 41883.375, 5949628.575000000186265 ], [ 41883.44999999999709, 5949628.575000000186265 ], [ 41883.44999999999709, 5949628.349999999627471 ], [ 41883.525000000001455, 5949628.349999999627471 ], [ 41883.525000000001455, 5949628.200000000186265 ], [ 41883.599999999998545, 5949628.200000000186265 ], [ 41883.599999999998545, 5949627.974999999627471 ], [ 41883.67500000000291, 5949627.974999999627471 ], [ 41883.67500000000291, 5949627.674999999813735 ], [ 41883.75, 5949627.674999999813735 ], [ 41883.75, 5949627.450000000186265 ], [ 41883.82499999999709, 5949627.450000000186265 ], [ 41883.82499999999709, 5949627.150000000372529 ], [ 41883.900000000001455, 5949627.150000000372529 ], [ 41883.900000000001455, 5949626.775000000372529 ], [ 41883.974999999998545, 5949626.775000000372529 ], [ 41883.974999999998545, 5949626.400000000372529 ], [ 41884.05000000000291, 5949626.400000000372529 ], [ 41884.05000000000291, 5949626.099999999627471 ], [ 41884.125, 5949626.099999999627471 ], [ 41884.125, 5949625.724999999627471 ], [ 41884.19999999999709, 5949625.724999999627471 ], [ 41884.19999999999709, 5949625.424999999813735 ], [ 41884.275000000001455, 5949625.424999999813735 ], [ 41884.275000000001455, 5949625.049999999813735 ], [ 41884.349999999998545, 5949625.049999999813735 ], [ 41884.349999999998545, 5949624.825000000186265 ], [ 41884.42500000000291, 5949624.825000000186265 ], [ 41884.42500000000291, 5949624.674999999813735 ], [ 41884.5, 5949624.674999999813735 ], [ 41884.5, 5949624.599999999627471 ], [ 41884.57499999999709, 5949624.599999999627471 ], [ 41884.57499999999709, 5949624.525000000372529 ], [ 41884.650000000001455, 5949624.525000000372529 ], [ 41884.650000000001455, 5949624.375 ], [ 41884.724999999998545, 5949624.375 ], [ 41884.724999999998545, 5949624.299999999813735 ], [ 41884.80000000000291, 5949624.299999999813735 ], [ 41884.80000000000291, 5949624.224999999627471 ], [ 41884.875, 5949624.224999999627471 ], [ 41884.875, 5949624.150000000372529 ], [ 41884.94999999999709, 5949624.150000000372529 ], [ 41884.94999999999709, 5949624.075000000186265 ], [ 41885.025000000001455, 5949624.075000000186265 ], [ 41885.025000000001455, 5949624.0 ], [ 41885.17500000000291, 5949624.0 ], [ 41885.17500000000291, 5949623.924999999813735 ], [ 41885.25, 5949623.924999999813735 ], [ 41885.25, 5949623.849999999627471 ], [ 41885.400000000001455, 5949623.849999999627471 ], [ 41885.400000000001455, 5949623.775000000372529 ], [ 41885.474999999998545, 5949623.775000000372529 ], [ 41885.474999999998545, 5949623.700000000186265 ], [ 41885.625, 5949623.700000000186265 ], [ 41885.625, 5949623.625 ], [ 41885.69999999999709, 5949623.625 ], [ 41885.69999999999709, 5949623.549999999813735 ], [ 41885.775000000001455, 5949623.549999999813735 ], [ 41885.775000000001455, 5949623.474999999627471 ], [ 41885.849999999998545, 5949623.474999999627471 ], [ 41885.849999999998545, 5949623.400000000372529 ], [ 41885.92500000000291, 5949623.400000000372529 ], [ 41885.92500000000291, 5949623.325000000186265 ], [ 41886.0, 5949623.325000000186265 ], [ 41886.0, 5949623.25 ], [ 41886.07499999999709, 5949623.25 ], [ 41886.07499999999709, 5949623.174999999813735 ], [ 41886.150000000001455, 5949623.174999999813735 ], [ 41886.150000000001455, 5949623.099999999627471 ], [ 41886.224999999998545, 5949623.099999999627471 ], [ 41886.224999999998545, 5949623.025000000372529 ], [ 41886.30000000000291, 5949623.025000000372529 ], [ 41886.30000000000291, 5949622.875 ], [ 41886.375, 5949622.875 ], [ 41886.375, 5949622.799999999813735 ], [ 41886.44999999999709, 5949622.799999999813735 ], [ 41886.44999999999709, 5949622.724999999627471 ], [ 41886.525000000001455, 5949622.724999999627471 ], [ 41886.525000000001455, 5949622.575000000186265 ], [ 41886.599999999998545, 5949622.575000000186265 ], [ 41886.599999999998545, 5949622.5 ], [ 41886.67500000000291, 5949622.5 ], [ 41886.67500000000291, 5949622.424999999813735 ], [ 41886.75, 5949622.424999999813735 ], [ 41886.75, 5949622.349999999627471 ], [ 41886.900000000001455, 5949622.349999999627471 ], [ 41886.900000000001455, 5949622.275000000372529 ], [ 41886.974999999998545, 5949622.275000000372529 ], [ 41886.974999999998545, 5949622.200000000186265 ], [ 41887.05000000000291, 5949622.200000000186265 ], [ 41887.05000000000291, 5949622.125 ], [ 41887.19999999999709, 5949622.125 ], [ 41887.19999999999709, 5949622.049999999813735 ], [ 41887.42500000000291, 5949622.049999999813735 ], [ 41887.42500000000291, 5949621.974999999627471 ], [ 41887.875, 5949621.974999999627471 ], [ 41887.875, 5949621.900000000372529 ], [ 41888.55000000000291, 5949621.900000000372529 ], [ 41888.55000000000291, 5949621.825000000186265 ], [ 41889.150000000001455, 5949621.825000000186265 ], [ 41889.150000000001455, 5949621.75 ], [ 41889.375, 5949621.75 ], [ 41889.375, 5949621.674999999813735 ], [ 41889.525000000001455, 5949621.674999999813735 ], [ 41889.525000000001455, 5949621.599999999627471 ], [ 41889.67500000000291, 5949621.599999999627471 ], [ 41889.67500000000291, 5949621.525000000372529 ], [ 41889.82499999999709, 5949621.525000000372529 ], [ 41889.82499999999709, 5949621.450000000186265 ], [ 41889.974999999998545, 5949621.450000000186265 ], [ 41889.974999999998545, 5949621.375 ], [ 41890.125, 5949621.375 ], [ 41890.125, 5949621.299999999813735 ], [ 41890.19999999999709, 5949621.299999999813735 ], [ 41890.19999999999709, 5949621.224999999627471 ], [ 41890.275000000001455, 5949621.224999999627471 ], [ 41890.275000000001455, 5949621.150000000372529 ], [ 41890.42500000000291, 5949621.150000000372529 ], [ 41890.42500000000291, 5949621.075000000186265 ], [ 41890.5, 5949621.075000000186265 ], [ 41890.5, 5949621.0 ], [ 41890.57499999999709, 5949621.0 ], [ 41890.57499999999709, 5949620.924999999813735 ], [ 41890.650000000001455, 5949620.924999999813735 ], [ 41890.650000000001455, 5949620.849999999627471 ], [ 41890.724999999998545, 5949620.849999999627471 ], [ 41890.724999999998545, 5949620.775000000372529 ], [ 41890.80000000000291, 5949620.775000000372529 ], [ 41890.80000000000291, 5949620.700000000186265 ], [ 41890.875, 5949620.700000000186265 ], [ 41890.875, 5949620.625 ], [ 41890.94999999999709, 5949620.625 ], [ 41890.94999999999709, 5949620.549999999813735 ], [ 41891.025000000001455, 5949620.549999999813735 ], [ 41891.025000000001455, 5949620.474999999627471 ], [ 41891.099999999998545, 5949620.474999999627471 ], [ 41891.099999999998545, 5949620.400000000372529 ], [ 41891.17500000000291, 5949620.400000000372529 ], [ 41891.17500000000291, 5949620.325000000186265 ], [ 41891.25, 5949620.325000000186265 ], [ 41891.25, 5949620.25 ], [ 41891.32499999999709, 5949620.25 ], [ 41891.32499999999709, 5949620.174999999813735 ], [ 41891.400000000001455, 5949620.174999999813735 ], [ 41891.400000000001455, 5949620.099999999627471 ], [ 41891.474999999998545, 5949620.099999999627471 ], [ 41891.474999999998545, 5949620.025000000372529 ], [ 41891.55000000000291, 5949620.025000000372529 ], [ 41891.55000000000291, 5949619.875 ], [ 41891.625, 5949619.875 ], [ 41891.625, 5949619.799999999813735 ], [ 41891.69999999999709, 5949619.799999999813735 ], [ 41891.69999999999709, 5949619.650000000372529 ], [ 41891.775000000001455, 5949619.650000000372529 ], [ 41891.775000000001455, 5949619.5 ], [ 41891.849999999998545, 5949619.5 ], [ 41891.849999999998545, 5949619.349999999627471 ], [ 41891.92500000000291, 5949619.349999999627471 ], [ 41891.92500000000291, 5949619.275000000372529 ], [ 41892.0, 5949619.275000000372529 ], [ 41892.0, 5949619.049999999813735 ], [ 41892.07499999999709, 5949619.049999999813735 ], [ 41892.07499999999709, 5949618.900000000372529 ], [ 41892.150000000001455, 5949618.900000000372529 ], [ 41892.150000000001455, 5949618.75 ], [ 41892.224999999998545, 5949618.75 ], [ 41892.224999999998545, 5949618.674999999813735 ], [ 41892.30000000000291, 5949618.674999999813735 ], [ 41892.30000000000291, 5949618.525000000372529 ], [ 41892.375, 5949618.525000000372529 ], [ 41892.375, 5949618.450000000186265 ], [ 41892.44999999999709, 5949618.450000000186265 ], [ 41892.44999999999709, 5949618.299999999813735 ], [ 41892.525000000001455, 5949618.299999999813735 ], [ 41892.525000000001455, 5949618.224999999627471 ], [ 41892.599999999998545, 5949618.224999999627471 ], [ 41892.599999999998545, 5949618.150000000372529 ], [ 41892.67500000000291, 5949618.150000000372529 ], [ 41892.67500000000291, 5949618.075000000186265 ], [ 41892.75, 5949618.075000000186265 ], [ 41892.75, 5949618.0 ], [ 41892.82499999999709, 5949618.0 ], [ 41892.82499999999709, 5949617.924999999813735 ], [ 41892.900000000001455, 5949617.924999999813735 ], [ 41892.900000000001455, 5949617.849999999627471 ], [ 41892.974999999998545, 5949617.849999999627471 ], [ 41892.974999999998545, 5949617.775000000372529 ], [ 41893.05000000000291, 5949617.775000000372529 ], [ 41893.05000000000291, 5949617.700000000186265 ], [ 41893.125, 5949617.700000000186265 ], [ 41893.125, 5949617.625 ], [ 41893.19999999999709, 5949617.625 ], [ 41893.19999999999709, 5949617.549999999813735 ], [ 41893.275000000001455, 5949617.549999999813735 ], [ 41893.275000000001455, 5949617.474999999627471 ], [ 41893.349999999998545, 5949617.474999999627471 ], [ 41893.349999999998545, 5949617.325000000186265 ], [ 41893.42500000000291, 5949617.325000000186265 ], [ 41893.42500000000291, 5949617.25 ], [ 41893.5, 5949617.25 ], [ 41893.5, 5949617.099999999627471 ], [ 41893.57499999999709, 5949617.099999999627471 ], [ 41893.57499999999709, 5949616.875 ], [ 41893.650000000001455, 5949616.875 ], [ 41893.650000000001455, 5949616.5 ], [ 41893.724999999998545, 5949616.5 ], [ 41893.724999999998545, 5949616.200000000186265 ], [ 41893.80000000000291, 5949616.200000000186265 ], [ 41893.80000000000291, 5949615.900000000372529 ], [ 41893.875, 5949615.900000000372529 ], [ 41893.875, 5949615.525000000372529 ], [ 41893.94999999999709, 5949615.525000000372529 ], [ 41893.94999999999709, 5949615.224999999627471 ], [ 41894.025000000001455, 5949615.224999999627471 ], [ 41894.025000000001455, 5949615.0 ], [ 41894.099999999998545, 5949615.0 ], [ 41894.099999999998545, 5949614.849999999627471 ], [ 41894.17500000000291, 5949614.849999999627471 ], [ 41894.17500000000291, 5949614.700000000186265 ], [ 41894.25, 5949614.700000000186265 ], [ 41894.25, 5949614.549999999813735 ], [ 41894.32499999999709, 5949614.549999999813735 ], [ 41894.32499999999709, 5949614.474999999627471 ], [ 41894.400000000001455, 5949614.474999999627471 ], [ 41894.400000000001455, 5949614.325000000186265 ], [ 41894.474999999998545, 5949614.325000000186265 ], [ 41894.474999999998545, 5949614.25 ], [ 41894.55000000000291, 5949614.25 ], [ 41894.55000000000291, 5949614.174999999813735 ], [ 41894.625, 5949614.174999999813735 ], [ 41894.625, 5949614.099999999627471 ], [ 41894.69999999999709, 5949614.099999999627471 ], [ 41894.69999999999709, 5949614.025000000372529 ], [ 41894.775000000001455, 5949614.025000000372529 ], [ 41894.775000000001455, 5949613.950000000186265 ], [ 41894.92500000000291, 5949613.950000000186265 ], [ 41894.92500000000291, 5949613.875 ], [ 41895.0, 5949613.875 ], [ 41895.0, 5949613.799999999813735 ], [ 41895.07499999999709, 5949613.799999999813735 ], [ 41895.07499999999709, 5949613.724999999627471 ], [ 41895.150000000001455, 5949613.724999999627471 ], [ 41895.150000000001455, 5949613.650000000372529 ], [ 41895.224999999998545, 5949613.650000000372529 ], [ 41895.224999999998545, 5949613.5 ], [ 41895.30000000000291, 5949613.5 ], [ 41895.30000000000291, 5949613.424999999813735 ], [ 41895.375, 5949613.424999999813735 ], [ 41895.375, 5949613.349999999627471 ], [ 41895.44999999999709, 5949613.349999999627471 ], [ 41895.44999999999709, 5949613.200000000186265 ], [ 41895.525000000001455, 5949613.200000000186265 ], [ 41895.525000000001455, 5949613.049999999813735 ], [ 41895.599999999998545, 5949613.049999999813735 ], [ 41895.599999999998545, 5949612.825000000186265 ], [ 41895.67500000000291, 5949612.825000000186265 ], [ 41895.67500000000291, 5949612.674999999813735 ], [ 41895.75, 5949612.674999999813735 ], [ 41895.75, 5949612.525000000372529 ], [ 41895.82499999999709, 5949612.525000000372529 ], [ 41895.82499999999709, 5949612.375 ], [ 41895.900000000001455, 5949612.375 ], [ 41895.900000000001455, 5949612.299999999813735 ], [ 41895.974999999998545, 5949612.299999999813735 ], [ 41895.974999999998545, 5949612.224999999627471 ], [ 41896.05000000000291, 5949612.224999999627471 ], [ 41896.05000000000291, 5949612.150000000372529 ], [ 41896.125, 5949612.150000000372529 ], [ 41896.125, 5949612.075000000186265 ], [ 41896.19999999999709, 5949612.075000000186265 ], [ 41896.19999999999709, 5949612.0 ], [ 41896.349999999998545, 5949612.0 ], [ 41896.349999999998545, 5949611.924999999813735 ], [ 41896.42500000000291, 5949611.924999999813735 ], [ 41896.42500000000291, 5949611.849999999627471 ], [ 41896.57499999999709, 5949611.849999999627471 ], [ 41896.57499999999709, 5949611.775000000372529 ], [ 41896.724999999998545, 5949611.775000000372529 ], [ 41896.724999999998545, 5949611.700000000186265 ], [ 41896.94999999999709, 5949611.700000000186265 ], [ 41896.94999999999709, 5949611.625 ], [ 41897.099999999998545, 5949611.625 ], [ 41897.099999999998545, 5949611.549999999813735 ], [ 41897.25, 5949611.549999999813735 ], [ 41897.25, 5949611.474999999627471 ], [ 41897.32499999999709, 5949611.474999999627471 ], [ 41897.32499999999709, 5949611.400000000372529 ], [ 41897.474999999998545, 5949611.400000000372529 ], [ 41897.474999999998545, 5949611.325000000186265 ], [ 41897.55000000000291, 5949611.325000000186265 ], [ 41897.55000000000291, 5949611.25 ], [ 41897.69999999999709, 5949611.25 ], [ 41897.69999999999709, 5949611.099999999627471 ], [ 41897.775000000001455, 5949611.099999999627471 ], [ 41897.775000000001455, 5949611.025000000372529 ], [ 41897.849999999998545, 5949611.025000000372529 ], [ 41897.849999999998545, 5949610.950000000186265 ], [ 41898.0, 5949610.950000000186265 ], [ 41898.0, 5949610.875 ], [ 41898.07499999999709, 5949610.875 ], [ 41898.07499999999709, 5949610.799999999813735 ], [ 41898.150000000001455, 5949610.799999999813735 ], [ 41898.150000000001455, 5949610.724999999627471 ], [ 41898.30000000000291, 5949610.724999999627471 ], [ 41898.30000000000291, 5949610.650000000372529 ], [ 41898.44999999999709, 5949610.650000000372529 ], [ 41898.44999999999709, 5949610.575000000186265 ], [ 41898.599999999998545, 5949610.575000000186265 ], [ 41898.599999999998545, 5949610.5 ], [ 41898.82499999999709, 5949610.5 ], [ 41898.82499999999709, 5949610.424999999813735 ], [ 41898.900000000001455, 5949610.424999999813735 ], [ 41898.900000000001455, 5949610.5 ], [ 41900.025000000001455, 5949610.5 ], [ 41900.025000000001455, 5949610.575000000186265 ], [ 41901.375, 5949610.575000000186265 ], [ 41901.375, 5949610.650000000372529 ], [ 41902.94999999999709, 5949610.650000000372529 ], [ 41902.94999999999709, 5949610.724999999627471 ], [ 41904.75, 5949610.724999999627471 ], [ 41904.75, 5949610.799999999813735 ], [ 41904.974999999998545, 5949610.799999999813735 ], [ 41904.974999999998545, 5949610.875 ], [ 41905.125, 5949610.875 ], [ 41905.125, 5949610.950000000186265 ], [ 41905.349999999998545, 5949610.950000000186265 ], [ 41905.349999999998545, 5949611.025000000372529 ], [ 41905.5, 5949611.025000000372529 ], [ 41905.5, 5949611.099999999627471 ], [ 41905.650000000001455, 5949611.099999999627471 ], [ 41905.650000000001455, 5949611.174999999813735 ], [ 41905.875, 5949611.174999999813735 ], [ 41905.875, 5949611.25 ], [ 41905.94999999999709, 5949611.25 ], [ 41905.94999999999709, 5949611.325000000186265 ], [ 41906.099999999998545, 5949611.325000000186265 ], [ 41906.099999999998545, 5949611.400000000372529 ], [ 41906.25, 5949611.400000000372529 ], [ 41906.25, 5949611.474999999627471 ], [ 41906.474999999998545, 5949611.474999999627471 ], [ 41906.474999999998545, 5949611.549999999813735 ], [ 41906.625, 5949611.549999999813735 ], [ 41906.625, 5949611.625 ], [ 41906.775000000001455, 5949611.625 ], [ 41906.775000000001455, 5949611.700000000186265 ], [ 41907.0, 5949611.700000000186265 ], [ 41907.0, 5949611.775000000372529 ], [ 41907.224999999998545, 5949611.775000000372529 ], [ 41907.224999999998545, 5949611.849999999627471 ], [ 41907.44999999999709, 5949611.849999999627471 ], [ 41907.44999999999709, 5949611.924999999813735 ], [ 41907.75, 5949611.924999999813735 ], [ 41907.75, 5949612.0 ], [ 41907.974999999998545, 5949612.0 ], [ 41907.974999999998545, 5949612.075000000186265 ], [ 41908.349999999998545, 5949612.075000000186265 ], [ 41908.349999999998545, 5949612.150000000372529 ], [ 41908.724999999998545, 5949612.150000000372529 ], [ 41908.724999999998545, 5949612.224999999627471 ], [ 41909.474999999998545, 5949612.224999999627471 ], [ 41909.474999999998545, 5949612.299999999813735 ], [ 41910.224999999998545, 5949612.299999999813735 ], [ 41910.224999999998545, 5949612.375 ], [ 41910.82499999999709, 5949612.375 ], [ 41910.82499999999709, 5949612.450000000186265 ], [ 41911.275000000001455, 5949612.450000000186265 ], [ 41911.275000000001455, 5949612.525000000372529 ], [ 41911.650000000001455, 5949612.525000000372529 ], [ 41911.650000000001455, 5949612.599999999627471 ], [ 41912.025000000001455, 5949612.599999999627471 ], [ 41912.025000000001455, 5949612.674999999813735 ], [ 41912.400000000001455, 5949612.674999999813735 ], [ 41912.400000000001455, 5949612.75 ], [ 41912.625, 5949612.75 ], [ 41912.625, 5949612.825000000186265 ], [ 41912.69999999999709, 5949612.825000000186265 ], [ 41912.69999999999709, 5949612.900000000372529 ], [ 41912.849999999998545, 5949612.900000000372529 ], [ 41912.849999999998545, 5949612.974999999627471 ], [ 41913.0, 5949612.974999999627471 ], [ 41913.0, 5949613.049999999813735 ], [ 41913.07499999999709, 5949613.049999999813735 ], [ 41913.07499999999709, 5949613.125 ], [ 41913.150000000001455, 5949613.125 ], [ 41913.150000000001455, 5949613.200000000186265 ], [ 41913.224999999998545, 5949613.200000000186265 ], [ 41913.224999999998545, 5949613.275000000372529 ], [ 41913.375, 5949613.275000000372529 ], [ 41913.375, 5949613.349999999627471 ], [ 41913.44999999999709, 5949613.349999999627471 ], [ 41913.44999999999709, 5949613.424999999813735 ], [ 41913.525000000001455, 5949613.424999999813735 ], [ 41913.525000000001455, 5949613.5 ], [ 41913.67500000000291, 5949613.5 ], [ 41913.67500000000291, 5949613.575000000186265 ], [ 41913.75, 5949613.575000000186265 ], [ 41913.75, 5949613.650000000372529 ], [ 41913.900000000001455, 5949613.650000000372529 ], [ 41913.900000000001455, 5949613.724999999627471 ], [ 41914.05000000000291, 5949613.724999999627471 ], [ 41914.05000000000291, 5949613.799999999813735 ], [ 41914.19999999999709, 5949613.799999999813735 ], [ 41914.19999999999709, 5949613.875 ], [ 41914.349999999998545, 5949613.875 ], [ 41914.349999999998545, 5949613.950000000186265 ], [ 41914.650000000001455, 5949613.950000000186265 ], [ 41914.650000000001455, 5949614.025000000372529 ], [ 41914.94999999999709, 5949614.025000000372529 ], [ 41914.94999999999709, 5949614.099999999627471 ], [ 41915.32499999999709, 5949614.099999999627471 ], [ 41915.32499999999709, 5949614.174999999813735 ], [ 41915.625, 5949614.174999999813735 ], [ 41915.625, 5949614.25 ], [ 41916.0, 5949614.25 ], [ 41916.0, 5949614.325000000186265 ], [ 41916.375, 5949614.325000000186265 ], [ 41916.375, 5949614.400000000372529 ], [ 41916.525000000001455, 5949614.400000000372529 ], [ 41916.525000000001455, 5949614.474999999627471 ], [ 41916.75, 5949614.474999999627471 ], [ 41916.75, 5949614.549999999813735 ], [ 41916.82499999999709, 5949614.549999999813735 ], [ 41916.82499999999709, 5949614.625 ], [ 41916.974999999998545, 5949614.625 ], [ 41916.974999999998545, 5949614.700000000186265 ], [ 41917.125, 5949614.700000000186265 ], [ 41917.125, 5949614.775000000372529 ], [ 41917.19999999999709, 5949614.775000000372529 ], [ 41917.19999999999709, 5949614.849999999627471 ], [ 41917.349999999998545, 5949614.849999999627471 ], [ 41917.349999999998545, 5949614.924999999813735 ], [ 41917.42500000000291, 5949614.924999999813735 ], [ 41917.42500000000291, 5949615.0 ], [ 41917.5, 5949615.0 ], [ 41917.5, 5949615.075000000186265 ], [ 41917.57499999999709, 5949615.075000000186265 ], [ 41917.57499999999709, 5949615.150000000372529 ], [ 41917.650000000001455, 5949615.150000000372529 ], [ 41917.650000000001455, 5949615.224999999627471 ], [ 41917.724999999998545, 5949615.224999999627471 ], [ 41917.724999999998545, 5949615.299999999813735 ], [ 41917.80000000000291, 5949615.299999999813735 ], [ 41917.80000000000291, 5949615.375 ], [ 41917.875, 5949615.375 ], [ 41917.875, 5949615.450000000186265 ], [ 41917.94999999999709, 5949615.450000000186265 ], [ 41917.94999999999709, 5949615.525000000372529 ], [ 41918.025000000001455, 5949615.525000000372529 ], [ 41918.025000000001455, 5949615.599999999627471 ], [ 41918.17500000000291, 5949615.599999999627471 ], [ 41918.17500000000291, 5949615.674999999813735 ], [ 41918.25, 5949615.674999999813735 ], [ 41918.25, 5949615.75 ], [ 41918.32499999999709, 5949615.75 ], [ 41918.32499999999709, 5949615.825000000186265 ], [ 41918.400000000001455, 5949615.825000000186265 ], [ 41918.400000000001455, 5949615.900000000372529 ], [ 41918.474999999998545, 5949615.900000000372529 ], [ 41918.474999999998545, 5949615.974999999627471 ], [ 41918.55000000000291, 5949615.974999999627471 ], [ 41918.55000000000291, 5949616.049999999813735 ], [ 41918.625, 5949616.049999999813735 ], [ 41918.625, 5949616.125 ], [ 41918.69999999999709, 5949616.125 ], [ 41918.69999999999709, 5949616.200000000186265 ], [ 41918.775000000001455, 5949616.200000000186265 ], [ 41918.775000000001455, 5949616.275000000372529 ], [ 41918.849999999998545, 5949616.275000000372529 ], [ 41918.849999999998545, 5949616.349999999627471 ], [ 41918.92500000000291, 5949616.349999999627471 ], [ 41918.92500000000291, 5949616.424999999813735 ], [ 41919.0, 5949616.424999999813735 ], [ 41919.0, 5949616.575000000186265 ], [ 41919.07499999999709, 5949616.575000000186265 ], [ 41919.07499999999709, 5949616.650000000372529 ], [ 41919.150000000001455, 5949616.650000000372529 ], [ 41919.150000000001455, 5949616.799999999813735 ], [ 41919.224999999998545, 5949616.799999999813735 ], [ 41919.224999999998545, 5949616.875 ], [ 41919.30000000000291, 5949616.875 ], [ 41919.30000000000291, 5949617.025000000372529 ], [ 41919.375, 5949617.025000000372529 ], [ 41919.375, 5949617.174999999813735 ], [ 41919.44999999999709, 5949617.174999999813735 ], [ 41919.44999999999709, 5949617.325000000186265 ], [ 41919.525000000001455, 5949617.325000000186265 ], [ 41919.525000000001455, 5949617.474999999627471 ], [ 41919.599999999998545, 5949617.474999999627471 ], [ 41919.599999999998545, 5949617.625 ], [ 41919.67500000000291, 5949617.625 ], [ 41919.67500000000291, 5949617.775000000372529 ], [ 41919.75, 5949617.775000000372529 ], [ 41919.75, 5949617.849999999627471 ], [ 41919.82499999999709, 5949617.849999999627471 ], [ 41919.82499999999709, 5949617.924999999813735 ], [ 41919.900000000001455, 5949617.924999999813735 ], [ 41919.900000000001455, 5949618.075000000186265 ], [ 41919.974999999998545, 5949618.075000000186265 ], [ 41919.974999999998545, 5949618.150000000372529 ], [ 41920.05000000000291, 5949618.150000000372529 ], [ 41920.05000000000291, 5949618.224999999627471 ], [ 41920.125, 5949618.224999999627471 ], [ 41920.125, 5949618.299999999813735 ], [ 41920.19999999999709, 5949618.299999999813735 ], [ 41920.19999999999709, 5949618.375 ], [ 41920.275000000001455, 5949618.375 ], [ 41920.275000000001455, 5949618.450000000186265 ], [ 41920.349999999998545, 5949618.450000000186265 ], [ 41920.349999999998545, 5949618.525000000372529 ], [ 41920.42500000000291, 5949618.525000000372529 ], [ 41920.42500000000291, 5949618.674999999813735 ], [ 41920.5, 5949618.674999999813735 ], [ 41920.5, 5949618.75 ], [ 41920.57499999999709, 5949618.75 ], [ 41920.57499999999709, 5949618.825000000186265 ], [ 41920.650000000001455, 5949618.825000000186265 ], [ 41920.650000000001455, 5949618.974999999627471 ], [ 41920.724999999998545, 5949618.974999999627471 ], [ 41920.724999999998545, 5949619.125 ], [ 41920.80000000000291, 5949619.125 ], [ 41920.80000000000291, 5949619.349999999627471 ], [ 41920.875, 5949619.349999999627471 ], [ 41920.875, 5949619.575000000186265 ], [ 41920.94999999999709, 5949619.575000000186265 ], [ 41920.94999999999709, 5949619.875 ], [ 41921.025000000001455, 5949619.875 ], [ 41921.025000000001455, 5949620.099999999627471 ], [ 41921.099999999998545, 5949620.099999999627471 ], [ 41921.099999999998545, 5949620.400000000372529 ], [ 41921.17500000000291, 5949620.400000000372529 ], [ 41921.17500000000291, 5949620.700000000186265 ], [ 41921.25, 5949620.700000000186265 ], [ 41921.25, 5949621.224999999627471 ], [ 41921.32499999999709, 5949621.224999999627471 ], [ 41921.32499999999709, 5949623.25 ], [ 41921.25, 5949623.25 ], [ 41921.25, 5949623.849999999627471 ], [ 41921.17500000000291, 5949623.849999999627471 ], [ 41921.17500000000291, 5949624.375 ], [ 41921.099999999998545, 5949624.375 ], [ 41921.099999999998545, 5949624.900000000372529 ], [ 41921.025000000001455, 5949624.900000000372529 ], [ 41921.025000000001455, 5949625.200000000186265 ], [ 41920.94999999999709, 5949625.200000000186265 ], [ 41920.94999999999709, 5949625.5 ], [ 41920.875, 5949625.5 ], [ 41920.875, 5949625.724999999627471 ], [ 41920.80000000000291, 5949625.724999999627471 ], [ 41920.80000000000291, 5949625.950000000186265 ], [ 41920.724999999998545, 5949625.950000000186265 ], [ 41920.724999999998545, 5949626.174999999813735 ], [ 41920.650000000001455, 5949626.174999999813735 ], [ 41920.650000000001455, 5949626.325000000186265 ], [ 41920.57499999999709, 5949626.325000000186265 ], [ 41920.57499999999709, 5949626.549999999813735 ], [ 41920.5, 5949626.549999999813735 ], [ 41920.5, 5949626.700000000186265 ], [ 41920.42500000000291, 5949626.700000000186265 ], [ 41920.42500000000291, 5949626.849999999627471 ], [ 41920.349999999998545, 5949626.849999999627471 ], [ 41920.349999999998545, 5949627.0 ], [ 41920.275000000001455, 5949627.0 ], [ 41920.275000000001455, 5949627.075000000186265 ], [ 41920.19999999999709, 5949627.075000000186265 ], [ 41920.19999999999709, 5949627.224999999627471 ], [ 41920.125, 5949627.224999999627471 ], [ 41920.125, 5949627.375 ], [ 41920.05000000000291, 5949627.375 ], [ 41920.05000000000291, 5949627.525000000372529 ], [ 41919.974999999998545, 5949627.525000000372529 ], [ 41919.974999999998545, 5949627.674999999813735 ], [ 41919.900000000001455, 5949627.674999999813735 ], [ 41919.900000000001455, 5949627.900000000372529 ], [ 41919.82499999999709, 5949627.900000000372529 ], [ 41919.82499999999709, 5949628.125 ], [ 41919.75, 5949628.125 ], [ 41919.75, 5949628.275000000372529 ], [ 41919.67500000000291, 5949628.275000000372529 ], [ 41919.67500000000291, 5949628.575000000186265 ], [ 41919.599999999998545, 5949628.575000000186265 ], [ 41919.599999999998545, 5949628.875 ], [ 41919.525000000001455, 5949628.875 ], [ 41919.525000000001455, 5949629.849999999627471 ], [ 41919.44999999999709, 5949629.849999999627471 ], [ 41919.44999999999709, 5949634.575000000186265 ], [ 41919.525000000001455, 5949634.575000000186265 ], [ 41919.525000000001455, 5949637.724999999627471 ], [ 41919.44999999999709, 5949637.724999999627471 ], [ 41919.44999999999709, 5949639.375 ], [ 41919.375, 5949639.375 ], [ 41919.375, 5949640.650000000372529 ], [ 41919.30000000000291, 5949640.650000000372529 ], [ 41919.30000000000291, 5949642.525000000372529 ], [ 41919.224999999998545, 5949642.525000000372529 ], [ 41919.224999999998545, 5949644.700000000186265 ], [ 41919.150000000001455, 5949644.700000000186265 ], [ 41919.150000000001455, 5949646.424999999813735 ], [ 41919.07499999999709, 5949646.424999999813735 ], [ 41919.07499999999709, 5949646.650000000372529 ], [ 41919.0, 5949646.650000000372529 ], [ 41919.0, 5949646.950000000186265 ], [ 41918.92500000000291, 5949646.950000000186265 ], [ 41918.92500000000291, 5949647.099999999627471 ], [ 41918.849999999998545, 5949647.099999999627471 ], [ 41918.849999999998545, 5949647.325000000186265 ], [ 41918.775000000001455, 5949647.325000000186265 ], [ 41918.775000000001455, 5949647.549999999813735 ], [ 41918.69999999999709, 5949647.549999999813735 ], [ 41918.69999999999709, 5949647.700000000186265 ], [ 41918.625, 5949647.700000000186265 ], [ 41918.625, 5949647.849999999627471 ], [ 41918.55000000000291, 5949647.849999999627471 ], [ 41918.55000000000291, 5949648.0 ], [ 41918.474999999998545, 5949648.0 ], [ 41918.474999999998545, 5949648.075000000186265 ], [ 41918.400000000001455, 5949648.075000000186265 ], [ 41918.400000000001455, 5949648.224999999627471 ], [ 41918.32499999999709, 5949648.224999999627471 ], [ 41918.32499999999709, 5949648.299999999813735 ], [ 41918.25, 5949648.299999999813735 ], [ 41918.25, 5949648.450000000186265 ], [ 41918.17500000000291, 5949648.450000000186265 ], [ 41918.17500000000291, 5949648.599999999627471 ], [ 41918.099999999998545, 5949648.599999999627471 ], [ 41918.099999999998545, 5949648.674999999813735 ], [ 41918.025000000001455, 5949648.674999999813735 ], [ 41918.025000000001455, 5949648.825000000186265 ], [ 41917.94999999999709, 5949648.825000000186265 ], [ 41917.94999999999709, 5949648.974999999627471 ], [ 41917.875, 5949648.974999999627471 ], [ 41917.875, 5949649.200000000186265 ], [ 41917.80000000000291, 5949649.200000000186265 ], [ 41917.80000000000291, 5949649.349999999627471 ], [ 41917.724999999998545, 5949649.349999999627471 ], [ 41917.724999999998545, 5949649.5 ], [ 41917.650000000001455, 5949649.5 ], [ 41917.650000000001455, 5949649.724999999627471 ], [ 41917.57499999999709, 5949649.724999999627471 ], [ 41917.57499999999709, 5949649.950000000186265 ], [ 41917.5, 5949649.950000000186265 ], [ 41917.5, 5949650.174999999813735 ], [ 41917.42500000000291, 5949650.174999999813735 ], [ 41917.42500000000291, 5949650.400000000372529 ], [ 41917.349999999998545, 5949650.400000000372529 ], [ 41917.349999999998545, 5949650.549999999813735 ], [ 41917.275000000001455, 5949650.549999999813735 ], [ 41917.275000000001455, 5949650.625 ], [ 41917.19999999999709, 5949650.625 ], [ 41917.19999999999709, 5949650.775000000372529 ], [ 41917.125, 5949650.775000000372529 ], [ 41917.125, 5949650.849999999627471 ], [ 41917.05000000000291, 5949650.849999999627471 ], [ 41917.05000000000291, 5949651.0 ], [ 41916.974999999998545, 5949651.0 ], [ 41916.974999999998545, 5949651.075000000186265 ], [ 41916.900000000001455, 5949651.075000000186265 ], [ 41916.900000000001455, 5949651.150000000372529 ], [ 41916.82499999999709, 5949651.150000000372529 ], [ 41916.82499999999709, 5949651.224999999627471 ], [ 41916.75, 5949651.224999999627471 ], [ 41916.75, 5949651.299999999813735 ], [ 41916.67500000000291, 5949651.299999999813735 ], [ 41916.67500000000291, 5949651.375 ], [ 41916.599999999998545, 5949651.375 ], [ 41916.599999999998545, 5949651.450000000186265 ], [ 41916.44999999999709, 5949651.450000000186265 ], [ 41916.44999999999709, 5949651.525000000372529 ], [ 41916.375, 5949651.525000000372529 ], [ 41916.375, 5949651.599999999627471 ], [ 41916.30000000000291, 5949651.599999999627471 ], [ 41916.30000000000291, 5949651.674999999813735 ], [ 41916.224999999998545, 5949651.674999999813735 ], [ 41916.224999999998545, 5949651.75 ], [ 41916.07499999999709, 5949651.75 ], [ 41916.07499999999709, 5949651.825000000186265 ], [ 41916.0, 5949651.825000000186265 ], [ 41916.0, 5949651.900000000372529 ], [ 41915.92500000000291, 5949651.900000000372529 ], [ 41915.92500000000291, 5949652.049999999813735 ], [ 41915.849999999998545, 5949652.049999999813735 ], [ 41915.849999999998545, 5949652.125 ], [ 41915.775000000001455, 5949652.125 ], [ 41915.775000000001455, 5949652.200000000186265 ], [ 41915.69999999999709, 5949652.200000000186265 ], [ 41915.69999999999709, 5949652.349999999627471 ], [ 41915.625, 5949652.349999999627471 ], [ 41915.625, 5949652.5 ], [ 41915.55000000000291, 5949652.5 ], [ 41915.55000000000291, 5949652.650000000372529 ], [ 41915.474999999998545, 5949652.650000000372529 ], [ 41915.474999999998545, 5949652.724999999627471 ], [ 41915.400000000001455, 5949652.724999999627471 ], [ 41915.400000000001455, 5949652.875 ], [ 41915.32499999999709, 5949652.875 ], [ 41915.32499999999709, 5949652.950000000186265 ], [ 41915.25, 5949652.950000000186265 ], [ 41915.25, 5949653.025000000372529 ], [ 41915.17500000000291, 5949653.025000000372529 ], [ 41915.17500000000291, 5949653.099999999627471 ], [ 41915.099999999998545, 5949653.099999999627471 ], [ 41915.099999999998545, 5949653.174999999813735 ], [ 41915.025000000001455, 5949653.174999999813735 ], [ 41915.025000000001455, 5949653.25 ], [ 41914.94999999999709, 5949653.25 ], [ 41914.94999999999709, 5949653.325000000186265 ], [ 41914.875, 5949653.325000000186265 ], [ 41914.875, 5949653.400000000372529 ], [ 41914.80000000000291, 5949653.400000000372529 ], [ 41914.80000000000291, 5949653.474999999627471 ], [ 41914.650000000001455, 5949653.474999999627471 ], [ 41914.650000000001455, 5949653.549999999813735 ], [ 41914.57499999999709, 5949653.549999999813735 ], [ 41914.57499999999709, 5949653.625 ], [ 41914.42500000000291, 5949653.625 ], [ 41914.42500000000291, 5949653.700000000186265 ], [ 41913.224999999998545, 5949653.700000000186265 ] ] ] } },
{ "type": "Feature", "properties": { "value": 1.0, "building_id": 3, "area": 8.0043749999741376 }, "geometry": { "type": "Polygon", "coordinates": [ [ [ 41906.474999999998545, 5949598.275000000372529 ], [ 41906.474999999998545, 5949598.200000000186265 ], [ 41906.25, 5949598.200000000186265 ], [ 41906.25, 5949598.125 ], [ 41906.099999999998545, 5949598.125 ], [ 41906.099999999998545, 5949598.049999999813735 ], [ 41905.94999999999709, 5949598.049999999813735 ], [ 41905.94999999999709, 5949597.974999999627471 ], [ 41905.80000000000291, 5949597.974999999627471 ], [ 41905.80000000000291, 5949597.900000000372529 ], [ 41905.724999999998545, 5949597.900000000372529 ], [ 41905.724999999998545, 5949597.825000000186265 ], [ 41905.57499999999709, 5949597.825000000186265 ], [ 41905.57499999999709, 5949597.75 ], [ 41905.5, 5949597.75 ], [ 41905.5, 5949597.674999999813735 ], [ 41905.42500000000291, 5949597.674999999813735 ], [ 41905.42500000000291, 5949597.599999999627471 ], [ 41905.349999999998545, 5949597.599999999627471 ], [ 41905.349999999998545, 5949596.625 ], [ 41905.42500000000291, 5949596.625 ], [ 41905.42500000000291, 5949596.174999999813735 ], [ 41905.5, 5949596.174999999813735 ], [ 41905.5, 5949596.025000000372529 ], [ 41905.57499999999709, 5949596.025000000372529 ], [ 41905.57499999999709, 5949595.799999999813735 ], [ 41905.650000000001455, 5949595.799999999813735 ], [ 41905.650000000001455, 5949595.650000000372529 ], [ 41905.724999999998545, 5949595.650000000372529 ], [ 41905.724999999998545, 5949595.5 ], [ 41905.80000000000291, 5949595.5 ], [ 41905.80000000000291, 5949595.349999999627471 ], [ 41905.875, 5949595.349999999627471 ], [ 41905.875, 5949595.200000000186265 ], [ 41905.94999999999709, 5949595.200000000186265 ], [ 41905.94999999999709, 5949595.125 ], [ 41906.025000000001455, 5949595.125 ], [ 41906.025000000001455, 5949594.974999999627471 ], [ 41906.099999999998545, 5949594.974999999627471 ], [ 41906.099999999998545, 5949594.825000000186265 ], [ 41906.17500000000291, 5949594.825000000186265 ], [ 41906.17500000000291, 5949594.75 ], [ 41906.25, 5949594.75 ], [ 41906.25, 5949594.599999999627471 ], [ 41906.32499999999709, 5949594.599999999627471 ], [ 41906.32499999999709, 5949594.450000000186265 ], [ 41906.400000000001455, 5949594.450000000186265 ], [ 41906.400000000001455, 5949594.375 ], [ 41906.474999999998545, 5949594.375 ], [ 41906.474999999998545, 5949594.224999999627471 ], [ 41906.55000000000291, 5949594.224999999627471 ], [ 41906.55000000000291, 5949594.150000000372529 ], [ 41906.625, 5949594.150000000372529 ], [ 41906.625, 5949594.075000000186265 ], [ 41906.69999999999709, 5949594.075000000186265 ], [ 41906.69999999999709, 5949594.150000000372529 ], [ 41906.849999999998545, 5949594.150000000372529 ], [ 41906.849999999998545, 5949594.224999999627471 ], [ 41907.0, 5949594.224999999627471 ], [ 41907.0, 5949594.299999999813735 ], [ 41907.07499999999709, 5949594.299999999813735 ], [ 41907.07499999999709, 5949594.375 ], [ 41907.224999999998545, 5949594.375 ], [ 41907.224999999998545, 5949594.450000000186265 ], [ 41907.30000000000291, 5949594.450000000186265 ], [ 41907.30000000000291, 5949594.525000000372529 ], [ 41907.44999999999709, 5949594.525000000372529 ], [ 41907.44999999999709, 5949594.599999999627471 ], [ 41907.525000000001455, 5949594.599999999627471 ], [ 41907.525000000001455, 5949594.674999999813735 ], [ 41907.599999999998545, 5949594.674999999813735 ], [ 41907.599999999998545, 5949594.900000000372529 ], [ 41907.67500000000291, 5949594.900000000372529 ], [ 41907.67500000000291, 5949595.424999999813735 ], [ 41907.75, 5949595.424999999813735 ], [ 41907.75, 5949595.799999999813735 ], [ 41907.82499999999709, 5949595.799999999813735 ], [ 41907.82499999999709, 5949596.25 ], [ 41907.900000000001455, 5949596.25 ], [ 41907.900000000001455, 5949596.700000000186265 ], [ 41907.974999999998545, 5949596.700000000186265 ], [ 41907.974999999998545, 5949597.150000000372529 ], [ 41908.05000000000291, 5949597.150000000372529 ], [ 41908.05000000000291, 5949597.599999999627471 ], [ 41907.974999999998545, 5949597.599999999627471 ], [ 41907.974999999998545, 5949597.674999999813735 ], [ 41907.82499999999709, 5949597.674999999813735 ], [ 41907.82499999999709, 5949597.75 ], [ 41907.67500000000291, 5949597.75 ], [ 41907.67500000000291, 5949597.825000000186265 ], [ 41907.525000000001455, 5949597.825000000186265 ], [ 41907.525000000001455, 5949597.900000000372529 ], [ 41907.44999999999709, 5949597.900000000372529 ], [ 41907.44999999999709, 5949597.974999999627471 ], [ 41907.30000000000291, 5949597.974999999627471 ], [ 41907.30000000000291, 5949598.049999999813735 ], [ 41907.150000000001455, 5949598.049999999813735 ], [ 41907.150000000001455, 5949598.125 ], [ 41906.92500000000291, 5949598.125 ], [ 41906.92500000000291, 5949598.200000000186265 ], [ 41906.775000000001455, 5949598.200000000186265 ], [ 41906.775000000001455, 5949598.275000000372529 ], [ 41906.474999999998545, 5949598.275000000372529 ] ] ] } }
]
}
