{
"type": "FeatureCollection",
"name": "42183E592857N_buildings",
"crs": { "type": "name", "properties": { "name": "urn:ogc:def:crs:EPSG::3776" } },
"features": [
{ "type": "Feature", "properties": { "value": 1.0, "building_id": 0, "area": 47.441250000128676 }, "geometry": { "type": "Polygon", "coordinates": [ [ [ 42203.025000000001455, 5928588.224999999627471 ], [ 42203.025000000001455, 5928588.150000000372529 ], [ 42202.5, 5928588.150000000372529 ], [ 42202.5, 5928588.075000000186265 ], [ 42202.19999999999709, 5928588.075000000186265 ], [ 42202.19999999999709, 5928588.0 ], [ 42201.974999999998545, 5928588.0 ], [ 42201.974999999998545, 5928587.924999999813735 ], [ 42201.900000000001455, 5928587.924999999813735 ], [ 42201.900000000001455, 5928587.775000000372529 ], [ 42201.82499999999709, 5928587.775000000372529 ], [ 42201.82499999999709, 5928587.625 ], [ 42201.75, 5928587.625 ], [ 42201.75, 5928587.549999999813735 ], [ 42201.67500000000291, 5928587.549999999813735 ], [ 42201.67500000000291, 5928587.400000000372529 ], [ 42201.599999999998545, 5928587.400000000372529 ], [ 42201.599999999998545, 5928587.25 ], [ 42201.525000000001455, 5928587.25 ], [ 42201.525000000001455, 5928587.174999999813735 ], [ 42201.375, 5928587.174999999813735 ], [ 42201.375, 5928587.099999999627471 ], [ 42201.30000000000291, 5928587.099999999627471 ], [ 42201.30000000000291, 5928587.025000000372529 ], [ 42201.224999999998545, 5928587.025000000372529 ], [ 42201.224999999998545, 5928586.950000000186265 ], [ 42201.150000000001455, 5928586.950000000186265 ], [ 42201.150000000001455, 5928586.799999999813735 ], [ 42201.07499999999709, 5928586.799999999813735 ], [ 42201.07499999999709, 5928586.724999999627471 ], [ 42201.0, 5928586.724999999627471 ], [ 42201.0, 5928586.650000000372529 ], [ 42200.92500000000291, 5928586.650000000372529 ], [ 42200.92500000000291, 5928586.5 ], [ 42200.849999999998545, 5928586.5 ], [ 42200.849999999998545, 5928586.349999999627471 ], [ 42200.775000000001455, 5928586.349999999627471 ], [ 42200.775000000001455, 5928586.200000000186265 ], [ 42200.69999999999709, 5928586.200000000186265 ], [ 42200.69999999999709, 5928586.049999999813735 ], [ 42200.625, 5928586.049999999813735 ], [ 42200.625, 5928585.825000000186265 ], [ 42200.55000000000291, 5928585.825000000186265 ], [ 42200.55000000000291, 5928585.674999999813735 ], [ 42200.474999999998545, 5928585.674999999813735 ], [ 42200.474999999998545, 5928585.525000000372529 ], [ 42200.400000000001455, 5928585.525000000372529 ], [ 42200.400000000001455, 5928585.299999999813735 ], [ 42200.32499999999709, 5928585.299999999813735 ], [ 42200.32499999999709, 5928585.0 ], [ 42200.25, 5928585.0 ], [ 42200.25, 5928584.700000000186265 ], [ 42200.17500000000291, 5928584.700000000186265 ], [ 42200.17500000000291, 5928584.325000000186265 ], [ 42200.099999999998545, 5928584.325000000186265 ], [ 42200.099999999998545, 5928583.5 ], [ 42200.025000000001455, 5928583.5 ], [ 42200.025000000001455, 5928579.0 ], [ 42206.17500000000291, 5928579.0 ], [ 42206.17500000000291, 5928582.075000000186265 ], [ 42206.099999999998545, 5928582.075000000186265 ], [ 42206.099999999998545, 5928582.450000000186265 ], [ 42206.025000000001455, 5928582.450000000186265 ], [ 42206.025000000001455, 5928582.825000000186265 ], [ 42205.94999999999709, 5928582.825000000186265 ], [ 42205.94999999999709, 5928583.125 ], [ 42205.875, 5928583.125 ], [ 42205.875, 5928583.424999999813735 ], [ 42205.80000000000291, 5928583.424999999813735 ], [ 42205.80000000000291, 5928583.724999999627471 ], [ 42205.724999999998545, 5928583.724999999627471 ], [ 42205.724999999998545, 5928583.950000000186265 ], [ 42205.650000000001455, 5928583.950000000186265 ], [ 42205.650000000001455, 5928584.099999999627471 ], [ 42205.57499999999709, 5928584.099999999627471 ], [ 42205.57499999999709, 5928584.25 ], [ 42205.5, 5928584.25 ], [ 42205.5, 5928584.400000000372529 ], [ 42205.42500000000291, 5928584.400000000372529 ], [ 42205.42500000000291, 5928584.775000000372529 ], [ 42205.349999999998545, 5928584.775000000372529 ], [ 42205.349999999998545, 5928585.075000000186265 ], [ 42205.275000000001455, 5928585.075000000186265 ], [ 42205.275000000001455, 5928585.450000000186265 ], [ 42205.19999999999709, 5928585.450000000186265 ], [ 42205.19999999999709, 5928585.825000000186265 ], [ 42205.125, 5928585.825000000186265 ], [ 42205.125, 5928586.424999999813735 ], [ 42205.05000000000291, 5928586.424999999813735 ], [ 42205.05000000000291, 5928586.724999999627471 ], [ 42204.974999999998545, 5928586.724999999627471 ], [ 42204.974999999998545, 5928586.799999999813735 ], [ 42204.900000000001455, 5928586.799999999813735 ], [ 42204.900000000001455, 5928586.950000000186265 ], [ 42204.82499999999709, 5928586.950000000186265 ], [ 42204.82499999999709, 5928587.025000000372529 ], [ 42204.75, 5928587.025000000372529 ], [ 42204.75, 5928587.174999999813735 ], [ 42204.67500000000291, 5928587.174999999813735 ], [ 42204.67500000000291, 5928587.25 ], [ 42204.599999999998545, 5928587.25 ], [ 42204.599999999998545, 5928587.400000000372529 ], [ 42204.525000000001455, 5928587.400000000372529 ], [ 42204.525000000001455, 5928587.474999999627471 ], [ 42204.44999999999709, 5928587.474999999627471 ], [ 42204.44999999999709, 5928587.549999999813735 ], [ 42204.375, 5928587.549999999813735 ], [ 42204.375, 5928587.625 ], [ 42204.30000000000291, 5928587.625 ], [ 42204.30000000000291, 5928587.700000000186265 ], [ 42204.224999999998545, 5928587.700000000186265 ], [ 42204.224999999998545, 5928587.775000000372529 ], [ 42204.150000000001455, 5928587.775000000372529 ], [ 42204.150000000001455, 5928587.849999999627471 ], [ 42204.07499999999709, 5928587.849999999627471 ], [ 42204.07499999999709, 5928587.924999999813735 ], [ 42203.92500000000291, 5928587.924999999813735 ], [ 42203.92500000000291, 5928588.0 ], [ 42203.849999999998545, 5928588.0 ], [ 42203.849999999998545, 5928588.075000000186265 ], [ 42203.69999999999709, 5928588.075000000186265 ], [ 42203.69999999999709, 5928588.150000000372529 ], [ 42203.625, 5928588.150000000372529 ], [ 42203.625, 5928588.224999999627471 ], [ 42203.025000000001455, 5928588.224999999627471 ] ] ] } }
]
}
