{
"type": "FeatureCollection",
"name": "42183E591657N_buildings",
"crs": { "type": "name", "properties": { "name": "urn:ogc:def:crs:EPSG::3776" } },
"features": [
{ "type": "Feature", "properties": { "value": 1.0, "building_id": 0, "area": 662.51250000056143 }, "geometry": { "type": "Polygon", "coordinates": [ [ [ 42247.875, 5917329.0 ], [ 42247.875, 5917325.25 ], [ 42247.80000000000291, 5917325.25 ], [ 42247.80000000000291, 5917324.5 ], [ 42247.724999999998545, 5917324.5 ], [ 42247.724999999998545, 5917323.974999999627471 ], [ 42247.650000000001455, 5917323.974999999627471 ], [ 42247.650000000001455, 5917323.375 ], [ 42247.724999999998545, 5917323.375 ], [ 42247.724999999998545, 5917322.25 ], [ 42247.80000000000291, 5917322.25 ], [ 42247.80000000000291, 5917321.125 ], [ 42247.875, 5917321.125 ], [ 42247.875, 5917319.700000000186265 ], [ 42247.94999999999709, 5917319.700000000186265 ], [ 42247.94999999999709, 5917318.125 ], [ 42247.875, 5917318.125 ], [ 42247.875, 5917317.974999999627471 ], [ 42247.80000000000291, 5917317.974999999627471 ], [ 42247.80000000000291, 5917317.900000000372529 ], [ 42247.724999999998545, 5917317.900000000372529 ], [ 42247.724999999998545, 5917317.75 ], [ 42247.650000000001455, 5917317.75 ], [ 42247.650000000001455, 5917317.525000000372529 ], [ 42247.57499999999709, 5917317.525000000372529 ], [ 42247.57499999999709, 5917317.375 ], [ 42247.5, 5917317.375 ], [ 42247.5, 5917317.150000000372529 ], [ 42247.42500000000291, 5917317.150000000372529 ], [ 42247.42500000000291, 5917317.0 ], [ 42247.349999999998545, 5917317.0 ], [ 42247.349999999998545, 5917316.775000000372529 ], [ 42247.275000000001455, 5917316.775000000372529 ], [ 42247.275000000001455, 5917316.474999999627471 ], [ 42247.19999999999709, 5917316.474999999627471 ], [ 42247.19999999999709, 5917316.25 ], [ 42247.125, 5917316.25 ], [ 42247.125, 5917316.025000000372529 ], [ 42247.05000000000291, 5917316.025000000372529 ], [ 42247.05000000000291, 5917315.799999999813735 ], [ 42246.974999999998545, 5917315.799999999813735 ], [ 42246.974999999998545, 5917315.575000000186265 ], [ 42246.900000000001455, 5917315.575000000186265 ], [ 42246.900000000001455, 5917315.049999999813735 ], [ 42246.974999999998545, 5917315.049999999813735 ], [ 42246.974999999998545, 5917313.849999999627471 ], [ 42247.05000000000291, 5917313.849999999627471 ], [ 42247.05000000000291, 5917313.099999999627471 ], [ 42247.125, 5917313.099999999627471 ], [ 42247.125, 5917312.125 ], [ 42247.19999999999709, 5917312.125 ], [ 42247.19999999999709, 5917310.700000000186265 ], [ 42247.275000000001455, 5917310.700000000186265 ], [ 42247.275000000001455, 5917309.049999999813735 ], [ 42247.19999999999709, 5917309.049999999813735 ], [ 42247.19999999999709, 5917305.900000000372529 ], [ 42247.125, 5917305.900000000372529 ], [ 42247.125, 5917303.724999999627471 ], [ 42247.05000000000291, 5917303.724999999627471 ], [ 42247.05000000000291, 5917302.450000000186265 ], [ 42247.125, 5917302.450000000186265 ], [ 42247.125, 5917302.224999999627471 ], [ 42247.19999999999709, 5917302.224999999627471 ], [ 42247.19999999999709, 5917301.849999999627471 ], [ 42247.275000000001455, 5917301.849999999627471 ], [ 42247.275000000001455, 5917301.549999999813735 ], [ 42247.349999999998545, 5917301.549999999813735 ], [ 42247.349999999998545, 5917301.174999999813735 ], [ 42247.42500000000291, 5917301.174999999813735 ], [ 42247.42500000000291, 5917300.799999999813735 ], [ 42247.5, 5917300.799999999813735 ], [ 42247.5, 5917300.5 ], [ 42247.57499999999709, 5917300.5 ], [ 42247.57499999999709, 5917300.275000000372529 ], [ 42247.650000000001455, 5917300.275000000372529 ], [ 42247.650000000001455, 5917300.049999999813735 ], [ 42247.724999999998545, 5917300.049999999813735 ], [ 42247.724999999998545, 5917299.900000000372529 ], [ 42247.80000000000291, 5917299.900000000372529 ], [ 42247.80000000000291, 5917299.674999999813735 ], [ 42247.875, 5917299.674999999813735 ], [ 42247.875, 5917299.525000000372529 ], [ 42247.94999999999709, 5917299.525000000372529 ], [ 42247.94999999999709, 5917299.375 ], [ 42248.025000000001455, 5917299.375 ], [ 42248.025000000001455, 5917299.224999999627471 ], [ 42248.099999999998545, 5917299.224999999627471 ], [ 42248.099999999998545, 5917299.075000000186265 ], [ 42248.17500000000291, 5917299.075000000186265 ], [ 42248.17500000000291, 5917298.924999999813735 ], [ 42248.25, 5917298.924999999813735 ], [ 42248.25, 5917298.775000000372529 ], [ 42248.32499999999709, 5917298.775000000372529 ], [ 42248.32499999999709, 5917298.700000000186265 ], [ 42248.400000000001455, 5917298.700000000186265 ], [ 42248.400000000001455, 5917298.625 ], [ 42248.474999999998545, 5917298.625 ], [ 42248.474999999998545, 5917298.549999999813735 ], [ 42248.55000000000291, 5917298.549999999813735 ], [ 42248.55000000000291, 5917298.474999999627471 ], [ 42248.625, 5917298.474999999627471 ], [ 42248.625, 5917298.400000000372529 ], [ 42248.69999999999709, 5917298.400000000372529 ], [ 42248.69999999999709, 5917298.325000000186265 ], [ 42248.775000000001455, 5917298.325000000186265 ], [ 42248.775000000001455, 5917298.25 ], [ 42248.849999999998545, 5917298.25 ], [ 42248.849999999998545, 5917298.174999999813735 ], [ 42248.92500000000291, 5917298.174999999813735 ], [ 42248.92500000000291, 5917298.099999999627471 ], [ 42249.0, 5917298.099999999627471 ], [ 42249.0, 5917298.025000000372529 ], [ 42249.07499999999709, 5917298.025000000372529 ], [ 42249.07499999999709, 5917297.950000000186265 ], [ 42249.150000000001455, 5917297.950000000186265 ], [ 42249.150000000001455, 5917297.875 ], [ 42249.224999999998545, 5917297.875 ], [ 42249.224999999998545, 5917297.724999999627471 ], [ 42249.30000000000291, 5917297.724999999627471 ], [ 42249.30000000000291, 5917297.650000000372529 ], [ 42249.375, 5917297.650000000372529 ], [ 42249.375, 5917297.575000000186265 ], [ 42249.44999999999709, 5917297.575000000186265 ], [ 42249.44999999999709, 5917297.5 ], [ 42249.525000000001455, 5917297.5 ], [ 42249.525000000001455, 5917297.424999999813735 ], [ 42249.599999999998545, 5917297.424999999813735 ], [ 42249.599999999998545, 5917297.349999999627471 ], [ 42249.67500000000291, 5917297.349999999627471 ], [ 42249.67500000000291, 5917297.200000000186265 ], [ 42249.75, 5917297.200000000186265 ], [ 42249.75, 5917297.125 ], [ 42249.82499999999709, 5917297.125 ], [ 42249.82499999999709, 5917297.049999999813735 ], [ 42249.900000000001455, 5917297.049999999813735 ], [ 42249.900000000001455, 5917296.900000000372529 ], [ 42249.974999999998545, 5917296.900000000372529 ], [ 42249.974999999998545, 5917296.825000000186265 ], [ 42250.05000000000291, 5917296.825000000186265 ], [ 42250.05000000000291, 5917296.75 ], [ 42250.125, 5917296.75 ], [ 42250.125, 5917296.674999999813735 ], [ 42250.19999999999709, 5917296.674999999813735 ], [ 42250.19999999999709, 5917296.599999999627471 ], [ 42250.275000000001455, 5917296.599999999627471 ], [ 42250.275000000001455, 5917296.525000000372529 ], [ 42250.349999999998545, 5917296.525000000372529 ], [ 42250.349999999998545, 5917296.450000000186265 ], [ 42250.42500000000291, 5917296.450000000186265 ], [ 42250.42500000000291, 5917296.375 ], [ 42250.57499999999709, 5917296.375 ], [ 42250.57499999999709, 5917296.299999999813735 ], [ 42250.724999999998545, 5917296.299999999813735 ], [ 42250.724999999998545, 5917296.224999999627471 ], [ 42250.94999999999709, 5917296.224999999627471 ], [ 42250.94999999999709, 5917296.150000000372529 ], [ 42251.17500000000291, 5917296.150000000372529 ], [ 42251.17500000000291, 5917296.075000000186265 ], [ 42251.400000000001455, 5917296.075000000186265 ], [ 42251.400000000001455, 5917296.0 ], [ 42251.625, 5917296.0 ], [ 42251.625, 5917295.924999999813735 ], [ 42251.92500000000291, 5917295.924999999813735 ], [ 42251.92500000000291, 5917295.849999999627471 ], [ 42252.224999999998545, 5917295.849999999627471 ], [ 42252.224999999998545, 5917295.775000000372529 ], [ 42252.82499999999709, 5917295.775000000372529 ], [ 42252.82499999999709, 5917295.700000000186265 ], [ 42253.650000000001455, 5917295.700000000186265 ], [ 42253.650000000001455, 5917295.625 ], [ 42254.474999999998545, 5917295.625 ], [ 42254.474999999998545, 5917295.549999999813735 ], [ 42255.599999999998545, 5917295.549999999813735 ], [ 42255.599999999998545, 5917295.474999999627471 ], [ 42258.224999999998545, 5917295.474999999627471 ], [ 42258.224999999998545, 5917295.549999999813735 ], [ 42258.599999999998545, 5917295.549999999813735 ], [ 42258.599999999998545, 5917295.625 ], [ 42258.974999999998545, 5917295.625 ], [ 42258.974999999998545, 5917295.700000000186265 ], [ 42259.19999999999709, 5917295.700000000186265 ], [ 42259.19999999999709, 5917295.775000000372529 ], [ 42259.5, 5917295.775000000372529 ], [ 42259.5, 5917295.849999999627471 ], [ 42259.650000000001455, 5917295.849999999627471 ], [ 42259.650000000001455, 5917295.924999999813735 ], [ 42259.875, 5917295.924999999813735 ], [ 42259.875, 5917296.0 ], [ 42260.025000000001455, 5917296.0 ], [ 42260.025000000001455, 5917296.075000000186265 ], [ 42260.17500000000291, 5917296.075000000186265 ], [ 42260.17500000000291, 5917296.150000000372529 ], [ 42260.32499999999709, 5917296.150000000372529 ], [ 42260.32499999999709, 5917296.224999999627471 ], [ 42260.400000000001455, 5917296.224999999627471 ], [ 42260.400000000001455, 5917296.299999999813735 ], [ 42260.55000000000291, 5917296.299999999813735 ], [ 42260.55000000000291, 5917296.375 ], [ 42260.625, 5917296.375 ], [ 42260.625, 5917296.450000000186265 ], [ 42260.69999999999709, 5917296.450000000186265 ], [ 42260.69999999999709, 5917296.525000000372529 ], [ 42260.775000000001455, 5917296.525000000372529 ], [ 42260.775000000001455, 5917296.599999999627471 ], [ 42260.849999999998545, 5917296.599999999627471 ], [ 42260.849999999998545, 5917296.674999999813735 ], [ 42260.92500000000291, 5917296.674999999813735 ], [ 42260.92500000000291, 5917296.75 ], [ 42261.0, 5917296.75 ], [ 42261.0, 5917296.825000000186265 ], [ 42261.07499999999709, 5917296.825000000186265 ], [ 42261.07499999999709, 5917296.900000000372529 ], [ 42261.150000000001455, 5917296.900000000372529 ], [ 42261.150000000001455, 5917296.974999999627471 ], [ 42261.224999999998545, 5917296.974999999627471 ], [ 42261.224999999998545, 5917297.049999999813735 ], [ 42261.30000000000291, 5917297.049999999813735 ], [ 42261.30000000000291, 5917297.125 ], [ 42261.375, 5917297.125 ], [ 42261.375, 5917297.200000000186265 ], [ 42261.44999999999709, 5917297.200000000186265 ], [ 42261.44999999999709, 5917297.275000000372529 ], [ 42261.525000000001455, 5917297.275000000372529 ], [ 42261.525000000001455, 5917297.349999999627471 ], [ 42261.599999999998545, 5917297.349999999627471 ], [ 42261.599999999998545, 5917297.5 ], [ 42261.67500000000291, 5917297.5 ], [ 42261.67500000000291, 5917297.575000000186265 ], [ 42261.75, 5917297.575000000186265 ], [ 42261.75, 5917297.650000000372529 ], [ 42261.82499999999709, 5917297.650000000372529 ], [ 42261.82499999999709, 5917297.724999999627471 ], [ 42261.900000000001455, 5917297.724999999627471 ], [ 42261.900000000001455, 5917297.799999999813735 ], [ 42261.974999999998545, 5917297.799999999813735 ], [ 42261.974999999998545, 5917297.875 ], [ 42262.05000000000291, 5917297.875 ], [ 42262.05000000000291, 5917297.950000000186265 ], [ 42262.125, 5917297.950000000186265 ], [ 42262.125, 5917298.025000000372529 ], [ 42262.19999999999709, 5917298.025000000372529 ], [ 42262.19999999999709, 5917298.099999999627471 ], [ 42262.275000000001455, 5917298.099999999627471 ], [ 42262.275000000001455, 5917298.174999999813735 ], [ 42262.349999999998545, 5917298.174999999813735 ], [ 42262.349999999998545, 5917298.25 ], [ 42262.42500000000291, 5917298.25 ], [ 42262.42500000000291, 5917298.400000000372529 ], [ 42262.5, 5917298.400000000372529 ], [ 42262.5, 5917298.474999999627471 ], [ 42262.57499999999709, 5917298.474999999627471 ], [ 42262.57499999999709, 5917298.625 ], [ 42262.650000000001455, 5917298.625 ], [ 42262.650000000001455, 5917298.775000000372529 ], [ 42262.724999999998545, 5917298.775000000372529 ], [ 42262.724999999998545, 5917298.924999999813735 ], [ 42262.80000000000291, 5917298.924999999813735 ], [ 42262.80000000000291, 5917299.150000000372529 ], [ 42262.875, 5917299.150000000372529 ], [ 42262.875, 5917299.375 ], [ 42262.94999999999709, 5917299.375 ], [ 42262.94999999999709, 5917299.599999999627471 ], [ 42263.025000000001455, 5917299.599999999627471 ], [ 42263.025000000001455, 5917299.900000000372529 ], [ 42263.099999999998545, 5917299.900000000372529 ], [ 42263.099999999998545, 5917300.275000000372529 ], [ 42263.17500000000291, 5917300.275000000372529 ], [ 42263.17500000000291, 5917300.650000000372529 ], [ 42263.25, 5917300.650000000372529 ], [ 42263.25, 5917300.875 ], [ 42263.32499999999709, 5917300.875 ], [ 42263.32499999999709, 5917301.025000000372529 ], [ 42263.400000000001455, 5917301.025000000372529 ], [ 42263.400000000001455, 5917301.174999999813735 ], [ 42263.474999999998545, 5917301.174999999813735 ], [ 42263.474999999998545, 5917301.325000000186265 ], [ 42263.55000000000291, 5917301.325000000186265 ], [ 42263.55000000000291, 5917301.400000000372529 ], [ 42263.625, 5917301.400000000372529 ], [ 42263.625, 5917301.549999999813735 ], [ 42263.69999999999709, 5917301.549999999813735 ], [ 42263.69999999999709, 5917301.625 ], [ 42263.775000000001455, 5917301.625 ], [ 42263.775000000001455, 5917301.775000000372529 ], [ 42263.849999999998545, 5917301.775000000372529 ], [ 42263.849999999998545, 5917301.849999999627471 ], [ 42263.92500000000291, 5917301.849999999627471 ], [ 42263.92500000000291, 5917301.924999999813735 ], [ 42264.0, 5917301.924999999813735 ], [ 42264.0, 5917302.0 ], [ 42264.07499999999709, 5917302.0 ], [ 42264.07499999999709, 5917302.075000000186265 ], [ 42264.150000000001455, 5917302.075000000186265 ], [ 42264.150000000001455, 5917302.150000000372529 ], [ 42264.224999999998545, 5917302.150000000372529 ], [ 42264.224999999998545, 5917302.224999999627471 ], [ 42264.30000000000291, 5917302.224999999627471 ], [ 42264.30000000000291, 5917302.299999999813735 ], [ 42264.375, 5917302.299999999813735 ], [ 42264.375, 5917302.375 ], [ 42264.44999999999709, 5917302.375 ], [ 42264.44999999999709, 5917302.450000000186265 ], [ 42264.525000000001455, 5917302.450000000186265 ], [ 42264.525000000001455, 5917302.599999999627471 ], [ 42264.599999999998545, 5917302.599999999627471 ], [ 42264.599999999998545, 5917302.674999999813735 ], [ 42264.67500000000291, 5917302.674999999813735 ], [ 42264.67500000000291, 5917302.825000000186265 ], [ 42264.75, 5917302.825000000186265 ], [ 42264.75, 5917302.900000000372529 ], [ 42264.82499999999709, 5917302.900000000372529 ], [ 42264.82499999999709, 5917302.974999999627471 ], [ 42264.900000000001455, 5917302.974999999627471 ], [ 42264.900000000001455, 5917303.049999999813735 ], [ 42264.974999999998545, 5917303.049999999813735 ], [ 42264.974999999998545, 5917303.125 ], [ 42265.05000000000291, 5917303.125 ], [ 42265.05000000000291, 5917303.200000000186265 ], [ 42265.125, 5917303.200000000186265 ], [ 42265.125, 5917303.275000000372529 ], [ 42265.19999999999709, 5917303.275000000372529 ], [ 42265.19999999999709, 5917303.349999999627471 ], [ 42265.349999999998545, 5917303.349999999627471 ], [ 42265.349999999998545, 5917303.424999999813735 ], [ 42265.42500000000291, 5917303.424999999813735 ], [ 42265.42500000000291, 5917303.5 ], [ 42265.5, 5917303.5 ], [ 42265.5, 5917303.575000000186265 ], [ 42265.650000000001455, 5917303.575000000186265 ], [ 42265.650000000001455, 5917303.650000000372529 ], [ 42265.80000000000291, 5917303.650000000372529 ], [ 42265.80000000000291, 5917303.724999999627471 ], [ 42265.875, 5917303.724999999627471 ], [ 42265.875, 5917303.799999999813735 ], [ 42266.025000000001455, 5917303.799999999813735 ], [ 42266.025000000001455, 5917303.875 ], [ 42266.17500000000291, 5917303.875 ], [ 42266.17500000000291, 5917303.950000000186265 ], [ 42266.32499999999709, 5917303.950000000186265 ], [ 42266.32499999999709, 5917304.025000000372529 ], [ 42266.474999999998545, 5917304.025000000372529 ], [ 42266.474999999998545, 5917304.099999999627471 ], [ 42266.55000000000291, 5917304.099999999627471 ], [ 42266.55000000000291, 5917304.174999999813735 ], [ 42266.625, 5917304.174999999813735 ], [ 42266.625, 5917304.25 ], [ 42266.69999999999709, 5917304.25 ], [ 42266.69999999999709, 5917304.325000000186265 ], [ 42266.849999999998545, 5917304.325000000186265 ], [ 42266.849999999998545, 5917304.400000000372529 ], [ 42266.92500000000291, 5917304.400000000372529 ], [ 42266.92500000000291, 5917304.549999999813735 ], [ 42267.0, 5917304.549999999813735 ], [ 42267.0, 5917304.625 ], [ 42267.07499999999709, 5917304.625 ], [ 42267.07499999999709, 5917304.700000000186265 ], [ 42267.150000000001455, 5917304.700000000186265 ], [ 42267.150000000001455, 5917304.775000000372529 ], [ 42267.224999999998545, 5917304.775000000372529 ], [ 42267.224999999998545, 5917304.849999999627471 ], [ 42267.30000000000291, 5917304.849999999627471 ], [ 42267.30000000000291, 5917304.924999999813735 ], [ 42267.375, 5917304.924999999813735 ], [ 42267.375, 5917305.0 ], [ 42267.44999999999709, 5917305.0 ], [ 42267.44999999999709, 5917305.075000000186265 ], [ 42267.599999999998545, 5917305.075000000186265 ], [ 42267.599999999998545, 5917305.150000000372529 ], [ 42267.67500000000291, 5917305.150000000372529 ], [ 42267.67500000000291, 5917305.224999999627471 ], [ 42267.82499999999709, 5917305.224999999627471 ], [ 42267.82499999999709, 5917305.299999999813735 ], [ 42267.900000000001455, 5917305.299999999813735 ], [ 42267.900000000001455, 5917305.375 ], [ 42268.05000000000291, 5917305.375 ], [ 42268.05000000000291, 5917305.450000000186265 ], [ 42268.19999999999709, 5917305.450000000186265 ], [ 42268.19999999999709, 5917305.525000000372529 ], [ 42268.275000000001455, 5917305.525000000372529 ], [ 42268.275000000001455, 5917305.599999999627471 ], [ 42268.42500000000291, 5917305.599999999627471 ], [ 42268.42500000000291, 5917305.674999999813735 ], [ 42268.5, 5917305.674999999813735 ], [ 42268.5, 5917305.75 ], [ 42268.57499999999709, 5917305.75 ], [ 42268.57499999999709, 5917305.825000000186265 ], [ 42268.650000000001455, 5917305.825000000186265 ], [ 42268.650000000001455, 5917305.900000000372529 ], [ 42268.724999999998545, 5917305.900000000372529 ], [ 42268.724999999998545, 5917305.974999999627471 ], [ 42268.80000000000291, 5917305.974999999627471 ], [ 42268.80000000000291, 5917306.049999999813735 ], [ 42268.875, 5917306.049999999813735 ], [ 42268.875, 5917306.200000000186265 ], [ 42268.94999999999709, 5917306.200000000186265 ], [ 42268.94999999999709, 5917306.275000000372529 ], [ 42269.025000000001455, 5917306.275000000372529 ], [ 42269.025000000001455, 5917306.424999999813735 ], [ 42269.099999999998545, 5917306.424999999813735 ], [ 42269.099999999998545, 5917306.575000000186265 ], [ 42269.17500000000291, 5917306.575000000186265 ], [ 42269.17500000000291, 5917306.650000000372529 ], [ 42269.25, 5917306.650000000372529 ], [ 42269.25, 5917306.799999999813735 ], [ 42269.32499999999709, 5917306.799999999813735 ], [ 42269.32499999999709, 5917306.950000000186265 ], [ 42269.400000000001455, 5917306.950000000186265 ], [ 42269.400000000001455, 5917307.025000000372529 ], [ 42269.474999999998545, 5917307.025000000372529 ], [ 42269.474999999998545, 5917307.099999999627471 ], [ 42269.55000000000291, 5917307.099999999627471 ], [ 42269.55000000000291, 5917307.25 ], [ 42269.625, 5917307.25 ], [ 42269.625, 5917307.325000000186265 ], [ 42269.69999999999709, 5917307.325000000186265 ], [ 42269.69999999999709, 5917307.400000000372529 ], [ 42269.775000000001455, 5917307.400000000372529 ], [ 42269.775000000001455, 5917307.474999999627471 ], [ 42269.849999999998545, 5917307.474999999627471 ], [ 42269.849999999998545, 5917307.549999999813735 ], [ 42269.92500000000291, 5917307.549999999813735 ], [ 42269.92500000000291, 5917307.625 ], [ 42270.0, 5917307.625 ], [ 42270.0, 5917307.700000000186265 ], [ 42270.07499999999709, 5917307.700000000186265 ], [ 42270.07499999999709, 5917307.775000000372529 ], [ 42270.150000000001455, 5917307.775000000372529 ], [ 42270.150000000001455, 5917307.849999999627471 ], [ 42270.224999999998545, 5917307.849999999627471 ], [ 42270.224999999998545, 5917307.924999999813735 ], [ 42270.30000000000291, 5917307.924999999813735 ], [ 42270.30000000000291, 5917308.0 ], [ 42270.375, 5917308.0 ], [ 42270.375, 5917308.150000000372529 ], [ 42270.44999999999709, 5917308.150000000372529 ], [ 42270.44999999999709, 5917308.224999999627471 ], [ 42270.525000000001455, 5917308.224999999627471 ], [ 42270.525000000001455, 5917308.375 ], [ 42270.599999999998545, 5917308.375 ], [ 42270.599999999998545, 5917308.525000000372529 ], [ 42270.67500000000291, 5917308.525000000372529 ], [ 42270.67500000000291, 5917309.200000000186265 ], [ 42270.75, 5917309.200000000186265 ], [ 42270.75, 5917309.950000000186265 ], [ 42270.82499999999709, 5917309.950000000186265 ], [ 42270.82499999999709, 5917311.75 ], [ 42270.75, 5917311.75 ], [ 42270.75, 5917315.424999999813735 ], [ 42270.67500000000291, 5917315.424999999813735 ], [ 42270.67500000000291, 5917316.849999999627471 ], [ 42270.599999999998545, 5917316.849999999627471 ], [ 42270.599999999998545, 5917317.375 ], [ 42270.525000000001455, 5917317.375 ], [ 42270.525000000001455, 5917317.900000000372529 ], [ 42270.44999999999709, 5917317.900000000372529 ], [ 42270.44999999999709, 5917318.275000000372529 ], [ 42270.375, 5917318.275000000372529 ], [ 42270.375, 5917318.424999999813735 ], [ 42270.30000000000291, 5917318.424999999813735 ], [ 42270.30000000000291, 5917318.5 ], [ 42270.224999999998545, 5917318.5 ], [ 42270.224999999998545, 5917318.650000000372529 ], [ 42270.150000000001455, 5917318.650000000372529 ], [ 42270.150000000001455, 5917318.724999999627471 ], [ 42270.07499999999709, 5917318.724999999627471 ], [ 42270.07499999999709, 5917318.799999999813735 ], [ 42270.0, 5917318.799999999813735 ], [ 42270.0, 5917318.875 ], [ 42269.92500000000291, 5917318.875 ], [ 42269.92500000000291, 5917318.950000000186265 ], [ 42269.849999999998545, 5917318.950000000186265 ], [ 42269.849999999998545, 5917319.025000000372529 ], [ 42269.775000000001455, 5917319.025000000372529 ], [ 42269.775000000001455, 5917319.099999999627471 ], [ 42269.69999999999709, 5917319.099999999627471 ], [ 42269.69999999999709, 5917319.174999999813735 ], [ 42269.625, 5917319.174999999813735 ], [ 42269.625, 5917319.25 ], [ 42269.55000000000291, 5917319.25 ], [ 42269.55000000000291, 5917319.325000000186265 ], [ 42269.474999999998545, 5917319.325000000186265 ], [ 42269.474999999998545, 5917319.474999999627471 ], [ 42269.400000000001455, 5917319.474999999627471 ], [ 42269.400000000001455, 5917319.549999999813735 ], [ 42269.32499999999709, 5917319.549999999813735 ], [ 42269.32499999999709, 5917319.700000000186265 ], [ 42269.25, 5917319.700000000186265 ], [ 42269.25, 5917319.849999999627471 ], [ 42269.17500000000291, 5917319.849999999627471 ], [ 42269.17500000000291, 5917320.0 ], [ 42269.099999999998545, 5917320.0 ], [ 42269.099999999998545, 5917320.150000000372529 ], [ 42269.025000000001455, 5917320.150000000372529 ], [ 42269.025000000001455, 5917320.450000000186265 ], [ 42268.94999999999709, 5917320.450000000186265 ], [ 42268.94999999999709, 5917320.75 ], [ 42268.875, 5917320.75 ], [ 42268.875, 5917321.125 ], [ 42268.80000000000291, 5917321.125 ], [ 42268.80000000000291, 5917321.424999999813735 ], [ 42268.724999999998545, 5917321.424999999813735 ], [ 42268.724999999998545, 5917321.724999999627471 ], [ 42268.650000000001455, 5917321.724999999627471 ], [ 42268.650000000001455, 5917322.025000000372529 ], [ 42268.57499999999709, 5917322.025000000372529 ], [ 42268.57499999999709, 5917322.25 ], [ 42268.5, 5917322.25 ], [ 42268.5, 5917322.325000000186265 ], [ 42268.42500000000291, 5917322.325000000186265 ], [ 42268.42500000000291, 5917322.474999999627471 ], [ 42268.349999999998545, 5917322.474999999627471 ], [ 42268.349999999998545, 5917322.549999999813735 ], [ 42268.275000000001455, 5917322.549999999813735 ], [ 42268.275000000001455, 5917322.625 ], [ 42268.19999999999709, 5917322.625 ], [ 42268.19999999999709, 5917322.700000000186265 ], [ 42268.125, 5917322.700000000186265 ], [ 42268.125, 5917322.775000000372529 ], [ 42268.05000000000291, 5917322.775000000372529 ], [ 42268.05000000000291, 5917322.849999999627471 ], [ 42267.974999999998545, 5917322.849999999627471 ], [ 42267.974999999998545, 5917322.924999999813735 ], [ 42267.82499999999709, 5917322.924999999813735 ], [ 42267.82499999999709, 5917323.0 ], [ 42267.75, 5917323.0 ], [ 42267.75, 5917323.075000000186265 ], [ 42267.67500000000291, 5917323.075000000186265 ], [ 42267.67500000000291, 5917323.150000000372529 ], [ 42267.599999999998545, 5917323.150000000372529 ], [ 42267.599999999998545, 5917323.224999999627471 ], [ 42267.525000000001455, 5917323.224999999627471 ], [ 42267.525000000001455, 5917323.299999999813735 ], [ 42267.44999999999709, 5917323.299999999813735 ], [ 42267.44999999999709, 5917323.375 ], [ 42267.375, 5917323.375 ], [ 42267.375, 5917323.450000000186265 ], [ 42267.30000000000291, 5917323.450000000186265 ], [ 42267.30000000000291, 5917323.525000000372529 ], [ 42267.224999999998545, 5917323.525000000372529 ], [ 42267.224999999998545, 5917323.599999999627471 ], [ 42267.150000000001455, 5917323.599999999627471 ], [ 42267.150000000001455, 5917323.674999999813735 ], [ 42267.07499999999709, 5917323.674999999813735 ], [ 42267.07499999999709, 5917323.825000000186265 ], [ 42267.0, 5917323.825000000186265 ], [ 42267.0, 5917323.900000000372529 ], [ 42266.92500000000291, 5917323.900000000372529 ], [ 42266.92500000000291, 5917324.049999999813735 ], [ 42266.849999999998545, 5917324.049999999813735 ], [ 42266.849999999998545, 5917324.349999999627471 ], [ 42266.775000000001455, 5917324.349999999627471 ], [ 42266.775000000001455, 5917324.724999999627471 ], [ 42266.69999999999709, 5917324.724999999627471 ], [ 42266.69999999999709, 5917325.099999999627471 ], [ 42266.625, 5917325.099999999627471 ], [ 42266.625, 5917325.474999999627471 ], [ 42266.55000000000291, 5917325.474999999627471 ], [ 42266.55000000000291, 5917325.849999999627471 ], [ 42266.474999999998545, 5917325.849999999627471 ], [ 42266.474999999998545, 5917329.0 ], [ 42247.875, 5917329.0 ] ] ] } },
{ "type": "Feature", "properties": { "value": 1.0, "building_id": 1, "area": 8.3868750002238439 }, "geometry": { "type": "Polygon", "coordinates": [ [ [ 42248.400000000001455, 5917280.474999999627471 ], [ 42248.400000000001455, 5917280.400000000372529 ], [ 42248.25, 5917280.400000000372529 ], [ 42248.25, 5917280.325000000186265 ], [ 42248.099999999998545, 5917280.325000000186265 ], [ 42248.099999999998545, 5917280.25 ], [ 42247.94999999999709, 5917280.25 ], [ 42247.94999999999709, 5917280.174999999813735 ], [ 42247.875, 5917280.174999999813735 ], [ 42247.875, 5917280.099999999627471 ], [ 42247.724999999998545, 5917280.099999999627471 ], [ 42247.724999999998545, 5917280.025000000372529 ], [ 42247.57499999999709, 5917280.025000000372529 ], [ 42247.57499999999709, 5917279.950000000186265 ], [ 42247.5, 5917279.950000000186265 ], [ 42247.5, 5917279.875 ], [ 42247.42500000000291, 5917279.875 ], [ 42247.42500000000291, 5917279.799999999813735 ], [ 42247.275000000001455, 5917279.799999999813735 ], [ 42247.275000000001455, 5917279.724999999627471 ], [ 42247.19999999999709, 5917279.724999999627471 ], [ 42247.19999999999709, 5917279.650000000372529 ], [ 42247.125, 5917279.650000000372529 ], [ 42247.125, 5917279.575000000186265 ], [ 42247.05000000000291, 5917279.575000000186265 ], [ 42247.05000000000291, 5917279.5 ], [ 42246.974999999998545, 5917279.5 ], [ 42246.974999999998545, 5917279.424999999813735 ], [ 42246.900000000001455, 5917279.424999999813735 ], [ 42246.900000000001455, 5917279.349999999627471 ], [ 42246.82499999999709, 5917279.349999999627471 ], [ 42246.82499999999709, 5917279.049999999813735 ], [ 42246.900000000001455, 5917279.049999999813735 ], [ 42246.900000000001455, 5917278.825000000186265 ], [ 42246.974999999998545, 5917278.825000000186265 ], [ 42246.974999999998545, 5917278.674999999813735 ], [ 42247.05000000000291, 5917278.674999999813735 ], [ 42247.05000000000291, 5917278.450000000186265 ], [ 42247.125, 5917278.450000000186265 ], [ 42247.125, 5917278.299999999813735 ], [ 42247.19999999999709, 5917278.299999999813735 ], [ 42247.19999999999709, 5917278.150000000372529 ], [ 42247.275000000001455, 5917278.150000000372529 ], [ 42247.275000000001455, 5917277.924999999813735 ], [ 42247.349999999998545, 5917277.924999999813735 ], [ 42247.349999999998545, 5917277.775000000372529 ], [ 42247.42500000000291, 5917277.775000000372529 ], [ 42247.42500000000291, 5917277.625 ], [ 42247.5, 5917277.625 ], [ 42247.5, 5917277.474999999627471 ], [ 42247.57499999999709, 5917277.474999999627471 ], [ 42247.57499999999709, 5917277.325000000186265 ], [ 42247.650000000001455, 5917277.325000000186265 ], [ 42247.650000000001455, 5917277.174999999813735 ], [ 42247.80000000000291, 5917277.174999999813735 ], [ 42247.80000000000291, 5917277.099999999627471 ], [ 42247.94999999999709, 5917277.099999999627471 ], [ 42247.94999999999709, 5917277.025000000372529 ], [ 42248.099999999998545, 5917277.025000000372529 ], [ 42248.099999999998545, 5917276.950000000186265 ], [ 42248.25, 5917276.950000000186265 ], [ 42248.25, 5917276.875 ], [ 42248.625, 5917276.875 ], [ 42248.625, 5917276.950000000186265 ], [ 42248.775000000001455, 5917276.950000000186265 ], [ 42248.775000000001455, 5917277.025000000372529 ], [ 42248.92500000000291, 5917277.025000000372529 ], [ 42248.92500000000291, 5917277.099999999627471 ], [ 42249.07499999999709, 5917277.099999999627471 ], [ 42249.07499999999709, 5917277.174999999813735 ], [ 42249.150000000001455, 5917277.174999999813735 ], [ 42249.150000000001455, 5917277.25 ], [ 42249.224999999998545, 5917277.25 ], [ 42249.224999999998545, 5917277.325000000186265 ], [ 42249.30000000000291, 5917277.325000000186265 ], [ 42249.30000000000291, 5917277.400000000372529 ], [ 42249.375, 5917277.400000000372529 ], [ 42249.375, 5917277.549999999813735 ], [ 42249.44999999999709, 5917277.549999999813735 ], [ 42249.44999999999709, 5917277.700000000186265 ], [ 42249.525000000001455, 5917277.700000000186265 ], [ 42249.525000000001455, 5917277.849999999627471 ], [ 42249.599999999998545, 5917277.849999999627471 ], [ 42249.599999999998545, 5917278.0 ], [ 42249.67500000000291, 5917278.0 ], [ 42249.67500000000291, 5917278.075000000186265 ], [ 42249.75, 5917278.075000000186265 ], [ 42249.75, 5917278.224999999627471 ], [ 42249.82499999999709, 5917278.224999999627471 ], [ 42249.82499999999709, 5917278.375 ], [ 42249.900000000001455, 5917278.375 ], [ 42249.900000000001455, 5917278.450000000186265 ], [ 42249.974999999998545, 5917278.450000000186265 ], [ 42249.974999999998545, 5917278.599999999627471 ], [ 42250.05000000000291, 5917278.599999999627471 ], [ 42250.05000000000291, 5917278.75 ], [ 42250.125, 5917278.75 ], [ 42250.125, 5917278.825000000186265 ], [ 42250.19999999999709, 5917278.825000000186265 ], [ 42250.19999999999709, 5917278.974999999627471 ], [ 42250.275000000001455, 5917278.974999999627471 ], [ 42250.275000000001455, 5917279.125 ], [ 42250.349999999998545, 5917279.125 ], [ 42250.349999999998545, 5917279.275000000372529 ], [ 42250.275000000001455, 5917279.275000000372529 ], [ 42250.275000000001455, 5917279.424999999813735 ], [ 42250.19999999999709, 5917279.424999999813735 ], [ 42250.19999999999709, 5917279.575000000186265 ], [ 42250.125, 5917279.575000000186265 ], [ 42250.125, 5917279.650000000372529 ], [ 42250.05000000000291, 5917279.650000000372529 ], [ 42250.05000000000291, 5917279.724999999627471 ], [ 42249.974999999998545, 5917279.724999999627471 ], [ 42249.974999999998545, 5917279.799999999813735 ], [ 42249.900000000001455, 5917279.799999999813735 ], [ 42249.900000000001455, 5917279.875 ], [ 42249.82499999999709, 5917279.875 ], [ 42249.82499999999709, 5917279.950000000186265 ], [ 42249.75, 5917279.950000000186265 ], [ 42249.75, 5917280.025000000372529 ], [ 42249.67500000000291, 5917280.025000000372529 ], [ 42249.67500000000291, 5917280.099999999627471 ], [ 42249.599999999998545, 5917280.099999999627471 ], [ 42249.599999999998545, 5917280.174999999813735 ], [ 42249.525000000001455, 5917280.174999999813735 ], [ 42249.525000000001455, 5917280.25 ], [ 42249.30000000000291, 5917280.25 ], [ 42249.30000000000291, 5917280.325000000186265 ], [ 42249.07499999999709, 5917280.325000000186265 ], [ 42249.07499999999709, 5917280.400000000372529 ], [ 42248.55000000000291, 5917280.400000000372529 ], [ 42248.55000000000291, 5917280.474999999627471 ], [ 42248.400000000001455, 5917280.474999999627471 ] ] ] } },
{ "type": "Feature", "properties": { "value": 1.0, "building_id": 2, "area": 350.95500000002215 }, "geometry": { "type": "Polygon", "coordinates": [ [ [ 42193.19999999999709, 5917143.75 ], [ 42193.19999999999709, 5917143.674999999813735 ], [ 42191.69999999999709, 5917143.674999999813735 ], [ 42191.69999999999709, 5917143.599999999627471 ], [ 42190.42500000000291, 5917143.599999999627471 ], [ 42190.42500000000291, 5917143.525000000372529 ], [ 42189.224999999998545, 5917143.525000000372529 ], [ 42189.224999999998545, 5917143.450000000186265 ], [ 42188.17500000000291, 5917143.450000000186265 ], [ 42188.17500000000291, 5917143.375 ], [ 42186.67500000000291, 5917143.375 ], [ 42186.67500000000291, 5917143.299999999813735 ], [ 42183.0, 5917143.299999999813735 ], [ 42183.0, 5917127.549999999813735 ], [ 42186.224999999998545, 5917127.549999999813735 ], [ 42186.224999999998545, 5917127.474999999627471 ], [ 42188.400000000001455, 5917127.474999999627471 ], [ 42188.400000000001455, 5917127.400000000372529 ], [ 42189.67500000000291, 5917127.400000000372529 ], [ 42189.67500000000291, 5917127.325000000186265 ], [ 42190.5, 5917127.325000000186265 ], [ 42190.5, 5917127.25 ], [ 42191.17500000000291, 5917127.25 ], [ 42191.17500000000291, 5917127.174999999813735 ], [ 42191.849999999998545, 5917127.174999999813735 ], [ 42191.849999999998545, 5917127.099999999627471 ], [ 42192.150000000001455, 5917127.099999999627471 ], [ 42192.150000000001455, 5917127.025000000372529 ], [ 42192.525000000001455, 5917127.025000000372529 ], [ 42192.525000000001455, 5917126.950000000186265 ], [ 42192.82499999999709, 5917126.950000000186265 ], [ 42192.82499999999709, 5917126.875 ], [ 42193.125, 5917126.875 ], [ 42193.125, 5917126.799999999813735 ], [ 42193.349999999998545, 5917126.799999999813735 ], [ 42193.349999999998545, 5917126.724999999627471 ], [ 42193.650000000001455, 5917126.724999999627471 ], [ 42193.650000000001455, 5917126.650000000372529 ], [ 42194.17500000000291, 5917126.650000000372529 ], [ 42194.17500000000291, 5917126.724999999627471 ], [ 42195.150000000001455, 5917126.724999999627471 ], [ 42195.150000000001455, 5917126.799999999813735 ], [ 42195.75, 5917126.799999999813735 ], [ 42195.75, 5917126.875 ], [ 42195.974999999998545, 5917126.875 ], [ 42195.974999999998545, 5917126.950000000186265 ], [ 42196.19999999999709, 5917126.950000000186265 ], [ 42196.19999999999709, 5917127.025000000372529 ], [ 42196.42500000000291, 5917127.025000000372529 ], [ 42196.42500000000291, 5917127.099999999627471 ], [ 42196.650000000001455, 5917127.099999999627471 ], [ 42196.650000000001455, 5917127.174999999813735 ], [ 42196.94999999999709, 5917127.174999999813735 ], [ 42196.94999999999709, 5917127.25 ], [ 42197.25, 5917127.25 ], [ 42197.25, 5917127.325000000186265 ], [ 42197.55000000000291, 5917127.325000000186265 ], [ 42197.55000000000291, 5917127.400000000372529 ], [ 42198.0, 5917127.400000000372529 ], [ 42198.0, 5917127.474999999627471 ], [ 42198.599999999998545, 5917127.474999999627471 ], [ 42198.599999999998545, 5917127.549999999813735 ], [ 42199.19999999999709, 5917127.549999999813735 ], [ 42199.19999999999709, 5917127.625 ], [ 42199.875, 5917127.625 ], [ 42199.875, 5917127.700000000186265 ], [ 42200.69999999999709, 5917127.700000000186265 ], [ 42200.69999999999709, 5917127.775000000372529 ], [ 42201.525000000001455, 5917127.775000000372529 ], [ 42201.525000000001455, 5917127.849999999627471 ], [ 42202.19999999999709, 5917127.849999999627471 ], [ 42202.19999999999709, 5917127.924999999813735 ], [ 42202.80000000000291, 5917127.924999999813735 ], [ 42202.80000000000291, 5917128.0 ], [ 42203.400000000001455, 5917128.0 ], [ 42203.400000000001455, 5917128.075000000186265 ], [ 42203.625, 5917128.075000000186265 ], [ 42203.625, 5917128.150000000372529 ], [ 42203.775000000001455, 5917128.150000000372529 ], [ 42203.775000000001455, 5917128.224999999627471 ], [ 42203.92500000000291, 5917128.224999999627471 ], [ 42203.92500000000291, 5917128.299999999813735 ], [ 42204.0, 5917128.299999999813735 ], [ 42204.0, 5917128.375 ], [ 42204.07499999999709, 5917128.375 ], [ 42204.07499999999709, 5917128.450000000186265 ], [ 42204.224999999998545, 5917128.450000000186265 ], [ 42204.224999999998545, 5917128.525000000372529 ], [ 42204.30000000000291, 5917128.525000000372529 ], [ 42204.30000000000291, 5917128.599999999627471 ], [ 42204.375, 5917128.599999999627471 ], [ 42204.375, 5917128.674999999813735 ], [ 42204.44999999999709, 5917128.674999999813735 ], [ 42204.44999999999709, 5917128.75 ], [ 42204.525000000001455, 5917128.75 ], [ 42204.525000000001455, 5917128.900000000372529 ], [ 42204.599999999998545, 5917128.900000000372529 ], [ 42204.599999999998545, 5917129.049999999813735 ], [ 42204.67500000000291, 5917129.049999999813735 ], [ 42204.67500000000291, 5917129.125 ], [ 42204.75, 5917129.125 ], [ 42204.75, 5917129.275000000372529 ], [ 42204.82499999999709, 5917129.275000000372529 ], [ 42204.82499999999709, 5917129.349999999627471 ], [ 42204.900000000001455, 5917129.349999999627471 ], [ 42204.900000000001455, 5917129.424999999813735 ], [ 42204.974999999998545, 5917129.424999999813735 ], [ 42204.974999999998545, 5917129.5 ], [ 42205.05000000000291, 5917129.5 ], [ 42205.05000000000291, 5917129.650000000372529 ], [ 42205.125, 5917129.650000000372529 ], [ 42205.125, 5917129.724999999627471 ], [ 42205.19999999999709, 5917129.724999999627471 ], [ 42205.19999999999709, 5917129.799999999813735 ], [ 42205.275000000001455, 5917129.799999999813735 ], [ 42205.275000000001455, 5917129.875 ], [ 42205.349999999998545, 5917129.875 ], [ 42205.349999999998545, 5917129.950000000186265 ], [ 42205.42500000000291, 5917129.950000000186265 ], [ 42205.42500000000291, 5917130.025000000372529 ], [ 42205.5, 5917130.025000000372529 ], [ 42205.5, 5917130.099999999627471 ], [ 42205.57499999999709, 5917130.099999999627471 ], [ 42205.57499999999709, 5917130.174999999813735 ], [ 42205.650000000001455, 5917130.174999999813735 ], [ 42205.650000000001455, 5917130.25 ], [ 42205.724999999998545, 5917130.25 ], [ 42205.724999999998545, 5917130.325000000186265 ], [ 42205.80000000000291, 5917130.325000000186265 ], [ 42205.80000000000291, 5917130.400000000372529 ], [ 42205.875, 5917130.400000000372529 ], [ 42205.875, 5917130.549999999813735 ], [ 42205.94999999999709, 5917130.549999999813735 ], [ 42205.94999999999709, 5917130.700000000186265 ], [ 42206.025000000001455, 5917130.700000000186265 ], [ 42206.025000000001455, 5917132.049999999813735 ], [ 42205.94999999999709, 5917132.049999999813735 ], [ 42205.94999999999709, 5917134.900000000372529 ], [ 42205.875, 5917134.900000000372529 ], [ 42205.875, 5917136.700000000186265 ], [ 42205.80000000000291, 5917136.700000000186265 ], [ 42205.80000000000291, 5917136.849999999627471 ], [ 42205.724999999998545, 5917136.849999999627471 ], [ 42205.724999999998545, 5917137.0 ], [ 42205.650000000001455, 5917137.0 ], [ 42205.650000000001455, 5917137.150000000372529 ], [ 42205.57499999999709, 5917137.150000000372529 ], [ 42205.57499999999709, 5917137.299999999813735 ], [ 42205.5, 5917137.299999999813735 ], [ 42205.5, 5917137.375 ], [ 42205.42500000000291, 5917137.375 ], [ 42205.42500000000291, 5917137.525000000372529 ], [ 42205.349999999998545, 5917137.525000000372529 ], [ 42205.349999999998545, 5917137.599999999627471 ], [ 42205.275000000001455, 5917137.599999999627471 ], [ 42205.275000000001455, 5917137.75 ], [ 42205.19999999999709, 5917137.75 ], [ 42205.19999999999709, 5917137.900000000372529 ], [ 42205.125, 5917137.900000000372529 ], [ 42205.125, 5917137.974999999627471 ], [ 42205.05000000000291, 5917137.974999999627471 ], [ 42205.05000000000291, 5917138.125 ], [ 42204.974999999998545, 5917138.125 ], [ 42204.974999999998545, 5917138.349999999627471 ], [ 42204.900000000001455, 5917138.349999999627471 ], [ 42204.900000000001455, 5917138.5 ], [ 42204.82499999999709, 5917138.5 ], [ 42204.82499999999709, 5917138.724999999627471 ], [ 42204.75, 5917138.724999999627471 ], [ 42204.75, 5917138.950000000186265 ], [ 42204.67500000000291, 5917138.950000000186265 ], [ 42204.67500000000291, 5917139.174999999813735 ], [ 42204.599999999998545, 5917139.174999999813735 ], [ 42204.599999999998545, 5917139.400000000372529 ], [ 42204.525000000001455, 5917139.400000000372529 ], [ 42204.525000000001455, 5917139.625 ], [ 42204.44999999999709, 5917139.625 ], [ 42204.44999999999709, 5917139.849999999627471 ], [ 42204.375, 5917139.849999999627471 ], [ 42204.375, 5917140.075000000186265 ], [ 42204.30000000000291, 5917140.075000000186265 ], [ 42204.30000000000291, 5917140.299999999813735 ], [ 42204.224999999998545, 5917140.299999999813735 ], [ 42204.224999999998545, 5917140.525000000372529 ], [ 42204.150000000001455, 5917140.525000000372529 ], [ 42204.150000000001455, 5917140.674999999813735 ], [ 42204.07499999999709, 5917140.674999999813735 ], [ 42204.07499999999709, 5917140.75 ], [ 42204.0, 5917140.75 ], [ 42204.0, 5917140.825000000186265 ], [ 42203.92500000000291, 5917140.825000000186265 ], [ 42203.92500000000291, 5917140.974999999627471 ], [ 42203.849999999998545, 5917140.974999999627471 ], [ 42203.849999999998545, 5917141.049999999813735 ], [ 42203.775000000001455, 5917141.049999999813735 ], [ 42203.775000000001455, 5917141.125 ], [ 42203.625, 5917141.125 ], [ 42203.625, 5917141.200000000186265 ], [ 42203.55000000000291, 5917141.200000000186265 ], [ 42203.55000000000291, 5917141.275000000372529 ], [ 42203.474999999998545, 5917141.275000000372529 ], [ 42203.474999999998545, 5917141.349999999627471 ], [ 42203.32499999999709, 5917141.349999999627471 ], [ 42203.32499999999709, 5917141.424999999813735 ], [ 42203.17500000000291, 5917141.424999999813735 ], [ 42203.17500000000291, 5917141.5 ], [ 42203.025000000001455, 5917141.5 ], [ 42203.025000000001455, 5917141.575000000186265 ], [ 42202.94999999999709, 5917141.575000000186265 ], [ 42202.94999999999709, 5917141.650000000372529 ], [ 42202.875, 5917141.650000000372529 ], [ 42202.875, 5917141.724999999627471 ], [ 42202.724999999998545, 5917141.724999999627471 ], [ 42202.724999999998545, 5917141.799999999813735 ], [ 42202.650000000001455, 5917141.799999999813735 ], [ 42202.650000000001455, 5917141.875 ], [ 42202.57499999999709, 5917141.875 ], [ 42202.57499999999709, 5917141.950000000186265 ], [ 42202.5, 5917141.950000000186265 ], [ 42202.5, 5917142.025000000372529 ], [ 42202.42500000000291, 5917142.025000000372529 ], [ 42202.42500000000291, 5917142.099999999627471 ], [ 42202.349999999998545, 5917142.099999999627471 ], [ 42202.349999999998545, 5917142.174999999813735 ], [ 42202.275000000001455, 5917142.174999999813735 ], [ 42202.275000000001455, 5917142.25 ], [ 42202.19999999999709, 5917142.25 ], [ 42202.19999999999709, 5917142.325000000186265 ], [ 42202.125, 5917142.325000000186265 ], [ 42202.125, 5917142.474999999627471 ], [ 42202.05000000000291, 5917142.474999999627471 ], [ 42202.05000000000291, 5917142.549999999813735 ], [ 42201.974999999998545, 5917142.549999999813735 ], [ 42201.974999999998545, 5917142.625 ], [ 42201.900000000001455, 5917142.625 ], [ 42201.900000000001455, 5917142.700000000186265 ], [ 42201.82499999999709, 5917142.700000000186265 ], [ 42201.82499999999709, 5917142.775000000372529 ], [ 42201.67500000000291, 5917142.775000000372529 ], [ 42201.67500000000291, 5917142.849999999627471 ], [ 42201.599999999998545, 5917142.849999999627471 ], [ 42201.599999999998545, 5917142.924999999813735 ], [ 42201.375, 5917142.924999999813735 ], [ 42201.375, 5917143.0 ], [ 42201.0, 5917143.0 ], [ 42201.0, 5917143.075000000186265 ], [ 42200.625, 5917143.075000000186265 ], [ 42200.625, 5917143.150000000372529 ], [ 42200.25, 5917143.150000000372529 ], [ 42200.25, 5917143.224999999627471 ], [ 42199.724999999998545, 5917143.224999999627471 ], [ 42199.724999999998545, 5917143.299999999813735 ], [ 42199.125, 5917143.299999999813735 ], [ 42199.125, 5917143.375 ], [ 42198.30000000000291, 5917143.375 ], [ 42198.30000000000291, 5917143.450000000186265 ], [ 42197.55000000000291, 5917143.450000000186265 ], [ 42197.55000000000291, 5917143.525000000372529 ], [ 42196.724999999998545, 5917143.525000000372529 ], [ 42196.724999999998545, 5917143.599999999627471 ], [ 42195.900000000001455, 5917143.599999999627471 ], [ 42195.900000000001455, 5917143.674999999813735 ], [ 42194.400000000001455, 5917143.674999999813735 ], [ 42194.400000000001455, 5917143.75 ], [ 42193.19999999999709, 5917143.75 ] ] ] } },
{ "type": "Feature", "properties": { "value": 1.0, "building_id": 3, "area": 4.9275000002222091 }, "geometry": { "type": "Polygon", "coordinates": [ [ [ 42281.099999999998545, 5917107.375 ], [ 42281.099999999998545, 5917107.299999999813735 ], [ 42280.94999999999709, 5917107.299999999813735 ], [ 42280.94999999999709, 5917107.224999999627471 ], [ 42280.875, 5917107.224999999627471 ], [ 42280.875, 5917107.150000000372529 ], [ 42280.80000000000291, 5917107.150000000372529 ], [ 42280.80000000000291, 5917107.075000000186265 ], [ 42280.724999999998545, 5917107.075000000186265 ], [ 42280.724999999998545, 5917107.0 ], [ 42280.650000000001455, 5917107.0 ], [ 42280.650000000001455, 5917106.924999999813735 ], [ 42280.57499999999709, 5917106.924999999813735 ], [ 42280.57499999999709, 5917106.849999999627471 ], [ 42280.5, 5917106.849999999627471 ], [ 42280.5, 5917106.775000000372529 ], [ 42280.42500000000291, 5917106.775000000372529 ], [ 42280.42500000000291, 5917106.700000000186265 ], [ 42280.349999999998545, 5917106.700000000186265 ], [ 42280.349999999998545, 5917106.625 ], [ 42280.275000000001455, 5917106.625 ], [ 42280.275000000001455, 5917106.549999999813735 ], [ 42280.125, 5917106.549999999813735 ], [ 42280.125, 5917106.474999999627471 ], [ 42280.05000000000291, 5917106.474999999627471 ], [ 42280.05000000000291, 5917106.400000000372529 ], [ 42279.974999999998545, 5917106.400000000372529 ], [ 42279.974999999998545, 5917106.325000000186265 ], [ 42279.900000000001455, 5917106.325000000186265 ], [ 42279.900000000001455, 5917106.25 ], [ 42279.75, 5917106.25 ], [ 42279.75, 5917106.174999999813735 ], [ 42279.67500000000291, 5917106.174999999813735 ], [ 42279.67500000000291, 5917105.875 ], [ 42279.599999999998545, 5917105.875 ], [ 42279.599999999998545, 5917105.5 ], [ 42279.525000000001455, 5917105.5 ], [ 42279.525000000001455, 5917105.349999999627471 ], [ 42279.599999999998545, 5917105.349999999627471 ], [ 42279.599999999998545, 5917105.275000000372529 ], [ 42279.67500000000291, 5917105.275000000372529 ], [ 42279.67500000000291, 5917105.200000000186265 ], [ 42279.900000000001455, 5917105.200000000186265 ], [ 42279.900000000001455, 5917105.125 ], [ 42280.42500000000291, 5917105.125 ], [ 42280.42500000000291, 5917105.049999999813735 ], [ 42281.025000000001455, 5917105.049999999813735 ], [ 42281.025000000001455, 5917104.974999999627471 ], [ 42281.55000000000291, 5917104.974999999627471 ], [ 42281.55000000000291, 5917104.900000000372529 ], [ 42281.625, 5917104.900000000372529 ], [ 42281.625, 5917104.974999999627471 ], [ 42281.775000000001455, 5917104.974999999627471 ], [ 42281.775000000001455, 5917105.049999999813735 ], [ 42281.92500000000291, 5917105.049999999813735 ], [ 42281.92500000000291, 5917105.125 ], [ 42282.07499999999709, 5917105.125 ], [ 42282.07499999999709, 5917105.200000000186265 ], [ 42282.224999999998545, 5917105.200000000186265 ], [ 42282.224999999998545, 5917105.275000000372529 ], [ 42282.375, 5917105.275000000372529 ], [ 42282.375, 5917105.349999999627471 ], [ 42282.525000000001455, 5917105.349999999627471 ], [ 42282.525000000001455, 5917105.5 ], [ 42282.44999999999709, 5917105.5 ], [ 42282.44999999999709, 5917105.650000000372529 ], [ 42282.375, 5917105.650000000372529 ], [ 42282.375, 5917105.875 ], [ 42282.30000000000291, 5917105.875 ], [ 42282.30000000000291, 5917106.099999999627471 ], [ 42282.224999999998545, 5917106.099999999627471 ], [ 42282.224999999998545, 5917106.25 ], [ 42282.150000000001455, 5917106.25 ], [ 42282.150000000001455, 5917106.474999999627471 ], [ 42282.07499999999709, 5917106.474999999627471 ], [ 42282.07499999999709, 5917106.775000000372529 ], [ 42282.0, 5917106.775000000372529 ], [ 42282.0, 5917107.0 ], [ 42281.92500000000291, 5917107.0 ], [ 42281.92500000000291, 5917107.224999999627471 ], [ 42281.849999999998545, 5917107.224999999627471 ], [ 42281.849999999998545, 5917107.375 ], [ 42281.099999999998545, 5917107.375 ] ] ] } }
]
}
