{
"type": "FeatureCollection",
"name": "42183E595257N_buildings",
"crs": { "type": "name", "properties": { "name": "urn:ogc:def:crs:EPSG::3776" } },
"features": [
{ "type": "Feature", "properties": { "value": 1.0, "building_id": 0, "area": 132.80625000048744 }, "geometry": { "type": "Polygon", "coordinates": [ [ [ 42373.80000000000291, 5953068.150000000372529 ], [ 42373.80000000000291, 5953068.075000000186265 ], [ 42373.19999999999709, 5953068.075000000186265 ], [ 42373.19999999999709, 5953068.0 ], [ 42372.974999999998545, 5953068.0 ], [ 42372.974999999998545, 5953067.924999999813735 ], [ 42372.82499999999709, 5953067.924999999813735 ], [ 42372.82499999999709, 5953067.849999999627471 ], [ 42372.67500000000291, 5953067.849999999627471 ], [ 42372.67500000000291, 5953067.775000000372529 ], [ 42372.525000000001455, 5953067.775000000372529 ], [ 42372.525000000001455, 5953067.700000000186265 ], [ 42372.44999999999709, 5953067.700000000186265 ], [ 42372.44999999999709, 5953067.625 ], [ 42372.375, 5953067.625 ], [ 42372.375, 5953067.549999999813735 ], [ 42372.30000000000291, 5953067.549999999813735 ], [ 42372.30000000000291, 5953067.474999999627471 ], [ 42372.224999999998545, 5953067.474999999627471 ], [ 42372.224999999998545, 5953067.400000000372529 ], [ 42372.150000000001455, 5953067.400000000372529 ], [ 42372.150000000001455, 5953067.325000000186265 ], [ 42372.07499999999709, 5953067.325000000186265 ], [ 42372.07499999999709, 5953067.174999999813735 ], [ 42372.0, 5953067.174999999813735 ], [ 42372.0, 5953067.025000000372529 ], [ 42371.92500000000291, 5953067.025000000372529 ], [ 42371.92500000000291, 5953066.799999999813735 ], [ 42371.849999999998545, 5953066.799999999813735 ], [ 42371.849999999998545, 5953066.575000000186265 ], [ 42371.775000000001455, 5953066.575000000186265 ], [ 42371.775000000001455, 5953066.275000000372529 ], [ 42371.69999999999709, 5953066.275000000372529 ], [ 42371.69999999999709, 5953066.049999999813735 ], [ 42371.625, 5953066.049999999813735 ], [ 42371.625, 5953065.825000000186265 ], [ 42371.55000000000291, 5953065.825000000186265 ], [ 42371.55000000000291, 5953065.674999999813735 ], [ 42371.474999999998545, 5953065.674999999813735 ], [ 42371.474999999998545, 5953065.525000000372529 ], [ 42371.400000000001455, 5953065.525000000372529 ], [ 42371.400000000001455, 5953065.450000000186265 ], [ 42371.32499999999709, 5953065.450000000186265 ], [ 42371.32499999999709, 5953065.375 ], [ 42371.25, 5953065.375 ], [ 42371.25, 5953065.299999999813735 ], [ 42371.17500000000291, 5953065.299999999813735 ], [ 42371.17500000000291, 5953065.224999999627471 ], [ 42371.099999999998545, 5953065.224999999627471 ], [ 42371.099999999998545, 5953065.150000000372529 ], [ 42371.025000000001455, 5953065.150000000372529 ], [ 42371.025000000001455, 5953065.075000000186265 ], [ 42370.94999999999709, 5953065.075000000186265 ], [ 42370.94999999999709, 5953065.0 ], [ 42370.875, 5953065.0 ], [ 42370.875, 5953064.924999999813735 ], [ 42370.80000000000291, 5953064.924999999813735 ], [ 42370.80000000000291, 5953064.775000000372529 ], [ 42370.724999999998545, 5953064.775000000372529 ], [ 42370.724999999998545, 5953064.700000000186265 ], [ 42370.650000000001455, 5953064.700000000186265 ], [ 42370.650000000001455, 5953064.549999999813735 ], [ 42370.57499999999709, 5953064.549999999813735 ], [ 42370.57499999999709, 5953064.474999999627471 ], [ 42370.5, 5953064.474999999627471 ], [ 42370.5, 5953064.325000000186265 ], [ 42370.42500000000291, 5953064.325000000186265 ], [ 42370.42500000000291, 5953064.25 ], [ 42370.349999999998545, 5953064.25 ], [ 42370.349999999998545, 5953064.099999999627471 ], [ 42370.275000000001455, 5953064.099999999627471 ], [ 42370.275000000001455, 5953064.025000000372529 ], [ 42370.19999999999709, 5953064.025000000372529 ], [ 42370.19999999999709, 5953063.875 ], [ 42370.125, 5953063.875 ], [ 42370.125, 5953063.650000000372529 ], [ 42370.05000000000291, 5953063.650000000372529 ], [ 42370.05000000000291, 5953063.349999999627471 ], [ 42369.974999999998545, 5953063.349999999627471 ], [ 42369.974999999998545, 5953062.974999999627471 ], [ 42369.900000000001455, 5953062.974999999627471 ], [ 42369.900000000001455, 5953062.450000000186265 ], [ 42369.82499999999709, 5953062.450000000186265 ], [ 42369.82499999999709, 5953062.0 ], [ 42369.75, 5953062.0 ], [ 42369.75, 5953061.625 ], [ 42369.67500000000291, 5953061.625 ], [ 42369.67500000000291, 5953061.325000000186265 ], [ 42369.599999999998545, 5953061.325000000186265 ], [ 42369.599999999998545, 5953061.025000000372529 ], [ 42369.525000000001455, 5953061.025000000372529 ], [ 42369.525000000001455, 5953060.724999999627471 ], [ 42369.44999999999709, 5953060.724999999627471 ], [ 42369.44999999999709, 5953060.5 ], [ 42369.375, 5953060.5 ], [ 42369.375, 5953060.349999999627471 ], [ 42369.30000000000291, 5953060.349999999627471 ], [ 42369.30000000000291, 5953060.125 ], [ 42369.224999999998545, 5953060.125 ], [ 42369.224999999998545, 5953059.900000000372529 ], [ 42369.150000000001455, 5953059.900000000372529 ], [ 42369.150000000001455, 5953059.674999999813735 ], [ 42369.07499999999709, 5953059.674999999813735 ], [ 42369.07499999999709, 5953059.450000000186265 ], [ 42369.0, 5953059.450000000186265 ], [ 42369.0, 5953059.150000000372529 ], [ 42368.92500000000291, 5953059.150000000372529 ], [ 42368.92500000000291, 5953058.849999999627471 ], [ 42368.849999999998545, 5953058.849999999627471 ], [ 42368.849999999998545, 5953058.25 ], [ 42368.92500000000291, 5953058.25 ], [ 42368.92500000000291, 5953058.099999999627471 ], [ 42369.0, 5953058.099999999627471 ], [ 42369.0, 5953057.875 ], [ 42369.07499999999709, 5953057.875 ], [ 42369.07499999999709, 5953057.724999999627471 ], [ 42369.150000000001455, 5953057.724999999627471 ], [ 42369.150000000001455, 5953057.575000000186265 ], [ 42369.224999999998545, 5953057.575000000186265 ], [ 42369.224999999998545, 5953057.424999999813735 ], [ 42369.30000000000291, 5953057.424999999813735 ], [ 42369.30000000000291, 5953057.275000000372529 ], [ 42369.375, 5953057.275000000372529 ], [ 42369.375, 5953057.200000000186265 ], [ 42369.44999999999709, 5953057.200000000186265 ], [ 42369.44999999999709, 5953057.125 ], [ 42369.525000000001455, 5953057.125 ], [ 42369.525000000001455, 5953056.974999999627471 ], [ 42369.599999999998545, 5953056.974999999627471 ], [ 42369.599999999998545, 5953056.825000000186265 ], [ 42369.67500000000291, 5953056.825000000186265 ], [ 42369.67500000000291, 5953056.674999999813735 ], [ 42369.75, 5953056.674999999813735 ], [ 42369.75, 5953056.375 ], [ 42369.82499999999709, 5953056.375 ], [ 42369.82499999999709, 5953055.924999999813735 ], [ 42369.900000000001455, 5953055.924999999813735 ], [ 42369.900000000001455, 5953055.474999999627471 ], [ 42369.974999999998545, 5953055.474999999627471 ], [ 42369.974999999998545, 5953054.950000000186265 ], [ 42370.05000000000291, 5953054.950000000186265 ], [ 42370.05000000000291, 5953054.5 ], [ 42370.125, 5953054.5 ], [ 42370.125, 5953054.275000000372529 ], [ 42370.19999999999709, 5953054.275000000372529 ], [ 42370.19999999999709, 5953054.049999999813735 ], [ 42370.275000000001455, 5953054.049999999813735 ], [ 42370.275000000001455, 5953053.825000000186265 ], [ 42370.349999999998545, 5953053.825000000186265 ], [ 42370.349999999998545, 5953053.674999999813735 ], [ 42370.42500000000291, 5953053.674999999813735 ], [ 42370.42500000000291, 5953053.525000000372529 ], [ 42370.5, 5953053.525000000372529 ], [ 42370.5, 5953053.450000000186265 ], [ 42370.57499999999709, 5953053.450000000186265 ], [ 42370.57499999999709, 5953053.299999999813735 ], [ 42370.650000000001455, 5953053.299999999813735 ], [ 42370.650000000001455, 5953053.224999999627471 ], [ 42370.724999999998545, 5953053.224999999627471 ], [ 42370.724999999998545, 5953053.150000000372529 ], [ 42370.80000000000291, 5953053.150000000372529 ], [ 42370.80000000000291, 5953053.0 ], [ 42370.94999999999709, 5953053.0 ], [ 42370.94999999999709, 5953052.924999999813735 ], [ 42371.025000000001455, 5953052.924999999813735 ], [ 42371.025000000001455, 5953052.849999999627471 ], [ 42371.099999999998545, 5953052.849999999627471 ], [ 42371.099999999998545, 5953052.775000000372529 ], [ 42371.17500000000291, 5953052.775000000372529 ], [ 42371.17500000000291, 5953052.700000000186265 ], [ 42371.32499999999709, 5953052.700000000186265 ], [ 42371.32499999999709, 5953052.625 ], [ 42371.400000000001455, 5953052.625 ], [ 42371.400000000001455, 5953052.549999999813735 ], [ 42371.474999999998545, 5953052.549999999813735 ], [ 42371.474999999998545, 5953052.474999999627471 ], [ 42371.55000000000291, 5953052.474999999627471 ], [ 42371.55000000000291, 5953052.325000000186265 ], [ 42371.625, 5953052.325000000186265 ], [ 42371.625, 5953052.25 ], [ 42371.69999999999709, 5953052.25 ], [ 42371.69999999999709, 5953052.174999999813735 ], [ 42371.775000000001455, 5953052.174999999813735 ], [ 42371.775000000001455, 5953052.025000000372529 ], [ 42371.849999999998545, 5953052.025000000372529 ], [ 42371.849999999998545, 5953051.950000000186265 ], [ 42371.92500000000291, 5953051.950000000186265 ], [ 42371.92500000000291, 5953051.875 ], [ 42372.0, 5953051.875 ], [ 42372.0, 5953051.799999999813735 ], [ 42372.150000000001455, 5953051.799999999813735 ], [ 42372.150000000001455, 5953051.724999999627471 ], [ 42372.224999999998545, 5953051.724999999627471 ], [ 42372.224999999998545, 5953051.650000000372529 ], [ 42372.375, 5953051.650000000372529 ], [ 42372.375, 5953051.575000000186265 ], [ 42372.44999999999709, 5953051.575000000186265 ], [ 42372.44999999999709, 5953051.5 ], [ 42372.599999999998545, 5953051.5 ], [ 42372.599999999998545, 5953051.424999999813735 ], [ 42372.75, 5953051.424999999813735 ], [ 42372.75, 5953051.349999999627471 ], [ 42372.974999999998545, 5953051.349999999627471 ], [ 42372.974999999998545, 5953051.275000000372529 ], [ 42373.125, 5953051.275000000372529 ], [ 42373.125, 5953051.200000000186265 ], [ 42373.349999999998545, 5953051.200000000186265 ], [ 42373.349999999998545, 5953051.125 ], [ 42373.650000000001455, 5953051.125 ], [ 42373.650000000001455, 5953051.200000000186265 ], [ 42374.625, 5953051.200000000186265 ], [ 42374.625, 5953051.275000000372529 ], [ 42375.44999999999709, 5953051.275000000372529 ], [ 42375.44999999999709, 5953051.349999999627471 ], [ 42375.525000000001455, 5953051.349999999627471 ], [ 42375.525000000001455, 5953051.424999999813735 ], [ 42375.67500000000291, 5953051.424999999813735 ], [ 42375.67500000000291, 5953051.5 ], [ 42375.82499999999709, 5953051.5 ], [ 42375.82499999999709, 5953051.575000000186265 ], [ 42375.900000000001455, 5953051.575000000186265 ], [ 42375.900000000001455, 5953051.650000000372529 ], [ 42375.974999999998545, 5953051.650000000372529 ], [ 42375.974999999998545, 5953051.724999999627471 ], [ 42376.05000000000291, 5953051.724999999627471 ], [ 42376.05000000000291, 5953051.799999999813735 ], [ 42376.125, 5953051.799999999813735 ], [ 42376.125, 5953051.875 ], [ 42376.19999999999709, 5953051.875 ], [ 42376.19999999999709, 5953051.950000000186265 ], [ 42376.275000000001455, 5953051.950000000186265 ], [ 42376.275000000001455, 5953052.025000000372529 ], [ 42376.349999999998545, 5953052.025000000372529 ], [ 42376.349999999998545, 5953052.099999999627471 ], [ 42376.42500000000291, 5953052.099999999627471 ], [ 42376.42500000000291, 5953052.174999999813735 ], [ 42376.5, 5953052.174999999813735 ], [ 42376.5, 5953052.325000000186265 ], [ 42376.57499999999709, 5953052.325000000186265 ], [ 42376.57499999999709, 5953052.474999999627471 ], [ 42376.650000000001455, 5953052.474999999627471 ], [ 42376.650000000001455, 5953052.549999999813735 ], [ 42376.724999999998545, 5953052.549999999813735 ], [ 42376.724999999998545, 5953052.700000000186265 ], [ 42376.80000000000291, 5953052.700000000186265 ], [ 42376.80000000000291, 5953052.849999999627471 ], [ 42376.875, 5953052.849999999627471 ], [ 42376.875, 5953053.0 ], [ 42376.94999999999709, 5953053.0 ], [ 42376.94999999999709, 5953053.150000000372529 ], [ 42377.025000000001455, 5953053.150000000372529 ], [ 42377.025000000001455, 5953053.224999999627471 ], [ 42377.099999999998545, 5953053.224999999627471 ], [ 42377.099999999998545, 5953053.375 ], [ 42377.17500000000291, 5953053.375 ], [ 42377.17500000000291, 5953053.450000000186265 ], [ 42377.25, 5953053.450000000186265 ], [ 42377.25, 5953053.525000000372529 ], [ 42377.32499999999709, 5953053.525000000372529 ], [ 42377.32499999999709, 5953053.599999999627471 ], [ 42377.400000000001455, 5953053.599999999627471 ], [ 42377.400000000001455, 5953053.674999999813735 ], [ 42377.474999999998545, 5953053.674999999813735 ], [ 42377.474999999998545, 5953053.75 ], [ 42377.55000000000291, 5953053.75 ], [ 42377.55000000000291, 5953053.825000000186265 ], [ 42377.625, 5953053.825000000186265 ], [ 42377.625, 5953053.900000000372529 ], [ 42377.69999999999709, 5953053.900000000372529 ], [ 42377.69999999999709, 5953053.974999999627471 ], [ 42377.775000000001455, 5953053.974999999627471 ], [ 42377.775000000001455, 5953054.049999999813735 ], [ 42377.849999999998545, 5953054.049999999813735 ], [ 42377.849999999998545, 5953054.125 ], [ 42377.92500000000291, 5953054.125 ], [ 42377.92500000000291, 5953054.275000000372529 ], [ 42378.0, 5953054.275000000372529 ], [ 42378.0, 5953054.349999999627471 ], [ 42378.07499999999709, 5953054.349999999627471 ], [ 42378.07499999999709, 5953054.5 ], [ 42378.150000000001455, 5953054.5 ], [ 42378.150000000001455, 5953054.575000000186265 ], [ 42378.224999999998545, 5953054.575000000186265 ], [ 42378.224999999998545, 5953054.799999999813735 ], [ 42378.30000000000291, 5953054.799999999813735 ], [ 42378.30000000000291, 5953054.950000000186265 ], [ 42378.375, 5953054.950000000186265 ], [ 42378.375, 5953055.174999999813735 ], [ 42378.44999999999709, 5953055.174999999813735 ], [ 42378.44999999999709, 5953055.400000000372529 ], [ 42378.525000000001455, 5953055.400000000372529 ], [ 42378.525000000001455, 5953055.625 ], [ 42378.599999999998545, 5953055.625 ], [ 42378.599999999998545, 5953055.849999999627471 ], [ 42378.67500000000291, 5953055.849999999627471 ], [ 42378.67500000000291, 5953056.150000000372529 ], [ 42378.75, 5953056.150000000372529 ], [ 42378.75, 5953056.450000000186265 ], [ 42378.82499999999709, 5953056.450000000186265 ], [ 42378.82499999999709, 5953056.75 ], [ 42378.900000000001455, 5953056.75 ], [ 42378.900000000001455, 5953057.125 ], [ 42378.974999999998545, 5953057.125 ], [ 42378.974999999998545, 5953057.5 ], [ 42379.05000000000291, 5953057.5 ], [ 42379.05000000000291, 5953057.799999999813735 ], [ 42379.125, 5953057.799999999813735 ], [ 42379.125, 5953058.099999999627471 ], [ 42379.19999999999709, 5953058.099999999627471 ], [ 42379.19999999999709, 5953058.325000000186265 ], [ 42379.275000000001455, 5953058.325000000186265 ], [ 42379.275000000001455, 5953059.150000000372529 ], [ 42379.349999999998545, 5953059.150000000372529 ], [ 42379.349999999998545, 5953060.349999999627471 ], [ 42379.42500000000291, 5953060.349999999627471 ], [ 42379.42500000000291, 5953060.424999999813735 ], [ 42379.349999999998545, 5953060.424999999813735 ], [ 42379.349999999998545, 5953060.650000000372529 ], [ 42379.275000000001455, 5953060.650000000372529 ], [ 42379.275000000001455, 5953060.950000000186265 ], [ 42379.19999999999709, 5953060.950000000186265 ], [ 42379.19999999999709, 5953061.400000000372529 ], [ 42379.125, 5953061.400000000372529 ], [ 42379.125, 5953061.849999999627471 ], [ 42379.05000000000291, 5953061.849999999627471 ], [ 42379.05000000000291, 5953062.375 ], [ 42378.974999999998545, 5953062.375 ], [ 42378.974999999998545, 5953063.049999999813735 ], [ 42378.900000000001455, 5953063.049999999813735 ], [ 42378.900000000001455, 5953063.650000000372529 ], [ 42378.82499999999709, 5953063.650000000372529 ], [ 42378.82499999999709, 5953064.174999999813735 ], [ 42378.75, 5953064.174999999813735 ], [ 42378.75, 5953064.474999999627471 ], [ 42378.67500000000291, 5953064.474999999627471 ], [ 42378.67500000000291, 5953064.700000000186265 ], [ 42378.599999999998545, 5953064.700000000186265 ], [ 42378.599999999998545, 5953064.849999999627471 ], [ 42378.525000000001455, 5953064.849999999627471 ], [ 42378.525000000001455, 5953065.0 ], [ 42378.44999999999709, 5953065.0 ], [ 42378.44999999999709, 5953065.150000000372529 ], [ 42378.375, 5953065.150000000372529 ], [ 42378.375, 5953065.224999999627471 ], [ 42378.30000000000291, 5953065.224999999627471 ], [ 42378.30000000000291, 5953065.375 ], [ 42378.224999999998545, 5953065.375 ], [ 42378.224999999998545, 5953065.450000000186265 ], [ 42378.150000000001455, 5953065.450000000186265 ], [ 42378.150000000001455, 5953065.525000000372529 ], [ 42378.07499999999709, 5953065.525000000372529 ], [ 42378.07499999999709, 5953065.599999999627471 ], [ 42378.0, 5953065.599999999627471 ], [ 42378.0, 5953065.674999999813735 ], [ 42377.92500000000291, 5953065.674999999813735 ], [ 42377.92500000000291, 5953065.75 ], [ 42377.775000000001455, 5953065.75 ], [ 42377.775000000001455, 5953065.825000000186265 ], [ 42377.69999999999709, 5953065.825000000186265 ], [ 42377.69999999999709, 5953065.900000000372529 ], [ 42377.55000000000291, 5953065.900000000372529 ], [ 42377.55000000000291, 5953065.974999999627471 ], [ 42377.400000000001455, 5953065.974999999627471 ], [ 42377.400000000001455, 5953066.049999999813735 ], [ 42377.32499999999709, 5953066.049999999813735 ], [ 42377.32499999999709, 5953066.125 ], [ 42377.25, 5953066.125 ], [ 42377.25, 5953066.200000000186265 ], [ 42377.17500000000291, 5953066.200000000186265 ], [ 42377.17500000000291, 5953066.349999999627471 ], [ 42377.099999999998545, 5953066.349999999627471 ], [ 42377.099999999998545, 5953066.650000000372529 ], [ 42377.025000000001455, 5953066.650000000372529 ], [ 42377.025000000001455, 5953066.875 ], [ 42376.94999999999709, 5953066.875 ], [ 42376.94999999999709, 5953067.025000000372529 ], [ 42376.875, 5953067.025000000372529 ], [ 42376.875, 5953067.174999999813735 ], [ 42376.80000000000291, 5953067.174999999813735 ], [ 42376.80000000000291, 5953067.325000000186265 ], [ 42376.724999999998545, 5953067.325000000186265 ], [ 42376.724999999998545, 5953067.400000000372529 ], [ 42376.650000000001455, 5953067.400000000372529 ], [ 42376.650000000001455, 5953067.549999999813735 ], [ 42376.57499999999709, 5953067.549999999813735 ], [ 42376.57499999999709, 5953067.625 ], [ 42376.5, 5953067.625 ], [ 42376.5, 5953067.700000000186265 ], [ 42376.349999999998545, 5953067.700000000186265 ], [ 42376.349999999998545, 5953067.775000000372529 ], [ 42376.275000000001455, 5953067.775000000372529 ], [ 42376.275000000001455, 5953067.849999999627471 ], [ 42376.125, 5953067.849999999627471 ], [ 42376.125, 5953067.924999999813735 ], [ 42375.974999999998545, 5953067.924999999813735 ], [ 42375.974999999998545, 5953068.0 ], [ 42375.82499999999709, 5953068.0 ], [ 42375.82499999999709, 5953068.075000000186265 ], [ 42375.525000000001455, 5953068.075000000186265 ], [ 42375.525000000001455, 5953068.150000000372529 ], [ 42373.80000000000291, 5953068.150000000372529 ] ] ] } }
]
}
