{
"type": "FeatureCollection",
"name": "42183E595032N_buildings",
"crs": { "type": "name", "properties": { "name": "urn:ogc:def:crs:EPSG::3776" } },
"features": [
{ "type": "Feature", "properties": { "value": 1.0, "building_id": 0, "area": 81.449999999926916 }, "geometry": { "type": "Polygon", "coordinates": [ [ [ 42873.224999999998545, 5950809.0 ], [ 42873.224999999998545, 5950808.924999999813735 ], [ 42872.55000000000291, 5950808.924999999813735 ], [ 42872.55000000000291, 5950808.849999999627471 ], [ 42871.875, 5950808.849999999627471 ], [ 42871.875, 5950808.775000000372529 ], [ 42871.275000000001455, 5950808.775000000372529 ], [ 42871.275000000001455, 5950808.700000000186265 ], [ 42870.75, 5950808.700000000186265 ], [ 42870.75, 5950808.625 ], [ 42870.224999999998545, 5950808.625 ], [ 42870.224999999998545, 5950808.549999999813735 ], [ 42869.69999999999709, 5950808.549999999813735 ], [ 42869.69999999999709, 5950808.474999999627471 ], [ 42869.32499999999709, 5950808.474999999627471 ], [ 42869.32499999999709, 5950808.400000000372529 ], [ 42868.94999999999709, 5950808.400000000372529 ], [ 42868.94999999999709, 5950808.325000000186265 ], [ 42868.650000000001455, 5950808.325000000186265 ], [ 42868.650000000001455, 5950808.25 ], [ 42868.349999999998545, 5950808.25 ], [ 42868.349999999998545, 5950808.174999999813735 ], [ 42868.125, 5950808.174999999813735 ], [ 42868.125, 5950808.099999999627471 ], [ 42867.900000000001455, 5950808.099999999627471 ], [ 42867.900000000001455, 5950808.025000000372529 ], [ 42867.75, 5950808.025000000372529 ], [ 42867.75, 5950807.950000000186265 ], [ 42867.599999999998545, 5950807.950000000186265 ], [ 42867.599999999998545, 5950807.875 ], [ 42867.525000000001455, 5950807.875 ], [ 42867.525000000001455, 5950807.724999999627471 ], [ 42867.44999999999709, 5950807.724999999627471 ], [ 42867.44999999999709, 5950807.575000000186265 ], [ 42867.375, 5950807.575000000186265 ], [ 42867.375, 5950807.424999999813735 ], [ 42867.30000000000291, 5950807.424999999813735 ], [ 42867.30000000000291, 5950807.200000000186265 ], [ 42867.224999999998545, 5950807.200000000186265 ], [ 42867.224999999998545, 5950807.049999999813735 ], [ 42867.150000000001455, 5950807.049999999813735 ], [ 42867.150000000001455, 5950806.75 ], [ 42867.07499999999709, 5950806.75 ], [ 42867.07499999999709, 5950806.525000000372529 ], [ 42867.0, 5950806.525000000372529 ], [ 42867.0, 5950806.150000000372529 ], [ 42866.92500000000291, 5950806.150000000372529 ], [ 42866.92500000000291, 5950805.775000000372529 ], [ 42866.849999999998545, 5950805.775000000372529 ], [ 42866.849999999998545, 5950805.325000000186265 ], [ 42866.775000000001455, 5950805.325000000186265 ], [ 42866.775000000001455, 5950804.875 ], [ 42866.69999999999709, 5950804.875 ], [ 42866.69999999999709, 5950804.200000000186265 ], [ 42866.625, 5950804.200000000186265 ], [ 42866.625, 5950803.525000000372529 ], [ 42866.55000000000291, 5950803.525000000372529 ], [ 42866.55000000000291, 5950802.775000000372529 ], [ 42866.474999999998545, 5950802.775000000372529 ], [ 42866.474999999998545, 5950802.625 ], [ 42866.55000000000291, 5950802.625 ], [ 42866.55000000000291, 5950802.474999999627471 ], [ 42866.625, 5950802.474999999627471 ], [ 42866.625, 5950802.400000000372529 ], [ 42866.69999999999709, 5950802.400000000372529 ], [ 42866.69999999999709, 5950802.25 ], [ 42866.775000000001455, 5950802.25 ], [ 42866.775000000001455, 5950802.174999999813735 ], [ 42866.849999999998545, 5950802.174999999813735 ], [ 42866.849999999998545, 5950802.099999999627471 ], [ 42866.92500000000291, 5950802.099999999627471 ], [ 42866.92500000000291, 5950801.950000000186265 ], [ 42867.0, 5950801.950000000186265 ], [ 42867.0, 5950801.875 ], [ 42867.07499999999709, 5950801.875 ], [ 42867.07499999999709, 5950801.799999999813735 ], [ 42867.150000000001455, 5950801.799999999813735 ], [ 42867.150000000001455, 5950801.724999999627471 ], [ 42867.224999999998545, 5950801.724999999627471 ], [ 42867.224999999998545, 5950801.650000000372529 ], [ 42867.30000000000291, 5950801.650000000372529 ], [ 42867.30000000000291, 5950801.575000000186265 ], [ 42867.375, 5950801.575000000186265 ], [ 42867.375, 5950801.5 ], [ 42867.44999999999709, 5950801.5 ], [ 42867.44999999999709, 5950801.424999999813735 ], [ 42867.525000000001455, 5950801.424999999813735 ], [ 42867.525000000001455, 5950801.349999999627471 ], [ 42867.67500000000291, 5950801.349999999627471 ], [ 42867.67500000000291, 5950801.275000000372529 ], [ 42867.82499999999709, 5950801.275000000372529 ], [ 42867.82499999999709, 5950801.200000000186265 ], [ 42867.900000000001455, 5950801.200000000186265 ], [ 42867.900000000001455, 5950801.125 ], [ 42868.05000000000291, 5950801.125 ], [ 42868.05000000000291, 5950801.049999999813735 ], [ 42868.125, 5950801.049999999813735 ], [ 42868.125, 5950800.974999999627471 ], [ 42868.275000000001455, 5950800.974999999627471 ], [ 42868.275000000001455, 5950800.900000000372529 ], [ 42868.349999999998545, 5950800.900000000372529 ], [ 42868.349999999998545, 5950800.825000000186265 ], [ 42868.42500000000291, 5950800.825000000186265 ], [ 42868.42500000000291, 5950800.75 ], [ 42868.5, 5950800.75 ], [ 42868.5, 5950800.674999999813735 ], [ 42868.650000000001455, 5950800.674999999813735 ], [ 42868.650000000001455, 5950800.599999999627471 ], [ 42868.80000000000291, 5950800.599999999627471 ], [ 42868.80000000000291, 5950800.525000000372529 ], [ 42868.94999999999709, 5950800.525000000372529 ], [ 42868.94999999999709, 5950800.450000000186265 ], [ 42869.099999999998545, 5950800.450000000186265 ], [ 42869.099999999998545, 5950800.375 ], [ 42869.25, 5950800.375 ], [ 42869.25, 5950800.299999999813735 ], [ 42869.400000000001455, 5950800.299999999813735 ], [ 42869.400000000001455, 5950800.224999999627471 ], [ 42869.625, 5950800.224999999627471 ], [ 42869.625, 5950800.150000000372529 ], [ 42869.92500000000291, 5950800.150000000372529 ], [ 42869.92500000000291, 5950800.075000000186265 ], [ 42870.30000000000291, 5950800.075000000186265 ], [ 42870.30000000000291, 5950800.0 ], [ 42870.599999999998545, 5950800.0 ], [ 42870.599999999998545, 5950799.924999999813735 ], [ 42870.974999999998545, 5950799.924999999813735 ], [ 42870.974999999998545, 5950799.849999999627471 ], [ 42871.42500000000291, 5950799.849999999627471 ], [ 42871.42500000000291, 5950799.775000000372529 ], [ 42872.025000000001455, 5950799.775000000372529 ], [ 42872.025000000001455, 5950799.700000000186265 ], [ 42872.775000000001455, 5950799.700000000186265 ], [ 42872.775000000001455, 5950799.625 ], [ 42875.474999999998545, 5950799.625 ], [ 42875.474999999998545, 5950799.700000000186265 ], [ 42875.69999999999709, 5950799.700000000186265 ], [ 42875.69999999999709, 5950799.775000000372529 ], [ 42875.849999999998545, 5950799.775000000372529 ], [ 42875.849999999998545, 5950799.849999999627471 ], [ 42876.0, 5950799.849999999627471 ], [ 42876.0, 5950799.924999999813735 ], [ 42876.150000000001455, 5950799.924999999813735 ], [ 42876.150000000001455, 5950800.0 ], [ 42876.224999999998545, 5950800.0 ], [ 42876.224999999998545, 5950800.075000000186265 ], [ 42876.30000000000291, 5950800.075000000186265 ], [ 42876.30000000000291, 5950800.150000000372529 ], [ 42876.44999999999709, 5950800.150000000372529 ], [ 42876.44999999999709, 5950800.224999999627471 ], [ 42876.525000000001455, 5950800.224999999627471 ], [ 42876.525000000001455, 5950800.299999999813735 ], [ 42876.599999999998545, 5950800.299999999813735 ], [ 42876.599999999998545, 5950800.375 ], [ 42876.67500000000291, 5950800.375 ], [ 42876.67500000000291, 5950800.525000000372529 ], [ 42876.75, 5950800.525000000372529 ], [ 42876.75, 5950800.599999999627471 ], [ 42876.82499999999709, 5950800.599999999627471 ], [ 42876.82499999999709, 5950800.825000000186265 ], [ 42876.900000000001455, 5950800.825000000186265 ], [ 42876.900000000001455, 5950801.049999999813735 ], [ 42876.974999999998545, 5950801.049999999813735 ], [ 42876.974999999998545, 5950801.349999999627471 ], [ 42877.05000000000291, 5950801.349999999627471 ], [ 42877.05000000000291, 5950801.575000000186265 ], [ 42877.125, 5950801.575000000186265 ], [ 42877.125, 5950801.875 ], [ 42877.19999999999709, 5950801.875 ], [ 42877.19999999999709, 5950802.099999999627471 ], [ 42877.275000000001455, 5950802.099999999627471 ], [ 42877.275000000001455, 5950802.325000000186265 ], [ 42877.349999999998545, 5950802.325000000186265 ], [ 42877.349999999998545, 5950802.474999999627471 ], [ 42877.42500000000291, 5950802.474999999627471 ], [ 42877.42500000000291, 5950802.549999999813735 ], [ 42877.5, 5950802.549999999813735 ], [ 42877.5, 5950802.700000000186265 ], [ 42877.42500000000291, 5950802.700000000186265 ], [ 42877.42500000000291, 5950802.775000000372529 ], [ 42877.349999999998545, 5950802.775000000372529 ], [ 42877.349999999998545, 5950802.924999999813735 ], [ 42877.275000000001455, 5950802.924999999813735 ], [ 42877.275000000001455, 5950803.224999999627471 ], [ 42877.19999999999709, 5950803.224999999627471 ], [ 42877.19999999999709, 5950803.525000000372529 ], [ 42877.125, 5950803.525000000372529 ], [ 42877.125, 5950803.825000000186265 ], [ 42877.05000000000291, 5950803.825000000186265 ], [ 42877.05000000000291, 5950804.125 ], [ 42876.974999999998545, 5950804.125 ], [ 42876.974999999998545, 5950804.5 ], [ 42876.900000000001455, 5950804.5 ], [ 42876.900000000001455, 5950804.799999999813735 ], [ 42876.82499999999709, 5950804.799999999813735 ], [ 42876.82499999999709, 5950805.174999999813735 ], [ 42876.75, 5950805.174999999813735 ], [ 42876.75, 5950805.400000000372529 ], [ 42876.67500000000291, 5950805.400000000372529 ], [ 42876.67500000000291, 5950805.625 ], [ 42876.599999999998545, 5950805.625 ], [ 42876.599999999998545, 5950805.849999999627471 ], [ 42876.525000000001455, 5950805.849999999627471 ], [ 42876.525000000001455, 5950806.075000000186265 ], [ 42876.44999999999709, 5950806.075000000186265 ], [ 42876.44999999999709, 5950806.224999999627471 ], [ 42876.375, 5950806.224999999627471 ], [ 42876.375, 5950806.375 ], [ 42876.30000000000291, 5950806.375 ], [ 42876.30000000000291, 5950806.525000000372529 ], [ 42876.224999999998545, 5950806.525000000372529 ], [ 42876.224999999998545, 5950806.674999999813735 ], [ 42876.150000000001455, 5950806.674999999813735 ], [ 42876.150000000001455, 5950806.75 ], [ 42876.07499999999709, 5950806.75 ], [ 42876.07499999999709, 5950806.900000000372529 ], [ 42876.0, 5950806.900000000372529 ], [ 42876.0, 5950806.974999999627471 ], [ 42875.92500000000291, 5950806.974999999627471 ], [ 42875.92500000000291, 5950807.049999999813735 ], [ 42875.849999999998545, 5950807.049999999813735 ], [ 42875.849999999998545, 5950807.125 ], [ 42875.775000000001455, 5950807.125 ], [ 42875.775000000001455, 5950807.200000000186265 ], [ 42875.69999999999709, 5950807.200000000186265 ], [ 42875.69999999999709, 5950807.275000000372529 ], [ 42875.625, 5950807.275000000372529 ], [ 42875.625, 5950807.349999999627471 ], [ 42875.55000000000291, 5950807.349999999627471 ], [ 42875.55000000000291, 5950807.424999999813735 ], [ 42875.400000000001455, 5950807.424999999813735 ], [ 42875.400000000001455, 5950807.5 ], [ 42875.32499999999709, 5950807.5 ], [ 42875.32499999999709, 5950807.575000000186265 ], [ 42875.25, 5950807.575000000186265 ], [ 42875.25, 5950807.650000000372529 ], [ 42875.099999999998545, 5950807.650000000372529 ], [ 42875.099999999998545, 5950807.724999999627471 ], [ 42875.025000000001455, 5950807.724999999627471 ], [ 42875.025000000001455, 5950807.799999999813735 ], [ 42874.94999999999709, 5950807.799999999813735 ], [ 42874.94999999999709, 5950807.875 ], [ 42874.80000000000291, 5950807.875 ], [ 42874.80000000000291, 5950807.950000000186265 ], [ 42874.724999999998545, 5950807.950000000186265 ], [ 42874.724999999998545, 5950808.025000000372529 ], [ 42874.650000000001455, 5950808.025000000372529 ], [ 42874.650000000001455, 5950808.099999999627471 ], [ 42874.57499999999709, 5950808.099999999627471 ], [ 42874.57499999999709, 5950808.174999999813735 ], [ 42874.42500000000291, 5950808.174999999813735 ], [ 42874.42500000000291, 5950808.25 ], [ 42874.349999999998545, 5950808.25 ], [ 42874.349999999998545, 5950808.325000000186265 ], [ 42874.275000000001455, 5950808.325000000186265 ], [ 42874.275000000001455, 5950808.400000000372529 ], [ 42874.125, 5950808.400000000372529 ], [ 42874.125, 5950808.474999999627471 ], [ 42874.05000000000291, 5950808.474999999627471 ], [ 42874.05000000000291, 5950808.549999999813735 ], [ 42873.974999999998545, 5950808.549999999813735 ], [ 42873.974999999998545, 5950808.625 ], [ 42873.900000000001455, 5950808.625 ], [ 42873.900000000001455, 5950808.700000000186265 ], [ 42873.82499999999709, 5950808.700000000186265 ], [ 42873.82499999999709, 5950808.775000000372529 ], [ 42873.67500000000291, 5950808.775000000372529 ], [ 42873.67500000000291, 5950808.849999999627471 ], [ 42873.599999999998545, 5950808.849999999627471 ], [ 42873.599999999998545, 5950808.924999999813735 ], [ 42873.44999999999709, 5950808.924999999813735 ], [ 42873.44999999999709, 5950809.0 ], [ 42873.224999999998545, 5950809.0 ] ] ] } },
{ "type": "Feature", "properties": { "value": 1.0, "building_id": 1, "area": 922.16812499982791 }, "geometry": { "type": "Polygon", "coordinates": [ [ [ 42780.30000000000291, 5950783.875 ], [ 42780.30000000000291, 5950783.799999999813735 ], [ 42779.55000000000291, 5950783.799999999813735 ], [ 42779.55000000000291, 5950783.724999999627471 ], [ 42779.32499999999709, 5950783.724999999627471 ], [ 42779.32499999999709, 5950783.650000000372529 ], [ 42779.099999999998545, 5950783.650000000372529 ], [ 42779.099999999998545, 5950783.575000000186265 ], [ 42778.94999999999709, 5950783.575000000186265 ], [ 42778.94999999999709, 5950783.5 ], [ 42778.80000000000291, 5950783.5 ], [ 42778.80000000000291, 5950783.424999999813735 ], [ 42778.650000000001455, 5950783.424999999813735 ], [ 42778.650000000001455, 5950783.349999999627471 ], [ 42778.5, 5950783.349999999627471 ], [ 42778.5, 5950783.275000000372529 ], [ 42778.349999999998545, 5950783.275000000372529 ], [ 42778.349999999998545, 5950783.200000000186265 ], [ 42778.19999999999709, 5950783.200000000186265 ], [ 42778.19999999999709, 5950783.125 ], [ 42778.125, 5950783.125 ], [ 42778.125, 5950783.049999999813735 ], [ 42777.974999999998545, 5950783.049999999813735 ], [ 42777.974999999998545, 5950782.974999999627471 ], [ 42777.900000000001455, 5950782.974999999627471 ], [ 42777.900000000001455, 5950782.900000000372529 ], [ 42777.75, 5950782.900000000372529 ], [ 42777.75, 5950782.825000000186265 ], [ 42777.599999999998545, 5950782.825000000186265 ], [ 42777.599999999998545, 5950782.75 ], [ 42777.375, 5950782.75 ], [ 42777.375, 5950782.674999999813735 ], [ 42777.150000000001455, 5950782.674999999813735 ], [ 42777.150000000001455, 5950782.599999999627471 ], [ 42776.92500000000291, 5950782.599999999627471 ], [ 42776.92500000000291, 5950782.525000000372529 ], [ 42776.69999999999709, 5950782.525000000372529 ], [ 42776.69999999999709, 5950782.450000000186265 ], [ 42776.474999999998545, 5950782.450000000186265 ], [ 42776.474999999998545, 5950782.375 ], [ 42776.25, 5950782.375 ], [ 42776.25, 5950782.299999999813735 ], [ 42775.94999999999709, 5950782.299999999813735 ], [ 42775.94999999999709, 5950782.224999999627471 ], [ 42775.724999999998545, 5950782.224999999627471 ], [ 42775.724999999998545, 5950782.150000000372529 ], [ 42775.42500000000291, 5950782.150000000372529 ], [ 42775.42500000000291, 5950782.075000000186265 ], [ 42775.19999999999709, 5950782.075000000186265 ], [ 42775.19999999999709, 5950782.0 ], [ 42774.974999999998545, 5950782.0 ], [ 42774.974999999998545, 5950781.924999999813735 ], [ 42774.75, 5950781.924999999813735 ], [ 42774.75, 5950781.849999999627471 ], [ 42774.599999999998545, 5950781.849999999627471 ], [ 42774.599999999998545, 5950781.775000000372529 ], [ 42774.375, 5950781.775000000372529 ], [ 42774.375, 5950781.700000000186265 ], [ 42774.224999999998545, 5950781.700000000186265 ], [ 42774.224999999998545, 5950781.625 ], [ 42774.07499999999709, 5950781.625 ], [ 42774.07499999999709, 5950781.549999999813735 ], [ 42773.92500000000291, 5950781.549999999813735 ], [ 42773.92500000000291, 5950781.474999999627471 ], [ 42773.775000000001455, 5950781.474999999627471 ], [ 42773.775000000001455, 5950781.400000000372529 ], [ 42773.69999999999709, 5950781.400000000372529 ], [ 42773.69999999999709, 5950781.325000000186265 ], [ 42773.625, 5950781.325000000186265 ], [ 42773.625, 5950781.25 ], [ 42773.55000000000291, 5950781.25 ], [ 42773.55000000000291, 5950781.174999999813735 ], [ 42773.474999999998545, 5950781.174999999813735 ], [ 42773.474999999998545, 5950781.099999999627471 ], [ 42773.400000000001455, 5950781.099999999627471 ], [ 42773.400000000001455, 5950781.025000000372529 ], [ 42773.32499999999709, 5950781.025000000372529 ], [ 42773.32499999999709, 5950780.875 ], [ 42773.25, 5950780.875 ], [ 42773.25, 5950780.799999999813735 ], [ 42773.17500000000291, 5950780.799999999813735 ], [ 42773.17500000000291, 5950780.724999999627471 ], [ 42773.099999999998545, 5950780.724999999627471 ], [ 42773.099999999998545, 5950780.650000000372529 ], [ 42773.025000000001455, 5950780.650000000372529 ], [ 42773.025000000001455, 5950780.575000000186265 ], [ 42772.94999999999709, 5950780.575000000186265 ], [ 42772.94999999999709, 5950780.5 ], [ 42772.875, 5950780.5 ], [ 42772.875, 5950780.424999999813735 ], [ 42772.80000000000291, 5950780.424999999813735 ], [ 42772.80000000000291, 5950780.349999999627471 ], [ 42772.724999999998545, 5950780.349999999627471 ], [ 42772.724999999998545, 5950780.275000000372529 ], [ 42772.650000000001455, 5950780.275000000372529 ], [ 42772.650000000001455, 5950780.200000000186265 ], [ 42772.57499999999709, 5950780.200000000186265 ], [ 42772.57499999999709, 5950780.125 ], [ 42772.5, 5950780.125 ], [ 42772.5, 5950780.049999999813735 ], [ 42772.349999999998545, 5950780.049999999813735 ], [ 42772.349999999998545, 5950779.974999999627471 ], [ 42772.275000000001455, 5950779.974999999627471 ], [ 42772.275000000001455, 5950779.900000000372529 ], [ 42772.19999999999709, 5950779.900000000372529 ], [ 42772.19999999999709, 5950779.825000000186265 ], [ 42772.05000000000291, 5950779.825000000186265 ], [ 42772.05000000000291, 5950779.75 ], [ 42771.900000000001455, 5950779.75 ], [ 42771.900000000001455, 5950779.674999999813735 ], [ 42771.82499999999709, 5950779.674999999813735 ], [ 42771.82499999999709, 5950779.599999999627471 ], [ 42771.75, 5950779.599999999627471 ], [ 42771.75, 5950779.525000000372529 ], [ 42771.67500000000291, 5950779.525000000372529 ], [ 42771.67500000000291, 5950779.450000000186265 ], [ 42771.599999999998545, 5950779.450000000186265 ], [ 42771.599999999998545, 5950779.375 ], [ 42771.525000000001455, 5950779.375 ], [ 42771.525000000001455, 5950779.299999999813735 ], [ 42771.44999999999709, 5950779.299999999813735 ], [ 42771.44999999999709, 5950779.224999999627471 ], [ 42771.375, 5950779.224999999627471 ], [ 42771.375, 5950779.075000000186265 ], [ 42771.30000000000291, 5950779.075000000186265 ], [ 42771.30000000000291, 5950778.625 ], [ 42771.224999999998545, 5950778.625 ], [ 42771.224999999998545, 5950778.25 ], [ 42771.150000000001455, 5950778.25 ], [ 42771.150000000001455, 5950777.799999999813735 ], [ 42771.07499999999709, 5950777.799999999813735 ], [ 42771.07499999999709, 5950777.275000000372529 ], [ 42771.0, 5950777.275000000372529 ], [ 42771.0, 5950775.325000000186265 ], [ 42771.07499999999709, 5950775.325000000186265 ], [ 42771.07499999999709, 5950769.625 ], [ 42771.150000000001455, 5950769.625 ], [ 42771.150000000001455, 5950768.424999999813735 ], [ 42771.224999999998545, 5950768.424999999813735 ], [ 42771.224999999998545, 5950767.450000000186265 ], [ 42771.30000000000291, 5950767.450000000186265 ], [ 42771.30000000000291, 5950766.625 ], [ 42771.375, 5950766.625 ], [ 42771.375, 5950765.799999999813735 ], [ 42771.44999999999709, 5950765.799999999813735 ], [ 42771.44999999999709, 5950765.200000000186265 ], [ 42771.525000000001455, 5950765.200000000186265 ], [ 42771.525000000001455, 5950764.75 ], [ 42771.599999999998545, 5950764.75 ], [ 42771.599999999998545, 5950764.375 ], [ 42771.67500000000291, 5950764.375 ], [ 42771.67500000000291, 5950763.924999999813735 ], [ 42771.75, 5950763.924999999813735 ], [ 42771.75, 5950763.549999999813735 ], [ 42771.82499999999709, 5950763.549999999813735 ], [ 42771.82499999999709, 5950763.025000000372529 ], [ 42771.900000000001455, 5950763.025000000372529 ], [ 42771.900000000001455, 5950762.5 ], [ 42771.974999999998545, 5950762.5 ], [ 42771.974999999998545, 5950761.974999999627471 ], [ 42772.05000000000291, 5950761.974999999627471 ], [ 42772.05000000000291, 5950759.950000000186265 ], [ 42771.974999999998545, 5950759.950000000186265 ], [ 42771.974999999998545, 5950757.549999999813735 ], [ 42771.900000000001455, 5950757.549999999813735 ], [ 42771.900000000001455, 5950755.525000000372529 ], [ 42771.82499999999709, 5950755.525000000372529 ], [ 42771.82499999999709, 5950754.400000000372529 ], [ 42771.75, 5950754.400000000372529 ], [ 42771.75, 5950753.349999999627471 ], [ 42771.67500000000291, 5950753.349999999627471 ], [ 42771.67500000000291, 5950752.525000000372529 ], [ 42771.599999999998545, 5950752.525000000372529 ], [ 42771.599999999998545, 5950751.549999999813735 ], [ 42771.525000000001455, 5950751.549999999813735 ], [ 42771.525000000001455, 5950750.5 ], [ 42771.44999999999709, 5950750.5 ], [ 42771.44999999999709, 5950749.375 ], [ 42771.375, 5950749.375 ], [ 42771.375, 5950748.174999999813735 ], [ 42771.30000000000291, 5950748.174999999813735 ], [ 42771.30000000000291, 5950747.875 ], [ 42771.375, 5950747.875 ], [ 42771.375, 5950747.650000000372529 ], [ 42771.44999999999709, 5950747.650000000372529 ], [ 42771.44999999999709, 5950747.424999999813735 ], [ 42771.525000000001455, 5950747.424999999813735 ], [ 42771.525000000001455, 5950747.275000000372529 ], [ 42771.599999999998545, 5950747.275000000372529 ], [ 42771.599999999998545, 5950747.049999999813735 ], [ 42771.67500000000291, 5950747.049999999813735 ], [ 42771.67500000000291, 5950746.900000000372529 ], [ 42771.75, 5950746.900000000372529 ], [ 42771.75, 5950746.75 ], [ 42771.82499999999709, 5950746.75 ], [ 42771.82499999999709, 5950746.599999999627471 ], [ 42771.900000000001455, 5950746.599999999627471 ], [ 42771.900000000001455, 5950746.450000000186265 ], [ 42771.974999999998545, 5950746.450000000186265 ], [ 42771.974999999998545, 5950746.299999999813735 ], [ 42772.05000000000291, 5950746.299999999813735 ], [ 42772.05000000000291, 5950746.224999999627471 ], [ 42772.125, 5950746.224999999627471 ], [ 42772.125, 5950746.0 ], [ 42772.19999999999709, 5950746.0 ], [ 42772.19999999999709, 5950745.924999999813735 ], [ 42772.275000000001455, 5950745.924999999813735 ], [ 42772.275000000001455, 5950745.849999999627471 ], [ 42772.349999999998545, 5950745.849999999627471 ], [ 42772.349999999998545, 5950745.775000000372529 ], [ 42772.42500000000291, 5950745.775000000372529 ], [ 42772.42500000000291, 5950745.700000000186265 ], [ 42772.5, 5950745.700000000186265 ], [ 42772.5, 5950745.625 ], [ 42772.57499999999709, 5950745.625 ], [ 42772.57499999999709, 5950745.549999999813735 ], [ 42772.650000000001455, 5950745.549999999813735 ], [ 42772.650000000001455, 5950745.474999999627471 ], [ 42772.80000000000291, 5950745.474999999627471 ], [ 42772.80000000000291, 5950745.400000000372529 ], [ 42772.875, 5950745.400000000372529 ], [ 42772.875, 5950745.325000000186265 ], [ 42772.94999999999709, 5950745.325000000186265 ], [ 42772.94999999999709, 5950745.25 ], [ 42773.099999999998545, 5950745.25 ], [ 42773.099999999998545, 5950745.174999999813735 ], [ 42773.17500000000291, 5950745.174999999813735 ], [ 42773.17500000000291, 5950745.099999999627471 ], [ 42773.25, 5950745.099999999627471 ], [ 42773.25, 5950745.025000000372529 ], [ 42773.400000000001455, 5950745.025000000372529 ], [ 42773.400000000001455, 5950744.950000000186265 ], [ 42773.474999999998545, 5950744.950000000186265 ], [ 42773.474999999998545, 5950744.875 ], [ 42773.625, 5950744.875 ], [ 42773.625, 5950744.799999999813735 ], [ 42773.775000000001455, 5950744.799999999813735 ], [ 42773.775000000001455, 5950744.724999999627471 ], [ 42773.849999999998545, 5950744.724999999627471 ], [ 42773.849999999998545, 5950744.650000000372529 ], [ 42774.0, 5950744.650000000372529 ], [ 42774.0, 5950744.575000000186265 ], [ 42774.07499999999709, 5950744.575000000186265 ], [ 42774.07499999999709, 5950744.5 ], [ 42774.150000000001455, 5950744.5 ], [ 42774.150000000001455, 5950744.424999999813735 ], [ 42774.224999999998545, 5950744.424999999813735 ], [ 42774.224999999998545, 5950744.349999999627471 ], [ 42774.30000000000291, 5950744.349999999627471 ], [ 42774.30000000000291, 5950744.275000000372529 ], [ 42774.375, 5950744.275000000372529 ], [ 42774.375, 5950744.200000000186265 ], [ 42774.44999999999709, 5950744.200000000186265 ], [ 42774.44999999999709, 5950744.125 ], [ 42774.525000000001455, 5950744.125 ], [ 42774.525000000001455, 5950744.049999999813735 ], [ 42774.599999999998545, 5950744.049999999813735 ], [ 42774.599999999998545, 5950743.974999999627471 ], [ 42774.67500000000291, 5950743.974999999627471 ], [ 42774.67500000000291, 5950743.825000000186265 ], [ 42774.75, 5950743.825000000186265 ], [ 42774.75, 5950743.75 ], [ 42774.82499999999709, 5950743.75 ], [ 42774.82499999999709, 5950743.674999999813735 ], [ 42774.900000000001455, 5950743.674999999813735 ], [ 42774.900000000001455, 5950743.599999999627471 ], [ 42774.974999999998545, 5950743.599999999627471 ], [ 42774.974999999998545, 5950743.525000000372529 ], [ 42775.05000000000291, 5950743.525000000372529 ], [ 42775.05000000000291, 5950743.450000000186265 ], [ 42775.19999999999709, 5950743.450000000186265 ], [ 42775.19999999999709, 5950743.375 ], [ 42775.275000000001455, 5950743.375 ], [ 42775.275000000001455, 5950743.299999999813735 ], [ 42775.349999999998545, 5950743.299999999813735 ], [ 42775.349999999998545, 5950743.224999999627471 ], [ 42775.5, 5950743.224999999627471 ], [ 42775.5, 5950743.150000000372529 ], [ 42775.650000000001455, 5950743.150000000372529 ], [ 42775.650000000001455, 5950743.075000000186265 ], [ 42775.80000000000291, 5950743.075000000186265 ], [ 42775.80000000000291, 5950743.0 ], [ 42776.025000000001455, 5950743.0 ], [ 42776.025000000001455, 5950742.924999999813735 ], [ 42776.32499999999709, 5950742.924999999813735 ], [ 42776.32499999999709, 5950742.849999999627471 ], [ 42776.55000000000291, 5950742.849999999627471 ], [ 42776.55000000000291, 5950742.775000000372529 ], [ 42776.849999999998545, 5950742.775000000372529 ], [ 42776.849999999998545, 5950742.700000000186265 ], [ 42777.150000000001455, 5950742.700000000186265 ], [ 42777.150000000001455, 5950742.625 ], [ 42777.44999999999709, 5950742.625 ], [ 42777.44999999999709, 5950742.549999999813735 ], [ 42777.67500000000291, 5950742.549999999813735 ], [ 42777.67500000000291, 5950742.474999999627471 ], [ 42778.125, 5950742.474999999627471 ], [ 42778.125, 5950742.400000000372529 ], [ 42778.5, 5950742.400000000372529 ], [ 42778.5, 5950742.325000000186265 ], [ 42778.875, 5950742.325000000186265 ], [ 42778.875, 5950742.25 ], [ 42779.25, 5950742.25 ], [ 42779.25, 5950742.174999999813735 ], [ 42779.55000000000291, 5950742.174999999813735 ], [ 42779.55000000000291, 5950742.099999999627471 ], [ 42779.92500000000291, 5950742.099999999627471 ], [ 42779.92500000000291, 5950742.025000000372529 ], [ 42780.150000000001455, 5950742.025000000372529 ], [ 42780.150000000001455, 5950741.950000000186265 ], [ 42780.44999999999709, 5950741.950000000186265 ], [ 42780.44999999999709, 5950741.875 ], [ 42780.75, 5950741.875 ], [ 42780.75, 5950741.799999999813735 ], [ 42780.974999999998545, 5950741.799999999813735 ], [ 42780.974999999998545, 5950741.724999999627471 ], [ 42781.275000000001455, 5950741.724999999627471 ], [ 42781.275000000001455, 5950741.650000000372529 ], [ 42781.57499999999709, 5950741.650000000372529 ], [ 42781.57499999999709, 5950741.575000000186265 ], [ 42781.94999999999709, 5950741.575000000186265 ], [ 42781.94999999999709, 5950741.5 ], [ 42782.32499999999709, 5950741.5 ], [ 42782.32499999999709, 5950741.424999999813735 ], [ 42782.69999999999709, 5950741.424999999813735 ], [ 42782.69999999999709, 5950741.349999999627471 ], [ 42783.07499999999709, 5950741.349999999627471 ], [ 42783.07499999999709, 5950741.275000000372529 ], [ 42783.525000000001455, 5950741.275000000372529 ], [ 42783.525000000001455, 5950741.200000000186265 ], [ 42783.900000000001455, 5950741.200000000186265 ], [ 42783.900000000001455, 5950741.125 ], [ 42784.349999999998545, 5950741.125 ], [ 42784.349999999998545, 5950741.049999999813735 ], [ 42784.80000000000291, 5950741.049999999813735 ], [ 42784.80000000000291, 5950740.974999999627471 ], [ 42785.32499999999709, 5950740.974999999627471 ], [ 42785.32499999999709, 5950740.900000000372529 ], [ 42785.92500000000291, 5950740.900000000372529 ], [ 42785.92500000000291, 5950740.825000000186265 ], [ 42786.525000000001455, 5950740.825000000186265 ], [ 42786.525000000001455, 5950740.75 ], [ 42787.275000000001455, 5950740.75 ], [ 42787.275000000001455, 5950740.674999999813735 ], [ 42787.724999999998545, 5950740.674999999813735 ], [ 42787.724999999998545, 5950740.75 ], [ 42788.625, 5950740.75 ], [ 42788.625, 5950740.825000000186265 ], [ 42789.375, 5950740.825000000186265 ], [ 42789.375, 5950740.900000000372529 ], [ 42789.599999999998545, 5950740.900000000372529 ], [ 42789.599999999998545, 5950740.974999999627471 ], [ 42789.82499999999709, 5950740.974999999627471 ], [ 42789.82499999999709, 5950741.049999999813735 ], [ 42789.974999999998545, 5950741.049999999813735 ], [ 42789.974999999998545, 5950741.125 ], [ 42790.125, 5950741.125 ], [ 42790.125, 5950741.200000000186265 ], [ 42790.275000000001455, 5950741.200000000186265 ], [ 42790.275000000001455, 5950741.275000000372529 ], [ 42790.42500000000291, 5950741.275000000372529 ], [ 42790.42500000000291, 5950741.349999999627471 ], [ 42790.57499999999709, 5950741.349999999627471 ], [ 42790.57499999999709, 5950741.424999999813735 ], [ 42790.724999999998545, 5950741.424999999813735 ], [ 42790.724999999998545, 5950741.5 ], [ 42790.80000000000291, 5950741.5 ], [ 42790.80000000000291, 5950741.575000000186265 ], [ 42790.94999999999709, 5950741.575000000186265 ], [ 42790.94999999999709, 5950741.650000000372529 ], [ 42791.025000000001455, 5950741.650000000372529 ], [ 42791.025000000001455, 5950741.724999999627471 ], [ 42791.17500000000291, 5950741.724999999627471 ], [ 42791.17500000000291, 5950741.799999999813735 ], [ 42791.25, 5950741.799999999813735 ], [ 42791.25, 5950741.875 ], [ 42791.32499999999709, 5950741.875 ], [ 42791.32499999999709, 5950741.950000000186265 ], [ 42791.474999999998545, 5950741.950000000186265 ], [ 42791.474999999998545, 5950742.025000000372529 ], [ 42791.625, 5950742.025000000372529 ], [ 42791.625, 5950742.099999999627471 ], [ 42791.775000000001455, 5950742.099999999627471 ], [ 42791.775000000001455, 5950742.174999999813735 ], [ 42792.0, 5950742.174999999813735 ], [ 42792.0, 5950742.25 ], [ 42792.224999999998545, 5950742.25 ], [ 42792.224999999998545, 5950742.325000000186265 ], [ 42792.44999999999709, 5950742.325000000186265 ], [ 42792.44999999999709, 5950742.400000000372529 ], [ 42792.75, 5950742.400000000372529 ], [ 42792.75, 5950742.474999999627471 ], [ 42792.974999999998545, 5950742.474999999627471 ], [ 42792.974999999998545, 5950742.549999999813735 ], [ 42793.19999999999709, 5950742.549999999813735 ], [ 42793.19999999999709, 5950742.625 ], [ 42793.42500000000291, 5950742.625 ], [ 42793.42500000000291, 5950742.700000000186265 ], [ 42793.57499999999709, 5950742.700000000186265 ], [ 42793.57499999999709, 5950742.775000000372529 ], [ 42793.80000000000291, 5950742.775000000372529 ], [ 42793.80000000000291, 5950742.849999999627471 ], [ 42793.94999999999709, 5950742.849999999627471 ], [ 42793.94999999999709, 5950742.924999999813735 ], [ 42794.025000000001455, 5950742.924999999813735 ], [ 42794.025000000001455, 5950743.0 ], [ 42794.17500000000291, 5950743.0 ], [ 42794.17500000000291, 5950743.075000000186265 ], [ 42794.32499999999709, 5950743.075000000186265 ], [ 42794.32499999999709, 5950743.150000000372529 ], [ 42794.400000000001455, 5950743.150000000372529 ], [ 42794.400000000001455, 5950743.224999999627471 ], [ 42794.474999999998545, 5950743.224999999627471 ], [ 42794.474999999998545, 5950743.299999999813735 ], [ 42794.55000000000291, 5950743.299999999813735 ], [ 42794.55000000000291, 5950744.049999999813735 ], [ 42794.625, 5950744.049999999813735 ], [ 42794.625, 5950744.349999999627471 ], [ 42794.69999999999709, 5950744.349999999627471 ], [ 42794.69999999999709, 5950744.650000000372529 ], [ 42794.775000000001455, 5950744.650000000372529 ], [ 42794.775000000001455, 5950744.875 ], [ 42794.849999999998545, 5950744.875 ], [ 42794.849999999998545, 5950745.099999999627471 ], [ 42794.92500000000291, 5950745.099999999627471 ], [ 42794.92500000000291, 5950745.25 ], [ 42795.0, 5950745.25 ], [ 42795.0, 5950745.474999999627471 ], [ 42795.07499999999709, 5950745.474999999627471 ], [ 42795.07499999999709, 5950745.625 ], [ 42795.150000000001455, 5950745.625 ], [ 42795.150000000001455, 5950745.775000000372529 ], [ 42795.224999999998545, 5950745.775000000372529 ], [ 42795.224999999998545, 5950745.849999999627471 ], [ 42795.30000000000291, 5950745.849999999627471 ], [ 42795.30000000000291, 5950747.875 ], [ 42795.224999999998545, 5950747.875 ], [ 42795.224999999998545, 5950749.974999999627471 ], [ 42795.150000000001455, 5950749.974999999627471 ], [ 42795.150000000001455, 5950750.950000000186265 ], [ 42795.07499999999709, 5950750.950000000186265 ], [ 42795.07499999999709, 5950752.0 ], [ 42795.0, 5950752.0 ], [ 42795.0, 5950752.450000000186265 ], [ 42794.92500000000291, 5950752.450000000186265 ], [ 42794.92500000000291, 5950752.974999999627471 ], [ 42794.849999999998545, 5950752.974999999627471 ], [ 42794.849999999998545, 5950753.575000000186265 ], [ 42794.775000000001455, 5950753.575000000186265 ], [ 42794.775000000001455, 5950754.325000000186265 ], [ 42794.69999999999709, 5950754.325000000186265 ], [ 42794.69999999999709, 5950755.150000000372529 ], [ 42794.625, 5950755.150000000372529 ], [ 42794.625, 5950756.950000000186265 ], [ 42794.55000000000291, 5950756.950000000186265 ], [ 42794.55000000000291, 5950760.474999999627471 ], [ 42794.474999999998545, 5950760.474999999627471 ], [ 42794.474999999998545, 5950764.0 ], [ 42794.400000000001455, 5950764.0 ], [ 42794.400000000001455, 5950766.625 ], [ 42794.32499999999709, 5950766.625 ], [ 42794.32499999999709, 5950768.5 ], [ 42794.25, 5950768.5 ], [ 42794.25, 5950770.150000000372529 ], [ 42794.17500000000291, 5950770.150000000372529 ], [ 42794.17500000000291, 5950771.575000000186265 ], [ 42794.099999999998545, 5950771.575000000186265 ], [ 42794.099999999998545, 5950773.0 ], [ 42794.025000000001455, 5950773.0 ], [ 42794.025000000001455, 5950774.275000000372529 ], [ 42793.94999999999709, 5950774.275000000372529 ], [ 42793.94999999999709, 5950775.174999999813735 ], [ 42793.875, 5950775.174999999813735 ], [ 42793.875, 5950776.299999999813735 ], [ 42793.80000000000291, 5950776.299999999813735 ], [ 42793.80000000000291, 5950777.049999999813735 ], [ 42793.724999999998545, 5950777.049999999813735 ], [ 42793.724999999998545, 5950777.650000000372529 ], [ 42793.650000000001455, 5950777.650000000372529 ], [ 42793.650000000001455, 5950779.224999999627471 ], [ 42793.57499999999709, 5950779.224999999627471 ], [ 42793.57499999999709, 5950779.375 ], [ 42793.5, 5950779.375 ], [ 42793.5, 5950779.599999999627471 ], [ 42793.42500000000291, 5950779.599999999627471 ], [ 42793.42500000000291, 5950779.75 ], [ 42793.349999999998545, 5950779.75 ], [ 42793.349999999998545, 5950779.974999999627471 ], [ 42793.275000000001455, 5950779.974999999627471 ], [ 42793.275000000001455, 5950780.200000000186265 ], [ 42793.19999999999709, 5950780.200000000186265 ], [ 42793.19999999999709, 5950780.424999999813735 ], [ 42793.125, 5950780.424999999813735 ], [ 42793.125, 5950780.650000000372529 ], [ 42793.05000000000291, 5950780.650000000372529 ], [ 42793.05000000000291, 5950780.799999999813735 ], [ 42792.974999999998545, 5950780.799999999813735 ], [ 42792.974999999998545, 5950781.025000000372529 ], [ 42792.900000000001455, 5950781.025000000372529 ], [ 42792.900000000001455, 5950781.174999999813735 ], [ 42792.82499999999709, 5950781.174999999813735 ], [ 42792.82499999999709, 5950781.25 ], [ 42792.75, 5950781.25 ], [ 42792.75, 5950781.325000000186265 ], [ 42792.67500000000291, 5950781.325000000186265 ], [ 42792.67500000000291, 5950781.400000000372529 ], [ 42792.525000000001455, 5950781.400000000372529 ], [ 42792.525000000001455, 5950781.474999999627471 ], [ 42792.44999999999709, 5950781.474999999627471 ], [ 42792.44999999999709, 5950781.549999999813735 ], [ 42792.30000000000291, 5950781.549999999813735 ], [ 42792.30000000000291, 5950781.625 ], [ 42792.150000000001455, 5950781.625 ], [ 42792.150000000001455, 5950781.700000000186265 ], [ 42792.0, 5950781.700000000186265 ], [ 42792.0, 5950781.775000000372529 ], [ 42791.849999999998545, 5950781.775000000372529 ], [ 42791.849999999998545, 5950781.849999999627471 ], [ 42791.69999999999709, 5950781.849999999627471 ], [ 42791.69999999999709, 5950781.924999999813735 ], [ 42791.474999999998545, 5950781.924999999813735 ], [ 42791.474999999998545, 5950782.0 ], [ 42791.25, 5950782.0 ], [ 42791.25, 5950782.075000000186265 ], [ 42790.94999999999709, 5950782.075000000186265 ], [ 42790.94999999999709, 5950782.150000000372529 ], [ 42790.57499999999709, 5950782.150000000372529 ], [ 42790.57499999999709, 5950782.224999999627471 ], [ 42790.275000000001455, 5950782.224999999627471 ], [ 42790.275000000001455, 5950782.299999999813735 ], [ 42789.900000000001455, 5950782.299999999813735 ], [ 42789.900000000001455, 5950782.375 ], [ 42789.44999999999709, 5950782.375 ], [ 42789.44999999999709, 5950782.450000000186265 ], [ 42788.775000000001455, 5950782.450000000186265 ], [ 42788.775000000001455, 5950782.525000000372529 ], [ 42788.17500000000291, 5950782.525000000372529 ], [ 42788.17500000000291, 5950782.599999999627471 ], [ 42787.5, 5950782.599999999627471 ], [ 42787.5, 5950782.674999999813735 ], [ 42787.05000000000291, 5950782.674999999813735 ], [ 42787.05000000000291, 5950782.75 ], [ 42786.67500000000291, 5950782.75 ], [ 42786.67500000000291, 5950782.825000000186265 ], [ 42786.30000000000291, 5950782.825000000186265 ], [ 42786.30000000000291, 5950782.900000000372529 ], [ 42786.0, 5950782.900000000372529 ], [ 42786.0, 5950782.974999999627471 ], [ 42785.625, 5950782.974999999627471 ], [ 42785.625, 5950783.049999999813735 ], [ 42785.400000000001455, 5950783.049999999813735 ], [ 42785.400000000001455, 5950783.125 ], [ 42785.17500000000291, 5950783.125 ], [ 42785.17500000000291, 5950783.200000000186265 ], [ 42784.94999999999709, 5950783.200000000186265 ], [ 42784.94999999999709, 5950783.275000000372529 ], [ 42784.724999999998545, 5950783.275000000372529 ], [ 42784.724999999998545, 5950783.349999999627471 ], [ 42784.5, 5950783.349999999627471 ], [ 42784.5, 5950783.424999999813735 ], [ 42784.19999999999709, 5950783.424999999813735 ], [ 42784.19999999999709, 5950783.5 ], [ 42783.974999999998545, 5950783.5 ], [ 42783.974999999998545, 5950783.575000000186265 ], [ 42783.599999999998545, 5950783.575000000186265 ], [ 42783.599999999998545, 5950783.650000000372529 ], [ 42783.150000000001455, 5950783.650000000372529 ], [ 42783.150000000001455, 5950783.724999999627471 ], [ 42782.69999999999709, 5950783.724999999627471 ], [ 42782.69999999999709, 5950783.799999999813735 ], [ 42782.17500000000291, 5950783.799999999813735 ], [ 42782.17500000000291, 5950783.875 ], [ 42780.30000000000291, 5950783.875 ] ] ] } }
]
}
