{
"type": "FeatureCollection",
"name": "42183E592182N_buildings",
"crs": { "type": "name", "properties": { "name": "urn:ogc:def:crs:EPSG::3776" } },
"features": [
{ "type": "Feature", "properties": { "value": 1.0, "building_id": 0, "area": 180.45000000027761 }, "geometry": { "type": "Polygon", "coordinates": [ [ [ 42561.900000000001455, 5922136.200000000186265 ], [ 42561.900000000001455, 5922136.125 ], [ 42560.775000000001455, 5922136.125 ], [ 42560.775000000001455, 5922136.049999999813735 ], [ 42560.625, 5922136.049999999813735 ], [ 42560.625, 5922135.974999999627471 ], [ 42560.400000000001455, 5922135.974999999627471 ], [ 42560.400000000001455, 5922135.900000000372529 ], [ 42560.25, 5922135.900000000372529 ], [ 42560.25, 5922135.825000000186265 ], [ 42560.17500000000291, 5922135.825000000186265 ], [ 42560.17500000000291, 5922135.75 ], [ 42560.025000000001455, 5922135.75 ], [ 42560.025000000001455, 5922135.674999999813735 ], [ 42559.94999999999709, 5922135.674999999813735 ], [ 42559.94999999999709, 5922135.599999999627471 ], [ 42559.875, 5922135.599999999627471 ], [ 42559.875, 5922135.525000000372529 ], [ 42559.80000000000291, 5922135.525000000372529 ], [ 42559.80000000000291, 5922135.450000000186265 ], [ 42559.724999999998545, 5922135.450000000186265 ], [ 42559.724999999998545, 5922135.375 ], [ 42559.650000000001455, 5922135.375 ], [ 42559.650000000001455, 5922135.299999999813735 ], [ 42559.57499999999709, 5922135.299999999813735 ], [ 42559.57499999999709, 5922135.224999999627471 ], [ 42559.5, 5922135.224999999627471 ], [ 42559.5, 5922135.075000000186265 ], [ 42559.42500000000291, 5922135.075000000186265 ], [ 42559.42500000000291, 5922134.924999999813735 ], [ 42559.349999999998545, 5922134.924999999813735 ], [ 42559.349999999998545, 5922134.775000000372529 ], [ 42559.275000000001455, 5922134.775000000372529 ], [ 42559.275000000001455, 5922134.625 ], [ 42559.19999999999709, 5922134.625 ], [ 42559.19999999999709, 5922134.549999999813735 ], [ 42559.125, 5922134.549999999813735 ], [ 42559.125, 5922134.474999999627471 ], [ 42559.05000000000291, 5922134.474999999627471 ], [ 42559.05000000000291, 5922134.400000000372529 ], [ 42558.974999999998545, 5922134.400000000372529 ], [ 42558.974999999998545, 5922134.325000000186265 ], [ 42558.82499999999709, 5922134.325000000186265 ], [ 42558.82499999999709, 5922134.25 ], [ 42558.67500000000291, 5922134.25 ], [ 42558.67500000000291, 5922134.174999999813735 ], [ 42558.599999999998545, 5922134.174999999813735 ], [ 42558.599999999998545, 5922134.099999999627471 ], [ 42558.44999999999709, 5922134.099999999627471 ], [ 42558.44999999999709, 5922134.025000000372529 ], [ 42558.375, 5922134.025000000372529 ], [ 42558.375, 5922133.950000000186265 ], [ 42558.30000000000291, 5922133.950000000186265 ], [ 42558.30000000000291, 5922133.875 ], [ 42558.224999999998545, 5922133.875 ], [ 42558.224999999998545, 5922133.799999999813735 ], [ 42558.150000000001455, 5922133.799999999813735 ], [ 42558.150000000001455, 5922133.724999999627471 ], [ 42558.07499999999709, 5922133.724999999627471 ], [ 42558.07499999999709, 5922133.575000000186265 ], [ 42558.0, 5922133.575000000186265 ], [ 42558.0, 5922133.5 ], [ 42557.92500000000291, 5922133.5 ], [ 42557.92500000000291, 5922133.349999999627471 ], [ 42557.849999999998545, 5922133.349999999627471 ], [ 42557.849999999998545, 5922133.200000000186265 ], [ 42557.775000000001455, 5922133.200000000186265 ], [ 42557.775000000001455, 5922132.974999999627471 ], [ 42557.69999999999709, 5922132.974999999627471 ], [ 42557.69999999999709, 5922132.75 ], [ 42557.625, 5922132.75 ], [ 42557.625, 5922132.299999999813735 ], [ 42557.55000000000291, 5922132.299999999813735 ], [ 42557.55000000000291, 5922131.625 ], [ 42557.474999999998545, 5922131.625 ], [ 42557.474999999998545, 5922131.025000000372529 ], [ 42557.400000000001455, 5922131.025000000372529 ], [ 42557.400000000001455, 5922128.325000000186265 ], [ 42557.474999999998545, 5922128.325000000186265 ], [ 42557.474999999998545, 5922127.724999999627471 ], [ 42557.55000000000291, 5922127.724999999627471 ], [ 42557.55000000000291, 5922127.049999999813735 ], [ 42557.625, 5922127.049999999813735 ], [ 42557.625, 5922126.075000000186265 ], [ 42557.69999999999709, 5922126.075000000186265 ], [ 42557.69999999999709, 5922124.875 ], [ 42557.775000000001455, 5922124.875 ], [ 42557.775000000001455, 5922123.599999999627471 ], [ 42557.849999999998545, 5922123.599999999627471 ], [ 42557.849999999998545, 5922122.849999999627471 ], [ 42557.92500000000291, 5922122.849999999627471 ], [ 42557.92500000000291, 5922122.625 ], [ 42558.0, 5922122.625 ], [ 42558.0, 5922122.400000000372529 ], [ 42558.07499999999709, 5922122.400000000372529 ], [ 42558.07499999999709, 5922122.25 ], [ 42558.150000000001455, 5922122.25 ], [ 42558.150000000001455, 5922122.099999999627471 ], [ 42558.224999999998545, 5922122.099999999627471 ], [ 42558.224999999998545, 5922121.950000000186265 ], [ 42558.30000000000291, 5922121.950000000186265 ], [ 42558.30000000000291, 5922121.799999999813735 ], [ 42558.375, 5922121.799999999813735 ], [ 42558.375, 5922121.724999999627471 ], [ 42558.44999999999709, 5922121.724999999627471 ], [ 42558.44999999999709, 5922121.575000000186265 ], [ 42558.525000000001455, 5922121.575000000186265 ], [ 42558.525000000001455, 5922121.5 ], [ 42558.599999999998545, 5922121.5 ], [ 42558.599999999998545, 5922121.424999999813735 ], [ 42558.67500000000291, 5922121.424999999813735 ], [ 42558.67500000000291, 5922121.349999999627471 ], [ 42558.75, 5922121.349999999627471 ], [ 42558.75, 5922121.275000000372529 ], [ 42558.82499999999709, 5922121.275000000372529 ], [ 42558.82499999999709, 5922121.200000000186265 ], [ 42558.900000000001455, 5922121.200000000186265 ], [ 42558.900000000001455, 5922121.125 ], [ 42558.974999999998545, 5922121.125 ], [ 42558.974999999998545, 5922121.049999999813735 ], [ 42559.05000000000291, 5922121.049999999813735 ], [ 42559.05000000000291, 5922120.900000000372529 ], [ 42559.125, 5922120.900000000372529 ], [ 42559.125, 5922120.825000000186265 ], [ 42559.19999999999709, 5922120.825000000186265 ], [ 42559.19999999999709, 5922120.674999999813735 ], [ 42559.275000000001455, 5922120.674999999813735 ], [ 42559.275000000001455, 5922120.599999999627471 ], [ 42559.349999999998545, 5922120.599999999627471 ], [ 42559.349999999998545, 5922120.525000000372529 ], [ 42559.42500000000291, 5922120.525000000372529 ], [ 42559.42500000000291, 5922120.375 ], [ 42559.5, 5922120.375 ], [ 42559.5, 5922120.299999999813735 ], [ 42559.57499999999709, 5922120.299999999813735 ], [ 42559.57499999999709, 5922120.224999999627471 ], [ 42559.650000000001455, 5922120.224999999627471 ], [ 42559.650000000001455, 5922120.150000000372529 ], [ 42559.724999999998545, 5922120.150000000372529 ], [ 42559.724999999998545, 5922120.075000000186265 ], [ 42559.80000000000291, 5922120.075000000186265 ], [ 42559.80000000000291, 5922120.0 ], [ 42559.94999999999709, 5922120.0 ], [ 42559.94999999999709, 5922119.924999999813735 ], [ 42560.025000000001455, 5922119.924999999813735 ], [ 42560.025000000001455, 5922119.849999999627471 ], [ 42560.17500000000291, 5922119.849999999627471 ], [ 42560.17500000000291, 5922119.775000000372529 ], [ 42560.25, 5922119.775000000372529 ], [ 42560.25, 5922119.700000000186265 ], [ 42560.400000000001455, 5922119.700000000186265 ], [ 42560.400000000001455, 5922119.625 ], [ 42560.55000000000291, 5922119.625 ], [ 42560.55000000000291, 5922119.549999999813735 ], [ 42560.69999999999709, 5922119.549999999813735 ], [ 42560.69999999999709, 5922119.474999999627471 ], [ 42560.849999999998545, 5922119.474999999627471 ], [ 42560.849999999998545, 5922119.400000000372529 ], [ 42561.07499999999709, 5922119.400000000372529 ], [ 42561.07499999999709, 5922119.325000000186265 ], [ 42561.224999999998545, 5922119.325000000186265 ], [ 42561.224999999998545, 5922119.25 ], [ 42561.44999999999709, 5922119.25 ], [ 42561.44999999999709, 5922119.174999999813735 ], [ 42561.599999999998545, 5922119.174999999813735 ], [ 42561.599999999998545, 5922119.099999999627471 ], [ 42561.75, 5922119.099999999627471 ], [ 42561.75, 5922119.025000000372529 ], [ 42561.82499999999709, 5922119.025000000372529 ], [ 42561.82499999999709, 5922118.950000000186265 ], [ 42561.900000000001455, 5922118.950000000186265 ], [ 42561.900000000001455, 5922118.799999999813735 ], [ 42561.974999999998545, 5922118.799999999813735 ], [ 42561.974999999998545, 5922118.724999999627471 ], [ 42562.05000000000291, 5922118.724999999627471 ], [ 42562.05000000000291, 5922118.650000000372529 ], [ 42562.125, 5922118.650000000372529 ], [ 42562.125, 5922118.575000000186265 ], [ 42562.19999999999709, 5922118.575000000186265 ], [ 42562.19999999999709, 5922118.5 ], [ 42562.275000000001455, 5922118.5 ], [ 42562.275000000001455, 5922118.424999999813735 ], [ 42562.42500000000291, 5922118.424999999813735 ], [ 42562.42500000000291, 5922118.349999999627471 ], [ 42562.5, 5922118.349999999627471 ], [ 42562.5, 5922118.275000000372529 ], [ 42562.650000000001455, 5922118.275000000372529 ], [ 42562.650000000001455, 5922118.200000000186265 ], [ 42563.025000000001455, 5922118.200000000186265 ], [ 42563.025000000001455, 5922118.275000000372529 ], [ 42563.099999999998545, 5922118.275000000372529 ], [ 42563.099999999998545, 5922118.349999999627471 ], [ 42563.25, 5922118.349999999627471 ], [ 42563.25, 5922118.424999999813735 ], [ 42563.32499999999709, 5922118.424999999813735 ], [ 42563.32499999999709, 5922118.5 ], [ 42563.474999999998545, 5922118.5 ], [ 42563.474999999998545, 5922118.575000000186265 ], [ 42563.55000000000291, 5922118.575000000186265 ], [ 42563.55000000000291, 5922118.650000000372529 ], [ 42563.625, 5922118.650000000372529 ], [ 42563.625, 5922118.724999999627471 ], [ 42563.69999999999709, 5922118.724999999627471 ], [ 42563.69999999999709, 5922118.799999999813735 ], [ 42563.775000000001455, 5922118.799999999813735 ], [ 42563.775000000001455, 5922118.875 ], [ 42563.849999999998545, 5922118.875 ], [ 42563.849999999998545, 5922118.950000000186265 ], [ 42563.92500000000291, 5922118.950000000186265 ], [ 42563.92500000000291, 5922119.025000000372529 ], [ 42564.0, 5922119.025000000372529 ], [ 42564.0, 5922119.099999999627471 ], [ 42564.150000000001455, 5922119.099999999627471 ], [ 42564.150000000001455, 5922119.174999999813735 ], [ 42564.30000000000291, 5922119.174999999813735 ], [ 42564.30000000000291, 5922119.25 ], [ 42564.44999999999709, 5922119.25 ], [ 42564.44999999999709, 5922119.325000000186265 ], [ 42564.599999999998545, 5922119.325000000186265 ], [ 42564.599999999998545, 5922119.400000000372529 ], [ 42564.82499999999709, 5922119.400000000372529 ], [ 42564.82499999999709, 5922119.474999999627471 ], [ 42565.349999999998545, 5922119.474999999627471 ], [ 42565.349999999998545, 5922119.549999999813735 ], [ 42565.875, 5922119.549999999813735 ], [ 42565.875, 5922119.625 ], [ 42566.474999999998545, 5922119.625 ], [ 42566.474999999998545, 5922119.700000000186265 ], [ 42567.0, 5922119.700000000186265 ], [ 42567.0, 5922119.775000000372529 ], [ 42567.525000000001455, 5922119.775000000372529 ], [ 42567.525000000001455, 5922119.849999999627471 ], [ 42568.05000000000291, 5922119.849999999627471 ], [ 42568.05000000000291, 5922119.924999999813735 ], [ 42568.5, 5922119.924999999813735 ], [ 42568.5, 5922120.0 ], [ 42568.875, 5922120.0 ], [ 42568.875, 5922120.075000000186265 ], [ 42569.025000000001455, 5922120.075000000186265 ], [ 42569.025000000001455, 5922120.150000000372529 ], [ 42569.17500000000291, 5922120.150000000372529 ], [ 42569.17500000000291, 5922120.224999999627471 ], [ 42569.32499999999709, 5922120.224999999627471 ], [ 42569.32499999999709, 5922120.299999999813735 ], [ 42569.400000000001455, 5922120.299999999813735 ], [ 42569.400000000001455, 5922120.375 ], [ 42569.55000000000291, 5922120.375 ], [ 42569.55000000000291, 5922120.450000000186265 ], [ 42569.625, 5922120.450000000186265 ], [ 42569.625, 5922120.525000000372529 ], [ 42569.69999999999709, 5922120.525000000372529 ], [ 42569.69999999999709, 5922120.599999999627471 ], [ 42569.775000000001455, 5922120.599999999627471 ], [ 42569.775000000001455, 5922120.674999999813735 ], [ 42569.849999999998545, 5922120.674999999813735 ], [ 42569.849999999998545, 5922120.75 ], [ 42569.92500000000291, 5922120.75 ], [ 42569.92500000000291, 5922120.825000000186265 ], [ 42570.0, 5922120.825000000186265 ], [ 42570.0, 5922120.900000000372529 ], [ 42570.07499999999709, 5922120.900000000372529 ], [ 42570.07499999999709, 5922120.974999999627471 ], [ 42570.150000000001455, 5922120.974999999627471 ], [ 42570.150000000001455, 5922121.125 ], [ 42570.224999999998545, 5922121.125 ], [ 42570.224999999998545, 5922121.200000000186265 ], [ 42570.30000000000291, 5922121.200000000186265 ], [ 42570.30000000000291, 5922121.275000000372529 ], [ 42570.375, 5922121.275000000372529 ], [ 42570.375, 5922121.349999999627471 ], [ 42570.44999999999709, 5922121.349999999627471 ], [ 42570.44999999999709, 5922121.424999999813735 ], [ 42570.525000000001455, 5922121.424999999813735 ], [ 42570.525000000001455, 5922121.5 ], [ 42570.599999999998545, 5922121.5 ], [ 42570.599999999998545, 5922121.575000000186265 ], [ 42570.67500000000291, 5922121.575000000186265 ], [ 42570.67500000000291, 5922121.650000000372529 ], [ 42570.82499999999709, 5922121.650000000372529 ], [ 42570.82499999999709, 5922121.724999999627471 ], [ 42570.900000000001455, 5922121.724999999627471 ], [ 42570.900000000001455, 5922121.799999999813735 ], [ 42570.974999999998545, 5922121.799999999813735 ], [ 42570.974999999998545, 5922121.875 ], [ 42571.125, 5922121.875 ], [ 42571.125, 5922121.950000000186265 ], [ 42571.19999999999709, 5922121.950000000186265 ], [ 42571.19999999999709, 5922122.025000000372529 ], [ 42571.275000000001455, 5922122.025000000372529 ], [ 42571.275000000001455, 5922122.099999999627471 ], [ 42571.349999999998545, 5922122.099999999627471 ], [ 42571.349999999998545, 5922122.174999999813735 ], [ 42571.42500000000291, 5922122.174999999813735 ], [ 42571.42500000000291, 5922122.25 ], [ 42571.5, 5922122.25 ], [ 42571.5, 5922122.400000000372529 ], [ 42571.57499999999709, 5922122.400000000372529 ], [ 42571.57499999999709, 5922122.474999999627471 ], [ 42571.650000000001455, 5922122.474999999627471 ], [ 42571.650000000001455, 5922122.625 ], [ 42571.724999999998545, 5922122.625 ], [ 42571.724999999998545, 5922122.775000000372529 ], [ 42571.80000000000291, 5922122.775000000372529 ], [ 42571.80000000000291, 5922122.924999999813735 ], [ 42571.875, 5922122.924999999813735 ], [ 42571.875, 5922123.0 ], [ 42571.80000000000291, 5922123.0 ], [ 42571.80000000000291, 5922123.224999999627471 ], [ 42571.724999999998545, 5922123.224999999627471 ], [ 42571.724999999998545, 5922123.450000000186265 ], [ 42571.650000000001455, 5922123.450000000186265 ], [ 42571.650000000001455, 5922123.599999999627471 ], [ 42571.57499999999709, 5922123.599999999627471 ], [ 42571.57499999999709, 5922123.75 ], [ 42571.5, 5922123.75 ], [ 42571.5, 5922123.900000000372529 ], [ 42571.42500000000291, 5922123.900000000372529 ], [ 42571.42500000000291, 5922124.049999999813735 ], [ 42571.349999999998545, 5922124.049999999813735 ], [ 42571.349999999998545, 5922124.200000000186265 ], [ 42571.275000000001455, 5922124.200000000186265 ], [ 42571.275000000001455, 5922124.349999999627471 ], [ 42571.19999999999709, 5922124.349999999627471 ], [ 42571.19999999999709, 5922124.5 ], [ 42571.125, 5922124.5 ], [ 42571.125, 5922124.575000000186265 ], [ 42571.05000000000291, 5922124.575000000186265 ], [ 42571.05000000000291, 5922124.724999999627471 ], [ 42570.974999999998545, 5922124.724999999627471 ], [ 42570.974999999998545, 5922124.799999999813735 ], [ 42570.900000000001455, 5922124.799999999813735 ], [ 42570.900000000001455, 5922124.950000000186265 ], [ 42570.82499999999709, 5922124.950000000186265 ], [ 42570.82499999999709, 5922125.025000000372529 ], [ 42570.75, 5922125.025000000372529 ], [ 42570.75, 5922125.099999999627471 ], [ 42570.67500000000291, 5922125.099999999627471 ], [ 42570.67500000000291, 5922125.174999999813735 ], [ 42570.599999999998545, 5922125.174999999813735 ], [ 42570.599999999998545, 5922125.25 ], [ 42570.525000000001455, 5922125.25 ], [ 42570.525000000001455, 5922125.325000000186265 ], [ 42570.44999999999709, 5922125.325000000186265 ], [ 42570.44999999999709, 5922125.400000000372529 ], [ 42570.375, 5922125.400000000372529 ], [ 42570.375, 5922125.549999999813735 ], [ 42570.30000000000291, 5922125.549999999813735 ], [ 42570.30000000000291, 5922125.625 ], [ 42570.224999999998545, 5922125.625 ], [ 42570.224999999998545, 5922125.775000000372529 ], [ 42570.150000000001455, 5922125.775000000372529 ], [ 42570.150000000001455, 5922125.924999999813735 ], [ 42570.07499999999709, 5922125.924999999813735 ], [ 42570.07499999999709, 5922126.075000000186265 ], [ 42570.0, 5922126.075000000186265 ], [ 42570.0, 5922126.224999999627471 ], [ 42569.92500000000291, 5922126.224999999627471 ], [ 42569.92500000000291, 5922126.375 ], [ 42569.849999999998545, 5922126.375 ], [ 42569.849999999998545, 5922126.525000000372529 ], [ 42569.775000000001455, 5922126.525000000372529 ], [ 42569.775000000001455, 5922126.75 ], [ 42569.69999999999709, 5922126.75 ], [ 42569.69999999999709, 5922126.900000000372529 ], [ 42569.625, 5922126.900000000372529 ], [ 42569.625, 5922127.125 ], [ 42569.55000000000291, 5922127.125 ], [ 42569.55000000000291, 5922127.275000000372529 ], [ 42569.474999999998545, 5922127.275000000372529 ], [ 42569.474999999998545, 5922127.424999999813735 ], [ 42569.400000000001455, 5922127.424999999813735 ], [ 42569.400000000001455, 5922127.575000000186265 ], [ 42569.32499999999709, 5922127.575000000186265 ], [ 42569.32499999999709, 5922127.650000000372529 ], [ 42569.25, 5922127.650000000372529 ], [ 42569.25, 5922127.799999999813735 ], [ 42569.17500000000291, 5922127.799999999813735 ], [ 42569.17500000000291, 5922127.875 ], [ 42569.099999999998545, 5922127.875 ], [ 42569.099999999998545, 5922128.025000000372529 ], [ 42569.025000000001455, 5922128.025000000372529 ], [ 42569.025000000001455, 5922128.099999999627471 ], [ 42568.94999999999709, 5922128.099999999627471 ], [ 42568.94999999999709, 5922128.174999999813735 ], [ 42568.875, 5922128.174999999813735 ], [ 42568.875, 5922128.25 ], [ 42568.80000000000291, 5922128.25 ], [ 42568.80000000000291, 5922128.325000000186265 ], [ 42568.724999999998545, 5922128.325000000186265 ], [ 42568.724999999998545, 5922128.400000000372529 ], [ 42568.650000000001455, 5922128.400000000372529 ], [ 42568.650000000001455, 5922128.549999999813735 ], [ 42568.57499999999709, 5922128.549999999813735 ], [ 42568.57499999999709, 5922128.625 ], [ 42568.5, 5922128.625 ], [ 42568.5, 5922128.775000000372529 ], [ 42568.42500000000291, 5922128.775000000372529 ], [ 42568.42500000000291, 5922129.0 ], [ 42568.349999999998545, 5922129.0 ], [ 42568.349999999998545, 5922129.299999999813735 ], [ 42568.275000000001455, 5922129.299999999813735 ], [ 42568.275000000001455, 5922129.599999999627471 ], [ 42568.19999999999709, 5922129.599999999627471 ], [ 42568.19999999999709, 5922129.974999999627471 ], [ 42568.125, 5922129.974999999627471 ], [ 42568.125, 5922130.349999999627471 ], [ 42568.05000000000291, 5922130.349999999627471 ], [ 42568.05000000000291, 5922130.799999999813735 ], [ 42567.974999999998545, 5922130.799999999813735 ], [ 42567.974999999998545, 5922131.25 ], [ 42567.900000000001455, 5922131.25 ], [ 42567.900000000001455, 5922131.549999999813735 ], [ 42567.82499999999709, 5922131.549999999813735 ], [ 42567.82499999999709, 5922131.924999999813735 ], [ 42567.75, 5922131.924999999813735 ], [ 42567.75, 5922132.150000000372529 ], [ 42567.67500000000291, 5922132.150000000372529 ], [ 42567.67500000000291, 5922132.450000000186265 ], [ 42567.599999999998545, 5922132.450000000186265 ], [ 42567.599999999998545, 5922132.599999999627471 ], [ 42567.525000000001455, 5922132.599999999627471 ], [ 42567.525000000001455, 5922132.825000000186265 ], [ 42567.44999999999709, 5922132.825000000186265 ], [ 42567.44999999999709, 5922132.900000000372529 ], [ 42567.375, 5922132.900000000372529 ], [ 42567.375, 5922133.049999999813735 ], [ 42567.30000000000291, 5922133.049999999813735 ], [ 42567.30000000000291, 5922133.200000000186265 ], [ 42567.224999999998545, 5922133.200000000186265 ], [ 42567.224999999998545, 5922133.275000000372529 ], [ 42567.150000000001455, 5922133.275000000372529 ], [ 42567.150000000001455, 5922133.349999999627471 ], [ 42567.07499999999709, 5922133.349999999627471 ], [ 42567.07499999999709, 5922133.424999999813735 ], [ 42567.0, 5922133.424999999813735 ], [ 42567.0, 5922133.5 ], [ 42566.92500000000291, 5922133.5 ], [ 42566.92500000000291, 5922133.575000000186265 ], [ 42566.849999999998545, 5922133.575000000186265 ], [ 42566.849999999998545, 5922133.650000000372529 ], [ 42566.775000000001455, 5922133.650000000372529 ], [ 42566.775000000001455, 5922133.724999999627471 ], [ 42566.69999999999709, 5922133.724999999627471 ], [ 42566.69999999999709, 5922133.799999999813735 ], [ 42566.625, 5922133.799999999813735 ], [ 42566.625, 5922133.875 ], [ 42566.55000000000291, 5922133.875 ], [ 42566.55000000000291, 5922133.950000000186265 ], [ 42566.474999999998545, 5922133.950000000186265 ], [ 42566.474999999998545, 5922134.025000000372529 ], [ 42566.400000000001455, 5922134.025000000372529 ], [ 42566.400000000001455, 5922134.174999999813735 ], [ 42566.32499999999709, 5922134.174999999813735 ], [ 42566.32499999999709, 5922134.25 ], [ 42566.25, 5922134.25 ], [ 42566.25, 5922134.325000000186265 ], [ 42566.17500000000291, 5922134.325000000186265 ], [ 42566.17500000000291, 5922134.400000000372529 ], [ 42566.099999999998545, 5922134.400000000372529 ], [ 42566.099999999998545, 5922134.549999999813735 ], [ 42566.025000000001455, 5922134.549999999813735 ], [ 42566.025000000001455, 5922134.625 ], [ 42565.94999999999709, 5922134.625 ], [ 42565.94999999999709, 5922134.700000000186265 ], [ 42565.875, 5922134.700000000186265 ], [ 42565.875, 5922134.849999999627471 ], [ 42565.80000000000291, 5922134.849999999627471 ], [ 42565.80000000000291, 5922134.924999999813735 ], [ 42565.724999999998545, 5922134.924999999813735 ], [ 42565.724999999998545, 5922135.075000000186265 ], [ 42565.650000000001455, 5922135.075000000186265 ], [ 42565.650000000001455, 5922135.150000000372529 ], [ 42565.57499999999709, 5922135.150000000372529 ], [ 42565.57499999999709, 5922135.224999999627471 ], [ 42565.5, 5922135.224999999627471 ], [ 42565.5, 5922135.299999999813735 ], [ 42565.42500000000291, 5922135.299999999813735 ], [ 42565.42500000000291, 5922135.375 ], [ 42565.275000000001455, 5922135.375 ], [ 42565.275000000001455, 5922135.450000000186265 ], [ 42565.19999999999709, 5922135.450000000186265 ], [ 42565.19999999999709, 5922135.525000000372529 ], [ 42565.05000000000291, 5922135.525000000372529 ], [ 42565.05000000000291, 5922135.599999999627471 ], [ 42564.974999999998545, 5922135.599999999627471 ], [ 42564.974999999998545, 5922135.674999999813735 ], [ 42564.75, 5922135.674999999813735 ], [ 42564.75, 5922135.75 ], [ 42564.525000000001455, 5922135.75 ], [ 42564.525000000001455, 5922135.825000000186265 ], [ 42564.30000000000291, 5922135.825000000186265 ], [ 42564.30000000000291, 5922135.900000000372529 ], [ 42564.07499999999709, 5922135.900000000372529 ], [ 42564.07499999999709, 5922135.974999999627471 ], [ 42563.775000000001455, 5922135.974999999627471 ], [ 42563.775000000001455, 5922136.049999999813735 ], [ 42563.400000000001455, 5922136.049999999813735 ], [ 42563.400000000001455, 5922136.125 ], [ 42563.099999999998545, 5922136.125 ], [ 42563.099999999998545, 5922136.200000000186265 ], [ 42561.900000000001455, 5922136.200000000186265 ] ] ] } },
{ "type": "Feature", "properties": { "value": 1.0, "building_id": 1, "area": 12.538125000058287 }, "geometry": { "type": "Polygon", "coordinates": [ [ [ 42240.44999999999709, 5921842.724999999627471 ], [ 42240.44999999999709, 5921842.650000000372529 ], [ 42240.30000000000291, 5921842.650000000372529 ], [ 42240.30000000000291, 5921842.575000000186265 ], [ 42240.07499999999709, 5921842.575000000186265 ], [ 42240.07499999999709, 5921842.5 ], [ 42239.92500000000291, 5921842.5 ], [ 42239.92500000000291, 5921842.424999999813735 ], [ 42239.849999999998545, 5921842.424999999813735 ], [ 42239.849999999998545, 5921842.349999999627471 ], [ 42239.69999999999709, 5921842.349999999627471 ], [ 42239.69999999999709, 5921842.275000000372529 ], [ 42239.55000000000291, 5921842.275000000372529 ], [ 42239.55000000000291, 5921842.200000000186265 ], [ 42239.474999999998545, 5921842.200000000186265 ], [ 42239.474999999998545, 5921842.125 ], [ 42239.32499999999709, 5921842.125 ], [ 42239.32499999999709, 5921841.75 ], [ 42239.25, 5921841.75 ], [ 42239.25, 5921841.599999999627471 ], [ 42239.32499999999709, 5921841.599999999627471 ], [ 42239.32499999999709, 5921841.150000000372529 ], [ 42239.400000000001455, 5921841.150000000372529 ], [ 42239.400000000001455, 5921840.700000000186265 ], [ 42239.474999999998545, 5921840.700000000186265 ], [ 42239.474999999998545, 5921840.325000000186265 ], [ 42239.55000000000291, 5921840.325000000186265 ], [ 42239.55000000000291, 5921839.875 ], [ 42239.625, 5921839.875 ], [ 42239.625, 5921839.650000000372529 ], [ 42239.69999999999709, 5921839.650000000372529 ], [ 42239.69999999999709, 5921839.575000000186265 ], [ 42239.775000000001455, 5921839.575000000186265 ], [ 42239.775000000001455, 5921839.424999999813735 ], [ 42239.849999999998545, 5921839.424999999813735 ], [ 42239.849999999998545, 5921839.349999999627471 ], [ 42239.92500000000291, 5921839.349999999627471 ], [ 42239.92500000000291, 5921839.275000000372529 ], [ 42240.0, 5921839.275000000372529 ], [ 42240.0, 5921839.200000000186265 ], [ 42240.07499999999709, 5921839.200000000186265 ], [ 42240.07499999999709, 5921839.125 ], [ 42240.150000000001455, 5921839.125 ], [ 42240.150000000001455, 5921839.049999999813735 ], [ 42240.224999999998545, 5921839.049999999813735 ], [ 42240.224999999998545, 5921838.974999999627471 ], [ 42240.30000000000291, 5921838.974999999627471 ], [ 42240.30000000000291, 5921838.900000000372529 ], [ 42240.44999999999709, 5921838.900000000372529 ], [ 42240.44999999999709, 5921838.825000000186265 ], [ 42240.525000000001455, 5921838.825000000186265 ], [ 42240.525000000001455, 5921838.75 ], [ 42240.75, 5921838.75 ], [ 42240.75, 5921838.674999999813735 ], [ 42241.05000000000291, 5921838.674999999813735 ], [ 42241.05000000000291, 5921838.599999999627471 ], [ 42241.349999999998545, 5921838.599999999627471 ], [ 42241.349999999998545, 5921838.525000000372529 ], [ 42241.650000000001455, 5921838.525000000372529 ], [ 42241.650000000001455, 5921838.450000000186265 ], [ 42241.94999999999709, 5921838.450000000186265 ], [ 42241.94999999999709, 5921838.375 ], [ 42242.17500000000291, 5921838.375 ], [ 42242.17500000000291, 5921838.299999999813735 ], [ 42242.474999999998545, 5921838.299999999813735 ], [ 42242.474999999998545, 5921838.224999999627471 ], [ 42242.69999999999709, 5921838.224999999627471 ], [ 42242.69999999999709, 5921838.375 ], [ 42242.775000000001455, 5921838.375 ], [ 42242.775000000001455, 5921838.75 ], [ 42242.849999999998545, 5921838.75 ], [ 42242.849999999998545, 5921839.049999999813735 ], [ 42242.92500000000291, 5921839.049999999813735 ], [ 42242.92500000000291, 5921839.424999999813735 ], [ 42243.0, 5921839.424999999813735 ], [ 42243.0, 5921840.099999999627471 ], [ 42242.92500000000291, 5921840.099999999627471 ], [ 42242.92500000000291, 5921840.549999999813735 ], [ 42242.849999999998545, 5921840.549999999813735 ], [ 42242.849999999998545, 5921840.924999999813735 ], [ 42242.775000000001455, 5921840.924999999813735 ], [ 42242.775000000001455, 5921841.299999999813735 ], [ 42242.69999999999709, 5921841.299999999813735 ], [ 42242.69999999999709, 5921841.599999999627471 ], [ 42242.625, 5921841.599999999627471 ], [ 42242.625, 5921841.825000000186265 ], [ 42242.55000000000291, 5921841.825000000186265 ], [ 42242.55000000000291, 5921841.900000000372529 ], [ 42242.474999999998545, 5921841.900000000372529 ], [ 42242.474999999998545, 5921841.974999999627471 ], [ 42242.400000000001455, 5921841.974999999627471 ], [ 42242.400000000001455, 5921842.049999999813735 ], [ 42242.32499999999709, 5921842.049999999813735 ], [ 42242.32499999999709, 5921842.125 ], [ 42242.25, 5921842.125 ], [ 42242.25, 5921842.200000000186265 ], [ 42242.099999999998545, 5921842.200000000186265 ], [ 42242.099999999998545, 5921842.275000000372529 ], [ 42241.94999999999709, 5921842.275000000372529 ], [ 42241.94999999999709, 5921842.349999999627471 ], [ 42241.80000000000291, 5921842.349999999627471 ], [ 42241.80000000000291, 5921842.424999999813735 ], [ 42241.650000000001455, 5921842.424999999813735 ], [ 42241.650000000001455, 5921842.5 ], [ 42241.42500000000291, 5921842.5 ], [ 42241.42500000000291, 5921842.575000000186265 ], [ 42241.19999999999709, 5921842.575000000186265 ], [ 42241.19999999999709, 5921842.650000000372529 ], [ 42240.900000000001455, 5921842.650000000372529 ], [ 42240.900000000001455, 5921842.724999999627471 ], [ 42240.44999999999709, 5921842.724999999627471 ] ] ] } }
]
}
