{
"type": "FeatureCollection",
"name": "42933E594807N_buildings",
"crs": { "type": "name", "properties": { "name": "urn:ogc:def:crs:EPSG::3776" } },
"features": [
{ "type": "Feature", "properties": { "value": 1.0, "building_id": 0, "area": 17.54437500047629 }, "geometry": { "type": "Polygon", "coordinates": [ [ [ 43609.57499999999709, 5948491.5 ], [ 43609.57499999999709, 5948491.424999999813735 ], [ 43608.974999999998545, 5948491.424999999813735 ], [ 43608.974999999998545, 5948491.349999999627471 ], [ 43608.224999999998545, 5948491.349999999627471 ], [ 43608.224999999998545, 5948491.275000000372529 ], [ 43607.775000000001455, 5948491.275000000372529 ], [ 43607.775000000001455, 5948491.200000000186265 ], [ 43607.625, 5948491.200000000186265 ], [ 43607.625, 5948491.125 ], [ 43607.474999999998545, 5948491.125 ], [ 43607.474999999998545, 5948491.049999999813735 ], [ 43607.400000000001455, 5948491.049999999813735 ], [ 43607.400000000001455, 5948490.974999999627471 ], [ 43607.32499999999709, 5948490.974999999627471 ], [ 43607.32499999999709, 5948490.900000000372529 ], [ 43607.17500000000291, 5948490.900000000372529 ], [ 43607.17500000000291, 5948490.825000000186265 ], [ 43607.099999999998545, 5948490.825000000186265 ], [ 43607.099999999998545, 5948490.75 ], [ 43607.025000000001455, 5948490.75 ], [ 43607.025000000001455, 5948490.674999999813735 ], [ 43606.94999999999709, 5948490.674999999813735 ], [ 43606.94999999999709, 5948490.525000000372529 ], [ 43606.875, 5948490.525000000372529 ], [ 43606.875, 5948490.450000000186265 ], [ 43606.80000000000291, 5948490.450000000186265 ], [ 43606.80000000000291, 5948490.375 ], [ 43606.724999999998545, 5948490.375 ], [ 43606.724999999998545, 5948490.224999999627471 ], [ 43606.650000000001455, 5948490.224999999627471 ], [ 43606.650000000001455, 5948489.099999999627471 ], [ 43606.724999999998545, 5948489.099999999627471 ], [ 43606.724999999998545, 5948488.200000000186265 ], [ 43606.80000000000291, 5948488.200000000186265 ], [ 43606.80000000000291, 5948488.049999999813735 ], [ 43606.875, 5948488.049999999813735 ], [ 43606.875, 5948487.974999999627471 ], [ 43606.94999999999709, 5948487.974999999627471 ], [ 43606.94999999999709, 5948487.900000000372529 ], [ 43607.025000000001455, 5948487.900000000372529 ], [ 43607.025000000001455, 5948487.825000000186265 ], [ 43607.099999999998545, 5948487.825000000186265 ], [ 43607.099999999998545, 5948487.75 ], [ 43607.17500000000291, 5948487.75 ], [ 43607.17500000000291, 5948487.674999999813735 ], [ 43607.25, 5948487.674999999813735 ], [ 43607.25, 5948487.599999999627471 ], [ 43607.32499999999709, 5948487.599999999627471 ], [ 43607.32499999999709, 5948487.525000000372529 ], [ 43607.400000000001455, 5948487.525000000372529 ], [ 43607.400000000001455, 5948487.450000000186265 ], [ 43607.55000000000291, 5948487.450000000186265 ], [ 43607.55000000000291, 5948487.375 ], [ 43607.625, 5948487.375 ], [ 43607.625, 5948487.299999999813735 ], [ 43607.775000000001455, 5948487.299999999813735 ], [ 43607.775000000001455, 5948487.224999999627471 ], [ 43609.57499999999709, 5948487.224999999627471 ], [ 43609.57499999999709, 5948487.150000000372529 ], [ 43609.80000000000291, 5948487.150000000372529 ], [ 43609.80000000000291, 5948487.224999999627471 ], [ 43609.94999999999709, 5948487.224999999627471 ], [ 43609.94999999999709, 5948487.299999999813735 ], [ 43610.099999999998545, 5948487.299999999813735 ], [ 43610.099999999998545, 5948487.375 ], [ 43610.25, 5948487.375 ], [ 43610.25, 5948487.450000000186265 ], [ 43610.32499999999709, 5948487.450000000186265 ], [ 43610.32499999999709, 5948487.525000000372529 ], [ 43610.474999999998545, 5948487.525000000372529 ], [ 43610.474999999998545, 5948487.599999999627471 ], [ 43610.55000000000291, 5948487.599999999627471 ], [ 43610.55000000000291, 5948487.674999999813735 ], [ 43610.69999999999709, 5948487.674999999813735 ], [ 43610.69999999999709, 5948487.75 ], [ 43610.775000000001455, 5948487.75 ], [ 43610.775000000001455, 5948487.825000000186265 ], [ 43610.849999999998545, 5948487.825000000186265 ], [ 43610.849999999998545, 5948487.900000000372529 ], [ 43610.92500000000291, 5948487.900000000372529 ], [ 43610.92500000000291, 5948487.974999999627471 ], [ 43611.0, 5948487.974999999627471 ], [ 43611.0, 5948488.125 ], [ 43611.07499999999709, 5948488.125 ], [ 43611.07499999999709, 5948488.200000000186265 ], [ 43611.150000000001455, 5948488.200000000186265 ], [ 43611.150000000001455, 5948488.5 ], [ 43611.224999999998545, 5948488.5 ], [ 43611.224999999998545, 5948488.650000000372529 ], [ 43611.30000000000291, 5948488.650000000372529 ], [ 43611.30000000000291, 5948488.875 ], [ 43611.375, 5948488.875 ], [ 43611.375, 5948489.099999999627471 ], [ 43611.44999999999709, 5948489.099999999627471 ], [ 43611.44999999999709, 5948489.25 ], [ 43611.525000000001455, 5948489.25 ], [ 43611.525000000001455, 5948489.474999999627471 ], [ 43611.599999999998545, 5948489.474999999627471 ], [ 43611.599999999998545, 5948489.625 ], [ 43611.67500000000291, 5948489.625 ], [ 43611.67500000000291, 5948489.775000000372529 ], [ 43611.75, 5948489.775000000372529 ], [ 43611.75, 5948489.924999999813735 ], [ 43611.82499999999709, 5948489.924999999813735 ], [ 43611.82499999999709, 5948490.0 ], [ 43611.900000000001455, 5948490.0 ], [ 43611.900000000001455, 5948490.224999999627471 ], [ 43611.82499999999709, 5948490.224999999627471 ], [ 43611.82499999999709, 5948490.299999999813735 ], [ 43611.67500000000291, 5948490.299999999813735 ], [ 43611.67500000000291, 5948490.375 ], [ 43611.599999999998545, 5948490.375 ], [ 43611.599999999998545, 5948490.450000000186265 ], [ 43611.525000000001455, 5948490.450000000186265 ], [ 43611.525000000001455, 5948490.525000000372529 ], [ 43611.44999999999709, 5948490.525000000372529 ], [ 43611.44999999999709, 5948490.599999999627471 ], [ 43611.375, 5948490.599999999627471 ], [ 43611.375, 5948490.674999999813735 ], [ 43611.30000000000291, 5948490.674999999813735 ], [ 43611.30000000000291, 5948490.75 ], [ 43611.150000000001455, 5948490.75 ], [ 43611.150000000001455, 5948490.825000000186265 ], [ 43611.07499999999709, 5948490.825000000186265 ], [ 43611.07499999999709, 5948490.900000000372529 ], [ 43610.92500000000291, 5948490.900000000372529 ], [ 43610.92500000000291, 5948490.974999999627471 ], [ 43610.849999999998545, 5948490.974999999627471 ], [ 43610.849999999998545, 5948491.049999999813735 ], [ 43610.69999999999709, 5948491.049999999813735 ], [ 43610.69999999999709, 5948491.125 ], [ 43610.55000000000291, 5948491.125 ], [ 43610.55000000000291, 5948491.200000000186265 ], [ 43610.400000000001455, 5948491.200000000186265 ], [ 43610.400000000001455, 5948491.275000000372529 ], [ 43610.17500000000291, 5948491.275000000372529 ], [ 43610.17500000000291, 5948491.349999999627471 ], [ 43610.025000000001455, 5948491.349999999627471 ], [ 43610.025000000001455, 5948491.424999999813735 ], [ 43609.80000000000291, 5948491.424999999813735 ], [ 43609.80000000000291, 5948491.5 ], [ 43609.57499999999709, 5948491.5 ] ] ] } },
{ "type": "Feature", "properties": { "value": 1.0, "building_id": 1, "area": 165.75750000003637 }, "geometry": { "type": "Polygon", "coordinates": [ [ [ 43435.875, 5948350.650000000372529 ], [ 43435.875, 5948350.575000000186265 ], [ 43435.650000000001455, 5948350.575000000186265 ], [ 43435.650000000001455, 5948350.5 ], [ 43435.42500000000291, 5948350.5 ], [ 43435.42500000000291, 5948350.424999999813735 ], [ 43435.275000000001455, 5948350.424999999813735 ], [ 43435.275000000001455, 5948350.349999999627471 ], [ 43435.05000000000291, 5948350.349999999627471 ], [ 43435.05000000000291, 5948350.275000000372529 ], [ 43434.82499999999709, 5948350.275000000372529 ], [ 43434.82499999999709, 5948350.200000000186265 ], [ 43434.525000000001455, 5948350.200000000186265 ], [ 43434.525000000001455, 5948350.125 ], [ 43434.30000000000291, 5948350.125 ], [ 43434.30000000000291, 5948350.049999999813735 ], [ 43434.0, 5948350.049999999813735 ], [ 43434.0, 5948349.974999999627471 ], [ 43433.775000000001455, 5948349.974999999627471 ], [ 43433.775000000001455, 5948349.900000000372529 ], [ 43433.625, 5948349.900000000372529 ], [ 43433.625, 5948349.825000000186265 ], [ 43433.474999999998545, 5948349.825000000186265 ], [ 43433.474999999998545, 5948349.75 ], [ 43433.32499999999709, 5948349.75 ], [ 43433.32499999999709, 5948349.674999999813735 ], [ 43433.17500000000291, 5948349.674999999813735 ], [ 43433.17500000000291, 5948349.599999999627471 ], [ 43433.025000000001455, 5948349.599999999627471 ], [ 43433.025000000001455, 5948349.525000000372529 ], [ 43432.94999999999709, 5948349.525000000372529 ], [ 43432.94999999999709, 5948349.450000000186265 ], [ 43432.875, 5948349.450000000186265 ], [ 43432.875, 5948349.375 ], [ 43432.80000000000291, 5948349.375 ], [ 43432.80000000000291, 5948349.299999999813735 ], [ 43432.650000000001455, 5948349.299999999813735 ], [ 43432.650000000001455, 5948349.224999999627471 ], [ 43432.57499999999709, 5948349.224999999627471 ], [ 43432.57499999999709, 5948349.150000000372529 ], [ 43432.5, 5948349.150000000372529 ], [ 43432.5, 5948349.075000000186265 ], [ 43432.42500000000291, 5948349.075000000186265 ], [ 43432.42500000000291, 5948349.0 ], [ 43432.275000000001455, 5948349.0 ], [ 43432.275000000001455, 5948348.924999999813735 ], [ 43432.19999999999709, 5948348.924999999813735 ], [ 43432.19999999999709, 5948348.849999999627471 ], [ 43432.05000000000291, 5948348.849999999627471 ], [ 43432.05000000000291, 5948348.775000000372529 ], [ 43431.974999999998545, 5948348.775000000372529 ], [ 43431.974999999998545, 5948348.700000000186265 ], [ 43431.82499999999709, 5948348.700000000186265 ], [ 43431.82499999999709, 5948348.625 ], [ 43431.75, 5948348.625 ], [ 43431.75, 5948348.549999999813735 ], [ 43431.599999999998545, 5948348.549999999813735 ], [ 43431.599999999998545, 5948348.474999999627471 ], [ 43431.525000000001455, 5948348.474999999627471 ], [ 43431.525000000001455, 5948348.400000000372529 ], [ 43431.375, 5948348.400000000372529 ], [ 43431.375, 5948348.325000000186265 ], [ 43431.224999999998545, 5948348.325000000186265 ], [ 43431.224999999998545, 5948348.25 ], [ 43431.150000000001455, 5948348.25 ], [ 43431.150000000001455, 5948348.174999999813735 ], [ 43431.0, 5948348.174999999813735 ], [ 43431.0, 5948348.099999999627471 ], [ 43430.849999999998545, 5948348.099999999627471 ], [ 43430.849999999998545, 5948348.025000000372529 ], [ 43430.69999999999709, 5948348.025000000372529 ], [ 43430.69999999999709, 5948347.950000000186265 ], [ 43430.55000000000291, 5948347.950000000186265 ], [ 43430.55000000000291, 5948347.875 ], [ 43430.400000000001455, 5948347.875 ], [ 43430.400000000001455, 5948347.799999999813735 ], [ 43430.25, 5948347.799999999813735 ], [ 43430.25, 5948347.724999999627471 ], [ 43430.025000000001455, 5948347.724999999627471 ], [ 43430.025000000001455, 5948347.650000000372529 ], [ 43429.94999999999709, 5948347.650000000372529 ], [ 43429.94999999999709, 5948347.5 ], [ 43429.875, 5948347.5 ], [ 43429.875, 5948346.224999999627471 ], [ 43429.80000000000291, 5948346.224999999627471 ], [ 43429.80000000000291, 5948343.375 ], [ 43429.724999999998545, 5948343.375 ], [ 43429.724999999998545, 5948341.575000000186265 ], [ 43429.80000000000291, 5948341.575000000186265 ], [ 43429.80000000000291, 5948341.125 ], [ 43429.875, 5948341.125 ], [ 43429.875, 5948340.674999999813735 ], [ 43429.94999999999709, 5948340.674999999813735 ], [ 43429.94999999999709, 5948340.224999999627471 ], [ 43430.025000000001455, 5948340.224999999627471 ], [ 43430.025000000001455, 5948339.775000000372529 ], [ 43430.099999999998545, 5948339.775000000372529 ], [ 43430.099999999998545, 5948339.700000000186265 ], [ 43430.17500000000291, 5948339.700000000186265 ], [ 43430.17500000000291, 5948339.625 ], [ 43430.25, 5948339.625 ], [ 43430.25, 5948339.549999999813735 ], [ 43430.400000000001455, 5948339.549999999813735 ], [ 43430.400000000001455, 5948339.474999999627471 ], [ 43430.474999999998545, 5948339.474999999627471 ], [ 43430.474999999998545, 5948339.400000000372529 ], [ 43430.55000000000291, 5948339.400000000372529 ], [ 43430.55000000000291, 5948339.325000000186265 ], [ 43430.625, 5948339.325000000186265 ], [ 43430.625, 5948339.25 ], [ 43430.69999999999709, 5948339.25 ], [ 43430.69999999999709, 5948339.174999999813735 ], [ 43430.775000000001455, 5948339.174999999813735 ], [ 43430.775000000001455, 5948339.099999999627471 ], [ 43430.849999999998545, 5948339.099999999627471 ], [ 43430.849999999998545, 5948339.025000000372529 ], [ 43430.92500000000291, 5948339.025000000372529 ], [ 43430.92500000000291, 5948338.875 ], [ 43431.0, 5948338.875 ], [ 43431.0, 5948338.799999999813735 ], [ 43431.07499999999709, 5948338.799999999813735 ], [ 43431.07499999999709, 5948338.650000000372529 ], [ 43431.150000000001455, 5948338.650000000372529 ], [ 43431.150000000001455, 5948338.575000000186265 ], [ 43431.224999999998545, 5948338.575000000186265 ], [ 43431.224999999998545, 5948338.424999999813735 ], [ 43431.30000000000291, 5948338.424999999813735 ], [ 43431.30000000000291, 5948338.275000000372529 ], [ 43431.375, 5948338.275000000372529 ], [ 43431.375, 5948338.125 ], [ 43431.44999999999709, 5948338.125 ], [ 43431.44999999999709, 5948337.974999999627471 ], [ 43431.525000000001455, 5948337.974999999627471 ], [ 43431.525000000001455, 5948337.825000000186265 ], [ 43431.599999999998545, 5948337.825000000186265 ], [ 43431.599999999998545, 5948337.674999999813735 ], [ 43431.67500000000291, 5948337.674999999813735 ], [ 43431.67500000000291, 5948337.599999999627471 ], [ 43431.75, 5948337.599999999627471 ], [ 43431.75, 5948337.525000000372529 ], [ 43431.82499999999709, 5948337.525000000372529 ], [ 43431.82499999999709, 5948337.450000000186265 ], [ 43431.900000000001455, 5948337.450000000186265 ], [ 43431.900000000001455, 5948337.375 ], [ 43431.974999999998545, 5948337.375 ], [ 43431.974999999998545, 5948337.299999999813735 ], [ 43432.125, 5948337.299999999813735 ], [ 43432.125, 5948337.224999999627471 ], [ 43432.349999999998545, 5948337.224999999627471 ], [ 43432.349999999998545, 5948337.150000000372529 ], [ 43432.57499999999709, 5948337.150000000372529 ], [ 43432.57499999999709, 5948337.075000000186265 ], [ 43432.724999999998545, 5948337.075000000186265 ], [ 43432.724999999998545, 5948337.0 ], [ 43432.94999999999709, 5948337.0 ], [ 43432.94999999999709, 5948336.924999999813735 ], [ 43433.17500000000291, 5948336.924999999813735 ], [ 43433.17500000000291, 5948336.849999999627471 ], [ 43433.32499999999709, 5948336.849999999627471 ], [ 43433.32499999999709, 5948336.775000000372529 ], [ 43433.474999999998545, 5948336.775000000372529 ], [ 43433.474999999998545, 5948336.700000000186265 ], [ 43433.69999999999709, 5948336.700000000186265 ], [ 43433.69999999999709, 5948336.625 ], [ 43433.849999999998545, 5948336.625 ], [ 43433.849999999998545, 5948336.549999999813735 ], [ 43434.0, 5948336.549999999813735 ], [ 43434.0, 5948336.474999999627471 ], [ 43434.150000000001455, 5948336.474999999627471 ], [ 43434.150000000001455, 5948336.400000000372529 ], [ 43434.224999999998545, 5948336.400000000372529 ], [ 43434.224999999998545, 5948336.325000000186265 ], [ 43434.30000000000291, 5948336.325000000186265 ], [ 43434.30000000000291, 5948336.25 ], [ 43434.44999999999709, 5948336.25 ], [ 43434.44999999999709, 5948336.174999999813735 ], [ 43434.525000000001455, 5948336.174999999813735 ], [ 43434.525000000001455, 5948336.099999999627471 ], [ 43434.599999999998545, 5948336.099999999627471 ], [ 43434.599999999998545, 5948336.025000000372529 ], [ 43434.67500000000291, 5948336.025000000372529 ], [ 43434.67500000000291, 5948335.875 ], [ 43434.75, 5948335.875 ], [ 43434.75, 5948335.799999999813735 ], [ 43434.82499999999709, 5948335.799999999813735 ], [ 43434.82499999999709, 5948335.724999999627471 ], [ 43434.974999999998545, 5948335.724999999627471 ], [ 43434.974999999998545, 5948335.650000000372529 ], [ 43435.05000000000291, 5948335.650000000372529 ], [ 43435.05000000000291, 5948335.575000000186265 ], [ 43435.19999999999709, 5948335.575000000186265 ], [ 43435.19999999999709, 5948335.5 ], [ 43435.275000000001455, 5948335.5 ], [ 43435.275000000001455, 5948335.424999999813735 ], [ 43435.42500000000291, 5948335.424999999813735 ], [ 43435.42500000000291, 5948335.349999999627471 ], [ 43435.57499999999709, 5948335.349999999627471 ], [ 43435.57499999999709, 5948335.275000000372529 ], [ 43435.724999999998545, 5948335.275000000372529 ], [ 43435.724999999998545, 5948335.200000000186265 ], [ 43435.875, 5948335.200000000186265 ], [ 43435.875, 5948335.125 ], [ 43436.92500000000291, 5948335.125 ], [ 43436.92500000000291, 5948335.200000000186265 ], [ 43438.05000000000291, 5948335.200000000186265 ], [ 43438.05000000000291, 5948335.275000000372529 ], [ 43438.19999999999709, 5948335.275000000372529 ], [ 43438.19999999999709, 5948335.349999999627471 ], [ 43438.275000000001455, 5948335.349999999627471 ], [ 43438.275000000001455, 5948335.424999999813735 ], [ 43438.42500000000291, 5948335.424999999813735 ], [ 43438.42500000000291, 5948335.5 ], [ 43438.57499999999709, 5948335.5 ], [ 43438.57499999999709, 5948335.575000000186265 ], [ 43438.650000000001455, 5948335.575000000186265 ], [ 43438.650000000001455, 5948335.650000000372529 ], [ 43438.724999999998545, 5948335.650000000372529 ], [ 43438.724999999998545, 5948335.724999999627471 ], [ 43438.875, 5948335.724999999627471 ], [ 43438.875, 5948335.799999999813735 ], [ 43438.94999999999709, 5948335.799999999813735 ], [ 43438.94999999999709, 5948335.875 ], [ 43439.025000000001455, 5948335.875 ], [ 43439.025000000001455, 5948336.025000000372529 ], [ 43439.099999999998545, 5948336.025000000372529 ], [ 43439.099999999998545, 5948336.099999999627471 ], [ 43439.17500000000291, 5948336.099999999627471 ], [ 43439.17500000000291, 5948336.174999999813735 ], [ 43439.25, 5948336.174999999813735 ], [ 43439.25, 5948336.25 ], [ 43439.400000000001455, 5948336.25 ], [ 43439.400000000001455, 5948336.325000000186265 ], [ 43439.474999999998545, 5948336.325000000186265 ], [ 43439.474999999998545, 5948336.400000000372529 ], [ 43439.55000000000291, 5948336.400000000372529 ], [ 43439.55000000000291, 5948336.474999999627471 ], [ 43439.69999999999709, 5948336.474999999627471 ], [ 43439.69999999999709, 5948336.549999999813735 ], [ 43439.849999999998545, 5948336.549999999813735 ], [ 43439.849999999998545, 5948336.625 ], [ 43439.92500000000291, 5948336.625 ], [ 43439.92500000000291, 5948336.700000000186265 ], [ 43440.07499999999709, 5948336.700000000186265 ], [ 43440.07499999999709, 5948336.775000000372529 ], [ 43440.224999999998545, 5948336.775000000372529 ], [ 43440.224999999998545, 5948336.849999999627471 ], [ 43440.30000000000291, 5948336.849999999627471 ], [ 43440.30000000000291, 5948336.924999999813735 ], [ 43440.44999999999709, 5948336.924999999813735 ], [ 43440.44999999999709, 5948337.0 ], [ 43440.525000000001455, 5948337.0 ], [ 43440.525000000001455, 5948337.075000000186265 ], [ 43440.599999999998545, 5948337.075000000186265 ], [ 43440.599999999998545, 5948337.150000000372529 ], [ 43440.75, 5948337.150000000372529 ], [ 43440.75, 5948337.224999999627471 ], [ 43440.82499999999709, 5948337.224999999627471 ], [ 43440.82499999999709, 5948337.299999999813735 ], [ 43440.900000000001455, 5948337.299999999813735 ], [ 43440.900000000001455, 5948337.375 ], [ 43440.974999999998545, 5948337.375 ], [ 43440.974999999998545, 5948337.450000000186265 ], [ 43441.05000000000291, 5948337.450000000186265 ], [ 43441.05000000000291, 5948337.525000000372529 ], [ 43441.125, 5948337.525000000372529 ], [ 43441.125, 5948337.599999999627471 ], [ 43441.19999999999709, 5948337.599999999627471 ], [ 43441.19999999999709, 5948337.674999999813735 ], [ 43441.275000000001455, 5948337.674999999813735 ], [ 43441.275000000001455, 5948337.75 ], [ 43441.349999999998545, 5948337.75 ], [ 43441.349999999998545, 5948337.825000000186265 ], [ 43441.42500000000291, 5948337.825000000186265 ], [ 43441.42500000000291, 5948337.974999999627471 ], [ 43441.5, 5948337.974999999627471 ], [ 43441.5, 5948338.049999999813735 ], [ 43441.57499999999709, 5948338.049999999813735 ], [ 43441.57499999999709, 5948338.125 ], [ 43441.650000000001455, 5948338.125 ], [ 43441.650000000001455, 5948338.200000000186265 ], [ 43441.80000000000291, 5948338.200000000186265 ], [ 43441.80000000000291, 5948338.275000000372529 ], [ 43441.875, 5948338.275000000372529 ], [ 43441.875, 5948338.349999999627471 ], [ 43441.94999999999709, 5948338.349999999627471 ], [ 43441.94999999999709, 5948338.424999999813735 ], [ 43442.025000000001455, 5948338.424999999813735 ], [ 43442.025000000001455, 5948338.5 ], [ 43442.099999999998545, 5948338.5 ], [ 43442.099999999998545, 5948338.575000000186265 ], [ 43442.17500000000291, 5948338.575000000186265 ], [ 43442.17500000000291, 5948338.650000000372529 ], [ 43442.25, 5948338.650000000372529 ], [ 43442.25, 5948338.724999999627471 ], [ 43442.32499999999709, 5948338.724999999627471 ], [ 43442.32499999999709, 5948338.799999999813735 ], [ 43442.400000000001455, 5948338.799999999813735 ], [ 43442.400000000001455, 5948338.875 ], [ 43442.474999999998545, 5948338.875 ], [ 43442.474999999998545, 5948339.025000000372529 ], [ 43442.55000000000291, 5948339.025000000372529 ], [ 43442.55000000000291, 5948339.099999999627471 ], [ 43442.625, 5948339.099999999627471 ], [ 43442.625, 5948339.174999999813735 ], [ 43442.69999999999709, 5948339.174999999813735 ], [ 43442.69999999999709, 5948339.25 ], [ 43442.775000000001455, 5948339.25 ], [ 43442.775000000001455, 5948339.325000000186265 ], [ 43442.849999999998545, 5948339.325000000186265 ], [ 43442.849999999998545, 5948339.474999999627471 ], [ 43442.92500000000291, 5948339.474999999627471 ], [ 43442.92500000000291, 5948339.549999999813735 ], [ 43443.0, 5948339.549999999813735 ], [ 43443.0, 5948339.625 ], [ 43443.07499999999709, 5948339.625 ], [ 43443.07499999999709, 5948339.775000000372529 ], [ 43443.150000000001455, 5948339.775000000372529 ], [ 43443.150000000001455, 5948340.0 ], [ 43443.224999999998545, 5948340.0 ], [ 43443.224999999998545, 5948340.150000000372529 ], [ 43443.30000000000291, 5948340.150000000372529 ], [ 43443.30000000000291, 5948340.299999999813735 ], [ 43443.375, 5948340.299999999813735 ], [ 43443.375, 5948340.450000000186265 ], [ 43443.44999999999709, 5948340.450000000186265 ], [ 43443.44999999999709, 5948340.599999999627471 ], [ 43443.525000000001455, 5948340.599999999627471 ], [ 43443.525000000001455, 5948340.674999999813735 ], [ 43443.599999999998545, 5948340.674999999813735 ], [ 43443.599999999998545, 5948340.825000000186265 ], [ 43443.67500000000291, 5948340.825000000186265 ], [ 43443.67500000000291, 5948340.900000000372529 ], [ 43443.75, 5948340.900000000372529 ], [ 43443.75, 5948341.049999999813735 ], [ 43443.82499999999709, 5948341.049999999813735 ], [ 43443.82499999999709, 5948341.200000000186265 ], [ 43443.900000000001455, 5948341.200000000186265 ], [ 43443.900000000001455, 5948341.349999999627471 ], [ 43443.974999999998545, 5948341.349999999627471 ], [ 43443.974999999998545, 5948341.5 ], [ 43444.05000000000291, 5948341.5 ], [ 43444.05000000000291, 5948342.099999999627471 ], [ 43443.974999999998545, 5948342.099999999627471 ], [ 43443.974999999998545, 5948342.474999999627471 ], [ 43443.900000000001455, 5948342.474999999627471 ], [ 43443.900000000001455, 5948342.775000000372529 ], [ 43443.82499999999709, 5948342.775000000372529 ], [ 43443.82499999999709, 5948343.150000000372529 ], [ 43443.75, 5948343.150000000372529 ], [ 43443.75, 5948343.450000000186265 ], [ 43443.67500000000291, 5948343.450000000186265 ], [ 43443.67500000000291, 5948343.599999999627471 ], [ 43443.599999999998545, 5948343.599999999627471 ], [ 43443.599999999998545, 5948343.825000000186265 ], [ 43443.525000000001455, 5948343.825000000186265 ], [ 43443.525000000001455, 5948343.974999999627471 ], [ 43443.44999999999709, 5948343.974999999627471 ], [ 43443.44999999999709, 5948344.125 ], [ 43443.375, 5948344.125 ], [ 43443.375, 5948344.275000000372529 ], [ 43443.30000000000291, 5948344.275000000372529 ], [ 43443.30000000000291, 5948344.5 ], [ 43443.224999999998545, 5948344.5 ], [ 43443.224999999998545, 5948344.650000000372529 ], [ 43443.150000000001455, 5948344.650000000372529 ], [ 43443.150000000001455, 5948344.875 ], [ 43443.07499999999709, 5948344.875 ], [ 43443.07499999999709, 5948345.099999999627471 ], [ 43443.0, 5948345.099999999627471 ], [ 43443.0, 5948345.325000000186265 ], [ 43442.92500000000291, 5948345.325000000186265 ], [ 43442.92500000000291, 5948345.549999999813735 ], [ 43442.849999999998545, 5948345.549999999813735 ], [ 43442.849999999998545, 5948345.775000000372529 ], [ 43442.775000000001455, 5948345.775000000372529 ], [ 43442.775000000001455, 5948345.924999999813735 ], [ 43442.69999999999709, 5948345.924999999813735 ], [ 43442.69999999999709, 5948346.075000000186265 ], [ 43442.625, 5948346.075000000186265 ], [ 43442.625, 5948346.299999999813735 ], [ 43442.55000000000291, 5948346.299999999813735 ], [ 43442.55000000000291, 5948346.450000000186265 ], [ 43442.474999999998545, 5948346.450000000186265 ], [ 43442.474999999998545, 5948346.674999999813735 ], [ 43442.400000000001455, 5948346.674999999813735 ], [ 43442.400000000001455, 5948346.825000000186265 ], [ 43442.32499999999709, 5948346.825000000186265 ], [ 43442.32499999999709, 5948347.049999999813735 ], [ 43442.25, 5948347.049999999813735 ], [ 43442.25, 5948347.200000000186265 ], [ 43442.17500000000291, 5948347.200000000186265 ], [ 43442.17500000000291, 5948347.424999999813735 ], [ 43442.099999999998545, 5948347.424999999813735 ], [ 43442.099999999998545, 5948347.575000000186265 ], [ 43442.025000000001455, 5948347.575000000186265 ], [ 43442.025000000001455, 5948347.650000000372529 ], [ 43441.94999999999709, 5948347.650000000372529 ], [ 43441.94999999999709, 5948347.724999999627471 ], [ 43441.875, 5948347.724999999627471 ], [ 43441.875, 5948347.799999999813735 ], [ 43441.724999999998545, 5948347.799999999813735 ], [ 43441.724999999998545, 5948347.875 ], [ 43441.57499999999709, 5948347.875 ], [ 43441.57499999999709, 5948347.950000000186265 ], [ 43441.42500000000291, 5948347.950000000186265 ], [ 43441.42500000000291, 5948348.025000000372529 ], [ 43441.349999999998545, 5948348.025000000372529 ], [ 43441.349999999998545, 5948348.099999999627471 ], [ 43441.19999999999709, 5948348.099999999627471 ], [ 43441.19999999999709, 5948348.174999999813735 ], [ 43441.05000000000291, 5948348.174999999813735 ], [ 43441.05000000000291, 5948348.25 ], [ 43440.974999999998545, 5948348.25 ], [ 43440.974999999998545, 5948348.325000000186265 ], [ 43440.900000000001455, 5948348.325000000186265 ], [ 43440.900000000001455, 5948348.400000000372529 ], [ 43440.75, 5948348.400000000372529 ], [ 43440.75, 5948348.474999999627471 ], [ 43440.67500000000291, 5948348.474999999627471 ], [ 43440.67500000000291, 5948348.549999999813735 ], [ 43440.599999999998545, 5948348.549999999813735 ], [ 43440.599999999998545, 5948348.625 ], [ 43440.525000000001455, 5948348.625 ], [ 43440.525000000001455, 5948348.700000000186265 ], [ 43440.44999999999709, 5948348.700000000186265 ], [ 43440.44999999999709, 5948348.775000000372529 ], [ 43440.375, 5948348.775000000372529 ], [ 43440.375, 5948348.849999999627471 ], [ 43440.30000000000291, 5948348.849999999627471 ], [ 43440.30000000000291, 5948348.924999999813735 ], [ 43440.224999999998545, 5948348.924999999813735 ], [ 43440.224999999998545, 5948349.0 ], [ 43440.150000000001455, 5948349.0 ], [ 43440.150000000001455, 5948349.075000000186265 ], [ 43440.07499999999709, 5948349.075000000186265 ], [ 43440.07499999999709, 5948349.150000000372529 ], [ 43440.0, 5948349.150000000372529 ], [ 43440.0, 5948349.299999999813735 ], [ 43439.92500000000291, 5948349.299999999813735 ], [ 43439.92500000000291, 5948349.375 ], [ 43439.849999999998545, 5948349.375 ], [ 43439.849999999998545, 5948349.450000000186265 ], [ 43439.775000000001455, 5948349.450000000186265 ], [ 43439.775000000001455, 5948349.525000000372529 ], [ 43439.69999999999709, 5948349.525000000372529 ], [ 43439.69999999999709, 5948349.599999999627471 ], [ 43439.55000000000291, 5948349.599999999627471 ], [ 43439.55000000000291, 5948349.674999999813735 ], [ 43439.400000000001455, 5948349.674999999813735 ], [ 43439.400000000001455, 5948349.75 ], [ 43439.25, 5948349.75 ], [ 43439.25, 5948349.825000000186265 ], [ 43439.099999999998545, 5948349.825000000186265 ], [ 43439.099999999998545, 5948349.900000000372529 ], [ 43438.94999999999709, 5948349.900000000372529 ], [ 43438.94999999999709, 5948349.974999999627471 ], [ 43438.80000000000291, 5948349.974999999627471 ], [ 43438.80000000000291, 5948350.049999999813735 ], [ 43438.650000000001455, 5948350.049999999813735 ], [ 43438.650000000001455, 5948350.125 ], [ 43438.5, 5948350.125 ], [ 43438.5, 5948350.200000000186265 ], [ 43438.349999999998545, 5948350.200000000186265 ], [ 43438.349999999998545, 5948350.275000000372529 ], [ 43438.19999999999709, 5948350.275000000372529 ], [ 43438.19999999999709, 5948350.349999999627471 ], [ 43438.05000000000291, 5948350.349999999627471 ], [ 43438.05000000000291, 5948350.424999999813735 ], [ 43437.900000000001455, 5948350.424999999813735 ], [ 43437.900000000001455, 5948350.5 ], [ 43437.07499999999709, 5948350.5 ], [ 43437.07499999999709, 5948350.575000000186265 ], [ 43436.25, 5948350.575000000186265 ], [ 43436.25, 5948350.650000000372529 ], [ 43435.875, 5948350.650000000372529 ] ] ] } },
{ "type": "Feature", "properties": { "value": 1.0, "building_id": 2, "area": 359.60062499831486 }, "geometry": { "type": "Polygon", "coordinates": [ [ [ 43488.224999999998545, 5948282.625 ], [ 43488.224999999998545, 5948282.549999999813735 ], [ 43484.474999999998545, 5948282.549999999813735 ], [ 43484.474999999998545, 5948282.474999999627471 ], [ 43483.5, 5948282.474999999627471 ], [ 43483.5, 5948282.400000000372529 ], [ 43482.75, 5948282.400000000372529 ], [ 43482.75, 5948282.325000000186265 ], [ 43482.525000000001455, 5948282.325000000186265 ], [ 43482.525000000001455, 5948282.25 ], [ 43482.375, 5948282.25 ], [ 43482.375, 5948282.174999999813735 ], [ 43482.224999999998545, 5948282.174999999813735 ], [ 43482.224999999998545, 5948282.099999999627471 ], [ 43482.07499999999709, 5948282.099999999627471 ], [ 43482.07499999999709, 5948282.025000000372529 ], [ 43482.0, 5948282.025000000372529 ], [ 43482.0, 5948281.950000000186265 ], [ 43481.849999999998545, 5948281.950000000186265 ], [ 43481.849999999998545, 5948281.875 ], [ 43481.775000000001455, 5948281.875 ], [ 43481.775000000001455, 5948281.799999999813735 ], [ 43481.69999999999709, 5948281.799999999813735 ], [ 43481.69999999999709, 5948281.724999999627471 ], [ 43481.625, 5948281.724999999627471 ], [ 43481.625, 5948281.650000000372529 ], [ 43481.55000000000291, 5948281.650000000372529 ], [ 43481.55000000000291, 5948281.575000000186265 ], [ 43481.474999999998545, 5948281.575000000186265 ], [ 43481.474999999998545, 5948281.5 ], [ 43481.400000000001455, 5948281.5 ], [ 43481.400000000001455, 5948281.424999999813735 ], [ 43481.32499999999709, 5948281.424999999813735 ], [ 43481.32499999999709, 5948281.275000000372529 ], [ 43481.25, 5948281.275000000372529 ], [ 43481.25, 5948281.200000000186265 ], [ 43481.17500000000291, 5948281.200000000186265 ], [ 43481.17500000000291, 5948281.049999999813735 ], [ 43481.099999999998545, 5948281.049999999813735 ], [ 43481.099999999998545, 5948280.900000000372529 ], [ 43481.025000000001455, 5948280.900000000372529 ], [ 43481.025000000001455, 5948280.75 ], [ 43480.94999999999709, 5948280.75 ], [ 43480.94999999999709, 5948280.674999999813735 ], [ 43480.875, 5948280.674999999813735 ], [ 43480.875, 5948280.525000000372529 ], [ 43480.80000000000291, 5948280.525000000372529 ], [ 43480.80000000000291, 5948280.375 ], [ 43480.724999999998545, 5948280.375 ], [ 43480.724999999998545, 5948280.224999999627471 ], [ 43480.650000000001455, 5948280.224999999627471 ], [ 43480.650000000001455, 5948280.075000000186265 ], [ 43480.57499999999709, 5948280.075000000186265 ], [ 43480.57499999999709, 5948279.924999999813735 ], [ 43480.5, 5948279.924999999813735 ], [ 43480.5, 5948279.700000000186265 ], [ 43480.42500000000291, 5948279.700000000186265 ], [ 43480.42500000000291, 5948279.474999999627471 ], [ 43480.349999999998545, 5948279.474999999627471 ], [ 43480.349999999998545, 5948279.25 ], [ 43480.275000000001455, 5948279.25 ], [ 43480.275000000001455, 5948279.025000000372529 ], [ 43480.19999999999709, 5948279.025000000372529 ], [ 43480.19999999999709, 5948278.799999999813735 ], [ 43480.125, 5948278.799999999813735 ], [ 43480.125, 5948278.575000000186265 ], [ 43480.05000000000291, 5948278.575000000186265 ], [ 43480.05000000000291, 5948278.349999999627471 ], [ 43479.974999999998545, 5948278.349999999627471 ], [ 43479.974999999998545, 5948278.200000000186265 ], [ 43479.900000000001455, 5948278.200000000186265 ], [ 43479.900000000001455, 5948277.974999999627471 ], [ 43479.82499999999709, 5948277.974999999627471 ], [ 43479.82499999999709, 5948277.825000000186265 ], [ 43479.75, 5948277.825000000186265 ], [ 43479.75, 5948277.674999999813735 ], [ 43479.67500000000291, 5948277.674999999813735 ], [ 43479.67500000000291, 5948277.525000000372529 ], [ 43479.599999999998545, 5948277.525000000372529 ], [ 43479.599999999998545, 5948277.450000000186265 ], [ 43479.525000000001455, 5948277.450000000186265 ], [ 43479.525000000001455, 5948277.299999999813735 ], [ 43479.44999999999709, 5948277.299999999813735 ], [ 43479.44999999999709, 5948277.150000000372529 ], [ 43479.375, 5948277.150000000372529 ], [ 43479.375, 5948277.075000000186265 ], [ 43479.30000000000291, 5948277.075000000186265 ], [ 43479.30000000000291, 5948276.924999999813735 ], [ 43479.224999999998545, 5948276.924999999813735 ], [ 43479.224999999998545, 5948276.849999999627471 ], [ 43479.150000000001455, 5948276.849999999627471 ], [ 43479.150000000001455, 5948276.700000000186265 ], [ 43479.07499999999709, 5948276.700000000186265 ], [ 43479.07499999999709, 5948276.625 ], [ 43479.0, 5948276.625 ], [ 43479.0, 5948276.474999999627471 ], [ 43478.92500000000291, 5948276.474999999627471 ], [ 43478.92500000000291, 5948276.400000000372529 ], [ 43478.849999999998545, 5948276.400000000372529 ], [ 43478.849999999998545, 5948276.174999999813735 ], [ 43478.775000000001455, 5948276.174999999813735 ], [ 43478.775000000001455, 5948275.950000000186265 ], [ 43478.69999999999709, 5948275.950000000186265 ], [ 43478.69999999999709, 5948275.650000000372529 ], [ 43478.625, 5948275.650000000372529 ], [ 43478.625, 5948275.424999999813735 ], [ 43478.55000000000291, 5948275.424999999813735 ], [ 43478.55000000000291, 5948275.049999999813735 ], [ 43478.474999999998545, 5948275.049999999813735 ], [ 43478.474999999998545, 5948274.674999999813735 ], [ 43478.400000000001455, 5948274.674999999813735 ], [ 43478.400000000001455, 5948274.299999999813735 ], [ 43478.32499999999709, 5948274.299999999813735 ], [ 43478.32499999999709, 5948273.849999999627471 ], [ 43478.25, 5948273.849999999627471 ], [ 43478.25, 5948273.474999999627471 ], [ 43478.17500000000291, 5948273.474999999627471 ], [ 43478.17500000000291, 5948273.025000000372529 ], [ 43478.099999999998545, 5948273.025000000372529 ], [ 43478.099999999998545, 5948272.575000000186265 ], [ 43478.025000000001455, 5948272.575000000186265 ], [ 43478.025000000001455, 5948272.125 ], [ 43477.94999999999709, 5948272.125 ], [ 43477.94999999999709, 5948271.674999999813735 ], [ 43477.875, 5948271.674999999813735 ], [ 43477.875, 5948271.299999999813735 ], [ 43477.80000000000291, 5948271.299999999813735 ], [ 43477.80000000000291, 5948270.700000000186265 ], [ 43477.724999999998545, 5948270.700000000186265 ], [ 43477.724999999998545, 5948270.099999999627471 ], [ 43477.650000000001455, 5948270.099999999627471 ], [ 43477.650000000001455, 5948269.650000000372529 ], [ 43477.57499999999709, 5948269.650000000372529 ], [ 43477.57499999999709, 5948268.075000000186265 ], [ 43477.5, 5948268.075000000186265 ], [ 43477.5, 5948267.325000000186265 ], [ 43477.57499999999709, 5948267.325000000186265 ], [ 43477.57499999999709, 5948267.174999999813735 ], [ 43477.650000000001455, 5948267.174999999813735 ], [ 43477.650000000001455, 5948267.025000000372529 ], [ 43477.724999999998545, 5948267.025000000372529 ], [ 43477.724999999998545, 5948266.875 ], [ 43477.80000000000291, 5948266.875 ], [ 43477.80000000000291, 5948266.724999999627471 ], [ 43477.875, 5948266.724999999627471 ], [ 43477.875, 5948266.575000000186265 ], [ 43477.94999999999709, 5948266.575000000186265 ], [ 43477.94999999999709, 5948266.424999999813735 ], [ 43478.025000000001455, 5948266.424999999813735 ], [ 43478.025000000001455, 5948266.349999999627471 ], [ 43478.099999999998545, 5948266.349999999627471 ], [ 43478.099999999998545, 5948266.200000000186265 ], [ 43478.17500000000291, 5948266.200000000186265 ], [ 43478.17500000000291, 5948266.049999999813735 ], [ 43478.25, 5948266.049999999813735 ], [ 43478.25, 5948265.974999999627471 ], [ 43478.32499999999709, 5948265.974999999627471 ], [ 43478.32499999999709, 5948265.825000000186265 ], [ 43478.400000000001455, 5948265.825000000186265 ], [ 43478.400000000001455, 5948265.75 ], [ 43478.474999999998545, 5948265.75 ], [ 43478.474999999998545, 5948265.599999999627471 ], [ 43478.55000000000291, 5948265.599999999627471 ], [ 43478.55000000000291, 5948265.525000000372529 ], [ 43478.625, 5948265.525000000372529 ], [ 43478.625, 5948265.450000000186265 ], [ 43478.69999999999709, 5948265.450000000186265 ], [ 43478.69999999999709, 5948265.375 ], [ 43478.775000000001455, 5948265.375 ], [ 43478.775000000001455, 5948265.299999999813735 ], [ 43478.849999999998545, 5948265.299999999813735 ], [ 43478.849999999998545, 5948265.224999999627471 ], [ 43478.92500000000291, 5948265.224999999627471 ], [ 43478.92500000000291, 5948265.150000000372529 ], [ 43479.07499999999709, 5948265.150000000372529 ], [ 43479.07499999999709, 5948265.075000000186265 ], [ 43479.150000000001455, 5948265.075000000186265 ], [ 43479.150000000001455, 5948265.0 ], [ 43479.30000000000291, 5948265.0 ], [ 43479.30000000000291, 5948264.924999999813735 ], [ 43479.375, 5948264.924999999813735 ], [ 43479.375, 5948264.849999999627471 ], [ 43479.44999999999709, 5948264.849999999627471 ], [ 43479.44999999999709, 5948264.775000000372529 ], [ 43479.599999999998545, 5948264.775000000372529 ], [ 43479.599999999998545, 5948264.700000000186265 ], [ 43479.67500000000291, 5948264.700000000186265 ], [ 43479.67500000000291, 5948264.625 ], [ 43479.82499999999709, 5948264.625 ], [ 43479.82499999999709, 5948264.549999999813735 ], [ 43479.900000000001455, 5948264.549999999813735 ], [ 43479.900000000001455, 5948264.474999999627471 ], [ 43480.05000000000291, 5948264.474999999627471 ], [ 43480.05000000000291, 5948264.400000000372529 ], [ 43480.125, 5948264.400000000372529 ], [ 43480.125, 5948264.325000000186265 ], [ 43480.275000000001455, 5948264.325000000186265 ], [ 43480.275000000001455, 5948264.25 ], [ 43480.349999999998545, 5948264.25 ], [ 43480.349999999998545, 5948264.174999999813735 ], [ 43480.5, 5948264.174999999813735 ], [ 43480.5, 5948264.099999999627471 ], [ 43480.650000000001455, 5948264.099999999627471 ], [ 43480.650000000001455, 5948264.025000000372529 ], [ 43480.724999999998545, 5948264.025000000372529 ], [ 43480.724999999998545, 5948263.950000000186265 ], [ 43480.875, 5948263.950000000186265 ], [ 43480.875, 5948263.875 ], [ 43481.025000000001455, 5948263.875 ], [ 43481.025000000001455, 5948263.799999999813735 ], [ 43481.17500000000291, 5948263.799999999813735 ], [ 43481.17500000000291, 5948263.724999999627471 ], [ 43481.25, 5948263.724999999627471 ], [ 43481.25, 5948263.650000000372529 ], [ 43481.400000000001455, 5948263.650000000372529 ], [ 43481.400000000001455, 5948263.575000000186265 ], [ 43481.55000000000291, 5948263.575000000186265 ], [ 43481.55000000000291, 5948263.5 ], [ 43481.69999999999709, 5948263.5 ], [ 43481.69999999999709, 5948263.424999999813735 ], [ 43481.775000000001455, 5948263.424999999813735 ], [ 43481.775000000001455, 5948263.349999999627471 ], [ 43481.92500000000291, 5948263.349999999627471 ], [ 43481.92500000000291, 5948263.275000000372529 ], [ 43482.07499999999709, 5948263.275000000372529 ], [ 43482.07499999999709, 5948263.200000000186265 ], [ 43482.30000000000291, 5948263.200000000186265 ], [ 43482.30000000000291, 5948263.125 ], [ 43482.44999999999709, 5948263.125 ], [ 43482.44999999999709, 5948263.049999999813735 ], [ 43482.599999999998545, 5948263.049999999813735 ], [ 43482.599999999998545, 5948262.974999999627471 ], [ 43482.900000000001455, 5948262.974999999627471 ], [ 43482.900000000001455, 5948262.900000000372529 ], [ 43483.724999999998545, 5948262.900000000372529 ], [ 43483.724999999998545, 5948262.825000000186265 ], [ 43484.55000000000291, 5948262.825000000186265 ], [ 43484.55000000000291, 5948262.75 ], [ 43484.92500000000291, 5948262.75 ], [ 43484.92500000000291, 5948262.825000000186265 ], [ 43485.82499999999709, 5948262.825000000186265 ], [ 43485.82499999999709, 5948262.900000000372529 ], [ 43486.724999999998545, 5948262.900000000372529 ], [ 43486.724999999998545, 5948262.974999999627471 ], [ 43487.400000000001455, 5948262.974999999627471 ], [ 43487.400000000001455, 5948263.049999999813735 ], [ 43488.0, 5948263.049999999813735 ], [ 43488.0, 5948263.125 ], [ 43488.599999999998545, 5948263.125 ], [ 43488.599999999998545, 5948263.200000000186265 ], [ 43488.900000000001455, 5948263.200000000186265 ], [ 43488.900000000001455, 5948263.275000000372529 ], [ 43489.19999999999709, 5948263.275000000372529 ], [ 43489.19999999999709, 5948263.349999999627471 ], [ 43489.5, 5948263.349999999627471 ], [ 43489.5, 5948263.424999999813735 ], [ 43489.724999999998545, 5948263.424999999813735 ], [ 43489.724999999998545, 5948263.5 ], [ 43489.94999999999709, 5948263.5 ], [ 43489.94999999999709, 5948263.575000000186265 ], [ 43490.17500000000291, 5948263.575000000186265 ], [ 43490.17500000000291, 5948263.650000000372529 ], [ 43490.400000000001455, 5948263.650000000372529 ], [ 43490.400000000001455, 5948263.724999999627471 ], [ 43490.625, 5948263.724999999627471 ], [ 43490.625, 5948263.799999999813735 ], [ 43490.849999999998545, 5948263.799999999813735 ], [ 43490.849999999998545, 5948263.875 ], [ 43491.150000000001455, 5948263.875 ], [ 43491.150000000001455, 5948263.950000000186265 ], [ 43491.44999999999709, 5948263.950000000186265 ], [ 43491.44999999999709, 5948264.025000000372529 ], [ 43491.82499999999709, 5948264.025000000372529 ], [ 43491.82499999999709, 5948264.099999999627471 ], [ 43492.19999999999709, 5948264.099999999627471 ], [ 43492.19999999999709, 5948264.174999999813735 ], [ 43492.57499999999709, 5948264.174999999813735 ], [ 43492.57499999999709, 5948264.25 ], [ 43493.25, 5948264.25 ], [ 43493.25, 5948264.325000000186265 ], [ 43493.92500000000291, 5948264.325000000186265 ], [ 43493.92500000000291, 5948264.400000000372529 ], [ 43494.599999999998545, 5948264.400000000372529 ], [ 43494.599999999998545, 5948264.474999999627471 ], [ 43494.900000000001455, 5948264.474999999627471 ], [ 43494.900000000001455, 5948264.549999999813735 ], [ 43495.19999999999709, 5948264.549999999813735 ], [ 43495.19999999999709, 5948264.625 ], [ 43495.42500000000291, 5948264.625 ], [ 43495.42500000000291, 5948264.700000000186265 ], [ 43495.650000000001455, 5948264.700000000186265 ], [ 43495.650000000001455, 5948264.775000000372529 ], [ 43495.80000000000291, 5948264.775000000372529 ], [ 43495.80000000000291, 5948264.849999999627471 ], [ 43496.025000000001455, 5948264.849999999627471 ], [ 43496.025000000001455, 5948264.924999999813735 ], [ 43496.17500000000291, 5948264.924999999813735 ], [ 43496.17500000000291, 5948265.0 ], [ 43496.32499999999709, 5948265.0 ], [ 43496.32499999999709, 5948265.075000000186265 ], [ 43496.400000000001455, 5948265.075000000186265 ], [ 43496.400000000001455, 5948265.150000000372529 ], [ 43496.55000000000291, 5948265.150000000372529 ], [ 43496.55000000000291, 5948265.224999999627471 ], [ 43496.69999999999709, 5948265.224999999627471 ], [ 43496.69999999999709, 5948265.299999999813735 ], [ 43496.849999999998545, 5948265.299999999813735 ], [ 43496.849999999998545, 5948265.375 ], [ 43496.92500000000291, 5948265.375 ], [ 43496.92500000000291, 5948265.450000000186265 ], [ 43497.0, 5948265.450000000186265 ], [ 43497.0, 5948265.525000000372529 ], [ 43497.150000000001455, 5948265.525000000372529 ], [ 43497.150000000001455, 5948265.599999999627471 ], [ 43497.224999999998545, 5948265.599999999627471 ], [ 43497.224999999998545, 5948265.674999999813735 ], [ 43497.30000000000291, 5948265.674999999813735 ], [ 43497.30000000000291, 5948265.75 ], [ 43497.375, 5948265.75 ], [ 43497.375, 5948265.825000000186265 ], [ 43497.44999999999709, 5948265.825000000186265 ], [ 43497.44999999999709, 5948265.974999999627471 ], [ 43497.525000000001455, 5948265.974999999627471 ], [ 43497.525000000001455, 5948266.049999999813735 ], [ 43497.599999999998545, 5948266.049999999813735 ], [ 43497.599999999998545, 5948266.125 ], [ 43497.67500000000291, 5948266.125 ], [ 43497.67500000000291, 5948266.275000000372529 ], [ 43497.75, 5948266.275000000372529 ], [ 43497.75, 5948266.349999999627471 ], [ 43497.82499999999709, 5948266.349999999627471 ], [ 43497.82499999999709, 5948266.424999999813735 ], [ 43497.900000000001455, 5948266.424999999813735 ], [ 43497.900000000001455, 5948266.575000000186265 ], [ 43497.974999999998545, 5948266.575000000186265 ], [ 43497.974999999998545, 5948266.650000000372529 ], [ 43498.05000000000291, 5948266.650000000372529 ], [ 43498.05000000000291, 5948266.799999999813735 ], [ 43498.125, 5948266.799999999813735 ], [ 43498.125, 5948266.875 ], [ 43498.19999999999709, 5948266.875 ], [ 43498.19999999999709, 5948266.950000000186265 ], [ 43498.275000000001455, 5948266.950000000186265 ], [ 43498.275000000001455, 5948267.099999999627471 ], [ 43498.349999999998545, 5948267.099999999627471 ], [ 43498.349999999998545, 5948267.174999999813735 ], [ 43498.42500000000291, 5948267.174999999813735 ], [ 43498.42500000000291, 5948267.325000000186265 ], [ 43498.5, 5948267.325000000186265 ], [ 43498.5, 5948267.474999999627471 ], [ 43498.57499999999709, 5948267.474999999627471 ], [ 43498.57499999999709, 5948267.625 ], [ 43498.650000000001455, 5948267.625 ], [ 43498.650000000001455, 5948267.775000000372529 ], [ 43498.724999999998545, 5948267.775000000372529 ], [ 43498.724999999998545, 5948267.924999999813735 ], [ 43498.80000000000291, 5948267.924999999813735 ], [ 43498.80000000000291, 5948268.150000000372529 ], [ 43498.875, 5948268.150000000372529 ], [ 43498.875, 5948268.299999999813735 ], [ 43498.94999999999709, 5948268.299999999813735 ], [ 43498.94999999999709, 5948268.450000000186265 ], [ 43499.025000000001455, 5948268.450000000186265 ], [ 43499.025000000001455, 5948268.674999999813735 ], [ 43499.099999999998545, 5948268.674999999813735 ], [ 43499.099999999998545, 5948268.900000000372529 ], [ 43499.17500000000291, 5948268.900000000372529 ], [ 43499.17500000000291, 5948269.125 ], [ 43499.25, 5948269.125 ], [ 43499.25, 5948269.349999999627471 ], [ 43499.32499999999709, 5948269.349999999627471 ], [ 43499.32499999999709, 5948269.724999999627471 ], [ 43499.400000000001455, 5948269.724999999627471 ], [ 43499.400000000001455, 5948270.25 ], [ 43499.474999999998545, 5948270.25 ], [ 43499.474999999998545, 5948270.775000000372529 ], [ 43499.55000000000291, 5948270.775000000372529 ], [ 43499.55000000000291, 5948271.150000000372529 ], [ 43499.625, 5948271.150000000372529 ], [ 43499.625, 5948271.825000000186265 ], [ 43499.55000000000291, 5948271.825000000186265 ], [ 43499.55000000000291, 5948272.575000000186265 ], [ 43499.474999999998545, 5948272.575000000186265 ], [ 43499.474999999998545, 5948273.25 ], [ 43499.400000000001455, 5948273.25 ], [ 43499.400000000001455, 5948273.924999999813735 ], [ 43499.32499999999709, 5948273.924999999813735 ], [ 43499.32499999999709, 5948274.450000000186265 ], [ 43499.25, 5948274.450000000186265 ], [ 43499.25, 5948275.049999999813735 ], [ 43499.17500000000291, 5948275.049999999813735 ], [ 43499.17500000000291, 5948275.575000000186265 ], [ 43499.099999999998545, 5948275.575000000186265 ], [ 43499.099999999998545, 5948276.025000000372529 ], [ 43499.025000000001455, 5948276.025000000372529 ], [ 43499.025000000001455, 5948276.474999999627471 ], [ 43498.94999999999709, 5948276.474999999627471 ], [ 43498.94999999999709, 5948276.924999999813735 ], [ 43498.875, 5948276.924999999813735 ], [ 43498.875, 5948277.299999999813735 ], [ 43498.80000000000291, 5948277.299999999813735 ], [ 43498.80000000000291, 5948277.450000000186265 ], [ 43498.724999999998545, 5948277.450000000186265 ], [ 43498.724999999998545, 5948277.599999999627471 ], [ 43498.650000000001455, 5948277.599999999627471 ], [ 43498.650000000001455, 5948277.75 ], [ 43498.57499999999709, 5948277.75 ], [ 43498.57499999999709, 5948277.900000000372529 ], [ 43498.5, 5948277.900000000372529 ], [ 43498.5, 5948278.049999999813735 ], [ 43498.42500000000291, 5948278.049999999813735 ], [ 43498.42500000000291, 5948278.125 ], [ 43498.349999999998545, 5948278.125 ], [ 43498.349999999998545, 5948278.275000000372529 ], [ 43498.275000000001455, 5948278.275000000372529 ], [ 43498.275000000001455, 5948278.424999999813735 ], [ 43498.19999999999709, 5948278.424999999813735 ], [ 43498.19999999999709, 5948278.5 ], [ 43498.125, 5948278.5 ], [ 43498.125, 5948278.650000000372529 ], [ 43498.05000000000291, 5948278.650000000372529 ], [ 43498.05000000000291, 5948278.799999999813735 ], [ 43497.974999999998545, 5948278.799999999813735 ], [ 43497.974999999998545, 5948278.950000000186265 ], [ 43497.900000000001455, 5948278.950000000186265 ], [ 43497.900000000001455, 5948279.099999999627471 ], [ 43497.82499999999709, 5948279.099999999627471 ], [ 43497.82499999999709, 5948279.25 ], [ 43497.75, 5948279.25 ], [ 43497.75, 5948279.325000000186265 ], [ 43497.67500000000291, 5948279.325000000186265 ], [ 43497.67500000000291, 5948279.400000000372529 ], [ 43497.599999999998545, 5948279.400000000372529 ], [ 43497.599999999998545, 5948279.474999999627471 ], [ 43497.525000000001455, 5948279.474999999627471 ], [ 43497.525000000001455, 5948279.625 ], [ 43497.44999999999709, 5948279.625 ], [ 43497.44999999999709, 5948279.700000000186265 ], [ 43497.30000000000291, 5948279.700000000186265 ], [ 43497.30000000000291, 5948279.775000000372529 ], [ 43497.224999999998545, 5948279.775000000372529 ], [ 43497.224999999998545, 5948279.849999999627471 ], [ 43497.150000000001455, 5948279.849999999627471 ], [ 43497.150000000001455, 5948279.924999999813735 ], [ 43497.07499999999709, 5948279.924999999813735 ], [ 43497.07499999999709, 5948280.0 ], [ 43496.92500000000291, 5948280.0 ], [ 43496.92500000000291, 5948280.075000000186265 ], [ 43496.849999999998545, 5948280.075000000186265 ], [ 43496.849999999998545, 5948280.150000000372529 ], [ 43496.69999999999709, 5948280.150000000372529 ], [ 43496.69999999999709, 5948280.224999999627471 ], [ 43496.55000000000291, 5948280.224999999627471 ], [ 43496.55000000000291, 5948280.299999999813735 ], [ 43496.400000000001455, 5948280.299999999813735 ], [ 43496.400000000001455, 5948280.375 ], [ 43496.099999999998545, 5948280.375 ], [ 43496.099999999998545, 5948280.450000000186265 ], [ 43495.80000000000291, 5948280.450000000186265 ], [ 43495.80000000000291, 5948280.525000000372529 ], [ 43495.5, 5948280.525000000372529 ], [ 43495.5, 5948280.599999999627471 ], [ 43495.19999999999709, 5948280.599999999627471 ], [ 43495.19999999999709, 5948280.674999999813735 ], [ 43494.900000000001455, 5948280.674999999813735 ], [ 43494.900000000001455, 5948280.75 ], [ 43494.599999999998545, 5948280.75 ], [ 43494.599999999998545, 5948280.825000000186265 ], [ 43494.375, 5948280.825000000186265 ], [ 43494.375, 5948280.900000000372529 ], [ 43494.224999999998545, 5948280.900000000372529 ], [ 43494.224999999998545, 5948280.974999999627471 ], [ 43494.07499999999709, 5948280.974999999627471 ], [ 43494.07499999999709, 5948281.049999999813735 ], [ 43493.92500000000291, 5948281.049999999813735 ], [ 43493.92500000000291, 5948281.125 ], [ 43493.849999999998545, 5948281.125 ], [ 43493.849999999998545, 5948281.200000000186265 ], [ 43493.775000000001455, 5948281.200000000186265 ], [ 43493.775000000001455, 5948281.349999999627471 ], [ 43493.69999999999709, 5948281.349999999627471 ], [ 43493.69999999999709, 5948281.424999999813735 ], [ 43493.625, 5948281.424999999813735 ], [ 43493.625, 5948281.5 ], [ 43493.55000000000291, 5948281.5 ], [ 43493.55000000000291, 5948281.575000000186265 ], [ 43493.474999999998545, 5948281.575000000186265 ], [ 43493.474999999998545, 5948281.650000000372529 ], [ 43493.400000000001455, 5948281.650000000372529 ], [ 43493.400000000001455, 5948281.724999999627471 ], [ 43493.32499999999709, 5948281.724999999627471 ], [ 43493.32499999999709, 5948281.799999999813735 ], [ 43493.25, 5948281.799999999813735 ], [ 43493.25, 5948281.875 ], [ 43493.099999999998545, 5948281.875 ], [ 43493.099999999998545, 5948281.950000000186265 ], [ 43493.025000000001455, 5948281.950000000186265 ], [ 43493.025000000001455, 5948282.025000000372529 ], [ 43492.875, 5948282.025000000372529 ], [ 43492.875, 5948282.099999999627471 ], [ 43492.724999999998545, 5948282.099999999627471 ], [ 43492.724999999998545, 5948282.174999999813735 ], [ 43492.57499999999709, 5948282.174999999813735 ], [ 43492.57499999999709, 5948282.25 ], [ 43492.349999999998545, 5948282.25 ], [ 43492.349999999998545, 5948282.325000000186265 ], [ 43491.974999999998545, 5948282.325000000186265 ], [ 43491.974999999998545, 5948282.400000000372529 ], [ 43491.599999999998545, 5948282.400000000372529 ], [ 43491.599999999998545, 5948282.474999999627471 ], [ 43491.150000000001455, 5948282.474999999627471 ], [ 43491.150000000001455, 5948282.549999999813735 ], [ 43489.80000000000291, 5948282.549999999813735 ], [ 43489.80000000000291, 5948282.625 ], [ 43488.224999999998545, 5948282.625 ] ] ] } }
]
}
