{
"type": "FeatureCollection",
"name": "42933E591882N_buildings",
"crs": { "type": "name", "properties": { "name": "urn:ogc:def:crs:EPSG::3776" } },
"features": [
{ "type": "Feature", "properties": { "value": 1.0, "building_id": 0, "area": 121.54499999941264 }, "geometry": { "type": "Polygon", "coordinates": [ [ [ 43020.75, 5919550.125 ], [ 43020.75, 5919550.049999999813735 ], [ 43020.224999999998545, 5919550.049999999813735 ], [ 43020.224999999998545, 5919549.974999999627471 ], [ 43019.775000000001455, 5919549.974999999627471 ], [ 43019.775000000001455, 5919549.900000000372529 ], [ 43019.400000000001455, 5919549.900000000372529 ], [ 43019.400000000001455, 5919549.825000000186265 ], [ 43019.025000000001455, 5919549.825000000186265 ], [ 43019.025000000001455, 5919549.75 ], [ 43018.650000000001455, 5919549.75 ], [ 43018.650000000001455, 5919549.674999999813735 ], [ 43018.275000000001455, 5919549.674999999813735 ], [ 43018.275000000001455, 5919549.599999999627471 ], [ 43017.900000000001455, 5919549.599999999627471 ], [ 43017.900000000001455, 5919549.525000000372529 ], [ 43017.599999999998545, 5919549.525000000372529 ], [ 43017.599999999998545, 5919549.450000000186265 ], [ 43017.30000000000291, 5919549.450000000186265 ], [ 43017.30000000000291, 5919549.375 ], [ 43017.0, 5919549.375 ], [ 43017.0, 5919549.299999999813735 ], [ 43016.69999999999709, 5919549.299999999813735 ], [ 43016.69999999999709, 5919549.224999999627471 ], [ 43016.474999999998545, 5919549.224999999627471 ], [ 43016.474999999998545, 5919549.150000000372529 ], [ 43016.17500000000291, 5919549.150000000372529 ], [ 43016.17500000000291, 5919549.075000000186265 ], [ 43015.94999999999709, 5919549.075000000186265 ], [ 43015.94999999999709, 5919549.0 ], [ 43015.875, 5919549.0 ], [ 43015.875, 5919548.924999999813735 ], [ 43015.80000000000291, 5919548.924999999813735 ], [ 43015.80000000000291, 5919548.849999999627471 ], [ 43015.724999999998545, 5919548.849999999627471 ], [ 43015.724999999998545, 5919548.775000000372529 ], [ 43015.650000000001455, 5919548.775000000372529 ], [ 43015.650000000001455, 5919548.700000000186265 ], [ 43015.5, 5919548.700000000186265 ], [ 43015.5, 5919548.625 ], [ 43015.42500000000291, 5919548.625 ], [ 43015.42500000000291, 5919548.549999999813735 ], [ 43015.275000000001455, 5919548.549999999813735 ], [ 43015.275000000001455, 5919548.474999999627471 ], [ 43015.125, 5919548.474999999627471 ], [ 43015.125, 5919548.400000000372529 ], [ 43014.974999999998545, 5919548.400000000372529 ], [ 43014.974999999998545, 5919548.325000000186265 ], [ 43014.900000000001455, 5919548.325000000186265 ], [ 43014.900000000001455, 5919548.25 ], [ 43014.75, 5919548.25 ], [ 43014.75, 5919548.174999999813735 ], [ 43014.599999999998545, 5919548.174999999813735 ], [ 43014.599999999998545, 5919548.099999999627471 ], [ 43014.44999999999709, 5919548.099999999627471 ], [ 43014.44999999999709, 5919548.025000000372529 ], [ 43014.30000000000291, 5919548.025000000372529 ], [ 43014.30000000000291, 5919547.950000000186265 ], [ 43014.224999999998545, 5919547.950000000186265 ], [ 43014.224999999998545, 5919547.875 ], [ 43014.07499999999709, 5919547.875 ], [ 43014.07499999999709, 5919547.799999999813735 ], [ 43013.92500000000291, 5919547.799999999813735 ], [ 43013.92500000000291, 5919547.724999999627471 ], [ 43013.849999999998545, 5919547.724999999627471 ], [ 43013.849999999998545, 5919547.650000000372529 ], [ 43013.775000000001455, 5919547.650000000372529 ], [ 43013.775000000001455, 5919547.575000000186265 ], [ 43013.69999999999709, 5919547.575000000186265 ], [ 43013.69999999999709, 5919547.5 ], [ 43013.625, 5919547.5 ], [ 43013.625, 5919547.424999999813735 ], [ 43013.55000000000291, 5919547.424999999813735 ], [ 43013.55000000000291, 5919547.349999999627471 ], [ 43013.474999999998545, 5919547.349999999627471 ], [ 43013.474999999998545, 5919547.275000000372529 ], [ 43013.400000000001455, 5919547.275000000372529 ], [ 43013.400000000001455, 5919547.200000000186265 ], [ 43013.32499999999709, 5919547.200000000186265 ], [ 43013.32499999999709, 5919547.049999999813735 ], [ 43013.25, 5919547.049999999813735 ], [ 43013.25, 5919546.974999999627471 ], [ 43013.17500000000291, 5919546.974999999627471 ], [ 43013.17500000000291, 5919546.825000000186265 ], [ 43013.099999999998545, 5919546.825000000186265 ], [ 43013.099999999998545, 5919546.674999999813735 ], [ 43013.025000000001455, 5919546.674999999813735 ], [ 43013.025000000001455, 5919546.599999999627471 ], [ 43012.94999999999709, 5919546.599999999627471 ], [ 43012.94999999999709, 5919546.450000000186265 ], [ 43012.875, 5919546.450000000186265 ], [ 43012.875, 5919546.375 ], [ 43012.80000000000291, 5919546.375 ], [ 43012.80000000000291, 5919546.224999999627471 ], [ 43012.724999999998545, 5919546.224999999627471 ], [ 43012.724999999998545, 5919546.150000000372529 ], [ 43012.650000000001455, 5919546.150000000372529 ], [ 43012.650000000001455, 5919546.075000000186265 ], [ 43012.57499999999709, 5919546.075000000186265 ], [ 43012.57499999999709, 5919545.924999999813735 ], [ 43012.5, 5919545.924999999813735 ], [ 43012.5, 5919545.849999999627471 ], [ 43012.42500000000291, 5919545.849999999627471 ], [ 43012.42500000000291, 5919545.775000000372529 ], [ 43012.349999999998545, 5919545.775000000372529 ], [ 43012.349999999998545, 5919545.700000000186265 ], [ 43012.275000000001455, 5919545.700000000186265 ], [ 43012.275000000001455, 5919545.625 ], [ 43012.19999999999709, 5919545.625 ], [ 43012.19999999999709, 5919545.549999999813735 ], [ 43012.125, 5919545.549999999813735 ], [ 43012.125, 5919545.474999999627471 ], [ 43012.05000000000291, 5919545.474999999627471 ], [ 43012.05000000000291, 5919545.400000000372529 ], [ 43011.974999999998545, 5919545.400000000372529 ], [ 43011.974999999998545, 5919545.325000000186265 ], [ 43011.900000000001455, 5919545.325000000186265 ], [ 43011.900000000001455, 5919545.25 ], [ 43011.82499999999709, 5919545.25 ], [ 43011.82499999999709, 5919545.099999999627471 ], [ 43011.75, 5919545.099999999627471 ], [ 43011.75, 5919545.025000000372529 ], [ 43011.67500000000291, 5919545.025000000372529 ], [ 43011.67500000000291, 5919544.950000000186265 ], [ 43011.599999999998545, 5919544.950000000186265 ], [ 43011.599999999998545, 5919544.799999999813735 ], [ 43011.525000000001455, 5919544.799999999813735 ], [ 43011.525000000001455, 5919544.575000000186265 ], [ 43011.44999999999709, 5919544.575000000186265 ], [ 43011.44999999999709, 5919544.275000000372529 ], [ 43011.375, 5919544.275000000372529 ], [ 43011.375, 5919543.900000000372529 ], [ 43011.30000000000291, 5919543.900000000372529 ], [ 43011.30000000000291, 5919543.599999999627471 ], [ 43011.224999999998545, 5919543.599999999627471 ], [ 43011.224999999998545, 5919543.224999999627471 ], [ 43011.150000000001455, 5919543.224999999627471 ], [ 43011.150000000001455, 5919542.625 ], [ 43011.224999999998545, 5919542.625 ], [ 43011.224999999998545, 5919542.325000000186265 ], [ 43011.30000000000291, 5919542.325000000186265 ], [ 43011.30000000000291, 5919542.025000000372529 ], [ 43011.375, 5919542.025000000372529 ], [ 43011.375, 5919541.799999999813735 ], [ 43011.44999999999709, 5919541.799999999813735 ], [ 43011.44999999999709, 5919541.575000000186265 ], [ 43011.525000000001455, 5919541.575000000186265 ], [ 43011.525000000001455, 5919541.349999999627471 ], [ 43011.599999999998545, 5919541.349999999627471 ], [ 43011.599999999998545, 5919541.125 ], [ 43011.67500000000291, 5919541.125 ], [ 43011.67500000000291, 5919540.974999999627471 ], [ 43011.75, 5919540.974999999627471 ], [ 43011.75, 5919540.75 ], [ 43011.82499999999709, 5919540.75 ], [ 43011.82499999999709, 5919540.599999999627471 ], [ 43011.900000000001455, 5919540.599999999627471 ], [ 43011.900000000001455, 5919540.450000000186265 ], [ 43011.974999999998545, 5919540.450000000186265 ], [ 43011.974999999998545, 5919540.299999999813735 ], [ 43012.05000000000291, 5919540.299999999813735 ], [ 43012.05000000000291, 5919540.224999999627471 ], [ 43012.125, 5919540.224999999627471 ], [ 43012.125, 5919540.075000000186265 ], [ 43012.19999999999709, 5919540.075000000186265 ], [ 43012.19999999999709, 5919539.924999999813735 ], [ 43012.275000000001455, 5919539.924999999813735 ], [ 43012.275000000001455, 5919539.775000000372529 ], [ 43012.349999999998545, 5919539.775000000372529 ], [ 43012.349999999998545, 5919539.625 ], [ 43012.42500000000291, 5919539.625 ], [ 43012.42500000000291, 5919539.474999999627471 ], [ 43012.5, 5919539.474999999627471 ], [ 43012.5, 5919539.25 ], [ 43012.57499999999709, 5919539.25 ], [ 43012.57499999999709, 5919539.099999999627471 ], [ 43012.650000000001455, 5919539.099999999627471 ], [ 43012.650000000001455, 5919538.875 ], [ 43012.724999999998545, 5919538.875 ], [ 43012.724999999998545, 5919538.724999999627471 ], [ 43012.80000000000291, 5919538.724999999627471 ], [ 43012.80000000000291, 5919538.5 ], [ 43012.875, 5919538.5 ], [ 43012.875, 5919538.349999999627471 ], [ 43012.94999999999709, 5919538.349999999627471 ], [ 43012.94999999999709, 5919538.200000000186265 ], [ 43013.025000000001455, 5919538.200000000186265 ], [ 43013.025000000001455, 5919538.049999999813735 ], [ 43013.099999999998545, 5919538.049999999813735 ], [ 43013.099999999998545, 5919537.900000000372529 ], [ 43013.17500000000291, 5919537.900000000372529 ], [ 43013.17500000000291, 5919537.75 ], [ 43013.25, 5919537.75 ], [ 43013.25, 5919537.599999999627471 ], [ 43013.32499999999709, 5919537.599999999627471 ], [ 43013.32499999999709, 5919537.450000000186265 ], [ 43013.400000000001455, 5919537.450000000186265 ], [ 43013.400000000001455, 5919537.375 ], [ 43013.474999999998545, 5919537.375 ], [ 43013.474999999998545, 5919537.224999999627471 ], [ 43013.55000000000291, 5919537.224999999627471 ], [ 43013.55000000000291, 5919537.150000000372529 ], [ 43013.625, 5919537.150000000372529 ], [ 43013.625, 5919537.0 ], [ 43013.69999999999709, 5919537.0 ], [ 43013.69999999999709, 5919536.924999999813735 ], [ 43013.775000000001455, 5919536.924999999813735 ], [ 43013.775000000001455, 5919536.849999999627471 ], [ 43013.849999999998545, 5919536.849999999627471 ], [ 43013.849999999998545, 5919536.775000000372529 ], [ 43013.92500000000291, 5919536.775000000372529 ], [ 43013.92500000000291, 5919536.700000000186265 ], [ 43014.0, 5919536.700000000186265 ], [ 43014.0, 5919536.625 ], [ 43014.224999999998545, 5919536.625 ], [ 43014.224999999998545, 5919536.549999999813735 ], [ 43014.375, 5919536.549999999813735 ], [ 43014.375, 5919536.474999999627471 ], [ 43014.525000000001455, 5919536.474999999627471 ], [ 43014.525000000001455, 5919536.400000000372529 ], [ 43014.75, 5919536.400000000372529 ], [ 43014.75, 5919536.325000000186265 ], [ 43014.974999999998545, 5919536.325000000186265 ], [ 43014.974999999998545, 5919536.25 ], [ 43015.125, 5919536.25 ], [ 43015.125, 5919536.174999999813735 ], [ 43015.349999999998545, 5919536.174999999813735 ], [ 43015.349999999998545, 5919536.099999999627471 ], [ 43015.57499999999709, 5919536.099999999627471 ], [ 43015.57499999999709, 5919536.025000000372529 ], [ 43015.80000000000291, 5919536.025000000372529 ], [ 43015.80000000000291, 5919535.950000000186265 ], [ 43017.375, 5919535.950000000186265 ], [ 43017.375, 5919536.099999999627471 ], [ 43017.44999999999709, 5919536.099999999627471 ], [ 43017.44999999999709, 5919536.25 ], [ 43017.525000000001455, 5919536.25 ], [ 43017.525000000001455, 5919536.474999999627471 ], [ 43017.599999999998545, 5919536.474999999627471 ], [ 43017.599999999998545, 5919536.700000000186265 ], [ 43017.67500000000291, 5919536.700000000186265 ], [ 43017.67500000000291, 5919537.0 ], [ 43017.75, 5919537.0 ], [ 43017.75, 5919537.150000000372529 ], [ 43017.82499999999709, 5919537.150000000372529 ], [ 43017.82499999999709, 5919537.224999999627471 ], [ 43017.900000000001455, 5919537.224999999627471 ], [ 43017.900000000001455, 5919537.375 ], [ 43017.974999999998545, 5919537.375 ], [ 43017.974999999998545, 5919537.525000000372529 ], [ 43018.05000000000291, 5919537.525000000372529 ], [ 43018.05000000000291, 5919537.599999999627471 ], [ 43018.125, 5919537.599999999627471 ], [ 43018.125, 5919537.674999999813735 ], [ 43018.19999999999709, 5919537.674999999813735 ], [ 43018.19999999999709, 5919537.825000000186265 ], [ 43018.275000000001455, 5919537.825000000186265 ], [ 43018.275000000001455, 5919537.900000000372529 ], [ 43018.349999999998545, 5919537.900000000372529 ], [ 43018.349999999998545, 5919537.974999999627471 ], [ 43018.42500000000291, 5919537.974999999627471 ], [ 43018.42500000000291, 5919538.049999999813735 ], [ 43018.5, 5919538.049999999813735 ], [ 43018.5, 5919538.200000000186265 ], [ 43018.57499999999709, 5919538.200000000186265 ], [ 43018.57499999999709, 5919538.275000000372529 ], [ 43018.650000000001455, 5919538.275000000372529 ], [ 43018.650000000001455, 5919538.349999999627471 ], [ 43018.724999999998545, 5919538.349999999627471 ], [ 43018.724999999998545, 5919538.424999999813735 ], [ 43018.80000000000291, 5919538.424999999813735 ], [ 43018.80000000000291, 5919538.5 ], [ 43018.875, 5919538.5 ], [ 43018.875, 5919538.575000000186265 ], [ 43018.94999999999709, 5919538.575000000186265 ], [ 43018.94999999999709, 5919538.650000000372529 ], [ 43019.025000000001455, 5919538.650000000372529 ], [ 43019.025000000001455, 5919538.724999999627471 ], [ 43019.099999999998545, 5919538.724999999627471 ], [ 43019.099999999998545, 5919538.799999999813735 ], [ 43019.17500000000291, 5919538.799999999813735 ], [ 43019.17500000000291, 5919538.875 ], [ 43019.25, 5919538.875 ], [ 43019.25, 5919538.950000000186265 ], [ 43019.32499999999709, 5919538.950000000186265 ], [ 43019.32499999999709, 5919539.025000000372529 ], [ 43019.400000000001455, 5919539.025000000372529 ], [ 43019.400000000001455, 5919539.25 ], [ 43019.474999999998545, 5919539.25 ], [ 43019.474999999998545, 5919539.474999999627471 ], [ 43019.55000000000291, 5919539.474999999627471 ], [ 43019.55000000000291, 5919539.700000000186265 ], [ 43019.625, 5919539.700000000186265 ], [ 43019.625, 5919539.849999999627471 ], [ 43019.69999999999709, 5919539.849999999627471 ], [ 43019.69999999999709, 5919540.0 ], [ 43019.775000000001455, 5919540.0 ], [ 43019.775000000001455, 5919540.150000000372529 ], [ 43019.849999999998545, 5919540.150000000372529 ], [ 43019.849999999998545, 5919540.299999999813735 ], [ 43019.92500000000291, 5919540.299999999813735 ], [ 43019.92500000000291, 5919540.375 ], [ 43020.0, 5919540.375 ], [ 43020.0, 5919540.450000000186265 ], [ 43020.150000000001455, 5919540.450000000186265 ], [ 43020.150000000001455, 5919540.525000000372529 ], [ 43020.375, 5919540.525000000372529 ], [ 43020.375, 5919540.599999999627471 ], [ 43020.525000000001455, 5919540.599999999627471 ], [ 43020.525000000001455, 5919540.674999999813735 ], [ 43020.82499999999709, 5919540.674999999813735 ], [ 43020.82499999999709, 5919540.75 ], [ 43021.05000000000291, 5919540.75 ], [ 43021.05000000000291, 5919540.825000000186265 ], [ 43021.349999999998545, 5919540.825000000186265 ], [ 43021.349999999998545, 5919540.900000000372529 ], [ 43021.57499999999709, 5919540.900000000372529 ], [ 43021.57499999999709, 5919540.974999999627471 ], [ 43021.650000000001455, 5919540.974999999627471 ], [ 43021.650000000001455, 5919541.200000000186265 ], [ 43021.724999999998545, 5919541.200000000186265 ], [ 43021.724999999998545, 5919541.424999999813735 ], [ 43021.80000000000291, 5919541.424999999813735 ], [ 43021.80000000000291, 5919541.575000000186265 ], [ 43021.875, 5919541.575000000186265 ], [ 43021.875, 5919541.724999999627471 ], [ 43021.94999999999709, 5919541.724999999627471 ], [ 43021.94999999999709, 5919541.875 ], [ 43022.025000000001455, 5919541.875 ], [ 43022.025000000001455, 5919542.025000000372529 ], [ 43022.099999999998545, 5919542.025000000372529 ], [ 43022.099999999998545, 5919542.099999999627471 ], [ 43022.17500000000291, 5919542.099999999627471 ], [ 43022.17500000000291, 5919542.174999999813735 ], [ 43022.25, 5919542.174999999813735 ], [ 43022.25, 5919542.25 ], [ 43022.32499999999709, 5919542.25 ], [ 43022.32499999999709, 5919542.325000000186265 ], [ 43022.474999999998545, 5919542.325000000186265 ], [ 43022.474999999998545, 5919542.400000000372529 ], [ 43022.55000000000291, 5919542.400000000372529 ], [ 43022.55000000000291, 5919542.474999999627471 ], [ 43022.69999999999709, 5919542.474999999627471 ], [ 43022.69999999999709, 5919542.549999999813735 ], [ 43022.849999999998545, 5919542.549999999813735 ], [ 43022.849999999998545, 5919542.625 ], [ 43023.07499999999709, 5919542.625 ], [ 43023.07499999999709, 5919542.700000000186265 ], [ 43023.375, 5919542.700000000186265 ], [ 43023.375, 5919542.775000000372529 ], [ 43023.75, 5919542.775000000372529 ], [ 43023.75, 5919542.849999999627471 ], [ 43023.82499999999709, 5919542.849999999627471 ], [ 43023.82499999999709, 5919543.075000000186265 ], [ 43023.900000000001455, 5919543.075000000186265 ], [ 43023.900000000001455, 5919543.900000000372529 ], [ 43023.974999999998545, 5919543.900000000372529 ], [ 43023.974999999998545, 5919545.474999999627471 ], [ 43023.900000000001455, 5919545.474999999627471 ], [ 43023.900000000001455, 5919546.900000000372529 ], [ 43023.82499999999709, 5919546.900000000372529 ], [ 43023.82499999999709, 5919547.049999999813735 ], [ 43023.75, 5919547.049999999813735 ], [ 43023.75, 5919547.125 ], [ 43023.67500000000291, 5919547.125 ], [ 43023.67500000000291, 5919547.200000000186265 ], [ 43023.599999999998545, 5919547.200000000186265 ], [ 43023.599999999998545, 5919547.275000000372529 ], [ 43023.525000000001455, 5919547.275000000372529 ], [ 43023.525000000001455, 5919547.349999999627471 ], [ 43023.44999999999709, 5919547.349999999627471 ], [ 43023.44999999999709, 5919547.424999999813735 ], [ 43023.375, 5919547.424999999813735 ], [ 43023.375, 5919547.575000000186265 ], [ 43023.30000000000291, 5919547.575000000186265 ], [ 43023.30000000000291, 5919547.650000000372529 ], [ 43023.224999999998545, 5919547.650000000372529 ], [ 43023.224999999998545, 5919547.799999999813735 ], [ 43023.150000000001455, 5919547.799999999813735 ], [ 43023.150000000001455, 5919547.950000000186265 ], [ 43023.07499999999709, 5919547.950000000186265 ], [ 43023.07499999999709, 5919548.099999999627471 ], [ 43023.0, 5919548.099999999627471 ], [ 43023.0, 5919548.25 ], [ 43022.92500000000291, 5919548.25 ], [ 43022.92500000000291, 5919548.400000000372529 ], [ 43022.849999999998545, 5919548.400000000372529 ], [ 43022.849999999998545, 5919548.549999999813735 ], [ 43022.775000000001455, 5919548.549999999813735 ], [ 43022.775000000001455, 5919548.849999999627471 ], [ 43022.69999999999709, 5919548.849999999627471 ], [ 43022.69999999999709, 5919549.299999999813735 ], [ 43022.625, 5919549.299999999813735 ], [ 43022.625, 5919549.525000000372529 ], [ 43022.55000000000291, 5919549.525000000372529 ], [ 43022.55000000000291, 5919549.75 ], [ 43022.474999999998545, 5919549.75 ], [ 43022.474999999998545, 5919549.900000000372529 ], [ 43022.25, 5919549.900000000372529 ], [ 43022.25, 5919549.974999999627471 ], [ 43022.025000000001455, 5919549.974999999627471 ], [ 43022.025000000001455, 5919550.049999999813735 ], [ 43021.650000000001455, 5919550.049999999813735 ], [ 43021.650000000001455, 5919550.125 ], [ 43020.75, 5919550.125 ] ] ] } },
{ "type": "Feature", "properties": { "value": 1.0, "building_id": 1, "area": 143.57812500056042 }, "geometry": { "type": "Polygon", "coordinates": [ [ [ 43552.94999999999709, 5919343.424999999813735 ], [ 43552.94999999999709, 5919343.349999999627471 ], [ 43552.80000000000291, 5919343.349999999627471 ], [ 43552.80000000000291, 5919343.275000000372529 ], [ 43552.57499999999709, 5919343.275000000372529 ], [ 43552.57499999999709, 5919343.200000000186265 ], [ 43552.349999999998545, 5919343.200000000186265 ], [ 43552.349999999998545, 5919343.125 ], [ 43552.05000000000291, 5919343.125 ], [ 43552.05000000000291, 5919343.049999999813735 ], [ 43551.82499999999709, 5919343.049999999813735 ], [ 43551.82499999999709, 5919342.974999999627471 ], [ 43551.525000000001455, 5919342.974999999627471 ], [ 43551.525000000001455, 5919342.900000000372529 ], [ 43551.224999999998545, 5919342.900000000372529 ], [ 43551.224999999998545, 5919342.825000000186265 ], [ 43550.849999999998545, 5919342.825000000186265 ], [ 43550.849999999998545, 5919342.75 ], [ 43550.474999999998545, 5919342.75 ], [ 43550.474999999998545, 5919342.674999999813735 ], [ 43550.099999999998545, 5919342.674999999813735 ], [ 43550.099999999998545, 5919342.599999999627471 ], [ 43549.650000000001455, 5919342.599999999627471 ], [ 43549.650000000001455, 5919342.525000000372529 ], [ 43549.125, 5919342.525000000372529 ], [ 43549.125, 5919342.450000000186265 ], [ 43548.599999999998545, 5919342.450000000186265 ], [ 43548.599999999998545, 5919342.375 ], [ 43548.07499999999709, 5919342.375 ], [ 43548.07499999999709, 5919342.299999999813735 ], [ 43547.55000000000291, 5919342.299999999813735 ], [ 43547.55000000000291, 5919342.224999999627471 ], [ 43547.17500000000291, 5919342.224999999627471 ], [ 43547.17500000000291, 5919342.150000000372529 ], [ 43547.025000000001455, 5919342.150000000372529 ], [ 43547.025000000001455, 5919342.075000000186265 ], [ 43546.875, 5919342.075000000186265 ], [ 43546.875, 5919342.0 ], [ 43546.724999999998545, 5919342.0 ], [ 43546.724999999998545, 5919341.924999999813735 ], [ 43546.650000000001455, 5919341.924999999813735 ], [ 43546.650000000001455, 5919341.849999999627471 ], [ 43546.5, 5919341.849999999627471 ], [ 43546.5, 5919341.775000000372529 ], [ 43546.42500000000291, 5919341.775000000372529 ], [ 43546.42500000000291, 5919341.700000000186265 ], [ 43546.349999999998545, 5919341.700000000186265 ], [ 43546.349999999998545, 5919341.625 ], [ 43546.275000000001455, 5919341.625 ], [ 43546.275000000001455, 5919341.474999999627471 ], [ 43546.19999999999709, 5919341.474999999627471 ], [ 43546.19999999999709, 5919341.25 ], [ 43546.125, 5919341.25 ], [ 43546.125, 5919341.099999999627471 ], [ 43546.05000000000291, 5919341.099999999627471 ], [ 43546.05000000000291, 5919340.950000000186265 ], [ 43545.974999999998545, 5919340.950000000186265 ], [ 43545.974999999998545, 5919340.799999999813735 ], [ 43545.900000000001455, 5919340.799999999813735 ], [ 43545.900000000001455, 5919340.724999999627471 ], [ 43545.82499999999709, 5919340.724999999627471 ], [ 43545.82499999999709, 5919340.575000000186265 ], [ 43545.75, 5919340.575000000186265 ], [ 43545.75, 5919340.5 ], [ 43545.67500000000291, 5919340.5 ], [ 43545.67500000000291, 5919340.349999999627471 ], [ 43545.599999999998545, 5919340.349999999627471 ], [ 43545.599999999998545, 5919340.275000000372529 ], [ 43545.525000000001455, 5919340.275000000372529 ], [ 43545.525000000001455, 5919340.200000000186265 ], [ 43545.44999999999709, 5919340.200000000186265 ], [ 43545.44999999999709, 5919340.049999999813735 ], [ 43545.375, 5919340.049999999813735 ], [ 43545.375, 5919339.974999999627471 ], [ 43545.30000000000291, 5919339.974999999627471 ], [ 43545.30000000000291, 5919339.825000000186265 ], [ 43545.224999999998545, 5919339.825000000186265 ], [ 43545.224999999998545, 5919339.599999999627471 ], [ 43545.30000000000291, 5919339.599999999627471 ], [ 43545.30000000000291, 5919339.450000000186265 ], [ 43545.375, 5919339.450000000186265 ], [ 43545.375, 5919339.375 ], [ 43545.44999999999709, 5919339.375 ], [ 43545.44999999999709, 5919339.299999999813735 ], [ 43545.525000000001455, 5919339.299999999813735 ], [ 43545.525000000001455, 5919339.150000000372529 ], [ 43545.599999999998545, 5919339.150000000372529 ], [ 43545.599999999998545, 5919339.075000000186265 ], [ 43545.67500000000291, 5919339.075000000186265 ], [ 43545.67500000000291, 5919338.924999999813735 ], [ 43545.75, 5919338.924999999813735 ], [ 43545.75, 5919338.775000000372529 ], [ 43545.82499999999709, 5919338.775000000372529 ], [ 43545.82499999999709, 5919338.625 ], [ 43545.900000000001455, 5919338.625 ], [ 43545.900000000001455, 5919338.474999999627471 ], [ 43545.974999999998545, 5919338.474999999627471 ], [ 43545.974999999998545, 5919338.25 ], [ 43546.05000000000291, 5919338.25 ], [ 43546.05000000000291, 5919338.099999999627471 ], [ 43546.125, 5919338.099999999627471 ], [ 43546.125, 5919337.799999999813735 ], [ 43546.19999999999709, 5919337.799999999813735 ], [ 43546.19999999999709, 5919337.575000000186265 ], [ 43546.275000000001455, 5919337.575000000186265 ], [ 43546.275000000001455, 5919337.349999999627471 ], [ 43546.349999999998545, 5919337.349999999627471 ], [ 43546.349999999998545, 5919337.049999999813735 ], [ 43546.42500000000291, 5919337.049999999813735 ], [ 43546.42500000000291, 5919336.674999999813735 ], [ 43546.5, 5919336.674999999813735 ], [ 43546.5, 5919336.299999999813735 ], [ 43546.57499999999709, 5919336.299999999813735 ], [ 43546.57499999999709, 5919335.849999999627471 ], [ 43546.650000000001455, 5919335.849999999627471 ], [ 43546.650000000001455, 5919335.325000000186265 ], [ 43546.724999999998545, 5919335.325000000186265 ], [ 43546.724999999998545, 5919334.875 ], [ 43546.80000000000291, 5919334.875 ], [ 43546.80000000000291, 5919334.275000000372529 ], [ 43546.875, 5919334.275000000372529 ], [ 43546.875, 5919333.825000000186265 ], [ 43546.94999999999709, 5919333.825000000186265 ], [ 43546.94999999999709, 5919333.75 ], [ 43547.025000000001455, 5919333.75 ], [ 43547.025000000001455, 5919333.599999999627471 ], [ 43547.099999999998545, 5919333.599999999627471 ], [ 43547.099999999998545, 5919333.450000000186265 ], [ 43547.17500000000291, 5919333.450000000186265 ], [ 43547.17500000000291, 5919333.375 ], [ 43547.25, 5919333.375 ], [ 43547.25, 5919333.299999999813735 ], [ 43547.32499999999709, 5919333.299999999813735 ], [ 43547.32499999999709, 5919333.224999999627471 ], [ 43547.400000000001455, 5919333.224999999627471 ], [ 43547.400000000001455, 5919333.150000000372529 ], [ 43547.474999999998545, 5919333.150000000372529 ], [ 43547.474999999998545, 5919333.075000000186265 ], [ 43547.55000000000291, 5919333.075000000186265 ], [ 43547.55000000000291, 5919333.0 ], [ 43547.625, 5919333.0 ], [ 43547.625, 5919332.924999999813735 ], [ 43547.69999999999709, 5919332.924999999813735 ], [ 43547.69999999999709, 5919332.775000000372529 ], [ 43547.775000000001455, 5919332.775000000372529 ], [ 43547.775000000001455, 5919332.700000000186265 ], [ 43547.849999999998545, 5919332.700000000186265 ], [ 43547.849999999998545, 5919332.549999999813735 ], [ 43547.92500000000291, 5919332.549999999813735 ], [ 43547.92500000000291, 5919332.474999999627471 ], [ 43548.0, 5919332.474999999627471 ], [ 43548.0, 5919332.325000000186265 ], [ 43548.07499999999709, 5919332.325000000186265 ], [ 43548.07499999999709, 5919332.174999999813735 ], [ 43548.150000000001455, 5919332.174999999813735 ], [ 43548.150000000001455, 5919332.025000000372529 ], [ 43548.224999999998545, 5919332.025000000372529 ], [ 43548.224999999998545, 5919331.875 ], [ 43548.30000000000291, 5919331.875 ], [ 43548.30000000000291, 5919331.799999999813735 ], [ 43548.375, 5919331.799999999813735 ], [ 43548.375, 5919331.724999999627471 ], [ 43548.44999999999709, 5919331.724999999627471 ], [ 43548.44999999999709, 5919331.650000000372529 ], [ 43548.525000000001455, 5919331.650000000372529 ], [ 43548.525000000001455, 5919331.575000000186265 ], [ 43548.599999999998545, 5919331.575000000186265 ], [ 43548.599999999998545, 5919331.5 ], [ 43548.67500000000291, 5919331.5 ], [ 43548.67500000000291, 5919331.424999999813735 ], [ 43548.75, 5919331.424999999813735 ], [ 43548.75, 5919331.349999999627471 ], [ 43548.82499999999709, 5919331.349999999627471 ], [ 43548.82499999999709, 5919331.275000000372529 ], [ 43548.900000000001455, 5919331.275000000372529 ], [ 43548.900000000001455, 5919331.200000000186265 ], [ 43548.974999999998545, 5919331.200000000186265 ], [ 43548.974999999998545, 5919331.125 ], [ 43549.05000000000291, 5919331.125 ], [ 43549.05000000000291, 5919331.049999999813735 ], [ 43549.125, 5919331.049999999813735 ], [ 43549.125, 5919330.974999999627471 ], [ 43549.275000000001455, 5919330.974999999627471 ], [ 43549.275000000001455, 5919330.900000000372529 ], [ 43549.349999999998545, 5919330.900000000372529 ], [ 43549.349999999998545, 5919330.825000000186265 ], [ 43549.5, 5919330.825000000186265 ], [ 43549.5, 5919330.75 ], [ 43549.57499999999709, 5919330.75 ], [ 43549.57499999999709, 5919330.674999999813735 ], [ 43549.650000000001455, 5919330.674999999813735 ], [ 43549.650000000001455, 5919330.599999999627471 ], [ 43549.724999999998545, 5919330.599999999627471 ], [ 43549.724999999998545, 5919330.525000000372529 ], [ 43549.875, 5919330.525000000372529 ], [ 43549.875, 5919330.375 ], [ 43549.94999999999709, 5919330.375 ], [ 43549.94999999999709, 5919330.299999999813735 ], [ 43550.025000000001455, 5919330.299999999813735 ], [ 43550.025000000001455, 5919330.224999999627471 ], [ 43550.099999999998545, 5919330.224999999627471 ], [ 43550.099999999998545, 5919330.150000000372529 ], [ 43550.17500000000291, 5919330.150000000372529 ], [ 43550.17500000000291, 5919330.075000000186265 ], [ 43550.25, 5919330.075000000186265 ], [ 43550.25, 5919329.924999999813735 ], [ 43550.32499999999709, 5919329.924999999813735 ], [ 43550.32499999999709, 5919329.849999999627471 ], [ 43550.400000000001455, 5919329.849999999627471 ], [ 43550.400000000001455, 5919329.775000000372529 ], [ 43550.474999999998545, 5919329.775000000372529 ], [ 43550.474999999998545, 5919329.700000000186265 ], [ 43550.625, 5919329.700000000186265 ], [ 43550.625, 5919329.625 ], [ 43550.69999999999709, 5919329.625 ], [ 43550.69999999999709, 5919329.549999999813735 ], [ 43550.775000000001455, 5919329.549999999813735 ], [ 43550.775000000001455, 5919329.474999999627471 ], [ 43550.849999999998545, 5919329.474999999627471 ], [ 43550.849999999998545, 5919329.400000000372529 ], [ 43551.0, 5919329.400000000372529 ], [ 43551.0, 5919329.325000000186265 ], [ 43551.07499999999709, 5919329.325000000186265 ], [ 43551.07499999999709, 5919329.25 ], [ 43551.224999999998545, 5919329.25 ], [ 43551.224999999998545, 5919329.174999999813735 ], [ 43551.375, 5919329.174999999813735 ], [ 43551.375, 5919329.099999999627471 ], [ 43551.525000000001455, 5919329.099999999627471 ], [ 43551.525000000001455, 5919329.025000000372529 ], [ 43551.599999999998545, 5919329.025000000372529 ], [ 43551.599999999998545, 5919328.950000000186265 ], [ 43551.75, 5919328.950000000186265 ], [ 43551.75, 5919328.875 ], [ 43551.82499999999709, 5919328.875 ], [ 43551.82499999999709, 5919328.799999999813735 ], [ 43551.900000000001455, 5919328.799999999813735 ], [ 43551.900000000001455, 5919328.724999999627471 ], [ 43552.05000000000291, 5919328.724999999627471 ], [ 43552.05000000000291, 5919328.650000000372529 ], [ 43552.125, 5919328.650000000372529 ], [ 43552.125, 5919328.575000000186265 ], [ 43552.19999999999709, 5919328.575000000186265 ], [ 43552.19999999999709, 5919328.5 ], [ 43552.275000000001455, 5919328.5 ], [ 43552.275000000001455, 5919328.424999999813735 ], [ 43552.349999999998545, 5919328.424999999813735 ], [ 43552.349999999998545, 5919328.275000000372529 ], [ 43552.42500000000291, 5919328.275000000372529 ], [ 43552.42500000000291, 5919328.200000000186265 ], [ 43552.5, 5919328.200000000186265 ], [ 43552.5, 5919328.125 ], [ 43552.57499999999709, 5919328.125 ], [ 43552.57499999999709, 5919327.974999999627471 ], [ 43552.650000000001455, 5919327.974999999627471 ], [ 43552.650000000001455, 5919327.900000000372529 ], [ 43552.80000000000291, 5919327.900000000372529 ], [ 43552.80000000000291, 5919327.825000000186265 ], [ 43552.875, 5919327.825000000186265 ], [ 43552.875, 5919327.75 ], [ 43552.94999999999709, 5919327.75 ], [ 43552.94999999999709, 5919327.674999999813735 ], [ 43553.099999999998545, 5919327.674999999813735 ], [ 43553.099999999998545, 5919327.599999999627471 ], [ 43555.125, 5919327.599999999627471 ], [ 43555.125, 5919327.674999999813735 ], [ 43555.275000000001455, 5919327.674999999813735 ], [ 43555.275000000001455, 5919327.75 ], [ 43555.349999999998545, 5919327.75 ], [ 43555.349999999998545, 5919327.825000000186265 ], [ 43555.42500000000291, 5919327.825000000186265 ], [ 43555.42500000000291, 5919327.900000000372529 ], [ 43555.57499999999709, 5919327.900000000372529 ], [ 43555.57499999999709, 5919327.974999999627471 ], [ 43555.650000000001455, 5919327.974999999627471 ], [ 43555.650000000001455, 5919328.125 ], [ 43555.724999999998545, 5919328.125 ], [ 43555.724999999998545, 5919328.200000000186265 ], [ 43555.80000000000291, 5919328.200000000186265 ], [ 43555.80000000000291, 5919328.275000000372529 ], [ 43555.875, 5919328.275000000372529 ], [ 43555.875, 5919328.424999999813735 ], [ 43555.94999999999709, 5919328.424999999813735 ], [ 43555.94999999999709, 5919328.5 ], [ 43556.025000000001455, 5919328.5 ], [ 43556.025000000001455, 5919328.575000000186265 ], [ 43556.099999999998545, 5919328.575000000186265 ], [ 43556.099999999998545, 5919328.650000000372529 ], [ 43556.17500000000291, 5919328.650000000372529 ], [ 43556.17500000000291, 5919328.724999999627471 ], [ 43556.25, 5919328.724999999627471 ], [ 43556.25, 5919328.799999999813735 ], [ 43556.32499999999709, 5919328.799999999813735 ], [ 43556.32499999999709, 5919328.875 ], [ 43556.400000000001455, 5919328.875 ], [ 43556.400000000001455, 5919328.950000000186265 ], [ 43556.474999999998545, 5919328.950000000186265 ], [ 43556.474999999998545, 5919329.025000000372529 ], [ 43556.55000000000291, 5919329.025000000372529 ], [ 43556.55000000000291, 5919329.099999999627471 ], [ 43556.69999999999709, 5919329.099999999627471 ], [ 43556.69999999999709, 5919329.174999999813735 ], [ 43556.775000000001455, 5919329.174999999813735 ], [ 43556.775000000001455, 5919329.25 ], [ 43556.92500000000291, 5919329.25 ], [ 43556.92500000000291, 5919329.325000000186265 ], [ 43557.0, 5919329.325000000186265 ], [ 43557.0, 5919329.400000000372529 ], [ 43557.07499999999709, 5919329.400000000372529 ], [ 43557.07499999999709, 5919329.474999999627471 ], [ 43557.150000000001455, 5919329.474999999627471 ], [ 43557.150000000001455, 5919329.549999999813735 ], [ 43557.224999999998545, 5919329.549999999813735 ], [ 43557.224999999998545, 5919329.625 ], [ 43557.30000000000291, 5919329.625 ], [ 43557.30000000000291, 5919329.700000000186265 ], [ 43557.375, 5919329.700000000186265 ], [ 43557.375, 5919329.775000000372529 ], [ 43557.44999999999709, 5919329.775000000372529 ], [ 43557.44999999999709, 5919329.924999999813735 ], [ 43557.525000000001455, 5919329.924999999813735 ], [ 43557.525000000001455, 5919330.0 ], [ 43557.599999999998545, 5919330.0 ], [ 43557.599999999998545, 5919330.224999999627471 ], [ 43557.67500000000291, 5919330.224999999627471 ], [ 43557.67500000000291, 5919330.375 ], [ 43557.75, 5919330.375 ], [ 43557.75, 5919330.525000000372529 ], [ 43557.82499999999709, 5919330.525000000372529 ], [ 43557.82499999999709, 5919330.674999999813735 ], [ 43557.900000000001455, 5919330.674999999813735 ], [ 43557.900000000001455, 5919330.825000000186265 ], [ 43557.974999999998545, 5919330.825000000186265 ], [ 43557.974999999998545, 5919330.900000000372529 ], [ 43558.05000000000291, 5919330.900000000372529 ], [ 43558.05000000000291, 5919331.049999999813735 ], [ 43558.125, 5919331.049999999813735 ], [ 43558.125, 5919331.125 ], [ 43558.19999999999709, 5919331.125 ], [ 43558.19999999999709, 5919331.275000000372529 ], [ 43558.275000000001455, 5919331.275000000372529 ], [ 43558.275000000001455, 5919331.349999999627471 ], [ 43558.349999999998545, 5919331.349999999627471 ], [ 43558.349999999998545, 5919331.424999999813735 ], [ 43558.42500000000291, 5919331.424999999813735 ], [ 43558.42500000000291, 5919331.5 ], [ 43558.5, 5919331.5 ], [ 43558.5, 5919331.575000000186265 ], [ 43558.57499999999709, 5919331.575000000186265 ], [ 43558.57499999999709, 5919331.650000000372529 ], [ 43558.650000000001455, 5919331.650000000372529 ], [ 43558.650000000001455, 5919331.724999999627471 ], [ 43558.724999999998545, 5919331.724999999627471 ], [ 43558.724999999998545, 5919331.799999999813735 ], [ 43558.80000000000291, 5919331.799999999813735 ], [ 43558.80000000000291, 5919331.875 ], [ 43558.875, 5919331.875 ], [ 43558.875, 5919332.625 ], [ 43558.80000000000291, 5919332.625 ], [ 43558.80000000000291, 5919333.450000000186265 ], [ 43558.724999999998545, 5919333.450000000186265 ], [ 43558.724999999998545, 5919333.900000000372529 ], [ 43558.650000000001455, 5919333.900000000372529 ], [ 43558.650000000001455, 5919333.974999999627471 ], [ 43558.57499999999709, 5919333.974999999627471 ], [ 43558.57499999999709, 5919334.049999999813735 ], [ 43558.5, 5919334.049999999813735 ], [ 43558.5, 5919334.125 ], [ 43558.42500000000291, 5919334.125 ], [ 43558.42500000000291, 5919334.275000000372529 ], [ 43558.349999999998545, 5919334.275000000372529 ], [ 43558.349999999998545, 5919334.349999999627471 ], [ 43558.275000000001455, 5919334.349999999627471 ], [ 43558.275000000001455, 5919334.424999999813735 ], [ 43558.19999999999709, 5919334.424999999813735 ], [ 43558.19999999999709, 5919334.575000000186265 ], [ 43558.125, 5919334.575000000186265 ], [ 43558.125, 5919334.724999999627471 ], [ 43558.05000000000291, 5919334.724999999627471 ], [ 43558.05000000000291, 5919334.799999999813735 ], [ 43557.974999999998545, 5919334.799999999813735 ], [ 43557.974999999998545, 5919335.025000000372529 ], [ 43557.900000000001455, 5919335.025000000372529 ], [ 43557.900000000001455, 5919335.174999999813735 ], [ 43557.82499999999709, 5919335.174999999813735 ], [ 43557.82499999999709, 5919335.400000000372529 ], [ 43557.75, 5919335.400000000372529 ], [ 43557.75, 5919335.625 ], [ 43557.67500000000291, 5919335.625 ], [ 43557.67500000000291, 5919335.849999999627471 ], [ 43557.599999999998545, 5919335.849999999627471 ], [ 43557.599999999998545, 5919336.299999999813735 ], [ 43557.525000000001455, 5919336.299999999813735 ], [ 43557.525000000001455, 5919336.674999999813735 ], [ 43557.44999999999709, 5919336.674999999813735 ], [ 43557.44999999999709, 5919337.125 ], [ 43557.375, 5919337.125 ], [ 43557.375, 5919337.575000000186265 ], [ 43557.30000000000291, 5919337.575000000186265 ], [ 43557.30000000000291, 5919337.875 ], [ 43557.224999999998545, 5919337.875 ], [ 43557.224999999998545, 5919338.099999999627471 ], [ 43557.150000000001455, 5919338.099999999627471 ], [ 43557.150000000001455, 5919338.25 ], [ 43557.07499999999709, 5919338.25 ], [ 43557.07499999999709, 5919338.400000000372529 ], [ 43557.0, 5919338.400000000372529 ], [ 43557.0, 5919338.549999999813735 ], [ 43556.92500000000291, 5919338.549999999813735 ], [ 43556.92500000000291, 5919338.625 ], [ 43556.849999999998545, 5919338.625 ], [ 43556.849999999998545, 5919338.700000000186265 ], [ 43556.775000000001455, 5919338.700000000186265 ], [ 43556.775000000001455, 5919338.849999999627471 ], [ 43556.69999999999709, 5919338.849999999627471 ], [ 43556.69999999999709, 5919338.924999999813735 ], [ 43556.625, 5919338.924999999813735 ], [ 43556.625, 5919339.075000000186265 ], [ 43556.55000000000291, 5919339.075000000186265 ], [ 43556.55000000000291, 5919339.150000000372529 ], [ 43556.474999999998545, 5919339.150000000372529 ], [ 43556.474999999998545, 5919339.299999999813735 ], [ 43556.400000000001455, 5919339.299999999813735 ], [ 43556.400000000001455, 5919339.450000000186265 ], [ 43556.32499999999709, 5919339.450000000186265 ], [ 43556.32499999999709, 5919339.674999999813735 ], [ 43556.25, 5919339.674999999813735 ], [ 43556.25, 5919339.825000000186265 ], [ 43556.17500000000291, 5919339.825000000186265 ], [ 43556.17500000000291, 5919339.974999999627471 ], [ 43556.099999999998545, 5919339.974999999627471 ], [ 43556.099999999998545, 5919340.125 ], [ 43556.025000000001455, 5919340.125 ], [ 43556.025000000001455, 5919340.349999999627471 ], [ 43555.94999999999709, 5919340.349999999627471 ], [ 43555.94999999999709, 5919340.575000000186265 ], [ 43555.875, 5919340.575000000186265 ], [ 43555.875, 5919340.799999999813735 ], [ 43555.80000000000291, 5919340.799999999813735 ], [ 43555.80000000000291, 5919341.099999999627471 ], [ 43555.724999999998545, 5919341.099999999627471 ], [ 43555.724999999998545, 5919341.400000000372529 ], [ 43555.650000000001455, 5919341.400000000372529 ], [ 43555.650000000001455, 5919341.700000000186265 ], [ 43555.57499999999709, 5919341.700000000186265 ], [ 43555.57499999999709, 5919341.849999999627471 ], [ 43555.5, 5919341.849999999627471 ], [ 43555.5, 5919341.924999999813735 ], [ 43555.42500000000291, 5919341.924999999813735 ], [ 43555.42500000000291, 5919342.075000000186265 ], [ 43555.349999999998545, 5919342.075000000186265 ], [ 43555.349999999998545, 5919342.150000000372529 ], [ 43555.275000000001455, 5919342.150000000372529 ], [ 43555.275000000001455, 5919342.224999999627471 ], [ 43555.19999999999709, 5919342.224999999627471 ], [ 43555.19999999999709, 5919342.299999999813735 ], [ 43555.125, 5919342.299999999813735 ], [ 43555.125, 5919342.375 ], [ 43555.05000000000291, 5919342.375 ], [ 43555.05000000000291, 5919342.450000000186265 ], [ 43554.82499999999709, 5919342.450000000186265 ], [ 43554.82499999999709, 5919342.525000000372529 ], [ 43554.599999999998545, 5919342.525000000372529 ], [ 43554.599999999998545, 5919342.599999999627471 ], [ 43554.44999999999709, 5919342.599999999627471 ], [ 43554.44999999999709, 5919342.674999999813735 ], [ 43554.224999999998545, 5919342.674999999813735 ], [ 43554.224999999998545, 5919342.75 ], [ 43554.07499999999709, 5919342.75 ], [ 43554.07499999999709, 5919342.825000000186265 ], [ 43553.92500000000291, 5919342.825000000186265 ], [ 43553.92500000000291, 5919342.900000000372529 ], [ 43553.775000000001455, 5919342.900000000372529 ], [ 43553.775000000001455, 5919342.974999999627471 ], [ 43553.69999999999709, 5919342.974999999627471 ], [ 43553.69999999999709, 5919343.049999999813735 ], [ 43553.55000000000291, 5919343.049999999813735 ], [ 43553.55000000000291, 5919343.125 ], [ 43553.474999999998545, 5919343.125 ], [ 43553.474999999998545, 5919343.200000000186265 ], [ 43553.32499999999709, 5919343.200000000186265 ], [ 43553.32499999999709, 5919343.275000000372529 ], [ 43553.25, 5919343.275000000372529 ], [ 43553.25, 5919343.349999999627471 ], [ 43553.17500000000291, 5919343.349999999627471 ], [ 43553.17500000000291, 5919343.424999999813735 ], [ 43552.94999999999709, 5919343.424999999813735 ] ] ] } },
{ "type": "Feature", "properties": { "value": 1.0, "building_id": 2, "area": 88.239374999401576 }, "geometry": { "type": "Polygon", "coordinates": [ [ [ 43529.099999999998545, 5919317.700000000186265 ], [ 43529.099999999998545, 5919317.625 ], [ 43527.07499999999709, 5919317.625 ], [ 43527.07499999999709, 5919317.549999999813735 ], [ 43525.349999999998545, 5919317.549999999813735 ], [ 43525.349999999998545, 5919317.474999999627471 ], [ 43523.775000000001455, 5919317.474999999627471 ], [ 43523.775000000001455, 5919317.400000000372529 ], [ 43523.55000000000291, 5919317.400000000372529 ], [ 43523.55000000000291, 5919317.325000000186265 ], [ 43523.400000000001455, 5919317.325000000186265 ], [ 43523.400000000001455, 5919317.25 ], [ 43523.17500000000291, 5919317.25 ], [ 43523.17500000000291, 5919317.174999999813735 ], [ 43523.025000000001455, 5919317.174999999813735 ], [ 43523.025000000001455, 5919317.099999999627471 ], [ 43522.875, 5919317.099999999627471 ], [ 43522.875, 5919317.025000000372529 ], [ 43522.724999999998545, 5919317.025000000372529 ], [ 43522.724999999998545, 5919316.950000000186265 ], [ 43522.57499999999709, 5919316.950000000186265 ], [ 43522.57499999999709, 5919316.875 ], [ 43522.42500000000291, 5919316.875 ], [ 43522.42500000000291, 5919316.799999999813735 ], [ 43522.349999999998545, 5919316.799999999813735 ], [ 43522.349999999998545, 5919316.724999999627471 ], [ 43522.19999999999709, 5919316.724999999627471 ], [ 43522.19999999999709, 5919316.650000000372529 ], [ 43522.125, 5919316.650000000372529 ], [ 43522.125, 5919316.575000000186265 ], [ 43522.05000000000291, 5919316.575000000186265 ], [ 43522.05000000000291, 5919316.5 ], [ 43521.900000000001455, 5919316.5 ], [ 43521.900000000001455, 5919316.424999999813735 ], [ 43521.82499999999709, 5919316.424999999813735 ], [ 43521.82499999999709, 5919316.349999999627471 ], [ 43521.75, 5919316.349999999627471 ], [ 43521.75, 5919316.275000000372529 ], [ 43521.67500000000291, 5919316.275000000372529 ], [ 43521.67500000000291, 5919316.200000000186265 ], [ 43521.599999999998545, 5919316.200000000186265 ], [ 43521.599999999998545, 5919316.125 ], [ 43521.525000000001455, 5919316.125 ], [ 43521.525000000001455, 5919316.049999999813735 ], [ 43521.44999999999709, 5919316.049999999813735 ], [ 43521.44999999999709, 5919315.900000000372529 ], [ 43521.375, 5919315.900000000372529 ], [ 43521.375, 5919315.825000000186265 ], [ 43521.30000000000291, 5919315.825000000186265 ], [ 43521.30000000000291, 5919315.75 ], [ 43521.224999999998545, 5919315.75 ], [ 43521.224999999998545, 5919315.599999999627471 ], [ 43521.150000000001455, 5919315.599999999627471 ], [ 43521.150000000001455, 5919315.525000000372529 ], [ 43521.07499999999709, 5919315.525000000372529 ], [ 43521.07499999999709, 5919315.375 ], [ 43521.0, 5919315.375 ], [ 43521.0, 5919315.224999999627471 ], [ 43520.92500000000291, 5919315.224999999627471 ], [ 43520.92500000000291, 5919315.075000000186265 ], [ 43520.849999999998545, 5919315.075000000186265 ], [ 43520.849999999998545, 5919314.924999999813735 ], [ 43520.775000000001455, 5919314.924999999813735 ], [ 43520.775000000001455, 5919314.700000000186265 ], [ 43520.69999999999709, 5919314.700000000186265 ], [ 43520.69999999999709, 5919314.549999999813735 ], [ 43520.625, 5919314.549999999813735 ], [ 43520.625, 5919314.325000000186265 ], [ 43520.55000000000291, 5919314.325000000186265 ], [ 43520.55000000000291, 5919313.875 ], [ 43520.474999999998545, 5919313.875 ], [ 43520.474999999998545, 5919313.5 ], [ 43520.400000000001455, 5919313.5 ], [ 43520.400000000001455, 5919313.125 ], [ 43520.32499999999709, 5919313.125 ], [ 43520.32499999999709, 5919312.674999999813735 ], [ 43520.25, 5919312.674999999813735 ], [ 43520.25, 5919312.224999999627471 ], [ 43520.17500000000291, 5919312.224999999627471 ], [ 43520.17500000000291, 5919311.775000000372529 ], [ 43520.099999999998545, 5919311.775000000372529 ], [ 43520.099999999998545, 5919311.325000000186265 ], [ 43520.025000000001455, 5919311.325000000186265 ], [ 43520.025000000001455, 5919310.950000000186265 ], [ 43519.94999999999709, 5919310.950000000186265 ], [ 43519.94999999999709, 5919310.575000000186265 ], [ 43519.875, 5919310.575000000186265 ], [ 43519.875, 5919310.275000000372529 ], [ 43519.94999999999709, 5919310.275000000372529 ], [ 43519.94999999999709, 5919309.75 ], [ 43520.025000000001455, 5919309.75 ], [ 43520.025000000001455, 5919309.224999999627471 ], [ 43520.099999999998545, 5919309.224999999627471 ], [ 43520.099999999998545, 5919308.625 ], [ 43520.17500000000291, 5919308.625 ], [ 43520.17500000000291, 5919308.400000000372529 ], [ 43520.25, 5919308.400000000372529 ], [ 43520.25, 5919308.25 ], [ 43520.32499999999709, 5919308.25 ], [ 43520.32499999999709, 5919308.099999999627471 ], [ 43520.400000000001455, 5919308.099999999627471 ], [ 43520.400000000001455, 5919308.025000000372529 ], [ 43520.474999999998545, 5919308.025000000372529 ], [ 43520.474999999998545, 5919307.950000000186265 ], [ 43520.55000000000291, 5919307.950000000186265 ], [ 43520.55000000000291, 5919307.875 ], [ 43520.625, 5919307.875 ], [ 43520.625, 5919307.799999999813735 ], [ 43520.69999999999709, 5919307.799999999813735 ], [ 43520.69999999999709, 5919307.724999999627471 ], [ 43520.775000000001455, 5919307.724999999627471 ], [ 43520.775000000001455, 5919307.650000000372529 ], [ 43520.92500000000291, 5919307.650000000372529 ], [ 43520.92500000000291, 5919307.575000000186265 ], [ 43521.07499999999709, 5919307.575000000186265 ], [ 43521.07499999999709, 5919307.5 ], [ 43521.30000000000291, 5919307.5 ], [ 43521.30000000000291, 5919307.424999999813735 ], [ 43521.525000000001455, 5919307.424999999813735 ], [ 43521.525000000001455, 5919307.349999999627471 ], [ 43522.275000000001455, 5919307.349999999627471 ], [ 43522.275000000001455, 5919307.424999999813735 ], [ 43522.724999999998545, 5919307.424999999813735 ], [ 43522.724999999998545, 5919307.5 ], [ 43523.099999999998545, 5919307.5 ], [ 43523.099999999998545, 5919307.575000000186265 ], [ 43523.55000000000291, 5919307.575000000186265 ], [ 43523.55000000000291, 5919307.650000000372529 ], [ 43523.92500000000291, 5919307.650000000372529 ], [ 43523.92500000000291, 5919307.724999999627471 ], [ 43524.30000000000291, 5919307.724999999627471 ], [ 43524.30000000000291, 5919307.799999999813735 ], [ 43524.67500000000291, 5919307.799999999813735 ], [ 43524.67500000000291, 5919307.875 ], [ 43525.05000000000291, 5919307.875 ], [ 43525.05000000000291, 5919307.950000000186265 ], [ 43525.349999999998545, 5919307.950000000186265 ], [ 43525.349999999998545, 5919308.025000000372529 ], [ 43525.724999999998545, 5919308.025000000372529 ], [ 43525.724999999998545, 5919308.099999999627471 ], [ 43525.94999999999709, 5919308.099999999627471 ], [ 43525.94999999999709, 5919308.174999999813735 ], [ 43526.25, 5919308.174999999813735 ], [ 43526.25, 5919308.25 ], [ 43526.474999999998545, 5919308.25 ], [ 43526.474999999998545, 5919308.325000000186265 ], [ 43526.69999999999709, 5919308.325000000186265 ], [ 43526.69999999999709, 5919308.400000000372529 ], [ 43526.92500000000291, 5919308.400000000372529 ], [ 43526.92500000000291, 5919308.474999999627471 ], [ 43527.07499999999709, 5919308.474999999627471 ], [ 43527.07499999999709, 5919308.549999999813735 ], [ 43527.150000000001455, 5919308.549999999813735 ], [ 43527.150000000001455, 5919308.625 ], [ 43527.224999999998545, 5919308.625 ], [ 43527.224999999998545, 5919308.775000000372529 ], [ 43527.30000000000291, 5919308.775000000372529 ], [ 43527.30000000000291, 5919308.849999999627471 ], [ 43527.375, 5919308.849999999627471 ], [ 43527.375, 5919308.924999999813735 ], [ 43527.44999999999709, 5919308.924999999813735 ], [ 43527.44999999999709, 5919309.0 ], [ 43527.525000000001455, 5919309.0 ], [ 43527.525000000001455, 5919309.075000000186265 ], [ 43527.599999999998545, 5919309.075000000186265 ], [ 43527.599999999998545, 5919309.150000000372529 ], [ 43527.67500000000291, 5919309.150000000372529 ], [ 43527.67500000000291, 5919309.299999999813735 ], [ 43527.75, 5919309.299999999813735 ], [ 43527.75, 5919309.375 ], [ 43527.82499999999709, 5919309.375 ], [ 43527.82499999999709, 5919309.450000000186265 ], [ 43527.900000000001455, 5919309.450000000186265 ], [ 43527.900000000001455, 5919309.599999999627471 ], [ 43527.974999999998545, 5919309.599999999627471 ], [ 43527.974999999998545, 5919309.674999999813735 ], [ 43528.05000000000291, 5919309.674999999813735 ], [ 43528.05000000000291, 5919309.75 ], [ 43528.125, 5919309.75 ], [ 43528.125, 5919309.825000000186265 ], [ 43528.19999999999709, 5919309.825000000186265 ], [ 43528.19999999999709, 5919309.900000000372529 ], [ 43528.275000000001455, 5919309.900000000372529 ], [ 43528.275000000001455, 5919309.974999999627471 ], [ 43528.349999999998545, 5919309.974999999627471 ], [ 43528.349999999998545, 5919310.049999999813735 ], [ 43528.42500000000291, 5919310.049999999813735 ], [ 43528.42500000000291, 5919310.125 ], [ 43528.5, 5919310.125 ], [ 43528.5, 5919310.200000000186265 ], [ 43528.57499999999709, 5919310.200000000186265 ], [ 43528.57499999999709, 5919310.275000000372529 ], [ 43528.724999999998545, 5919310.275000000372529 ], [ 43528.724999999998545, 5919310.349999999627471 ], [ 43528.80000000000291, 5919310.349999999627471 ], [ 43528.80000000000291, 5919310.424999999813735 ], [ 43528.875, 5919310.424999999813735 ], [ 43528.875, 5919310.5 ], [ 43528.94999999999709, 5919310.5 ], [ 43528.94999999999709, 5919310.650000000372529 ], [ 43529.025000000001455, 5919310.650000000372529 ], [ 43529.025000000001455, 5919310.799999999813735 ], [ 43529.099999999998545, 5919310.799999999813735 ], [ 43529.099999999998545, 5919310.950000000186265 ], [ 43529.17500000000291, 5919310.950000000186265 ], [ 43529.17500000000291, 5919311.099999999627471 ], [ 43529.25, 5919311.099999999627471 ], [ 43529.25, 5919311.25 ], [ 43529.32499999999709, 5919311.25 ], [ 43529.32499999999709, 5919311.400000000372529 ], [ 43529.400000000001455, 5919311.400000000372529 ], [ 43529.400000000001455, 5919311.549999999813735 ], [ 43529.474999999998545, 5919311.549999999813735 ], [ 43529.474999999998545, 5919311.700000000186265 ], [ 43529.55000000000291, 5919311.700000000186265 ], [ 43529.55000000000291, 5919311.849999999627471 ], [ 43529.625, 5919311.849999999627471 ], [ 43529.625, 5919312.0 ], [ 43529.69999999999709, 5919312.0 ], [ 43529.69999999999709, 5919312.299999999813735 ], [ 43529.775000000001455, 5919312.299999999813735 ], [ 43529.775000000001455, 5919312.525000000372529 ], [ 43529.849999999998545, 5919312.525000000372529 ], [ 43529.849999999998545, 5919312.674999999813735 ], [ 43529.92500000000291, 5919312.674999999813735 ], [ 43529.92500000000291, 5919312.900000000372529 ], [ 43530.0, 5919312.900000000372529 ], [ 43530.0, 5919313.125 ], [ 43530.07499999999709, 5919313.125 ], [ 43530.07499999999709, 5919313.275000000372529 ], [ 43530.150000000001455, 5919313.275000000372529 ], [ 43530.150000000001455, 5919313.5 ], [ 43530.224999999998545, 5919313.5 ], [ 43530.224999999998545, 5919313.650000000372529 ], [ 43530.30000000000291, 5919313.650000000372529 ], [ 43530.30000000000291, 5919313.875 ], [ 43530.375, 5919313.875 ], [ 43530.375, 5919314.025000000372529 ], [ 43530.44999999999709, 5919314.025000000372529 ], [ 43530.44999999999709, 5919314.174999999813735 ], [ 43530.525000000001455, 5919314.174999999813735 ], [ 43530.525000000001455, 5919314.400000000372529 ], [ 43530.599999999998545, 5919314.400000000372529 ], [ 43530.599999999998545, 5919314.474999999627471 ], [ 43530.67500000000291, 5919314.474999999627471 ], [ 43530.67500000000291, 5919314.625 ], [ 43530.75, 5919314.625 ], [ 43530.75, 5919314.775000000372529 ], [ 43530.82499999999709, 5919314.775000000372529 ], [ 43530.82499999999709, 5919314.849999999627471 ], [ 43530.900000000001455, 5919314.849999999627471 ], [ 43530.900000000001455, 5919315.0 ], [ 43530.974999999998545, 5919315.0 ], [ 43530.974999999998545, 5919315.075000000186265 ], [ 43531.05000000000291, 5919315.075000000186265 ], [ 43531.05000000000291, 5919315.224999999627471 ], [ 43531.125, 5919315.224999999627471 ], [ 43531.125, 5919315.299999999813735 ], [ 43531.19999999999709, 5919315.299999999813735 ], [ 43531.19999999999709, 5919315.450000000186265 ], [ 43531.275000000001455, 5919315.450000000186265 ], [ 43531.275000000001455, 5919315.525000000372529 ], [ 43531.349999999998545, 5919315.525000000372529 ], [ 43531.349999999998545, 5919315.674999999813735 ], [ 43531.42500000000291, 5919315.674999999813735 ], [ 43531.42500000000291, 5919315.75 ], [ 43531.5, 5919315.75 ], [ 43531.5, 5919315.825000000186265 ], [ 43531.57499999999709, 5919315.825000000186265 ], [ 43531.57499999999709, 5919315.974999999627471 ], [ 43531.650000000001455, 5919315.974999999627471 ], [ 43531.650000000001455, 5919316.049999999813735 ], [ 43531.724999999998545, 5919316.049999999813735 ], [ 43531.724999999998545, 5919316.125 ], [ 43531.80000000000291, 5919316.125 ], [ 43531.80000000000291, 5919316.275000000372529 ], [ 43531.875, 5919316.275000000372529 ], [ 43531.875, 5919316.5 ], [ 43531.80000000000291, 5919316.5 ], [ 43531.80000000000291, 5919316.650000000372529 ], [ 43531.724999999998545, 5919316.650000000372529 ], [ 43531.724999999998545, 5919316.799999999813735 ], [ 43531.650000000001455, 5919316.799999999813735 ], [ 43531.650000000001455, 5919316.950000000186265 ], [ 43531.57499999999709, 5919316.950000000186265 ], [ 43531.57499999999709, 5919317.099999999627471 ], [ 43531.5, 5919317.099999999627471 ], [ 43531.5, 5919317.174999999813735 ], [ 43531.42500000000291, 5919317.174999999813735 ], [ 43531.42500000000291, 5919317.25 ], [ 43531.19999999999709, 5919317.25 ], [ 43531.19999999999709, 5919317.325000000186265 ], [ 43530.974999999998545, 5919317.325000000186265 ], [ 43530.974999999998545, 5919317.400000000372529 ], [ 43530.67500000000291, 5919317.400000000372529 ], [ 43530.67500000000291, 5919317.474999999627471 ], [ 43530.375, 5919317.474999999627471 ], [ 43530.375, 5919317.549999999813735 ], [ 43530.07499999999709, 5919317.549999999813735 ], [ 43530.07499999999709, 5919317.625 ], [ 43529.775000000001455, 5919317.625 ], [ 43529.775000000001455, 5919317.700000000186265 ], [ 43529.099999999998545, 5919317.700000000186265 ] ] ] } },
{ "type": "Feature", "properties": { "value": 1.0, "building_id": 3, "area": 141.54749999930129 }, "geometry": { "type": "Polygon", "coordinates": [ [ [ 43437.599999999998545, 5919162.75 ], [ 43437.599999999998545, 5919162.674999999813735 ], [ 43437.30000000000291, 5919162.674999999813735 ], [ 43437.30000000000291, 5919162.599999999627471 ], [ 43437.0, 5919162.599999999627471 ], [ 43437.0, 5919162.525000000372529 ], [ 43436.775000000001455, 5919162.525000000372529 ], [ 43436.775000000001455, 5919162.450000000186265 ], [ 43436.625, 5919162.450000000186265 ], [ 43436.625, 5919162.375 ], [ 43436.400000000001455, 5919162.375 ], [ 43436.400000000001455, 5919162.299999999813735 ], [ 43436.25, 5919162.299999999813735 ], [ 43436.25, 5919162.224999999627471 ], [ 43436.099999999998545, 5919162.224999999627471 ], [ 43436.099999999998545, 5919162.150000000372529 ], [ 43436.025000000001455, 5919162.150000000372529 ], [ 43436.025000000001455, 5919162.075000000186265 ], [ 43435.875, 5919162.075000000186265 ], [ 43435.875, 5919162.0 ], [ 43435.80000000000291, 5919162.0 ], [ 43435.80000000000291, 5919161.924999999813735 ], [ 43435.724999999998545, 5919161.924999999813735 ], [ 43435.724999999998545, 5919161.849999999627471 ], [ 43435.650000000001455, 5919161.849999999627471 ], [ 43435.650000000001455, 5919161.775000000372529 ], [ 43435.57499999999709, 5919161.775000000372529 ], [ 43435.57499999999709, 5919161.625 ], [ 43435.5, 5919161.625 ], [ 43435.5, 5919161.549999999813735 ], [ 43435.42500000000291, 5919161.549999999813735 ], [ 43435.42500000000291, 5919161.474999999627471 ], [ 43435.349999999998545, 5919161.474999999627471 ], [ 43435.349999999998545, 5919161.325000000186265 ], [ 43435.275000000001455, 5919161.325000000186265 ], [ 43435.275000000001455, 5919161.25 ], [ 43435.19999999999709, 5919161.25 ], [ 43435.19999999999709, 5919161.174999999813735 ], [ 43435.125, 5919161.174999999813735 ], [ 43435.125, 5919161.025000000372529 ], [ 43435.05000000000291, 5919161.025000000372529 ], [ 43435.05000000000291, 5919160.875 ], [ 43434.974999999998545, 5919160.875 ], [ 43434.974999999998545, 5919160.799999999813735 ], [ 43434.900000000001455, 5919160.799999999813735 ], [ 43434.900000000001455, 5919160.650000000372529 ], [ 43434.82499999999709, 5919160.650000000372529 ], [ 43434.82499999999709, 5919160.5 ], [ 43434.75, 5919160.5 ], [ 43434.75, 5919160.349999999627471 ], [ 43434.67500000000291, 5919160.349999999627471 ], [ 43434.67500000000291, 5919160.200000000186265 ], [ 43434.599999999998545, 5919160.200000000186265 ], [ 43434.599999999998545, 5919160.049999999813735 ], [ 43434.525000000001455, 5919160.049999999813735 ], [ 43434.525000000001455, 5919159.900000000372529 ], [ 43434.44999999999709, 5919159.900000000372529 ], [ 43434.44999999999709, 5919159.825000000186265 ], [ 43434.375, 5919159.825000000186265 ], [ 43434.375, 5919159.75 ], [ 43434.30000000000291, 5919159.75 ], [ 43434.30000000000291, 5919159.674999999813735 ], [ 43434.224999999998545, 5919159.674999999813735 ], [ 43434.224999999998545, 5919159.599999999627471 ], [ 43434.150000000001455, 5919159.599999999627471 ], [ 43434.150000000001455, 5919159.525000000372529 ], [ 43434.07499999999709, 5919159.525000000372529 ], [ 43434.07499999999709, 5919159.450000000186265 ], [ 43433.92500000000291, 5919159.450000000186265 ], [ 43433.92500000000291, 5919159.375 ], [ 43433.849999999998545, 5919159.375 ], [ 43433.849999999998545, 5919159.299999999813735 ], [ 43433.69999999999709, 5919159.299999999813735 ], [ 43433.69999999999709, 5919159.224999999627471 ], [ 43433.625, 5919159.224999999627471 ], [ 43433.625, 5919159.150000000372529 ], [ 43433.55000000000291, 5919159.150000000372529 ], [ 43433.55000000000291, 5919159.075000000186265 ], [ 43433.474999999998545, 5919159.075000000186265 ], [ 43433.474999999998545, 5919159.0 ], [ 43433.400000000001455, 5919159.0 ], [ 43433.400000000001455, 5919158.924999999813735 ], [ 43433.32499999999709, 5919158.924999999813735 ], [ 43433.32499999999709, 5919158.849999999627471 ], [ 43433.25, 5919158.849999999627471 ], [ 43433.25, 5919158.700000000186265 ], [ 43433.17500000000291, 5919158.700000000186265 ], [ 43433.17500000000291, 5919158.625 ], [ 43433.099999999998545, 5919158.625 ], [ 43433.099999999998545, 5919158.549999999813735 ], [ 43433.025000000001455, 5919158.549999999813735 ], [ 43433.025000000001455, 5919158.400000000372529 ], [ 43432.94999999999709, 5919158.400000000372529 ], [ 43432.94999999999709, 5919158.25 ], [ 43432.875, 5919158.25 ], [ 43432.875, 5919158.099999999627471 ], [ 43432.80000000000291, 5919158.099999999627471 ], [ 43432.80000000000291, 5919157.950000000186265 ], [ 43432.724999999998545, 5919157.950000000186265 ], [ 43432.724999999998545, 5919157.799999999813735 ], [ 43432.650000000001455, 5919157.799999999813735 ], [ 43432.650000000001455, 5919157.724999999627471 ], [ 43432.57499999999709, 5919157.724999999627471 ], [ 43432.57499999999709, 5919157.575000000186265 ], [ 43432.5, 5919157.575000000186265 ], [ 43432.5, 5919157.5 ], [ 43432.42500000000291, 5919157.5 ], [ 43432.42500000000291, 5919157.424999999813735 ], [ 43432.349999999998545, 5919157.424999999813735 ], [ 43432.349999999998545, 5919157.275000000372529 ], [ 43432.275000000001455, 5919157.275000000372529 ], [ 43432.275000000001455, 5919157.200000000186265 ], [ 43432.19999999999709, 5919157.200000000186265 ], [ 43432.19999999999709, 5919157.125 ], [ 43432.125, 5919157.125 ], [ 43432.125, 5919157.049999999813735 ], [ 43432.05000000000291, 5919157.049999999813735 ], [ 43432.05000000000291, 5919156.974999999627471 ], [ 43431.900000000001455, 5919156.974999999627471 ], [ 43431.900000000001455, 5919156.900000000372529 ], [ 43431.82499999999709, 5919156.900000000372529 ], [ 43431.82499999999709, 5919156.825000000186265 ], [ 43431.75, 5919156.825000000186265 ], [ 43431.75, 5919156.75 ], [ 43431.67500000000291, 5919156.75 ], [ 43431.67500000000291, 5919156.599999999627471 ], [ 43431.599999999998545, 5919156.599999999627471 ], [ 43431.599999999998545, 5919156.525000000372529 ], [ 43431.525000000001455, 5919156.525000000372529 ], [ 43431.525000000001455, 5919156.450000000186265 ], [ 43431.44999999999709, 5919156.450000000186265 ], [ 43431.44999999999709, 5919156.299999999813735 ], [ 43431.375, 5919156.299999999813735 ], [ 43431.375, 5919156.224999999627471 ], [ 43431.30000000000291, 5919156.224999999627471 ], [ 43431.30000000000291, 5919156.075000000186265 ], [ 43431.224999999998545, 5919156.075000000186265 ], [ 43431.224999999998545, 5919155.849999999627471 ], [ 43431.150000000001455, 5919155.849999999627471 ], [ 43431.150000000001455, 5919155.625 ], [ 43431.07499999999709, 5919155.625 ], [ 43431.07499999999709, 5919155.400000000372529 ], [ 43431.0, 5919155.400000000372529 ], [ 43431.0, 5919155.174999999813735 ], [ 43430.92500000000291, 5919155.174999999813735 ], [ 43430.92500000000291, 5919154.950000000186265 ], [ 43430.849999999998545, 5919154.950000000186265 ], [ 43430.849999999998545, 5919154.724999999627471 ], [ 43430.775000000001455, 5919154.724999999627471 ], [ 43430.775000000001455, 5919154.424999999813735 ], [ 43430.69999999999709, 5919154.424999999813735 ], [ 43430.69999999999709, 5919154.200000000186265 ], [ 43430.625, 5919154.200000000186265 ], [ 43430.625, 5919154.125 ], [ 43430.69999999999709, 5919154.125 ], [ 43430.69999999999709, 5919153.150000000372529 ], [ 43430.775000000001455, 5919153.150000000372529 ], [ 43430.775000000001455, 5919152.174999999813735 ], [ 43430.849999999998545, 5919152.174999999813735 ], [ 43430.849999999998545, 5919151.950000000186265 ], [ 43430.92500000000291, 5919151.950000000186265 ], [ 43430.92500000000291, 5919151.650000000372529 ], [ 43431.0, 5919151.650000000372529 ], [ 43431.0, 5919151.424999999813735 ], [ 43431.07499999999709, 5919151.424999999813735 ], [ 43431.07499999999709, 5919151.125 ], [ 43431.150000000001455, 5919151.125 ], [ 43431.150000000001455, 5919150.900000000372529 ], [ 43431.224999999998545, 5919150.900000000372529 ], [ 43431.224999999998545, 5919150.599999999627471 ], [ 43431.30000000000291, 5919150.599999999627471 ], [ 43431.30000000000291, 5919150.375 ], [ 43431.375, 5919150.375 ], [ 43431.375, 5919150.150000000372529 ], [ 43431.44999999999709, 5919150.150000000372529 ], [ 43431.44999999999709, 5919150.0 ], [ 43431.525000000001455, 5919150.0 ], [ 43431.525000000001455, 5919149.849999999627471 ], [ 43431.599999999998545, 5919149.849999999627471 ], [ 43431.599999999998545, 5919149.775000000372529 ], [ 43431.67500000000291, 5919149.775000000372529 ], [ 43431.67500000000291, 5919149.625 ], [ 43431.75, 5919149.625 ], [ 43431.75, 5919149.549999999813735 ], [ 43431.82499999999709, 5919149.549999999813735 ], [ 43431.82499999999709, 5919149.400000000372529 ], [ 43431.900000000001455, 5919149.400000000372529 ], [ 43431.900000000001455, 5919149.325000000186265 ], [ 43431.974999999998545, 5919149.325000000186265 ], [ 43431.974999999998545, 5919149.25 ], [ 43432.05000000000291, 5919149.25 ], [ 43432.05000000000291, 5919149.174999999813735 ], [ 43432.125, 5919149.174999999813735 ], [ 43432.125, 5919149.099999999627471 ], [ 43432.19999999999709, 5919149.099999999627471 ], [ 43432.19999999999709, 5919149.025000000372529 ], [ 43432.275000000001455, 5919149.025000000372529 ], [ 43432.275000000001455, 5919148.950000000186265 ], [ 43432.349999999998545, 5919148.950000000186265 ], [ 43432.349999999998545, 5919148.875 ], [ 43432.42500000000291, 5919148.875 ], [ 43432.42500000000291, 5919148.799999999813735 ], [ 43432.5, 5919148.799999999813735 ], [ 43432.5, 5919148.724999999627471 ], [ 43432.57499999999709, 5919148.724999999627471 ], [ 43432.57499999999709, 5919148.650000000372529 ], [ 43432.650000000001455, 5919148.650000000372529 ], [ 43432.650000000001455, 5919148.575000000186265 ], [ 43432.724999999998545, 5919148.575000000186265 ], [ 43432.724999999998545, 5919148.5 ], [ 43432.80000000000291, 5919148.5 ], [ 43432.80000000000291, 5919148.349999999627471 ], [ 43432.875, 5919148.349999999627471 ], [ 43432.875, 5919148.275000000372529 ], [ 43432.94999999999709, 5919148.275000000372529 ], [ 43432.94999999999709, 5919148.200000000186265 ], [ 43433.025000000001455, 5919148.200000000186265 ], [ 43433.025000000001455, 5919148.125 ], [ 43433.099999999998545, 5919148.125 ], [ 43433.099999999998545, 5919147.974999999627471 ], [ 43433.17500000000291, 5919147.974999999627471 ], [ 43433.17500000000291, 5919147.900000000372529 ], [ 43433.25, 5919147.900000000372529 ], [ 43433.25, 5919147.825000000186265 ], [ 43433.32499999999709, 5919147.825000000186265 ], [ 43433.32499999999709, 5919147.75 ], [ 43433.400000000001455, 5919147.75 ], [ 43433.400000000001455, 5919147.674999999813735 ], [ 43433.474999999998545, 5919147.674999999813735 ], [ 43433.474999999998545, 5919147.599999999627471 ], [ 43433.55000000000291, 5919147.599999999627471 ], [ 43433.55000000000291, 5919147.525000000372529 ], [ 43433.625, 5919147.525000000372529 ], [ 43433.625, 5919147.450000000186265 ], [ 43433.69999999999709, 5919147.450000000186265 ], [ 43433.69999999999709, 5919147.375 ], [ 43433.775000000001455, 5919147.375 ], [ 43433.775000000001455, 5919147.299999999813735 ], [ 43433.849999999998545, 5919147.299999999813735 ], [ 43433.849999999998545, 5919147.224999999627471 ], [ 43433.92500000000291, 5919147.224999999627471 ], [ 43433.92500000000291, 5919147.150000000372529 ], [ 43434.07499999999709, 5919147.150000000372529 ], [ 43434.07499999999709, 5919147.075000000186265 ], [ 43434.150000000001455, 5919147.075000000186265 ], [ 43434.150000000001455, 5919147.0 ], [ 43434.30000000000291, 5919147.0 ], [ 43434.30000000000291, 5919146.924999999813735 ], [ 43434.375, 5919146.924999999813735 ], [ 43434.375, 5919146.849999999627471 ], [ 43434.44999999999709, 5919146.849999999627471 ], [ 43434.44999999999709, 5919146.775000000372529 ], [ 43434.599999999998545, 5919146.775000000372529 ], [ 43434.599999999998545, 5919146.700000000186265 ], [ 43434.67500000000291, 5919146.700000000186265 ], [ 43434.67500000000291, 5919146.625 ], [ 43434.75, 5919146.625 ], [ 43434.75, 5919146.549999999813735 ], [ 43434.82499999999709, 5919146.549999999813735 ], [ 43434.82499999999709, 5919146.474999999627471 ], [ 43434.900000000001455, 5919146.474999999627471 ], [ 43434.900000000001455, 5919146.400000000372529 ], [ 43434.974999999998545, 5919146.400000000372529 ], [ 43434.974999999998545, 5919146.325000000186265 ], [ 43435.05000000000291, 5919146.325000000186265 ], [ 43435.05000000000291, 5919146.25 ], [ 43435.125, 5919146.25 ], [ 43435.125, 5919146.174999999813735 ], [ 43435.19999999999709, 5919146.174999999813735 ], [ 43435.19999999999709, 5919146.099999999627471 ], [ 43435.275000000001455, 5919146.099999999627471 ], [ 43435.275000000001455, 5919146.025000000372529 ], [ 43435.349999999998545, 5919146.025000000372529 ], [ 43435.349999999998545, 5919145.950000000186265 ], [ 43435.42500000000291, 5919145.950000000186265 ], [ 43435.42500000000291, 5919145.875 ], [ 43435.57499999999709, 5919145.875 ], [ 43435.57499999999709, 5919145.799999999813735 ], [ 43435.650000000001455, 5919145.799999999813735 ], [ 43435.650000000001455, 5919145.724999999627471 ], [ 43435.724999999998545, 5919145.724999999627471 ], [ 43435.724999999998545, 5919145.650000000372529 ], [ 43435.80000000000291, 5919145.650000000372529 ], [ 43435.80000000000291, 5919145.575000000186265 ], [ 43435.875, 5919145.575000000186265 ], [ 43435.875, 5919145.5 ], [ 43436.025000000001455, 5919145.5 ], [ 43436.025000000001455, 5919145.575000000186265 ], [ 43436.25, 5919145.575000000186265 ], [ 43436.25, 5919145.650000000372529 ], [ 43436.474999999998545, 5919145.650000000372529 ], [ 43436.474999999998545, 5919145.724999999627471 ], [ 43436.69999999999709, 5919145.724999999627471 ], [ 43436.69999999999709, 5919145.799999999813735 ], [ 43437.0, 5919145.799999999813735 ], [ 43437.0, 5919145.875 ], [ 43437.224999999998545, 5919145.875 ], [ 43437.224999999998545, 5919145.950000000186265 ], [ 43437.525000000001455, 5919145.950000000186265 ], [ 43437.525000000001455, 5919146.025000000372529 ], [ 43437.82499999999709, 5919146.025000000372529 ], [ 43437.82499999999709, 5919146.099999999627471 ], [ 43437.974999999998545, 5919146.099999999627471 ], [ 43437.974999999998545, 5919146.25 ], [ 43438.05000000000291, 5919146.25 ], [ 43438.05000000000291, 5919146.325000000186265 ], [ 43438.125, 5919146.325000000186265 ], [ 43438.125, 5919146.400000000372529 ], [ 43438.19999999999709, 5919146.400000000372529 ], [ 43438.19999999999709, 5919146.549999999813735 ], [ 43438.275000000001455, 5919146.549999999813735 ], [ 43438.275000000001455, 5919146.700000000186265 ], [ 43438.349999999998545, 5919146.700000000186265 ], [ 43438.349999999998545, 5919146.775000000372529 ], [ 43438.42500000000291, 5919146.775000000372529 ], [ 43438.42500000000291, 5919146.924999999813735 ], [ 43438.5, 5919146.924999999813735 ], [ 43438.5, 5919147.075000000186265 ], [ 43438.57499999999709, 5919147.075000000186265 ], [ 43438.57499999999709, 5919147.150000000372529 ], [ 43438.650000000001455, 5919147.150000000372529 ], [ 43438.650000000001455, 5919147.299999999813735 ], [ 43438.724999999998545, 5919147.299999999813735 ], [ 43438.724999999998545, 5919147.450000000186265 ], [ 43438.80000000000291, 5919147.450000000186265 ], [ 43438.80000000000291, 5919147.599999999627471 ], [ 43438.875, 5919147.599999999627471 ], [ 43438.875, 5919147.674999999813735 ], [ 43438.94999999999709, 5919147.674999999813735 ], [ 43438.94999999999709, 5919147.825000000186265 ], [ 43439.025000000001455, 5919147.825000000186265 ], [ 43439.025000000001455, 5919147.974999999627471 ], [ 43439.099999999998545, 5919147.974999999627471 ], [ 43439.099999999998545, 5919148.125 ], [ 43439.17500000000291, 5919148.125 ], [ 43439.17500000000291, 5919148.275000000372529 ], [ 43439.25, 5919148.275000000372529 ], [ 43439.25, 5919148.349999999627471 ], [ 43439.32499999999709, 5919148.349999999627471 ], [ 43439.32499999999709, 5919148.5 ], [ 43439.400000000001455, 5919148.5 ], [ 43439.400000000001455, 5919148.575000000186265 ], [ 43439.474999999998545, 5919148.575000000186265 ], [ 43439.474999999998545, 5919148.650000000372529 ], [ 43439.55000000000291, 5919148.650000000372529 ], [ 43439.55000000000291, 5919148.724999999627471 ], [ 43439.625, 5919148.724999999627471 ], [ 43439.625, 5919148.799999999813735 ], [ 43439.69999999999709, 5919148.799999999813735 ], [ 43439.69999999999709, 5919148.875 ], [ 43439.775000000001455, 5919148.875 ], [ 43439.775000000001455, 5919148.950000000186265 ], [ 43439.849999999998545, 5919148.950000000186265 ], [ 43439.849999999998545, 5919149.025000000372529 ], [ 43439.92500000000291, 5919149.025000000372529 ], [ 43439.92500000000291, 5919149.099999999627471 ], [ 43440.0, 5919149.099999999627471 ], [ 43440.0, 5919149.174999999813735 ], [ 43440.07499999999709, 5919149.174999999813735 ], [ 43440.07499999999709, 5919149.25 ], [ 43440.150000000001455, 5919149.25 ], [ 43440.150000000001455, 5919149.400000000372529 ], [ 43440.224999999998545, 5919149.400000000372529 ], [ 43440.224999999998545, 5919149.474999999627471 ], [ 43440.30000000000291, 5919149.474999999627471 ], [ 43440.30000000000291, 5919149.625 ], [ 43440.375, 5919149.625 ], [ 43440.375, 5919149.700000000186265 ], [ 43440.44999999999709, 5919149.700000000186265 ], [ 43440.44999999999709, 5919149.849999999627471 ], [ 43440.525000000001455, 5919149.849999999627471 ], [ 43440.525000000001455, 5919150.0 ], [ 43440.599999999998545, 5919150.0 ], [ 43440.599999999998545, 5919150.150000000372529 ], [ 43440.67500000000291, 5919150.150000000372529 ], [ 43440.67500000000291, 5919150.375 ], [ 43440.75, 5919150.375 ], [ 43440.75, 5919150.674999999813735 ], [ 43440.82499999999709, 5919150.674999999813735 ], [ 43440.82499999999709, 5919150.900000000372529 ], [ 43440.900000000001455, 5919150.900000000372529 ], [ 43440.900000000001455, 5919151.125 ], [ 43440.974999999998545, 5919151.125 ], [ 43440.974999999998545, 5919151.275000000372529 ], [ 43441.05000000000291, 5919151.275000000372529 ], [ 43441.05000000000291, 5919151.5 ], [ 43441.125, 5919151.5 ], [ 43441.125, 5919151.650000000372529 ], [ 43441.19999999999709, 5919151.650000000372529 ], [ 43441.19999999999709, 5919151.799999999813735 ], [ 43441.275000000001455, 5919151.799999999813735 ], [ 43441.275000000001455, 5919151.950000000186265 ], [ 43441.349999999998545, 5919151.950000000186265 ], [ 43441.349999999998545, 5919152.099999999627471 ], [ 43441.42500000000291, 5919152.099999999627471 ], [ 43441.42500000000291, 5919152.25 ], [ 43441.5, 5919152.25 ], [ 43441.5, 5919152.474999999627471 ], [ 43441.57499999999709, 5919152.474999999627471 ], [ 43441.57499999999709, 5919152.625 ], [ 43441.650000000001455, 5919152.625 ], [ 43441.650000000001455, 5919152.849999999627471 ], [ 43441.724999999998545, 5919152.849999999627471 ], [ 43441.724999999998545, 5919153.0 ], [ 43441.80000000000291, 5919153.0 ], [ 43441.80000000000291, 5919153.150000000372529 ], [ 43441.875, 5919153.150000000372529 ], [ 43441.875, 5919153.299999999813735 ], [ 43441.94999999999709, 5919153.299999999813735 ], [ 43441.94999999999709, 5919153.525000000372529 ], [ 43442.025000000001455, 5919153.525000000372529 ], [ 43442.025000000001455, 5919153.674999999813735 ], [ 43442.099999999998545, 5919153.674999999813735 ], [ 43442.099999999998545, 5919153.900000000372529 ], [ 43442.17500000000291, 5919153.900000000372529 ], [ 43442.17500000000291, 5919154.200000000186265 ], [ 43442.25, 5919154.200000000186265 ], [ 43442.25, 5919154.424999999813735 ], [ 43442.17500000000291, 5919154.424999999813735 ], [ 43442.17500000000291, 5919158.849999999627471 ], [ 43442.25, 5919158.849999999627471 ], [ 43442.25, 5919159.599999999627471 ], [ 43442.32499999999709, 5919159.599999999627471 ], [ 43442.32499999999709, 5919160.200000000186265 ], [ 43442.25, 5919160.200000000186265 ], [ 43442.25, 5919160.349999999627471 ], [ 43442.17500000000291, 5919160.349999999627471 ], [ 43442.17500000000291, 5919160.5 ], [ 43442.099999999998545, 5919160.5 ], [ 43442.099999999998545, 5919160.575000000186265 ], [ 43442.025000000001455, 5919160.575000000186265 ], [ 43442.025000000001455, 5919160.724999999627471 ], [ 43441.94999999999709, 5919160.724999999627471 ], [ 43441.94999999999709, 5919160.799999999813735 ], [ 43441.875, 5919160.799999999813735 ], [ 43441.875, 5919160.950000000186265 ], [ 43441.80000000000291, 5919160.950000000186265 ], [ 43441.80000000000291, 5919161.025000000372529 ], [ 43441.724999999998545, 5919161.025000000372529 ], [ 43441.724999999998545, 5919161.099999999627471 ], [ 43441.57499999999709, 5919161.099999999627471 ], [ 43441.57499999999709, 5919161.174999999813735 ], [ 43441.5, 5919161.174999999813735 ], [ 43441.5, 5919161.25 ], [ 43441.42500000000291, 5919161.25 ], [ 43441.42500000000291, 5919161.325000000186265 ], [ 43441.349999999998545, 5919161.325000000186265 ], [ 43441.349999999998545, 5919161.400000000372529 ], [ 43441.275000000001455, 5919161.400000000372529 ], [ 43441.275000000001455, 5919161.474999999627471 ], [ 43441.19999999999709, 5919161.474999999627471 ], [ 43441.19999999999709, 5919161.549999999813735 ], [ 43441.125, 5919161.549999999813735 ], [ 43441.125, 5919161.625 ], [ 43441.05000000000291, 5919161.625 ], [ 43441.05000000000291, 5919161.700000000186265 ], [ 43440.974999999998545, 5919161.700000000186265 ], [ 43440.974999999998545, 5919161.775000000372529 ], [ 43440.900000000001455, 5919161.775000000372529 ], [ 43440.900000000001455, 5919161.849999999627471 ], [ 43440.82499999999709, 5919161.849999999627471 ], [ 43440.82499999999709, 5919161.924999999813735 ], [ 43440.75, 5919161.924999999813735 ], [ 43440.75, 5919162.0 ], [ 43440.67500000000291, 5919162.0 ], [ 43440.67500000000291, 5919162.075000000186265 ], [ 43440.525000000001455, 5919162.075000000186265 ], [ 43440.525000000001455, 5919162.150000000372529 ], [ 43440.44999999999709, 5919162.150000000372529 ], [ 43440.44999999999709, 5919162.224999999627471 ], [ 43440.30000000000291, 5919162.224999999627471 ], [ 43440.30000000000291, 5919162.299999999813735 ], [ 43440.150000000001455, 5919162.299999999813735 ], [ 43440.150000000001455, 5919162.375 ], [ 43440.0, 5919162.375 ], [ 43440.0, 5919162.450000000186265 ], [ 43439.775000000001455, 5919162.450000000186265 ], [ 43439.775000000001455, 5919162.525000000372529 ], [ 43439.400000000001455, 5919162.525000000372529 ], [ 43439.400000000001455, 5919162.599999999627471 ], [ 43438.94999999999709, 5919162.599999999627471 ], [ 43438.94999999999709, 5919162.674999999813735 ], [ 43438.42500000000291, 5919162.674999999813735 ], [ 43438.42500000000291, 5919162.75 ], [ 43437.599999999998545, 5919162.75 ] ] ] } }
]
}
