{
"type": "FeatureCollection",
"name": "42933E594882N_buildings",
"crs": { "type": "name", "properties": { "name": "urn:ogc:def:crs:EPSG::3776" } },
"features": [
{ "type": "Feature", "properties": { "value": 1.0, "building_id": 0, "area": 11.356875000047367 }, "geometry": { "type": "Polygon", "coordinates": [ [ [ 43583.625, 5949579.0 ], [ 43583.625, 5949576.0 ], [ 43583.69999999999709, 5949576.0 ], [ 43583.69999999999709, 5949575.924999999813735 ], [ 43583.775000000001455, 5949575.924999999813735 ], [ 43583.775000000001455, 5949575.775000000372529 ], [ 43583.849999999998545, 5949575.775000000372529 ], [ 43583.849999999998545, 5949575.625 ], [ 43583.92500000000291, 5949575.625 ], [ 43583.92500000000291, 5949575.549999999813735 ], [ 43584.0, 5949575.549999999813735 ], [ 43584.0, 5949575.400000000372529 ], [ 43584.07499999999709, 5949575.400000000372529 ], [ 43584.07499999999709, 5949575.325000000186265 ], [ 43584.150000000001455, 5949575.325000000186265 ], [ 43584.150000000001455, 5949575.25 ], [ 43584.224999999998545, 5949575.25 ], [ 43584.224999999998545, 5949575.099999999627471 ], [ 43584.30000000000291, 5949575.099999999627471 ], [ 43584.30000000000291, 5949575.025000000372529 ], [ 43584.67500000000291, 5949575.025000000372529 ], [ 43584.67500000000291, 5949575.099999999627471 ], [ 43585.19999999999709, 5949575.099999999627471 ], [ 43585.19999999999709, 5949575.174999999813735 ], [ 43585.650000000001455, 5949575.174999999813735 ], [ 43585.650000000001455, 5949575.25 ], [ 43586.099999999998545, 5949575.25 ], [ 43586.099999999998545, 5949575.325000000186265 ], [ 43586.32499999999709, 5949575.325000000186265 ], [ 43586.32499999999709, 5949575.400000000372529 ], [ 43586.400000000001455, 5949575.400000000372529 ], [ 43586.400000000001455, 5949575.549999999813735 ], [ 43586.474999999998545, 5949575.549999999813735 ], [ 43586.474999999998545, 5949575.625 ], [ 43586.55000000000291, 5949575.625 ], [ 43586.55000000000291, 5949575.775000000372529 ], [ 43586.625, 5949575.775000000372529 ], [ 43586.625, 5949575.924999999813735 ], [ 43586.69999999999709, 5949575.924999999813735 ], [ 43586.69999999999709, 5949579.0 ], [ 43583.625, 5949579.0 ] ] ] } },
{ "type": "Feature", "properties": { "value": 1.0, "building_id": 1, "area": 292.92749999979833 }, "geometry": { "type": "Polygon", "coordinates": [ [ [ 43615.349999999998545, 5949526.125 ], [ 43615.349999999998545, 5949526.049999999813735 ], [ 43614.525000000001455, 5949526.049999999813735 ], [ 43614.525000000001455, 5949525.974999999627471 ], [ 43613.775000000001455, 5949525.974999999627471 ], [ 43613.775000000001455, 5949525.900000000372529 ], [ 43613.099999999998545, 5949525.900000000372529 ], [ 43613.099999999998545, 5949525.825000000186265 ], [ 43612.5, 5949525.825000000186265 ], [ 43612.5, 5949525.75 ], [ 43611.974999999998545, 5949525.75 ], [ 43611.974999999998545, 5949525.674999999813735 ], [ 43611.375, 5949525.674999999813735 ], [ 43611.375, 5949525.599999999627471 ], [ 43610.849999999998545, 5949525.599999999627471 ], [ 43610.849999999998545, 5949525.525000000372529 ], [ 43610.400000000001455, 5949525.525000000372529 ], [ 43610.400000000001455, 5949525.450000000186265 ], [ 43609.94999999999709, 5949525.450000000186265 ], [ 43609.94999999999709, 5949525.375 ], [ 43609.724999999998545, 5949525.375 ], [ 43609.724999999998545, 5949525.299999999813735 ], [ 43609.57499999999709, 5949525.299999999813735 ], [ 43609.57499999999709, 5949525.224999999627471 ], [ 43609.5, 5949525.224999999627471 ], [ 43609.5, 5949525.150000000372529 ], [ 43609.42500000000291, 5949525.150000000372529 ], [ 43609.42500000000291, 5949525.075000000186265 ], [ 43609.349999999998545, 5949525.075000000186265 ], [ 43609.349999999998545, 5949525.0 ], [ 43609.275000000001455, 5949525.0 ], [ 43609.275000000001455, 5949524.924999999813735 ], [ 43609.19999999999709, 5949524.924999999813735 ], [ 43609.19999999999709, 5949524.849999999627471 ], [ 43609.125, 5949524.849999999627471 ], [ 43609.125, 5949524.775000000372529 ], [ 43609.05000000000291, 5949524.775000000372529 ], [ 43609.05000000000291, 5949524.700000000186265 ], [ 43608.974999999998545, 5949524.700000000186265 ], [ 43608.974999999998545, 5949524.625 ], [ 43608.900000000001455, 5949524.625 ], [ 43608.900000000001455, 5949524.549999999813735 ], [ 43608.82499999999709, 5949524.549999999813735 ], [ 43608.82499999999709, 5949524.474999999627471 ], [ 43608.75, 5949524.474999999627471 ], [ 43608.75, 5949524.400000000372529 ], [ 43608.599999999998545, 5949524.400000000372529 ], [ 43608.599999999998545, 5949524.325000000186265 ], [ 43608.525000000001455, 5949524.325000000186265 ], [ 43608.525000000001455, 5949524.25 ], [ 43608.44999999999709, 5949524.25 ], [ 43608.44999999999709, 5949524.174999999813735 ], [ 43608.375, 5949524.174999999813735 ], [ 43608.375, 5949524.099999999627471 ], [ 43608.224999999998545, 5949524.099999999627471 ], [ 43608.224999999998545, 5949524.025000000372529 ], [ 43608.150000000001455, 5949524.025000000372529 ], [ 43608.150000000001455, 5949523.950000000186265 ], [ 43608.0, 5949523.950000000186265 ], [ 43608.0, 5949523.875 ], [ 43607.92500000000291, 5949523.875 ], [ 43607.92500000000291, 5949523.799999999813735 ], [ 43607.775000000001455, 5949523.799999999813735 ], [ 43607.775000000001455, 5949523.650000000372529 ], [ 43607.69999999999709, 5949523.650000000372529 ], [ 43607.69999999999709, 5949523.575000000186265 ], [ 43607.625, 5949523.575000000186265 ], [ 43607.625, 5949523.424999999813735 ], [ 43607.55000000000291, 5949523.424999999813735 ], [ 43607.55000000000291, 5949523.275000000372529 ], [ 43607.474999999998545, 5949523.275000000372529 ], [ 43607.474999999998545, 5949523.125 ], [ 43607.400000000001455, 5949523.125 ], [ 43607.400000000001455, 5949522.900000000372529 ], [ 43607.32499999999709, 5949522.900000000372529 ], [ 43607.32499999999709, 5949522.674999999813735 ], [ 43607.25, 5949522.674999999813735 ], [ 43607.25, 5949522.450000000186265 ], [ 43607.17500000000291, 5949522.450000000186265 ], [ 43607.17500000000291, 5949522.150000000372529 ], [ 43607.099999999998545, 5949522.150000000372529 ], [ 43607.099999999998545, 5949521.924999999813735 ], [ 43607.025000000001455, 5949521.924999999813735 ], [ 43607.025000000001455, 5949521.625 ], [ 43606.94999999999709, 5949521.625 ], [ 43606.94999999999709, 5949521.325000000186265 ], [ 43606.875, 5949521.325000000186265 ], [ 43606.875, 5949520.125 ], [ 43606.80000000000291, 5949520.125 ], [ 43606.80000000000291, 5949519.0 ], [ 43606.875, 5949519.0 ], [ 43606.875, 5949518.25 ], [ 43606.94999999999709, 5949518.25 ], [ 43606.94999999999709, 5949517.5 ], [ 43607.025000000001455, 5949517.5 ], [ 43607.025000000001455, 5949516.974999999627471 ], [ 43607.099999999998545, 5949516.974999999627471 ], [ 43607.099999999998545, 5949516.450000000186265 ], [ 43607.17500000000291, 5949516.450000000186265 ], [ 43607.17500000000291, 5949516.0 ], [ 43607.25, 5949516.0 ], [ 43607.25, 5949515.549999999813735 ], [ 43607.32499999999709, 5949515.549999999813735 ], [ 43607.32499999999709, 5949515.325000000186265 ], [ 43607.400000000001455, 5949515.325000000186265 ], [ 43607.400000000001455, 5949515.025000000372529 ], [ 43607.474999999998545, 5949515.025000000372529 ], [ 43607.474999999998545, 5949514.799999999813735 ], [ 43607.55000000000291, 5949514.799999999813735 ], [ 43607.55000000000291, 5949514.650000000372529 ], [ 43607.625, 5949514.650000000372529 ], [ 43607.625, 5949514.424999999813735 ], [ 43607.69999999999709, 5949514.424999999813735 ], [ 43607.69999999999709, 5949514.275000000372529 ], [ 43607.775000000001455, 5949514.275000000372529 ], [ 43607.775000000001455, 5949514.125 ], [ 43607.849999999998545, 5949514.125 ], [ 43607.849999999998545, 5949513.974999999627471 ], [ 43607.92500000000291, 5949513.974999999627471 ], [ 43607.92500000000291, 5949513.825000000186265 ], [ 43608.0, 5949513.825000000186265 ], [ 43608.0, 5949513.75 ], [ 43608.07499999999709, 5949513.75 ], [ 43608.07499999999709, 5949513.599999999627471 ], [ 43608.150000000001455, 5949513.599999999627471 ], [ 43608.150000000001455, 5949513.0 ], [ 43608.224999999998545, 5949513.0 ], [ 43608.224999999998545, 5949512.325000000186265 ], [ 43608.30000000000291, 5949512.325000000186265 ], [ 43608.30000000000291, 5949511.424999999813735 ], [ 43608.224999999998545, 5949511.424999999813735 ], [ 43608.224999999998545, 5949511.200000000186265 ], [ 43608.150000000001455, 5949511.200000000186265 ], [ 43608.150000000001455, 5949510.974999999627471 ], [ 43608.07499999999709, 5949510.974999999627471 ], [ 43608.07499999999709, 5949510.825000000186265 ], [ 43608.0, 5949510.825000000186265 ], [ 43608.0, 5949510.599999999627471 ], [ 43607.92500000000291, 5949510.599999999627471 ], [ 43607.92500000000291, 5949510.450000000186265 ], [ 43607.849999999998545, 5949510.450000000186265 ], [ 43607.849999999998545, 5949510.299999999813735 ], [ 43607.775000000001455, 5949510.299999999813735 ], [ 43607.775000000001455, 5949510.0 ], [ 43607.69999999999709, 5949510.0 ], [ 43607.69999999999709, 5949509.775000000372529 ], [ 43607.625, 5949509.775000000372529 ], [ 43607.625, 5949509.474999999627471 ], [ 43607.55000000000291, 5949509.474999999627471 ], [ 43607.55000000000291, 5949509.099999999627471 ], [ 43607.474999999998545, 5949509.099999999627471 ], [ 43607.474999999998545, 5949508.724999999627471 ], [ 43607.400000000001455, 5949508.724999999627471 ], [ 43607.400000000001455, 5949508.275000000372529 ], [ 43607.32499999999709, 5949508.275000000372529 ], [ 43607.32499999999709, 5949507.825000000186265 ], [ 43607.25, 5949507.825000000186265 ], [ 43607.25, 5949507.224999999627471 ], [ 43607.17500000000291, 5949507.224999999627471 ], [ 43607.17500000000291, 5949506.474999999627471 ], [ 43607.099999999998545, 5949506.474999999627471 ], [ 43607.099999999998545, 5949505.349999999627471 ], [ 43607.17500000000291, 5949505.349999999627471 ], [ 43607.17500000000291, 5949504.900000000372529 ], [ 43607.25, 5949504.900000000372529 ], [ 43607.25, 5949504.450000000186265 ], [ 43607.32499999999709, 5949504.450000000186265 ], [ 43607.32499999999709, 5949504.075000000186265 ], [ 43607.400000000001455, 5949504.075000000186265 ], [ 43607.400000000001455, 5949503.775000000372529 ], [ 43607.474999999998545, 5949503.775000000372529 ], [ 43607.474999999998545, 5949503.700000000186265 ], [ 43607.55000000000291, 5949503.700000000186265 ], [ 43607.55000000000291, 5949503.625 ], [ 43607.625, 5949503.625 ], [ 43607.625, 5949503.474999999627471 ], [ 43607.69999999999709, 5949503.474999999627471 ], [ 43607.69999999999709, 5949503.400000000372529 ], [ 43607.775000000001455, 5949503.400000000372529 ], [ 43607.775000000001455, 5949503.325000000186265 ], [ 43607.92500000000291, 5949503.325000000186265 ], [ 43607.92500000000291, 5949503.25 ], [ 43608.07499999999709, 5949503.25 ], [ 43608.07499999999709, 5949503.174999999813735 ], [ 43608.150000000001455, 5949503.174999999813735 ], [ 43608.150000000001455, 5949503.099999999627471 ], [ 43608.30000000000291, 5949503.099999999627471 ], [ 43608.30000000000291, 5949503.025000000372529 ], [ 43608.44999999999709, 5949503.025000000372529 ], [ 43608.44999999999709, 5949502.950000000186265 ], [ 43608.525000000001455, 5949502.950000000186265 ], [ 43608.525000000001455, 5949502.875 ], [ 43608.67500000000291, 5949502.875 ], [ 43608.67500000000291, 5949502.799999999813735 ], [ 43608.75, 5949502.799999999813735 ], [ 43608.75, 5949502.724999999627471 ], [ 43608.900000000001455, 5949502.724999999627471 ], [ 43608.900000000001455, 5949502.650000000372529 ], [ 43608.974999999998545, 5949502.650000000372529 ], [ 43608.974999999998545, 5949502.575000000186265 ], [ 43609.05000000000291, 5949502.575000000186265 ], [ 43609.05000000000291, 5949502.5 ], [ 43609.19999999999709, 5949502.5 ], [ 43609.19999999999709, 5949502.424999999813735 ], [ 43609.275000000001455, 5949502.424999999813735 ], [ 43609.275000000001455, 5949502.349999999627471 ], [ 43609.42500000000291, 5949502.349999999627471 ], [ 43609.42500000000291, 5949502.275000000372529 ], [ 43609.5, 5949502.275000000372529 ], [ 43609.5, 5949502.200000000186265 ], [ 43609.57499999999709, 5949502.200000000186265 ], [ 43609.57499999999709, 5949502.125 ], [ 43609.650000000001455, 5949502.125 ], [ 43609.650000000001455, 5949502.049999999813735 ], [ 43609.80000000000291, 5949502.049999999813735 ], [ 43609.80000000000291, 5949501.974999999627471 ], [ 43609.94999999999709, 5949501.974999999627471 ], [ 43609.94999999999709, 5949501.900000000372529 ], [ 43610.099999999998545, 5949501.900000000372529 ], [ 43610.099999999998545, 5949501.825000000186265 ], [ 43610.32499999999709, 5949501.825000000186265 ], [ 43610.32499999999709, 5949501.75 ], [ 43610.474999999998545, 5949501.75 ], [ 43610.474999999998545, 5949501.674999999813735 ], [ 43610.69999999999709, 5949501.674999999813735 ], [ 43610.69999999999709, 5949501.599999999627471 ], [ 43610.92500000000291, 5949501.599999999627471 ], [ 43610.92500000000291, 5949501.525000000372529 ], [ 43611.150000000001455, 5949501.525000000372529 ], [ 43611.150000000001455, 5949501.450000000186265 ], [ 43611.375, 5949501.450000000186265 ], [ 43611.375, 5949501.375 ], [ 43611.599999999998545, 5949501.375 ], [ 43611.599999999998545, 5949501.299999999813735 ], [ 43611.82499999999709, 5949501.299999999813735 ], [ 43611.82499999999709, 5949501.224999999627471 ], [ 43612.125, 5949501.224999999627471 ], [ 43612.125, 5949501.150000000372529 ], [ 43612.349999999998545, 5949501.150000000372529 ], [ 43612.349999999998545, 5949501.075000000186265 ], [ 43612.650000000001455, 5949501.075000000186265 ], [ 43612.650000000001455, 5949501.0 ], [ 43612.875, 5949501.0 ], [ 43612.875, 5949500.924999999813735 ], [ 43613.17500000000291, 5949500.924999999813735 ], [ 43613.17500000000291, 5949500.849999999627471 ], [ 43613.400000000001455, 5949500.849999999627471 ], [ 43613.400000000001455, 5949500.775000000372529 ], [ 43613.69999999999709, 5949500.775000000372529 ], [ 43613.69999999999709, 5949500.700000000186265 ], [ 43613.92500000000291, 5949500.700000000186265 ], [ 43613.92500000000291, 5949500.625 ], [ 43614.150000000001455, 5949500.625 ], [ 43614.150000000001455, 5949500.549999999813735 ], [ 43614.375, 5949500.549999999813735 ], [ 43614.375, 5949500.474999999627471 ], [ 43614.599999999998545, 5949500.474999999627471 ], [ 43614.599999999998545, 5949500.400000000372529 ], [ 43614.75, 5949500.400000000372529 ], [ 43614.75, 5949500.325000000186265 ], [ 43614.974999999998545, 5949500.325000000186265 ], [ 43614.974999999998545, 5949500.25 ], [ 43615.125, 5949500.25 ], [ 43615.125, 5949500.174999999813735 ], [ 43615.349999999998545, 5949500.174999999813735 ], [ 43615.349999999998545, 5949500.099999999627471 ], [ 43615.5, 5949500.099999999627471 ], [ 43615.5, 5949500.025000000372529 ], [ 43616.099999999998545, 5949500.025000000372529 ], [ 43616.099999999998545, 5949500.099999999627471 ], [ 43616.849999999998545, 5949500.099999999627471 ], [ 43616.849999999998545, 5949500.174999999813735 ], [ 43617.07499999999709, 5949500.174999999813735 ], [ 43617.07499999999709, 5949500.25 ], [ 43617.224999999998545, 5949500.25 ], [ 43617.224999999998545, 5949500.325000000186265 ], [ 43617.375, 5949500.325000000186265 ], [ 43617.375, 5949500.400000000372529 ], [ 43617.44999999999709, 5949500.400000000372529 ], [ 43617.44999999999709, 5949500.474999999627471 ], [ 43617.599999999998545, 5949500.474999999627471 ], [ 43617.599999999998545, 5949500.549999999813735 ], [ 43617.67500000000291, 5949500.549999999813735 ], [ 43617.67500000000291, 5949500.625 ], [ 43617.75, 5949500.625 ], [ 43617.75, 5949500.775000000372529 ], [ 43617.82499999999709, 5949500.775000000372529 ], [ 43617.82499999999709, 5949500.849999999627471 ], [ 43617.900000000001455, 5949500.849999999627471 ], [ 43617.900000000001455, 5949500.924999999813735 ], [ 43617.974999999998545, 5949500.924999999813735 ], [ 43617.974999999998545, 5949501.075000000186265 ], [ 43618.05000000000291, 5949501.075000000186265 ], [ 43618.05000000000291, 5949501.224999999627471 ], [ 43618.125, 5949501.224999999627471 ], [ 43618.125, 5949501.299999999813735 ], [ 43618.19999999999709, 5949501.299999999813735 ], [ 43618.19999999999709, 5949501.450000000186265 ], [ 43618.275000000001455, 5949501.450000000186265 ], [ 43618.275000000001455, 5949501.599999999627471 ], [ 43618.349999999998545, 5949501.599999999627471 ], [ 43618.349999999998545, 5949501.75 ], [ 43618.42500000000291, 5949501.75 ], [ 43618.42500000000291, 5949501.900000000372529 ], [ 43618.5, 5949501.900000000372529 ], [ 43618.5, 5949502.125 ], [ 43618.57499999999709, 5949502.125 ], [ 43618.57499999999709, 5949502.275000000372529 ], [ 43618.650000000001455, 5949502.275000000372529 ], [ 43618.650000000001455, 5949502.424999999813735 ], [ 43618.724999999998545, 5949502.424999999813735 ], [ 43618.724999999998545, 5949502.575000000186265 ], [ 43618.80000000000291, 5949502.575000000186265 ], [ 43618.80000000000291, 5949502.724999999627471 ], [ 43618.875, 5949502.724999999627471 ], [ 43618.875, 5949502.875 ], [ 43618.94999999999709, 5949502.875 ], [ 43618.94999999999709, 5949503.025000000372529 ], [ 43619.025000000001455, 5949503.025000000372529 ], [ 43619.025000000001455, 5949503.174999999813735 ], [ 43619.099999999998545, 5949503.174999999813735 ], [ 43619.099999999998545, 5949503.25 ], [ 43619.17500000000291, 5949503.25 ], [ 43619.17500000000291, 5949503.400000000372529 ], [ 43619.25, 5949503.400000000372529 ], [ 43619.25, 5949503.474999999627471 ], [ 43619.32499999999709, 5949503.474999999627471 ], [ 43619.32499999999709, 5949503.625 ], [ 43619.400000000001455, 5949503.625 ], [ 43619.400000000001455, 5949503.700000000186265 ], [ 43619.474999999998545, 5949503.700000000186265 ], [ 43619.474999999998545, 5949503.775000000372529 ], [ 43619.55000000000291, 5949503.775000000372529 ], [ 43619.55000000000291, 5949504.075000000186265 ], [ 43619.625, 5949504.075000000186265 ], [ 43619.625, 5949504.375 ], [ 43619.69999999999709, 5949504.375 ], [ 43619.69999999999709, 5949504.75 ], [ 43619.775000000001455, 5949504.75 ], [ 43619.775000000001455, 5949505.125 ], [ 43619.849999999998545, 5949505.125 ], [ 43619.849999999998545, 5949505.5 ], [ 43619.92500000000291, 5949505.5 ], [ 43619.92500000000291, 5949506.099999999627471 ], [ 43619.849999999998545, 5949506.099999999627471 ], [ 43619.849999999998545, 5949506.549999999813735 ], [ 43619.775000000001455, 5949506.549999999813735 ], [ 43619.775000000001455, 5949506.924999999813735 ], [ 43619.69999999999709, 5949506.924999999813735 ], [ 43619.69999999999709, 5949507.299999999813735 ], [ 43619.625, 5949507.299999999813735 ], [ 43619.625, 5949507.674999999813735 ], [ 43619.55000000000291, 5949507.674999999813735 ], [ 43619.55000000000291, 5949507.974999999627471 ], [ 43619.474999999998545, 5949507.974999999627471 ], [ 43619.474999999998545, 5949508.200000000186265 ], [ 43619.400000000001455, 5949508.200000000186265 ], [ 43619.400000000001455, 5949508.424999999813735 ], [ 43619.32499999999709, 5949508.424999999813735 ], [ 43619.32499999999709, 5949508.650000000372529 ], [ 43619.25, 5949508.650000000372529 ], [ 43619.25, 5949508.950000000186265 ], [ 43619.17500000000291, 5949508.950000000186265 ], [ 43619.17500000000291, 5949509.25 ], [ 43619.099999999998545, 5949509.25 ], [ 43619.099999999998545, 5949509.474999999627471 ], [ 43619.025000000001455, 5949509.474999999627471 ], [ 43619.025000000001455, 5949509.775000000372529 ], [ 43618.94999999999709, 5949509.775000000372529 ], [ 43618.94999999999709, 5949510.075000000186265 ], [ 43618.875, 5949510.075000000186265 ], [ 43618.875, 5949510.375 ], [ 43618.80000000000291, 5949510.375 ], [ 43618.80000000000291, 5949510.599999999627471 ], [ 43618.724999999998545, 5949510.599999999627471 ], [ 43618.724999999998545, 5949510.900000000372529 ], [ 43618.650000000001455, 5949510.900000000372529 ], [ 43618.650000000001455, 5949511.125 ], [ 43618.57499999999709, 5949511.125 ], [ 43618.57499999999709, 5949511.349999999627471 ], [ 43618.5, 5949511.349999999627471 ], [ 43618.5, 5949512.400000000372529 ], [ 43618.57499999999709, 5949512.400000000372529 ], [ 43618.57499999999709, 5949513.224999999627471 ], [ 43618.650000000001455, 5949513.224999999627471 ], [ 43618.650000000001455, 5949513.674999999813735 ], [ 43618.724999999998545, 5949513.674999999813735 ], [ 43618.724999999998545, 5949513.825000000186265 ], [ 43618.80000000000291, 5949513.825000000186265 ], [ 43618.80000000000291, 5949513.974999999627471 ], [ 43618.875, 5949513.974999999627471 ], [ 43618.875, 5949514.125 ], [ 43618.94999999999709, 5949514.125 ], [ 43618.94999999999709, 5949514.275000000372529 ], [ 43619.025000000001455, 5949514.275000000372529 ], [ 43619.025000000001455, 5949514.424999999813735 ], [ 43619.099999999998545, 5949514.424999999813735 ], [ 43619.099999999998545, 5949514.575000000186265 ], [ 43619.17500000000291, 5949514.575000000186265 ], [ 43619.17500000000291, 5949514.724999999627471 ], [ 43619.25, 5949514.724999999627471 ], [ 43619.25, 5949514.875 ], [ 43619.32499999999709, 5949514.875 ], [ 43619.32499999999709, 5949515.025000000372529 ], [ 43619.400000000001455, 5949515.025000000372529 ], [ 43619.400000000001455, 5949515.174999999813735 ], [ 43619.474999999998545, 5949515.174999999813735 ], [ 43619.474999999998545, 5949515.325000000186265 ], [ 43619.55000000000291, 5949515.325000000186265 ], [ 43619.55000000000291, 5949515.474999999627471 ], [ 43619.625, 5949515.474999999627471 ], [ 43619.625, 5949515.625 ], [ 43619.69999999999709, 5949515.625 ], [ 43619.69999999999709, 5949515.775000000372529 ], [ 43619.775000000001455, 5949515.775000000372529 ], [ 43619.775000000001455, 5949516.0 ], [ 43619.849999999998545, 5949516.0 ], [ 43619.849999999998545, 5949516.224999999627471 ], [ 43619.92500000000291, 5949516.224999999627471 ], [ 43619.92500000000291, 5949516.450000000186265 ], [ 43620.0, 5949516.450000000186265 ], [ 43620.0, 5949516.674999999813735 ], [ 43620.07499999999709, 5949516.674999999813735 ], [ 43620.07499999999709, 5949516.900000000372529 ], [ 43620.150000000001455, 5949516.900000000372529 ], [ 43620.150000000001455, 5949517.200000000186265 ], [ 43620.224999999998545, 5949517.200000000186265 ], [ 43620.224999999998545, 5949517.424999999813735 ], [ 43620.30000000000291, 5949517.424999999813735 ], [ 43620.30000000000291, 5949517.875 ], [ 43620.375, 5949517.875 ], [ 43620.375, 5949518.25 ], [ 43620.44999999999709, 5949518.25 ], [ 43620.44999999999709, 5949518.700000000186265 ], [ 43620.525000000001455, 5949518.700000000186265 ], [ 43620.525000000001455, 5949519.150000000372529 ], [ 43620.599999999998545, 5949519.150000000372529 ], [ 43620.599999999998545, 5949520.200000000186265 ], [ 43620.525000000001455, 5949520.200000000186265 ], [ 43620.525000000001455, 5949521.400000000372529 ], [ 43620.44999999999709, 5949521.400000000372529 ], [ 43620.44999999999709, 5949521.625 ], [ 43620.375, 5949521.625 ], [ 43620.375, 5949521.849999999627471 ], [ 43620.30000000000291, 5949521.849999999627471 ], [ 43620.30000000000291, 5949522.0 ], [ 43620.224999999998545, 5949522.0 ], [ 43620.224999999998545, 5949522.224999999627471 ], [ 43620.150000000001455, 5949522.224999999627471 ], [ 43620.150000000001455, 5949522.375 ], [ 43620.07499999999709, 5949522.375 ], [ 43620.07499999999709, 5949522.525000000372529 ], [ 43620.0, 5949522.525000000372529 ], [ 43620.0, 5949522.674999999813735 ], [ 43619.92500000000291, 5949522.674999999813735 ], [ 43619.92500000000291, 5949522.825000000186265 ], [ 43619.849999999998545, 5949522.825000000186265 ], [ 43619.849999999998545, 5949522.900000000372529 ], [ 43619.775000000001455, 5949522.900000000372529 ], [ 43619.775000000001455, 5949523.049999999813735 ], [ 43619.69999999999709, 5949523.049999999813735 ], [ 43619.69999999999709, 5949523.125 ], [ 43619.625, 5949523.125 ], [ 43619.625, 5949523.275000000372529 ], [ 43619.55000000000291, 5949523.275000000372529 ], [ 43619.55000000000291, 5949523.349999999627471 ], [ 43619.474999999998545, 5949523.349999999627471 ], [ 43619.474999999998545, 5949523.5 ], [ 43619.400000000001455, 5949523.5 ], [ 43619.400000000001455, 5949523.575000000186265 ], [ 43619.32499999999709, 5949523.575000000186265 ], [ 43619.32499999999709, 5949523.724999999627471 ], [ 43619.25, 5949523.724999999627471 ], [ 43619.25, 5949523.799999999813735 ], [ 43619.17500000000291, 5949523.799999999813735 ], [ 43619.17500000000291, 5949523.950000000186265 ], [ 43619.099999999998545, 5949523.950000000186265 ], [ 43619.099999999998545, 5949524.025000000372529 ], [ 43619.025000000001455, 5949524.025000000372529 ], [ 43619.025000000001455, 5949524.174999999813735 ], [ 43618.94999999999709, 5949524.174999999813735 ], [ 43618.94999999999709, 5949524.325000000186265 ], [ 43618.875, 5949524.325000000186265 ], [ 43618.875, 5949524.400000000372529 ], [ 43618.80000000000291, 5949524.400000000372529 ], [ 43618.80000000000291, 5949524.549999999813735 ], [ 43618.724999999998545, 5949524.549999999813735 ], [ 43618.724999999998545, 5949524.625 ], [ 43618.650000000001455, 5949524.625 ], [ 43618.650000000001455, 5949524.775000000372529 ], [ 43618.57499999999709, 5949524.775000000372529 ], [ 43618.57499999999709, 5949524.849999999627471 ], [ 43618.5, 5949524.849999999627471 ], [ 43618.5, 5949525.0 ], [ 43618.42500000000291, 5949525.0 ], [ 43618.42500000000291, 5949525.075000000186265 ], [ 43618.349999999998545, 5949525.075000000186265 ], [ 43618.349999999998545, 5949525.224999999627471 ], [ 43618.275000000001455, 5949525.224999999627471 ], [ 43618.275000000001455, 5949525.299999999813735 ], [ 43618.19999999999709, 5949525.299999999813735 ], [ 43618.19999999999709, 5949525.450000000186265 ], [ 43618.125, 5949525.450000000186265 ], [ 43618.125, 5949525.525000000372529 ], [ 43618.05000000000291, 5949525.525000000372529 ], [ 43618.05000000000291, 5949525.599999999627471 ], [ 43617.900000000001455, 5949525.599999999627471 ], [ 43617.900000000001455, 5949525.674999999813735 ], [ 43617.75, 5949525.674999999813735 ], [ 43617.75, 5949525.75 ], [ 43617.599999999998545, 5949525.75 ], [ 43617.599999999998545, 5949525.825000000186265 ], [ 43617.224999999998545, 5949525.825000000186265 ], [ 43617.224999999998545, 5949525.900000000372529 ], [ 43616.775000000001455, 5949525.900000000372529 ], [ 43616.775000000001455, 5949525.974999999627471 ], [ 43616.32499999999709, 5949525.974999999627471 ], [ 43616.32499999999709, 5949526.049999999813735 ], [ 43615.80000000000291, 5949526.049999999813735 ], [ 43615.80000000000291, 5949526.125 ], [ 43615.349999999998545, 5949526.125 ] ] ] } },
{ "type": "Feature", "properties": { "value": 1.0, "building_id": 2, "area": 3206.4131250006444 }, "geometry": { "type": "Polygon", "coordinates": [ [ [ 43652.025000000001455, 5949579.0 ], [ 43652.025000000001455, 5949575.924999999813735 ], [ 43651.94999999999709, 5949575.924999999813735 ], [ 43651.94999999999709, 5949575.700000000186265 ], [ 43651.875, 5949575.700000000186265 ], [ 43651.875, 5949575.474999999627471 ], [ 43651.80000000000291, 5949575.474999999627471 ], [ 43651.80000000000291, 5949575.25 ], [ 43651.724999999998545, 5949575.25 ], [ 43651.724999999998545, 5949575.099999999627471 ], [ 43651.650000000001455, 5949575.099999999627471 ], [ 43651.650000000001455, 5949574.875 ], [ 43651.57499999999709, 5949574.875 ], [ 43651.57499999999709, 5949574.724999999627471 ], [ 43651.5, 5949574.724999999627471 ], [ 43651.5, 5949574.5 ], [ 43651.42500000000291, 5949574.5 ], [ 43651.42500000000291, 5949574.349999999627471 ], [ 43651.349999999998545, 5949574.349999999627471 ], [ 43651.349999999998545, 5949574.200000000186265 ], [ 43651.275000000001455, 5949574.200000000186265 ], [ 43651.275000000001455, 5949574.049999999813735 ], [ 43651.19999999999709, 5949574.049999999813735 ], [ 43651.19999999999709, 5949573.974999999627471 ], [ 43651.125, 5949573.974999999627471 ], [ 43651.125, 5949573.825000000186265 ], [ 43651.05000000000291, 5949573.825000000186265 ], [ 43651.05000000000291, 5949573.75 ], [ 43650.974999999998545, 5949573.75 ], [ 43650.974999999998545, 5949573.674999999813735 ], [ 43650.900000000001455, 5949573.674999999813735 ], [ 43650.900000000001455, 5949573.599999999627471 ], [ 43650.82499999999709, 5949573.599999999627471 ], [ 43650.82499999999709, 5949573.525000000372529 ], [ 43650.75, 5949573.525000000372529 ], [ 43650.75, 5949573.450000000186265 ], [ 43650.67500000000291, 5949573.450000000186265 ], [ 43650.67500000000291, 5949573.299999999813735 ], [ 43650.599999999998545, 5949573.299999999813735 ], [ 43650.599999999998545, 5949573.224999999627471 ], [ 43650.525000000001455, 5949573.224999999627471 ], [ 43650.525000000001455, 5949573.150000000372529 ], [ 43650.44999999999709, 5949573.150000000372529 ], [ 43650.44999999999709, 5949573.075000000186265 ], [ 43650.375, 5949573.075000000186265 ], [ 43650.375, 5949573.0 ], [ 43650.30000000000291, 5949573.0 ], [ 43650.30000000000291, 5949572.924999999813735 ], [ 43650.224999999998545, 5949572.924999999813735 ], [ 43650.224999999998545, 5949572.849999999627471 ], [ 43650.150000000001455, 5949572.849999999627471 ], [ 43650.150000000001455, 5949572.775000000372529 ], [ 43650.07499999999709, 5949572.775000000372529 ], [ 43650.07499999999709, 5949572.700000000186265 ], [ 43649.92500000000291, 5949572.700000000186265 ], [ 43649.92500000000291, 5949572.625 ], [ 43649.849999999998545, 5949572.625 ], [ 43649.849999999998545, 5949572.549999999813735 ], [ 43649.775000000001455, 5949572.549999999813735 ], [ 43649.775000000001455, 5949572.474999999627471 ], [ 43649.69999999999709, 5949572.474999999627471 ], [ 43649.69999999999709, 5949572.400000000372529 ], [ 43649.625, 5949572.400000000372529 ], [ 43649.625, 5949572.325000000186265 ], [ 43649.474999999998545, 5949572.325000000186265 ], [ 43649.474999999998545, 5949572.25 ], [ 43649.400000000001455, 5949572.25 ], [ 43649.400000000001455, 5949572.174999999813735 ], [ 43649.32499999999709, 5949572.174999999813735 ], [ 43649.32499999999709, 5949572.099999999627471 ], [ 43649.25, 5949572.099999999627471 ], [ 43649.25, 5949572.025000000372529 ], [ 43649.17500000000291, 5949572.025000000372529 ], [ 43649.17500000000291, 5949571.950000000186265 ], [ 43649.099999999998545, 5949571.950000000186265 ], [ 43649.099999999998545, 5949571.875 ], [ 43649.025000000001455, 5949571.875 ], [ 43649.025000000001455, 5949571.799999999813735 ], [ 43648.94999999999709, 5949571.799999999813735 ], [ 43648.94999999999709, 5949571.724999999627471 ], [ 43648.875, 5949571.724999999627471 ], [ 43648.875, 5949571.650000000372529 ], [ 43648.80000000000291, 5949571.650000000372529 ], [ 43648.80000000000291, 5949571.575000000186265 ], [ 43648.650000000001455, 5949571.575000000186265 ], [ 43648.650000000001455, 5949571.5 ], [ 43648.57499999999709, 5949571.5 ], [ 43648.57499999999709, 5949571.424999999813735 ], [ 43648.42500000000291, 5949571.424999999813735 ], [ 43648.42500000000291, 5949571.349999999627471 ], [ 43648.349999999998545, 5949571.349999999627471 ], [ 43648.349999999998545, 5949571.275000000372529 ], [ 43648.19999999999709, 5949571.275000000372529 ], [ 43648.19999999999709, 5949571.200000000186265 ], [ 43648.125, 5949571.200000000186265 ], [ 43648.125, 5949571.125 ], [ 43647.974999999998545, 5949571.125 ], [ 43647.974999999998545, 5949571.049999999813735 ], [ 43647.900000000001455, 5949571.049999999813735 ], [ 43647.900000000001455, 5949570.974999999627471 ], [ 43647.75, 5949570.974999999627471 ], [ 43647.75, 5949570.900000000372529 ], [ 43647.599999999998545, 5949570.900000000372529 ], [ 43647.599999999998545, 5949570.825000000186265 ], [ 43647.525000000001455, 5949570.825000000186265 ], [ 43647.525000000001455, 5949570.75 ], [ 43647.375, 5949570.75 ], [ 43647.375, 5949570.674999999813735 ], [ 43647.224999999998545, 5949570.674999999813735 ], [ 43647.224999999998545, 5949570.599999999627471 ], [ 43647.07499999999709, 5949570.599999999627471 ], [ 43647.07499999999709, 5949570.525000000372529 ], [ 43646.92500000000291, 5949570.525000000372529 ], [ 43646.92500000000291, 5949570.450000000186265 ], [ 43646.775000000001455, 5949570.450000000186265 ], [ 43646.775000000001455, 5949570.375 ], [ 43646.625, 5949570.375 ], [ 43646.625, 5949570.299999999813735 ], [ 43646.474999999998545, 5949570.299999999813735 ], [ 43646.474999999998545, 5949570.224999999627471 ], [ 43646.32499999999709, 5949570.224999999627471 ], [ 43646.32499999999709, 5949570.150000000372529 ], [ 43646.17500000000291, 5949570.150000000372529 ], [ 43646.17500000000291, 5949570.075000000186265 ], [ 43646.099999999998545, 5949570.075000000186265 ], [ 43646.099999999998545, 5949570.0 ], [ 43646.025000000001455, 5949570.0 ], [ 43646.025000000001455, 5949569.924999999813735 ], [ 43645.875, 5949569.924999999813735 ], [ 43645.875, 5949569.849999999627471 ], [ 43645.80000000000291, 5949569.849999999627471 ], [ 43645.80000000000291, 5949569.775000000372529 ], [ 43645.650000000001455, 5949569.775000000372529 ], [ 43645.650000000001455, 5949569.700000000186265 ], [ 43645.57499999999709, 5949569.700000000186265 ], [ 43645.57499999999709, 5949569.625 ], [ 43645.42500000000291, 5949569.625 ], [ 43645.42500000000291, 5949569.549999999813735 ], [ 43645.349999999998545, 5949569.549999999813735 ], [ 43645.349999999998545, 5949569.474999999627471 ], [ 43645.19999999999709, 5949569.474999999627471 ], [ 43645.19999999999709, 5949569.400000000372529 ], [ 43645.125, 5949569.400000000372529 ], [ 43645.125, 5949569.325000000186265 ], [ 43644.974999999998545, 5949569.325000000186265 ], [ 43644.974999999998545, 5949569.25 ], [ 43644.900000000001455, 5949569.25 ], [ 43644.900000000001455, 5949569.174999999813735 ], [ 43644.82499999999709, 5949569.174999999813735 ], [ 43644.82499999999709, 5949569.099999999627471 ], [ 43644.67500000000291, 5949569.099999999627471 ], [ 43644.67500000000291, 5949569.025000000372529 ], [ 43644.599999999998545, 5949569.025000000372529 ], [ 43644.599999999998545, 5949568.950000000186265 ], [ 43644.525000000001455, 5949568.950000000186265 ], [ 43644.525000000001455, 5949568.875 ], [ 43644.375, 5949568.875 ], [ 43644.375, 5949568.799999999813735 ], [ 43644.30000000000291, 5949568.799999999813735 ], [ 43644.30000000000291, 5949568.724999999627471 ], [ 43644.224999999998545, 5949568.724999999627471 ], [ 43644.224999999998545, 5949568.650000000372529 ], [ 43644.07499999999709, 5949568.650000000372529 ], [ 43644.07499999999709, 5949568.575000000186265 ], [ 43644.0, 5949568.575000000186265 ], [ 43644.0, 5949568.5 ], [ 43643.92500000000291, 5949568.5 ], [ 43643.92500000000291, 5949568.424999999813735 ], [ 43643.775000000001455, 5949568.424999999813735 ], [ 43643.775000000001455, 5949568.349999999627471 ], [ 43643.69999999999709, 5949568.349999999627471 ], [ 43643.69999999999709, 5949568.275000000372529 ], [ 43643.625, 5949568.275000000372529 ], [ 43643.625, 5949568.200000000186265 ], [ 43643.55000000000291, 5949568.200000000186265 ], [ 43643.55000000000291, 5949568.125 ], [ 43643.474999999998545, 5949568.125 ], [ 43643.474999999998545, 5949567.974999999627471 ], [ 43643.400000000001455, 5949567.974999999627471 ], [ 43643.400000000001455, 5949567.900000000372529 ], [ 43643.32499999999709, 5949567.900000000372529 ], [ 43643.32499999999709, 5949567.75 ], [ 43643.25, 5949567.75 ], [ 43643.25, 5949567.674999999813735 ], [ 43643.17500000000291, 5949567.674999999813735 ], [ 43643.17500000000291, 5949567.525000000372529 ], [ 43643.099999999998545, 5949567.525000000372529 ], [ 43643.099999999998545, 5949567.450000000186265 ], [ 43643.025000000001455, 5949567.450000000186265 ], [ 43643.025000000001455, 5949567.299999999813735 ], [ 43642.94999999999709, 5949567.299999999813735 ], [ 43642.94999999999709, 5949567.224999999627471 ], [ 43642.875, 5949567.224999999627471 ], [ 43642.875, 5949567.075000000186265 ], [ 43642.80000000000291, 5949567.075000000186265 ], [ 43642.80000000000291, 5949566.924999999813735 ], [ 43642.724999999998545, 5949566.924999999813735 ], [ 43642.724999999998545, 5949566.775000000372529 ], [ 43642.650000000001455, 5949566.775000000372529 ], [ 43642.650000000001455, 5949566.700000000186265 ], [ 43642.57499999999709, 5949566.700000000186265 ], [ 43642.57499999999709, 5949566.549999999813735 ], [ 43642.5, 5949566.549999999813735 ], [ 43642.5, 5949566.400000000372529 ], [ 43642.42500000000291, 5949566.400000000372529 ], [ 43642.42500000000291, 5949566.25 ], [ 43642.349999999998545, 5949566.25 ], [ 43642.349999999998545, 5949565.950000000186265 ], [ 43642.275000000001455, 5949565.950000000186265 ], [ 43642.275000000001455, 5949565.724999999627471 ], [ 43642.19999999999709, 5949565.724999999627471 ], [ 43642.19999999999709, 5949565.424999999813735 ], [ 43642.125, 5949565.424999999813735 ], [ 43642.125, 5949565.125 ], [ 43642.05000000000291, 5949565.125 ], [ 43642.05000000000291, 5949564.900000000372529 ], [ 43641.974999999998545, 5949564.900000000372529 ], [ 43641.974999999998545, 5949564.599999999627471 ], [ 43641.900000000001455, 5949564.599999999627471 ], [ 43641.900000000001455, 5949564.375 ], [ 43641.82499999999709, 5949564.375 ], [ 43641.82499999999709, 5949564.075000000186265 ], [ 43641.75, 5949564.075000000186265 ], [ 43641.75, 5949563.775000000372529 ], [ 43641.67500000000291, 5949563.775000000372529 ], [ 43641.67500000000291, 5949563.549999999813735 ], [ 43641.599999999998545, 5949563.549999999813735 ], [ 43641.599999999998545, 5949563.25 ], [ 43641.525000000001455, 5949563.25 ], [ 43641.525000000001455, 5949562.950000000186265 ], [ 43641.44999999999709, 5949562.950000000186265 ], [ 43641.44999999999709, 5949562.724999999627471 ], [ 43641.375, 5949562.724999999627471 ], [ 43641.375, 5949562.424999999813735 ], [ 43641.30000000000291, 5949562.424999999813735 ], [ 43641.30000000000291, 5949562.200000000186265 ], [ 43641.224999999998545, 5949562.200000000186265 ], [ 43641.224999999998545, 5949561.900000000372529 ], [ 43641.150000000001455, 5949561.900000000372529 ], [ 43641.150000000001455, 5949561.599999999627471 ], [ 43641.07499999999709, 5949561.599999999627471 ], [ 43641.07499999999709, 5949561.299999999813735 ], [ 43641.0, 5949561.299999999813735 ], [ 43641.0, 5949561.075000000186265 ], [ 43640.92500000000291, 5949561.075000000186265 ], [ 43640.92500000000291, 5949560.775000000372529 ], [ 43640.849999999998545, 5949560.775000000372529 ], [ 43640.849999999998545, 5949560.549999999813735 ], [ 43640.775000000001455, 5949560.549999999813735 ], [ 43640.775000000001455, 5949560.400000000372529 ], [ 43640.69999999999709, 5949560.400000000372529 ], [ 43640.69999999999709, 5949560.25 ], [ 43640.625, 5949560.25 ], [ 43640.625, 5949560.099999999627471 ], [ 43640.55000000000291, 5949560.099999999627471 ], [ 43640.55000000000291, 5949559.950000000186265 ], [ 43640.474999999998545, 5949559.950000000186265 ], [ 43640.474999999998545, 5949559.875 ], [ 43640.400000000001455, 5949559.875 ], [ 43640.400000000001455, 5949559.724999999627471 ], [ 43640.32499999999709, 5949559.724999999627471 ], [ 43640.32499999999709, 5949559.575000000186265 ], [ 43640.25, 5949559.575000000186265 ], [ 43640.25, 5949559.5 ], [ 43640.17500000000291, 5949559.5 ], [ 43640.17500000000291, 5949559.349999999627471 ], [ 43640.099999999998545, 5949559.349999999627471 ], [ 43640.099999999998545, 5949559.275000000372529 ], [ 43640.025000000001455, 5949559.275000000372529 ], [ 43640.025000000001455, 5949559.125 ], [ 43639.94999999999709, 5949559.125 ], [ 43639.94999999999709, 5949559.049999999813735 ], [ 43639.875, 5949559.049999999813735 ], [ 43639.875, 5949558.900000000372529 ], [ 43639.80000000000291, 5949558.900000000372529 ], [ 43639.80000000000291, 5949558.825000000186265 ], [ 43639.724999999998545, 5949558.825000000186265 ], [ 43639.724999999998545, 5949558.674999999813735 ], [ 43639.650000000001455, 5949558.674999999813735 ], [ 43639.650000000001455, 5949558.599999999627471 ], [ 43639.57499999999709, 5949558.599999999627471 ], [ 43639.57499999999709, 5949558.525000000372529 ], [ 43639.5, 5949558.525000000372529 ], [ 43639.5, 5949558.450000000186265 ], [ 43639.42500000000291, 5949558.450000000186265 ], [ 43639.42500000000291, 5949558.375 ], [ 43639.349999999998545, 5949558.375 ], [ 43639.349999999998545, 5949558.299999999813735 ], [ 43639.275000000001455, 5949558.299999999813735 ], [ 43639.275000000001455, 5949558.224999999627471 ], [ 43639.19999999999709, 5949558.224999999627471 ], [ 43639.19999999999709, 5949558.150000000372529 ], [ 43639.125, 5949558.150000000372529 ], [ 43639.125, 5949558.075000000186265 ], [ 43639.05000000000291, 5949558.075000000186265 ], [ 43639.05000000000291, 5949558.0 ], [ 43638.974999999998545, 5949558.0 ], [ 43638.974999999998545, 5949557.924999999813735 ], [ 43638.82499999999709, 5949557.924999999813735 ], [ 43638.82499999999709, 5949557.849999999627471 ], [ 43638.75, 5949557.849999999627471 ], [ 43638.75, 5949557.775000000372529 ], [ 43638.67500000000291, 5949557.775000000372529 ], [ 43638.67500000000291, 5949557.700000000186265 ], [ 43638.525000000001455, 5949557.700000000186265 ], [ 43638.525000000001455, 5949557.625 ], [ 43638.44999999999709, 5949557.625 ], [ 43638.44999999999709, 5949557.549999999813735 ], [ 43638.30000000000291, 5949557.549999999813735 ], [ 43638.30000000000291, 5949557.474999999627471 ], [ 43638.224999999998545, 5949557.474999999627471 ], [ 43638.224999999998545, 5949557.400000000372529 ], [ 43638.07499999999709, 5949557.400000000372529 ], [ 43638.07499999999709, 5949557.325000000186265 ], [ 43638.0, 5949557.325000000186265 ], [ 43638.0, 5949557.25 ], [ 43637.849999999998545, 5949557.25 ], [ 43637.849999999998545, 5949557.174999999813735 ], [ 43637.775000000001455, 5949557.174999999813735 ], [ 43637.775000000001455, 5949557.099999999627471 ], [ 43637.625, 5949557.099999999627471 ], [ 43637.625, 5949557.025000000372529 ], [ 43637.474999999998545, 5949557.025000000372529 ], [ 43637.474999999998545, 5949556.950000000186265 ], [ 43637.32499999999709, 5949556.950000000186265 ], [ 43637.32499999999709, 5949556.875 ], [ 43637.17500000000291, 5949556.875 ], [ 43637.17500000000291, 5949556.799999999813735 ], [ 43637.025000000001455, 5949556.799999999813735 ], [ 43637.025000000001455, 5949556.724999999627471 ], [ 43636.94999999999709, 5949556.724999999627471 ], [ 43636.94999999999709, 5949556.650000000372529 ], [ 43636.875, 5949556.650000000372529 ], [ 43636.875, 5949556.575000000186265 ], [ 43636.724999999998545, 5949556.575000000186265 ], [ 43636.724999999998545, 5949556.5 ], [ 43636.650000000001455, 5949556.5 ], [ 43636.650000000001455, 5949556.424999999813735 ], [ 43636.57499999999709, 5949556.424999999813735 ], [ 43636.57499999999709, 5949556.349999999627471 ], [ 43636.42500000000291, 5949556.349999999627471 ], [ 43636.42500000000291, 5949556.275000000372529 ], [ 43636.349999999998545, 5949556.275000000372529 ], [ 43636.349999999998545, 5949556.200000000186265 ], [ 43636.19999999999709, 5949556.200000000186265 ], [ 43636.19999999999709, 5949556.125 ], [ 43636.125, 5949556.125 ], [ 43636.125, 5949556.049999999813735 ], [ 43635.974999999998545, 5949556.049999999813735 ], [ 43635.974999999998545, 5949555.974999999627471 ], [ 43635.900000000001455, 5949555.974999999627471 ], [ 43635.900000000001455, 5949555.900000000372529 ], [ 43635.75, 5949555.900000000372529 ], [ 43635.75, 5949555.825000000186265 ], [ 43635.599999999998545, 5949555.825000000186265 ], [ 43635.599999999998545, 5949555.75 ], [ 43635.525000000001455, 5949555.75 ], [ 43635.525000000001455, 5949555.674999999813735 ], [ 43635.375, 5949555.674999999813735 ], [ 43635.375, 5949555.599999999627471 ], [ 43635.224999999998545, 5949555.599999999627471 ], [ 43635.224999999998545, 5949555.525000000372529 ], [ 43635.07499999999709, 5949555.525000000372529 ], [ 43635.07499999999709, 5949555.450000000186265 ], [ 43635.0, 5949555.450000000186265 ], [ 43635.0, 5949555.375 ], [ 43634.849999999998545, 5949555.375 ], [ 43634.849999999998545, 5949555.299999999813735 ], [ 43634.775000000001455, 5949555.299999999813735 ], [ 43634.775000000001455, 5949555.224999999627471 ], [ 43634.69999999999709, 5949555.224999999627471 ], [ 43634.69999999999709, 5949555.150000000372529 ], [ 43634.55000000000291, 5949555.150000000372529 ], [ 43634.55000000000291, 5949555.075000000186265 ], [ 43634.400000000001455, 5949555.075000000186265 ], [ 43634.400000000001455, 5949555.0 ], [ 43634.32499999999709, 5949555.0 ], [ 43634.32499999999709, 5949554.924999999813735 ], [ 43634.17500000000291, 5949554.924999999813735 ], [ 43634.17500000000291, 5949554.849999999627471 ], [ 43634.099999999998545, 5949554.849999999627471 ], [ 43634.099999999998545, 5949554.775000000372529 ], [ 43633.94999999999709, 5949554.775000000372529 ], [ 43633.94999999999709, 5949554.700000000186265 ], [ 43633.80000000000291, 5949554.700000000186265 ], [ 43633.80000000000291, 5949554.625 ], [ 43633.650000000001455, 5949554.625 ], [ 43633.650000000001455, 5949554.549999999813735 ], [ 43633.57499999999709, 5949554.549999999813735 ], [ 43633.57499999999709, 5949554.474999999627471 ], [ 43633.42500000000291, 5949554.474999999627471 ], [ 43633.42500000000291, 5949554.400000000372529 ], [ 43633.275000000001455, 5949554.400000000372529 ], [ 43633.275000000001455, 5949554.325000000186265 ], [ 43633.19999999999709, 5949554.325000000186265 ], [ 43633.19999999999709, 5949554.25 ], [ 43633.125, 5949554.25 ], [ 43633.125, 5949554.099999999627471 ], [ 43633.05000000000291, 5949554.099999999627471 ], [ 43633.05000000000291, 5949553.875 ], [ 43632.974999999998545, 5949553.875 ], [ 43632.974999999998545, 5949553.724999999627471 ], [ 43632.900000000001455, 5949553.724999999627471 ], [ 43632.900000000001455, 5949553.575000000186265 ], [ 43632.82499999999709, 5949553.575000000186265 ], [ 43632.82499999999709, 5949553.424999999813735 ], [ 43632.75, 5949553.424999999813735 ], [ 43632.75, 5949553.275000000372529 ], [ 43632.67500000000291, 5949553.275000000372529 ], [ 43632.67500000000291, 5949553.125 ], [ 43632.599999999998545, 5949553.125 ], [ 43632.599999999998545, 5949552.974999999627471 ], [ 43632.525000000001455, 5949552.974999999627471 ], [ 43632.525000000001455, 5949552.825000000186265 ], [ 43632.44999999999709, 5949552.825000000186265 ], [ 43632.44999999999709, 5949552.674999999813735 ], [ 43632.375, 5949552.674999999813735 ], [ 43632.375, 5949552.525000000372529 ], [ 43632.30000000000291, 5949552.525000000372529 ], [ 43632.30000000000291, 5949552.224999999627471 ], [ 43632.224999999998545, 5949552.224999999627471 ], [ 43632.224999999998545, 5949552.0 ], [ 43632.150000000001455, 5949552.0 ], [ 43632.150000000001455, 5949551.775000000372529 ], [ 43632.07499999999709, 5949551.775000000372529 ], [ 43632.07499999999709, 5949551.549999999813735 ], [ 43632.0, 5949551.549999999813735 ], [ 43632.0, 5949551.325000000186265 ], [ 43631.92500000000291, 5949551.325000000186265 ], [ 43631.92500000000291, 5949551.025000000372529 ], [ 43631.849999999998545, 5949551.025000000372529 ], [ 43631.849999999998545, 5949550.799999999813735 ], [ 43631.775000000001455, 5949550.799999999813735 ], [ 43631.775000000001455, 5949548.700000000186265 ], [ 43631.849999999998545, 5949548.700000000186265 ], [ 43631.849999999998545, 5949543.450000000186265 ], [ 43631.92500000000291, 5949543.450000000186265 ], [ 43631.92500000000291, 5949538.200000000186265 ], [ 43632.0, 5949538.200000000186265 ], [ 43632.0, 5949536.549999999813735 ], [ 43631.92500000000291, 5949536.549999999813735 ], [ 43631.92500000000291, 5949534.974999999627471 ], [ 43631.849999999998545, 5949534.974999999627471 ], [ 43631.849999999998545, 5949534.075000000186265 ], [ 43631.775000000001455, 5949534.075000000186265 ], [ 43631.775000000001455, 5949533.625 ], [ 43631.849999999998545, 5949533.625 ], [ 43631.849999999998545, 5949533.25 ], [ 43631.92500000000291, 5949533.25 ], [ 43631.92500000000291, 5949532.875 ], [ 43632.0, 5949532.875 ], [ 43632.0, 5949532.5 ], [ 43632.07499999999709, 5949532.5 ], [ 43632.07499999999709, 5949532.049999999813735 ], [ 43632.150000000001455, 5949532.049999999813735 ], [ 43632.150000000001455, 5949531.599999999627471 ], [ 43632.224999999998545, 5949531.599999999627471 ], [ 43632.224999999998545, 5949531.150000000372529 ], [ 43632.30000000000291, 5949531.150000000372529 ], [ 43632.30000000000291, 5949530.625 ], [ 43632.375, 5949530.625 ], [ 43632.375, 5949530.099999999627471 ], [ 43632.44999999999709, 5949530.099999999627471 ], [ 43632.44999999999709, 5949529.575000000186265 ], [ 43632.525000000001455, 5949529.575000000186265 ], [ 43632.525000000001455, 5949528.75 ], [ 43632.599999999998545, 5949528.75 ], [ 43632.599999999998545, 5949527.474999999627471 ], [ 43632.67500000000291, 5949527.474999999627471 ], [ 43632.67500000000291, 5949525.299999999813735 ], [ 43632.599999999998545, 5949525.299999999813735 ], [ 43632.599999999998545, 5949520.5 ], [ 43632.67500000000291, 5949520.5 ], [ 43632.67500000000291, 5949519.0 ], [ 43632.75, 5949519.0 ], [ 43632.75, 5949518.325000000186265 ], [ 43632.82499999999709, 5949518.325000000186265 ], [ 43632.82499999999709, 5949517.724999999627471 ], [ 43632.900000000001455, 5949517.724999999627471 ], [ 43632.900000000001455, 5949517.275000000372529 ], [ 43632.974999999998545, 5949517.275000000372529 ], [ 43632.974999999998545, 5949516.974999999627471 ], [ 43633.05000000000291, 5949516.974999999627471 ], [ 43633.05000000000291, 5949516.674999999813735 ], [ 43633.125, 5949516.674999999813735 ], [ 43633.125, 5949516.450000000186265 ], [ 43633.19999999999709, 5949516.450000000186265 ], [ 43633.19999999999709, 5949516.224999999627471 ], [ 43633.275000000001455, 5949516.224999999627471 ], [ 43633.275000000001455, 5949516.0 ], [ 43633.349999999998545, 5949516.0 ], [ 43633.349999999998545, 5949515.775000000372529 ], [ 43633.42500000000291, 5949515.775000000372529 ], [ 43633.42500000000291, 5949515.474999999627471 ], [ 43633.5, 5949515.474999999627471 ], [ 43633.5, 5949515.325000000186265 ], [ 43633.57499999999709, 5949515.325000000186265 ], [ 43633.57499999999709, 5949515.25 ], [ 43633.650000000001455, 5949515.25 ], [ 43633.650000000001455, 5949515.099999999627471 ], [ 43633.724999999998545, 5949515.099999999627471 ], [ 43633.724999999998545, 5949514.950000000186265 ], [ 43633.80000000000291, 5949514.950000000186265 ], [ 43633.80000000000291, 5949514.875 ], [ 43633.875, 5949514.875 ], [ 43633.875, 5949514.724999999627471 ], [ 43633.94999999999709, 5949514.724999999627471 ], [ 43633.94999999999709, 5949514.650000000372529 ], [ 43634.025000000001455, 5949514.650000000372529 ], [ 43634.025000000001455, 5949514.5 ], [ 43634.099999999998545, 5949514.5 ], [ 43634.099999999998545, 5949514.424999999813735 ], [ 43634.17500000000291, 5949514.424999999813735 ], [ 43634.17500000000291, 5949514.349999999627471 ], [ 43634.25, 5949514.349999999627471 ], [ 43634.25, 5949514.275000000372529 ], [ 43634.32499999999709, 5949514.275000000372529 ], [ 43634.32499999999709, 5949514.200000000186265 ], [ 43634.400000000001455, 5949514.200000000186265 ], [ 43634.400000000001455, 5949514.125 ], [ 43634.474999999998545, 5949514.125 ], [ 43634.474999999998545, 5949514.049999999813735 ], [ 43634.55000000000291, 5949514.049999999813735 ], [ 43634.55000000000291, 5949513.974999999627471 ], [ 43634.625, 5949513.974999999627471 ], [ 43634.625, 5949513.900000000372529 ], [ 43634.775000000001455, 5949513.900000000372529 ], [ 43634.775000000001455, 5949513.825000000186265 ], [ 43634.849999999998545, 5949513.825000000186265 ], [ 43634.849999999998545, 5949513.75 ], [ 43634.92500000000291, 5949513.75 ], [ 43634.92500000000291, 5949513.674999999813735 ], [ 43635.07499999999709, 5949513.674999999813735 ], [ 43635.07499999999709, 5949513.599999999627471 ], [ 43635.150000000001455, 5949513.599999999627471 ], [ 43635.150000000001455, 5949513.450000000186265 ], [ 43635.224999999998545, 5949513.450000000186265 ], [ 43635.224999999998545, 5949513.0 ], [ 43635.30000000000291, 5949513.0 ], [ 43635.30000000000291, 5949512.625 ], [ 43635.375, 5949512.625 ], [ 43635.375, 5949512.25 ], [ 43635.44999999999709, 5949512.25 ], [ 43635.44999999999709, 5949511.799999999813735 ], [ 43635.525000000001455, 5949511.799999999813735 ], [ 43635.525000000001455, 5949511.575000000186265 ], [ 43635.375, 5949511.575000000186265 ], [ 43635.375, 5949511.5 ], [ 43635.224999999998545, 5949511.5 ], [ 43635.224999999998545, 5949511.424999999813735 ], [ 43635.07499999999709, 5949511.424999999813735 ], [ 43635.07499999999709, 5949511.349999999627471 ], [ 43635.0, 5949511.349999999627471 ], [ 43635.0, 5949511.275000000372529 ], [ 43634.849999999998545, 5949511.275000000372529 ], [ 43634.849999999998545, 5949511.200000000186265 ], [ 43634.775000000001455, 5949511.200000000186265 ], [ 43634.775000000001455, 5949511.125 ], [ 43634.69999999999709, 5949511.125 ], [ 43634.69999999999709, 5949511.049999999813735 ], [ 43634.625, 5949511.049999999813735 ], [ 43634.625, 5949510.974999999627471 ], [ 43634.55000000000291, 5949510.974999999627471 ], [ 43634.55000000000291, 5949510.900000000372529 ], [ 43634.474999999998545, 5949510.900000000372529 ], [ 43634.474999999998545, 5949510.825000000186265 ], [ 43634.400000000001455, 5949510.825000000186265 ], [ 43634.400000000001455, 5949510.75 ], [ 43634.32499999999709, 5949510.75 ], [ 43634.32499999999709, 5949510.674999999813735 ], [ 43634.25, 5949510.674999999813735 ], [ 43634.25, 5949510.525000000372529 ], [ 43634.17500000000291, 5949510.525000000372529 ], [ 43634.17500000000291, 5949510.450000000186265 ], [ 43634.099999999998545, 5949510.450000000186265 ], [ 43634.099999999998545, 5949510.375 ], [ 43634.025000000001455, 5949510.375 ], [ 43634.025000000001455, 5949510.224999999627471 ], [ 43633.94999999999709, 5949510.224999999627471 ], [ 43633.94999999999709, 5949510.075000000186265 ], [ 43633.875, 5949510.075000000186265 ], [ 43633.875, 5949509.924999999813735 ], [ 43633.80000000000291, 5949509.924999999813735 ], [ 43633.80000000000291, 5949509.775000000372529 ], [ 43633.724999999998545, 5949509.775000000372529 ], [ 43633.724999999998545, 5949509.625 ], [ 43633.650000000001455, 5949509.625 ], [ 43633.650000000001455, 5949509.400000000372529 ], [ 43633.57499999999709, 5949509.400000000372529 ], [ 43633.57499999999709, 5949509.174999999813735 ], [ 43633.5, 5949509.174999999813735 ], [ 43633.5, 5949508.950000000186265 ], [ 43633.42500000000291, 5949508.950000000186265 ], [ 43633.42500000000291, 5949508.650000000372529 ], [ 43633.349999999998545, 5949508.650000000372529 ], [ 43633.349999999998545, 5949508.424999999813735 ], [ 43633.275000000001455, 5949508.424999999813735 ], [ 43633.275000000001455, 5949508.200000000186265 ], [ 43633.19999999999709, 5949508.200000000186265 ], [ 43633.19999999999709, 5949507.974999999627471 ], [ 43633.125, 5949507.974999999627471 ], [ 43633.125, 5949507.75 ], [ 43633.05000000000291, 5949507.75 ], [ 43633.05000000000291, 5949507.525000000372529 ], [ 43632.974999999998545, 5949507.525000000372529 ], [ 43632.974999999998545, 5949507.224999999627471 ], [ 43632.900000000001455, 5949507.224999999627471 ], [ 43632.900000000001455, 5949506.700000000186265 ], [ 43632.82499999999709, 5949506.700000000186265 ], [ 43632.82499999999709, 5949505.349999999627471 ], [ 43632.75, 5949505.349999999627471 ], [ 43632.75, 5949503.775000000372529 ], [ 43632.67500000000291, 5949503.775000000372529 ], [ 43632.67500000000291, 5949501.224999999627471 ], [ 43632.599999999998545, 5949501.224999999627471 ], [ 43632.599999999998545, 5949497.775000000372529 ], [ 43632.67500000000291, 5949497.775000000372529 ], [ 43632.67500000000291, 5949497.549999999813735 ], [ 43632.75, 5949497.549999999813735 ], [ 43632.75, 5949497.25 ], [ 43632.82499999999709, 5949497.25 ], [ 43632.82499999999709, 5949497.025000000372529 ], [ 43632.900000000001455, 5949497.025000000372529 ], [ 43632.900000000001455, 5949496.724999999627471 ], [ 43632.974999999998545, 5949496.724999999627471 ], [ 43632.974999999998545, 5949496.5 ], [ 43633.05000000000291, 5949496.5 ], [ 43633.05000000000291, 5949496.275000000372529 ], [ 43633.125, 5949496.275000000372529 ], [ 43633.125, 5949496.049999999813735 ], [ 43633.19999999999709, 5949496.049999999813735 ], [ 43633.19999999999709, 5949495.900000000372529 ], [ 43633.349999999998545, 5949495.900000000372529 ], [ 43633.349999999998545, 5949495.825000000186265 ], [ 43633.42500000000291, 5949495.825000000186265 ], [ 43633.42500000000291, 5949495.75 ], [ 43633.5, 5949495.75 ], [ 43633.5, 5949495.674999999813735 ], [ 43633.57499999999709, 5949495.674999999813735 ], [ 43633.57499999999709, 5949495.599999999627471 ], [ 43633.650000000001455, 5949495.599999999627471 ], [ 43633.650000000001455, 5949495.525000000372529 ], [ 43633.724999999998545, 5949495.525000000372529 ], [ 43633.724999999998545, 5949495.450000000186265 ], [ 43633.80000000000291, 5949495.450000000186265 ], [ 43633.80000000000291, 5949495.375 ], [ 43633.875, 5949495.375 ], [ 43633.875, 5949495.299999999813735 ], [ 43633.94999999999709, 5949495.299999999813735 ], [ 43633.94999999999709, 5949495.224999999627471 ], [ 43634.025000000001455, 5949495.224999999627471 ], [ 43634.025000000001455, 5949495.150000000372529 ], [ 43634.099999999998545, 5949495.150000000372529 ], [ 43634.099999999998545, 5949495.075000000186265 ], [ 43634.17500000000291, 5949495.075000000186265 ], [ 43634.17500000000291, 5949495.0 ], [ 43634.25, 5949495.0 ], [ 43634.25, 5949494.924999999813735 ], [ 43634.32499999999709, 5949494.924999999813735 ], [ 43634.32499999999709, 5949494.849999999627471 ], [ 43634.400000000001455, 5949494.849999999627471 ], [ 43634.400000000001455, 5949494.700000000186265 ], [ 43634.474999999998545, 5949494.700000000186265 ], [ 43634.474999999998545, 5949494.625 ], [ 43634.55000000000291, 5949494.625 ], [ 43634.55000000000291, 5949494.549999999813735 ], [ 43634.625, 5949494.549999999813735 ], [ 43634.625, 5949494.474999999627471 ], [ 43634.69999999999709, 5949494.474999999627471 ], [ 43634.69999999999709, 5949494.400000000372529 ], [ 43634.775000000001455, 5949494.400000000372529 ], [ 43634.775000000001455, 5949494.325000000186265 ], [ 43634.849999999998545, 5949494.325000000186265 ], [ 43634.849999999998545, 5949494.174999999813735 ], [ 43634.92500000000291, 5949494.174999999813735 ], [ 43634.92500000000291, 5949494.099999999627471 ], [ 43635.0, 5949494.099999999627471 ], [ 43635.0, 5949494.025000000372529 ], [ 43635.07499999999709, 5949494.025000000372529 ], [ 43635.07499999999709, 5949493.950000000186265 ], [ 43635.150000000001455, 5949493.950000000186265 ], [ 43635.150000000001455, 5949493.875 ], [ 43635.30000000000291, 5949493.875 ], [ 43635.30000000000291, 5949493.799999999813735 ], [ 43635.44999999999709, 5949493.799999999813735 ], [ 43635.44999999999709, 5949493.724999999627471 ], [ 43635.525000000001455, 5949493.724999999627471 ], [ 43635.525000000001455, 5949493.650000000372529 ], [ 43635.67500000000291, 5949493.650000000372529 ], [ 43635.67500000000291, 5949493.575000000186265 ], [ 43635.82499999999709, 5949493.575000000186265 ], [ 43635.82499999999709, 5949493.5 ], [ 43635.900000000001455, 5949493.5 ], [ 43635.900000000001455, 5949493.424999999813735 ], [ 43636.05000000000291, 5949493.424999999813735 ], [ 43636.05000000000291, 5949493.349999999627471 ], [ 43636.125, 5949493.349999999627471 ], [ 43636.125, 5949493.275000000372529 ], [ 43636.275000000001455, 5949493.275000000372529 ], [ 43636.275000000001455, 5949493.200000000186265 ], [ 43636.42500000000291, 5949493.200000000186265 ], [ 43636.42500000000291, 5949493.125 ], [ 43636.5, 5949493.125 ], [ 43636.5, 5949493.049999999813735 ], [ 43636.650000000001455, 5949493.049999999813735 ], [ 43636.650000000001455, 5949492.974999999627471 ], [ 43636.724999999998545, 5949492.974999999627471 ], [ 43636.724999999998545, 5949492.900000000372529 ], [ 43636.875, 5949492.900000000372529 ], [ 43636.875, 5949492.825000000186265 ], [ 43636.94999999999709, 5949492.825000000186265 ], [ 43636.94999999999709, 5949492.75 ], [ 43637.099999999998545, 5949492.75 ], [ 43637.099999999998545, 5949492.674999999813735 ], [ 43637.17500000000291, 5949492.674999999813735 ], [ 43637.17500000000291, 5949492.599999999627471 ], [ 43637.32499999999709, 5949492.599999999627471 ], [ 43637.32499999999709, 5949492.525000000372529 ], [ 43637.474999999998545, 5949492.525000000372529 ], [ 43637.474999999998545, 5949492.450000000186265 ], [ 43637.625, 5949492.450000000186265 ], [ 43637.625, 5949492.375 ], [ 43637.775000000001455, 5949492.375 ], [ 43637.775000000001455, 5949492.299999999813735 ], [ 43637.849999999998545, 5949492.299999999813735 ], [ 43637.849999999998545, 5949492.224999999627471 ], [ 43638.0, 5949492.224999999627471 ], [ 43638.0, 5949492.150000000372529 ], [ 43638.07499999999709, 5949492.150000000372529 ], [ 43638.07499999999709, 5949492.075000000186265 ], [ 43638.224999999998545, 5949492.075000000186265 ], [ 43638.224999999998545, 5949492.0 ], [ 43638.375, 5949492.0 ], [ 43638.375, 5949491.924999999813735 ], [ 43638.525000000001455, 5949491.924999999813735 ], [ 43638.525000000001455, 5949491.849999999627471 ], [ 43638.75, 5949491.849999999627471 ], [ 43638.75, 5949491.775000000372529 ], [ 43638.974999999998545, 5949491.775000000372529 ], [ 43638.974999999998545, 5949491.700000000186265 ], [ 43639.275000000001455, 5949491.700000000186265 ], [ 43639.275000000001455, 5949491.625 ], [ 43639.724999999998545, 5949491.625 ], [ 43639.724999999998545, 5949491.549999999813735 ], [ 43640.17500000000291, 5949491.549999999813735 ], [ 43640.17500000000291, 5949491.474999999627471 ], [ 43640.69999999999709, 5949491.474999999627471 ], [ 43640.69999999999709, 5949491.400000000372529 ], [ 43641.900000000001455, 5949491.400000000372529 ], [ 43641.900000000001455, 5949491.325000000186265 ], [ 43644.375, 5949491.325000000186265 ], [ 43644.375, 5949491.25 ], [ 43647.30000000000291, 5949491.25 ], [ 43647.30000000000291, 5949491.174999999813735 ], [ 43649.099999999998545, 5949491.174999999813735 ], [ 43649.099999999998545, 5949491.099999999627471 ], [ 43650.150000000001455, 5949491.099999999627471 ], [ 43650.150000000001455, 5949491.025000000372529 ], [ 43651.05000000000291, 5949491.025000000372529 ], [ 43651.05000000000291, 5949490.950000000186265 ], [ 43651.80000000000291, 5949490.950000000186265 ], [ 43651.80000000000291, 5949490.875 ], [ 43652.474999999998545, 5949490.875 ], [ 43652.474999999998545, 5949490.799999999813735 ], [ 43653.07499999999709, 5949490.799999999813735 ], [ 43653.07499999999709, 5949490.724999999627471 ], [ 43653.599999999998545, 5949490.724999999627471 ], [ 43653.599999999998545, 5949490.650000000372529 ], [ 43654.125, 5949490.650000000372529 ], [ 43654.125, 5949490.575000000186265 ], [ 43654.57499999999709, 5949490.575000000186265 ], [ 43654.57499999999709, 5949490.5 ], [ 43657.275000000001455, 5949490.5 ], [ 43657.275000000001455, 5949490.575000000186265 ], [ 43657.875, 5949490.575000000186265 ], [ 43657.875, 5949490.650000000372529 ], [ 43658.474999999998545, 5949490.650000000372529 ], [ 43658.474999999998545, 5949490.724999999627471 ], [ 43659.150000000001455, 5949490.724999999627471 ], [ 43659.150000000001455, 5949490.799999999813735 ], [ 43659.75, 5949490.799999999813735 ], [ 43659.75, 5949490.875 ], [ 43660.275000000001455, 5949490.875 ], [ 43660.275000000001455, 5949490.950000000186265 ], [ 43660.724999999998545, 5949490.950000000186265 ], [ 43660.724999999998545, 5949491.025000000372529 ], [ 43661.17500000000291, 5949491.025000000372529 ], [ 43661.17500000000291, 5949491.099999999627471 ], [ 43661.55000000000291, 5949491.099999999627471 ], [ 43661.55000000000291, 5949491.174999999813735 ], [ 43661.92500000000291, 5949491.174999999813735 ], [ 43661.92500000000291, 5949491.25 ], [ 43662.224999999998545, 5949491.25 ], [ 43662.224999999998545, 5949491.325000000186265 ], [ 43662.525000000001455, 5949491.325000000186265 ], [ 43662.525000000001455, 5949491.400000000372529 ], [ 43662.67500000000291, 5949491.400000000372529 ], [ 43662.67500000000291, 5949491.474999999627471 ], [ 43662.900000000001455, 5949491.474999999627471 ], [ 43662.900000000001455, 5949491.549999999813735 ], [ 43663.125, 5949491.549999999813735 ], [ 43663.125, 5949491.625 ], [ 43663.275000000001455, 5949491.625 ], [ 43663.275000000001455, 5949491.700000000186265 ], [ 43663.5, 5949491.700000000186265 ], [ 43663.5, 5949491.775000000372529 ], [ 43663.724999999998545, 5949491.775000000372529 ], [ 43663.724999999998545, 5949491.849999999627471 ], [ 43663.94999999999709, 5949491.849999999627471 ], [ 43663.94999999999709, 5949491.924999999813735 ], [ 43664.099999999998545, 5949491.924999999813735 ], [ 43664.099999999998545, 5949492.0 ], [ 43664.32499999999709, 5949492.0 ], [ 43664.32499999999709, 5949492.075000000186265 ], [ 43664.474999999998545, 5949492.075000000186265 ], [ 43664.474999999998545, 5949492.150000000372529 ], [ 43664.55000000000291, 5949492.150000000372529 ], [ 43664.55000000000291, 5949492.224999999627471 ], [ 43664.625, 5949492.224999999627471 ], [ 43664.625, 5949492.299999999813735 ], [ 43664.775000000001455, 5949492.299999999813735 ], [ 43664.775000000001455, 5949492.375 ], [ 43664.849999999998545, 5949492.375 ], [ 43664.849999999998545, 5949492.450000000186265 ], [ 43664.92500000000291, 5949492.450000000186265 ], [ 43664.92500000000291, 5949492.525000000372529 ], [ 43665.0, 5949492.525000000372529 ], [ 43665.0, 5949492.599999999627471 ], [ 43665.07499999999709, 5949492.599999999627471 ], [ 43665.07499999999709, 5949492.674999999813735 ], [ 43665.224999999998545, 5949492.674999999813735 ], [ 43665.224999999998545, 5949492.75 ], [ 43665.30000000000291, 5949492.75 ], [ 43665.30000000000291, 5949492.825000000186265 ], [ 43665.375, 5949492.825000000186265 ], [ 43665.375, 5949492.900000000372529 ], [ 43665.525000000001455, 5949492.900000000372529 ], [ 43665.525000000001455, 5949492.974999999627471 ], [ 43665.599999999998545, 5949492.974999999627471 ], [ 43665.599999999998545, 5949493.049999999813735 ], [ 43665.75, 5949493.049999999813735 ], [ 43665.75, 5949493.125 ], [ 43665.82499999999709, 5949493.125 ], [ 43665.82499999999709, 5949493.200000000186265 ], [ 43665.974999999998545, 5949493.200000000186265 ], [ 43665.974999999998545, 5949493.275000000372529 ], [ 43666.125, 5949493.275000000372529 ], [ 43666.125, 5949493.349999999627471 ], [ 43666.19999999999709, 5949493.349999999627471 ], [ 43666.19999999999709, 5949493.424999999813735 ], [ 43666.349999999998545, 5949493.424999999813735 ], [ 43666.349999999998545, 5949493.5 ], [ 43666.5, 5949493.5 ], [ 43666.5, 5949493.575000000186265 ], [ 43666.57499999999709, 5949493.575000000186265 ], [ 43666.57499999999709, 5949493.650000000372529 ], [ 43666.724999999998545, 5949493.650000000372529 ], [ 43666.724999999998545, 5949493.724999999627471 ], [ 43666.875, 5949493.724999999627471 ], [ 43666.875, 5949493.799999999813735 ], [ 43666.94999999999709, 5949493.799999999813735 ], [ 43666.94999999999709, 5949493.875 ], [ 43667.099999999998545, 5949493.875 ], [ 43667.099999999998545, 5949494.474999999627471 ], [ 43667.17500000000291, 5949494.474999999627471 ], [ 43667.17500000000291, 5949495.375 ], [ 43667.25, 5949495.375 ], [ 43667.25, 5949497.775000000372529 ], [ 43667.32499999999709, 5949497.775000000372529 ], [ 43667.32499999999709, 5949501.0 ], [ 43667.400000000001455, 5949501.0 ], [ 43667.400000000001455, 5949504.375 ], [ 43667.32499999999709, 5949504.375 ], [ 43667.32499999999709, 5949505.275000000372529 ], [ 43667.25, 5949505.275000000372529 ], [ 43667.25, 5949505.875 ], [ 43667.17500000000291, 5949505.875 ], [ 43667.17500000000291, 5949506.099999999627471 ], [ 43667.099999999998545, 5949506.099999999627471 ], [ 43667.099999999998545, 5949506.25 ], [ 43667.025000000001455, 5949506.25 ], [ 43667.025000000001455, 5949506.474999999627471 ], [ 43666.94999999999709, 5949506.474999999627471 ], [ 43666.94999999999709, 5949506.625 ], [ 43666.875, 5949506.625 ], [ 43666.875, 5949506.775000000372529 ], [ 43666.80000000000291, 5949506.775000000372529 ], [ 43666.80000000000291, 5949506.924999999813735 ], [ 43666.724999999998545, 5949506.924999999813735 ], [ 43666.724999999998545, 5949507.075000000186265 ], [ 43666.650000000001455, 5949507.075000000186265 ], [ 43666.650000000001455, 5949507.224999999627471 ], [ 43666.57499999999709, 5949507.224999999627471 ], [ 43666.57499999999709, 5949507.375 ], [ 43666.5, 5949507.375 ], [ 43666.5, 5949507.450000000186265 ], [ 43666.42500000000291, 5949507.450000000186265 ], [ 43666.42500000000291, 5949507.599999999627471 ], [ 43666.349999999998545, 5949507.599999999627471 ], [ 43666.349999999998545, 5949507.674999999813735 ], [ 43666.275000000001455, 5949507.674999999813735 ], [ 43666.275000000001455, 5949507.75 ], [ 43666.19999999999709, 5949507.75 ], [ 43666.19999999999709, 5949507.825000000186265 ], [ 43666.125, 5949507.825000000186265 ], [ 43666.125, 5949507.900000000372529 ], [ 43666.05000000000291, 5949507.900000000372529 ], [ 43666.05000000000291, 5949507.974999999627471 ], [ 43665.974999999998545, 5949507.974999999627471 ], [ 43665.974999999998545, 5949508.049999999813735 ], [ 43665.900000000001455, 5949508.049999999813735 ], [ 43665.900000000001455, 5949508.200000000186265 ], [ 43665.82499999999709, 5949508.200000000186265 ], [ 43665.82499999999709, 5949508.275000000372529 ], [ 43665.75, 5949508.275000000372529 ], [ 43665.75, 5949508.349999999627471 ], [ 43665.67500000000291, 5949508.349999999627471 ], [ 43665.67500000000291, 5949508.424999999813735 ], [ 43665.599999999998545, 5949508.424999999813735 ], [ 43665.599999999998545, 5949508.5 ], [ 43665.525000000001455, 5949508.5 ], [ 43665.525000000001455, 5949508.650000000372529 ], [ 43665.44999999999709, 5949508.650000000372529 ], [ 43665.44999999999709, 5949508.724999999627471 ], [ 43665.375, 5949508.724999999627471 ], [ 43665.375, 5949508.799999999813735 ], [ 43665.30000000000291, 5949508.799999999813735 ], [ 43665.30000000000291, 5949508.875 ], [ 43665.224999999998545, 5949508.875 ], [ 43665.224999999998545, 5949509.025000000372529 ], [ 43665.150000000001455, 5949509.025000000372529 ], [ 43665.150000000001455, 5949509.099999999627471 ], [ 43665.07499999999709, 5949509.099999999627471 ], [ 43665.07499999999709, 5949509.174999999813735 ], [ 43665.0, 5949509.174999999813735 ], [ 43665.0, 5949509.25 ], [ 43664.92500000000291, 5949509.25 ], [ 43664.92500000000291, 5949509.400000000372529 ], [ 43664.849999999998545, 5949509.400000000372529 ], [ 43664.849999999998545, 5949509.474999999627471 ], [ 43664.775000000001455, 5949509.474999999627471 ], [ 43664.775000000001455, 5949509.549999999813735 ], [ 43664.69999999999709, 5949509.549999999813735 ], [ 43664.69999999999709, 5949509.700000000186265 ], [ 43664.625, 5949509.700000000186265 ], [ 43664.625, 5949509.775000000372529 ], [ 43664.55000000000291, 5949509.775000000372529 ], [ 43664.55000000000291, 5949509.849999999627471 ], [ 43664.400000000001455, 5949509.849999999627471 ], [ 43664.400000000001455, 5949509.924999999813735 ], [ 43664.25, 5949509.924999999813735 ], [ 43664.25, 5949510.0 ], [ 43664.025000000001455, 5949510.0 ], [ 43664.025000000001455, 5949510.075000000186265 ], [ 43663.875, 5949510.075000000186265 ], [ 43663.875, 5949510.150000000372529 ], [ 43663.650000000001455, 5949510.150000000372529 ], [ 43663.650000000001455, 5949510.224999999627471 ], [ 43663.42500000000291, 5949510.224999999627471 ], [ 43663.42500000000291, 5949510.299999999813735 ], [ 43663.19999999999709, 5949510.299999999813735 ], [ 43663.19999999999709, 5949510.375 ], [ 43662.974999999998545, 5949510.375 ], [ 43662.974999999998545, 5949510.450000000186265 ], [ 43662.67500000000291, 5949510.450000000186265 ], [ 43662.67500000000291, 5949510.525000000372529 ], [ 43662.375, 5949510.525000000372529 ], [ 43662.375, 5949510.599999999627471 ], [ 43661.775000000001455, 5949510.599999999627471 ], [ 43661.775000000001455, 5949510.674999999813735 ], [ 43661.25, 5949510.674999999813735 ], [ 43661.25, 5949510.75 ], [ 43660.650000000001455, 5949510.75 ], [ 43660.650000000001455, 5949510.825000000186265 ], [ 43659.974999999998545, 5949510.825000000186265 ], [ 43659.974999999998545, 5949510.900000000372529 ], [ 43659.375, 5949510.900000000372529 ], [ 43659.375, 5949510.974999999627471 ], [ 43658.775000000001455, 5949510.974999999627471 ], [ 43658.775000000001455, 5949511.049999999813735 ], [ 43658.17500000000291, 5949511.049999999813735 ], [ 43658.17500000000291, 5949511.125 ], [ 43657.57499999999709, 5949511.125 ], [ 43657.57499999999709, 5949511.200000000186265 ], [ 43657.05000000000291, 5949511.200000000186265 ], [ 43657.05000000000291, 5949511.275000000372529 ], [ 43656.525000000001455, 5949511.275000000372529 ], [ 43656.525000000001455, 5949511.349999999627471 ], [ 43655.69999999999709, 5949511.349999999627471 ], [ 43655.69999999999709, 5949511.424999999813735 ], [ 43654.875, 5949511.424999999813735 ], [ 43654.875, 5949511.5 ], [ 43652.25, 5949511.5 ], [ 43652.25, 5949511.575000000186265 ], [ 43649.025000000001455, 5949511.575000000186265 ], [ 43649.025000000001455, 5949511.650000000372529 ], [ 43648.57499999999709, 5949511.650000000372529 ], [ 43648.57499999999709, 5949511.724999999627471 ], [ 43648.349999999998545, 5949511.724999999627471 ], [ 43648.349999999998545, 5949511.799999999813735 ], [ 43648.05000000000291, 5949511.799999999813735 ], [ 43648.05000000000291, 5949511.875 ], [ 43647.82499999999709, 5949511.875 ], [ 43647.82499999999709, 5949511.950000000186265 ], [ 43647.599999999998545, 5949511.950000000186265 ], [ 43647.599999999998545, 5949512.025000000372529 ], [ 43647.30000000000291, 5949512.025000000372529 ], [ 43647.30000000000291, 5949512.099999999627471 ], [ 43647.07499999999709, 5949512.099999999627471 ], [ 43647.07499999999709, 5949512.174999999813735 ], [ 43646.849999999998545, 5949512.174999999813735 ], [ 43646.849999999998545, 5949512.25 ], [ 43646.69999999999709, 5949512.25 ], [ 43646.69999999999709, 5949512.325000000186265 ], [ 43646.625, 5949512.325000000186265 ], [ 43646.625, 5949512.400000000372529 ], [ 43646.474999999998545, 5949512.400000000372529 ], [ 43646.474999999998545, 5949512.474999999627471 ], [ 43646.400000000001455, 5949512.474999999627471 ], [ 43646.400000000001455, 5949512.549999999813735 ], [ 43646.32499999999709, 5949512.549999999813735 ], [ 43646.32499999999709, 5949512.625 ], [ 43646.17500000000291, 5949512.625 ], [ 43646.17500000000291, 5949512.700000000186265 ], [ 43646.099999999998545, 5949512.700000000186265 ], [ 43646.099999999998545, 5949512.775000000372529 ], [ 43646.025000000001455, 5949512.775000000372529 ], [ 43646.025000000001455, 5949512.849999999627471 ], [ 43645.94999999999709, 5949512.849999999627471 ], [ 43645.94999999999709, 5949512.924999999813735 ], [ 43645.875, 5949512.924999999813735 ], [ 43645.875, 5949513.0 ], [ 43645.80000000000291, 5949513.0 ], [ 43645.80000000000291, 5949513.075000000186265 ], [ 43645.724999999998545, 5949513.075000000186265 ], [ 43645.724999999998545, 5949513.150000000372529 ], [ 43645.650000000001455, 5949513.150000000372529 ], [ 43645.650000000001455, 5949513.224999999627471 ], [ 43645.57499999999709, 5949513.224999999627471 ], [ 43645.57499999999709, 5949513.299999999813735 ], [ 43645.5, 5949513.299999999813735 ], [ 43645.5, 5949513.450000000186265 ], [ 43645.42500000000291, 5949513.450000000186265 ], [ 43645.42500000000291, 5949513.525000000372529 ], [ 43645.349999999998545, 5949513.525000000372529 ], [ 43645.349999999998545, 5949513.599999999627471 ], [ 43645.57499999999709, 5949513.599999999627471 ], [ 43645.57499999999709, 5949513.674999999813735 ], [ 43645.80000000000291, 5949513.674999999813735 ], [ 43645.80000000000291, 5949513.75 ], [ 43646.025000000001455, 5949513.75 ], [ 43646.025000000001455, 5949513.825000000186265 ], [ 43646.25, 5949513.825000000186265 ], [ 43646.25, 5949513.900000000372529 ], [ 43646.55000000000291, 5949513.900000000372529 ], [ 43646.55000000000291, 5949513.974999999627471 ], [ 43646.849999999998545, 5949513.974999999627471 ], [ 43646.849999999998545, 5949514.049999999813735 ], [ 43647.82499999999709, 5949514.049999999813735 ], [ 43647.82499999999709, 5949514.125 ], [ 43650.525000000001455, 5949514.125 ], [ 43650.525000000001455, 5949514.049999999813735 ], [ 43652.474999999998545, 5949514.049999999813735 ], [ 43652.474999999998545, 5949513.974999999627471 ], [ 43654.275000000001455, 5949513.974999999627471 ], [ 43654.275000000001455, 5949513.900000000372529 ], [ 43655.17500000000291, 5949513.900000000372529 ], [ 43655.17500000000291, 5949513.974999999627471 ], [ 43656.900000000001455, 5949513.974999999627471 ], [ 43656.900000000001455, 5949514.049999999813735 ], [ 43657.650000000001455, 5949514.049999999813735 ], [ 43657.650000000001455, 5949514.125 ], [ 43658.474999999998545, 5949514.125 ], [ 43658.474999999998545, 5949514.200000000186265 ], [ 43659.30000000000291, 5949514.200000000186265 ], [ 43659.30000000000291, 5949514.275000000372529 ], [ 43660.19999999999709, 5949514.275000000372529 ], [ 43660.19999999999709, 5949514.349999999627471 ], [ 43661.099999999998545, 5949514.349999999627471 ], [ 43661.099999999998545, 5949514.424999999813735 ], [ 43661.92500000000291, 5949514.424999999813735 ], [ 43661.92500000000291, 5949514.5 ], [ 43662.599999999998545, 5949514.5 ], [ 43662.599999999998545, 5949514.575000000186265 ], [ 43662.974999999998545, 5949514.575000000186265 ], [ 43662.974999999998545, 5949514.650000000372529 ], [ 43663.349999999998545, 5949514.650000000372529 ], [ 43663.349999999998545, 5949514.724999999627471 ], [ 43663.724999999998545, 5949514.724999999627471 ], [ 43663.724999999998545, 5949514.799999999813735 ], [ 43664.099999999998545, 5949514.799999999813735 ], [ 43664.099999999998545, 5949514.875 ], [ 43664.400000000001455, 5949514.875 ], [ 43664.400000000001455, 5949514.950000000186265 ], [ 43664.55000000000291, 5949514.950000000186265 ], [ 43664.55000000000291, 5949515.025000000372529 ], [ 43664.69999999999709, 5949515.025000000372529 ], [ 43664.69999999999709, 5949515.099999999627471 ], [ 43664.849999999998545, 5949515.099999999627471 ], [ 43664.849999999998545, 5949515.174999999813735 ], [ 43665.0, 5949515.174999999813735 ], [ 43665.0, 5949515.25 ], [ 43665.07499999999709, 5949515.25 ], [ 43665.07499999999709, 5949515.325000000186265 ], [ 43665.224999999998545, 5949515.325000000186265 ], [ 43665.224999999998545, 5949515.400000000372529 ], [ 43665.30000000000291, 5949515.400000000372529 ], [ 43665.30000000000291, 5949515.474999999627471 ], [ 43665.375, 5949515.474999999627471 ], [ 43665.375, 5949515.549999999813735 ], [ 43665.44999999999709, 5949515.549999999813735 ], [ 43665.44999999999709, 5949515.625 ], [ 43665.599999999998545, 5949515.625 ], [ 43665.599999999998545, 5949515.700000000186265 ], [ 43665.67500000000291, 5949515.700000000186265 ], [ 43665.67500000000291, 5949515.775000000372529 ], [ 43665.75, 5949515.775000000372529 ], [ 43665.75, 5949515.849999999627471 ], [ 43665.82499999999709, 5949515.849999999627471 ], [ 43665.82499999999709, 5949515.924999999813735 ], [ 43665.974999999998545, 5949515.924999999813735 ], [ 43665.974999999998545, 5949516.0 ], [ 43666.05000000000291, 5949516.0 ], [ 43666.05000000000291, 5949516.075000000186265 ], [ 43666.19999999999709, 5949516.075000000186265 ], [ 43666.19999999999709, 5949516.150000000372529 ], [ 43666.349999999998545, 5949516.150000000372529 ], [ 43666.349999999998545, 5949516.224999999627471 ], [ 43666.42500000000291, 5949516.224999999627471 ], [ 43666.42500000000291, 5949516.299999999813735 ], [ 43666.57499999999709, 5949516.299999999813735 ], [ 43666.57499999999709, 5949516.375 ], [ 43666.724999999998545, 5949516.375 ], [ 43666.724999999998545, 5949516.450000000186265 ], [ 43666.80000000000291, 5949516.450000000186265 ], [ 43666.80000000000291, 5949516.525000000372529 ], [ 43666.875, 5949516.525000000372529 ], [ 43666.875, 5949516.599999999627471 ], [ 43667.025000000001455, 5949516.599999999627471 ], [ 43667.025000000001455, 5949516.674999999813735 ], [ 43667.099999999998545, 5949516.674999999813735 ], [ 43667.099999999998545, 5949516.75 ], [ 43667.17500000000291, 5949516.75 ], [ 43667.17500000000291, 5949516.825000000186265 ], [ 43667.32499999999709, 5949516.825000000186265 ], [ 43667.32499999999709, 5949516.900000000372529 ], [ 43667.400000000001455, 5949516.900000000372529 ], [ 43667.400000000001455, 5949516.974999999627471 ], [ 43667.474999999998545, 5949516.974999999627471 ], [ 43667.474999999998545, 5949517.049999999813735 ], [ 43667.55000000000291, 5949517.049999999813735 ], [ 43667.55000000000291, 5949517.125 ], [ 43667.625, 5949517.125 ], [ 43667.625, 5949517.200000000186265 ], [ 43667.69999999999709, 5949517.200000000186265 ], [ 43667.69999999999709, 5949517.275000000372529 ], [ 43667.775000000001455, 5949517.275000000372529 ], [ 43667.775000000001455, 5949517.349999999627471 ], [ 43667.849999999998545, 5949517.349999999627471 ], [ 43667.849999999998545, 5949517.424999999813735 ], [ 43667.92500000000291, 5949517.424999999813735 ], [ 43667.92500000000291, 5949517.575000000186265 ], [ 43668.0, 5949517.575000000186265 ], [ 43668.0, 5949517.650000000372529 ], [ 43668.07499999999709, 5949517.650000000372529 ], [ 43668.07499999999709, 5949517.724999999627471 ], [ 43668.150000000001455, 5949517.724999999627471 ], [ 43668.150000000001455, 5949517.799999999813735 ], [ 43668.224999999998545, 5949517.799999999813735 ], [ 43668.224999999998545, 5949517.875 ], [ 43668.30000000000291, 5949517.875 ], [ 43668.30000000000291, 5949517.950000000186265 ], [ 43668.375, 5949517.950000000186265 ], [ 43668.375, 5949518.025000000372529 ], [ 43668.44999999999709, 5949518.025000000372529 ], [ 43668.44999999999709, 5949518.099999999627471 ], [ 43668.525000000001455, 5949518.099999999627471 ], [ 43668.525000000001455, 5949518.174999999813735 ], [ 43668.599999999998545, 5949518.174999999813735 ], [ 43668.599999999998545, 5949518.25 ], [ 43668.67500000000291, 5949518.25 ], [ 43668.67500000000291, 5949518.325000000186265 ], [ 43668.75, 5949518.325000000186265 ], [ 43668.75, 5949518.400000000372529 ], [ 43668.82499999999709, 5949518.400000000372529 ], [ 43668.82499999999709, 5949518.549999999813735 ], [ 43668.900000000001455, 5949518.549999999813735 ], [ 43668.900000000001455, 5949518.625 ], [ 43668.974999999998545, 5949518.625 ], [ 43668.974999999998545, 5949518.700000000186265 ], [ 43669.05000000000291, 5949518.700000000186265 ], [ 43669.05000000000291, 5949518.849999999627471 ], [ 43669.125, 5949518.849999999627471 ], [ 43669.125, 5949518.924999999813735 ], [ 43669.19999999999709, 5949518.924999999813735 ], [ 43669.19999999999709, 5949519.075000000186265 ], [ 43669.275000000001455, 5949519.075000000186265 ], [ 43669.275000000001455, 5949519.224999999627471 ], [ 43669.349999999998545, 5949519.224999999627471 ], [ 43669.349999999998545, 5949519.375 ], [ 43669.42500000000291, 5949519.375 ], [ 43669.42500000000291, 5949519.525000000372529 ], [ 43669.5, 5949519.525000000372529 ], [ 43669.5, 5949519.674999999813735 ], [ 43669.57499999999709, 5949519.674999999813735 ], [ 43669.57499999999709, 5949519.825000000186265 ], [ 43669.650000000001455, 5949519.825000000186265 ], [ 43669.650000000001455, 5949519.900000000372529 ], [ 43669.724999999998545, 5949519.900000000372529 ], [ 43669.724999999998545, 5949520.049999999813735 ], [ 43669.80000000000291, 5949520.049999999813735 ], [ 43669.80000000000291, 5949520.200000000186265 ], [ 43669.875, 5949520.200000000186265 ], [ 43669.875, 5949520.275000000372529 ], [ 43669.94999999999709, 5949520.275000000372529 ], [ 43669.94999999999709, 5949520.424999999813735 ], [ 43670.025000000001455, 5949520.424999999813735 ], [ 43670.025000000001455, 5949520.5 ], [ 43670.099999999998545, 5949520.5 ], [ 43670.099999999998545, 5949520.575000000186265 ], [ 43670.17500000000291, 5949520.575000000186265 ], [ 43670.17500000000291, 5949520.650000000372529 ], [ 43670.25, 5949520.650000000372529 ], [ 43670.25, 5949520.724999999627471 ], [ 43670.32499999999709, 5949520.724999999627471 ], [ 43670.32499999999709, 5949520.799999999813735 ], [ 43670.400000000001455, 5949520.799999999813735 ], [ 43670.400000000001455, 5949520.875 ], [ 43670.474999999998545, 5949520.875 ], [ 43670.474999999998545, 5949520.950000000186265 ], [ 43670.55000000000291, 5949520.950000000186265 ], [ 43670.55000000000291, 5949521.025000000372529 ], [ 43670.625, 5949521.025000000372529 ], [ 43670.625, 5949521.099999999627471 ], [ 43670.69999999999709, 5949521.099999999627471 ], [ 43670.69999999999709, 5949521.174999999813735 ], [ 43670.775000000001455, 5949521.174999999813735 ], [ 43670.775000000001455, 5949521.25 ], [ 43670.849999999998545, 5949521.25 ], [ 43670.849999999998545, 5949521.400000000372529 ], [ 43670.92500000000291, 5949521.400000000372529 ], [ 43670.92500000000291, 5949521.474999999627471 ], [ 43671.0, 5949521.474999999627471 ], [ 43671.0, 5949521.549999999813735 ], [ 43671.07499999999709, 5949521.549999999813735 ], [ 43671.07499999999709, 5949521.625 ], [ 43671.150000000001455, 5949521.625 ], [ 43671.150000000001455, 5949521.700000000186265 ], [ 43671.224999999998545, 5949521.700000000186265 ], [ 43671.224999999998545, 5949521.775000000372529 ], [ 43671.30000000000291, 5949521.775000000372529 ], [ 43671.30000000000291, 5949521.849999999627471 ], [ 43671.44999999999709, 5949521.849999999627471 ], [ 43671.44999999999709, 5949521.924999999813735 ], [ 43671.525000000001455, 5949521.924999999813735 ], [ 43671.525000000001455, 5949522.0 ], [ 43671.599999999998545, 5949522.0 ], [ 43671.599999999998545, 5949522.075000000186265 ], [ 43671.75, 5949522.075000000186265 ], [ 43671.75, 5949522.150000000372529 ], [ 43671.82499999999709, 5949522.150000000372529 ], [ 43671.82499999999709, 5949522.224999999627471 ], [ 43671.900000000001455, 5949522.224999999627471 ], [ 43671.900000000001455, 5949522.299999999813735 ], [ 43672.05000000000291, 5949522.299999999813735 ], [ 43672.05000000000291, 5949522.375 ], [ 43672.19999999999709, 5949522.375 ], [ 43672.19999999999709, 5949522.450000000186265 ], [ 43672.5, 5949522.450000000186265 ], [ 43672.5, 5949522.525000000372529 ], [ 43673.025000000001455, 5949522.525000000372529 ], [ 43673.025000000001455, 5949522.599999999627471 ], [ 43673.69999999999709, 5949522.599999999627471 ], [ 43673.69999999999709, 5949522.674999999813735 ], [ 43674.375, 5949522.674999999813735 ], [ 43674.375, 5949522.75 ], [ 43675.19999999999709, 5949522.75 ], [ 43675.19999999999709, 5949522.825000000186265 ], [ 43676.025000000001455, 5949522.825000000186265 ], [ 43676.025000000001455, 5949522.900000000372529 ], [ 43676.849999999998545, 5949522.900000000372529 ], [ 43676.849999999998545, 5949522.974999999627471 ], [ 43677.75, 5949522.974999999627471 ], [ 43677.75, 5949523.049999999813735 ], [ 43679.17500000000291, 5949523.049999999813735 ], [ 43679.17500000000291, 5949523.125 ], [ 43683.0, 5949523.125 ], [ 43683.0, 5949551.474999999627471 ], [ 43680.07499999999709, 5949551.474999999627471 ], [ 43680.07499999999709, 5949551.549999999813735 ], [ 43679.025000000001455, 5949551.549999999813735 ], [ 43679.025000000001455, 5949551.625 ], [ 43678.05000000000291, 5949551.625 ], [ 43678.05000000000291, 5949551.700000000186265 ], [ 43677.67500000000291, 5949551.700000000186265 ], [ 43677.67500000000291, 5949551.775000000372529 ], [ 43677.30000000000291, 5949551.775000000372529 ], [ 43677.30000000000291, 5949551.849999999627471 ], [ 43677.0, 5949551.849999999627471 ], [ 43677.0, 5949551.924999999813735 ], [ 43676.69999999999709, 5949551.924999999813735 ], [ 43676.69999999999709, 5949552.0 ], [ 43676.400000000001455, 5949552.0 ], [ 43676.400000000001455, 5949552.075000000186265 ], [ 43676.099999999998545, 5949552.075000000186265 ], [ 43676.099999999998545, 5949552.150000000372529 ], [ 43675.94999999999709, 5949552.150000000372529 ], [ 43675.94999999999709, 5949552.224999999627471 ], [ 43675.724999999998545, 5949552.224999999627471 ], [ 43675.724999999998545, 5949552.299999999813735 ], [ 43675.57499999999709, 5949552.299999999813735 ], [ 43675.57499999999709, 5949552.375 ], [ 43675.349999999998545, 5949552.375 ], [ 43675.349999999998545, 5949552.450000000186265 ], [ 43675.19999999999709, 5949552.450000000186265 ], [ 43675.19999999999709, 5949552.525000000372529 ], [ 43675.05000000000291, 5949552.525000000372529 ], [ 43675.05000000000291, 5949552.599999999627471 ], [ 43674.900000000001455, 5949552.599999999627471 ], [ 43674.900000000001455, 5949552.674999999813735 ], [ 43674.82499999999709, 5949552.674999999813735 ], [ 43674.82499999999709, 5949552.75 ], [ 43674.67500000000291, 5949552.75 ], [ 43674.67500000000291, 5949552.825000000186265 ], [ 43674.525000000001455, 5949552.825000000186265 ], [ 43674.525000000001455, 5949552.900000000372529 ], [ 43674.375, 5949552.900000000372529 ], [ 43674.375, 5949552.974999999627471 ], [ 43674.150000000001455, 5949552.974999999627471 ], [ 43674.150000000001455, 5949553.049999999813735 ], [ 43674.0, 5949553.049999999813735 ], [ 43674.0, 5949553.125 ], [ 43673.849999999998545, 5949553.125 ], [ 43673.849999999998545, 5949553.200000000186265 ], [ 43673.69999999999709, 5949553.200000000186265 ], [ 43673.69999999999709, 5949553.275000000372529 ], [ 43673.55000000000291, 5949553.275000000372529 ], [ 43673.55000000000291, 5949553.349999999627471 ], [ 43673.400000000001455, 5949553.349999999627471 ], [ 43673.400000000001455, 5949553.424999999813735 ], [ 43673.25, 5949553.424999999813735 ], [ 43673.25, 5949553.5 ], [ 43673.099999999998545, 5949553.5 ], [ 43673.099999999998545, 5949553.575000000186265 ], [ 43672.94999999999709, 5949553.575000000186265 ], [ 43672.94999999999709, 5949553.650000000372529 ], [ 43672.80000000000291, 5949553.650000000372529 ], [ 43672.80000000000291, 5949553.724999999627471 ], [ 43672.650000000001455, 5949553.724999999627471 ], [ 43672.650000000001455, 5949553.799999999813735 ], [ 43672.5, 5949553.799999999813735 ], [ 43672.5, 5949553.875 ], [ 43672.349999999998545, 5949553.875 ], [ 43672.349999999998545, 5949553.950000000186265 ], [ 43672.275000000001455, 5949553.950000000186265 ], [ 43672.275000000001455, 5949554.025000000372529 ], [ 43672.125, 5949554.025000000372529 ], [ 43672.125, 5949554.099999999627471 ], [ 43672.05000000000291, 5949554.099999999627471 ], [ 43672.05000000000291, 5949554.174999999813735 ], [ 43671.974999999998545, 5949554.174999999813735 ], [ 43671.974999999998545, 5949554.25 ], [ 43671.900000000001455, 5949554.25 ], [ 43671.900000000001455, 5949554.325000000186265 ], [ 43671.82499999999709, 5949554.325000000186265 ], [ 43671.82499999999709, 5949554.400000000372529 ], [ 43671.75, 5949554.400000000372529 ], [ 43671.75, 5949554.474999999627471 ], [ 43671.67500000000291, 5949554.474999999627471 ], [ 43671.67500000000291, 5949554.549999999813735 ], [ 43671.599999999998545, 5949554.549999999813735 ], [ 43671.599999999998545, 5949554.700000000186265 ], [ 43671.525000000001455, 5949554.700000000186265 ], [ 43671.525000000001455, 5949554.775000000372529 ], [ 43671.44999999999709, 5949554.775000000372529 ], [ 43671.44999999999709, 5949554.924999999813735 ], [ 43671.375, 5949554.924999999813735 ], [ 43671.375, 5949555.0 ], [ 43671.30000000000291, 5949555.0 ], [ 43671.30000000000291, 5949555.150000000372529 ], [ 43671.224999999998545, 5949555.150000000372529 ], [ 43671.224999999998545, 5949555.224999999627471 ], [ 43671.150000000001455, 5949555.224999999627471 ], [ 43671.150000000001455, 5949555.299999999813735 ], [ 43671.07499999999709, 5949555.299999999813735 ], [ 43671.07499999999709, 5949555.450000000186265 ], [ 43671.0, 5949555.450000000186265 ], [ 43671.0, 5949555.525000000372529 ], [ 43670.92500000000291, 5949555.525000000372529 ], [ 43670.92500000000291, 5949555.674999999813735 ], [ 43670.849999999998545, 5949555.674999999813735 ], [ 43670.849999999998545, 5949555.825000000186265 ], [ 43670.775000000001455, 5949555.825000000186265 ], [ 43670.775000000001455, 5949555.900000000372529 ], [ 43670.69999999999709, 5949555.900000000372529 ], [ 43670.69999999999709, 5949556.049999999813735 ], [ 43670.625, 5949556.049999999813735 ], [ 43670.625, 5949556.125 ], [ 43670.55000000000291, 5949556.125 ], [ 43670.55000000000291, 5949556.275000000372529 ], [ 43670.474999999998545, 5949556.275000000372529 ], [ 43670.474999999998545, 5949556.349999999627471 ], [ 43670.400000000001455, 5949556.349999999627471 ], [ 43670.400000000001455, 5949556.5 ], [ 43670.32499999999709, 5949556.5 ], [ 43670.32499999999709, 5949556.650000000372529 ], [ 43670.25, 5949556.650000000372529 ], [ 43670.25, 5949556.724999999627471 ], [ 43670.17500000000291, 5949556.724999999627471 ], [ 43670.17500000000291, 5949556.875 ], [ 43670.099999999998545, 5949556.875 ], [ 43670.099999999998545, 5949557.025000000372529 ], [ 43670.025000000001455, 5949557.025000000372529 ], [ 43670.025000000001455, 5949557.174999999813735 ], [ 43669.94999999999709, 5949557.174999999813735 ], [ 43669.94999999999709, 5949557.325000000186265 ], [ 43669.875, 5949557.325000000186265 ], [ 43669.875, 5949557.474999999627471 ], [ 43669.80000000000291, 5949557.474999999627471 ], [ 43669.80000000000291, 5949557.700000000186265 ], [ 43669.724999999998545, 5949557.700000000186265 ], [ 43669.724999999998545, 5949557.924999999813735 ], [ 43669.650000000001455, 5949557.924999999813735 ], [ 43669.650000000001455, 5949558.150000000372529 ], [ 43669.57499999999709, 5949558.150000000372529 ], [ 43669.57499999999709, 5949558.375 ], [ 43669.5, 5949558.375 ], [ 43669.5, 5949559.049999999813735 ], [ 43669.42500000000291, 5949559.049999999813735 ], [ 43669.42500000000291, 5949560.025000000372529 ], [ 43669.349999999998545, 5949560.025000000372529 ], [ 43669.349999999998545, 5949561.150000000372529 ], [ 43669.42500000000291, 5949561.150000000372529 ], [ 43669.42500000000291, 5949562.875 ], [ 43669.5, 5949562.875 ], [ 43669.5, 5949564.450000000186265 ], [ 43669.57499999999709, 5949564.450000000186265 ], [ 43669.57499999999709, 5949565.875 ], [ 43669.650000000001455, 5949565.875 ], [ 43669.650000000001455, 5949570.974999999627471 ], [ 43669.57499999999709, 5949570.974999999627471 ], [ 43669.57499999999709, 5949579.0 ], [ 43652.025000000001455, 5949579.0 ] ] ] } }
]
}
