{
"type": "FeatureCollection",
"name": "42933E592257N_buildings",
"crs": { "type": "name", "properties": { "name": "urn:ogc:def:crs:EPSG::3776" } },
"features": [
{ "type": "Feature", "properties": { "value": 1.0, "building_id": 0, "area": 0.16312499963700244 }, "geometry": { "type": "Polygon", "coordinates": [ [ [ 43226.92500000000291, 5923300.875 ], [ 43226.92500000000291, 5923300.799999999813735 ], [ 43226.849999999998545, 5923300.799999999813735 ], [ 43226.849999999998545, 5923300.724999999627471 ], [ 43226.775000000001455, 5923300.724999999627471 ], [ 43226.775000000001455, 5923300.650000000372529 ], [ 43226.849999999998545, 5923300.650000000372529 ], [ 43226.849999999998545, 5923300.5 ], [ 43227.150000000001455, 5923300.5 ], [ 43227.150000000001455, 5923300.575000000186265 ], [ 43227.375, 5923300.575000000186265 ], [ 43227.375, 5923300.650000000372529 ], [ 43227.599999999998545, 5923300.650000000372529 ], [ 43227.599999999998545, 5923300.724999999627471 ], [ 43227.30000000000291, 5923300.724999999627471 ], [ 43227.30000000000291, 5923300.799999999813735 ], [ 43227.0, 5923300.799999999813735 ], [ 43227.0, 5923300.875 ], [ 43226.92500000000291, 5923300.875 ] ] ] } },
{ "type": "Feature", "properties": { "value": 1.0, "building_id": 1, "area": 372.91499999610477 }, "geometry": { "type": "Polygon", "coordinates": [ [ [ 43654.57499999999709, 5923055.025000000372529 ], [ 43654.57499999999709, 5923054.950000000186265 ], [ 43654.19999999999709, 5923054.950000000186265 ], [ 43654.19999999999709, 5923054.875 ], [ 43653.82499999999709, 5923054.875 ], [ 43653.82499999999709, 5923054.799999999813735 ], [ 43653.44999999999709, 5923054.799999999813735 ], [ 43653.44999999999709, 5923054.724999999627471 ], [ 43653.150000000001455, 5923054.724999999627471 ], [ 43653.150000000001455, 5923054.650000000372529 ], [ 43652.849999999998545, 5923054.650000000372529 ], [ 43652.849999999998545, 5923054.575000000186265 ], [ 43652.69999999999709, 5923054.575000000186265 ], [ 43652.69999999999709, 5923054.5 ], [ 43652.625, 5923054.5 ], [ 43652.625, 5923054.424999999813735 ], [ 43652.474999999998545, 5923054.424999999813735 ], [ 43652.474999999998545, 5923054.349999999627471 ], [ 43652.400000000001455, 5923054.349999999627471 ], [ 43652.400000000001455, 5923054.275000000372529 ], [ 43652.25, 5923054.275000000372529 ], [ 43652.25, 5923054.200000000186265 ], [ 43652.099999999998545, 5923054.200000000186265 ], [ 43652.099999999998545, 5923054.125 ], [ 43651.94999999999709, 5923054.125 ], [ 43651.94999999999709, 5923054.049999999813735 ], [ 43651.724999999998545, 5923054.049999999813735 ], [ 43651.724999999998545, 5923053.974999999627471 ], [ 43651.57499999999709, 5923053.974999999627471 ], [ 43651.57499999999709, 5923053.900000000372529 ], [ 43651.349999999998545, 5923053.900000000372529 ], [ 43651.349999999998545, 5923053.825000000186265 ], [ 43651.05000000000291, 5923053.825000000186265 ], [ 43651.05000000000291, 5923053.75 ], [ 43650.599999999998545, 5923053.75 ], [ 43650.599999999998545, 5923053.674999999813735 ], [ 43649.25, 5923053.674999999813735 ], [ 43649.25, 5923053.599999999627471 ], [ 43646.400000000001455, 5923053.599999999627471 ], [ 43646.400000000001455, 5923053.674999999813735 ], [ 43641.375, 5923053.674999999813735 ], [ 43641.375, 5923053.75 ], [ 43640.32499999999709, 5923053.75 ], [ 43640.32499999999709, 5923053.674999999813735 ], [ 43638.30000000000291, 5923053.674999999813735 ], [ 43638.30000000000291, 5923053.599999999627471 ], [ 43637.474999999998545, 5923053.599999999627471 ], [ 43637.474999999998545, 5923053.525000000372529 ], [ 43637.025000000001455, 5923053.525000000372529 ], [ 43637.025000000001455, 5923053.450000000186265 ], [ 43636.875, 5923053.450000000186265 ], [ 43636.875, 5923053.375 ], [ 43636.724999999998545, 5923053.375 ], [ 43636.724999999998545, 5923053.299999999813735 ], [ 43636.57499999999709, 5923053.299999999813735 ], [ 43636.57499999999709, 5923053.224999999627471 ], [ 43636.5, 5923053.224999999627471 ], [ 43636.5, 5923053.150000000372529 ], [ 43636.42500000000291, 5923053.150000000372529 ], [ 43636.42500000000291, 5923053.075000000186265 ], [ 43636.275000000001455, 5923053.075000000186265 ], [ 43636.275000000001455, 5923053.0 ], [ 43636.19999999999709, 5923053.0 ], [ 43636.19999999999709, 5923052.924999999813735 ], [ 43636.125, 5923052.924999999813735 ], [ 43636.125, 5923052.849999999627471 ], [ 43636.05000000000291, 5923052.849999999627471 ], [ 43636.05000000000291, 5923052.700000000186265 ], [ 43635.974999999998545, 5923052.700000000186265 ], [ 43635.974999999998545, 5923052.625 ], [ 43635.900000000001455, 5923052.625 ], [ 43635.900000000001455, 5923052.549999999813735 ], [ 43635.82499999999709, 5923052.549999999813735 ], [ 43635.82499999999709, 5923052.474999999627471 ], [ 43635.75, 5923052.474999999627471 ], [ 43635.75, 5923052.400000000372529 ], [ 43635.67500000000291, 5923052.400000000372529 ], [ 43635.67500000000291, 5923052.325000000186265 ], [ 43635.599999999998545, 5923052.325000000186265 ], [ 43635.599999999998545, 5923052.25 ], [ 43635.525000000001455, 5923052.25 ], [ 43635.525000000001455, 5923052.174999999813735 ], [ 43635.375, 5923052.174999999813735 ], [ 43635.375, 5923052.099999999627471 ], [ 43635.30000000000291, 5923052.099999999627471 ], [ 43635.30000000000291, 5923052.025000000372529 ], [ 43635.150000000001455, 5923052.025000000372529 ], [ 43635.150000000001455, 5923051.950000000186265 ], [ 43634.92500000000291, 5923051.950000000186265 ], [ 43634.92500000000291, 5923051.875 ], [ 43634.625, 5923051.875 ], [ 43634.625, 5923051.799999999813735 ], [ 43634.32499999999709, 5923051.799999999813735 ], [ 43634.32499999999709, 5923051.724999999627471 ], [ 43634.025000000001455, 5923051.724999999627471 ], [ 43634.025000000001455, 5923051.650000000372529 ], [ 43633.80000000000291, 5923051.650000000372529 ], [ 43633.80000000000291, 5923051.575000000186265 ], [ 43633.5, 5923051.575000000186265 ], [ 43633.5, 5923051.5 ], [ 43633.275000000001455, 5923051.5 ], [ 43633.275000000001455, 5923051.424999999813735 ], [ 43633.125, 5923051.424999999813735 ], [ 43633.125, 5923051.349999999627471 ], [ 43632.974999999998545, 5923051.349999999627471 ], [ 43632.974999999998545, 5923051.275000000372529 ], [ 43632.900000000001455, 5923051.275000000372529 ], [ 43632.900000000001455, 5923051.200000000186265 ], [ 43632.82499999999709, 5923051.200000000186265 ], [ 43632.82499999999709, 5923051.125 ], [ 43632.75, 5923051.125 ], [ 43632.75, 5923051.049999999813735 ], [ 43632.67500000000291, 5923051.049999999813735 ], [ 43632.67500000000291, 5923050.974999999627471 ], [ 43632.599999999998545, 5923050.974999999627471 ], [ 43632.599999999998545, 5923050.825000000186265 ], [ 43632.525000000001455, 5923050.825000000186265 ], [ 43632.525000000001455, 5923050.75 ], [ 43632.44999999999709, 5923050.75 ], [ 43632.44999999999709, 5923050.224999999627471 ], [ 43632.375, 5923050.224999999627471 ], [ 43632.375, 5923049.325000000186265 ], [ 43632.30000000000291, 5923049.325000000186265 ], [ 43632.30000000000291, 5923048.650000000372529 ], [ 43632.224999999998545, 5923048.650000000372529 ], [ 43632.224999999998545, 5923048.275000000372529 ], [ 43632.150000000001455, 5923048.275000000372529 ], [ 43632.150000000001455, 5923047.900000000372529 ], [ 43632.07499999999709, 5923047.900000000372529 ], [ 43632.07499999999709, 5923047.599999999627471 ], [ 43632.0, 5923047.599999999627471 ], [ 43632.0, 5923047.299999999813735 ], [ 43631.92500000000291, 5923047.299999999813735 ], [ 43631.92500000000291, 5923047.075000000186265 ], [ 43631.849999999998545, 5923047.075000000186265 ], [ 43631.849999999998545, 5923046.849999999627471 ], [ 43631.775000000001455, 5923046.849999999627471 ], [ 43631.775000000001455, 5923046.625 ], [ 43631.69999999999709, 5923046.625 ], [ 43631.69999999999709, 5923046.474999999627471 ], [ 43631.625, 5923046.474999999627471 ], [ 43631.625, 5923046.325000000186265 ], [ 43631.55000000000291, 5923046.325000000186265 ], [ 43631.55000000000291, 5923046.174999999813735 ], [ 43631.474999999998545, 5923046.174999999813735 ], [ 43631.474999999998545, 5923046.025000000372529 ], [ 43631.400000000001455, 5923046.025000000372529 ], [ 43631.400000000001455, 5923045.875 ], [ 43631.32499999999709, 5923045.875 ], [ 43631.32499999999709, 5923045.724999999627471 ], [ 43631.25, 5923045.724999999627471 ], [ 43631.25, 5923045.650000000372529 ], [ 43631.17500000000291, 5923045.650000000372529 ], [ 43631.17500000000291, 5923045.5 ], [ 43631.099999999998545, 5923045.5 ], [ 43631.099999999998545, 5923045.349999999627471 ], [ 43631.025000000001455, 5923045.349999999627471 ], [ 43631.025000000001455, 5923045.200000000186265 ], [ 43630.94999999999709, 5923045.200000000186265 ], [ 43630.94999999999709, 5923044.974999999627471 ], [ 43630.875, 5923044.974999999627471 ], [ 43630.875, 5923044.599999999627471 ], [ 43630.94999999999709, 5923044.599999999627471 ], [ 43630.94999999999709, 5923044.375 ], [ 43631.025000000001455, 5923044.375 ], [ 43631.025000000001455, 5923044.150000000372529 ], [ 43631.099999999998545, 5923044.150000000372529 ], [ 43631.099999999998545, 5923043.924999999813735 ], [ 43631.17500000000291, 5923043.924999999813735 ], [ 43631.17500000000291, 5923043.775000000372529 ], [ 43631.25, 5923043.775000000372529 ], [ 43631.25, 5923043.625 ], [ 43631.32499999999709, 5923043.625 ], [ 43631.32499999999709, 5923043.474999999627471 ], [ 43631.400000000001455, 5923043.474999999627471 ], [ 43631.400000000001455, 5923043.325000000186265 ], [ 43631.474999999998545, 5923043.325000000186265 ], [ 43631.474999999998545, 5923043.099999999627471 ], [ 43631.55000000000291, 5923043.099999999627471 ], [ 43631.55000000000291, 5923042.950000000186265 ], [ 43631.625, 5923042.950000000186265 ], [ 43631.625, 5923042.799999999813735 ], [ 43631.69999999999709, 5923042.799999999813735 ], [ 43631.69999999999709, 5923042.724999999627471 ], [ 43631.775000000001455, 5923042.724999999627471 ], [ 43631.775000000001455, 5923042.650000000372529 ], [ 43631.849999999998545, 5923042.650000000372529 ], [ 43631.849999999998545, 5923042.5 ], [ 43631.92500000000291, 5923042.5 ], [ 43631.92500000000291, 5923042.424999999813735 ], [ 43632.0, 5923042.424999999813735 ], [ 43632.0, 5923042.349999999627471 ], [ 43632.07499999999709, 5923042.349999999627471 ], [ 43632.07499999999709, 5923042.200000000186265 ], [ 43632.150000000001455, 5923042.200000000186265 ], [ 43632.150000000001455, 5923042.049999999813735 ], [ 43632.224999999998545, 5923042.049999999813735 ], [ 43632.224999999998545, 5923041.974999999627471 ], [ 43632.30000000000291, 5923041.974999999627471 ], [ 43632.30000000000291, 5923041.825000000186265 ], [ 43632.375, 5923041.825000000186265 ], [ 43632.375, 5923041.674999999813735 ], [ 43632.44999999999709, 5923041.674999999813735 ], [ 43632.44999999999709, 5923041.525000000372529 ], [ 43632.525000000001455, 5923041.525000000372529 ], [ 43632.525000000001455, 5923041.375 ], [ 43632.599999999998545, 5923041.375 ], [ 43632.599999999998545, 5923041.224999999627471 ], [ 43632.67500000000291, 5923041.224999999627471 ], [ 43632.67500000000291, 5923041.075000000186265 ], [ 43632.75, 5923041.075000000186265 ], [ 43632.75, 5923040.924999999813735 ], [ 43632.82499999999709, 5923040.924999999813735 ], [ 43632.82499999999709, 5923040.775000000372529 ], [ 43632.900000000001455, 5923040.775000000372529 ], [ 43632.900000000001455, 5923040.700000000186265 ], [ 43632.974999999998545, 5923040.700000000186265 ], [ 43632.974999999998545, 5923040.625 ], [ 43633.125, 5923040.625 ], [ 43633.125, 5923040.549999999813735 ], [ 43633.19999999999709, 5923040.549999999813735 ], [ 43633.19999999999709, 5923040.474999999627471 ], [ 43633.349999999998545, 5923040.474999999627471 ], [ 43633.349999999998545, 5923040.400000000372529 ], [ 43633.57499999999709, 5923040.400000000372529 ], [ 43633.57499999999709, 5923040.325000000186265 ], [ 43633.80000000000291, 5923040.325000000186265 ], [ 43633.80000000000291, 5923040.25 ], [ 43634.099999999998545, 5923040.25 ], [ 43634.099999999998545, 5923040.174999999813735 ], [ 43634.32499999999709, 5923040.174999999813735 ], [ 43634.32499999999709, 5923040.099999999627471 ], [ 43634.625, 5923040.099999999627471 ], [ 43634.625, 5923040.025000000372529 ], [ 43634.92500000000291, 5923040.025000000372529 ], [ 43634.92500000000291, 5923039.950000000186265 ], [ 43635.224999999998545, 5923039.950000000186265 ], [ 43635.224999999998545, 5923039.875 ], [ 43635.525000000001455, 5923039.875 ], [ 43635.525000000001455, 5923039.799999999813735 ], [ 43635.75, 5923039.799999999813735 ], [ 43635.75, 5923039.724999999627471 ], [ 43636.05000000000291, 5923039.724999999627471 ], [ 43636.05000000000291, 5923039.650000000372529 ], [ 43636.275000000001455, 5923039.650000000372529 ], [ 43636.275000000001455, 5923039.575000000186265 ], [ 43636.5, 5923039.575000000186265 ], [ 43636.5, 5923039.5 ], [ 43636.650000000001455, 5923039.5 ], [ 43636.650000000001455, 5923039.424999999813735 ], [ 43636.875, 5923039.424999999813735 ], [ 43636.875, 5923039.349999999627471 ], [ 43637.025000000001455, 5923039.349999999627471 ], [ 43637.025000000001455, 5923039.275000000372529 ], [ 43637.17500000000291, 5923039.275000000372529 ], [ 43637.17500000000291, 5923039.200000000186265 ], [ 43637.32499999999709, 5923039.200000000186265 ], [ 43637.32499999999709, 5923039.125 ], [ 43637.400000000001455, 5923039.125 ], [ 43637.400000000001455, 5923039.049999999813735 ], [ 43637.55000000000291, 5923039.049999999813735 ], [ 43637.55000000000291, 5923038.974999999627471 ], [ 43637.625, 5923038.974999999627471 ], [ 43637.625, 5923038.900000000372529 ], [ 43637.69999999999709, 5923038.900000000372529 ], [ 43637.69999999999709, 5923038.825000000186265 ], [ 43637.775000000001455, 5923038.825000000186265 ], [ 43637.775000000001455, 5923038.75 ], [ 43637.92500000000291, 5923038.75 ], [ 43637.92500000000291, 5923038.674999999813735 ], [ 43638.07499999999709, 5923038.674999999813735 ], [ 43638.07499999999709, 5923038.599999999627471 ], [ 43638.150000000001455, 5923038.599999999627471 ], [ 43638.150000000001455, 5923038.525000000372529 ], [ 43638.30000000000291, 5923038.525000000372529 ], [ 43638.30000000000291, 5923038.450000000186265 ], [ 43638.44999999999709, 5923038.450000000186265 ], [ 43638.44999999999709, 5923038.375 ], [ 43638.67500000000291, 5923038.375 ], [ 43638.67500000000291, 5923038.299999999813735 ], [ 43638.900000000001455, 5923038.299999999813735 ], [ 43638.900000000001455, 5923038.224999999627471 ], [ 43639.275000000001455, 5923038.224999999627471 ], [ 43639.275000000001455, 5923038.150000000372529 ], [ 43640.400000000001455, 5923038.150000000372529 ], [ 43640.400000000001455, 5923038.075000000186265 ], [ 43643.025000000001455, 5923038.075000000186265 ], [ 43643.025000000001455, 5923038.150000000372529 ], [ 43645.875, 5923038.150000000372529 ], [ 43645.875, 5923038.224999999627471 ], [ 43647.07499999999709, 5923038.224999999627471 ], [ 43647.07499999999709, 5923038.299999999813735 ], [ 43647.375, 5923038.299999999813735 ], [ 43647.375, 5923038.375 ], [ 43647.599999999998545, 5923038.375 ], [ 43647.599999999998545, 5923038.450000000186265 ], [ 43647.900000000001455, 5923038.450000000186265 ], [ 43647.900000000001455, 5923038.525000000372529 ], [ 43648.125, 5923038.525000000372529 ], [ 43648.125, 5923038.599999999627471 ], [ 43648.275000000001455, 5923038.599999999627471 ], [ 43648.275000000001455, 5923038.674999999813735 ], [ 43648.5, 5923038.674999999813735 ], [ 43648.5, 5923038.75 ], [ 43648.650000000001455, 5923038.75 ], [ 43648.650000000001455, 5923038.825000000186265 ], [ 43648.80000000000291, 5923038.825000000186265 ], [ 43648.80000000000291, 5923038.900000000372529 ], [ 43648.94999999999709, 5923038.900000000372529 ], [ 43648.94999999999709, 5923038.974999999627471 ], [ 43649.025000000001455, 5923038.974999999627471 ], [ 43649.025000000001455, 5923039.049999999813735 ], [ 43649.17500000000291, 5923039.049999999813735 ], [ 43649.17500000000291, 5923039.125 ], [ 43649.32499999999709, 5923039.125 ], [ 43649.32499999999709, 5923039.200000000186265 ], [ 43649.474999999998545, 5923039.200000000186265 ], [ 43649.474999999998545, 5923039.275000000372529 ], [ 43649.625, 5923039.275000000372529 ], [ 43649.625, 5923039.349999999627471 ], [ 43649.849999999998545, 5923039.349999999627471 ], [ 43649.849999999998545, 5923039.424999999813735 ], [ 43650.0, 5923039.424999999813735 ], [ 43650.0, 5923039.5 ], [ 43650.224999999998545, 5923039.5 ], [ 43650.224999999998545, 5923039.575000000186265 ], [ 43650.44999999999709, 5923039.575000000186265 ], [ 43650.44999999999709, 5923039.650000000372529 ], [ 43650.75, 5923039.650000000372529 ], [ 43650.75, 5923039.724999999627471 ], [ 43651.349999999998545, 5923039.724999999627471 ], [ 43651.349999999998545, 5923039.799999999813735 ], [ 43652.025000000001455, 5923039.799999999813735 ], [ 43652.025000000001455, 5923039.875 ], [ 43652.69999999999709, 5923039.875 ], [ 43652.69999999999709, 5923039.950000000186265 ], [ 43653.224999999998545, 5923039.950000000186265 ], [ 43653.224999999998545, 5923040.025000000372529 ], [ 43653.75, 5923040.025000000372529 ], [ 43653.75, 5923040.099999999627471 ], [ 43654.275000000001455, 5923040.099999999627471 ], [ 43654.275000000001455, 5923040.174999999813735 ], [ 43654.724999999998545, 5923040.174999999813735 ], [ 43654.724999999998545, 5923040.25 ], [ 43654.94999999999709, 5923040.25 ], [ 43654.94999999999709, 5923040.325000000186265 ], [ 43655.17500000000291, 5923040.325000000186265 ], [ 43655.17500000000291, 5923040.400000000372529 ], [ 43655.400000000001455, 5923040.400000000372529 ], [ 43655.400000000001455, 5923040.474999999627471 ], [ 43655.55000000000291, 5923040.474999999627471 ], [ 43655.55000000000291, 5923040.549999999813735 ], [ 43655.775000000001455, 5923040.549999999813735 ], [ 43655.775000000001455, 5923040.625 ], [ 43655.92500000000291, 5923040.625 ], [ 43655.92500000000291, 5923040.700000000186265 ], [ 43656.07499999999709, 5923040.700000000186265 ], [ 43656.07499999999709, 5923040.775000000372529 ], [ 43656.150000000001455, 5923040.775000000372529 ], [ 43656.150000000001455, 5923040.849999999627471 ], [ 43656.30000000000291, 5923040.849999999627471 ], [ 43656.30000000000291, 5923040.924999999813735 ], [ 43656.375, 5923040.924999999813735 ], [ 43656.375, 5923041.0 ], [ 43656.525000000001455, 5923041.0 ], [ 43656.525000000001455, 5923041.075000000186265 ], [ 43656.599999999998545, 5923041.075000000186265 ], [ 43656.599999999998545, 5923041.150000000372529 ], [ 43656.67500000000291, 5923041.150000000372529 ], [ 43656.67500000000291, 5923041.224999999627471 ], [ 43656.75, 5923041.224999999627471 ], [ 43656.75, 5923041.299999999813735 ], [ 43656.82499999999709, 5923041.299999999813735 ], [ 43656.82499999999709, 5923041.375 ], [ 43656.974999999998545, 5923041.375 ], [ 43656.974999999998545, 5923041.450000000186265 ], [ 43657.05000000000291, 5923041.450000000186265 ], [ 43657.05000000000291, 5923041.525000000372529 ], [ 43657.125, 5923041.525000000372529 ], [ 43657.125, 5923041.599999999627471 ], [ 43657.19999999999709, 5923041.599999999627471 ], [ 43657.19999999999709, 5923041.674999999813735 ], [ 43657.349999999998545, 5923041.674999999813735 ], [ 43657.349999999998545, 5923041.75 ], [ 43657.42500000000291, 5923041.75 ], [ 43657.42500000000291, 5923041.825000000186265 ], [ 43657.5, 5923041.825000000186265 ], [ 43657.5, 5923041.900000000372529 ], [ 43657.650000000001455, 5923041.900000000372529 ], [ 43657.650000000001455, 5923041.974999999627471 ], [ 43657.80000000000291, 5923041.974999999627471 ], [ 43657.80000000000291, 5923042.049999999813735 ], [ 43657.875, 5923042.049999999813735 ], [ 43657.875, 5923042.125 ], [ 43658.025000000001455, 5923042.125 ], [ 43658.025000000001455, 5923042.200000000186265 ], [ 43658.17500000000291, 5923042.200000000186265 ], [ 43658.17500000000291, 5923042.275000000372529 ], [ 43658.32499999999709, 5923042.275000000372529 ], [ 43658.32499999999709, 5923042.349999999627471 ], [ 43658.400000000001455, 5923042.349999999627471 ], [ 43658.400000000001455, 5923042.424999999813735 ], [ 43658.55000000000291, 5923042.424999999813735 ], [ 43658.55000000000291, 5923042.5 ], [ 43658.69999999999709, 5923042.5 ], [ 43658.69999999999709, 5923042.575000000186265 ], [ 43658.775000000001455, 5923042.575000000186265 ], [ 43658.775000000001455, 5923042.650000000372529 ], [ 43658.849999999998545, 5923042.650000000372529 ], [ 43658.849999999998545, 5923042.724999999627471 ], [ 43658.92500000000291, 5923042.724999999627471 ], [ 43658.92500000000291, 5923042.875 ], [ 43659.0, 5923042.875 ], [ 43659.0, 5923043.25 ], [ 43659.07499999999709, 5923043.25 ], [ 43659.07499999999709, 5923043.775000000372529 ], [ 43659.150000000001455, 5923043.775000000372529 ], [ 43659.150000000001455, 5923044.375 ], [ 43659.224999999998545, 5923044.375 ], [ 43659.224999999998545, 5923045.724999999627471 ], [ 43659.150000000001455, 5923045.724999999627471 ], [ 43659.150000000001455, 5923046.775000000372529 ], [ 43659.07499999999709, 5923046.775000000372529 ], [ 43659.07499999999709, 5923047.075000000186265 ], [ 43659.0, 5923047.075000000186265 ], [ 43659.0, 5923047.375 ], [ 43658.92500000000291, 5923047.375 ], [ 43658.92500000000291, 5923047.674999999813735 ], [ 43658.849999999998545, 5923047.674999999813735 ], [ 43658.849999999998545, 5923047.900000000372529 ], [ 43658.775000000001455, 5923047.900000000372529 ], [ 43658.775000000001455, 5923048.125 ], [ 43658.69999999999709, 5923048.125 ], [ 43658.69999999999709, 5923048.275000000372529 ], [ 43658.625, 5923048.275000000372529 ], [ 43658.625, 5923048.5 ], [ 43658.55000000000291, 5923048.5 ], [ 43658.55000000000291, 5923048.650000000372529 ], [ 43658.474999999998545, 5923048.650000000372529 ], [ 43658.474999999998545, 5923048.724999999627471 ], [ 43658.400000000001455, 5923048.724999999627471 ], [ 43658.400000000001455, 5923048.875 ], [ 43658.32499999999709, 5923048.875 ], [ 43658.32499999999709, 5923048.950000000186265 ], [ 43658.25, 5923048.950000000186265 ], [ 43658.25, 5923049.025000000372529 ], [ 43658.17500000000291, 5923049.025000000372529 ], [ 43658.17500000000291, 5923049.174999999813735 ], [ 43658.099999999998545, 5923049.174999999813735 ], [ 43658.099999999998545, 5923049.25 ], [ 43658.025000000001455, 5923049.25 ], [ 43658.025000000001455, 5923049.400000000372529 ], [ 43657.94999999999709, 5923049.400000000372529 ], [ 43657.94999999999709, 5923049.549999999813735 ], [ 43657.875, 5923049.549999999813735 ], [ 43657.875, 5923049.700000000186265 ], [ 43657.80000000000291, 5923049.700000000186265 ], [ 43657.80000000000291, 5923049.849999999627471 ], [ 43657.724999999998545, 5923049.849999999627471 ], [ 43657.724999999998545, 5923050.075000000186265 ], [ 43657.650000000001455, 5923050.075000000186265 ], [ 43657.650000000001455, 5923050.224999999627471 ], [ 43657.57499999999709, 5923050.224999999627471 ], [ 43657.57499999999709, 5923050.450000000186265 ], [ 43657.5, 5923050.450000000186265 ], [ 43657.5, 5923050.75 ], [ 43657.42500000000291, 5923050.75 ], [ 43657.42500000000291, 5923051.275000000372529 ], [ 43657.349999999998545, 5923051.275000000372529 ], [ 43657.349999999998545, 5923051.724999999627471 ], [ 43657.275000000001455, 5923051.724999999627471 ], [ 43657.275000000001455, 5923052.25 ], [ 43657.19999999999709, 5923052.25 ], [ 43657.19999999999709, 5923052.625 ], [ 43657.125, 5923052.625 ], [ 43657.125, 5923052.775000000372529 ], [ 43657.05000000000291, 5923052.775000000372529 ], [ 43657.05000000000291, 5923052.849999999627471 ], [ 43656.974999999998545, 5923052.849999999627471 ], [ 43656.974999999998545, 5923052.924999999813735 ], [ 43656.900000000001455, 5923052.924999999813735 ], [ 43656.900000000001455, 5923053.0 ], [ 43656.82499999999709, 5923053.0 ], [ 43656.82499999999709, 5923053.075000000186265 ], [ 43656.75, 5923053.075000000186265 ], [ 43656.75, 5923053.150000000372529 ], [ 43656.67500000000291, 5923053.150000000372529 ], [ 43656.67500000000291, 5923053.224999999627471 ], [ 43656.599999999998545, 5923053.224999999627471 ], [ 43656.599999999998545, 5923053.299999999813735 ], [ 43656.44999999999709, 5923053.299999999813735 ], [ 43656.44999999999709, 5923053.375 ], [ 43656.30000000000291, 5923053.375 ], [ 43656.30000000000291, 5923053.450000000186265 ], [ 43656.150000000001455, 5923053.450000000186265 ], [ 43656.150000000001455, 5923053.525000000372529 ], [ 43656.07499999999709, 5923053.525000000372529 ], [ 43656.07499999999709, 5923053.599999999627471 ], [ 43655.92500000000291, 5923053.599999999627471 ], [ 43655.92500000000291, 5923053.674999999813735 ], [ 43655.849999999998545, 5923053.674999999813735 ], [ 43655.849999999998545, 5923053.75 ], [ 43655.775000000001455, 5923053.75 ], [ 43655.775000000001455, 5923053.825000000186265 ], [ 43655.69999999999709, 5923053.825000000186265 ], [ 43655.69999999999709, 5923053.900000000372529 ], [ 43655.625, 5923053.900000000372529 ], [ 43655.625, 5923053.974999999627471 ], [ 43655.55000000000291, 5923053.974999999627471 ], [ 43655.55000000000291, 5923054.049999999813735 ], [ 43655.474999999998545, 5923054.049999999813735 ], [ 43655.474999999998545, 5923054.125 ], [ 43655.400000000001455, 5923054.125 ], [ 43655.400000000001455, 5923054.275000000372529 ], [ 43655.32499999999709, 5923054.275000000372529 ], [ 43655.32499999999709, 5923054.349999999627471 ], [ 43655.25, 5923054.349999999627471 ], [ 43655.25, 5923054.5 ], [ 43655.17500000000291, 5923054.5 ], [ 43655.17500000000291, 5923054.575000000186265 ], [ 43655.099999999998545, 5923054.575000000186265 ], [ 43655.099999999998545, 5923054.724999999627471 ], [ 43654.94999999999709, 5923054.724999999627471 ], [ 43654.94999999999709, 5923054.799999999813735 ], [ 43654.875, 5923054.799999999813735 ], [ 43654.875, 5923054.875 ], [ 43654.80000000000291, 5923054.875 ], [ 43654.80000000000291, 5923054.950000000186265 ], [ 43654.724999999998545, 5923054.950000000186265 ], [ 43654.724999999998545, 5923055.025000000372529 ], [ 43654.57499999999709, 5923055.025000000372529 ] ] ] } },
{ "type": "Feature", "properties": { "value": 1.0, "building_id": 2, "area": 0.0056250000142972567 }, "geometry": { "type": "Polygon", "coordinates": [ [ [ 43656.599999999998545, 5923027.275000000372529 ], [ 43656.599999999998545, 5923027.200000000186265 ], [ 43656.67500000000291, 5923027.200000000186265 ], [ 43656.67500000000291, 5923027.275000000372529 ], [ 43656.599999999998545, 5923027.275000000372529 ] ] ] } },
{ "type": "Feature", "properties": { "value": 1.0, "building_id": 3, "area": 270.26437499849527 }, "geometry": { "type": "Polygon", "coordinates": [ [ [ 43656.525000000001455, 5923020.299999999813735 ], [ 43656.525000000001455, 5923020.224999999627471 ], [ 43656.07499999999709, 5923020.224999999627471 ], [ 43656.07499999999709, 5923020.150000000372529 ], [ 43655.625, 5923020.150000000372529 ], [ 43655.625, 5923020.075000000186265 ], [ 43655.25, 5923020.075000000186265 ], [ 43655.25, 5923020.0 ], [ 43654.80000000000291, 5923020.0 ], [ 43654.80000000000291, 5923019.924999999813735 ], [ 43654.650000000001455, 5923019.924999999813735 ], [ 43654.650000000001455, 5923019.849999999627471 ], [ 43654.57499999999709, 5923019.849999999627471 ], [ 43654.57499999999709, 5923019.775000000372529 ], [ 43654.42500000000291, 5923019.775000000372529 ], [ 43654.42500000000291, 5923019.700000000186265 ], [ 43654.349999999998545, 5923019.700000000186265 ], [ 43654.349999999998545, 5923019.549999999813735 ], [ 43654.275000000001455, 5923019.549999999813735 ], [ 43654.275000000001455, 5923019.474999999627471 ], [ 43654.19999999999709, 5923019.474999999627471 ], [ 43654.19999999999709, 5923019.400000000372529 ], [ 43654.125, 5923019.400000000372529 ], [ 43654.125, 5923019.25 ], [ 43654.05000000000291, 5923019.25 ], [ 43654.05000000000291, 5923019.174999999813735 ], [ 43653.974999999998545, 5923019.174999999813735 ], [ 43653.974999999998545, 5923019.099999999627471 ], [ 43653.900000000001455, 5923019.099999999627471 ], [ 43653.900000000001455, 5923019.025000000372529 ], [ 43653.82499999999709, 5923019.025000000372529 ], [ 43653.82499999999709, 5923018.950000000186265 ], [ 43653.75, 5923018.950000000186265 ], [ 43653.75, 5923018.875 ], [ 43653.67500000000291, 5923018.875 ], [ 43653.67500000000291, 5923018.799999999813735 ], [ 43653.599999999998545, 5923018.799999999813735 ], [ 43653.599999999998545, 5923018.724999999627471 ], [ 43653.525000000001455, 5923018.724999999627471 ], [ 43653.525000000001455, 5923018.650000000372529 ], [ 43653.44999999999709, 5923018.650000000372529 ], [ 43653.44999999999709, 5923018.575000000186265 ], [ 43653.30000000000291, 5923018.575000000186265 ], [ 43653.30000000000291, 5923018.5 ], [ 43653.224999999998545, 5923018.5 ], [ 43653.224999999998545, 5923018.424999999813735 ], [ 43653.150000000001455, 5923018.424999999813735 ], [ 43653.150000000001455, 5923018.349999999627471 ], [ 43653.0, 5923018.349999999627471 ], [ 43653.0, 5923018.275000000372529 ], [ 43652.849999999998545, 5923018.275000000372529 ], [ 43652.849999999998545, 5923018.200000000186265 ], [ 43652.69999999999709, 5923018.200000000186265 ], [ 43652.69999999999709, 5923018.125 ], [ 43652.625, 5923018.125 ], [ 43652.625, 5923018.049999999813735 ], [ 43652.55000000000291, 5923018.049999999813735 ], [ 43652.55000000000291, 5923017.974999999627471 ], [ 43652.474999999998545, 5923017.974999999627471 ], [ 43652.474999999998545, 5923017.900000000372529 ], [ 43652.400000000001455, 5923017.900000000372529 ], [ 43652.400000000001455, 5923017.825000000186265 ], [ 43652.32499999999709, 5923017.825000000186265 ], [ 43652.32499999999709, 5923017.75 ], [ 43652.25, 5923017.75 ], [ 43652.25, 5923017.674999999813735 ], [ 43652.17500000000291, 5923017.674999999813735 ], [ 43652.17500000000291, 5923017.599999999627471 ], [ 43652.099999999998545, 5923017.599999999627471 ], [ 43652.099999999998545, 5923017.450000000186265 ], [ 43652.025000000001455, 5923017.450000000186265 ], [ 43652.025000000001455, 5923017.299999999813735 ], [ 43651.94999999999709, 5923017.299999999813735 ], [ 43651.94999999999709, 5923017.150000000372529 ], [ 43651.875, 5923017.150000000372529 ], [ 43651.875, 5923017.0 ], [ 43651.80000000000291, 5923017.0 ], [ 43651.80000000000291, 5923016.849999999627471 ], [ 43651.724999999998545, 5923016.849999999627471 ], [ 43651.724999999998545, 5923016.700000000186265 ], [ 43651.650000000001455, 5923016.700000000186265 ], [ 43651.650000000001455, 5923016.625 ], [ 43651.57499999999709, 5923016.625 ], [ 43651.57499999999709, 5923016.474999999627471 ], [ 43651.5, 5923016.474999999627471 ], [ 43651.5, 5923016.400000000372529 ], [ 43651.42500000000291, 5923016.400000000372529 ], [ 43651.42500000000291, 5923016.25 ], [ 43651.349999999998545, 5923016.25 ], [ 43651.349999999998545, 5923016.174999999813735 ], [ 43651.275000000001455, 5923016.174999999813735 ], [ 43651.275000000001455, 5923016.099999999627471 ], [ 43651.19999999999709, 5923016.099999999627471 ], [ 43651.19999999999709, 5923016.025000000372529 ], [ 43651.125, 5923016.025000000372529 ], [ 43651.125, 5923015.950000000186265 ], [ 43651.05000000000291, 5923015.950000000186265 ], [ 43651.05000000000291, 5923015.875 ], [ 43650.974999999998545, 5923015.875 ], [ 43650.974999999998545, 5923015.799999999813735 ], [ 43650.900000000001455, 5923015.799999999813735 ], [ 43650.900000000001455, 5923015.724999999627471 ], [ 43650.82499999999709, 5923015.724999999627471 ], [ 43650.82499999999709, 5923015.650000000372529 ], [ 43650.75, 5923015.650000000372529 ], [ 43650.75, 5923015.575000000186265 ], [ 43650.67500000000291, 5923015.575000000186265 ], [ 43650.67500000000291, 5923015.424999999813735 ], [ 43650.599999999998545, 5923015.424999999813735 ], [ 43650.599999999998545, 5923015.125 ], [ 43650.525000000001455, 5923015.125 ], [ 43650.525000000001455, 5923014.900000000372529 ], [ 43650.44999999999709, 5923014.900000000372529 ], [ 43650.44999999999709, 5923014.599999999627471 ], [ 43650.375, 5923014.599999999627471 ], [ 43650.375, 5923014.299999999813735 ], [ 43650.30000000000291, 5923014.299999999813735 ], [ 43650.30000000000291, 5923013.924999999813735 ], [ 43650.224999999998545, 5923013.924999999813735 ], [ 43650.224999999998545, 5923011.599999999627471 ], [ 43650.30000000000291, 5923011.599999999627471 ], [ 43650.30000000000291, 5923011.450000000186265 ], [ 43650.375, 5923011.450000000186265 ], [ 43650.375, 5923011.375 ], [ 43650.44999999999709, 5923011.375 ], [ 43650.44999999999709, 5923011.299999999813735 ], [ 43650.525000000001455, 5923011.299999999813735 ], [ 43650.525000000001455, 5923011.224999999627471 ], [ 43650.599999999998545, 5923011.224999999627471 ], [ 43650.599999999998545, 5923011.150000000372529 ], [ 43650.67500000000291, 5923011.150000000372529 ], [ 43650.67500000000291, 5923011.075000000186265 ], [ 43650.75, 5923011.075000000186265 ], [ 43650.75, 5923011.0 ], [ 43650.82499999999709, 5923011.0 ], [ 43650.82499999999709, 5923010.924999999813735 ], [ 43650.900000000001455, 5923010.924999999813735 ], [ 43650.900000000001455, 5923010.849999999627471 ], [ 43650.974999999998545, 5923010.849999999627471 ], [ 43650.974999999998545, 5923010.775000000372529 ], [ 43651.05000000000291, 5923010.775000000372529 ], [ 43651.05000000000291, 5923010.700000000186265 ], [ 43651.125, 5923010.700000000186265 ], [ 43651.125, 5923010.625 ], [ 43651.19999999999709, 5923010.625 ], [ 43651.19999999999709, 5923010.549999999813735 ], [ 43651.275000000001455, 5923010.549999999813735 ], [ 43651.275000000001455, 5923010.474999999627471 ], [ 43651.349999999998545, 5923010.474999999627471 ], [ 43651.349999999998545, 5923010.400000000372529 ], [ 43651.42500000000291, 5923010.400000000372529 ], [ 43651.42500000000291, 5923010.25 ], [ 43651.5, 5923010.25 ], [ 43651.5, 5923010.099999999627471 ], [ 43651.57499999999709, 5923010.099999999627471 ], [ 43651.57499999999709, 5923010.025000000372529 ], [ 43651.650000000001455, 5923010.025000000372529 ], [ 43651.650000000001455, 5923009.875 ], [ 43651.724999999998545, 5923009.875 ], [ 43651.724999999998545, 5923009.724999999627471 ], [ 43651.80000000000291, 5923009.724999999627471 ], [ 43651.80000000000291, 5923009.5 ], [ 43651.875, 5923009.5 ], [ 43651.875, 5923009.424999999813735 ], [ 43651.94999999999709, 5923009.424999999813735 ], [ 43651.94999999999709, 5923009.275000000372529 ], [ 43652.025000000001455, 5923009.275000000372529 ], [ 43652.025000000001455, 5923009.125 ], [ 43652.099999999998545, 5923009.125 ], [ 43652.099999999998545, 5923009.049999999813735 ], [ 43652.17500000000291, 5923009.049999999813735 ], [ 43652.17500000000291, 5923008.974999999627471 ], [ 43652.25, 5923008.974999999627471 ], [ 43652.25, 5923008.900000000372529 ], [ 43652.32499999999709, 5923008.900000000372529 ], [ 43652.32499999999709, 5923008.75 ], [ 43652.400000000001455, 5923008.75 ], [ 43652.400000000001455, 5923008.674999999813735 ], [ 43652.55000000000291, 5923008.674999999813735 ], [ 43652.55000000000291, 5923008.599999999627471 ], [ 43652.625, 5923008.599999999627471 ], [ 43652.625, 5923008.525000000372529 ], [ 43652.69999999999709, 5923008.525000000372529 ], [ 43652.69999999999709, 5923008.450000000186265 ], [ 43652.775000000001455, 5923008.450000000186265 ], [ 43652.775000000001455, 5923008.375 ], [ 43652.92500000000291, 5923008.375 ], [ 43652.92500000000291, 5923008.299999999813735 ], [ 43653.0, 5923008.299999999813735 ], [ 43653.0, 5923008.224999999627471 ], [ 43653.07499999999709, 5923008.224999999627471 ], [ 43653.07499999999709, 5923008.150000000372529 ], [ 43653.150000000001455, 5923008.150000000372529 ], [ 43653.150000000001455, 5923008.075000000186265 ], [ 43653.224999999998545, 5923008.075000000186265 ], [ 43653.224999999998545, 5923008.0 ], [ 43653.30000000000291, 5923008.0 ], [ 43653.30000000000291, 5923007.924999999813735 ], [ 43653.375, 5923007.924999999813735 ], [ 43653.375, 5923007.849999999627471 ], [ 43653.44999999999709, 5923007.849999999627471 ], [ 43653.44999999999709, 5923007.700000000186265 ], [ 43653.525000000001455, 5923007.700000000186265 ], [ 43653.525000000001455, 5923007.625 ], [ 43653.599999999998545, 5923007.625 ], [ 43653.599999999998545, 5923007.549999999813735 ], [ 43653.67500000000291, 5923007.549999999813735 ], [ 43653.67500000000291, 5923007.474999999627471 ], [ 43653.75, 5923007.474999999627471 ], [ 43653.75, 5923007.400000000372529 ], [ 43653.82499999999709, 5923007.400000000372529 ], [ 43653.82499999999709, 5923007.325000000186265 ], [ 43653.900000000001455, 5923007.325000000186265 ], [ 43653.900000000001455, 5923007.25 ], [ 43653.974999999998545, 5923007.25 ], [ 43653.974999999998545, 5923007.174999999813735 ], [ 43654.125, 5923007.174999999813735 ], [ 43654.125, 5923007.099999999627471 ], [ 43654.19999999999709, 5923007.099999999627471 ], [ 43654.19999999999709, 5923007.025000000372529 ], [ 43654.349999999998545, 5923007.025000000372529 ], [ 43654.349999999998545, 5923006.950000000186265 ], [ 43654.5, 5923006.950000000186265 ], [ 43654.5, 5923006.875 ], [ 43654.650000000001455, 5923006.875 ], [ 43654.650000000001455, 5923006.799999999813735 ], [ 43655.099999999998545, 5923006.799999999813735 ], [ 43655.099999999998545, 5923006.724999999627471 ], [ 43655.69999999999709, 5923006.724999999627471 ], [ 43655.69999999999709, 5923006.650000000372529 ], [ 43656.30000000000291, 5923006.650000000372529 ], [ 43656.30000000000291, 5923006.575000000186265 ], [ 43658.25, 5923006.575000000186265 ], [ 43658.25, 5923006.650000000372529 ], [ 43664.92500000000291, 5923006.650000000372529 ], [ 43664.92500000000291, 5923006.724999999627471 ], [ 43666.349999999998545, 5923006.724999999627471 ], [ 43666.349999999998545, 5923006.799999999813735 ], [ 43667.25, 5923006.799999999813735 ], [ 43667.25, 5923006.875 ], [ 43668.07499999999709, 5923006.875 ], [ 43668.07499999999709, 5923006.950000000186265 ], [ 43668.75, 5923006.950000000186265 ], [ 43668.75, 5923007.025000000372529 ], [ 43669.42500000000291, 5923007.025000000372529 ], [ 43669.42500000000291, 5923007.099999999627471 ], [ 43669.94999999999709, 5923007.099999999627471 ], [ 43669.94999999999709, 5923007.174999999813735 ], [ 43670.32499999999709, 5923007.174999999813735 ], [ 43670.32499999999709, 5923007.25 ], [ 43670.474999999998545, 5923007.25 ], [ 43670.474999999998545, 5923007.325000000186265 ], [ 43670.625, 5923007.325000000186265 ], [ 43670.625, 5923007.400000000372529 ], [ 43670.69999999999709, 5923007.400000000372529 ], [ 43670.69999999999709, 5923007.474999999627471 ], [ 43670.775000000001455, 5923007.474999999627471 ], [ 43670.775000000001455, 5923007.549999999813735 ], [ 43670.92500000000291, 5923007.549999999813735 ], [ 43670.92500000000291, 5923007.625 ], [ 43671.0, 5923007.625 ], [ 43671.0, 5923007.700000000186265 ], [ 43671.07499999999709, 5923007.700000000186265 ], [ 43671.07499999999709, 5923007.849999999627471 ], [ 43671.150000000001455, 5923007.849999999627471 ], [ 43671.150000000001455, 5923007.924999999813735 ], [ 43671.224999999998545, 5923007.924999999813735 ], [ 43671.224999999998545, 5923008.0 ], [ 43671.30000000000291, 5923008.0 ], [ 43671.30000000000291, 5923008.075000000186265 ], [ 43671.375, 5923008.075000000186265 ], [ 43671.375, 5923008.150000000372529 ], [ 43671.44999999999709, 5923008.150000000372529 ], [ 43671.44999999999709, 5923008.224999999627471 ], [ 43671.525000000001455, 5923008.224999999627471 ], [ 43671.525000000001455, 5923008.299999999813735 ], [ 43671.599999999998545, 5923008.299999999813735 ], [ 43671.599999999998545, 5923008.375 ], [ 43671.75, 5923008.375 ], [ 43671.75, 5923008.450000000186265 ], [ 43671.82499999999709, 5923008.450000000186265 ], [ 43671.82499999999709, 5923008.525000000372529 ], [ 43671.974999999998545, 5923008.525000000372529 ], [ 43671.974999999998545, 5923008.599999999627471 ], [ 43672.05000000000291, 5923008.599999999627471 ], [ 43672.05000000000291, 5923008.674999999813735 ], [ 43672.19999999999709, 5923008.674999999813735 ], [ 43672.19999999999709, 5923008.75 ], [ 43672.275000000001455, 5923008.75 ], [ 43672.275000000001455, 5923008.825000000186265 ], [ 43672.42500000000291, 5923008.825000000186265 ], [ 43672.42500000000291, 5923008.900000000372529 ], [ 43672.5, 5923008.900000000372529 ], [ 43672.5, 5923008.974999999627471 ], [ 43672.57499999999709, 5923008.974999999627471 ], [ 43672.57499999999709, 5923009.049999999813735 ], [ 43672.650000000001455, 5923009.049999999813735 ], [ 43672.650000000001455, 5923009.125 ], [ 43672.724999999998545, 5923009.125 ], [ 43672.724999999998545, 5923009.200000000186265 ], [ 43672.80000000000291, 5923009.200000000186265 ], [ 43672.80000000000291, 5923009.275000000372529 ], [ 43672.875, 5923009.275000000372529 ], [ 43672.875, 5923009.424999999813735 ], [ 43672.94999999999709, 5923009.424999999813735 ], [ 43672.94999999999709, 5923009.5 ], [ 43673.025000000001455, 5923009.5 ], [ 43673.025000000001455, 5923009.650000000372529 ], [ 43673.099999999998545, 5923009.650000000372529 ], [ 43673.099999999998545, 5923009.724999999627471 ], [ 43673.17500000000291, 5923009.724999999627471 ], [ 43673.17500000000291, 5923009.875 ], [ 43673.25, 5923009.875 ], [ 43673.25, 5923009.950000000186265 ], [ 43673.32499999999709, 5923009.950000000186265 ], [ 43673.32499999999709, 5923010.099999999627471 ], [ 43673.400000000001455, 5923010.099999999627471 ], [ 43673.400000000001455, 5923010.174999999813735 ], [ 43673.474999999998545, 5923010.174999999813735 ], [ 43673.474999999998545, 5923010.25 ], [ 43673.55000000000291, 5923010.25 ], [ 43673.55000000000291, 5923010.325000000186265 ], [ 43673.625, 5923010.325000000186265 ], [ 43673.625, 5923010.400000000372529 ], [ 43673.69999999999709, 5923010.400000000372529 ], [ 43673.69999999999709, 5923010.474999999627471 ], [ 43673.775000000001455, 5923010.474999999627471 ], [ 43673.775000000001455, 5923010.549999999813735 ], [ 43673.849999999998545, 5923010.549999999813735 ], [ 43673.849999999998545, 5923010.625 ], [ 43674.0, 5923010.625 ], [ 43674.0, 5923010.700000000186265 ], [ 43674.07499999999709, 5923010.700000000186265 ], [ 43674.07499999999709, 5923010.775000000372529 ], [ 43674.224999999998545, 5923010.775000000372529 ], [ 43674.224999999998545, 5923010.849999999627471 ], [ 43674.30000000000291, 5923010.849999999627471 ], [ 43674.30000000000291, 5923010.924999999813735 ], [ 43674.375, 5923010.924999999813735 ], [ 43674.375, 5923011.0 ], [ 43674.44999999999709, 5923011.0 ], [ 43674.44999999999709, 5923011.075000000186265 ], [ 43674.525000000001455, 5923011.075000000186265 ], [ 43674.525000000001455, 5923011.150000000372529 ], [ 43674.599999999998545, 5923011.150000000372529 ], [ 43674.599999999998545, 5923011.224999999627471 ], [ 43674.67500000000291, 5923011.224999999627471 ], [ 43674.67500000000291, 5923011.299999999813735 ], [ 43674.75, 5923011.299999999813735 ], [ 43674.75, 5923011.375 ], [ 43674.82499999999709, 5923011.375 ], [ 43674.82499999999709, 5923011.525000000372529 ], [ 43674.900000000001455, 5923011.525000000372529 ], [ 43674.900000000001455, 5923014.075000000186265 ], [ 43674.82499999999709, 5923014.075000000186265 ], [ 43674.82499999999709, 5923014.525000000372529 ], [ 43674.75, 5923014.525000000372529 ], [ 43674.75, 5923014.900000000372529 ], [ 43674.67500000000291, 5923014.900000000372529 ], [ 43674.67500000000291, 5923015.349999999627471 ], [ 43674.599999999998545, 5923015.349999999627471 ], [ 43674.599999999998545, 5923015.575000000186265 ], [ 43674.525000000001455, 5923015.575000000186265 ], [ 43674.525000000001455, 5923015.650000000372529 ], [ 43674.44999999999709, 5923015.650000000372529 ], [ 43674.44999999999709, 5923015.724999999627471 ], [ 43674.375, 5923015.724999999627471 ], [ 43674.375, 5923015.799999999813735 ], [ 43674.30000000000291, 5923015.799999999813735 ], [ 43674.30000000000291, 5923015.875 ], [ 43674.224999999998545, 5923015.875 ], [ 43674.224999999998545, 5923015.950000000186265 ], [ 43674.07499999999709, 5923015.950000000186265 ], [ 43674.07499999999709, 5923016.025000000372529 ], [ 43674.0, 5923016.025000000372529 ], [ 43674.0, 5923016.099999999627471 ], [ 43673.849999999998545, 5923016.099999999627471 ], [ 43673.849999999998545, 5923016.174999999813735 ], [ 43673.69999999999709, 5923016.174999999813735 ], [ 43673.69999999999709, 5923016.25 ], [ 43673.625, 5923016.25 ], [ 43673.625, 5923016.325000000186265 ], [ 43673.55000000000291, 5923016.325000000186265 ], [ 43673.55000000000291, 5923016.400000000372529 ], [ 43673.474999999998545, 5923016.400000000372529 ], [ 43673.474999999998545, 5923016.474999999627471 ], [ 43673.400000000001455, 5923016.474999999627471 ], [ 43673.400000000001455, 5923016.549999999813735 ], [ 43673.32499999999709, 5923016.549999999813735 ], [ 43673.32499999999709, 5923016.625 ], [ 43673.25, 5923016.625 ], [ 43673.25, 5923016.700000000186265 ], [ 43673.17500000000291, 5923016.700000000186265 ], [ 43673.17500000000291, 5923016.775000000372529 ], [ 43673.099999999998545, 5923016.775000000372529 ], [ 43673.099999999998545, 5923016.849999999627471 ], [ 43673.025000000001455, 5923016.849999999627471 ], [ 43673.025000000001455, 5923017.0 ], [ 43672.94999999999709, 5923017.0 ], [ 43672.94999999999709, 5923017.075000000186265 ], [ 43672.875, 5923017.075000000186265 ], [ 43672.875, 5923017.224999999627471 ], [ 43672.80000000000291, 5923017.224999999627471 ], [ 43672.80000000000291, 5923017.375 ], [ 43672.724999999998545, 5923017.375 ], [ 43672.724999999998545, 5923017.525000000372529 ], [ 43672.650000000001455, 5923017.525000000372529 ], [ 43672.650000000001455, 5923017.599999999627471 ], [ 43672.57499999999709, 5923017.599999999627471 ], [ 43672.57499999999709, 5923017.674999999813735 ], [ 43672.5, 5923017.674999999813735 ], [ 43672.5, 5923017.75 ], [ 43672.42500000000291, 5923017.75 ], [ 43672.42500000000291, 5923017.825000000186265 ], [ 43672.349999999998545, 5923017.825000000186265 ], [ 43672.349999999998545, 5923017.900000000372529 ], [ 43672.275000000001455, 5923017.900000000372529 ], [ 43672.275000000001455, 5923017.974999999627471 ], [ 43672.05000000000291, 5923017.974999999627471 ], [ 43672.05000000000291, 5923018.049999999813735 ], [ 43671.82499999999709, 5923018.049999999813735 ], [ 43671.82499999999709, 5923018.125 ], [ 43671.599999999998545, 5923018.125 ], [ 43671.599999999998545, 5923018.200000000186265 ], [ 43671.44999999999709, 5923018.200000000186265 ], [ 43671.44999999999709, 5923018.275000000372529 ], [ 43671.30000000000291, 5923018.275000000372529 ], [ 43671.30000000000291, 5923018.349999999627471 ], [ 43671.07499999999709, 5923018.349999999627471 ], [ 43671.07499999999709, 5923018.424999999813735 ], [ 43671.0, 5923018.424999999813735 ], [ 43671.0, 5923018.5 ], [ 43670.849999999998545, 5923018.5 ], [ 43670.849999999998545, 5923018.575000000186265 ], [ 43670.69999999999709, 5923018.575000000186265 ], [ 43670.69999999999709, 5923018.650000000372529 ], [ 43670.625, 5923018.650000000372529 ], [ 43670.625, 5923018.724999999627471 ], [ 43670.474999999998545, 5923018.724999999627471 ], [ 43670.474999999998545, 5923018.799999999813735 ], [ 43670.400000000001455, 5923018.799999999813735 ], [ 43670.400000000001455, 5923018.875 ], [ 43669.875, 5923018.875 ], [ 43669.875, 5923018.799999999813735 ], [ 43669.05000000000291, 5923018.799999999813735 ], [ 43669.05000000000291, 5923018.724999999627471 ], [ 43667.775000000001455, 5923018.724999999627471 ], [ 43667.775000000001455, 5923018.650000000372529 ], [ 43663.125, 5923018.650000000372529 ], [ 43663.125, 5923018.724999999627471 ], [ 43662.30000000000291, 5923018.724999999627471 ], [ 43662.30000000000291, 5923018.799999999813735 ], [ 43662.07499999999709, 5923018.799999999813735 ], [ 43662.07499999999709, 5923018.875 ], [ 43661.775000000001455, 5923018.875 ], [ 43661.775000000001455, 5923018.950000000186265 ], [ 43661.55000000000291, 5923018.950000000186265 ], [ 43661.55000000000291, 5923019.025000000372529 ], [ 43661.32499999999709, 5923019.025000000372529 ], [ 43661.32499999999709, 5923019.099999999627471 ], [ 43661.17500000000291, 5923019.099999999627471 ], [ 43661.17500000000291, 5923019.174999999813735 ], [ 43660.94999999999709, 5923019.174999999813735 ], [ 43660.94999999999709, 5923019.25 ], [ 43660.80000000000291, 5923019.25 ], [ 43660.80000000000291, 5923019.325000000186265 ], [ 43660.650000000001455, 5923019.325000000186265 ], [ 43660.650000000001455, 5923019.400000000372529 ], [ 43660.57499999999709, 5923019.400000000372529 ], [ 43660.57499999999709, 5923019.474999999627471 ], [ 43660.349999999998545, 5923019.474999999627471 ], [ 43660.349999999998545, 5923019.549999999813735 ], [ 43660.19999999999709, 5923019.549999999813735 ], [ 43660.19999999999709, 5923019.625 ], [ 43659.974999999998545, 5923019.625 ], [ 43659.974999999998545, 5923019.700000000186265 ], [ 43659.75, 5923019.700000000186265 ], [ 43659.75, 5923019.775000000372529 ], [ 43659.525000000001455, 5923019.775000000372529 ], [ 43659.525000000001455, 5923019.849999999627471 ], [ 43659.30000000000291, 5923019.849999999627471 ], [ 43659.30000000000291, 5923019.924999999813735 ], [ 43659.0, 5923019.924999999813735 ], [ 43659.0, 5923020.0 ], [ 43658.69999999999709, 5923020.0 ], [ 43658.69999999999709, 5923020.075000000186265 ], [ 43658.17500000000291, 5923020.075000000186265 ], [ 43658.17500000000291, 5923020.150000000372529 ], [ 43657.5, 5923020.150000000372529 ], [ 43657.5, 5923020.224999999627471 ], [ 43656.75, 5923020.224999999627471 ], [ 43656.75, 5923020.299999999813735 ], [ 43656.525000000001455, 5923020.299999999813735 ] ] ] } },
{ "type": "Feature", "properties": { "value": 1.0, "building_id": 4, "area": 315.69187499975885 }, "geometry": { "type": "Polygon", "coordinates": [ [ [ 43619.775000000001455, 5922989.924999999813735 ], [ 43619.775000000001455, 5922989.849999999627471 ], [ 43619.25, 5922989.849999999627471 ], [ 43619.25, 5922989.775000000372529 ], [ 43618.94999999999709, 5922989.775000000372529 ], [ 43618.94999999999709, 5922989.700000000186265 ], [ 43618.724999999998545, 5922989.700000000186265 ], [ 43618.724999999998545, 5922989.625 ], [ 43618.57499999999709, 5922989.625 ], [ 43618.57499999999709, 5922989.549999999813735 ], [ 43618.42500000000291, 5922989.549999999813735 ], [ 43618.42500000000291, 5922989.474999999627471 ], [ 43618.275000000001455, 5922989.474999999627471 ], [ 43618.275000000001455, 5922989.400000000372529 ], [ 43618.19999999999709, 5922989.400000000372529 ], [ 43618.19999999999709, 5922989.325000000186265 ], [ 43618.05000000000291, 5922989.325000000186265 ], [ 43618.05000000000291, 5922989.25 ], [ 43617.974999999998545, 5922989.25 ], [ 43617.974999999998545, 5922989.174999999813735 ], [ 43617.900000000001455, 5922989.174999999813735 ], [ 43617.900000000001455, 5922989.099999999627471 ], [ 43617.82499999999709, 5922989.099999999627471 ], [ 43617.82499999999709, 5922988.950000000186265 ], [ 43617.75, 5922988.950000000186265 ], [ 43617.75, 5922988.875 ], [ 43617.67500000000291, 5922988.875 ], [ 43617.67500000000291, 5922988.724999999627471 ], [ 43617.599999999998545, 5922988.724999999627471 ], [ 43617.599999999998545, 5922988.575000000186265 ], [ 43617.525000000001455, 5922988.575000000186265 ], [ 43617.525000000001455, 5922988.349999999627471 ], [ 43617.44999999999709, 5922988.349999999627471 ], [ 43617.44999999999709, 5922988.200000000186265 ], [ 43617.375, 5922988.200000000186265 ], [ 43617.375, 5922988.125 ], [ 43617.224999999998545, 5922988.125 ], [ 43617.224999999998545, 5922988.049999999813735 ], [ 43617.07499999999709, 5922988.049999999813735 ], [ 43617.07499999999709, 5922987.974999999627471 ], [ 43616.92500000000291, 5922987.974999999627471 ], [ 43616.92500000000291, 5922987.900000000372529 ], [ 43616.775000000001455, 5922987.900000000372529 ], [ 43616.775000000001455, 5922987.825000000186265 ], [ 43616.55000000000291, 5922987.825000000186265 ], [ 43616.55000000000291, 5922987.75 ], [ 43616.400000000001455, 5922987.75 ], [ 43616.400000000001455, 5922987.674999999813735 ], [ 43616.25, 5922987.674999999813735 ], [ 43616.25, 5922987.599999999627471 ], [ 43616.099999999998545, 5922987.599999999627471 ], [ 43616.099999999998545, 5922987.525000000372529 ], [ 43615.875, 5922987.525000000372529 ], [ 43615.875, 5922987.450000000186265 ], [ 43615.724999999998545, 5922987.450000000186265 ], [ 43615.724999999998545, 5922987.375 ], [ 43615.5, 5922987.375 ], [ 43615.5, 5922987.299999999813735 ], [ 43615.275000000001455, 5922987.299999999813735 ], [ 43615.275000000001455, 5922987.224999999627471 ], [ 43615.125, 5922987.224999999627471 ], [ 43615.125, 5922987.150000000372529 ], [ 43614.900000000001455, 5922987.150000000372529 ], [ 43614.900000000001455, 5922987.075000000186265 ], [ 43614.67500000000291, 5922987.075000000186265 ], [ 43614.67500000000291, 5922987.0 ], [ 43614.375, 5922987.0 ], [ 43614.375, 5922986.924999999813735 ], [ 43614.150000000001455, 5922986.924999999813735 ], [ 43614.150000000001455, 5922986.849999999627471 ], [ 43613.92500000000291, 5922986.849999999627471 ], [ 43613.92500000000291, 5922986.775000000372529 ], [ 43613.69999999999709, 5922986.775000000372529 ], [ 43613.69999999999709, 5922986.700000000186265 ], [ 43613.625, 5922986.700000000186265 ], [ 43613.625, 5922986.625 ], [ 43613.55000000000291, 5922986.625 ], [ 43613.55000000000291, 5922986.549999999813735 ], [ 43613.474999999998545, 5922986.549999999813735 ], [ 43613.474999999998545, 5922986.474999999627471 ], [ 43613.400000000001455, 5922986.474999999627471 ], [ 43613.400000000001455, 5922986.400000000372529 ], [ 43613.32499999999709, 5922986.400000000372529 ], [ 43613.32499999999709, 5922986.25 ], [ 43613.25, 5922986.25 ], [ 43613.25, 5922986.174999999813735 ], [ 43613.17500000000291, 5922986.174999999813735 ], [ 43613.17500000000291, 5922986.025000000372529 ], [ 43613.099999999998545, 5922986.025000000372529 ], [ 43613.099999999998545, 5922985.875 ], [ 43613.025000000001455, 5922985.875 ], [ 43613.025000000001455, 5922985.724999999627471 ], [ 43612.94999999999709, 5922985.724999999627471 ], [ 43612.94999999999709, 5922985.575000000186265 ], [ 43612.875, 5922985.575000000186265 ], [ 43612.875, 5922985.5 ], [ 43612.80000000000291, 5922985.5 ], [ 43612.80000000000291, 5922985.349999999627471 ], [ 43612.724999999998545, 5922985.349999999627471 ], [ 43612.724999999998545, 5922985.275000000372529 ], [ 43612.650000000001455, 5922985.275000000372529 ], [ 43612.650000000001455, 5922985.125 ], [ 43612.57499999999709, 5922985.125 ], [ 43612.57499999999709, 5922985.049999999813735 ], [ 43612.5, 5922985.049999999813735 ], [ 43612.5, 5922984.974999999627471 ], [ 43612.42500000000291, 5922984.974999999627471 ], [ 43612.42500000000291, 5922984.825000000186265 ], [ 43612.349999999998545, 5922984.825000000186265 ], [ 43612.349999999998545, 5922984.75 ], [ 43612.275000000001455, 5922984.75 ], [ 43612.275000000001455, 5922984.674999999813735 ], [ 43612.19999999999709, 5922984.674999999813735 ], [ 43612.19999999999709, 5922984.599999999627471 ], [ 43612.125, 5922984.599999999627471 ], [ 43612.125, 5922984.525000000372529 ], [ 43612.05000000000291, 5922984.525000000372529 ], [ 43612.05000000000291, 5922984.450000000186265 ], [ 43611.974999999998545, 5922984.450000000186265 ], [ 43611.974999999998545, 5922984.375 ], [ 43611.900000000001455, 5922984.375 ], [ 43611.900000000001455, 5922984.299999999813735 ], [ 43611.82499999999709, 5922984.299999999813735 ], [ 43611.82499999999709, 5922984.224999999627471 ], [ 43611.75, 5922984.224999999627471 ], [ 43611.75, 5922984.150000000372529 ], [ 43611.67500000000291, 5922984.150000000372529 ], [ 43611.67500000000291, 5922984.075000000186265 ], [ 43611.599999999998545, 5922984.075000000186265 ], [ 43611.599999999998545, 5922984.0 ], [ 43611.525000000001455, 5922984.0 ], [ 43611.525000000001455, 5922983.924999999813735 ], [ 43611.44999999999709, 5922983.924999999813735 ], [ 43611.44999999999709, 5922983.849999999627471 ], [ 43611.375, 5922983.849999999627471 ], [ 43611.375, 5922983.700000000186265 ], [ 43611.30000000000291, 5922983.700000000186265 ], [ 43611.30000000000291, 5922983.625 ], [ 43611.224999999998545, 5922983.625 ], [ 43611.224999999998545, 5922983.549999999813735 ], [ 43611.150000000001455, 5922983.549999999813735 ], [ 43611.150000000001455, 5922983.400000000372529 ], [ 43611.07499999999709, 5922983.400000000372529 ], [ 43611.07499999999709, 5922983.325000000186265 ], [ 43611.0, 5922983.325000000186265 ], [ 43611.0, 5922983.025000000372529 ], [ 43610.92500000000291, 5922983.025000000372529 ], [ 43610.92500000000291, 5922982.200000000186265 ], [ 43611.0, 5922982.200000000186265 ], [ 43611.0, 5922982.049999999813735 ], [ 43611.07499999999709, 5922982.049999999813735 ], [ 43611.07499999999709, 5922981.974999999627471 ], [ 43611.150000000001455, 5922981.974999999627471 ], [ 43611.150000000001455, 5922981.825000000186265 ], [ 43611.224999999998545, 5922981.825000000186265 ], [ 43611.224999999998545, 5922981.75 ], [ 43611.30000000000291, 5922981.75 ], [ 43611.30000000000291, 5922981.674999999813735 ], [ 43611.375, 5922981.674999999813735 ], [ 43611.375, 5922981.525000000372529 ], [ 43611.44999999999709, 5922981.525000000372529 ], [ 43611.44999999999709, 5922981.450000000186265 ], [ 43611.525000000001455, 5922981.450000000186265 ], [ 43611.525000000001455, 5922981.375 ], [ 43611.599999999998545, 5922981.375 ], [ 43611.599999999998545, 5922981.299999999813735 ], [ 43611.67500000000291, 5922981.299999999813735 ], [ 43611.67500000000291, 5922981.224999999627471 ], [ 43611.75, 5922981.224999999627471 ], [ 43611.75, 5922981.150000000372529 ], [ 43611.82499999999709, 5922981.150000000372529 ], [ 43611.82499999999709, 5922981.075000000186265 ], [ 43611.900000000001455, 5922981.075000000186265 ], [ 43611.900000000001455, 5922981.0 ], [ 43611.974999999998545, 5922981.0 ], [ 43611.974999999998545, 5922980.924999999813735 ], [ 43612.05000000000291, 5922980.924999999813735 ], [ 43612.05000000000291, 5922980.775000000372529 ], [ 43612.125, 5922980.775000000372529 ], [ 43612.125, 5922980.700000000186265 ], [ 43612.19999999999709, 5922980.700000000186265 ], [ 43612.19999999999709, 5922980.549999999813735 ], [ 43612.275000000001455, 5922980.549999999813735 ], [ 43612.275000000001455, 5922980.400000000372529 ], [ 43612.349999999998545, 5922980.400000000372529 ], [ 43612.349999999998545, 5922980.174999999813735 ], [ 43612.42500000000291, 5922980.174999999813735 ], [ 43612.42500000000291, 5922979.950000000186265 ], [ 43612.5, 5922979.950000000186265 ], [ 43612.5, 5922979.650000000372529 ], [ 43612.57499999999709, 5922979.650000000372529 ], [ 43612.57499999999709, 5922979.424999999813735 ], [ 43612.650000000001455, 5922979.424999999813735 ], [ 43612.650000000001455, 5922979.125 ], [ 43612.724999999998545, 5922979.125 ], [ 43612.724999999998545, 5922978.900000000372529 ], [ 43612.80000000000291, 5922978.900000000372529 ], [ 43612.80000000000291, 5922978.599999999627471 ], [ 43612.875, 5922978.599999999627471 ], [ 43612.875, 5922978.375 ], [ 43612.94999999999709, 5922978.375 ], [ 43612.94999999999709, 5922978.224999999627471 ], [ 43613.025000000001455, 5922978.224999999627471 ], [ 43613.025000000001455, 5922978.150000000372529 ], [ 43613.099999999998545, 5922978.150000000372529 ], [ 43613.099999999998545, 5922978.0 ], [ 43613.17500000000291, 5922978.0 ], [ 43613.17500000000291, 5922977.924999999813735 ], [ 43613.25, 5922977.924999999813735 ], [ 43613.25, 5922977.849999999627471 ], [ 43613.32499999999709, 5922977.849999999627471 ], [ 43613.32499999999709, 5922977.775000000372529 ], [ 43613.400000000001455, 5922977.775000000372529 ], [ 43613.400000000001455, 5922977.700000000186265 ], [ 43613.474999999998545, 5922977.700000000186265 ], [ 43613.474999999998545, 5922977.625 ], [ 43613.55000000000291, 5922977.625 ], [ 43613.55000000000291, 5922977.549999999813735 ], [ 43613.69999999999709, 5922977.549999999813735 ], [ 43613.69999999999709, 5922977.474999999627471 ], [ 43613.775000000001455, 5922977.474999999627471 ], [ 43613.775000000001455, 5922977.400000000372529 ], [ 43613.849999999998545, 5922977.400000000372529 ], [ 43613.849999999998545, 5922977.325000000186265 ], [ 43613.92500000000291, 5922977.325000000186265 ], [ 43613.92500000000291, 5922977.25 ], [ 43614.0, 5922977.25 ], [ 43614.0, 5922977.174999999813735 ], [ 43614.07499999999709, 5922977.174999999813735 ], [ 43614.07499999999709, 5922977.099999999627471 ], [ 43614.150000000001455, 5922977.099999999627471 ], [ 43614.150000000001455, 5922977.025000000372529 ], [ 43614.224999999998545, 5922977.025000000372529 ], [ 43614.224999999998545, 5922976.875 ], [ 43614.30000000000291, 5922976.875 ], [ 43614.30000000000291, 5922976.799999999813735 ], [ 43614.375, 5922976.799999999813735 ], [ 43614.375, 5922976.650000000372529 ], [ 43614.44999999999709, 5922976.650000000372529 ], [ 43614.44999999999709, 5922976.5 ], [ 43614.525000000001455, 5922976.5 ], [ 43614.525000000001455, 5922976.125 ], [ 43614.599999999998545, 5922976.125 ], [ 43614.599999999998545, 5922975.674999999813735 ], [ 43614.67500000000291, 5922975.674999999813735 ], [ 43614.67500000000291, 5922975.150000000372529 ], [ 43614.75, 5922975.150000000372529 ], [ 43614.75, 5922974.700000000186265 ], [ 43614.82499999999709, 5922974.700000000186265 ], [ 43614.82499999999709, 5922974.400000000372529 ], [ 43614.900000000001455, 5922974.400000000372529 ], [ 43614.900000000001455, 5922974.25 ], [ 43614.974999999998545, 5922974.25 ], [ 43614.974999999998545, 5922974.099999999627471 ], [ 43615.05000000000291, 5922974.099999999627471 ], [ 43615.05000000000291, 5922973.950000000186265 ], [ 43615.125, 5922973.950000000186265 ], [ 43615.125, 5922973.799999999813735 ], [ 43615.19999999999709, 5922973.799999999813735 ], [ 43615.19999999999709, 5922973.724999999627471 ], [ 43615.275000000001455, 5922973.724999999627471 ], [ 43615.275000000001455, 5922973.575000000186265 ], [ 43615.349999999998545, 5922973.575000000186265 ], [ 43615.349999999998545, 5922973.5 ], [ 43615.42500000000291, 5922973.5 ], [ 43615.42500000000291, 5922973.424999999813735 ], [ 43615.5, 5922973.424999999813735 ], [ 43615.5, 5922973.349999999627471 ], [ 43615.57499999999709, 5922973.349999999627471 ], [ 43615.57499999999709, 5922973.275000000372529 ], [ 43615.650000000001455, 5922973.275000000372529 ], [ 43615.650000000001455, 5922973.200000000186265 ], [ 43615.724999999998545, 5922973.200000000186265 ], [ 43615.724999999998545, 5922973.125 ], [ 43615.80000000000291, 5922973.125 ], [ 43615.80000000000291, 5922973.049999999813735 ], [ 43615.875, 5922973.049999999813735 ], [ 43615.875, 5922972.974999999627471 ], [ 43615.94999999999709, 5922972.974999999627471 ], [ 43615.94999999999709, 5922972.900000000372529 ], [ 43616.025000000001455, 5922972.900000000372529 ], [ 43616.025000000001455, 5922972.825000000186265 ], [ 43616.099999999998545, 5922972.825000000186265 ], [ 43616.099999999998545, 5922972.674999999813735 ], [ 43616.17500000000291, 5922972.674999999813735 ], [ 43616.17500000000291, 5922972.599999999627471 ], [ 43616.25, 5922972.599999999627471 ], [ 43616.25, 5922972.525000000372529 ], [ 43616.32499999999709, 5922972.525000000372529 ], [ 43616.32499999999709, 5922972.450000000186265 ], [ 43616.400000000001455, 5922972.450000000186265 ], [ 43616.400000000001455, 5922972.375 ], [ 43616.474999999998545, 5922972.375 ], [ 43616.474999999998545, 5922972.299999999813735 ], [ 43616.55000000000291, 5922972.299999999813735 ], [ 43616.55000000000291, 5922972.224999999627471 ], [ 43616.625, 5922972.224999999627471 ], [ 43616.625, 5922972.150000000372529 ], [ 43616.69999999999709, 5922972.150000000372529 ], [ 43616.69999999999709, 5922972.075000000186265 ], [ 43616.849999999998545, 5922972.075000000186265 ], [ 43616.849999999998545, 5922972.0 ], [ 43616.92500000000291, 5922972.0 ], [ 43616.92500000000291, 5922971.924999999813735 ], [ 43617.07499999999709, 5922971.924999999813735 ], [ 43617.07499999999709, 5922971.849999999627471 ], [ 43617.150000000001455, 5922971.849999999627471 ], [ 43617.150000000001455, 5922971.775000000372529 ], [ 43617.30000000000291, 5922971.775000000372529 ], [ 43617.30000000000291, 5922971.700000000186265 ], [ 43617.44999999999709, 5922971.700000000186265 ], [ 43617.44999999999709, 5922971.625 ], [ 43617.599999999998545, 5922971.625 ], [ 43617.599999999998545, 5922971.549999999813735 ], [ 43617.75, 5922971.549999999813735 ], [ 43617.75, 5922971.474999999627471 ], [ 43617.900000000001455, 5922971.474999999627471 ], [ 43617.900000000001455, 5922971.400000000372529 ], [ 43617.974999999998545, 5922971.400000000372529 ], [ 43617.974999999998545, 5922971.325000000186265 ], [ 43618.125, 5922971.325000000186265 ], [ 43618.125, 5922971.25 ], [ 43618.19999999999709, 5922971.25 ], [ 43618.19999999999709, 5922971.174999999813735 ], [ 43618.275000000001455, 5922971.174999999813735 ], [ 43618.275000000001455, 5922971.099999999627471 ], [ 43618.349999999998545, 5922971.099999999627471 ], [ 43618.349999999998545, 5922971.025000000372529 ], [ 43618.42500000000291, 5922971.025000000372529 ], [ 43618.42500000000291, 5922970.950000000186265 ], [ 43618.5, 5922970.950000000186265 ], [ 43618.5, 5922970.875 ], [ 43618.57499999999709, 5922970.875 ], [ 43618.57499999999709, 5922970.799999999813735 ], [ 43618.650000000001455, 5922970.799999999813735 ], [ 43618.650000000001455, 5922970.650000000372529 ], [ 43618.724999999998545, 5922970.650000000372529 ], [ 43618.724999999998545, 5922970.575000000186265 ], [ 43618.80000000000291, 5922970.575000000186265 ], [ 43618.80000000000291, 5922970.5 ], [ 43618.875, 5922970.5 ], [ 43618.875, 5922970.424999999813735 ], [ 43618.94999999999709, 5922970.424999999813735 ], [ 43618.94999999999709, 5922970.349999999627471 ], [ 43619.025000000001455, 5922970.349999999627471 ], [ 43619.025000000001455, 5922970.275000000372529 ], [ 43619.099999999998545, 5922970.275000000372529 ], [ 43619.099999999998545, 5922970.200000000186265 ], [ 43619.17500000000291, 5922970.200000000186265 ], [ 43619.17500000000291, 5922970.125 ], [ 43619.25, 5922970.125 ], [ 43619.25, 5922970.049999999813735 ], [ 43619.400000000001455, 5922970.049999999813735 ], [ 43619.400000000001455, 5922969.974999999627471 ], [ 43619.474999999998545, 5922969.974999999627471 ], [ 43619.474999999998545, 5922969.900000000372529 ], [ 43619.69999999999709, 5922969.900000000372529 ], [ 43619.69999999999709, 5922969.825000000186265 ], [ 43620.0, 5922969.825000000186265 ], [ 43620.0, 5922969.75 ], [ 43620.30000000000291, 5922969.75 ], [ 43620.30000000000291, 5922969.674999999813735 ], [ 43620.525000000001455, 5922969.674999999813735 ], [ 43620.525000000001455, 5922969.599999999627471 ], [ 43620.82499999999709, 5922969.599999999627471 ], [ 43620.82499999999709, 5922969.525000000372529 ], [ 43621.125, 5922969.525000000372529 ], [ 43621.125, 5922969.450000000186265 ], [ 43621.349999999998545, 5922969.450000000186265 ], [ 43621.349999999998545, 5922969.375 ], [ 43621.57499999999709, 5922969.375 ], [ 43621.57499999999709, 5922969.299999999813735 ], [ 43621.650000000001455, 5922969.299999999813735 ], [ 43621.650000000001455, 5922969.224999999627471 ], [ 43621.80000000000291, 5922969.224999999627471 ], [ 43621.80000000000291, 5922969.150000000372529 ], [ 43621.875, 5922969.150000000372529 ], [ 43621.875, 5922969.075000000186265 ], [ 43621.94999999999709, 5922969.075000000186265 ], [ 43621.94999999999709, 5922969.0 ], [ 43622.025000000001455, 5922969.0 ], [ 43622.025000000001455, 5922968.924999999813735 ], [ 43622.099999999998545, 5922968.924999999813735 ], [ 43622.099999999998545, 5922968.849999999627471 ], [ 43622.17500000000291, 5922968.849999999627471 ], [ 43622.17500000000291, 5922968.775000000372529 ], [ 43622.25, 5922968.775000000372529 ], [ 43622.25, 5922968.700000000186265 ], [ 43622.32499999999709, 5922968.700000000186265 ], [ 43622.32499999999709, 5922968.549999999813735 ], [ 43622.400000000001455, 5922968.549999999813735 ], [ 43622.400000000001455, 5922968.474999999627471 ], [ 43622.474999999998545, 5922968.474999999627471 ], [ 43622.474999999998545, 5922968.400000000372529 ], [ 43622.55000000000291, 5922968.400000000372529 ], [ 43622.55000000000291, 5922968.325000000186265 ], [ 43622.625, 5922968.325000000186265 ], [ 43622.625, 5922968.25 ], [ 43622.69999999999709, 5922968.25 ], [ 43622.69999999999709, 5922968.174999999813735 ], [ 43622.775000000001455, 5922968.174999999813735 ], [ 43622.775000000001455, 5922968.099999999627471 ], [ 43622.92500000000291, 5922968.099999999627471 ], [ 43622.92500000000291, 5922968.025000000372529 ], [ 43623.0, 5922968.025000000372529 ], [ 43623.0, 5922967.950000000186265 ], [ 43623.150000000001455, 5922967.950000000186265 ], [ 43623.150000000001455, 5922967.875 ], [ 43623.224999999998545, 5922967.875 ], [ 43623.224999999998545, 5922967.799999999813735 ], [ 43623.375, 5922967.799999999813735 ], [ 43623.375, 5922967.724999999627471 ], [ 43624.5, 5922967.724999999627471 ], [ 43624.5, 5922967.650000000372529 ], [ 43625.474999999998545, 5922967.650000000372529 ], [ 43625.474999999998545, 5922967.724999999627471 ], [ 43625.625, 5922967.724999999627471 ], [ 43625.625, 5922967.799999999813735 ], [ 43625.775000000001455, 5922967.799999999813735 ], [ 43625.775000000001455, 5922967.875 ], [ 43625.92500000000291, 5922967.875 ], [ 43625.92500000000291, 5922967.950000000186265 ], [ 43626.07499999999709, 5922967.950000000186265 ], [ 43626.07499999999709, 5922968.025000000372529 ], [ 43626.150000000001455, 5922968.025000000372529 ], [ 43626.150000000001455, 5922968.099999999627471 ], [ 43626.224999999998545, 5922968.099999999627471 ], [ 43626.224999999998545, 5922968.174999999813735 ], [ 43626.30000000000291, 5922968.174999999813735 ], [ 43626.30000000000291, 5922968.25 ], [ 43626.375, 5922968.25 ], [ 43626.375, 5922968.325000000186265 ], [ 43626.44999999999709, 5922968.325000000186265 ], [ 43626.44999999999709, 5922968.400000000372529 ], [ 43626.525000000001455, 5922968.400000000372529 ], [ 43626.525000000001455, 5922968.474999999627471 ], [ 43626.599999999998545, 5922968.474999999627471 ], [ 43626.599999999998545, 5922968.549999999813735 ], [ 43626.67500000000291, 5922968.549999999813735 ], [ 43626.67500000000291, 5922968.700000000186265 ], [ 43626.75, 5922968.700000000186265 ], [ 43626.75, 5922968.775000000372529 ], [ 43626.82499999999709, 5922968.775000000372529 ], [ 43626.82499999999709, 5922968.849999999627471 ], [ 43626.900000000001455, 5922968.849999999627471 ], [ 43626.900000000001455, 5922968.924999999813735 ], [ 43626.974999999998545, 5922968.924999999813735 ], [ 43626.974999999998545, 5922969.0 ], [ 43627.05000000000291, 5922969.0 ], [ 43627.05000000000291, 5922969.075000000186265 ], [ 43627.125, 5922969.075000000186265 ], [ 43627.125, 5922969.150000000372529 ], [ 43627.275000000001455, 5922969.150000000372529 ], [ 43627.275000000001455, 5922969.224999999627471 ], [ 43627.349999999998545, 5922969.224999999627471 ], [ 43627.349999999998545, 5922969.299999999813735 ], [ 43627.5, 5922969.299999999813735 ], [ 43627.5, 5922969.375 ], [ 43627.650000000001455, 5922969.375 ], [ 43627.650000000001455, 5922969.450000000186265 ], [ 43627.80000000000291, 5922969.450000000186265 ], [ 43627.80000000000291, 5922969.525000000372529 ], [ 43627.875, 5922969.525000000372529 ], [ 43627.875, 5922969.599999999627471 ], [ 43628.025000000001455, 5922969.599999999627471 ], [ 43628.025000000001455, 5922969.674999999813735 ], [ 43628.099999999998545, 5922969.674999999813735 ], [ 43628.099999999998545, 5922969.75 ], [ 43628.17500000000291, 5922969.75 ], [ 43628.17500000000291, 5922969.825000000186265 ], [ 43628.25, 5922969.825000000186265 ], [ 43628.25, 5922969.900000000372529 ], [ 43628.32499999999709, 5922969.900000000372529 ], [ 43628.32499999999709, 5922969.974999999627471 ], [ 43628.400000000001455, 5922969.974999999627471 ], [ 43628.400000000001455, 5922970.125 ], [ 43628.474999999998545, 5922970.125 ], [ 43628.474999999998545, 5922970.200000000186265 ], [ 43628.55000000000291, 5922970.200000000186265 ], [ 43628.55000000000291, 5922970.349999999627471 ], [ 43628.625, 5922970.349999999627471 ], [ 43628.625, 5922970.424999999813735 ], [ 43628.69999999999709, 5922970.424999999813735 ], [ 43628.69999999999709, 5922970.575000000186265 ], [ 43628.775000000001455, 5922970.575000000186265 ], [ 43628.775000000001455, 5922970.724999999627471 ], [ 43628.849999999998545, 5922970.724999999627471 ], [ 43628.849999999998545, 5922970.799999999813735 ], [ 43628.92500000000291, 5922970.799999999813735 ], [ 43628.92500000000291, 5922970.875 ], [ 43629.0, 5922970.875 ], [ 43629.0, 5922970.950000000186265 ], [ 43629.07499999999709, 5922970.950000000186265 ], [ 43629.07499999999709, 5922971.025000000372529 ], [ 43629.150000000001455, 5922971.025000000372529 ], [ 43629.150000000001455, 5922971.099999999627471 ], [ 43629.224999999998545, 5922971.099999999627471 ], [ 43629.224999999998545, 5922971.174999999813735 ], [ 43629.30000000000291, 5922971.174999999813735 ], [ 43629.30000000000291, 5922971.25 ], [ 43629.44999999999709, 5922971.25 ], [ 43629.44999999999709, 5922971.325000000186265 ], [ 43629.525000000001455, 5922971.325000000186265 ], [ 43629.525000000001455, 5922971.400000000372529 ], [ 43629.67500000000291, 5922971.400000000372529 ], [ 43629.67500000000291, 5922971.474999999627471 ], [ 43629.75, 5922971.474999999627471 ], [ 43629.75, 5922971.549999999813735 ], [ 43629.82499999999709, 5922971.549999999813735 ], [ 43629.82499999999709, 5922971.625 ], [ 43629.900000000001455, 5922971.625 ], [ 43629.900000000001455, 5922971.700000000186265 ], [ 43629.974999999998545, 5922971.700000000186265 ], [ 43629.974999999998545, 5922971.849999999627471 ], [ 43630.05000000000291, 5922971.849999999627471 ], [ 43630.05000000000291, 5922971.924999999813735 ], [ 43630.125, 5922971.924999999813735 ], [ 43630.125, 5922972.075000000186265 ], [ 43630.19999999999709, 5922972.075000000186265 ], [ 43630.19999999999709, 5922972.150000000372529 ], [ 43630.275000000001455, 5922972.150000000372529 ], [ 43630.275000000001455, 5922972.299999999813735 ], [ 43630.349999999998545, 5922972.299999999813735 ], [ 43630.349999999998545, 5922972.525000000372529 ], [ 43630.42500000000291, 5922972.525000000372529 ], [ 43630.42500000000291, 5922972.974999999627471 ], [ 43630.5, 5922972.974999999627471 ], [ 43630.5, 5922973.424999999813735 ], [ 43630.57499999999709, 5922973.424999999813735 ], [ 43630.57499999999709, 5922973.875 ], [ 43630.650000000001455, 5922973.875 ], [ 43630.650000000001455, 5922974.325000000186265 ], [ 43630.724999999998545, 5922974.325000000186265 ], [ 43630.724999999998545, 5922974.625 ], [ 43630.80000000000291, 5922974.625 ], [ 43630.80000000000291, 5922974.924999999813735 ], [ 43630.875, 5922974.924999999813735 ], [ 43630.875, 5922975.150000000372529 ], [ 43630.94999999999709, 5922975.150000000372529 ], [ 43630.94999999999709, 5922975.375 ], [ 43631.025000000001455, 5922975.375 ], [ 43631.025000000001455, 5922975.525000000372529 ], [ 43631.099999999998545, 5922975.525000000372529 ], [ 43631.099999999998545, 5922975.674999999813735 ], [ 43631.17500000000291, 5922975.674999999813735 ], [ 43631.17500000000291, 5922975.900000000372529 ], [ 43631.25, 5922975.900000000372529 ], [ 43631.25, 5922976.049999999813735 ], [ 43631.32499999999709, 5922976.049999999813735 ], [ 43631.32499999999709, 5922976.200000000186265 ], [ 43631.400000000001455, 5922976.200000000186265 ], [ 43631.400000000001455, 5922976.349999999627471 ], [ 43631.474999999998545, 5922976.349999999627471 ], [ 43631.474999999998545, 5922976.575000000186265 ], [ 43631.55000000000291, 5922976.575000000186265 ], [ 43631.55000000000291, 5922976.950000000186265 ], [ 43631.625, 5922976.950000000186265 ], [ 43631.625, 5922977.400000000372529 ], [ 43631.69999999999709, 5922977.400000000372529 ], [ 43631.69999999999709, 5922977.849999999627471 ], [ 43631.775000000001455, 5922977.849999999627471 ], [ 43631.775000000001455, 5922978.375 ], [ 43631.849999999998545, 5922978.375 ], [ 43631.849999999998545, 5922979.950000000186265 ], [ 43631.92500000000291, 5922979.950000000186265 ], [ 43631.92500000000291, 5922980.474999999627471 ], [ 43631.849999999998545, 5922980.474999999627471 ], [ 43631.849999999998545, 5922980.849999999627471 ], [ 43631.775000000001455, 5922980.849999999627471 ], [ 43631.775000000001455, 5922981.150000000372529 ], [ 43631.69999999999709, 5922981.150000000372529 ], [ 43631.69999999999709, 5922981.525000000372529 ], [ 43631.625, 5922981.525000000372529 ], [ 43631.625, 5922981.825000000186265 ], [ 43631.55000000000291, 5922981.825000000186265 ], [ 43631.55000000000291, 5922982.125 ], [ 43631.474999999998545, 5922982.125 ], [ 43631.474999999998545, 5922982.349999999627471 ], [ 43631.400000000001455, 5922982.349999999627471 ], [ 43631.400000000001455, 5922982.424999999813735 ], [ 43631.32499999999709, 5922982.424999999813735 ], [ 43631.32499999999709, 5922982.5 ], [ 43631.25, 5922982.5 ], [ 43631.25, 5922982.575000000186265 ], [ 43631.17500000000291, 5922982.575000000186265 ], [ 43631.17500000000291, 5922982.650000000372529 ], [ 43631.099999999998545, 5922982.650000000372529 ], [ 43631.099999999998545, 5922982.724999999627471 ], [ 43631.025000000001455, 5922982.724999999627471 ], [ 43631.025000000001455, 5922982.799999999813735 ], [ 43630.94999999999709, 5922982.799999999813735 ], [ 43630.94999999999709, 5922982.875 ], [ 43630.875, 5922982.875 ], [ 43630.875, 5922982.950000000186265 ], [ 43630.80000000000291, 5922982.950000000186265 ], [ 43630.80000000000291, 5922983.025000000372529 ], [ 43630.724999999998545, 5922983.025000000372529 ], [ 43630.724999999998545, 5922983.099999999627471 ], [ 43630.650000000001455, 5922983.099999999627471 ], [ 43630.650000000001455, 5922983.174999999813735 ], [ 43630.57499999999709, 5922983.174999999813735 ], [ 43630.57499999999709, 5922983.25 ], [ 43630.5, 5922983.25 ], [ 43630.5, 5922983.400000000372529 ], [ 43630.42500000000291, 5922983.400000000372529 ], [ 43630.42500000000291, 5922983.474999999627471 ], [ 43630.349999999998545, 5922983.474999999627471 ], [ 43630.349999999998545, 5922983.549999999813735 ], [ 43630.275000000001455, 5922983.549999999813735 ], [ 43630.275000000001455, 5922983.700000000186265 ], [ 43630.19999999999709, 5922983.700000000186265 ], [ 43630.19999999999709, 5922983.849999999627471 ], [ 43630.125, 5922983.849999999627471 ], [ 43630.125, 5922984.0 ], [ 43630.05000000000291, 5922984.0 ], [ 43630.05000000000291, 5922984.150000000372529 ], [ 43629.974999999998545, 5922984.150000000372529 ], [ 43629.974999999998545, 5922984.299999999813735 ], [ 43629.900000000001455, 5922984.299999999813735 ], [ 43629.900000000001455, 5922984.375 ], [ 43629.82499999999709, 5922984.375 ], [ 43629.82499999999709, 5922984.450000000186265 ], [ 43629.75, 5922984.450000000186265 ], [ 43629.75, 5922984.599999999627471 ], [ 43629.67500000000291, 5922984.599999999627471 ], [ 43629.67500000000291, 5922984.674999999813735 ], [ 43629.599999999998545, 5922984.674999999813735 ], [ 43629.599999999998545, 5922984.75 ], [ 43629.525000000001455, 5922984.75 ], [ 43629.525000000001455, 5922984.825000000186265 ], [ 43629.44999999999709, 5922984.825000000186265 ], [ 43629.44999999999709, 5922984.900000000372529 ], [ 43629.30000000000291, 5922984.900000000372529 ], [ 43629.30000000000291, 5922984.974999999627471 ], [ 43629.224999999998545, 5922984.974999999627471 ], [ 43629.224999999998545, 5922985.049999999813735 ], [ 43629.07499999999709, 5922985.049999999813735 ], [ 43629.07499999999709, 5922985.125 ], [ 43629.0, 5922985.125 ], [ 43629.0, 5922985.200000000186265 ], [ 43628.92500000000291, 5922985.200000000186265 ], [ 43628.92500000000291, 5922985.275000000372529 ], [ 43628.775000000001455, 5922985.275000000372529 ], [ 43628.775000000001455, 5922985.349999999627471 ], [ 43628.69999999999709, 5922985.349999999627471 ], [ 43628.69999999999709, 5922985.424999999813735 ], [ 43628.625, 5922985.424999999813735 ], [ 43628.625, 5922985.5 ], [ 43628.55000000000291, 5922985.5 ], [ 43628.55000000000291, 5922985.575000000186265 ], [ 43628.474999999998545, 5922985.575000000186265 ], [ 43628.474999999998545, 5922985.650000000372529 ], [ 43628.400000000001455, 5922985.650000000372529 ], [ 43628.400000000001455, 5922985.724999999627471 ], [ 43628.32499999999709, 5922985.724999999627471 ], [ 43628.32499999999709, 5922985.875 ], [ 43628.25, 5922985.875 ], [ 43628.25, 5922985.950000000186265 ], [ 43628.17500000000291, 5922985.950000000186265 ], [ 43628.17500000000291, 5922986.099999999627471 ], [ 43628.099999999998545, 5922986.099999999627471 ], [ 43628.099999999998545, 5922986.174999999813735 ], [ 43628.025000000001455, 5922986.174999999813735 ], [ 43628.025000000001455, 5922986.325000000186265 ], [ 43627.94999999999709, 5922986.325000000186265 ], [ 43627.94999999999709, 5922986.400000000372529 ], [ 43627.875, 5922986.400000000372529 ], [ 43627.875, 5922986.474999999627471 ], [ 43627.80000000000291, 5922986.474999999627471 ], [ 43627.80000000000291, 5922986.549999999813735 ], [ 43627.724999999998545, 5922986.549999999813735 ], [ 43627.724999999998545, 5922986.625 ], [ 43627.650000000001455, 5922986.625 ], [ 43627.650000000001455, 5922986.700000000186265 ], [ 43627.57499999999709, 5922986.700000000186265 ], [ 43627.57499999999709, 5922986.775000000372529 ], [ 43627.5, 5922986.775000000372529 ], [ 43627.5, 5922986.849999999627471 ], [ 43627.349999999998545, 5922986.849999999627471 ], [ 43627.349999999998545, 5922986.924999999813735 ], [ 43627.19999999999709, 5922986.924999999813735 ], [ 43627.19999999999709, 5922987.0 ], [ 43627.05000000000291, 5922987.0 ], [ 43627.05000000000291, 5922987.075000000186265 ], [ 43626.900000000001455, 5922987.075000000186265 ], [ 43626.900000000001455, 5922987.150000000372529 ], [ 43626.82499999999709, 5922987.150000000372529 ], [ 43626.82499999999709, 5922987.224999999627471 ], [ 43626.67500000000291, 5922987.224999999627471 ], [ 43626.67500000000291, 5922987.299999999813735 ], [ 43626.599999999998545, 5922987.299999999813735 ], [ 43626.599999999998545, 5922987.375 ], [ 43626.44999999999709, 5922987.375 ], [ 43626.44999999999709, 5922987.450000000186265 ], [ 43626.375, 5922987.450000000186265 ], [ 43626.375, 5922987.525000000372529 ], [ 43626.30000000000291, 5922987.525000000372529 ], [ 43626.30000000000291, 5922987.599999999627471 ], [ 43626.224999999998545, 5922987.599999999627471 ], [ 43626.224999999998545, 5922987.674999999813735 ], [ 43626.150000000001455, 5922987.674999999813735 ], [ 43626.150000000001455, 5922987.75 ], [ 43626.07499999999709, 5922987.75 ], [ 43626.07499999999709, 5922987.825000000186265 ], [ 43626.0, 5922987.825000000186265 ], [ 43626.0, 5922987.900000000372529 ], [ 43625.92500000000291, 5922987.900000000372529 ], [ 43625.92500000000291, 5922987.974999999627471 ], [ 43625.849999999998545, 5922987.974999999627471 ], [ 43625.849999999998545, 5922988.049999999813735 ], [ 43625.775000000001455, 5922988.049999999813735 ], [ 43625.775000000001455, 5922988.200000000186265 ], [ 43625.69999999999709, 5922988.200000000186265 ], [ 43625.69999999999709, 5922988.275000000372529 ], [ 43625.625, 5922988.275000000372529 ], [ 43625.625, 5922988.349999999627471 ], [ 43625.55000000000291, 5922988.349999999627471 ], [ 43625.55000000000291, 5922988.424999999813735 ], [ 43625.474999999998545, 5922988.424999999813735 ], [ 43625.474999999998545, 5922988.5 ], [ 43625.32499999999709, 5922988.5 ], [ 43625.32499999999709, 5922988.575000000186265 ], [ 43625.025000000001455, 5922988.575000000186265 ], [ 43625.025000000001455, 5922988.650000000372529 ], [ 43624.650000000001455, 5922988.650000000372529 ], [ 43624.650000000001455, 5922988.724999999627471 ], [ 43624.349999999998545, 5922988.724999999627471 ], [ 43624.349999999998545, 5922988.799999999813735 ], [ 43623.974999999998545, 5922988.799999999813735 ], [ 43623.974999999998545, 5922988.875 ], [ 43623.599999999998545, 5922988.875 ], [ 43623.599999999998545, 5922988.950000000186265 ], [ 43623.150000000001455, 5922988.950000000186265 ], [ 43623.150000000001455, 5922989.025000000372529 ], [ 43622.775000000001455, 5922989.025000000372529 ], [ 43622.775000000001455, 5922989.099999999627471 ], [ 43622.32499999999709, 5922989.099999999627471 ], [ 43622.32499999999709, 5922989.174999999813735 ], [ 43621.94999999999709, 5922989.174999999813735 ], [ 43621.94999999999709, 5922989.25 ], [ 43621.57499999999709, 5922989.25 ], [ 43621.57499999999709, 5922989.325000000186265 ], [ 43621.275000000001455, 5922989.325000000186265 ], [ 43621.275000000001455, 5922989.400000000372529 ], [ 43621.05000000000291, 5922989.400000000372529 ], [ 43621.05000000000291, 5922989.474999999627471 ], [ 43620.82499999999709, 5922989.474999999627471 ], [ 43620.82499999999709, 5922989.549999999813735 ], [ 43620.67500000000291, 5922989.549999999813735 ], [ 43620.67500000000291, 5922989.625 ], [ 43620.44999999999709, 5922989.625 ], [ 43620.44999999999709, 5922989.700000000186265 ], [ 43620.30000000000291, 5922989.700000000186265 ], [ 43620.30000000000291, 5922989.775000000372529 ], [ 43620.150000000001455, 5922989.775000000372529 ], [ 43620.150000000001455, 5922989.849999999627471 ], [ 43620.0, 5922989.849999999627471 ], [ 43620.0, 5922989.924999999813735 ], [ 43619.775000000001455, 5922989.924999999813735 ] ] ] } }
]
}
