{
"type": "FeatureCollection",
"name": "42933E595107N_buildings",
"crs": { "type": "name", "properties": { "name": "urn:ogc:def:crs:EPSG::3776" } },
"features": [
{ "type": "Feature", "properties": { "value": 1.0, "building_id": 0, "area": 42.030000000516985 }, "geometry": { "type": "Polygon", "coordinates": [ [ [ 43217.099999999998545, 5951476.275000000372529 ], [ 43217.099999999998545, 5951476.200000000186265 ], [ 43216.05000000000291, 5951476.200000000186265 ], [ 43216.05000000000291, 5951476.125 ], [ 43214.92500000000291, 5951476.125 ], [ 43214.92500000000291, 5951476.049999999813735 ], [ 43213.275000000001455, 5951476.049999999813735 ], [ 43213.275000000001455, 5951475.974999999627471 ], [ 43212.75, 5951475.974999999627471 ], [ 43212.75, 5951475.900000000372529 ], [ 43212.375, 5951475.900000000372529 ], [ 43212.375, 5951475.825000000186265 ], [ 43212.07499999999709, 5951475.825000000186265 ], [ 43212.07499999999709, 5951475.75 ], [ 43211.775000000001455, 5951475.75 ], [ 43211.775000000001455, 5951475.674999999813735 ], [ 43211.55000000000291, 5951475.674999999813735 ], [ 43211.55000000000291, 5951475.599999999627471 ], [ 43211.32499999999709, 5951475.599999999627471 ], [ 43211.32499999999709, 5951475.525000000372529 ], [ 43211.099999999998545, 5951475.525000000372529 ], [ 43211.099999999998545, 5951475.450000000186265 ], [ 43211.025000000001455, 5951475.450000000186265 ], [ 43211.025000000001455, 5951475.375 ], [ 43210.94999999999709, 5951475.375 ], [ 43210.94999999999709, 5951475.224999999627471 ], [ 43210.875, 5951475.224999999627471 ], [ 43210.875, 5951475.075000000186265 ], [ 43210.80000000000291, 5951475.075000000186265 ], [ 43210.80000000000291, 5951474.924999999813735 ], [ 43210.724999999998545, 5951474.924999999813735 ], [ 43210.724999999998545, 5951474.700000000186265 ], [ 43210.650000000001455, 5951474.700000000186265 ], [ 43210.650000000001455, 5951474.474999999627471 ], [ 43210.724999999998545, 5951474.474999999627471 ], [ 43210.724999999998545, 5951474.400000000372529 ], [ 43210.80000000000291, 5951474.400000000372529 ], [ 43210.80000000000291, 5951474.325000000186265 ], [ 43210.875, 5951474.325000000186265 ], [ 43210.875, 5951474.25 ], [ 43211.025000000001455, 5951474.25 ], [ 43211.025000000001455, 5951474.174999999813735 ], [ 43211.099999999998545, 5951474.174999999813735 ], [ 43211.099999999998545, 5951474.099999999627471 ], [ 43211.25, 5951474.099999999627471 ], [ 43211.25, 5951474.025000000372529 ], [ 43211.32499999999709, 5951474.025000000372529 ], [ 43211.32499999999709, 5951473.950000000186265 ], [ 43211.474999999998545, 5951473.950000000186265 ], [ 43211.474999999998545, 5951473.875 ], [ 43211.625, 5951473.875 ], [ 43211.625, 5951473.799999999813735 ], [ 43211.775000000001455, 5951473.799999999813735 ], [ 43211.775000000001455, 5951473.724999999627471 ], [ 43211.92500000000291, 5951473.724999999627471 ], [ 43211.92500000000291, 5951473.650000000372529 ], [ 43212.07499999999709, 5951473.650000000372529 ], [ 43212.07499999999709, 5951473.575000000186265 ], [ 43212.30000000000291, 5951473.575000000186265 ], [ 43212.30000000000291, 5951473.5 ], [ 43212.525000000001455, 5951473.5 ], [ 43212.525000000001455, 5951473.424999999813735 ], [ 43212.75, 5951473.424999999813735 ], [ 43212.75, 5951473.349999999627471 ], [ 43212.974999999998545, 5951473.349999999627471 ], [ 43212.974999999998545, 5951473.275000000372529 ], [ 43213.275000000001455, 5951473.275000000372529 ], [ 43213.275000000001455, 5951473.200000000186265 ], [ 43213.5, 5951473.200000000186265 ], [ 43213.5, 5951473.125 ], [ 43213.724999999998545, 5951473.125 ], [ 43213.724999999998545, 5951473.049999999813735 ], [ 43213.94999999999709, 5951473.049999999813735 ], [ 43213.94999999999709, 5951472.974999999627471 ], [ 43214.17500000000291, 5951472.974999999627471 ], [ 43214.17500000000291, 5951472.900000000372529 ], [ 43214.400000000001455, 5951472.900000000372529 ], [ 43214.400000000001455, 5951472.825000000186265 ], [ 43214.55000000000291, 5951472.825000000186265 ], [ 43214.55000000000291, 5951472.75 ], [ 43214.775000000001455, 5951472.75 ], [ 43214.775000000001455, 5951472.674999999813735 ], [ 43214.92500000000291, 5951472.674999999813735 ], [ 43214.92500000000291, 5951472.599999999627471 ], [ 43215.07499999999709, 5951472.599999999627471 ], [ 43215.07499999999709, 5951472.525000000372529 ], [ 43215.224999999998545, 5951472.525000000372529 ], [ 43215.224999999998545, 5951472.450000000186265 ], [ 43215.44999999999709, 5951472.450000000186265 ], [ 43215.44999999999709, 5951472.375 ], [ 43215.599999999998545, 5951472.375 ], [ 43215.599999999998545, 5951472.299999999813735 ], [ 43215.82499999999709, 5951472.299999999813735 ], [ 43215.82499999999709, 5951472.224999999627471 ], [ 43216.05000000000291, 5951472.224999999627471 ], [ 43216.05000000000291, 5951472.150000000372529 ], [ 43216.349999999998545, 5951472.150000000372529 ], [ 43216.349999999998545, 5951472.075000000186265 ], [ 43216.650000000001455, 5951472.075000000186265 ], [ 43216.650000000001455, 5951472.0 ], [ 43216.94999999999709, 5951472.0 ], [ 43216.94999999999709, 5951471.924999999813735 ], [ 43218.525000000001455, 5951471.924999999813735 ], [ 43218.525000000001455, 5951472.0 ], [ 43219.275000000001455, 5951472.0 ], [ 43219.275000000001455, 5951472.075000000186265 ], [ 43219.42500000000291, 5951472.075000000186265 ], [ 43219.42500000000291, 5951472.150000000372529 ], [ 43219.57499999999709, 5951472.150000000372529 ], [ 43219.57499999999709, 5951472.224999999627471 ], [ 43219.724999999998545, 5951472.224999999627471 ], [ 43219.724999999998545, 5951472.299999999813735 ], [ 43219.875, 5951472.299999999813735 ], [ 43219.875, 5951472.375 ], [ 43220.025000000001455, 5951472.375 ], [ 43220.025000000001455, 5951472.450000000186265 ], [ 43220.099999999998545, 5951472.450000000186265 ], [ 43220.099999999998545, 5951472.525000000372529 ], [ 43220.25, 5951472.525000000372529 ], [ 43220.25, 5951472.599999999627471 ], [ 43220.32499999999709, 5951472.599999999627471 ], [ 43220.32499999999709, 5951472.674999999813735 ], [ 43220.400000000001455, 5951472.674999999813735 ], [ 43220.400000000001455, 5951472.75 ], [ 43220.55000000000291, 5951472.75 ], [ 43220.55000000000291, 5951472.825000000186265 ], [ 43220.625, 5951472.825000000186265 ], [ 43220.625, 5951472.900000000372529 ], [ 43220.775000000001455, 5951472.900000000372529 ], [ 43220.775000000001455, 5951472.974999999627471 ], [ 43220.92500000000291, 5951472.974999999627471 ], [ 43220.92500000000291, 5951473.049999999813735 ], [ 43221.07499999999709, 5951473.049999999813735 ], [ 43221.07499999999709, 5951473.125 ], [ 43221.30000000000291, 5951473.125 ], [ 43221.30000000000291, 5951473.200000000186265 ], [ 43221.525000000001455, 5951473.200000000186265 ], [ 43221.525000000001455, 5951473.275000000372529 ], [ 43221.82499999999709, 5951473.275000000372529 ], [ 43221.82499999999709, 5951473.349999999627471 ], [ 43222.05000000000291, 5951473.349999999627471 ], [ 43222.05000000000291, 5951473.424999999813735 ], [ 43222.349999999998545, 5951473.424999999813735 ], [ 43222.349999999998545, 5951473.5 ], [ 43222.650000000001455, 5951473.5 ], [ 43222.650000000001455, 5951473.575000000186265 ], [ 43222.94999999999709, 5951473.575000000186265 ], [ 43222.94999999999709, 5951473.650000000372529 ], [ 43223.17500000000291, 5951473.650000000372529 ], [ 43223.17500000000291, 5951473.724999999627471 ], [ 43223.32499999999709, 5951473.724999999627471 ], [ 43223.32499999999709, 5951473.799999999813735 ], [ 43223.55000000000291, 5951473.799999999813735 ], [ 43223.55000000000291, 5951473.875 ], [ 43223.69999999999709, 5951473.875 ], [ 43223.69999999999709, 5951473.950000000186265 ], [ 43223.775000000001455, 5951473.950000000186265 ], [ 43223.775000000001455, 5951474.025000000372529 ], [ 43223.92500000000291, 5951474.025000000372529 ], [ 43223.92500000000291, 5951474.099999999627471 ], [ 43224.07499999999709, 5951474.099999999627471 ], [ 43224.07499999999709, 5951474.174999999813735 ], [ 43224.150000000001455, 5951474.174999999813735 ], [ 43224.150000000001455, 5951474.25 ], [ 43224.224999999998545, 5951474.25 ], [ 43224.224999999998545, 5951474.325000000186265 ], [ 43224.375, 5951474.325000000186265 ], [ 43224.375, 5951474.400000000372529 ], [ 43224.44999999999709, 5951474.400000000372529 ], [ 43224.44999999999709, 5951474.474999999627471 ], [ 43224.525000000001455, 5951474.474999999627471 ], [ 43224.525000000001455, 5951474.549999999813735 ], [ 43224.44999999999709, 5951474.549999999813735 ], [ 43224.44999999999709, 5951474.775000000372529 ], [ 43224.375, 5951474.775000000372529 ], [ 43224.375, 5951474.924999999813735 ], [ 43224.30000000000291, 5951474.924999999813735 ], [ 43224.30000000000291, 5951475.075000000186265 ], [ 43224.224999999998545, 5951475.075000000186265 ], [ 43224.224999999998545, 5951475.150000000372529 ], [ 43224.150000000001455, 5951475.150000000372529 ], [ 43224.150000000001455, 5951475.299999999813735 ], [ 43224.07499999999709, 5951475.299999999813735 ], [ 43224.07499999999709, 5951475.375 ], [ 43224.0, 5951475.375 ], [ 43224.0, 5951475.450000000186265 ], [ 43223.92500000000291, 5951475.450000000186265 ], [ 43223.92500000000291, 5951475.525000000372529 ], [ 43223.849999999998545, 5951475.525000000372529 ], [ 43223.849999999998545, 5951475.599999999627471 ], [ 43223.775000000001455, 5951475.599999999627471 ], [ 43223.775000000001455, 5951475.674999999813735 ], [ 43223.625, 5951475.674999999813735 ], [ 43223.625, 5951475.75 ], [ 43223.474999999998545, 5951475.75 ], [ 43223.474999999998545, 5951475.825000000186265 ], [ 43223.32499999999709, 5951475.825000000186265 ], [ 43223.32499999999709, 5951475.900000000372529 ], [ 43223.025000000001455, 5951475.900000000372529 ], [ 43223.025000000001455, 5951475.974999999627471 ], [ 43222.05000000000291, 5951475.974999999627471 ], [ 43222.05000000000291, 5951476.049999999813735 ], [ 43221.0, 5951476.049999999813735 ], [ 43221.0, 5951476.125 ], [ 43220.099999999998545, 5951476.125 ], [ 43220.099999999998545, 5951476.200000000186265 ], [ 43219.275000000001455, 5951476.200000000186265 ], [ 43219.275000000001455, 5951476.275000000372529 ], [ 43217.099999999998545, 5951476.275000000372529 ] ] ] } },
{ "type": "Feature", "properties": { "value": 1.0, "building_id": 1, "area": 248.39437499894439 }, "geometry": { "type": "Polygon", "coordinates": [ [ [ 42950.775000000001455, 5951272.424999999813735 ], [ 42950.775000000001455, 5951272.349999999627471 ], [ 42948.599999999998545, 5951272.349999999627471 ], [ 42948.599999999998545, 5951272.275000000372529 ], [ 42946.650000000001455, 5951272.275000000372529 ], [ 42946.650000000001455, 5951272.200000000186265 ], [ 42945.599999999998545, 5951272.200000000186265 ], [ 42945.599999999998545, 5951272.125 ], [ 42945.30000000000291, 5951272.125 ], [ 42945.30000000000291, 5951272.049999999813735 ], [ 42945.150000000001455, 5951272.049999999813735 ], [ 42945.150000000001455, 5951271.974999999627471 ], [ 42944.92500000000291, 5951271.974999999627471 ], [ 42944.92500000000291, 5951271.900000000372529 ], [ 42944.775000000001455, 5951271.900000000372529 ], [ 42944.775000000001455, 5951271.825000000186265 ], [ 42944.55000000000291, 5951271.825000000186265 ], [ 42944.55000000000291, 5951271.75 ], [ 42944.400000000001455, 5951271.75 ], [ 42944.400000000001455, 5951271.674999999813735 ], [ 42944.25, 5951271.674999999813735 ], [ 42944.25, 5951271.599999999627471 ], [ 42944.17500000000291, 5951271.599999999627471 ], [ 42944.17500000000291, 5951271.525000000372529 ], [ 42944.025000000001455, 5951271.525000000372529 ], [ 42944.025000000001455, 5951271.450000000186265 ], [ 42943.94999999999709, 5951271.450000000186265 ], [ 42943.94999999999709, 5951271.375 ], [ 42943.875, 5951271.375 ], [ 42943.875, 5951271.299999999813735 ], [ 42943.724999999998545, 5951271.299999999813735 ], [ 42943.724999999998545, 5951271.150000000372529 ], [ 42943.650000000001455, 5951271.150000000372529 ], [ 42943.650000000001455, 5951271.075000000186265 ], [ 42943.57499999999709, 5951271.075000000186265 ], [ 42943.57499999999709, 5951270.924999999813735 ], [ 42943.5, 5951270.924999999813735 ], [ 42943.5, 5951270.849999999627471 ], [ 42943.42500000000291, 5951270.849999999627471 ], [ 42943.42500000000291, 5951270.700000000186265 ], [ 42943.349999999998545, 5951270.700000000186265 ], [ 42943.349999999998545, 5951270.549999999813735 ], [ 42943.275000000001455, 5951270.549999999813735 ], [ 42943.275000000001455, 5951270.400000000372529 ], [ 42943.19999999999709, 5951270.400000000372529 ], [ 42943.19999999999709, 5951270.25 ], [ 42943.125, 5951270.25 ], [ 42943.125, 5951270.025000000372529 ], [ 42943.05000000000291, 5951270.025000000372529 ], [ 42943.05000000000291, 5951269.875 ], [ 42942.974999999998545, 5951269.875 ], [ 42942.974999999998545, 5951269.650000000372529 ], [ 42942.900000000001455, 5951269.650000000372529 ], [ 42942.900000000001455, 5951269.275000000372529 ], [ 42942.82499999999709, 5951269.275000000372529 ], [ 42942.82499999999709, 5951268.375 ], [ 42942.75, 5951268.375 ], [ 42942.75, 5951267.549999999813735 ], [ 42942.67500000000291, 5951267.549999999813735 ], [ 42942.67500000000291, 5951267.025000000372529 ], [ 42942.599999999998545, 5951267.025000000372529 ], [ 42942.599999999998545, 5951266.5 ], [ 42942.525000000001455, 5951266.5 ], [ 42942.525000000001455, 5951266.049999999813735 ], [ 42942.44999999999709, 5951266.049999999813735 ], [ 42942.44999999999709, 5951265.674999999813735 ], [ 42942.375, 5951265.674999999813735 ], [ 42942.375, 5951265.450000000186265 ], [ 42942.30000000000291, 5951265.450000000186265 ], [ 42942.30000000000291, 5951265.299999999813735 ], [ 42942.224999999998545, 5951265.299999999813735 ], [ 42942.224999999998545, 5951265.150000000372529 ], [ 42942.150000000001455, 5951265.150000000372529 ], [ 42942.150000000001455, 5951265.075000000186265 ], [ 42942.07499999999709, 5951265.075000000186265 ], [ 42942.07499999999709, 5951264.924999999813735 ], [ 42942.0, 5951264.924999999813735 ], [ 42942.0, 5951264.849999999627471 ], [ 42941.92500000000291, 5951264.849999999627471 ], [ 42941.92500000000291, 5951264.775000000372529 ], [ 42941.849999999998545, 5951264.775000000372529 ], [ 42941.849999999998545, 5951264.700000000186265 ], [ 42941.775000000001455, 5951264.700000000186265 ], [ 42941.775000000001455, 5951264.625 ], [ 42941.69999999999709, 5951264.625 ], [ 42941.69999999999709, 5951264.549999999813735 ], [ 42941.625, 5951264.549999999813735 ], [ 42941.625, 5951264.400000000372529 ], [ 42941.55000000000291, 5951264.400000000372529 ], [ 42941.55000000000291, 5951264.325000000186265 ], [ 42941.474999999998545, 5951264.325000000186265 ], [ 42941.474999999998545, 5951264.25 ], [ 42941.400000000001455, 5951264.25 ], [ 42941.400000000001455, 5951264.099999999627471 ], [ 42941.32499999999709, 5951264.099999999627471 ], [ 42941.32499999999709, 5951264.025000000372529 ], [ 42941.25, 5951264.025000000372529 ], [ 42941.25, 5951263.875 ], [ 42941.17500000000291, 5951263.875 ], [ 42941.17500000000291, 5951263.724999999627471 ], [ 42941.099999999998545, 5951263.724999999627471 ], [ 42941.099999999998545, 5951263.349999999627471 ], [ 42941.17500000000291, 5951263.349999999627471 ], [ 42941.17500000000291, 5951263.200000000186265 ], [ 42941.25, 5951263.200000000186265 ], [ 42941.25, 5951263.049999999813735 ], [ 42941.32499999999709, 5951263.049999999813735 ], [ 42941.32499999999709, 5951262.900000000372529 ], [ 42941.400000000001455, 5951262.900000000372529 ], [ 42941.400000000001455, 5951262.825000000186265 ], [ 42941.474999999998545, 5951262.825000000186265 ], [ 42941.474999999998545, 5951262.75 ], [ 42941.55000000000291, 5951262.75 ], [ 42941.55000000000291, 5951262.599999999627471 ], [ 42941.625, 5951262.599999999627471 ], [ 42941.625, 5951262.525000000372529 ], [ 42941.69999999999709, 5951262.525000000372529 ], [ 42941.69999999999709, 5951262.450000000186265 ], [ 42941.775000000001455, 5951262.450000000186265 ], [ 42941.775000000001455, 5951262.375 ], [ 42941.849999999998545, 5951262.375 ], [ 42941.849999999998545, 5951262.299999999813735 ], [ 42941.92500000000291, 5951262.299999999813735 ], [ 42941.92500000000291, 5951262.224999999627471 ], [ 42942.0, 5951262.224999999627471 ], [ 42942.0, 5951262.075000000186265 ], [ 42942.07499999999709, 5951262.075000000186265 ], [ 42942.07499999999709, 5951262.0 ], [ 42942.150000000001455, 5951262.0 ], [ 42942.150000000001455, 5951261.849999999627471 ], [ 42942.224999999998545, 5951261.849999999627471 ], [ 42942.224999999998545, 5951261.700000000186265 ], [ 42942.30000000000291, 5951261.700000000186265 ], [ 42942.30000000000291, 5951261.474999999627471 ], [ 42942.375, 5951261.474999999627471 ], [ 42942.375, 5951261.325000000186265 ], [ 42942.44999999999709, 5951261.325000000186265 ], [ 42942.44999999999709, 5951261.174999999813735 ], [ 42942.525000000001455, 5951261.174999999813735 ], [ 42942.525000000001455, 5951261.025000000372529 ], [ 42942.599999999998545, 5951261.025000000372529 ], [ 42942.599999999998545, 5951260.875 ], [ 42942.67500000000291, 5951260.875 ], [ 42942.67500000000291, 5951260.799999999813735 ], [ 42942.75, 5951260.799999999813735 ], [ 42942.75, 5951260.650000000372529 ], [ 42942.82499999999709, 5951260.650000000372529 ], [ 42942.82499999999709, 5951260.575000000186265 ], [ 42942.900000000001455, 5951260.575000000186265 ], [ 42942.900000000001455, 5951260.5 ], [ 42942.974999999998545, 5951260.5 ], [ 42942.974999999998545, 5951260.424999999813735 ], [ 42943.125, 5951260.424999999813735 ], [ 42943.125, 5951260.349999999627471 ], [ 42943.19999999999709, 5951260.349999999627471 ], [ 42943.19999999999709, 5951260.275000000372529 ], [ 42943.275000000001455, 5951260.275000000372529 ], [ 42943.275000000001455, 5951260.200000000186265 ], [ 42943.42500000000291, 5951260.200000000186265 ], [ 42943.42500000000291, 5951260.125 ], [ 42943.57499999999709, 5951260.125 ], [ 42943.57499999999709, 5951260.049999999813735 ], [ 42943.724999999998545, 5951260.049999999813735 ], [ 42943.724999999998545, 5951259.974999999627471 ], [ 42943.80000000000291, 5951259.974999999627471 ], [ 42943.80000000000291, 5951259.900000000372529 ], [ 42943.94999999999709, 5951259.900000000372529 ], [ 42943.94999999999709, 5951259.825000000186265 ], [ 42944.025000000001455, 5951259.825000000186265 ], [ 42944.025000000001455, 5951259.674999999813735 ], [ 42944.099999999998545, 5951259.674999999813735 ], [ 42944.099999999998545, 5951259.599999999627471 ], [ 42944.17500000000291, 5951259.599999999627471 ], [ 42944.17500000000291, 5951259.450000000186265 ], [ 42944.25, 5951259.450000000186265 ], [ 42944.25, 5951259.299999999813735 ], [ 42944.32499999999709, 5951259.299999999813735 ], [ 42944.32499999999709, 5951259.150000000372529 ], [ 42944.400000000001455, 5951259.150000000372529 ], [ 42944.400000000001455, 5951259.075000000186265 ], [ 42944.474999999998545, 5951259.075000000186265 ], [ 42944.474999999998545, 5951259.0 ], [ 42944.55000000000291, 5951259.0 ], [ 42944.55000000000291, 5951258.924999999813735 ], [ 42944.625, 5951258.924999999813735 ], [ 42944.625, 5951258.849999999627471 ], [ 42944.69999999999709, 5951258.849999999627471 ], [ 42944.69999999999709, 5951258.775000000372529 ], [ 42944.775000000001455, 5951258.775000000372529 ], [ 42944.775000000001455, 5951258.700000000186265 ], [ 42944.849999999998545, 5951258.700000000186265 ], [ 42944.849999999998545, 5951258.625 ], [ 42945.0, 5951258.625 ], [ 42945.0, 5951258.549999999813735 ], [ 42945.07499999999709, 5951258.549999999813735 ], [ 42945.07499999999709, 5951258.474999999627471 ], [ 42945.224999999998545, 5951258.474999999627471 ], [ 42945.224999999998545, 5951258.400000000372529 ], [ 42945.44999999999709, 5951258.400000000372529 ], [ 42945.44999999999709, 5951258.325000000186265 ], [ 42945.599999999998545, 5951258.325000000186265 ], [ 42945.599999999998545, 5951258.25 ], [ 42946.125, 5951258.25 ], [ 42946.125, 5951258.174999999813735 ], [ 42946.875, 5951258.174999999813735 ], [ 42946.875, 5951258.099999999627471 ], [ 42947.55000000000291, 5951258.099999999627471 ], [ 42947.55000000000291, 5951258.025000000372529 ], [ 42948.525000000001455, 5951258.025000000372529 ], [ 42948.525000000001455, 5951257.950000000186265 ], [ 42949.5, 5951257.950000000186265 ], [ 42949.5, 5951257.875 ], [ 42953.55000000000291, 5951257.875 ], [ 42953.55000000000291, 5951257.950000000186265 ], [ 42953.92500000000291, 5951257.950000000186265 ], [ 42953.92500000000291, 5951258.025000000372529 ], [ 42954.30000000000291, 5951258.025000000372529 ], [ 42954.30000000000291, 5951258.099999999627471 ], [ 42954.525000000001455, 5951258.099999999627471 ], [ 42954.525000000001455, 5951258.174999999813735 ], [ 42954.67500000000291, 5951258.174999999813735 ], [ 42954.67500000000291, 5951258.25 ], [ 42954.82499999999709, 5951258.25 ], [ 42954.82499999999709, 5951258.325000000186265 ], [ 42954.900000000001455, 5951258.325000000186265 ], [ 42954.900000000001455, 5951258.400000000372529 ], [ 42955.05000000000291, 5951258.400000000372529 ], [ 42955.05000000000291, 5951258.474999999627471 ], [ 42955.125, 5951258.474999999627471 ], [ 42955.125, 5951258.549999999813735 ], [ 42955.19999999999709, 5951258.549999999813735 ], [ 42955.19999999999709, 5951258.625 ], [ 42955.275000000001455, 5951258.625 ], [ 42955.275000000001455, 5951258.775000000372529 ], [ 42955.349999999998545, 5951258.775000000372529 ], [ 42955.349999999998545, 5951258.849999999627471 ], [ 42955.42500000000291, 5951258.849999999627471 ], [ 42955.42500000000291, 5951259.0 ], [ 42955.5, 5951259.0 ], [ 42955.5, 5951259.075000000186265 ], [ 42955.650000000001455, 5951259.075000000186265 ], [ 42955.650000000001455, 5951259.150000000372529 ], [ 42955.80000000000291, 5951259.150000000372529 ], [ 42955.80000000000291, 5951259.224999999627471 ], [ 42955.875, 5951259.224999999627471 ], [ 42955.875, 5951259.299999999813735 ], [ 42956.025000000001455, 5951259.299999999813735 ], [ 42956.025000000001455, 5951259.375 ], [ 42956.099999999998545, 5951259.375 ], [ 42956.099999999998545, 5951259.450000000186265 ], [ 42956.25, 5951259.450000000186265 ], [ 42956.25, 5951259.525000000372529 ], [ 42956.32499999999709, 5951259.525000000372529 ], [ 42956.32499999999709, 5951259.599999999627471 ], [ 42956.400000000001455, 5951259.599999999627471 ], [ 42956.400000000001455, 5951259.674999999813735 ], [ 42956.775000000001455, 5951259.674999999813735 ], [ 42956.775000000001455, 5951259.75 ], [ 42957.30000000000291, 5951259.75 ], [ 42957.30000000000291, 5951259.825000000186265 ], [ 42957.82499999999709, 5951259.825000000186265 ], [ 42957.82499999999709, 5951259.900000000372529 ], [ 42958.275000000001455, 5951259.900000000372529 ], [ 42958.275000000001455, 5951259.974999999627471 ], [ 42958.80000000000291, 5951259.974999999627471 ], [ 42958.80000000000291, 5951260.049999999813735 ], [ 42959.400000000001455, 5951260.049999999813735 ], [ 42959.400000000001455, 5951260.125 ], [ 42959.55000000000291, 5951260.125 ], [ 42959.55000000000291, 5951260.200000000186265 ], [ 42959.775000000001455, 5951260.200000000186265 ], [ 42959.775000000001455, 5951260.275000000372529 ], [ 42959.92500000000291, 5951260.275000000372529 ], [ 42959.92500000000291, 5951260.349999999627471 ], [ 42960.07499999999709, 5951260.349999999627471 ], [ 42960.07499999999709, 5951260.424999999813735 ], [ 42960.224999999998545, 5951260.424999999813735 ], [ 42960.224999999998545, 5951260.5 ], [ 42960.30000000000291, 5951260.5 ], [ 42960.30000000000291, 5951260.575000000186265 ], [ 42960.44999999999709, 5951260.575000000186265 ], [ 42960.44999999999709, 5951260.650000000372529 ], [ 42960.525000000001455, 5951260.650000000372529 ], [ 42960.525000000001455, 5951260.724999999627471 ], [ 42960.599999999998545, 5951260.724999999627471 ], [ 42960.599999999998545, 5951260.799999999813735 ], [ 42960.67500000000291, 5951260.799999999813735 ], [ 42960.67500000000291, 5951260.875 ], [ 42960.75, 5951260.875 ], [ 42960.75, 5951260.950000000186265 ], [ 42960.82499999999709, 5951260.950000000186265 ], [ 42960.82499999999709, 5951261.025000000372529 ], [ 42960.900000000001455, 5951261.025000000372529 ], [ 42960.900000000001455, 5951261.099999999627471 ], [ 42960.974999999998545, 5951261.099999999627471 ], [ 42960.974999999998545, 5951261.174999999813735 ], [ 42961.05000000000291, 5951261.174999999813735 ], [ 42961.05000000000291, 5951261.325000000186265 ], [ 42961.125, 5951261.325000000186265 ], [ 42961.125, 5951261.400000000372529 ], [ 42961.19999999999709, 5951261.400000000372529 ], [ 42961.19999999999709, 5951261.549999999813735 ], [ 42961.275000000001455, 5951261.549999999813735 ], [ 42961.275000000001455, 5951261.700000000186265 ], [ 42961.349999999998545, 5951261.700000000186265 ], [ 42961.349999999998545, 5951261.775000000372529 ], [ 42961.42500000000291, 5951261.775000000372529 ], [ 42961.42500000000291, 5951261.849999999627471 ], [ 42961.5, 5951261.849999999627471 ], [ 42961.5, 5951261.924999999813735 ], [ 42961.57499999999709, 5951261.924999999813735 ], [ 42961.57499999999709, 5951262.075000000186265 ], [ 42961.650000000001455, 5951262.075000000186265 ], [ 42961.650000000001455, 5951262.150000000372529 ], [ 42961.724999999998545, 5951262.150000000372529 ], [ 42961.724999999998545, 5951262.299999999813735 ], [ 42961.80000000000291, 5951262.299999999813735 ], [ 42961.80000000000291, 5951262.450000000186265 ], [ 42961.875, 5951262.450000000186265 ], [ 42961.875, 5951262.599999999627471 ], [ 42961.94999999999709, 5951262.599999999627471 ], [ 42961.94999999999709, 5951262.75 ], [ 42962.025000000001455, 5951262.75 ], [ 42962.025000000001455, 5951262.974999999627471 ], [ 42962.099999999998545, 5951262.974999999627471 ], [ 42962.099999999998545, 5951263.200000000186265 ], [ 42962.17500000000291, 5951263.200000000186265 ], [ 42962.17500000000291, 5951263.5 ], [ 42962.25, 5951263.5 ], [ 42962.25, 5951263.724999999627471 ], [ 42962.17500000000291, 5951263.724999999627471 ], [ 42962.17500000000291, 5951264.474999999627471 ], [ 42962.099999999998545, 5951264.474999999627471 ], [ 42962.099999999998545, 5951265.224999999627471 ], [ 42962.025000000001455, 5951265.224999999627471 ], [ 42962.025000000001455, 5951265.674999999813735 ], [ 42961.94999999999709, 5951265.674999999813735 ], [ 42961.94999999999709, 5951265.825000000186265 ], [ 42961.875, 5951265.825000000186265 ], [ 42961.875, 5951266.049999999813735 ], [ 42961.80000000000291, 5951266.049999999813735 ], [ 42961.80000000000291, 5951266.200000000186265 ], [ 42961.724999999998545, 5951266.200000000186265 ], [ 42961.724999999998545, 5951266.349999999627471 ], [ 42961.650000000001455, 5951266.349999999627471 ], [ 42961.650000000001455, 5951266.5 ], [ 42961.57499999999709, 5951266.5 ], [ 42961.57499999999709, 5951266.650000000372529 ], [ 42961.5, 5951266.650000000372529 ], [ 42961.5, 5951266.799999999813735 ], [ 42961.42500000000291, 5951266.799999999813735 ], [ 42961.42500000000291, 5951266.950000000186265 ], [ 42961.349999999998545, 5951266.950000000186265 ], [ 42961.349999999998545, 5951267.025000000372529 ], [ 42961.275000000001455, 5951267.025000000372529 ], [ 42961.275000000001455, 5951267.099999999627471 ], [ 42961.19999999999709, 5951267.099999999627471 ], [ 42961.19999999999709, 5951267.25 ], [ 42961.125, 5951267.25 ], [ 42961.125, 5951267.325000000186265 ], [ 42961.05000000000291, 5951267.325000000186265 ], [ 42961.05000000000291, 5951267.474999999627471 ], [ 42960.974999999998545, 5951267.474999999627471 ], [ 42960.974999999998545, 5951267.625 ], [ 42960.900000000001455, 5951267.625 ], [ 42960.900000000001455, 5951267.849999999627471 ], [ 42960.82499999999709, 5951267.849999999627471 ], [ 42960.82499999999709, 5951268.0 ], [ 42960.75, 5951268.0 ], [ 42960.75, 5951268.224999999627471 ], [ 42960.67500000000291, 5951268.224999999627471 ], [ 42960.67500000000291, 5951268.450000000186265 ], [ 42960.599999999998545, 5951268.450000000186265 ], [ 42960.599999999998545, 5951268.674999999813735 ], [ 42960.525000000001455, 5951268.674999999813735 ], [ 42960.525000000001455, 5951268.974999999627471 ], [ 42960.44999999999709, 5951268.974999999627471 ], [ 42960.44999999999709, 5951269.275000000372529 ], [ 42960.375, 5951269.275000000372529 ], [ 42960.375, 5951269.575000000186265 ], [ 42960.30000000000291, 5951269.575000000186265 ], [ 42960.30000000000291, 5951269.799999999813735 ], [ 42960.224999999998545, 5951269.799999999813735 ], [ 42960.224999999998545, 5951270.025000000372529 ], [ 42960.150000000001455, 5951270.025000000372529 ], [ 42960.150000000001455, 5951270.25 ], [ 42960.07499999999709, 5951270.25 ], [ 42960.07499999999709, 5951270.474999999627471 ], [ 42960.0, 5951270.474999999627471 ], [ 42960.0, 5951270.625 ], [ 42959.92500000000291, 5951270.625 ], [ 42959.92500000000291, 5951270.775000000372529 ], [ 42959.849999999998545, 5951270.775000000372529 ], [ 42959.849999999998545, 5951270.924999999813735 ], [ 42959.775000000001455, 5951270.924999999813735 ], [ 42959.775000000001455, 5951271.075000000186265 ], [ 42959.69999999999709, 5951271.075000000186265 ], [ 42959.69999999999709, 5951271.224999999627471 ], [ 42959.625, 5951271.224999999627471 ], [ 42959.625, 5951271.375 ], [ 42959.55000000000291, 5951271.375 ], [ 42959.55000000000291, 5951271.450000000186265 ], [ 42959.474999999998545, 5951271.450000000186265 ], [ 42959.474999999998545, 5951271.525000000372529 ], [ 42959.400000000001455, 5951271.525000000372529 ], [ 42959.400000000001455, 5951271.599999999627471 ], [ 42959.25, 5951271.599999999627471 ], [ 42959.25, 5951271.674999999813735 ], [ 42959.099999999998545, 5951271.674999999813735 ], [ 42959.099999999998545, 5951271.75 ], [ 42958.94999999999709, 5951271.75 ], [ 42958.94999999999709, 5951271.825000000186265 ], [ 42958.724999999998545, 5951271.825000000186265 ], [ 42958.724999999998545, 5951271.900000000372529 ], [ 42958.5, 5951271.900000000372529 ], [ 42958.5, 5951271.974999999627471 ], [ 42958.275000000001455, 5951271.974999999627471 ], [ 42958.275000000001455, 5951272.049999999813735 ], [ 42958.05000000000291, 5951272.049999999813735 ], [ 42958.05000000000291, 5951272.125 ], [ 42957.75, 5951272.125 ], [ 42957.75, 5951272.200000000186265 ], [ 42957.30000000000291, 5951272.200000000186265 ], [ 42957.30000000000291, 5951272.275000000372529 ], [ 42956.025000000001455, 5951272.275000000372529 ], [ 42956.025000000001455, 5951272.349999999627471 ], [ 42954.30000000000291, 5951272.349999999627471 ], [ 42954.30000000000291, 5951272.424999999813735 ], [ 42950.775000000001455, 5951272.424999999813735 ] ] ] } }
]
}
