{
"type": "FeatureCollection",
"name": "42933E595257N_buildings",
"crs": { "type": "name", "properties": { "name": "urn:ogc:def:crs:EPSG::3776" } },
"features": [
{ "type": "Feature", "properties": { "value": 1.0, "building_id": 0, "area": 145.05750000059751 }, "geometry": { "type": "Polygon", "coordinates": [ [ [ 43381.19999999999709, 5953323.150000000372529 ], [ 43381.19999999999709, 5953323.075000000186265 ], [ 43380.900000000001455, 5953323.075000000186265 ], [ 43380.900000000001455, 5953323.0 ], [ 43380.67500000000291, 5953323.0 ], [ 43380.67500000000291, 5953322.924999999813735 ], [ 43380.44999999999709, 5953322.924999999813735 ], [ 43380.44999999999709, 5953322.849999999627471 ], [ 43380.224999999998545, 5953322.849999999627471 ], [ 43380.224999999998545, 5953322.775000000372529 ], [ 43380.0, 5953322.775000000372529 ], [ 43380.0, 5953322.700000000186265 ], [ 43379.775000000001455, 5953322.700000000186265 ], [ 43379.775000000001455, 5953322.625 ], [ 43379.625, 5953322.625 ], [ 43379.625, 5953322.549999999813735 ], [ 43379.474999999998545, 5953322.549999999813735 ], [ 43379.474999999998545, 5953322.474999999627471 ], [ 43379.32499999999709, 5953322.474999999627471 ], [ 43379.32499999999709, 5953322.400000000372529 ], [ 43379.17500000000291, 5953322.400000000372529 ], [ 43379.17500000000291, 5953322.325000000186265 ], [ 43379.025000000001455, 5953322.325000000186265 ], [ 43379.025000000001455, 5953322.25 ], [ 43378.94999999999709, 5953322.25 ], [ 43378.94999999999709, 5953322.174999999813735 ], [ 43378.875, 5953322.174999999813735 ], [ 43378.875, 5953322.099999999627471 ], [ 43378.724999999998545, 5953322.099999999627471 ], [ 43378.724999999998545, 5953322.025000000372529 ], [ 43378.650000000001455, 5953322.025000000372529 ], [ 43378.650000000001455, 5953321.950000000186265 ], [ 43378.5, 5953321.950000000186265 ], [ 43378.5, 5953321.875 ], [ 43378.42500000000291, 5953321.875 ], [ 43378.42500000000291, 5953321.799999999813735 ], [ 43378.275000000001455, 5953321.799999999813735 ], [ 43378.275000000001455, 5953321.724999999627471 ], [ 43378.125, 5953321.724999999627471 ], [ 43378.125, 5953321.650000000372529 ], [ 43377.974999999998545, 5953321.650000000372529 ], [ 43377.974999999998545, 5953321.575000000186265 ], [ 43377.82499999999709, 5953321.575000000186265 ], [ 43377.82499999999709, 5953321.5 ], [ 43377.67500000000291, 5953321.5 ], [ 43377.67500000000291, 5953321.424999999813735 ], [ 43377.44999999999709, 5953321.424999999813735 ], [ 43377.44999999999709, 5953321.349999999627471 ], [ 43377.30000000000291, 5953321.349999999627471 ], [ 43377.30000000000291, 5953321.275000000372529 ], [ 43377.0, 5953321.275000000372529 ], [ 43377.0, 5953321.200000000186265 ], [ 43376.775000000001455, 5953321.200000000186265 ], [ 43376.775000000001455, 5953321.125 ], [ 43376.55000000000291, 5953321.125 ], [ 43376.55000000000291, 5953321.049999999813735 ], [ 43376.32499999999709, 5953321.049999999813735 ], [ 43376.32499999999709, 5953320.974999999627471 ], [ 43376.17500000000291, 5953320.974999999627471 ], [ 43376.17500000000291, 5953320.900000000372529 ], [ 43375.94999999999709, 5953320.900000000372529 ], [ 43375.94999999999709, 5953320.825000000186265 ], [ 43375.724999999998545, 5953320.825000000186265 ], [ 43375.724999999998545, 5953320.75 ], [ 43375.57499999999709, 5953320.75 ], [ 43375.57499999999709, 5953320.674999999813735 ], [ 43375.349999999998545, 5953320.674999999813735 ], [ 43375.349999999998545, 5953320.599999999627471 ], [ 43375.275000000001455, 5953320.599999999627471 ], [ 43375.275000000001455, 5953320.525000000372529 ], [ 43375.19999999999709, 5953320.525000000372529 ], [ 43375.19999999999709, 5953320.450000000186265 ], [ 43375.125, 5953320.450000000186265 ], [ 43375.125, 5953320.375 ], [ 43375.05000000000291, 5953320.375 ], [ 43375.05000000000291, 5953320.299999999813735 ], [ 43374.974999999998545, 5953320.299999999813735 ], [ 43374.974999999998545, 5953320.150000000372529 ], [ 43374.900000000001455, 5953320.150000000372529 ], [ 43374.900000000001455, 5953320.0 ], [ 43374.82499999999709, 5953320.0 ], [ 43374.82499999999709, 5953319.924999999813735 ], [ 43374.75, 5953319.924999999813735 ], [ 43374.75, 5953319.775000000372529 ], [ 43374.67500000000291, 5953319.775000000372529 ], [ 43374.67500000000291, 5953319.700000000186265 ], [ 43374.599999999998545, 5953319.700000000186265 ], [ 43374.599999999998545, 5953319.625 ], [ 43374.525000000001455, 5953319.625 ], [ 43374.525000000001455, 5953319.474999999627471 ], [ 43374.44999999999709, 5953319.474999999627471 ], [ 43374.44999999999709, 5953319.400000000372529 ], [ 43374.375, 5953319.400000000372529 ], [ 43374.375, 5953319.325000000186265 ], [ 43374.30000000000291, 5953319.325000000186265 ], [ 43374.30000000000291, 5953319.25 ], [ 43374.224999999998545, 5953319.25 ], [ 43374.224999999998545, 5953319.174999999813735 ], [ 43374.07499999999709, 5953319.174999999813735 ], [ 43374.07499999999709, 5953319.099999999627471 ], [ 43374.0, 5953319.099999999627471 ], [ 43374.0, 5953319.025000000372529 ], [ 43373.92500000000291, 5953319.025000000372529 ], [ 43373.92500000000291, 5953318.950000000186265 ], [ 43373.849999999998545, 5953318.950000000186265 ], [ 43373.849999999998545, 5953318.875 ], [ 43373.69999999999709, 5953318.875 ], [ 43373.69999999999709, 5953318.799999999813735 ], [ 43373.55000000000291, 5953318.799999999813735 ], [ 43373.55000000000291, 5953318.724999999627471 ], [ 43373.400000000001455, 5953318.724999999627471 ], [ 43373.400000000001455, 5953318.650000000372529 ], [ 43373.32499999999709, 5953318.650000000372529 ], [ 43373.32499999999709, 5953318.575000000186265 ], [ 43373.25, 5953318.575000000186265 ], [ 43373.25, 5953318.5 ], [ 43373.17500000000291, 5953318.5 ], [ 43373.17500000000291, 5953318.424999999813735 ], [ 43373.099999999998545, 5953318.424999999813735 ], [ 43373.099999999998545, 5953318.275000000372529 ], [ 43373.025000000001455, 5953318.275000000372529 ], [ 43373.025000000001455, 5953316.25 ], [ 43373.099999999998545, 5953316.25 ], [ 43373.099999999998545, 5953316.174999999813735 ], [ 43373.17500000000291, 5953316.174999999813735 ], [ 43373.17500000000291, 5953316.099999999627471 ], [ 43373.25, 5953316.099999999627471 ], [ 43373.25, 5953316.025000000372529 ], [ 43373.32499999999709, 5953316.025000000372529 ], [ 43373.32499999999709, 5953315.950000000186265 ], [ 43373.400000000001455, 5953315.950000000186265 ], [ 43373.400000000001455, 5953315.875 ], [ 43373.474999999998545, 5953315.875 ], [ 43373.474999999998545, 5953315.799999999813735 ], [ 43373.625, 5953315.799999999813735 ], [ 43373.625, 5953315.724999999627471 ], [ 43373.775000000001455, 5953315.724999999627471 ], [ 43373.775000000001455, 5953315.650000000372529 ], [ 43373.92500000000291, 5953315.650000000372529 ], [ 43373.92500000000291, 5953315.575000000186265 ], [ 43374.07499999999709, 5953315.575000000186265 ], [ 43374.07499999999709, 5953315.5 ], [ 43374.224999999998545, 5953315.5 ], [ 43374.224999999998545, 5953315.424999999813735 ], [ 43374.375, 5953315.424999999813735 ], [ 43374.375, 5953315.349999999627471 ], [ 43374.525000000001455, 5953315.349999999627471 ], [ 43374.525000000001455, 5953315.275000000372529 ], [ 43374.67500000000291, 5953315.275000000372529 ], [ 43374.67500000000291, 5953315.200000000186265 ], [ 43374.82499999999709, 5953315.200000000186265 ], [ 43374.82499999999709, 5953315.125 ], [ 43374.974999999998545, 5953315.125 ], [ 43374.974999999998545, 5953315.049999999813735 ], [ 43375.125, 5953315.049999999813735 ], [ 43375.125, 5953314.974999999627471 ], [ 43375.275000000001455, 5953314.974999999627471 ], [ 43375.275000000001455, 5953314.900000000372529 ], [ 43375.349999999998545, 5953314.900000000372529 ], [ 43375.349999999998545, 5953314.825000000186265 ], [ 43375.5, 5953314.825000000186265 ], [ 43375.5, 5953314.75 ], [ 43375.57499999999709, 5953314.75 ], [ 43375.57499999999709, 5953314.674999999813735 ], [ 43375.650000000001455, 5953314.674999999813735 ], [ 43375.650000000001455, 5953314.599999999627471 ], [ 43375.724999999998545, 5953314.599999999627471 ], [ 43375.724999999998545, 5953314.450000000186265 ], [ 43375.80000000000291, 5953314.450000000186265 ], [ 43375.80000000000291, 5953314.375 ], [ 43375.875, 5953314.375 ], [ 43375.875, 5953314.224999999627471 ], [ 43375.94999999999709, 5953314.224999999627471 ], [ 43375.94999999999709, 5953314.150000000372529 ], [ 43376.025000000001455, 5953314.150000000372529 ], [ 43376.025000000001455, 5953314.0 ], [ 43376.099999999998545, 5953314.0 ], [ 43376.099999999998545, 5953313.924999999813735 ], [ 43376.17500000000291, 5953313.924999999813735 ], [ 43376.17500000000291, 5953313.849999999627471 ], [ 43376.25, 5953313.849999999627471 ], [ 43376.25, 5953313.775000000372529 ], [ 43376.32499999999709, 5953313.775000000372529 ], [ 43376.32499999999709, 5953313.700000000186265 ], [ 43376.400000000001455, 5953313.700000000186265 ], [ 43376.400000000001455, 5953313.625 ], [ 43376.474999999998545, 5953313.625 ], [ 43376.474999999998545, 5953313.549999999813735 ], [ 43376.55000000000291, 5953313.549999999813735 ], [ 43376.55000000000291, 5953313.474999999627471 ], [ 43376.69999999999709, 5953313.474999999627471 ], [ 43376.69999999999709, 5953313.400000000372529 ], [ 43376.775000000001455, 5953313.400000000372529 ], [ 43376.775000000001455, 5953313.325000000186265 ], [ 43376.92500000000291, 5953313.325000000186265 ], [ 43376.92500000000291, 5953313.25 ], [ 43377.0, 5953313.25 ], [ 43377.0, 5953313.174999999813735 ], [ 43377.150000000001455, 5953313.174999999813735 ], [ 43377.150000000001455, 5953313.099999999627471 ], [ 43377.30000000000291, 5953313.099999999627471 ], [ 43377.30000000000291, 5953313.025000000372529 ], [ 43377.44999999999709, 5953313.025000000372529 ], [ 43377.44999999999709, 5953312.950000000186265 ], [ 43377.525000000001455, 5953312.950000000186265 ], [ 43377.525000000001455, 5953312.875 ], [ 43377.67500000000291, 5953312.875 ], [ 43377.67500000000291, 5953312.799999999813735 ], [ 43377.75, 5953312.799999999813735 ], [ 43377.75, 5953312.724999999627471 ], [ 43377.82499999999709, 5953312.724999999627471 ], [ 43377.82499999999709, 5953312.650000000372529 ], [ 43377.900000000001455, 5953312.650000000372529 ], [ 43377.900000000001455, 5953312.575000000186265 ], [ 43377.974999999998545, 5953312.575000000186265 ], [ 43377.974999999998545, 5953312.5 ], [ 43378.05000000000291, 5953312.5 ], [ 43378.05000000000291, 5953312.424999999813735 ], [ 43378.125, 5953312.424999999813735 ], [ 43378.125, 5953312.349999999627471 ], [ 43378.19999999999709, 5953312.349999999627471 ], [ 43378.19999999999709, 5953312.200000000186265 ], [ 43378.275000000001455, 5953312.200000000186265 ], [ 43378.275000000001455, 5953312.125 ], [ 43378.349999999998545, 5953312.125 ], [ 43378.349999999998545, 5953312.049999999813735 ], [ 43378.42500000000291, 5953312.049999999813735 ], [ 43378.42500000000291, 5953311.974999999627471 ], [ 43378.5, 5953311.974999999627471 ], [ 43378.5, 5953311.900000000372529 ], [ 43378.57499999999709, 5953311.900000000372529 ], [ 43378.57499999999709, 5953311.825000000186265 ], [ 43378.650000000001455, 5953311.825000000186265 ], [ 43378.650000000001455, 5953311.75 ], [ 43378.80000000000291, 5953311.75 ], [ 43378.80000000000291, 5953311.674999999813735 ], [ 43378.875, 5953311.674999999813735 ], [ 43378.875, 5953311.599999999627471 ], [ 43379.025000000001455, 5953311.599999999627471 ], [ 43379.025000000001455, 5953311.525000000372529 ], [ 43379.099999999998545, 5953311.525000000372529 ], [ 43379.099999999998545, 5953311.450000000186265 ], [ 43379.25, 5953311.450000000186265 ], [ 43379.25, 5953311.375 ], [ 43379.474999999998545, 5953311.375 ], [ 43379.474999999998545, 5953311.299999999813735 ], [ 43379.625, 5953311.299999999813735 ], [ 43379.625, 5953311.224999999627471 ], [ 43379.775000000001455, 5953311.224999999627471 ], [ 43379.775000000001455, 5953311.150000000372529 ], [ 43379.92500000000291, 5953311.150000000372529 ], [ 43379.92500000000291, 5953311.075000000186265 ], [ 43380.07499999999709, 5953311.075000000186265 ], [ 43380.07499999999709, 5953311.0 ], [ 43380.224999999998545, 5953311.0 ], [ 43380.224999999998545, 5953310.924999999813735 ], [ 43380.30000000000291, 5953310.924999999813735 ], [ 43380.30000000000291, 5953310.849999999627471 ], [ 43380.44999999999709, 5953310.849999999627471 ], [ 43380.44999999999709, 5953310.775000000372529 ], [ 43380.525000000001455, 5953310.775000000372529 ], [ 43380.525000000001455, 5953310.700000000186265 ], [ 43380.67500000000291, 5953310.700000000186265 ], [ 43380.67500000000291, 5953310.625 ], [ 43380.75, 5953310.625 ], [ 43380.75, 5953310.549999999813735 ], [ 43380.900000000001455, 5953310.549999999813735 ], [ 43380.900000000001455, 5953310.474999999627471 ], [ 43380.974999999998545, 5953310.474999999627471 ], [ 43380.974999999998545, 5953310.400000000372529 ], [ 43381.05000000000291, 5953310.400000000372529 ], [ 43381.05000000000291, 5953310.325000000186265 ], [ 43381.19999999999709, 5953310.325000000186265 ], [ 43381.19999999999709, 5953310.25 ], [ 43381.349999999998545, 5953310.25 ], [ 43381.349999999998545, 5953310.174999999813735 ], [ 43381.5, 5953310.174999999813735 ], [ 43381.5, 5953310.099999999627471 ], [ 43381.724999999998545, 5953310.099999999627471 ], [ 43381.724999999998545, 5953310.025000000372529 ], [ 43382.025000000001455, 5953310.025000000372529 ], [ 43382.025000000001455, 5953309.950000000186265 ], [ 43382.25, 5953309.950000000186265 ], [ 43382.25, 5953309.875 ], [ 43382.55000000000291, 5953309.875 ], [ 43382.55000000000291, 5953309.799999999813735 ], [ 43382.92500000000291, 5953309.799999999813735 ], [ 43382.92500000000291, 5953309.724999999627471 ], [ 43383.44999999999709, 5953309.724999999627471 ], [ 43383.44999999999709, 5953309.799999999813735 ], [ 43383.75, 5953309.799999999813735 ], [ 43383.75, 5953309.875 ], [ 43384.05000000000291, 5953309.875 ], [ 43384.05000000000291, 5953309.950000000186265 ], [ 43384.275000000001455, 5953309.950000000186265 ], [ 43384.275000000001455, 5953310.025000000372529 ], [ 43384.57499999999709, 5953310.025000000372529 ], [ 43384.57499999999709, 5953310.099999999627471 ], [ 43384.80000000000291, 5953310.099999999627471 ], [ 43384.80000000000291, 5953310.174999999813735 ], [ 43384.94999999999709, 5953310.174999999813735 ], [ 43384.94999999999709, 5953310.25 ], [ 43385.17500000000291, 5953310.25 ], [ 43385.17500000000291, 5953310.325000000186265 ], [ 43385.32499999999709, 5953310.325000000186265 ], [ 43385.32499999999709, 5953310.400000000372529 ], [ 43385.400000000001455, 5953310.400000000372529 ], [ 43385.400000000001455, 5953310.474999999627471 ], [ 43385.55000000000291, 5953310.474999999627471 ], [ 43385.55000000000291, 5953310.549999999813735 ], [ 43385.625, 5953310.549999999813735 ], [ 43385.625, 5953310.625 ], [ 43385.775000000001455, 5953310.625 ], [ 43385.775000000001455, 5953310.700000000186265 ], [ 43385.849999999998545, 5953310.700000000186265 ], [ 43385.849999999998545, 5953310.775000000372529 ], [ 43386.0, 5953310.775000000372529 ], [ 43386.0, 5953310.849999999627471 ], [ 43386.07499999999709, 5953310.849999999627471 ], [ 43386.07499999999709, 5953310.924999999813735 ], [ 43386.224999999998545, 5953310.924999999813735 ], [ 43386.224999999998545, 5953311.0 ], [ 43386.375, 5953311.0 ], [ 43386.375, 5953311.075000000186265 ], [ 43386.525000000001455, 5953311.075000000186265 ], [ 43386.525000000001455, 5953311.150000000372529 ], [ 43386.599999999998545, 5953311.150000000372529 ], [ 43386.599999999998545, 5953311.224999999627471 ], [ 43386.75, 5953311.224999999627471 ], [ 43386.75, 5953311.299999999813735 ], [ 43386.900000000001455, 5953311.299999999813735 ], [ 43386.900000000001455, 5953311.375 ], [ 43387.05000000000291, 5953311.375 ], [ 43387.05000000000291, 5953311.450000000186265 ], [ 43387.19999999999709, 5953311.450000000186265 ], [ 43387.19999999999709, 5953311.525000000372529 ], [ 43387.275000000001455, 5953311.525000000372529 ], [ 43387.275000000001455, 5953311.599999999627471 ], [ 43387.349999999998545, 5953311.599999999627471 ], [ 43387.349999999998545, 5953311.674999999813735 ], [ 43387.42500000000291, 5953311.674999999813735 ], [ 43387.42500000000291, 5953311.75 ], [ 43387.5, 5953311.75 ], [ 43387.5, 5953311.825000000186265 ], [ 43387.57499999999709, 5953311.825000000186265 ], [ 43387.57499999999709, 5953311.900000000372529 ], [ 43387.650000000001455, 5953311.900000000372529 ], [ 43387.650000000001455, 5953311.974999999627471 ], [ 43387.724999999998545, 5953311.974999999627471 ], [ 43387.724999999998545, 5953312.049999999813735 ], [ 43387.80000000000291, 5953312.049999999813735 ], [ 43387.80000000000291, 5953312.125 ], [ 43387.875, 5953312.125 ], [ 43387.875, 5953312.275000000372529 ], [ 43387.94999999999709, 5953312.275000000372529 ], [ 43387.94999999999709, 5953312.349999999627471 ], [ 43388.025000000001455, 5953312.349999999627471 ], [ 43388.025000000001455, 5953312.5 ], [ 43388.099999999998545, 5953312.5 ], [ 43388.099999999998545, 5953312.724999999627471 ], [ 43388.17500000000291, 5953312.724999999627471 ], [ 43388.17500000000291, 5953312.950000000186265 ], [ 43388.25, 5953312.950000000186265 ], [ 43388.25, 5953313.174999999813735 ], [ 43388.32499999999709, 5953313.174999999813735 ], [ 43388.32499999999709, 5953313.400000000372529 ], [ 43388.400000000001455, 5953313.400000000372529 ], [ 43388.400000000001455, 5953313.625 ], [ 43388.474999999998545, 5953313.625 ], [ 43388.474999999998545, 5953313.849999999627471 ], [ 43388.55000000000291, 5953313.849999999627471 ], [ 43388.55000000000291, 5953314.075000000186265 ], [ 43388.625, 5953314.075000000186265 ], [ 43388.625, 5953314.375 ], [ 43388.69999999999709, 5953314.375 ], [ 43388.69999999999709, 5953314.599999999627471 ], [ 43388.775000000001455, 5953314.599999999627471 ], [ 43388.775000000001455, 5953314.75 ], [ 43388.849999999998545, 5953314.75 ], [ 43388.849999999998545, 5953314.974999999627471 ], [ 43388.92500000000291, 5953314.974999999627471 ], [ 43388.92500000000291, 5953315.125 ], [ 43389.0, 5953315.125 ], [ 43389.0, 5953315.275000000372529 ], [ 43389.07499999999709, 5953315.275000000372529 ], [ 43389.07499999999709, 5953315.424999999813735 ], [ 43389.150000000001455, 5953315.424999999813735 ], [ 43389.150000000001455, 5953315.575000000186265 ], [ 43389.224999999998545, 5953315.575000000186265 ], [ 43389.224999999998545, 5953315.724999999627471 ], [ 43389.30000000000291, 5953315.724999999627471 ], [ 43389.30000000000291, 5953315.875 ], [ 43389.375, 5953315.875 ], [ 43389.375, 5953316.099999999627471 ], [ 43389.44999999999709, 5953316.099999999627471 ], [ 43389.44999999999709, 5953316.25 ], [ 43389.525000000001455, 5953316.25 ], [ 43389.525000000001455, 5953316.325000000186265 ], [ 43389.44999999999709, 5953316.325000000186265 ], [ 43389.44999999999709, 5953316.474999999627471 ], [ 43389.375, 5953316.474999999627471 ], [ 43389.375, 5953316.549999999813735 ], [ 43389.30000000000291, 5953316.549999999813735 ], [ 43389.30000000000291, 5953316.700000000186265 ], [ 43389.224999999998545, 5953316.700000000186265 ], [ 43389.224999999998545, 5953316.775000000372529 ], [ 43389.150000000001455, 5953316.775000000372529 ], [ 43389.150000000001455, 5953316.849999999627471 ], [ 43389.07499999999709, 5953316.849999999627471 ], [ 43389.07499999999709, 5953317.0 ], [ 43389.0, 5953317.0 ], [ 43389.0, 5953317.075000000186265 ], [ 43388.92500000000291, 5953317.075000000186265 ], [ 43388.92500000000291, 5953317.224999999627471 ], [ 43388.849999999998545, 5953317.224999999627471 ], [ 43388.849999999998545, 5953317.375 ], [ 43388.775000000001455, 5953317.375 ], [ 43388.775000000001455, 5953317.525000000372529 ], [ 43388.69999999999709, 5953317.525000000372529 ], [ 43388.69999999999709, 5953317.674999999813735 ], [ 43388.625, 5953317.674999999813735 ], [ 43388.625, 5953317.825000000186265 ], [ 43388.55000000000291, 5953317.825000000186265 ], [ 43388.55000000000291, 5953318.049999999813735 ], [ 43388.474999999998545, 5953318.049999999813735 ], [ 43388.474999999998545, 5953318.275000000372529 ], [ 43388.400000000001455, 5953318.275000000372529 ], [ 43388.400000000001455, 5953318.424999999813735 ], [ 43388.32499999999709, 5953318.424999999813735 ], [ 43388.32499999999709, 5953318.5 ], [ 43388.25, 5953318.5 ], [ 43388.25, 5953318.650000000372529 ], [ 43388.17500000000291, 5953318.650000000372529 ], [ 43388.17500000000291, 5953318.724999999627471 ], [ 43388.099999999998545, 5953318.724999999627471 ], [ 43388.099999999998545, 5953318.875 ], [ 43388.025000000001455, 5953318.875 ], [ 43388.025000000001455, 5953318.950000000186265 ], [ 43387.94999999999709, 5953318.950000000186265 ], [ 43387.94999999999709, 5953319.025000000372529 ], [ 43387.875, 5953319.025000000372529 ], [ 43387.875, 5953319.099999999627471 ], [ 43387.80000000000291, 5953319.099999999627471 ], [ 43387.80000000000291, 5953319.174999999813735 ], [ 43387.724999999998545, 5953319.174999999813735 ], [ 43387.724999999998545, 5953319.25 ], [ 43387.650000000001455, 5953319.25 ], [ 43387.650000000001455, 5953319.325000000186265 ], [ 43387.57499999999709, 5953319.325000000186265 ], [ 43387.57499999999709, 5953319.400000000372529 ], [ 43387.42500000000291, 5953319.400000000372529 ], [ 43387.42500000000291, 5953319.474999999627471 ], [ 43387.349999999998545, 5953319.474999999627471 ], [ 43387.349999999998545, 5953319.549999999813735 ], [ 43387.19999999999709, 5953319.549999999813735 ], [ 43387.19999999999709, 5953319.625 ], [ 43387.125, 5953319.625 ], [ 43387.125, 5953319.700000000186265 ], [ 43386.974999999998545, 5953319.700000000186265 ], [ 43386.974999999998545, 5953319.775000000372529 ], [ 43386.900000000001455, 5953319.775000000372529 ], [ 43386.900000000001455, 5953319.849999999627471 ], [ 43386.82499999999709, 5953319.849999999627471 ], [ 43386.82499999999709, 5953319.924999999813735 ], [ 43386.75, 5953319.924999999813735 ], [ 43386.75, 5953320.0 ], [ 43386.67500000000291, 5953320.0 ], [ 43386.67500000000291, 5953320.075000000186265 ], [ 43386.599999999998545, 5953320.075000000186265 ], [ 43386.599999999998545, 5953320.150000000372529 ], [ 43386.525000000001455, 5953320.150000000372529 ], [ 43386.525000000001455, 5953320.224999999627471 ], [ 43386.44999999999709, 5953320.224999999627471 ], [ 43386.44999999999709, 5953320.375 ], [ 43386.375, 5953320.375 ], [ 43386.375, 5953320.450000000186265 ], [ 43386.30000000000291, 5953320.450000000186265 ], [ 43386.30000000000291, 5953320.599999999627471 ], [ 43386.224999999998545, 5953320.599999999627471 ], [ 43386.224999999998545, 5953320.674999999813735 ], [ 43386.150000000001455, 5953320.674999999813735 ], [ 43386.150000000001455, 5953320.75 ], [ 43386.07499999999709, 5953320.75 ], [ 43386.07499999999709, 5953320.825000000186265 ], [ 43386.0, 5953320.825000000186265 ], [ 43386.0, 5953320.900000000372529 ], [ 43385.92500000000291, 5953320.900000000372529 ], [ 43385.92500000000291, 5953320.974999999627471 ], [ 43385.849999999998545, 5953320.974999999627471 ], [ 43385.849999999998545, 5953321.049999999813735 ], [ 43385.775000000001455, 5953321.049999999813735 ], [ 43385.775000000001455, 5953321.125 ], [ 43385.625, 5953321.125 ], [ 43385.625, 5953321.200000000186265 ], [ 43385.55000000000291, 5953321.200000000186265 ], [ 43385.55000000000291, 5953321.275000000372529 ], [ 43385.400000000001455, 5953321.275000000372529 ], [ 43385.400000000001455, 5953321.349999999627471 ], [ 43385.25, 5953321.349999999627471 ], [ 43385.25, 5953321.424999999813735 ], [ 43385.099999999998545, 5953321.424999999813735 ], [ 43385.099999999998545, 5953321.5 ], [ 43385.025000000001455, 5953321.5 ], [ 43385.025000000001455, 5953321.575000000186265 ], [ 43384.875, 5953321.575000000186265 ], [ 43384.875, 5953321.650000000372529 ], [ 43384.724999999998545, 5953321.650000000372529 ], [ 43384.724999999998545, 5953321.724999999627471 ], [ 43384.650000000001455, 5953321.724999999627471 ], [ 43384.650000000001455, 5953321.799999999813735 ], [ 43384.5, 5953321.799999999813735 ], [ 43384.5, 5953321.875 ], [ 43384.42500000000291, 5953321.875 ], [ 43384.42500000000291, 5953321.950000000186265 ], [ 43384.349999999998545, 5953321.950000000186265 ], [ 43384.349999999998545, 5953322.025000000372529 ], [ 43384.275000000001455, 5953322.025000000372529 ], [ 43384.275000000001455, 5953322.099999999627471 ], [ 43384.19999999999709, 5953322.099999999627471 ], [ 43384.19999999999709, 5953322.174999999813735 ], [ 43384.125, 5953322.174999999813735 ], [ 43384.125, 5953322.25 ], [ 43384.05000000000291, 5953322.25 ], [ 43384.05000000000291, 5953322.325000000186265 ], [ 43383.900000000001455, 5953322.325000000186265 ], [ 43383.900000000001455, 5953322.400000000372529 ], [ 43383.82499999999709, 5953322.400000000372529 ], [ 43383.82499999999709, 5953322.474999999627471 ], [ 43383.75, 5953322.474999999627471 ], [ 43383.75, 5953322.549999999813735 ], [ 43383.599999999998545, 5953322.549999999813735 ], [ 43383.599999999998545, 5953322.625 ], [ 43383.525000000001455, 5953322.625 ], [ 43383.525000000001455, 5953322.700000000186265 ], [ 43383.375, 5953322.700000000186265 ], [ 43383.375, 5953322.775000000372529 ], [ 43383.30000000000291, 5953322.775000000372529 ], [ 43383.30000000000291, 5953322.849999999627471 ], [ 43382.92500000000291, 5953322.849999999627471 ], [ 43382.92500000000291, 5953322.924999999813735 ], [ 43382.474999999998545, 5953322.924999999813735 ], [ 43382.474999999998545, 5953323.0 ], [ 43381.875, 5953323.0 ], [ 43381.875, 5953323.075000000186265 ], [ 43381.275000000001455, 5953323.075000000186265 ], [ 43381.275000000001455, 5953323.150000000372529 ], [ 43381.19999999999709, 5953323.150000000372529 ] ] ] } },
{ "type": "Feature", "properties": { "value": 1.0, "building_id": 1, "area": 545.97375000254056 }, "geometry": { "type": "Polygon", "coordinates": [ [ [ 43466.69999999999709, 5953035.150000000372529 ], [ 43466.69999999999709, 5953035.075000000186265 ], [ 43465.650000000001455, 5953035.075000000186265 ], [ 43465.650000000001455, 5953035.0 ], [ 43465.125, 5953035.0 ], [ 43465.125, 5953034.924999999813735 ], [ 43464.900000000001455, 5953034.924999999813735 ], [ 43464.900000000001455, 5953034.849999999627471 ], [ 43464.67500000000291, 5953034.849999999627471 ], [ 43464.67500000000291, 5953034.775000000372529 ], [ 43464.375, 5953034.775000000372529 ], [ 43464.375, 5953034.700000000186265 ], [ 43464.07499999999709, 5953034.700000000186265 ], [ 43464.07499999999709, 5953034.625 ], [ 43463.775000000001455, 5953034.625 ], [ 43463.775000000001455, 5953034.549999999813735 ], [ 43463.400000000001455, 5953034.549999999813735 ], [ 43463.400000000001455, 5953034.474999999627471 ], [ 43463.025000000001455, 5953034.474999999627471 ], [ 43463.025000000001455, 5953034.400000000372529 ], [ 43462.650000000001455, 5953034.400000000372529 ], [ 43462.650000000001455, 5953034.325000000186265 ], [ 43462.19999999999709, 5953034.325000000186265 ], [ 43462.19999999999709, 5953034.25 ], [ 43461.75, 5953034.25 ], [ 43461.75, 5953034.174999999813735 ], [ 43459.5, 5953034.174999999813735 ], [ 43459.5, 5953034.099999999627471 ], [ 43459.349999999998545, 5953034.099999999627471 ], [ 43459.349999999998545, 5953034.174999999813735 ], [ 43458.224999999998545, 5953034.174999999813735 ], [ 43458.224999999998545, 5953034.25 ], [ 43457.25, 5953034.25 ], [ 43457.25, 5953034.325000000186265 ], [ 43456.57499999999709, 5953034.325000000186265 ], [ 43456.57499999999709, 5953034.400000000372529 ], [ 43456.05000000000291, 5953034.400000000372529 ], [ 43456.05000000000291, 5953034.474999999627471 ], [ 43455.525000000001455, 5953034.474999999627471 ], [ 43455.525000000001455, 5953034.549999999813735 ], [ 43455.07499999999709, 5953034.549999999813735 ], [ 43455.07499999999709, 5953034.625 ], [ 43454.69999999999709, 5953034.625 ], [ 43454.69999999999709, 5953034.700000000186265 ], [ 43454.32499999999709, 5953034.700000000186265 ], [ 43454.32499999999709, 5953034.775000000372529 ], [ 43454.025000000001455, 5953034.775000000372529 ], [ 43454.025000000001455, 5953034.849999999627471 ], [ 43453.724999999998545, 5953034.849999999627471 ], [ 43453.724999999998545, 5953034.924999999813735 ], [ 43453.349999999998545, 5953034.924999999813735 ], [ 43453.349999999998545, 5953034.849999999627471 ], [ 43453.19999999999709, 5953034.849999999627471 ], [ 43453.19999999999709, 5953034.775000000372529 ], [ 43452.974999999998545, 5953034.775000000372529 ], [ 43452.974999999998545, 5953034.700000000186265 ], [ 43452.75, 5953034.700000000186265 ], [ 43452.75, 5953034.625 ], [ 43452.44999999999709, 5953034.625 ], [ 43452.44999999999709, 5953034.549999999813735 ], [ 43452.224999999998545, 5953034.549999999813735 ], [ 43452.224999999998545, 5953034.474999999627471 ], [ 43451.92500000000291, 5953034.474999999627471 ], [ 43451.92500000000291, 5953034.400000000372529 ], [ 43451.55000000000291, 5953034.400000000372529 ], [ 43451.55000000000291, 5953034.325000000186265 ], [ 43451.32499999999709, 5953034.325000000186265 ], [ 43451.32499999999709, 5953034.25 ], [ 43451.099999999998545, 5953034.25 ], [ 43451.099999999998545, 5953034.174999999813735 ], [ 43450.875, 5953034.174999999813735 ], [ 43450.875, 5953034.099999999627471 ], [ 43450.57499999999709, 5953034.099999999627471 ], [ 43450.57499999999709, 5953034.025000000372529 ], [ 43450.275000000001455, 5953034.025000000372529 ], [ 43450.275000000001455, 5953033.950000000186265 ], [ 43449.974999999998545, 5953033.950000000186265 ], [ 43449.974999999998545, 5953033.875 ], [ 43449.67500000000291, 5953033.875 ], [ 43449.67500000000291, 5953033.799999999813735 ], [ 43449.525000000001455, 5953033.799999999813735 ], [ 43449.525000000001455, 5953033.724999999627471 ], [ 43449.375, 5953033.724999999627471 ], [ 43449.375, 5953033.650000000372529 ], [ 43449.30000000000291, 5953033.650000000372529 ], [ 43449.30000000000291, 5953033.575000000186265 ], [ 43449.150000000001455, 5953033.575000000186265 ], [ 43449.150000000001455, 5953033.5 ], [ 43449.07499999999709, 5953033.5 ], [ 43449.07499999999709, 5953033.424999999813735 ], [ 43449.0, 5953033.424999999813735 ], [ 43449.0, 5953033.349999999627471 ], [ 43448.92500000000291, 5953033.349999999627471 ], [ 43448.92500000000291, 5953033.275000000372529 ], [ 43448.849999999998545, 5953033.275000000372529 ], [ 43448.849999999998545, 5953033.200000000186265 ], [ 43448.775000000001455, 5953033.200000000186265 ], [ 43448.775000000001455, 5953033.125 ], [ 43448.69999999999709, 5953033.125 ], [ 43448.69999999999709, 5953033.049999999813735 ], [ 43448.625, 5953033.049999999813735 ], [ 43448.625, 5953032.900000000372529 ], [ 43448.55000000000291, 5953032.900000000372529 ], [ 43448.55000000000291, 5953032.825000000186265 ], [ 43448.474999999998545, 5953032.825000000186265 ], [ 43448.474999999998545, 5953032.674999999813735 ], [ 43448.400000000001455, 5953032.674999999813735 ], [ 43448.400000000001455, 5953032.599999999627471 ], [ 43448.32499999999709, 5953032.599999999627471 ], [ 43448.32499999999709, 5953032.525000000372529 ], [ 43448.25, 5953032.525000000372529 ], [ 43448.25, 5953032.450000000186265 ], [ 43448.17500000000291, 5953032.450000000186265 ], [ 43448.17500000000291, 5953032.375 ], [ 43448.099999999998545, 5953032.375 ], [ 43448.099999999998545, 5953032.299999999813735 ], [ 43448.025000000001455, 5953032.299999999813735 ], [ 43448.025000000001455, 5953032.224999999627471 ], [ 43447.875, 5953032.224999999627471 ], [ 43447.875, 5953032.150000000372529 ], [ 43447.80000000000291, 5953032.150000000372529 ], [ 43447.80000000000291, 5953032.075000000186265 ], [ 43447.650000000001455, 5953032.075000000186265 ], [ 43447.650000000001455, 5953032.0 ], [ 43447.57499999999709, 5953032.0 ], [ 43447.57499999999709, 5953031.924999999813735 ], [ 43447.5, 5953031.924999999813735 ], [ 43447.5, 5953031.849999999627471 ], [ 43447.42500000000291, 5953031.849999999627471 ], [ 43447.42500000000291, 5953031.775000000372529 ], [ 43447.349999999998545, 5953031.775000000372529 ], [ 43447.349999999998545, 5953031.700000000186265 ], [ 43447.275000000001455, 5953031.700000000186265 ], [ 43447.275000000001455, 5953031.625 ], [ 43447.19999999999709, 5953031.625 ], [ 43447.19999999999709, 5953031.549999999813735 ], [ 43447.125, 5953031.549999999813735 ], [ 43447.125, 5953031.400000000372529 ], [ 43447.05000000000291, 5953031.400000000372529 ], [ 43447.05000000000291, 5953031.325000000186265 ], [ 43446.974999999998545, 5953031.325000000186265 ], [ 43446.974999999998545, 5953031.174999999813735 ], [ 43446.900000000001455, 5953031.174999999813735 ], [ 43446.900000000001455, 5953030.950000000186265 ], [ 43446.82499999999709, 5953030.950000000186265 ], [ 43446.82499999999709, 5953030.575000000186265 ], [ 43446.75, 5953030.575000000186265 ], [ 43446.75, 5953030.200000000186265 ], [ 43446.67500000000291, 5953030.200000000186265 ], [ 43446.67500000000291, 5953029.900000000372529 ], [ 43446.599999999998545, 5953029.900000000372529 ], [ 43446.599999999998545, 5953029.525000000372529 ], [ 43446.525000000001455, 5953029.525000000372529 ], [ 43446.525000000001455, 5953029.150000000372529 ], [ 43446.44999999999709, 5953029.150000000372529 ], [ 43446.44999999999709, 5953028.775000000372529 ], [ 43446.375, 5953028.775000000372529 ], [ 43446.375, 5953028.474999999627471 ], [ 43446.30000000000291, 5953028.474999999627471 ], [ 43446.30000000000291, 5953028.174999999813735 ], [ 43446.224999999998545, 5953028.174999999813735 ], [ 43446.224999999998545, 5953027.950000000186265 ], [ 43446.150000000001455, 5953027.950000000186265 ], [ 43446.150000000001455, 5953027.724999999627471 ], [ 43446.07499999999709, 5953027.724999999627471 ], [ 43446.07499999999709, 5953027.5 ], [ 43446.0, 5953027.5 ], [ 43446.0, 5953027.275000000372529 ], [ 43445.92500000000291, 5953027.275000000372529 ], [ 43445.92500000000291, 5953027.125 ], [ 43445.849999999998545, 5953027.125 ], [ 43445.849999999998545, 5953026.900000000372529 ], [ 43445.775000000001455, 5953026.900000000372529 ], [ 43445.775000000001455, 5953026.75 ], [ 43445.69999999999709, 5953026.75 ], [ 43445.69999999999709, 5953026.599999999627471 ], [ 43445.625, 5953026.599999999627471 ], [ 43445.625, 5953026.450000000186265 ], [ 43445.55000000000291, 5953026.450000000186265 ], [ 43445.55000000000291, 5953026.299999999813735 ], [ 43445.474999999998545, 5953026.299999999813735 ], [ 43445.474999999998545, 5953026.150000000372529 ], [ 43445.400000000001455, 5953026.150000000372529 ], [ 43445.400000000001455, 5953026.0 ], [ 43445.32499999999709, 5953026.0 ], [ 43445.32499999999709, 5953025.849999999627471 ], [ 43445.25, 5953025.849999999627471 ], [ 43445.25, 5953025.700000000186265 ], [ 43445.17500000000291, 5953025.700000000186265 ], [ 43445.17500000000291, 5953025.474999999627471 ], [ 43445.099999999998545, 5953025.474999999627471 ], [ 43445.099999999998545, 5953025.325000000186265 ], [ 43445.025000000001455, 5953025.325000000186265 ], [ 43445.025000000001455, 5953025.099999999627471 ], [ 43444.94999999999709, 5953025.099999999627471 ], [ 43444.94999999999709, 5953024.875 ], [ 43444.875, 5953024.875 ], [ 43444.875, 5953024.575000000186265 ], [ 43444.80000000000291, 5953024.575000000186265 ], [ 43444.80000000000291, 5953024.349999999627471 ], [ 43444.724999999998545, 5953024.349999999627471 ], [ 43444.724999999998545, 5953023.825000000186265 ], [ 43444.650000000001455, 5953023.825000000186265 ], [ 43444.650000000001455, 5953023.150000000372529 ], [ 43444.57499999999709, 5953023.150000000372529 ], [ 43444.57499999999709, 5953022.325000000186265 ], [ 43444.5, 5953022.325000000186265 ], [ 43444.5, 5953021.424999999813735 ], [ 43444.42500000000291, 5953021.424999999813735 ], [ 43444.42500000000291, 5953021.200000000186265 ], [ 43444.5, 5953021.200000000186265 ], [ 43444.5, 5953019.400000000372529 ], [ 43444.57499999999709, 5953019.400000000372529 ], [ 43444.57499999999709, 5953019.099999999627471 ], [ 43444.650000000001455, 5953019.099999999627471 ], [ 43444.650000000001455, 5953018.875 ], [ 43444.724999999998545, 5953018.875 ], [ 43444.724999999998545, 5953018.799999999813735 ], [ 43444.80000000000291, 5953018.799999999813735 ], [ 43444.80000000000291, 5953018.724999999627471 ], [ 43444.94999999999709, 5953018.724999999627471 ], [ 43444.94999999999709, 5953018.650000000372529 ], [ 43445.025000000001455, 5953018.650000000372529 ], [ 43445.025000000001455, 5953018.575000000186265 ], [ 43445.099999999998545, 5953018.575000000186265 ], [ 43445.099999999998545, 5953018.5 ], [ 43445.25, 5953018.5 ], [ 43445.25, 5953018.424999999813735 ], [ 43445.32499999999709, 5953018.424999999813735 ], [ 43445.32499999999709, 5953018.349999999627471 ], [ 43445.474999999998545, 5953018.349999999627471 ], [ 43445.474999999998545, 5953018.275000000372529 ], [ 43445.625, 5953018.275000000372529 ], [ 43445.625, 5953018.200000000186265 ], [ 43445.69999999999709, 5953018.200000000186265 ], [ 43445.69999999999709, 5953018.125 ], [ 43445.849999999998545, 5953018.125 ], [ 43445.849999999998545, 5953018.049999999813735 ], [ 43445.92500000000291, 5953018.049999999813735 ], [ 43445.92500000000291, 5953017.974999999627471 ], [ 43446.0, 5953017.974999999627471 ], [ 43446.0, 5953017.900000000372529 ], [ 43446.07499999999709, 5953017.900000000372529 ], [ 43446.07499999999709, 5953017.825000000186265 ], [ 43446.150000000001455, 5953017.825000000186265 ], [ 43446.150000000001455, 5953017.75 ], [ 43446.224999999998545, 5953017.75 ], [ 43446.224999999998545, 5953017.599999999627471 ], [ 43446.30000000000291, 5953017.599999999627471 ], [ 43446.30000000000291, 5953017.525000000372529 ], [ 43446.375, 5953017.525000000372529 ], [ 43446.375, 5953017.450000000186265 ], [ 43446.44999999999709, 5953017.450000000186265 ], [ 43446.44999999999709, 5953017.375 ], [ 43446.525000000001455, 5953017.375 ], [ 43446.525000000001455, 5953017.299999999813735 ], [ 43446.599999999998545, 5953017.299999999813735 ], [ 43446.599999999998545, 5953017.224999999627471 ], [ 43446.67500000000291, 5953017.224999999627471 ], [ 43446.67500000000291, 5953017.150000000372529 ], [ 43446.75, 5953017.150000000372529 ], [ 43446.75, 5953017.075000000186265 ], [ 43446.82499999999709, 5953017.075000000186265 ], [ 43446.82499999999709, 5953017.0 ], [ 43446.900000000001455, 5953017.0 ], [ 43446.900000000001455, 5953016.924999999813735 ], [ 43446.974999999998545, 5953016.924999999813735 ], [ 43446.974999999998545, 5953016.849999999627471 ], [ 43447.125, 5953016.849999999627471 ], [ 43447.125, 5953016.775000000372529 ], [ 43447.19999999999709, 5953016.775000000372529 ], [ 43447.19999999999709, 5953016.700000000186265 ], [ 43447.349999999998545, 5953016.700000000186265 ], [ 43447.349999999998545, 5953016.625 ], [ 43447.5, 5953016.625 ], [ 43447.5, 5953016.549999999813735 ], [ 43447.650000000001455, 5953016.549999999813735 ], [ 43447.650000000001455, 5953016.474999999627471 ], [ 43447.80000000000291, 5953016.474999999627471 ], [ 43447.80000000000291, 5953016.400000000372529 ], [ 43447.94999999999709, 5953016.400000000372529 ], [ 43447.94999999999709, 5953016.325000000186265 ], [ 43448.099999999998545, 5953016.325000000186265 ], [ 43448.099999999998545, 5953016.25 ], [ 43448.25, 5953016.25 ], [ 43448.25, 5953016.174999999813735 ], [ 43448.32499999999709, 5953016.174999999813735 ], [ 43448.32499999999709, 5953016.099999999627471 ], [ 43448.474999999998545, 5953016.099999999627471 ], [ 43448.474999999998545, 5953016.025000000372529 ], [ 43448.55000000000291, 5953016.025000000372529 ], [ 43448.55000000000291, 5953015.950000000186265 ], [ 43448.69999999999709, 5953015.950000000186265 ], [ 43448.69999999999709, 5953015.875 ], [ 43448.775000000001455, 5953015.875 ], [ 43448.775000000001455, 5953015.799999999813735 ], [ 43448.849999999998545, 5953015.799999999813735 ], [ 43448.849999999998545, 5953015.724999999627471 ], [ 43448.92500000000291, 5953015.724999999627471 ], [ 43448.92500000000291, 5953015.650000000372529 ], [ 43449.0, 5953015.650000000372529 ], [ 43449.0, 5953015.575000000186265 ], [ 43449.07499999999709, 5953015.575000000186265 ], [ 43449.07499999999709, 5953015.5 ], [ 43449.224999999998545, 5953015.5 ], [ 43449.224999999998545, 5953015.424999999813735 ], [ 43449.30000000000291, 5953015.424999999813735 ], [ 43449.30000000000291, 5953015.349999999627471 ], [ 43449.44999999999709, 5953015.349999999627471 ], [ 43449.44999999999709, 5953015.275000000372529 ], [ 43449.599999999998545, 5953015.275000000372529 ], [ 43449.599999999998545, 5953015.200000000186265 ], [ 43449.75, 5953015.200000000186265 ], [ 43449.75, 5953015.125 ], [ 43449.974999999998545, 5953015.125 ], [ 43449.974999999998545, 5953015.049999999813735 ], [ 43450.19999999999709, 5953015.049999999813735 ], [ 43450.19999999999709, 5953014.974999999627471 ], [ 43450.42500000000291, 5953014.974999999627471 ], [ 43450.42500000000291, 5953014.900000000372529 ], [ 43450.650000000001455, 5953014.900000000372529 ], [ 43450.650000000001455, 5953014.825000000186265 ], [ 43450.94999999999709, 5953014.825000000186265 ], [ 43450.94999999999709, 5953014.75 ], [ 43451.17500000000291, 5953014.75 ], [ 43451.17500000000291, 5953014.674999999813735 ], [ 43451.474999999998545, 5953014.674999999813735 ], [ 43451.474999999998545, 5953014.599999999627471 ], [ 43451.92500000000291, 5953014.599999999627471 ], [ 43451.92500000000291, 5953014.525000000372529 ], [ 43452.375, 5953014.525000000372529 ], [ 43452.375, 5953014.450000000186265 ], [ 43452.75, 5953014.450000000186265 ], [ 43452.75, 5953014.375 ], [ 43453.125, 5953014.375 ], [ 43453.125, 5953014.299999999813735 ], [ 43453.42500000000291, 5953014.299999999813735 ], [ 43453.42500000000291, 5953014.224999999627471 ], [ 43454.625, 5953014.224999999627471 ], [ 43454.625, 5953014.299999999813735 ], [ 43457.69999999999709, 5953014.299999999813735 ], [ 43457.69999999999709, 5953014.224999999627471 ], [ 43460.025000000001455, 5953014.224999999627471 ], [ 43460.025000000001455, 5953014.299999999813735 ], [ 43461.525000000001455, 5953014.299999999813735 ], [ 43461.525000000001455, 5953014.375 ], [ 43462.19999999999709, 5953014.375 ], [ 43462.19999999999709, 5953014.450000000186265 ], [ 43463.025000000001455, 5953014.450000000186265 ], [ 43463.025000000001455, 5953014.525000000372529 ], [ 43463.92500000000291, 5953014.525000000372529 ], [ 43463.92500000000291, 5953014.599999999627471 ], [ 43464.900000000001455, 5953014.599999999627471 ], [ 43464.900000000001455, 5953014.674999999813735 ], [ 43466.025000000001455, 5953014.674999999813735 ], [ 43466.025000000001455, 5953014.75 ], [ 43467.224999999998545, 5953014.75 ], [ 43467.224999999998545, 5953014.825000000186265 ], [ 43467.974999999998545, 5953014.825000000186265 ], [ 43467.974999999998545, 5953014.900000000372529 ], [ 43468.724999999998545, 5953014.900000000372529 ], [ 43468.724999999998545, 5953014.974999999627471 ], [ 43469.25, 5953014.974999999627471 ], [ 43469.25, 5953015.049999999813735 ], [ 43469.55000000000291, 5953015.049999999813735 ], [ 43469.55000000000291, 5953015.125 ], [ 43469.775000000001455, 5953015.125 ], [ 43469.775000000001455, 5953015.200000000186265 ], [ 43470.07499999999709, 5953015.200000000186265 ], [ 43470.07499999999709, 5953015.275000000372529 ], [ 43470.30000000000291, 5953015.275000000372529 ], [ 43470.30000000000291, 5953015.349999999627471 ], [ 43470.44999999999709, 5953015.349999999627471 ], [ 43470.44999999999709, 5953015.424999999813735 ], [ 43470.67500000000291, 5953015.424999999813735 ], [ 43470.67500000000291, 5953015.5 ], [ 43470.82499999999709, 5953015.5 ], [ 43470.82499999999709, 5953015.575000000186265 ], [ 43470.974999999998545, 5953015.575000000186265 ], [ 43470.974999999998545, 5953015.650000000372529 ], [ 43471.05000000000291, 5953015.650000000372529 ], [ 43471.05000000000291, 5953015.724999999627471 ], [ 43471.125, 5953015.724999999627471 ], [ 43471.125, 5953015.799999999813735 ], [ 43471.19999999999709, 5953015.799999999813735 ], [ 43471.19999999999709, 5953015.875 ], [ 43471.275000000001455, 5953015.875 ], [ 43471.275000000001455, 5953015.950000000186265 ], [ 43471.349999999998545, 5953015.950000000186265 ], [ 43471.349999999998545, 5953016.099999999627471 ], [ 43471.42500000000291, 5953016.099999999627471 ], [ 43471.42500000000291, 5953016.174999999813735 ], [ 43471.5, 5953016.174999999813735 ], [ 43471.5, 5953016.25 ], [ 43471.57499999999709, 5953016.25 ], [ 43471.57499999999709, 5953016.325000000186265 ], [ 43471.650000000001455, 5953016.325000000186265 ], [ 43471.650000000001455, 5953016.400000000372529 ], [ 43471.724999999998545, 5953016.400000000372529 ], [ 43471.724999999998545, 5953016.474999999627471 ], [ 43471.875, 5953016.474999999627471 ], [ 43471.875, 5953016.549999999813735 ], [ 43471.94999999999709, 5953016.549999999813735 ], [ 43471.94999999999709, 5953016.625 ], [ 43472.025000000001455, 5953016.625 ], [ 43472.025000000001455, 5953016.700000000186265 ], [ 43472.17500000000291, 5953016.700000000186265 ], [ 43472.17500000000291, 5953016.775000000372529 ], [ 43472.25, 5953016.775000000372529 ], [ 43472.25, 5953016.849999999627471 ], [ 43472.400000000001455, 5953016.849999999627471 ], [ 43472.400000000001455, 5953016.924999999813735 ], [ 43472.474999999998545, 5953016.924999999813735 ], [ 43472.474999999998545, 5953017.0 ], [ 43472.625, 5953017.0 ], [ 43472.625, 5953017.075000000186265 ], [ 43472.775000000001455, 5953017.075000000186265 ], [ 43472.775000000001455, 5953017.150000000372529 ], [ 43472.92500000000291, 5953017.150000000372529 ], [ 43472.92500000000291, 5953017.224999999627471 ], [ 43473.07499999999709, 5953017.224999999627471 ], [ 43473.07499999999709, 5953017.299999999813735 ], [ 43473.150000000001455, 5953017.299999999813735 ], [ 43473.150000000001455, 5953017.375 ], [ 43473.224999999998545, 5953017.375 ], [ 43473.224999999998545, 5953017.450000000186265 ], [ 43473.30000000000291, 5953017.450000000186265 ], [ 43473.30000000000291, 5953017.674999999813735 ], [ 43473.375, 5953017.674999999813735 ], [ 43473.375, 5953017.825000000186265 ], [ 43473.44999999999709, 5953017.825000000186265 ], [ 43473.44999999999709, 5953017.974999999627471 ], [ 43473.525000000001455, 5953017.974999999627471 ], [ 43473.525000000001455, 5953018.125 ], [ 43473.599999999998545, 5953018.125 ], [ 43473.599999999998545, 5953018.275000000372529 ], [ 43473.67500000000291, 5953018.275000000372529 ], [ 43473.67500000000291, 5953018.424999999813735 ], [ 43473.75, 5953018.424999999813735 ], [ 43473.75, 5953018.5 ], [ 43473.82499999999709, 5953018.5 ], [ 43473.82499999999709, 5953018.650000000372529 ], [ 43473.900000000001455, 5953018.650000000372529 ], [ 43473.900000000001455, 5953018.799999999813735 ], [ 43473.974999999998545, 5953018.799999999813735 ], [ 43473.974999999998545, 5953018.875 ], [ 43474.05000000000291, 5953018.875 ], [ 43474.05000000000291, 5953018.950000000186265 ], [ 43474.125, 5953018.950000000186265 ], [ 43474.125, 5953019.099999999627471 ], [ 43474.19999999999709, 5953019.099999999627471 ], [ 43474.19999999999709, 5953019.174999999813735 ], [ 43474.275000000001455, 5953019.174999999813735 ], [ 43474.275000000001455, 5953019.25 ], [ 43474.349999999998545, 5953019.25 ], [ 43474.349999999998545, 5953019.325000000186265 ], [ 43474.42500000000291, 5953019.325000000186265 ], [ 43474.42500000000291, 5953019.400000000372529 ], [ 43474.5, 5953019.400000000372529 ], [ 43474.5, 5953019.700000000186265 ], [ 43474.57499999999709, 5953019.700000000186265 ], [ 43474.57499999999709, 5953020.0 ], [ 43474.650000000001455, 5953020.0 ], [ 43474.650000000001455, 5953020.299999999813735 ], [ 43474.724999999998545, 5953020.299999999813735 ], [ 43474.724999999998545, 5953020.599999999627471 ], [ 43474.80000000000291, 5953020.599999999627471 ], [ 43474.80000000000291, 5953020.900000000372529 ], [ 43474.875, 5953020.900000000372529 ], [ 43474.875, 5953021.125 ], [ 43474.94999999999709, 5953021.125 ], [ 43474.94999999999709, 5953022.25 ], [ 43474.875, 5953022.25 ], [ 43474.875, 5953023.299999999813735 ], [ 43474.80000000000291, 5953023.299999999813735 ], [ 43474.80000000000291, 5953024.200000000186265 ], [ 43474.724999999998545, 5953024.200000000186265 ], [ 43474.724999999998545, 5953025.25 ], [ 43474.650000000001455, 5953025.25 ], [ 43474.650000000001455, 5953026.075000000186265 ], [ 43474.57499999999709, 5953026.075000000186265 ], [ 43474.57499999999709, 5953026.900000000372529 ], [ 43474.5, 5953026.900000000372529 ], [ 43474.5, 5953027.424999999813735 ], [ 43474.42500000000291, 5953027.424999999813735 ], [ 43474.42500000000291, 5953027.724999999627471 ], [ 43474.349999999998545, 5953027.724999999627471 ], [ 43474.349999999998545, 5953028.025000000372529 ], [ 43474.275000000001455, 5953028.025000000372529 ], [ 43474.275000000001455, 5953028.400000000372529 ], [ 43474.19999999999709, 5953028.400000000372529 ], [ 43474.19999999999709, 5953028.775000000372529 ], [ 43474.125, 5953028.775000000372529 ], [ 43474.125, 5953029.224999999627471 ], [ 43474.05000000000291, 5953029.224999999627471 ], [ 43474.05000000000291, 5953029.450000000186265 ], [ 43473.974999999998545, 5953029.450000000186265 ], [ 43473.974999999998545, 5953029.75 ], [ 43473.900000000001455, 5953029.75 ], [ 43473.900000000001455, 5953029.974999999627471 ], [ 43473.82499999999709, 5953029.974999999627471 ], [ 43473.82499999999709, 5953030.275000000372529 ], [ 43473.75, 5953030.275000000372529 ], [ 43473.75, 5953030.575000000186265 ], [ 43473.67500000000291, 5953030.575000000186265 ], [ 43473.67500000000291, 5953030.950000000186265 ], [ 43473.599999999998545, 5953030.950000000186265 ], [ 43473.599999999998545, 5953031.25 ], [ 43473.525000000001455, 5953031.25 ], [ 43473.525000000001455, 5953031.474999999627471 ], [ 43473.44999999999709, 5953031.474999999627471 ], [ 43473.44999999999709, 5953031.700000000186265 ], [ 43473.375, 5953031.700000000186265 ], [ 43473.375, 5953031.924999999813735 ], [ 43473.30000000000291, 5953031.924999999813735 ], [ 43473.30000000000291, 5953032.075000000186265 ], [ 43473.224999999998545, 5953032.075000000186265 ], [ 43473.224999999998545, 5953032.299999999813735 ], [ 43473.150000000001455, 5953032.299999999813735 ], [ 43473.150000000001455, 5953032.450000000186265 ], [ 43473.07499999999709, 5953032.450000000186265 ], [ 43473.07499999999709, 5953032.674999999813735 ], [ 43473.0, 5953032.674999999813735 ], [ 43473.0, 5953032.75 ], [ 43472.92500000000291, 5953032.75 ], [ 43472.92500000000291, 5953032.825000000186265 ], [ 43472.849999999998545, 5953032.825000000186265 ], [ 43472.849999999998545, 5953032.900000000372529 ], [ 43472.775000000001455, 5953032.900000000372529 ], [ 43472.775000000001455, 5953032.974999999627471 ], [ 43472.69999999999709, 5953032.974999999627471 ], [ 43472.69999999999709, 5953033.049999999813735 ], [ 43472.625, 5953033.049999999813735 ], [ 43472.625, 5953033.125 ], [ 43472.55000000000291, 5953033.125 ], [ 43472.55000000000291, 5953033.200000000186265 ], [ 43472.400000000001455, 5953033.200000000186265 ], [ 43472.400000000001455, 5953033.275000000372529 ], [ 43472.25, 5953033.275000000372529 ], [ 43472.25, 5953033.349999999627471 ], [ 43472.099999999998545, 5953033.349999999627471 ], [ 43472.099999999998545, 5953033.424999999813735 ], [ 43471.94999999999709, 5953033.424999999813735 ], [ 43471.94999999999709, 5953033.5 ], [ 43471.875, 5953033.5 ], [ 43471.875, 5953033.575000000186265 ], [ 43471.724999999998545, 5953033.575000000186265 ], [ 43471.724999999998545, 5953033.650000000372529 ], [ 43471.57499999999709, 5953033.650000000372529 ], [ 43471.57499999999709, 5953033.724999999627471 ], [ 43471.42500000000291, 5953033.724999999627471 ], [ 43471.42500000000291, 5953033.799999999813735 ], [ 43471.275000000001455, 5953033.799999999813735 ], [ 43471.275000000001455, 5953033.875 ], [ 43471.125, 5953033.875 ], [ 43471.125, 5953033.950000000186265 ], [ 43470.974999999998545, 5953033.950000000186265 ], [ 43470.974999999998545, 5953034.025000000372529 ], [ 43470.75, 5953034.025000000372529 ], [ 43470.75, 5953034.099999999627471 ], [ 43470.599999999998545, 5953034.099999999627471 ], [ 43470.599999999998545, 5953034.174999999813735 ], [ 43470.44999999999709, 5953034.174999999813735 ], [ 43470.44999999999709, 5953034.25 ], [ 43470.224999999998545, 5953034.25 ], [ 43470.224999999998545, 5953034.325000000186265 ], [ 43470.07499999999709, 5953034.325000000186265 ], [ 43470.07499999999709, 5953034.400000000372529 ], [ 43470.0, 5953034.400000000372529 ], [ 43470.0, 5953034.474999999627471 ], [ 43469.849999999998545, 5953034.474999999627471 ], [ 43469.849999999998545, 5953034.549999999813735 ], [ 43469.69999999999709, 5953034.549999999813735 ], [ 43469.69999999999709, 5953034.625 ], [ 43469.55000000000291, 5953034.625 ], [ 43469.55000000000291, 5953034.700000000186265 ], [ 43469.474999999998545, 5953034.700000000186265 ], [ 43469.474999999998545, 5953034.775000000372529 ], [ 43469.32499999999709, 5953034.775000000372529 ], [ 43469.32499999999709, 5953034.849999999627471 ], [ 43469.25, 5953034.849999999627471 ], [ 43469.25, 5953034.924999999813735 ], [ 43469.099999999998545, 5953034.924999999813735 ], [ 43469.099999999998545, 5953035.0 ], [ 43468.57499999999709, 5953035.0 ], [ 43468.57499999999709, 5953035.075000000186265 ], [ 43467.599999999998545, 5953035.075000000186265 ], [ 43467.599999999998545, 5953035.150000000372529 ], [ 43466.69999999999709, 5953035.150000000372529 ] ] ] } },
{ "type": "Feature", "properties": { "value": 1.0, "building_id": 2, "area": 65.165624999792129 }, "geometry": { "type": "Polygon", "coordinates": [ [ [ 43445.625, 5952970.125 ], [ 43445.625, 5952969.900000000372529 ], [ 43445.55000000000291, 5952969.900000000372529 ], [ 43445.55000000000291, 5952969.75 ], [ 43445.474999999998545, 5952969.75 ], [ 43445.474999999998545, 5952969.599999999627471 ], [ 43445.400000000001455, 5952969.599999999627471 ], [ 43445.400000000001455, 5952969.450000000186265 ], [ 43445.32499999999709, 5952969.450000000186265 ], [ 43445.32499999999709, 5952969.375 ], [ 43445.25, 5952969.375 ], [ 43445.25, 5952969.224999999627471 ], [ 43445.17500000000291, 5952969.224999999627471 ], [ 43445.17500000000291, 5952969.150000000372529 ], [ 43445.099999999998545, 5952969.150000000372529 ], [ 43445.099999999998545, 5952969.0 ], [ 43445.025000000001455, 5952969.0 ], [ 43445.025000000001455, 5952968.924999999813735 ], [ 43444.94999999999709, 5952968.924999999813735 ], [ 43444.94999999999709, 5952968.775000000372529 ], [ 43444.875, 5952968.775000000372529 ], [ 43444.875, 5952968.700000000186265 ], [ 43444.80000000000291, 5952968.700000000186265 ], [ 43444.80000000000291, 5952968.625 ], [ 43444.724999999998545, 5952968.625 ], [ 43444.724999999998545, 5952968.549999999813735 ], [ 43444.650000000001455, 5952968.549999999813735 ], [ 43444.650000000001455, 5952968.400000000372529 ], [ 43444.57499999999709, 5952968.400000000372529 ], [ 43444.57499999999709, 5952968.325000000186265 ], [ 43444.5, 5952968.325000000186265 ], [ 43444.5, 5952968.25 ], [ 43444.42500000000291, 5952968.25 ], [ 43444.42500000000291, 5952968.174999999813735 ], [ 43444.349999999998545, 5952968.174999999813735 ], [ 43444.349999999998545, 5952968.099999999627471 ], [ 43444.275000000001455, 5952968.099999999627471 ], [ 43444.275000000001455, 5952968.025000000372529 ], [ 43444.19999999999709, 5952968.025000000372529 ], [ 43444.19999999999709, 5952967.950000000186265 ], [ 43444.05000000000291, 5952967.950000000186265 ], [ 43444.05000000000291, 5952967.875 ], [ 43443.974999999998545, 5952967.875 ], [ 43443.974999999998545, 5952967.799999999813735 ], [ 43443.900000000001455, 5952967.799999999813735 ], [ 43443.900000000001455, 5952967.724999999627471 ], [ 43443.75, 5952967.724999999627471 ], [ 43443.75, 5952967.575000000186265 ], [ 43443.67500000000291, 5952967.575000000186265 ], [ 43443.67500000000291, 5952967.424999999813735 ], [ 43443.599999999998545, 5952967.424999999813735 ], [ 43443.599999999998545, 5952967.275000000372529 ], [ 43443.525000000001455, 5952967.275000000372529 ], [ 43443.525000000001455, 5952967.049999999813735 ], [ 43443.44999999999709, 5952967.049999999813735 ], [ 43443.44999999999709, 5952966.900000000372529 ], [ 43443.375, 5952966.900000000372529 ], [ 43443.375, 5952966.674999999813735 ], [ 43443.30000000000291, 5952966.674999999813735 ], [ 43443.30000000000291, 5952966.224999999627471 ], [ 43443.224999999998545, 5952966.224999999627471 ], [ 43443.224999999998545, 5952965.775000000372529 ], [ 43443.150000000001455, 5952965.775000000372529 ], [ 43443.150000000001455, 5952965.325000000186265 ], [ 43443.07499999999709, 5952965.325000000186265 ], [ 43443.07499999999709, 5952964.875 ], [ 43443.0, 5952964.875 ], [ 43443.0, 5952963.825000000186265 ], [ 43442.92500000000291, 5952963.825000000186265 ], [ 43442.92500000000291, 5952962.400000000372529 ], [ 43442.849999999998545, 5952962.400000000372529 ], [ 43442.849999999998545, 5952960.599999999627471 ], [ 43442.775000000001455, 5952960.599999999627471 ], [ 43442.775000000001455, 5952959.625 ], [ 43442.69999999999709, 5952959.625 ], [ 43442.69999999999709, 5952959.174999999813735 ], [ 43442.625, 5952959.174999999813735 ], [ 43442.625, 5952958.950000000186265 ], [ 43442.55000000000291, 5952958.950000000186265 ], [ 43442.55000000000291, 5952958.724999999627471 ], [ 43442.474999999998545, 5952958.724999999627471 ], [ 43442.474999999998545, 5952958.5 ], [ 43442.400000000001455, 5952958.5 ], [ 43442.400000000001455, 5952958.275000000372529 ], [ 43442.32499999999709, 5952958.275000000372529 ], [ 43442.32499999999709, 5952958.125 ], [ 43442.25, 5952958.125 ], [ 43442.25, 5952957.974999999627471 ], [ 43442.17500000000291, 5952957.974999999627471 ], [ 43442.17500000000291, 5952957.900000000372529 ], [ 43442.099999999998545, 5952957.900000000372529 ], [ 43442.099999999998545, 5952957.825000000186265 ], [ 43442.025000000001455, 5952957.825000000186265 ], [ 43442.025000000001455, 5952957.75 ], [ 43441.94999999999709, 5952957.75 ], [ 43441.94999999999709, 5952957.674999999813735 ], [ 43441.875, 5952957.674999999813735 ], [ 43441.875, 5952957.599999999627471 ], [ 43441.80000000000291, 5952957.599999999627471 ], [ 43441.80000000000291, 5952957.525000000372529 ], [ 43441.724999999998545, 5952957.525000000372529 ], [ 43441.724999999998545, 5952957.450000000186265 ], [ 43441.57499999999709, 5952957.450000000186265 ], [ 43441.57499999999709, 5952957.375 ], [ 43441.5, 5952957.375 ], [ 43441.5, 5952957.299999999813735 ], [ 43441.349999999998545, 5952957.299999999813735 ], [ 43441.349999999998545, 5952957.224999999627471 ], [ 43441.19999999999709, 5952957.224999999627471 ], [ 43441.19999999999709, 5952957.150000000372529 ], [ 43440.974999999998545, 5952957.150000000372529 ], [ 43440.974999999998545, 5952957.075000000186265 ], [ 43440.75, 5952957.075000000186265 ], [ 43440.75, 5952957.0 ], [ 43440.375, 5952957.0 ], [ 43440.375, 5952956.924999999813735 ], [ 43440.44999999999709, 5952956.924999999813735 ], [ 43440.44999999999709, 5952956.849999999627471 ], [ 43440.82499999999709, 5952956.849999999627471 ], [ 43440.82499999999709, 5952956.775000000372529 ], [ 43441.125, 5952956.775000000372529 ], [ 43441.125, 5952956.700000000186265 ], [ 43441.275000000001455, 5952956.700000000186265 ], [ 43441.275000000001455, 5952956.625 ], [ 43441.5, 5952956.625 ], [ 43441.5, 5952956.549999999813735 ], [ 43441.650000000001455, 5952956.549999999813735 ], [ 43441.650000000001455, 5952956.474999999627471 ], [ 43441.724999999998545, 5952956.474999999627471 ], [ 43441.724999999998545, 5952956.400000000372529 ], [ 43441.875, 5952956.400000000372529 ], [ 43441.875, 5952956.325000000186265 ], [ 43441.94999999999709, 5952956.325000000186265 ], [ 43441.94999999999709, 5952956.25 ], [ 43442.099999999998545, 5952956.25 ], [ 43442.099999999998545, 5952956.174999999813735 ], [ 43442.17500000000291, 5952956.174999999813735 ], [ 43442.17500000000291, 5952956.099999999627471 ], [ 43442.25, 5952956.099999999627471 ], [ 43442.25, 5952955.950000000186265 ], [ 43442.32499999999709, 5952955.950000000186265 ], [ 43442.32499999999709, 5952955.875 ], [ 43442.400000000001455, 5952955.875 ], [ 43442.400000000001455, 5952955.724999999627471 ], [ 43442.474999999998545, 5952955.724999999627471 ], [ 43442.474999999998545, 5952955.5 ], [ 43442.55000000000291, 5952955.5 ], [ 43442.55000000000291, 5952955.275000000372529 ], [ 43442.625, 5952955.275000000372529 ], [ 43442.625, 5952954.974999999627471 ], [ 43442.69999999999709, 5952954.974999999627471 ], [ 43442.69999999999709, 5952954.75 ], [ 43442.775000000001455, 5952954.75 ], [ 43442.775000000001455, 5952954.525000000372529 ], [ 43442.849999999998545, 5952954.525000000372529 ], [ 43442.849999999998545, 5952954.224999999627471 ], [ 43442.92500000000291, 5952954.224999999627471 ], [ 43442.92500000000291, 5952953.924999999813735 ], [ 43443.0, 5952953.924999999813735 ], [ 43443.0, 5952953.474999999627471 ], [ 43443.07499999999709, 5952953.474999999627471 ], [ 43443.07499999999709, 5952953.025000000372529 ], [ 43443.150000000001455, 5952953.025000000372529 ], [ 43443.150000000001455, 5952952.724999999627471 ], [ 43443.224999999998545, 5952952.724999999627471 ], [ 43443.224999999998545, 5952952.5 ], [ 43443.30000000000291, 5952952.5 ], [ 43443.30000000000291, 5952952.275000000372529 ], [ 43443.375, 5952952.275000000372529 ], [ 43443.375, 5952951.974999999627471 ], [ 43443.44999999999709, 5952951.974999999627471 ], [ 43443.44999999999709, 5952951.674999999813735 ], [ 43443.525000000001455, 5952951.674999999813735 ], [ 43443.525000000001455, 5952951.375 ], [ 43443.599999999998545, 5952951.375 ], [ 43443.599999999998545, 5952951.075000000186265 ], [ 43443.75, 5952951.075000000186265 ], [ 43443.75, 5952951.0 ], [ 43444.275000000001455, 5952951.0 ], [ 43444.275000000001455, 5952951.075000000186265 ], [ 43445.775000000001455, 5952951.075000000186265 ], [ 43445.775000000001455, 5952951.75 ], [ 43445.849999999998545, 5952951.75 ], [ 43445.849999999998545, 5952953.174999999813735 ], [ 43445.775000000001455, 5952953.174999999813735 ], [ 43445.775000000001455, 5952953.549999999813735 ], [ 43445.69999999999709, 5952953.549999999813735 ], [ 43445.69999999999709, 5952953.775000000372529 ], [ 43445.625, 5952953.775000000372529 ], [ 43445.625, 5952953.849999999627471 ], [ 43445.55000000000291, 5952953.849999999627471 ], [ 43445.55000000000291, 5952954.0 ], [ 43445.474999999998545, 5952954.0 ], [ 43445.474999999998545, 5952954.075000000186265 ], [ 43445.400000000001455, 5952954.075000000186265 ], [ 43445.400000000001455, 5952954.224999999627471 ], [ 43445.32499999999709, 5952954.224999999627471 ], [ 43445.32499999999709, 5952954.299999999813735 ], [ 43445.25, 5952954.299999999813735 ], [ 43445.25, 5952954.450000000186265 ], [ 43445.17500000000291, 5952954.450000000186265 ], [ 43445.17500000000291, 5952954.599999999627471 ], [ 43445.099999999998545, 5952954.599999999627471 ], [ 43445.099999999998545, 5952954.75 ], [ 43445.025000000001455, 5952954.75 ], [ 43445.025000000001455, 5952954.974999999627471 ], [ 43444.94999999999709, 5952954.974999999627471 ], [ 43444.94999999999709, 5952955.125 ], [ 43444.875, 5952955.125 ], [ 43444.875, 5952955.275000000372529 ], [ 43444.80000000000291, 5952955.275000000372529 ], [ 43444.80000000000291, 5952955.5 ], [ 43444.724999999998545, 5952955.5 ], [ 43444.724999999998545, 5952955.650000000372529 ], [ 43444.650000000001455, 5952955.650000000372529 ], [ 43444.650000000001455, 5952955.799999999813735 ], [ 43444.57499999999709, 5952955.799999999813735 ], [ 43444.57499999999709, 5952956.025000000372529 ], [ 43444.5, 5952956.025000000372529 ], [ 43444.5, 5952956.25 ], [ 43444.42500000000291, 5952956.25 ], [ 43444.42500000000291, 5952956.400000000372529 ], [ 43444.349999999998545, 5952956.400000000372529 ], [ 43444.349999999998545, 5952956.625 ], [ 43444.275000000001455, 5952956.625 ], [ 43444.275000000001455, 5952956.849999999627471 ], [ 43444.19999999999709, 5952956.849999999627471 ], [ 43444.19999999999709, 5952957.0 ], [ 43444.275000000001455, 5952957.0 ], [ 43444.275000000001455, 5952957.224999999627471 ], [ 43444.349999999998545, 5952957.224999999627471 ], [ 43444.349999999998545, 5952957.450000000186265 ], [ 43444.42500000000291, 5952957.450000000186265 ], [ 43444.42500000000291, 5952957.674999999813735 ], [ 43444.5, 5952957.674999999813735 ], [ 43444.5, 5952957.900000000372529 ], [ 43444.57499999999709, 5952957.900000000372529 ], [ 43444.57499999999709, 5952958.049999999813735 ], [ 43444.650000000001455, 5952958.049999999813735 ], [ 43444.650000000001455, 5952958.275000000372529 ], [ 43444.724999999998545, 5952958.275000000372529 ], [ 43444.724999999998545, 5952958.424999999813735 ], [ 43444.80000000000291, 5952958.424999999813735 ], [ 43444.80000000000291, 5952958.575000000186265 ], [ 43444.875, 5952958.575000000186265 ], [ 43444.875, 5952958.724999999627471 ], [ 43444.94999999999709, 5952958.724999999627471 ], [ 43444.94999999999709, 5952958.875 ], [ 43445.025000000001455, 5952958.875 ], [ 43445.025000000001455, 5952958.950000000186265 ], [ 43445.25, 5952958.950000000186265 ], [ 43445.25, 5952959.025000000372529 ], [ 43445.400000000001455, 5952959.025000000372529 ], [ 43445.400000000001455, 5952959.099999999627471 ], [ 43445.625, 5952959.099999999627471 ], [ 43445.625, 5952959.174999999813735 ], [ 43445.69999999999709, 5952959.174999999813735 ], [ 43445.69999999999709, 5952959.25 ], [ 43445.775000000001455, 5952959.25 ], [ 43445.775000000001455, 5952959.325000000186265 ], [ 43445.849999999998545, 5952959.325000000186265 ], [ 43445.849999999998545, 5952959.400000000372529 ], [ 43445.92500000000291, 5952959.400000000372529 ], [ 43445.92500000000291, 5952959.474999999627471 ], [ 43446.0, 5952959.474999999627471 ], [ 43446.0, 5952959.625 ], [ 43446.07499999999709, 5952959.625 ], [ 43446.07499999999709, 5952959.700000000186265 ], [ 43446.150000000001455, 5952959.700000000186265 ], [ 43446.150000000001455, 5952959.849999999627471 ], [ 43446.224999999998545, 5952959.849999999627471 ], [ 43446.224999999998545, 5952959.924999999813735 ], [ 43446.30000000000291, 5952959.924999999813735 ], [ 43446.30000000000291, 5952960.075000000186265 ], [ 43446.375, 5952960.075000000186265 ], [ 43446.375, 5952960.224999999627471 ], [ 43446.44999999999709, 5952960.224999999627471 ], [ 43446.44999999999709, 5952960.299999999813735 ], [ 43446.525000000001455, 5952960.299999999813735 ], [ 43446.525000000001455, 5952960.450000000186265 ], [ 43446.599999999998545, 5952960.450000000186265 ], [ 43446.599999999998545, 5952960.599999999627471 ], [ 43446.67500000000291, 5952960.599999999627471 ], [ 43446.67500000000291, 5952960.825000000186265 ], [ 43446.75, 5952960.825000000186265 ], [ 43446.75, 5952960.974999999627471 ], [ 43446.82499999999709, 5952960.974999999627471 ], [ 43446.82499999999709, 5952961.125 ], [ 43446.900000000001455, 5952961.125 ], [ 43446.900000000001455, 5952961.275000000372529 ], [ 43446.974999999998545, 5952961.275000000372529 ], [ 43446.974999999998545, 5952961.349999999627471 ], [ 43447.05000000000291, 5952961.349999999627471 ], [ 43447.05000000000291, 5952961.5 ], [ 43447.125, 5952961.5 ], [ 43447.125, 5952961.650000000372529 ], [ 43447.19999999999709, 5952961.650000000372529 ], [ 43447.19999999999709, 5952961.799999999813735 ], [ 43447.275000000001455, 5952961.799999999813735 ], [ 43447.275000000001455, 5952961.950000000186265 ], [ 43447.349999999998545, 5952961.950000000186265 ], [ 43447.349999999998545, 5952962.025000000372529 ], [ 43447.42500000000291, 5952962.025000000372529 ], [ 43447.42500000000291, 5952962.174999999813735 ], [ 43447.5, 5952962.174999999813735 ], [ 43447.5, 5952962.325000000186265 ], [ 43447.57499999999709, 5952962.325000000186265 ], [ 43447.57499999999709, 5952962.400000000372529 ], [ 43447.650000000001455, 5952962.400000000372529 ], [ 43447.650000000001455, 5952962.549999999813735 ], [ 43447.724999999998545, 5952962.549999999813735 ], [ 43447.724999999998545, 5952962.700000000186265 ], [ 43447.80000000000291, 5952962.700000000186265 ], [ 43447.80000000000291, 5952962.924999999813735 ], [ 43447.875, 5952962.924999999813735 ], [ 43447.875, 5952963.150000000372529 ], [ 43447.94999999999709, 5952963.150000000372529 ], [ 43447.94999999999709, 5952963.299999999813735 ], [ 43448.025000000001455, 5952963.299999999813735 ], [ 43448.025000000001455, 5952963.525000000372529 ], [ 43448.099999999998545, 5952963.525000000372529 ], [ 43448.099999999998545, 5952963.75 ], [ 43448.17500000000291, 5952963.75 ], [ 43448.17500000000291, 5952963.900000000372529 ], [ 43448.25, 5952963.900000000372529 ], [ 43448.25, 5952964.125 ], [ 43448.32499999999709, 5952964.125 ], [ 43448.32499999999709, 5952964.275000000372529 ], [ 43448.400000000001455, 5952964.275000000372529 ], [ 43448.400000000001455, 5952964.5 ], [ 43448.474999999998545, 5952964.5 ], [ 43448.474999999998545, 5952964.650000000372529 ], [ 43448.55000000000291, 5952964.650000000372529 ], [ 43448.55000000000291, 5952965.549999999813735 ], [ 43448.474999999998545, 5952965.549999999813735 ], [ 43448.474999999998545, 5952966.75 ], [ 43448.400000000001455, 5952966.75 ], [ 43448.400000000001455, 5952966.900000000372529 ], [ 43448.32499999999709, 5952966.900000000372529 ], [ 43448.32499999999709, 5952967.049999999813735 ], [ 43448.25, 5952967.049999999813735 ], [ 43448.25, 5952967.200000000186265 ], [ 43448.17500000000291, 5952967.200000000186265 ], [ 43448.17500000000291, 5952967.349999999627471 ], [ 43448.099999999998545, 5952967.349999999627471 ], [ 43448.099999999998545, 5952967.5 ], [ 43448.025000000001455, 5952967.5 ], [ 43448.025000000001455, 5952967.575000000186265 ], [ 43447.94999999999709, 5952967.575000000186265 ], [ 43447.94999999999709, 5952967.724999999627471 ], [ 43447.875, 5952967.724999999627471 ], [ 43447.875, 5952967.875 ], [ 43447.80000000000291, 5952967.875 ], [ 43447.80000000000291, 5952968.025000000372529 ], [ 43447.724999999998545, 5952968.025000000372529 ], [ 43447.724999999998545, 5952968.174999999813735 ], [ 43447.650000000001455, 5952968.174999999813735 ], [ 43447.650000000001455, 5952968.325000000186265 ], [ 43447.57499999999709, 5952968.325000000186265 ], [ 43447.57499999999709, 5952968.400000000372529 ], [ 43447.5, 5952968.400000000372529 ], [ 43447.5, 5952968.474999999627471 ], [ 43447.42500000000291, 5952968.474999999627471 ], [ 43447.42500000000291, 5952968.549999999813735 ], [ 43447.349999999998545, 5952968.549999999813735 ], [ 43447.349999999998545, 5952968.625 ], [ 43447.275000000001455, 5952968.625 ], [ 43447.275000000001455, 5952968.700000000186265 ], [ 43447.19999999999709, 5952968.700000000186265 ], [ 43447.19999999999709, 5952968.775000000372529 ], [ 43447.125, 5952968.775000000372529 ], [ 43447.125, 5952968.849999999627471 ], [ 43447.05000000000291, 5952968.849999999627471 ], [ 43447.05000000000291, 5952968.924999999813735 ], [ 43446.974999999998545, 5952968.924999999813735 ], [ 43446.974999999998545, 5952969.0 ], [ 43446.82499999999709, 5952969.0 ], [ 43446.82499999999709, 5952969.075000000186265 ], [ 43446.75, 5952969.075000000186265 ], [ 43446.75, 5952969.150000000372529 ], [ 43446.67500000000291, 5952969.150000000372529 ], [ 43446.67500000000291, 5952969.224999999627471 ], [ 43446.599999999998545, 5952969.224999999627471 ], [ 43446.599999999998545, 5952969.299999999813735 ], [ 43446.525000000001455, 5952969.299999999813735 ], [ 43446.525000000001455, 5952969.375 ], [ 43446.44999999999709, 5952969.375 ], [ 43446.44999999999709, 5952969.450000000186265 ], [ 43446.375, 5952969.450000000186265 ], [ 43446.375, 5952969.525000000372529 ], [ 43446.30000000000291, 5952969.525000000372529 ], [ 43446.30000000000291, 5952969.599999999627471 ], [ 43446.224999999998545, 5952969.599999999627471 ], [ 43446.224999999998545, 5952969.674999999813735 ], [ 43446.150000000001455, 5952969.674999999813735 ], [ 43446.150000000001455, 5952969.75 ], [ 43446.07499999999709, 5952969.75 ], [ 43446.07499999999709, 5952969.825000000186265 ], [ 43446.0, 5952969.825000000186265 ], [ 43446.0, 5952969.900000000372529 ], [ 43445.92500000000291, 5952969.900000000372529 ], [ 43445.92500000000291, 5952969.974999999627471 ], [ 43445.849999999998545, 5952969.974999999627471 ], [ 43445.849999999998545, 5952970.049999999813735 ], [ 43445.775000000001455, 5952970.049999999813735 ], [ 43445.775000000001455, 5952970.125 ], [ 43445.625, 5952970.125 ] ] ] } },
{ "type": "Feature", "properties": { "value": 1.0, "building_id": 3, "area": 15.097499999209708 }, "geometry": { "type": "Polygon", "coordinates": [ [ [ 43430.025000000001455, 5952957.299999999813735 ], [ 43430.025000000001455, 5952957.224999999627471 ], [ 43429.94999999999709, 5952957.224999999627471 ], [ 43429.94999999999709, 5952957.150000000372529 ], [ 43429.875, 5952957.150000000372529 ], [ 43429.875, 5952957.0 ], [ 43429.80000000000291, 5952957.0 ], [ 43429.80000000000291, 5952956.924999999813735 ], [ 43429.724999999998545, 5952956.924999999813735 ], [ 43429.724999999998545, 5952956.325000000186265 ], [ 43429.80000000000291, 5952956.325000000186265 ], [ 43429.80000000000291, 5952952.950000000186265 ], [ 43429.875, 5952952.950000000186265 ], [ 43429.875, 5952951.075000000186265 ], [ 43429.94999999999709, 5952951.075000000186265 ], [ 43429.94999999999709, 5952951.0 ], [ 43430.025000000001455, 5952951.0 ], [ 43430.025000000001455, 5952950.924999999813735 ], [ 43430.17500000000291, 5952950.924999999813735 ], [ 43430.17500000000291, 5952951.0 ], [ 43430.400000000001455, 5952951.0 ], [ 43430.400000000001455, 5952951.075000000186265 ], [ 43430.474999999998545, 5952951.075000000186265 ], [ 43430.474999999998545, 5952951.299999999813735 ], [ 43430.55000000000291, 5952951.299999999813735 ], [ 43430.55000000000291, 5952951.599999999627471 ], [ 43430.625, 5952951.599999999627471 ], [ 43430.625, 5952951.900000000372529 ], [ 43430.69999999999709, 5952951.900000000372529 ], [ 43430.69999999999709, 5952952.125 ], [ 43430.775000000001455, 5952952.125 ], [ 43430.775000000001455, 5952952.349999999627471 ], [ 43430.849999999998545, 5952952.349999999627471 ], [ 43430.849999999998545, 5952952.5 ], [ 43430.92500000000291, 5952952.5 ], [ 43430.92500000000291, 5952952.650000000372529 ], [ 43431.0, 5952952.650000000372529 ], [ 43431.0, 5952952.799999999813735 ], [ 43431.07499999999709, 5952952.799999999813735 ], [ 43431.07499999999709, 5952952.875 ], [ 43431.150000000001455, 5952952.875 ], [ 43431.150000000001455, 5952952.950000000186265 ], [ 43431.224999999998545, 5952952.950000000186265 ], [ 43431.224999999998545, 5952953.099999999627471 ], [ 43431.30000000000291, 5952953.099999999627471 ], [ 43431.30000000000291, 5952953.325000000186265 ], [ 43431.375, 5952953.325000000186265 ], [ 43431.375, 5952953.400000000372529 ], [ 43431.44999999999709, 5952953.400000000372529 ], [ 43431.44999999999709, 5952953.549999999813735 ], [ 43431.525000000001455, 5952953.549999999813735 ], [ 43431.525000000001455, 5952953.700000000186265 ], [ 43431.599999999998545, 5952953.700000000186265 ], [ 43431.599999999998545, 5952953.775000000372529 ], [ 43431.67500000000291, 5952953.775000000372529 ], [ 43431.67500000000291, 5952953.849999999627471 ], [ 43431.75, 5952953.849999999627471 ], [ 43431.75, 5952953.924999999813735 ], [ 43431.82499999999709, 5952953.924999999813735 ], [ 43431.82499999999709, 5952954.0 ], [ 43431.900000000001455, 5952954.0 ], [ 43431.900000000001455, 5952954.075000000186265 ], [ 43431.974999999998545, 5952954.075000000186265 ], [ 43431.974999999998545, 5952954.150000000372529 ], [ 43432.05000000000291, 5952954.150000000372529 ], [ 43432.05000000000291, 5952954.299999999813735 ], [ 43432.125, 5952954.299999999813735 ], [ 43432.125, 5952954.450000000186265 ], [ 43432.19999999999709, 5952954.450000000186265 ], [ 43432.19999999999709, 5952954.525000000372529 ], [ 43432.275000000001455, 5952954.525000000372529 ], [ 43432.275000000001455, 5952954.674999999813735 ], [ 43432.349999999998545, 5952954.674999999813735 ], [ 43432.349999999998545, 5952954.75 ], [ 43432.42500000000291, 5952954.75 ], [ 43432.42500000000291, 5952954.825000000186265 ], [ 43432.5, 5952954.825000000186265 ], [ 43432.5, 5952954.900000000372529 ], [ 43432.57499999999709, 5952954.900000000372529 ], [ 43432.57499999999709, 5952954.974999999627471 ], [ 43432.650000000001455, 5952954.974999999627471 ], [ 43432.650000000001455, 5952955.125 ], [ 43432.724999999998545, 5952955.125 ], [ 43432.724999999998545, 5952955.200000000186265 ], [ 43432.80000000000291, 5952955.200000000186265 ], [ 43432.80000000000291, 5952955.349999999627471 ], [ 43432.875, 5952955.349999999627471 ], [ 43432.875, 5952955.424999999813735 ], [ 43432.94999999999709, 5952955.424999999813735 ], [ 43432.94999999999709, 5952955.5 ], [ 43433.025000000001455, 5952955.5 ], [ 43433.025000000001455, 5952955.575000000186265 ], [ 43433.099999999998545, 5952955.575000000186265 ], [ 43433.099999999998545, 5952955.650000000372529 ], [ 43433.17500000000291, 5952955.650000000372529 ], [ 43433.17500000000291, 5952955.724999999627471 ], [ 43433.32499999999709, 5952955.724999999627471 ], [ 43433.32499999999709, 5952955.799999999813735 ], [ 43433.400000000001455, 5952955.799999999813735 ], [ 43433.400000000001455, 5952955.875 ], [ 43433.55000000000291, 5952955.875 ], [ 43433.55000000000291, 5952955.950000000186265 ], [ 43433.625, 5952955.950000000186265 ], [ 43433.625, 5952956.025000000372529 ], [ 43433.775000000001455, 5952956.025000000372529 ], [ 43433.775000000001455, 5952956.099999999627471 ], [ 43434.0, 5952956.099999999627471 ], [ 43434.0, 5952956.174999999813735 ], [ 43434.07499999999709, 5952956.174999999813735 ], [ 43434.07499999999709, 5952956.25 ], [ 43434.150000000001455, 5952956.25 ], [ 43434.150000000001455, 5952956.325000000186265 ], [ 43434.224999999998545, 5952956.325000000186265 ], [ 43434.224999999998545, 5952956.400000000372529 ], [ 43434.375, 5952956.400000000372529 ], [ 43434.375, 5952956.474999999627471 ], [ 43434.525000000001455, 5952956.474999999627471 ], [ 43434.525000000001455, 5952956.549999999813735 ], [ 43434.599999999998545, 5952956.549999999813735 ], [ 43434.599999999998545, 5952956.625 ], [ 43434.82499999999709, 5952956.625 ], [ 43434.82499999999709, 5952956.700000000186265 ], [ 43434.974999999998545, 5952956.700000000186265 ], [ 43434.974999999998545, 5952956.775000000372529 ], [ 43435.19999999999709, 5952956.775000000372529 ], [ 43435.19999999999709, 5952956.849999999627471 ], [ 43435.42500000000291, 5952956.849999999627471 ], [ 43435.42500000000291, 5952956.924999999813735 ], [ 43435.349999999998545, 5952956.924999999813735 ], [ 43435.349999999998545, 5952957.0 ], [ 43434.900000000001455, 5952957.0 ], [ 43434.900000000001455, 5952957.075000000186265 ], [ 43434.44999999999709, 5952957.075000000186265 ], [ 43434.44999999999709, 5952957.150000000372529 ], [ 43434.0, 5952957.150000000372529 ], [ 43434.0, 5952957.224999999627471 ], [ 43432.724999999998545, 5952957.224999999627471 ], [ 43432.724999999998545, 5952957.299999999813735 ], [ 43430.025000000001455, 5952957.299999999813735 ] ] ] } }
]
}
