{
"type": "FeatureCollection",
"name": "42933E595182N_buildings",
"crs": { "type": "name", "properties": { "name": "urn:ogc:def:crs:EPSG::3776" } },
"features": [
{ "type": "Feature", "properties": { "value": 1.0, "building_id": 0, "area": 160.13812500095531 }, "geometry": { "type": "Polygon", "coordinates": [ [ [ 43217.099999999998545, 5952554.099999999627471 ], [ 43217.099999999998545, 5952554.025000000372529 ], [ 43217.025000000001455, 5952554.025000000372529 ], [ 43217.025000000001455, 5952553.950000000186265 ], [ 43216.94999999999709, 5952553.950000000186265 ], [ 43216.94999999999709, 5952553.875 ], [ 43216.875, 5952553.875 ], [ 43216.875, 5952553.799999999813735 ], [ 43216.724999999998545, 5952553.799999999813735 ], [ 43216.724999999998545, 5952553.724999999627471 ], [ 43216.650000000001455, 5952553.724999999627471 ], [ 43216.650000000001455, 5952553.650000000372529 ], [ 43216.5, 5952553.650000000372529 ], [ 43216.5, 5952553.575000000186265 ], [ 43216.42500000000291, 5952553.575000000186265 ], [ 43216.42500000000291, 5952553.5 ], [ 43216.275000000001455, 5952553.5 ], [ 43216.275000000001455, 5952553.424999999813735 ], [ 43216.125, 5952553.424999999813735 ], [ 43216.125, 5952553.349999999627471 ], [ 43215.974999999998545, 5952553.349999999627471 ], [ 43215.974999999998545, 5952553.275000000372529 ], [ 43215.82499999999709, 5952553.275000000372529 ], [ 43215.82499999999709, 5952553.200000000186265 ], [ 43215.67500000000291, 5952553.200000000186265 ], [ 43215.67500000000291, 5952553.125 ], [ 43215.44999999999709, 5952553.125 ], [ 43215.44999999999709, 5952553.049999999813735 ], [ 43215.30000000000291, 5952553.049999999813735 ], [ 43215.30000000000291, 5952552.974999999627471 ], [ 43215.150000000001455, 5952552.974999999627471 ], [ 43215.150000000001455, 5952552.900000000372529 ], [ 43215.07499999999709, 5952552.900000000372529 ], [ 43215.07499999999709, 5952552.825000000186265 ], [ 43215.0, 5952552.825000000186265 ], [ 43215.0, 5952552.75 ], [ 43214.92500000000291, 5952552.75 ], [ 43214.92500000000291, 5952552.674999999813735 ], [ 43214.849999999998545, 5952552.674999999813735 ], [ 43214.849999999998545, 5952552.525000000372529 ], [ 43214.775000000001455, 5952552.525000000372529 ], [ 43214.775000000001455, 5952552.450000000186265 ], [ 43214.69999999999709, 5952552.450000000186265 ], [ 43214.69999999999709, 5952552.299999999813735 ], [ 43214.625, 5952552.299999999813735 ], [ 43214.625, 5952552.224999999627471 ], [ 43214.55000000000291, 5952552.224999999627471 ], [ 43214.55000000000291, 5952552.075000000186265 ], [ 43214.474999999998545, 5952552.075000000186265 ], [ 43214.474999999998545, 5952552.0 ], [ 43214.400000000001455, 5952552.0 ], [ 43214.400000000001455, 5952551.924999999813735 ], [ 43214.32499999999709, 5952551.924999999813735 ], [ 43214.32499999999709, 5952551.849999999627471 ], [ 43214.25, 5952551.849999999627471 ], [ 43214.25, 5952551.775000000372529 ], [ 43214.17500000000291, 5952551.775000000372529 ], [ 43214.17500000000291, 5952551.700000000186265 ], [ 43214.099999999998545, 5952551.700000000186265 ], [ 43214.099999999998545, 5952551.625 ], [ 43214.025000000001455, 5952551.625 ], [ 43214.025000000001455, 5952551.549999999813735 ], [ 43213.94999999999709, 5952551.549999999813735 ], [ 43213.94999999999709, 5952551.474999999627471 ], [ 43213.875, 5952551.474999999627471 ], [ 43213.875, 5952551.400000000372529 ], [ 43213.724999999998545, 5952551.400000000372529 ], [ 43213.724999999998545, 5952551.325000000186265 ], [ 43213.650000000001455, 5952551.325000000186265 ], [ 43213.650000000001455, 5952551.25 ], [ 43213.57499999999709, 5952551.25 ], [ 43213.57499999999709, 5952551.174999999813735 ], [ 43213.42500000000291, 5952551.174999999813735 ], [ 43213.42500000000291, 5952551.099999999627471 ], [ 43213.275000000001455, 5952551.099999999627471 ], [ 43213.275000000001455, 5952551.025000000372529 ], [ 43213.19999999999709, 5952551.025000000372529 ], [ 43213.19999999999709, 5952550.950000000186265 ], [ 43213.125, 5952550.950000000186265 ], [ 43213.125, 5952550.875 ], [ 43213.05000000000291, 5952550.875 ], [ 43213.05000000000291, 5952550.799999999813735 ], [ 43212.974999999998545, 5952550.799999999813735 ], [ 43212.974999999998545, 5952550.650000000372529 ], [ 43212.900000000001455, 5952550.650000000372529 ], [ 43212.900000000001455, 5952550.5 ], [ 43212.82499999999709, 5952550.5 ], [ 43212.82499999999709, 5952550.200000000186265 ], [ 43212.75, 5952550.200000000186265 ], [ 43212.75, 5952549.974999999627471 ], [ 43212.67500000000291, 5952549.974999999627471 ], [ 43212.67500000000291, 5952549.674999999813735 ], [ 43212.599999999998545, 5952549.674999999813735 ], [ 43212.599999999998545, 5952549.375 ], [ 43212.525000000001455, 5952549.375 ], [ 43212.525000000001455, 5952549.075000000186265 ], [ 43212.44999999999709, 5952549.075000000186265 ], [ 43212.44999999999709, 5952548.775000000372529 ], [ 43212.375, 5952548.775000000372529 ], [ 43212.375, 5952548.474999999627471 ], [ 43212.30000000000291, 5952548.474999999627471 ], [ 43212.30000000000291, 5952548.25 ], [ 43212.224999999998545, 5952548.25 ], [ 43212.224999999998545, 5952548.025000000372529 ], [ 43212.150000000001455, 5952548.025000000372529 ], [ 43212.150000000001455, 5952547.875 ], [ 43212.07499999999709, 5952547.875 ], [ 43212.07499999999709, 5952547.650000000372529 ], [ 43212.0, 5952547.650000000372529 ], [ 43212.0, 5952547.5 ], [ 43211.92500000000291, 5952547.5 ], [ 43211.92500000000291, 5952547.275000000372529 ], [ 43211.849999999998545, 5952547.275000000372529 ], [ 43211.849999999998545, 5952547.125 ], [ 43211.775000000001455, 5952547.125 ], [ 43211.775000000001455, 5952546.974999999627471 ], [ 43211.69999999999709, 5952546.974999999627471 ], [ 43211.69999999999709, 5952546.825000000186265 ], [ 43211.625, 5952546.825000000186265 ], [ 43211.625, 5952546.599999999627471 ], [ 43211.55000000000291, 5952546.599999999627471 ], [ 43211.55000000000291, 5952546.375 ], [ 43211.474999999998545, 5952546.375 ], [ 43211.474999999998545, 5952546.150000000372529 ], [ 43211.400000000001455, 5952546.150000000372529 ], [ 43211.400000000001455, 5952545.924999999813735 ], [ 43211.32499999999709, 5952545.924999999813735 ], [ 43211.32499999999709, 5952545.700000000186265 ], [ 43211.25, 5952545.700000000186265 ], [ 43211.25, 5952545.474999999627471 ], [ 43211.17500000000291, 5952545.474999999627471 ], [ 43211.17500000000291, 5952545.174999999813735 ], [ 43211.099999999998545, 5952545.174999999813735 ], [ 43211.099999999998545, 5952544.950000000186265 ], [ 43211.025000000001455, 5952544.950000000186265 ], [ 43211.025000000001455, 5952544.575000000186265 ], [ 43211.099999999998545, 5952544.575000000186265 ], [ 43211.099999999998545, 5952543.974999999627471 ], [ 43211.17500000000291, 5952543.974999999627471 ], [ 43211.17500000000291, 5952543.375 ], [ 43211.25, 5952543.375 ], [ 43211.25, 5952542.924999999813735 ], [ 43211.32499999999709, 5952542.924999999813735 ], [ 43211.32499999999709, 5952542.775000000372529 ], [ 43211.400000000001455, 5952542.775000000372529 ], [ 43211.400000000001455, 5952542.700000000186265 ], [ 43211.474999999998545, 5952542.700000000186265 ], [ 43211.474999999998545, 5952542.625 ], [ 43211.55000000000291, 5952542.625 ], [ 43211.55000000000291, 5952542.549999999813735 ], [ 43211.625, 5952542.549999999813735 ], [ 43211.625, 5952542.474999999627471 ], [ 43211.69999999999709, 5952542.474999999627471 ], [ 43211.69999999999709, 5952542.400000000372529 ], [ 43211.775000000001455, 5952542.400000000372529 ], [ 43211.775000000001455, 5952542.25 ], [ 43211.849999999998545, 5952542.25 ], [ 43211.849999999998545, 5952542.174999999813735 ], [ 43211.92500000000291, 5952542.174999999813735 ], [ 43211.92500000000291, 5952542.025000000372529 ], [ 43212.0, 5952542.025000000372529 ], [ 43212.0, 5952541.950000000186265 ], [ 43212.07499999999709, 5952541.950000000186265 ], [ 43212.07499999999709, 5952541.799999999813735 ], [ 43212.150000000001455, 5952541.799999999813735 ], [ 43212.150000000001455, 5952541.724999999627471 ], [ 43212.224999999998545, 5952541.724999999627471 ], [ 43212.224999999998545, 5952541.575000000186265 ], [ 43212.30000000000291, 5952541.575000000186265 ], [ 43212.30000000000291, 5952541.424999999813735 ], [ 43212.375, 5952541.424999999813735 ], [ 43212.375, 5952541.275000000372529 ], [ 43212.44999999999709, 5952541.275000000372529 ], [ 43212.44999999999709, 5952541.125 ], [ 43212.525000000001455, 5952541.125 ], [ 43212.525000000001455, 5952540.900000000372529 ], [ 43212.599999999998545, 5952540.900000000372529 ], [ 43212.599999999998545, 5952540.825000000186265 ], [ 43212.67500000000291, 5952540.825000000186265 ], [ 43212.67500000000291, 5952540.674999999813735 ], [ 43212.75, 5952540.674999999813735 ], [ 43212.75, 5952540.599999999627471 ], [ 43212.82499999999709, 5952540.599999999627471 ], [ 43212.82499999999709, 5952540.450000000186265 ], [ 43212.900000000001455, 5952540.450000000186265 ], [ 43212.900000000001455, 5952540.375 ], [ 43212.974999999998545, 5952540.375 ], [ 43212.974999999998545, 5952540.299999999813735 ], [ 43213.05000000000291, 5952540.299999999813735 ], [ 43213.05000000000291, 5952540.224999999627471 ], [ 43213.19999999999709, 5952540.224999999627471 ], [ 43213.19999999999709, 5952540.150000000372529 ], [ 43213.275000000001455, 5952540.150000000372529 ], [ 43213.275000000001455, 5952540.075000000186265 ], [ 43213.42500000000291, 5952540.075000000186265 ], [ 43213.42500000000291, 5952540.0 ], [ 43213.5, 5952540.0 ], [ 43213.5, 5952539.924999999813735 ], [ 43213.57499999999709, 5952539.924999999813735 ], [ 43213.57499999999709, 5952539.849999999627471 ], [ 43213.724999999998545, 5952539.849999999627471 ], [ 43213.724999999998545, 5952539.775000000372529 ], [ 43213.80000000000291, 5952539.775000000372529 ], [ 43213.80000000000291, 5952539.700000000186265 ], [ 43213.875, 5952539.700000000186265 ], [ 43213.875, 5952539.625 ], [ 43213.94999999999709, 5952539.625 ], [ 43213.94999999999709, 5952539.549999999813735 ], [ 43214.025000000001455, 5952539.549999999813735 ], [ 43214.025000000001455, 5952539.474999999627471 ], [ 43214.099999999998545, 5952539.474999999627471 ], [ 43214.099999999998545, 5952539.400000000372529 ], [ 43214.17500000000291, 5952539.400000000372529 ], [ 43214.17500000000291, 5952539.325000000186265 ], [ 43214.25, 5952539.325000000186265 ], [ 43214.25, 5952539.174999999813735 ], [ 43214.32499999999709, 5952539.174999999813735 ], [ 43214.32499999999709, 5952539.099999999627471 ], [ 43214.400000000001455, 5952539.099999999627471 ], [ 43214.400000000001455, 5952538.950000000186265 ], [ 43214.474999999998545, 5952538.950000000186265 ], [ 43214.474999999998545, 5952538.875 ], [ 43214.55000000000291, 5952538.875 ], [ 43214.55000000000291, 5952538.799999999813735 ], [ 43214.625, 5952538.799999999813735 ], [ 43214.625, 5952538.724999999627471 ], [ 43214.69999999999709, 5952538.724999999627471 ], [ 43214.69999999999709, 5952538.650000000372529 ], [ 43214.775000000001455, 5952538.650000000372529 ], [ 43214.775000000001455, 5952538.575000000186265 ], [ 43214.849999999998545, 5952538.575000000186265 ], [ 43214.849999999998545, 5952538.5 ], [ 43215.0, 5952538.5 ], [ 43215.0, 5952538.424999999813735 ], [ 43215.07499999999709, 5952538.424999999813735 ], [ 43215.07499999999709, 5952538.349999999627471 ], [ 43215.224999999998545, 5952538.349999999627471 ], [ 43215.224999999998545, 5952538.275000000372529 ], [ 43215.375, 5952538.275000000372529 ], [ 43215.375, 5952538.200000000186265 ], [ 43215.67500000000291, 5952538.200000000186265 ], [ 43215.67500000000291, 5952538.125 ], [ 43215.900000000001455, 5952538.125 ], [ 43215.900000000001455, 5952538.049999999813735 ], [ 43216.125, 5952538.049999999813735 ], [ 43216.125, 5952537.974999999627471 ], [ 43216.349999999998545, 5952537.974999999627471 ], [ 43216.349999999998545, 5952537.900000000372529 ], [ 43216.57499999999709, 5952537.900000000372529 ], [ 43216.57499999999709, 5952537.825000000186265 ], [ 43216.80000000000291, 5952537.825000000186265 ], [ 43216.80000000000291, 5952537.75 ], [ 43217.025000000001455, 5952537.75 ], [ 43217.025000000001455, 5952537.674999999813735 ], [ 43217.775000000001455, 5952537.674999999813735 ], [ 43217.775000000001455, 5952537.599999999627471 ], [ 43219.275000000001455, 5952537.599999999627471 ], [ 43219.275000000001455, 5952537.674999999813735 ], [ 43219.57499999999709, 5952537.674999999813735 ], [ 43219.57499999999709, 5952537.75 ], [ 43219.80000000000291, 5952537.75 ], [ 43219.80000000000291, 5952537.825000000186265 ], [ 43220.099999999998545, 5952537.825000000186265 ], [ 43220.099999999998545, 5952537.900000000372529 ], [ 43220.32499999999709, 5952537.900000000372529 ], [ 43220.32499999999709, 5952537.974999999627471 ], [ 43220.625, 5952537.974999999627471 ], [ 43220.625, 5952538.049999999813735 ], [ 43221.0, 5952538.049999999813735 ], [ 43221.0, 5952538.125 ], [ 43221.150000000001455, 5952538.125 ], [ 43221.150000000001455, 5952538.200000000186265 ], [ 43221.30000000000291, 5952538.200000000186265 ], [ 43221.30000000000291, 5952538.275000000372529 ], [ 43221.44999999999709, 5952538.275000000372529 ], [ 43221.44999999999709, 5952538.349999999627471 ], [ 43221.525000000001455, 5952538.349999999627471 ], [ 43221.525000000001455, 5952538.424999999813735 ], [ 43221.599999999998545, 5952538.424999999813735 ], [ 43221.599999999998545, 5952538.5 ], [ 43221.67500000000291, 5952538.5 ], [ 43221.67500000000291, 5952538.575000000186265 ], [ 43221.82499999999709, 5952538.575000000186265 ], [ 43221.82499999999709, 5952538.724999999627471 ], [ 43221.900000000001455, 5952538.724999999627471 ], [ 43221.900000000001455, 5952538.799999999813735 ], [ 43221.974999999998545, 5952538.799999999813735 ], [ 43221.974999999998545, 5952538.875 ], [ 43222.05000000000291, 5952538.875 ], [ 43222.05000000000291, 5952538.950000000186265 ], [ 43222.125, 5952538.950000000186265 ], [ 43222.125, 5952539.099999999627471 ], [ 43222.19999999999709, 5952539.099999999627471 ], [ 43222.19999999999709, 5952539.174999999813735 ], [ 43222.275000000001455, 5952539.174999999813735 ], [ 43222.275000000001455, 5952539.325000000186265 ], [ 43222.349999999998545, 5952539.325000000186265 ], [ 43222.349999999998545, 5952539.400000000372529 ], [ 43222.42500000000291, 5952539.400000000372529 ], [ 43222.42500000000291, 5952539.474999999627471 ], [ 43222.5, 5952539.474999999627471 ], [ 43222.5, 5952539.549999999813735 ], [ 43222.57499999999709, 5952539.549999999813735 ], [ 43222.57499999999709, 5952539.625 ], [ 43222.650000000001455, 5952539.625 ], [ 43222.650000000001455, 5952539.700000000186265 ], [ 43222.724999999998545, 5952539.700000000186265 ], [ 43222.724999999998545, 5952539.775000000372529 ], [ 43222.875, 5952539.775000000372529 ], [ 43222.875, 5952539.849999999627471 ], [ 43222.94999999999709, 5952539.849999999627471 ], [ 43222.94999999999709, 5952539.924999999813735 ], [ 43223.099999999998545, 5952539.924999999813735 ], [ 43223.099999999998545, 5952540.0 ], [ 43223.17500000000291, 5952540.0 ], [ 43223.17500000000291, 5952540.075000000186265 ], [ 43223.25, 5952540.075000000186265 ], [ 43223.25, 5952540.150000000372529 ], [ 43223.32499999999709, 5952540.150000000372529 ], [ 43223.32499999999709, 5952540.224999999627471 ], [ 43223.400000000001455, 5952540.224999999627471 ], [ 43223.400000000001455, 5952540.299999999813735 ], [ 43223.474999999998545, 5952540.299999999813735 ], [ 43223.474999999998545, 5952540.375 ], [ 43223.55000000000291, 5952540.375 ], [ 43223.55000000000291, 5952540.450000000186265 ], [ 43223.625, 5952540.450000000186265 ], [ 43223.625, 5952540.525000000372529 ], [ 43223.69999999999709, 5952540.525000000372529 ], [ 43223.69999999999709, 5952540.674999999813735 ], [ 43223.775000000001455, 5952540.674999999813735 ], [ 43223.775000000001455, 5952540.825000000186265 ], [ 43223.849999999998545, 5952540.825000000186265 ], [ 43223.849999999998545, 5952541.049999999813735 ], [ 43223.92500000000291, 5952541.049999999813735 ], [ 43223.92500000000291, 5952541.724999999627471 ], [ 43224.0, 5952541.724999999627471 ], [ 43224.0, 5952542.549999999813735 ], [ 43224.07499999999709, 5952542.549999999813735 ], [ 43224.07499999999709, 5952545.474999999627471 ], [ 43224.0, 5952545.474999999627471 ], [ 43224.0, 5952546.75 ], [ 43223.92500000000291, 5952546.75 ], [ 43223.92500000000291, 5952547.049999999813735 ], [ 43223.849999999998545, 5952547.049999999813735 ], [ 43223.849999999998545, 5952547.349999999627471 ], [ 43223.775000000001455, 5952547.349999999627471 ], [ 43223.775000000001455, 5952547.575000000186265 ], [ 43223.69999999999709, 5952547.575000000186265 ], [ 43223.69999999999709, 5952547.799999999813735 ], [ 43223.625, 5952547.799999999813735 ], [ 43223.625, 5952548.025000000372529 ], [ 43223.55000000000291, 5952548.025000000372529 ], [ 43223.55000000000291, 5952548.174999999813735 ], [ 43223.474999999998545, 5952548.174999999813735 ], [ 43223.474999999998545, 5952548.325000000186265 ], [ 43223.400000000001455, 5952548.325000000186265 ], [ 43223.400000000001455, 5952548.474999999627471 ], [ 43223.32499999999709, 5952548.474999999627471 ], [ 43223.32499999999709, 5952548.625 ], [ 43223.25, 5952548.625 ], [ 43223.25, 5952548.775000000372529 ], [ 43223.17500000000291, 5952548.775000000372529 ], [ 43223.17500000000291, 5952548.849999999627471 ], [ 43223.099999999998545, 5952548.849999999627471 ], [ 43223.099999999998545, 5952548.924999999813735 ], [ 43223.025000000001455, 5952548.924999999813735 ], [ 43223.025000000001455, 5952549.0 ], [ 43222.94999999999709, 5952549.0 ], [ 43222.94999999999709, 5952549.075000000186265 ], [ 43222.875, 5952549.075000000186265 ], [ 43222.875, 5952549.150000000372529 ], [ 43222.80000000000291, 5952549.150000000372529 ], [ 43222.80000000000291, 5952549.224999999627471 ], [ 43222.724999999998545, 5952549.224999999627471 ], [ 43222.724999999998545, 5952549.375 ], [ 43222.650000000001455, 5952549.375 ], [ 43222.650000000001455, 5952549.450000000186265 ], [ 43222.57499999999709, 5952549.450000000186265 ], [ 43222.57499999999709, 5952549.525000000372529 ], [ 43222.5, 5952549.525000000372529 ], [ 43222.5, 5952549.674999999813735 ], [ 43222.42500000000291, 5952549.674999999813735 ], [ 43222.42500000000291, 5952549.75 ], [ 43222.349999999998545, 5952549.75 ], [ 43222.349999999998545, 5952549.900000000372529 ], [ 43222.275000000001455, 5952549.900000000372529 ], [ 43222.275000000001455, 5952550.049999999813735 ], [ 43222.19999999999709, 5952550.049999999813735 ], [ 43222.19999999999709, 5952550.125 ], [ 43222.125, 5952550.125 ], [ 43222.125, 5952550.275000000372529 ], [ 43222.05000000000291, 5952550.275000000372529 ], [ 43222.05000000000291, 5952550.424999999813735 ], [ 43221.974999999998545, 5952550.424999999813735 ], [ 43221.974999999998545, 5952550.650000000372529 ], [ 43221.900000000001455, 5952550.650000000372529 ], [ 43221.900000000001455, 5952550.799999999813735 ], [ 43221.82499999999709, 5952550.799999999813735 ], [ 43221.82499999999709, 5952550.950000000186265 ], [ 43221.75, 5952550.950000000186265 ], [ 43221.75, 5952551.025000000372529 ], [ 43221.67500000000291, 5952551.025000000372529 ], [ 43221.67500000000291, 5952551.174999999813735 ], [ 43221.599999999998545, 5952551.174999999813735 ], [ 43221.599999999998545, 5952551.25 ], [ 43221.525000000001455, 5952551.25 ], [ 43221.525000000001455, 5952551.325000000186265 ], [ 43221.44999999999709, 5952551.325000000186265 ], [ 43221.44999999999709, 5952551.474999999627471 ], [ 43221.375, 5952551.474999999627471 ], [ 43221.375, 5952551.549999999813735 ], [ 43221.30000000000291, 5952551.549999999813735 ], [ 43221.30000000000291, 5952551.625 ], [ 43221.224999999998545, 5952551.625 ], [ 43221.224999999998545, 5952551.700000000186265 ], [ 43221.07499999999709, 5952551.700000000186265 ], [ 43221.07499999999709, 5952551.775000000372529 ], [ 43221.0, 5952551.775000000372529 ], [ 43221.0, 5952551.849999999627471 ], [ 43220.849999999998545, 5952551.849999999627471 ], [ 43220.849999999998545, 5952551.924999999813735 ], [ 43220.775000000001455, 5952551.924999999813735 ], [ 43220.775000000001455, 5952552.0 ], [ 43220.69999999999709, 5952552.0 ], [ 43220.69999999999709, 5952552.075000000186265 ], [ 43220.625, 5952552.075000000186265 ], [ 43220.625, 5952552.150000000372529 ], [ 43220.55000000000291, 5952552.150000000372529 ], [ 43220.55000000000291, 5952552.224999999627471 ], [ 43220.400000000001455, 5952552.224999999627471 ], [ 43220.400000000001455, 5952552.299999999813735 ], [ 43220.32499999999709, 5952552.299999999813735 ], [ 43220.32499999999709, 5952552.450000000186265 ], [ 43220.25, 5952552.450000000186265 ], [ 43220.25, 5952552.525000000372529 ], [ 43220.17500000000291, 5952552.525000000372529 ], [ 43220.17500000000291, 5952552.599999999627471 ], [ 43220.099999999998545, 5952552.599999999627471 ], [ 43220.099999999998545, 5952552.674999999813735 ], [ 43220.025000000001455, 5952552.674999999813735 ], [ 43220.025000000001455, 5952552.825000000186265 ], [ 43219.94999999999709, 5952552.825000000186265 ], [ 43219.94999999999709, 5952552.974999999627471 ], [ 43219.875, 5952552.974999999627471 ], [ 43219.875, 5952553.049999999813735 ], [ 43219.80000000000291, 5952553.049999999813735 ], [ 43219.80000000000291, 5952553.200000000186265 ], [ 43219.724999999998545, 5952553.200000000186265 ], [ 43219.724999999998545, 5952553.275000000372529 ], [ 43219.650000000001455, 5952553.275000000372529 ], [ 43219.650000000001455, 5952553.349999999627471 ], [ 43219.57499999999709, 5952553.349999999627471 ], [ 43219.57499999999709, 5952553.424999999813735 ], [ 43219.5, 5952553.424999999813735 ], [ 43219.5, 5952553.575000000186265 ], [ 43219.42500000000291, 5952553.575000000186265 ], [ 43219.42500000000291, 5952553.650000000372529 ], [ 43219.349999999998545, 5952553.650000000372529 ], [ 43219.349999999998545, 5952553.724999999627471 ], [ 43219.275000000001455, 5952553.724999999627471 ], [ 43219.275000000001455, 5952553.799999999813735 ], [ 43219.19999999999709, 5952553.799999999813735 ], [ 43219.19999999999709, 5952553.875 ], [ 43219.05000000000291, 5952553.875 ], [ 43219.05000000000291, 5952553.950000000186265 ], [ 43218.30000000000291, 5952553.950000000186265 ], [ 43218.30000000000291, 5952554.025000000372529 ], [ 43217.625, 5952554.025000000372529 ], [ 43217.625, 5952554.099999999627471 ], [ 43217.099999999998545, 5952554.099999999627471 ] ] ] } },
{ "type": "Feature", "properties": { "value": 1.0, "building_id": 1, "area": 227.22749999896683 }, "geometry": { "type": "Polygon", "coordinates": [ [ [ 43170.224999999998545, 5952521.775000000372529 ], [ 43170.224999999998545, 5952521.700000000186265 ], [ 43169.92500000000291, 5952521.700000000186265 ], [ 43169.92500000000291, 5952521.625 ], [ 43169.625, 5952521.625 ], [ 43169.625, 5952521.549999999813735 ], [ 43169.400000000001455, 5952521.549999999813735 ], [ 43169.400000000001455, 5952521.25 ], [ 43169.32499999999709, 5952521.25 ], [ 43169.32499999999709, 5952521.025000000372529 ], [ 43169.25, 5952521.025000000372529 ], [ 43169.25, 5952520.875 ], [ 43169.17500000000291, 5952520.875 ], [ 43169.17500000000291, 5952520.650000000372529 ], [ 43169.099999999998545, 5952520.650000000372529 ], [ 43169.099999999998545, 5952520.424999999813735 ], [ 43169.025000000001455, 5952520.424999999813735 ], [ 43169.025000000001455, 5952520.275000000372529 ], [ 43168.94999999999709, 5952520.275000000372529 ], [ 43168.94999999999709, 5952520.049999999813735 ], [ 43168.875, 5952520.049999999813735 ], [ 43168.875, 5952519.900000000372529 ], [ 43168.80000000000291, 5952519.900000000372529 ], [ 43168.80000000000291, 5952519.674999999813735 ], [ 43168.724999999998545, 5952519.674999999813735 ], [ 43168.724999999998545, 5952519.450000000186265 ], [ 43168.650000000001455, 5952519.450000000186265 ], [ 43168.650000000001455, 5952519.375 ], [ 43168.57499999999709, 5952519.375 ], [ 43168.57499999999709, 5952519.299999999813735 ], [ 43168.5, 5952519.299999999813735 ], [ 43168.5, 5952519.224999999627471 ], [ 43168.42500000000291, 5952519.224999999627471 ], [ 43168.42500000000291, 5952519.150000000372529 ], [ 43168.275000000001455, 5952519.150000000372529 ], [ 43168.275000000001455, 5952519.075000000186265 ], [ 43168.125, 5952519.075000000186265 ], [ 43168.125, 5952519.0 ], [ 43167.974999999998545, 5952519.0 ], [ 43167.974999999998545, 5952518.924999999813735 ], [ 43167.75, 5952518.924999999813735 ], [ 43167.75, 5952518.849999999627471 ], [ 43167.525000000001455, 5952518.849999999627471 ], [ 43167.525000000001455, 5952518.775000000372529 ], [ 43167.224999999998545, 5952518.775000000372529 ], [ 43167.224999999998545, 5952518.700000000186265 ], [ 43167.0, 5952518.700000000186265 ], [ 43167.0, 5952518.625 ], [ 43166.69999999999709, 5952518.625 ], [ 43166.69999999999709, 5952518.549999999813735 ], [ 43166.25, 5952518.549999999813735 ], [ 43166.25, 5952518.474999999627471 ], [ 43165.5, 5952518.474999999627471 ], [ 43165.5, 5952518.400000000372529 ], [ 43164.75, 5952518.400000000372529 ], [ 43164.75, 5952518.325000000186265 ], [ 43164.150000000001455, 5952518.325000000186265 ], [ 43164.150000000001455, 5952518.25 ], [ 43163.69999999999709, 5952518.25 ], [ 43163.69999999999709, 5952518.174999999813735 ], [ 43163.25, 5952518.174999999813735 ], [ 43163.25, 5952518.099999999627471 ], [ 43162.875, 5952518.099999999627471 ], [ 43162.875, 5952518.025000000372529 ], [ 43162.5, 5952518.025000000372529 ], [ 43162.5, 5952517.950000000186265 ], [ 43162.19999999999709, 5952517.950000000186265 ], [ 43162.19999999999709, 5952517.875 ], [ 43161.974999999998545, 5952517.875 ], [ 43161.974999999998545, 5952517.799999999813735 ], [ 43161.67500000000291, 5952517.799999999813735 ], [ 43161.67500000000291, 5952517.724999999627471 ], [ 43161.525000000001455, 5952517.724999999627471 ], [ 43161.525000000001455, 5952517.650000000372529 ], [ 43161.30000000000291, 5952517.650000000372529 ], [ 43161.30000000000291, 5952517.575000000186265 ], [ 43161.07499999999709, 5952517.575000000186265 ], [ 43161.07499999999709, 5952517.5 ], [ 43160.92500000000291, 5952517.5 ], [ 43160.92500000000291, 5952517.424999999813735 ], [ 43160.775000000001455, 5952517.424999999813735 ], [ 43160.775000000001455, 5952517.349999999627471 ], [ 43160.55000000000291, 5952517.349999999627471 ], [ 43160.55000000000291, 5952517.275000000372529 ], [ 43160.32499999999709, 5952517.275000000372529 ], [ 43160.32499999999709, 5952517.200000000186265 ], [ 43160.099999999998545, 5952517.200000000186265 ], [ 43160.099999999998545, 5952517.125 ], [ 43159.80000000000291, 5952517.125 ], [ 43159.80000000000291, 5952517.049999999813735 ], [ 43159.5, 5952517.049999999813735 ], [ 43159.5, 5952516.974999999627471 ], [ 43159.19999999999709, 5952516.974999999627471 ], [ 43159.19999999999709, 5952516.900000000372529 ], [ 43158.900000000001455, 5952516.900000000372529 ], [ 43158.900000000001455, 5952516.825000000186265 ], [ 43158.44999999999709, 5952516.825000000186265 ], [ 43158.44999999999709, 5952516.75 ], [ 43158.07499999999709, 5952516.75 ], [ 43158.07499999999709, 5952516.674999999813735 ], [ 43157.625, 5952516.674999999813735 ], [ 43157.625, 5952516.599999999627471 ], [ 43157.17500000000291, 5952516.599999999627471 ], [ 43157.17500000000291, 5952516.525000000372529 ], [ 43156.80000000000291, 5952516.525000000372529 ], [ 43156.80000000000291, 5952516.450000000186265 ], [ 43156.5, 5952516.450000000186265 ], [ 43156.5, 5952516.375 ], [ 43156.349999999998545, 5952516.375 ], [ 43156.349999999998545, 5952516.299999999813735 ], [ 43156.275000000001455, 5952516.299999999813735 ], [ 43156.275000000001455, 5952516.224999999627471 ], [ 43156.125, 5952516.224999999627471 ], [ 43156.125, 5952516.150000000372529 ], [ 43156.05000000000291, 5952516.150000000372529 ], [ 43156.05000000000291, 5952516.075000000186265 ], [ 43155.900000000001455, 5952516.075000000186265 ], [ 43155.900000000001455, 5952516.0 ], [ 43155.82499999999709, 5952516.0 ], [ 43155.82499999999709, 5952515.924999999813735 ], [ 43155.75, 5952515.924999999813735 ], [ 43155.75, 5952515.849999999627471 ], [ 43155.67500000000291, 5952515.849999999627471 ], [ 43155.67500000000291, 5952515.775000000372529 ], [ 43155.599999999998545, 5952515.775000000372529 ], [ 43155.599999999998545, 5952515.700000000186265 ], [ 43155.525000000001455, 5952515.700000000186265 ], [ 43155.525000000001455, 5952515.549999999813735 ], [ 43155.44999999999709, 5952515.549999999813735 ], [ 43155.44999999999709, 5952515.474999999627471 ], [ 43155.375, 5952515.474999999627471 ], [ 43155.375, 5952515.325000000186265 ], [ 43155.30000000000291, 5952515.325000000186265 ], [ 43155.30000000000291, 5952515.25 ], [ 43155.224999999998545, 5952515.25 ], [ 43155.224999999998545, 5952515.174999999813735 ], [ 43155.150000000001455, 5952515.174999999813735 ], [ 43155.150000000001455, 5952515.099999999627471 ], [ 43155.07499999999709, 5952515.099999999627471 ], [ 43155.07499999999709, 5952515.025000000372529 ], [ 43155.0, 5952515.025000000372529 ], [ 43155.0, 5952514.950000000186265 ], [ 43154.92500000000291, 5952514.950000000186265 ], [ 43154.92500000000291, 5952514.875 ], [ 43154.849999999998545, 5952514.875 ], [ 43154.849999999998545, 5952514.799999999813735 ], [ 43154.775000000001455, 5952514.799999999813735 ], [ 43154.775000000001455, 5952514.724999999627471 ], [ 43154.69999999999709, 5952514.724999999627471 ], [ 43154.69999999999709, 5952514.650000000372529 ], [ 43154.625, 5952514.650000000372529 ], [ 43154.625, 5952514.575000000186265 ], [ 43154.55000000000291, 5952514.575000000186265 ], [ 43154.55000000000291, 5952514.5 ], [ 43154.474999999998545, 5952514.5 ], [ 43154.474999999998545, 5952514.424999999813735 ], [ 43154.400000000001455, 5952514.424999999813735 ], [ 43154.400000000001455, 5952514.349999999627471 ], [ 43154.32499999999709, 5952514.349999999627471 ], [ 43154.32499999999709, 5952514.200000000186265 ], [ 43154.25, 5952514.200000000186265 ], [ 43154.25, 5952514.125 ], [ 43154.17500000000291, 5952514.125 ], [ 43154.17500000000291, 5952513.974999999627471 ], [ 43154.099999999998545, 5952513.974999999627471 ], [ 43154.099999999998545, 5952513.825000000186265 ], [ 43154.025000000001455, 5952513.825000000186265 ], [ 43154.025000000001455, 5952513.674999999813735 ], [ 43153.94999999999709, 5952513.674999999813735 ], [ 43153.94999999999709, 5952512.775000000372529 ], [ 43153.875, 5952512.775000000372529 ], [ 43153.875, 5952511.575000000186265 ], [ 43153.94999999999709, 5952511.575000000186265 ], [ 43153.94999999999709, 5952511.200000000186265 ], [ 43154.025000000001455, 5952511.200000000186265 ], [ 43154.025000000001455, 5952510.900000000372529 ], [ 43154.099999999998545, 5952510.900000000372529 ], [ 43154.099999999998545, 5952510.674999999813735 ], [ 43154.17500000000291, 5952510.674999999813735 ], [ 43154.17500000000291, 5952510.375 ], [ 43154.25, 5952510.375 ], [ 43154.25, 5952510.150000000372529 ], [ 43154.32499999999709, 5952510.150000000372529 ], [ 43154.32499999999709, 5952510.0 ], [ 43154.400000000001455, 5952510.0 ], [ 43154.400000000001455, 5952509.775000000372529 ], [ 43154.474999999998545, 5952509.775000000372529 ], [ 43154.474999999998545, 5952509.625 ], [ 43154.55000000000291, 5952509.625 ], [ 43154.55000000000291, 5952509.549999999813735 ], [ 43154.625, 5952509.549999999813735 ], [ 43154.625, 5952509.474999999627471 ], [ 43154.69999999999709, 5952509.474999999627471 ], [ 43154.69999999999709, 5952509.400000000372529 ], [ 43154.775000000001455, 5952509.400000000372529 ], [ 43154.775000000001455, 5952509.325000000186265 ], [ 43154.849999999998545, 5952509.325000000186265 ], [ 43154.849999999998545, 5952509.25 ], [ 43154.92500000000291, 5952509.25 ], [ 43154.92500000000291, 5952509.174999999813735 ], [ 43155.0, 5952509.174999999813735 ], [ 43155.0, 5952509.099999999627471 ], [ 43155.07499999999709, 5952509.099999999627471 ], [ 43155.07499999999709, 5952509.025000000372529 ], [ 43155.150000000001455, 5952509.025000000372529 ], [ 43155.150000000001455, 5952508.950000000186265 ], [ 43155.224999999998545, 5952508.950000000186265 ], [ 43155.224999999998545, 5952508.875 ], [ 43155.30000000000291, 5952508.875 ], [ 43155.30000000000291, 5952508.724999999627471 ], [ 43155.375, 5952508.724999999627471 ], [ 43155.375, 5952508.650000000372529 ], [ 43155.44999999999709, 5952508.650000000372529 ], [ 43155.44999999999709, 5952508.575000000186265 ], [ 43155.525000000001455, 5952508.575000000186265 ], [ 43155.525000000001455, 5952508.424999999813735 ], [ 43155.599999999998545, 5952508.424999999813735 ], [ 43155.599999999998545, 5952508.349999999627471 ], [ 43155.67500000000291, 5952508.349999999627471 ], [ 43155.67500000000291, 5952508.200000000186265 ], [ 43155.75, 5952508.200000000186265 ], [ 43155.75, 5952508.125 ], [ 43155.82499999999709, 5952508.125 ], [ 43155.82499999999709, 5952507.974999999627471 ], [ 43155.900000000001455, 5952507.974999999627471 ], [ 43155.900000000001455, 5952507.825000000186265 ], [ 43155.974999999998545, 5952507.825000000186265 ], [ 43155.974999999998545, 5952507.674999999813735 ], [ 43156.05000000000291, 5952507.674999999813735 ], [ 43156.05000000000291, 5952507.599999999627471 ], [ 43156.125, 5952507.599999999627471 ], [ 43156.125, 5952507.525000000372529 ], [ 43156.19999999999709, 5952507.525000000372529 ], [ 43156.19999999999709, 5952507.450000000186265 ], [ 43156.275000000001455, 5952507.450000000186265 ], [ 43156.275000000001455, 5952507.375 ], [ 43156.349999999998545, 5952507.375 ], [ 43156.349999999998545, 5952507.299999999813735 ], [ 43156.42500000000291, 5952507.299999999813735 ], [ 43156.42500000000291, 5952507.224999999627471 ], [ 43156.5, 5952507.224999999627471 ], [ 43156.5, 5952507.150000000372529 ], [ 43156.650000000001455, 5952507.150000000372529 ], [ 43156.650000000001455, 5952507.075000000186265 ], [ 43157.25, 5952507.075000000186265 ], [ 43157.25, 5952507.0 ], [ 43158.07499999999709, 5952507.0 ], [ 43158.07499999999709, 5952506.924999999813735 ], [ 43159.19999999999709, 5952506.924999999813735 ], [ 43159.19999999999709, 5952506.849999999627471 ], [ 43160.625, 5952506.849999999627471 ], [ 43160.625, 5952506.775000000372529 ], [ 43166.400000000001455, 5952506.775000000372529 ], [ 43166.400000000001455, 5952506.849999999627471 ], [ 43167.82499999999709, 5952506.849999999627471 ], [ 43167.82499999999709, 5952506.924999999813735 ], [ 43168.875, 5952506.924999999813735 ], [ 43168.875, 5952507.0 ], [ 43169.625, 5952507.0 ], [ 43169.625, 5952507.075000000186265 ], [ 43170.30000000000291, 5952507.075000000186265 ], [ 43170.30000000000291, 5952507.150000000372529 ], [ 43170.44999999999709, 5952507.150000000372529 ], [ 43170.44999999999709, 5952507.224999999627471 ], [ 43170.599999999998545, 5952507.224999999627471 ], [ 43170.599999999998545, 5952507.299999999813735 ], [ 43170.67500000000291, 5952507.299999999813735 ], [ 43170.67500000000291, 5952507.375 ], [ 43170.82499999999709, 5952507.375 ], [ 43170.82499999999709, 5952507.450000000186265 ], [ 43170.900000000001455, 5952507.450000000186265 ], [ 43170.900000000001455, 5952507.525000000372529 ], [ 43170.974999999998545, 5952507.525000000372529 ], [ 43170.974999999998545, 5952507.599999999627471 ], [ 43171.05000000000291, 5952507.599999999627471 ], [ 43171.05000000000291, 5952507.674999999813735 ], [ 43171.125, 5952507.674999999813735 ], [ 43171.125, 5952507.75 ], [ 43171.19999999999709, 5952507.75 ], [ 43171.19999999999709, 5952507.825000000186265 ], [ 43171.275000000001455, 5952507.825000000186265 ], [ 43171.275000000001455, 5952507.900000000372529 ], [ 43171.349999999998545, 5952507.900000000372529 ], [ 43171.349999999998545, 5952507.974999999627471 ], [ 43171.42500000000291, 5952507.974999999627471 ], [ 43171.42500000000291, 5952508.049999999813735 ], [ 43171.5, 5952508.049999999813735 ], [ 43171.5, 5952508.125 ], [ 43171.57499999999709, 5952508.125 ], [ 43171.57499999999709, 5952508.200000000186265 ], [ 43171.724999999998545, 5952508.200000000186265 ], [ 43171.724999999998545, 5952508.275000000372529 ], [ 43171.80000000000291, 5952508.275000000372529 ], [ 43171.80000000000291, 5952508.349999999627471 ], [ 43171.94999999999709, 5952508.349999999627471 ], [ 43171.94999999999709, 5952508.424999999813735 ], [ 43172.025000000001455, 5952508.424999999813735 ], [ 43172.025000000001455, 5952508.5 ], [ 43172.17500000000291, 5952508.5 ], [ 43172.17500000000291, 5952508.575000000186265 ], [ 43172.32499999999709, 5952508.575000000186265 ], [ 43172.32499999999709, 5952508.650000000372529 ], [ 43172.474999999998545, 5952508.650000000372529 ], [ 43172.474999999998545, 5952508.724999999627471 ], [ 43172.55000000000291, 5952508.724999999627471 ], [ 43172.55000000000291, 5952508.799999999813735 ], [ 43172.625, 5952508.799999999813735 ], [ 43172.625, 5952508.875 ], [ 43172.69999999999709, 5952508.875 ], [ 43172.69999999999709, 5952508.950000000186265 ], [ 43172.775000000001455, 5952508.950000000186265 ], [ 43172.775000000001455, 5952509.025000000372529 ], [ 43172.849999999998545, 5952509.025000000372529 ], [ 43172.849999999998545, 5952509.099999999627471 ], [ 43172.92500000000291, 5952509.099999999627471 ], [ 43172.92500000000291, 5952509.174999999813735 ], [ 43173.0, 5952509.174999999813735 ], [ 43173.0, 5952509.25 ], [ 43173.07499999999709, 5952509.25 ], [ 43173.07499999999709, 5952509.325000000186265 ], [ 43173.150000000001455, 5952509.325000000186265 ], [ 43173.150000000001455, 5952509.474999999627471 ], [ 43173.224999999998545, 5952509.474999999627471 ], [ 43173.224999999998545, 5952509.549999999813735 ], [ 43173.30000000000291, 5952509.549999999813735 ], [ 43173.30000000000291, 5952509.700000000186265 ], [ 43173.375, 5952509.700000000186265 ], [ 43173.375, 5952509.849999999627471 ], [ 43173.44999999999709, 5952509.849999999627471 ], [ 43173.44999999999709, 5952510.0 ], [ 43173.525000000001455, 5952510.0 ], [ 43173.525000000001455, 5952510.150000000372529 ], [ 43173.599999999998545, 5952510.150000000372529 ], [ 43173.599999999998545, 5952510.299999999813735 ], [ 43173.67500000000291, 5952510.299999999813735 ], [ 43173.67500000000291, 5952510.450000000186265 ], [ 43173.75, 5952510.450000000186265 ], [ 43173.75, 5952510.525000000372529 ], [ 43173.82499999999709, 5952510.525000000372529 ], [ 43173.82499999999709, 5952510.599999999627471 ], [ 43173.900000000001455, 5952510.599999999627471 ], [ 43173.900000000001455, 5952510.75 ], [ 43173.974999999998545, 5952510.75 ], [ 43173.974999999998545, 5952510.825000000186265 ], [ 43174.05000000000291, 5952510.825000000186265 ], [ 43174.05000000000291, 5952510.900000000372529 ], [ 43174.125, 5952510.900000000372529 ], [ 43174.125, 5952510.974999999627471 ], [ 43174.19999999999709, 5952510.974999999627471 ], [ 43174.19999999999709, 5952511.049999999813735 ], [ 43174.275000000001455, 5952511.049999999813735 ], [ 43174.275000000001455, 5952511.125 ], [ 43174.349999999998545, 5952511.125 ], [ 43174.349999999998545, 5952511.200000000186265 ], [ 43174.42500000000291, 5952511.200000000186265 ], [ 43174.42500000000291, 5952511.275000000372529 ], [ 43174.5, 5952511.275000000372529 ], [ 43174.5, 5952511.349999999627471 ], [ 43174.57499999999709, 5952511.349999999627471 ], [ 43174.57499999999709, 5952511.424999999813735 ], [ 43174.650000000001455, 5952511.424999999813735 ], [ 43174.650000000001455, 5952511.5 ], [ 43174.724999999998545, 5952511.5 ], [ 43174.724999999998545, 5952511.575000000186265 ], [ 43174.80000000000291, 5952511.575000000186265 ], [ 43174.80000000000291, 5952511.799999999813735 ], [ 43174.875, 5952511.799999999813735 ], [ 43174.875, 5952511.950000000186265 ], [ 43174.94999999999709, 5952511.950000000186265 ], [ 43174.94999999999709, 5952512.174999999813735 ], [ 43175.025000000001455, 5952512.174999999813735 ], [ 43175.025000000001455, 5952512.400000000372529 ], [ 43175.099999999998545, 5952512.400000000372529 ], [ 43175.099999999998545, 5952512.625 ], [ 43175.17500000000291, 5952512.625 ], [ 43175.17500000000291, 5952512.924999999813735 ], [ 43175.25, 5952512.924999999813735 ], [ 43175.25, 5952513.150000000372529 ], [ 43175.32499999999709, 5952513.150000000372529 ], [ 43175.32499999999709, 5952513.450000000186265 ], [ 43175.400000000001455, 5952513.450000000186265 ], [ 43175.400000000001455, 5952513.974999999627471 ], [ 43175.32499999999709, 5952513.974999999627471 ], [ 43175.32499999999709, 5952515.025000000372529 ], [ 43175.25, 5952515.025000000372529 ], [ 43175.25, 5952515.924999999813735 ], [ 43175.17500000000291, 5952515.924999999813735 ], [ 43175.17500000000291, 5952516.674999999813735 ], [ 43175.099999999998545, 5952516.674999999813735 ], [ 43175.099999999998545, 5952517.275000000372529 ], [ 43175.025000000001455, 5952517.275000000372529 ], [ 43175.025000000001455, 5952517.875 ], [ 43174.94999999999709, 5952517.875 ], [ 43174.94999999999709, 5952518.325000000186265 ], [ 43174.875, 5952518.325000000186265 ], [ 43174.875, 5952518.474999999627471 ], [ 43174.80000000000291, 5952518.474999999627471 ], [ 43174.80000000000291, 5952518.625 ], [ 43174.724999999998545, 5952518.625 ], [ 43174.724999999998545, 5952518.700000000186265 ], [ 43174.650000000001455, 5952518.700000000186265 ], [ 43174.650000000001455, 5952518.775000000372529 ], [ 43174.57499999999709, 5952518.775000000372529 ], [ 43174.57499999999709, 5952518.924999999813735 ], [ 43174.5, 5952518.924999999813735 ], [ 43174.5, 5952519.0 ], [ 43174.42500000000291, 5952519.0 ], [ 43174.42500000000291, 5952519.075000000186265 ], [ 43174.349999999998545, 5952519.075000000186265 ], [ 43174.349999999998545, 5952519.150000000372529 ], [ 43174.275000000001455, 5952519.150000000372529 ], [ 43174.275000000001455, 5952519.224999999627471 ], [ 43174.19999999999709, 5952519.224999999627471 ], [ 43174.19999999999709, 5952519.299999999813735 ], [ 43174.125, 5952519.299999999813735 ], [ 43174.125, 5952519.450000000186265 ], [ 43174.05000000000291, 5952519.450000000186265 ], [ 43174.05000000000291, 5952519.525000000372529 ], [ 43173.974999999998545, 5952519.525000000372529 ], [ 43173.974999999998545, 5952519.599999999627471 ], [ 43173.82499999999709, 5952519.599999999627471 ], [ 43173.82499999999709, 5952519.674999999813735 ], [ 43173.75, 5952519.674999999813735 ], [ 43173.75, 5952519.75 ], [ 43173.67500000000291, 5952519.75 ], [ 43173.67500000000291, 5952519.825000000186265 ], [ 43173.599999999998545, 5952519.825000000186265 ], [ 43173.599999999998545, 5952519.900000000372529 ], [ 43173.525000000001455, 5952519.900000000372529 ], [ 43173.525000000001455, 5952520.049999999813735 ], [ 43173.44999999999709, 5952520.049999999813735 ], [ 43173.44999999999709, 5952520.125 ], [ 43173.375, 5952520.125 ], [ 43173.375, 5952520.200000000186265 ], [ 43173.30000000000291, 5952520.200000000186265 ], [ 43173.30000000000291, 5952520.275000000372529 ], [ 43173.224999999998545, 5952520.275000000372529 ], [ 43173.224999999998545, 5952520.349999999627471 ], [ 43173.150000000001455, 5952520.349999999627471 ], [ 43173.150000000001455, 5952520.424999999813735 ], [ 43173.07499999999709, 5952520.424999999813735 ], [ 43173.07499999999709, 5952520.5 ], [ 43173.0, 5952520.5 ], [ 43173.0, 5952520.575000000186265 ], [ 43172.92500000000291, 5952520.575000000186265 ], [ 43172.92500000000291, 5952520.650000000372529 ], [ 43172.849999999998545, 5952520.650000000372529 ], [ 43172.849999999998545, 5952520.724999999627471 ], [ 43172.775000000001455, 5952520.724999999627471 ], [ 43172.775000000001455, 5952520.875 ], [ 43172.69999999999709, 5952520.875 ], [ 43172.69999999999709, 5952520.950000000186265 ], [ 43172.625, 5952520.950000000186265 ], [ 43172.625, 5952521.025000000372529 ], [ 43172.55000000000291, 5952521.025000000372529 ], [ 43172.55000000000291, 5952521.099999999627471 ], [ 43172.474999999998545, 5952521.099999999627471 ], [ 43172.474999999998545, 5952521.174999999813735 ], [ 43172.400000000001455, 5952521.174999999813735 ], [ 43172.400000000001455, 5952521.325000000186265 ], [ 43172.32499999999709, 5952521.325000000186265 ], [ 43172.32499999999709, 5952521.400000000372529 ], [ 43172.25, 5952521.400000000372529 ], [ 43172.25, 5952521.474999999627471 ], [ 43171.724999999998545, 5952521.474999999627471 ], [ 43171.724999999998545, 5952521.549999999813735 ], [ 43171.275000000001455, 5952521.549999999813735 ], [ 43171.275000000001455, 5952521.625 ], [ 43170.82499999999709, 5952521.625 ], [ 43170.82499999999709, 5952521.700000000186265 ], [ 43170.375, 5952521.700000000186265 ], [ 43170.375, 5952521.775000000372529 ], [ 43170.224999999998545, 5952521.775000000372529 ] ] ] } },
{ "type": "Feature", "properties": { "value": 1.0, "building_id": 2, "area": 551.05874999905029 }, "geometry": { "type": "Polygon", "coordinates": [ [ [ 43099.94999999999709, 5952538.349999999627471 ], [ 43099.94999999999709, 5952538.275000000372529 ], [ 43099.724999999998545, 5952538.275000000372529 ], [ 43099.724999999998545, 5952538.200000000186265 ], [ 43099.57499999999709, 5952538.200000000186265 ], [ 43099.57499999999709, 5952538.125 ], [ 43099.42500000000291, 5952538.125 ], [ 43099.42500000000291, 5952538.049999999813735 ], [ 43099.275000000001455, 5952538.049999999813735 ], [ 43099.275000000001455, 5952537.974999999627471 ], [ 43099.125, 5952537.974999999627471 ], [ 43099.125, 5952537.900000000372529 ], [ 43099.05000000000291, 5952537.900000000372529 ], [ 43099.05000000000291, 5952537.825000000186265 ], [ 43098.974999999998545, 5952537.825000000186265 ], [ 43098.974999999998545, 5952537.75 ], [ 43098.82499999999709, 5952537.75 ], [ 43098.82499999999709, 5952537.674999999813735 ], [ 43098.75, 5952537.674999999813735 ], [ 43098.75, 5952537.599999999627471 ], [ 43098.67500000000291, 5952537.599999999627471 ], [ 43098.67500000000291, 5952537.525000000372529 ], [ 43098.599999999998545, 5952537.525000000372529 ], [ 43098.599999999998545, 5952537.450000000186265 ], [ 43098.525000000001455, 5952537.450000000186265 ], [ 43098.525000000001455, 5952537.299999999813735 ], [ 43098.44999999999709, 5952537.299999999813735 ], [ 43098.44999999999709, 5952537.224999999627471 ], [ 43098.375, 5952537.224999999627471 ], [ 43098.375, 5952537.150000000372529 ], [ 43098.30000000000291, 5952537.150000000372529 ], [ 43098.30000000000291, 5952537.0 ], [ 43098.224999999998545, 5952537.0 ], [ 43098.224999999998545, 5952536.924999999813735 ], [ 43098.150000000001455, 5952536.924999999813735 ], [ 43098.150000000001455, 5952536.849999999627471 ], [ 43098.07499999999709, 5952536.849999999627471 ], [ 43098.07499999999709, 5952536.775000000372529 ], [ 43097.92500000000291, 5952536.775000000372529 ], [ 43097.92500000000291, 5952536.700000000186265 ], [ 43097.775000000001455, 5952536.700000000186265 ], [ 43097.775000000001455, 5952536.625 ], [ 43097.625, 5952536.625 ], [ 43097.625, 5952536.549999999813735 ], [ 43097.55000000000291, 5952536.549999999813735 ], [ 43097.55000000000291, 5952536.474999999627471 ], [ 43097.400000000001455, 5952536.474999999627471 ], [ 43097.400000000001455, 5952536.400000000372529 ], [ 43097.32499999999709, 5952536.400000000372529 ], [ 43097.32499999999709, 5952536.325000000186265 ], [ 43097.17500000000291, 5952536.325000000186265 ], [ 43097.17500000000291, 5952536.25 ], [ 43097.099999999998545, 5952536.25 ], [ 43097.099999999998545, 5952536.174999999813735 ], [ 43097.025000000001455, 5952536.174999999813735 ], [ 43097.025000000001455, 5952536.099999999627471 ], [ 43096.94999999999709, 5952536.099999999627471 ], [ 43096.94999999999709, 5952536.025000000372529 ], [ 43096.875, 5952536.025000000372529 ], [ 43096.875, 5952535.950000000186265 ], [ 43096.80000000000291, 5952535.950000000186265 ], [ 43096.80000000000291, 5952535.799999999813735 ], [ 43096.724999999998545, 5952535.799999999813735 ], [ 43096.724999999998545, 5952535.724999999627471 ], [ 43096.650000000001455, 5952535.724999999627471 ], [ 43096.650000000001455, 5952535.575000000186265 ], [ 43096.57499999999709, 5952535.575000000186265 ], [ 43096.57499999999709, 5952535.5 ], [ 43096.5, 5952535.5 ], [ 43096.5, 5952535.349999999627471 ], [ 43096.42500000000291, 5952535.349999999627471 ], [ 43096.42500000000291, 5952535.200000000186265 ], [ 43096.349999999998545, 5952535.200000000186265 ], [ 43096.349999999998545, 5952535.049999999813735 ], [ 43096.275000000001455, 5952535.049999999813735 ], [ 43096.275000000001455, 5952534.974999999627471 ], [ 43096.19999999999709, 5952534.974999999627471 ], [ 43096.19999999999709, 5952534.900000000372529 ], [ 43096.125, 5952534.900000000372529 ], [ 43096.125, 5952534.825000000186265 ], [ 43096.05000000000291, 5952534.825000000186265 ], [ 43096.05000000000291, 5952534.75 ], [ 43095.974999999998545, 5952534.75 ], [ 43095.974999999998545, 5952534.674999999813735 ], [ 43095.82499999999709, 5952534.674999999813735 ], [ 43095.82499999999709, 5952534.599999999627471 ], [ 43095.67500000000291, 5952534.599999999627471 ], [ 43095.67500000000291, 5952534.525000000372529 ], [ 43095.599999999998545, 5952534.525000000372529 ], [ 43095.599999999998545, 5952534.450000000186265 ], [ 43095.44999999999709, 5952534.450000000186265 ], [ 43095.44999999999709, 5952534.375 ], [ 43095.375, 5952534.375 ], [ 43095.375, 5952534.299999999813735 ], [ 43095.30000000000291, 5952534.299999999813735 ], [ 43095.30000000000291, 5952534.224999999627471 ], [ 43095.224999999998545, 5952534.224999999627471 ], [ 43095.224999999998545, 5952534.150000000372529 ], [ 43095.150000000001455, 5952534.150000000372529 ], [ 43095.150000000001455, 5952534.075000000186265 ], [ 43095.07499999999709, 5952534.075000000186265 ], [ 43095.07499999999709, 5952534.0 ], [ 43095.0, 5952534.0 ], [ 43095.0, 5952533.924999999813735 ], [ 43094.92500000000291, 5952533.924999999813735 ], [ 43094.92500000000291, 5952533.775000000372529 ], [ 43094.849999999998545, 5952533.775000000372529 ], [ 43094.849999999998545, 5952533.700000000186265 ], [ 43094.775000000001455, 5952533.700000000186265 ], [ 43094.775000000001455, 5952533.549999999813735 ], [ 43094.69999999999709, 5952533.549999999813735 ], [ 43094.69999999999709, 5952533.400000000372529 ], [ 43094.625, 5952533.400000000372529 ], [ 43094.625, 5952533.25 ], [ 43094.55000000000291, 5952533.25 ], [ 43094.55000000000291, 5952533.099999999627471 ], [ 43094.474999999998545, 5952533.099999999627471 ], [ 43094.474999999998545, 5952532.950000000186265 ], [ 43094.400000000001455, 5952532.950000000186265 ], [ 43094.400000000001455, 5952532.799999999813735 ], [ 43094.32499999999709, 5952532.799999999813735 ], [ 43094.32499999999709, 5952532.650000000372529 ], [ 43094.25, 5952532.650000000372529 ], [ 43094.25, 5952532.5 ], [ 43094.17500000000291, 5952532.5 ], [ 43094.17500000000291, 5952532.424999999813735 ], [ 43094.099999999998545, 5952532.424999999813735 ], [ 43094.099999999998545, 5952532.349999999627471 ], [ 43094.025000000001455, 5952532.349999999627471 ], [ 43094.025000000001455, 5952532.275000000372529 ], [ 43093.875, 5952532.275000000372529 ], [ 43093.875, 5952532.200000000186265 ], [ 43093.80000000000291, 5952532.200000000186265 ], [ 43093.80000000000291, 5952532.125 ], [ 43093.724999999998545, 5952532.125 ], [ 43093.724999999998545, 5952532.049999999813735 ], [ 43093.650000000001455, 5952532.049999999813735 ], [ 43093.650000000001455, 5952531.974999999627471 ], [ 43093.57499999999709, 5952531.974999999627471 ], [ 43093.57499999999709, 5952531.900000000372529 ], [ 43093.5, 5952531.900000000372529 ], [ 43093.5, 5952531.825000000186265 ], [ 43093.42500000000291, 5952531.825000000186265 ], [ 43093.42500000000291, 5952531.75 ], [ 43093.349999999998545, 5952531.75 ], [ 43093.349999999998545, 5952531.674999999813735 ], [ 43093.275000000001455, 5952531.674999999813735 ], [ 43093.275000000001455, 5952531.525000000372529 ], [ 43093.19999999999709, 5952531.525000000372529 ], [ 43093.19999999999709, 5952531.450000000186265 ], [ 43093.125, 5952531.450000000186265 ], [ 43093.125, 5952531.375 ], [ 43093.05000000000291, 5952531.375 ], [ 43093.05000000000291, 5952531.224999999627471 ], [ 43092.974999999998545, 5952531.224999999627471 ], [ 43092.974999999998545, 5952531.150000000372529 ], [ 43092.900000000001455, 5952531.150000000372529 ], [ 43092.900000000001455, 5952531.075000000186265 ], [ 43092.82499999999709, 5952531.075000000186265 ], [ 43092.82499999999709, 5952530.924999999813735 ], [ 43092.75, 5952530.924999999813735 ], [ 43092.75, 5952530.849999999627471 ], [ 43092.67500000000291, 5952530.849999999627471 ], [ 43092.67500000000291, 5952530.775000000372529 ], [ 43092.599999999998545, 5952530.775000000372529 ], [ 43092.599999999998545, 5952530.700000000186265 ], [ 43092.525000000001455, 5952530.700000000186265 ], [ 43092.525000000001455, 5952530.625 ], [ 43092.44999999999709, 5952530.625 ], [ 43092.44999999999709, 5952530.549999999813735 ], [ 43092.375, 5952530.549999999813735 ], [ 43092.375, 5952530.474999999627471 ], [ 43092.30000000000291, 5952530.474999999627471 ], [ 43092.30000000000291, 5952530.400000000372529 ], [ 43092.224999999998545, 5952530.400000000372529 ], [ 43092.224999999998545, 5952530.325000000186265 ], [ 43092.150000000001455, 5952530.325000000186265 ], [ 43092.150000000001455, 5952530.25 ], [ 43092.07499999999709, 5952530.25 ], [ 43092.07499999999709, 5952530.174999999813735 ], [ 43092.0, 5952530.174999999813735 ], [ 43092.0, 5952530.099999999627471 ], [ 43091.92500000000291, 5952530.099999999627471 ], [ 43091.92500000000291, 5952530.025000000372529 ], [ 43091.849999999998545, 5952530.025000000372529 ], [ 43091.849999999998545, 5952529.950000000186265 ], [ 43091.775000000001455, 5952529.950000000186265 ], [ 43091.775000000001455, 5952529.875 ], [ 43091.69999999999709, 5952529.875 ], [ 43091.69999999999709, 5952529.799999999813735 ], [ 43091.625, 5952529.799999999813735 ], [ 43091.625, 5952529.724999999627471 ], [ 43091.55000000000291, 5952529.724999999627471 ], [ 43091.55000000000291, 5952529.650000000372529 ], [ 43091.474999999998545, 5952529.650000000372529 ], [ 43091.474999999998545, 5952529.575000000186265 ], [ 43091.400000000001455, 5952529.575000000186265 ], [ 43091.400000000001455, 5952529.424999999813735 ], [ 43091.32499999999709, 5952529.424999999813735 ], [ 43091.32499999999709, 5952529.349999999627471 ], [ 43091.25, 5952529.349999999627471 ], [ 43091.25, 5952529.275000000372529 ], [ 43091.17500000000291, 5952529.275000000372529 ], [ 43091.17500000000291, 5952529.125 ], [ 43091.099999999998545, 5952529.125 ], [ 43091.099999999998545, 5952528.974999999627471 ], [ 43091.025000000001455, 5952528.974999999627471 ], [ 43091.025000000001455, 5952528.825000000186265 ], [ 43090.94999999999709, 5952528.825000000186265 ], [ 43090.94999999999709, 5952528.674999999813735 ], [ 43090.875, 5952528.674999999813735 ], [ 43090.875, 5952528.525000000372529 ], [ 43090.80000000000291, 5952528.525000000372529 ], [ 43090.80000000000291, 5952528.299999999813735 ], [ 43090.724999999998545, 5952528.299999999813735 ], [ 43090.724999999998545, 5952528.150000000372529 ], [ 43090.650000000001455, 5952528.150000000372529 ], [ 43090.650000000001455, 5952527.924999999813735 ], [ 43090.57499999999709, 5952527.924999999813735 ], [ 43090.57499999999709, 5952527.700000000186265 ], [ 43090.5, 5952527.700000000186265 ], [ 43090.5, 5952527.474999999627471 ], [ 43090.42500000000291, 5952527.474999999627471 ], [ 43090.42500000000291, 5952527.25 ], [ 43090.349999999998545, 5952527.25 ], [ 43090.349999999998545, 5952526.875 ], [ 43090.275000000001455, 5952526.875 ], [ 43090.275000000001455, 5952526.575000000186265 ], [ 43090.19999999999709, 5952526.575000000186265 ], [ 43090.19999999999709, 5952526.424999999813735 ], [ 43090.125, 5952526.424999999813735 ], [ 43090.125, 5952526.275000000372529 ], [ 43090.05000000000291, 5952526.275000000372529 ], [ 43090.05000000000291, 5952526.200000000186265 ], [ 43089.974999999998545, 5952526.200000000186265 ], [ 43089.974999999998545, 5952526.049999999813735 ], [ 43089.900000000001455, 5952526.049999999813735 ], [ 43089.900000000001455, 5952525.900000000372529 ], [ 43089.82499999999709, 5952525.900000000372529 ], [ 43089.82499999999709, 5952525.75 ], [ 43089.75, 5952525.75 ], [ 43089.75, 5952525.599999999627471 ], [ 43089.67500000000291, 5952525.599999999627471 ], [ 43089.67500000000291, 5952525.450000000186265 ], [ 43089.599999999998545, 5952525.450000000186265 ], [ 43089.599999999998545, 5952525.299999999813735 ], [ 43089.525000000001455, 5952525.299999999813735 ], [ 43089.525000000001455, 5952525.224999999627471 ], [ 43089.44999999999709, 5952525.224999999627471 ], [ 43089.44999999999709, 5952525.150000000372529 ], [ 43089.375, 5952525.150000000372529 ], [ 43089.375, 5952525.075000000186265 ], [ 43089.30000000000291, 5952525.075000000186265 ], [ 43089.30000000000291, 5952525.0 ], [ 43089.224999999998545, 5952525.0 ], [ 43089.224999999998545, 5952524.924999999813735 ], [ 43089.150000000001455, 5952524.924999999813735 ], [ 43089.150000000001455, 5952524.849999999627471 ], [ 43089.07499999999709, 5952524.849999999627471 ], [ 43089.07499999999709, 5952524.775000000372529 ], [ 43088.92500000000291, 5952524.775000000372529 ], [ 43088.92500000000291, 5952524.700000000186265 ], [ 43088.849999999998545, 5952524.700000000186265 ], [ 43088.849999999998545, 5952524.625 ], [ 43088.775000000001455, 5952524.625 ], [ 43088.775000000001455, 5952524.549999999813735 ], [ 43088.625, 5952524.549999999813735 ], [ 43088.625, 5952524.474999999627471 ], [ 43088.55000000000291, 5952524.474999999627471 ], [ 43088.55000000000291, 5952524.400000000372529 ], [ 43088.400000000001455, 5952524.400000000372529 ], [ 43088.400000000001455, 5952524.325000000186265 ], [ 43088.32499999999709, 5952524.325000000186265 ], [ 43088.32499999999709, 5952524.25 ], [ 43088.17500000000291, 5952524.25 ], [ 43088.17500000000291, 5952524.174999999813735 ], [ 43087.94999999999709, 5952524.174999999813735 ], [ 43087.94999999999709, 5952524.099999999627471 ], [ 43087.80000000000291, 5952524.099999999627471 ], [ 43087.80000000000291, 5952524.025000000372529 ], [ 43087.650000000001455, 5952524.025000000372529 ], [ 43087.650000000001455, 5952523.950000000186265 ], [ 43087.42500000000291, 5952523.950000000186265 ], [ 43087.42500000000291, 5952523.875 ], [ 43087.275000000001455, 5952523.875 ], [ 43087.275000000001455, 5952523.799999999813735 ], [ 43087.05000000000291, 5952523.799999999813735 ], [ 43087.05000000000291, 5952523.724999999627471 ], [ 43086.900000000001455, 5952523.724999999627471 ], [ 43086.900000000001455, 5952523.650000000372529 ], [ 43086.67500000000291, 5952523.650000000372529 ], [ 43086.67500000000291, 5952523.575000000186265 ], [ 43086.525000000001455, 5952523.575000000186265 ], [ 43086.525000000001455, 5952523.5 ], [ 43086.30000000000291, 5952523.5 ], [ 43086.30000000000291, 5952523.424999999813735 ], [ 43086.224999999998545, 5952523.424999999813735 ], [ 43086.224999999998545, 5952523.349999999627471 ], [ 43086.150000000001455, 5952523.349999999627471 ], [ 43086.150000000001455, 5952523.275000000372529 ], [ 43086.0, 5952523.275000000372529 ], [ 43086.0, 5952523.200000000186265 ], [ 43085.92500000000291, 5952523.200000000186265 ], [ 43085.92500000000291, 5952523.125 ], [ 43085.849999999998545, 5952523.125 ], [ 43085.849999999998545, 5952523.049999999813735 ], [ 43085.69999999999709, 5952523.049999999813735 ], [ 43085.69999999999709, 5952522.974999999627471 ], [ 43085.625, 5952522.974999999627471 ], [ 43085.625, 5952522.900000000372529 ], [ 43085.55000000000291, 5952522.900000000372529 ], [ 43085.55000000000291, 5952522.825000000186265 ], [ 43085.474999999998545, 5952522.825000000186265 ], [ 43085.474999999998545, 5952522.75 ], [ 43085.400000000001455, 5952522.75 ], [ 43085.400000000001455, 5952522.599999999627471 ], [ 43085.32499999999709, 5952522.599999999627471 ], [ 43085.32499999999709, 5952522.525000000372529 ], [ 43085.25, 5952522.525000000372529 ], [ 43085.25, 5952522.450000000186265 ], [ 43085.17500000000291, 5952522.450000000186265 ], [ 43085.17500000000291, 5952522.299999999813735 ], [ 43085.099999999998545, 5952522.299999999813735 ], [ 43085.099999999998545, 5952522.224999999627471 ], [ 43085.025000000001455, 5952522.224999999627471 ], [ 43085.025000000001455, 5952522.075000000186265 ], [ 43084.94999999999709, 5952522.075000000186265 ], [ 43084.94999999999709, 5952521.924999999813735 ], [ 43084.875, 5952521.924999999813735 ], [ 43084.875, 5952521.775000000372529 ], [ 43084.80000000000291, 5952521.775000000372529 ], [ 43084.80000000000291, 5952521.625 ], [ 43084.724999999998545, 5952521.625 ], [ 43084.724999999998545, 5952521.400000000372529 ], [ 43084.650000000001455, 5952521.400000000372529 ], [ 43084.650000000001455, 5952521.174999999813735 ], [ 43084.57499999999709, 5952521.174999999813735 ], [ 43084.57499999999709, 5952521.025000000372529 ], [ 43084.5, 5952521.025000000372529 ], [ 43084.5, 5952520.799999999813735 ], [ 43084.42500000000291, 5952520.799999999813735 ], [ 43084.42500000000291, 5952520.650000000372529 ], [ 43084.349999999998545, 5952520.650000000372529 ], [ 43084.349999999998545, 5952520.5 ], [ 43084.275000000001455, 5952520.5 ], [ 43084.275000000001455, 5952520.349999999627471 ], [ 43084.19999999999709, 5952520.349999999627471 ], [ 43084.19999999999709, 5952520.275000000372529 ], [ 43084.125, 5952520.275000000372529 ], [ 43084.125, 5952520.125 ], [ 43084.05000000000291, 5952520.125 ], [ 43084.05000000000291, 5952519.974999999627471 ], [ 43083.974999999998545, 5952519.974999999627471 ], [ 43083.974999999998545, 5952519.825000000186265 ], [ 43083.900000000001455, 5952519.825000000186265 ], [ 43083.900000000001455, 5952519.674999999813735 ], [ 43083.82499999999709, 5952519.674999999813735 ], [ 43083.82499999999709, 5952519.525000000372529 ], [ 43083.75, 5952519.525000000372529 ], [ 43083.75, 5952519.150000000372529 ], [ 43083.67500000000291, 5952519.150000000372529 ], [ 43083.67500000000291, 5952518.700000000186265 ], [ 43083.599999999998545, 5952518.700000000186265 ], [ 43083.599999999998545, 5952518.174999999813735 ], [ 43083.525000000001455, 5952518.174999999813735 ], [ 43083.525000000001455, 5952517.650000000372529 ], [ 43083.44999999999709, 5952517.650000000372529 ], [ 43083.44999999999709, 5952517.049999999813735 ], [ 43083.375, 5952517.049999999813735 ], [ 43083.375, 5952516.450000000186265 ], [ 43083.30000000000291, 5952516.450000000186265 ], [ 43083.30000000000291, 5952515.775000000372529 ], [ 43083.224999999998545, 5952515.775000000372529 ], [ 43083.224999999998545, 5952515.099999999627471 ], [ 43083.150000000001455, 5952515.099999999627471 ], [ 43083.150000000001455, 5952514.349999999627471 ], [ 43083.07499999999709, 5952514.349999999627471 ], [ 43083.07499999999709, 5952513.299999999813735 ], [ 43083.150000000001455, 5952513.299999999813735 ], [ 43083.150000000001455, 5952513.150000000372529 ], [ 43083.224999999998545, 5952513.150000000372529 ], [ 43083.224999999998545, 5952512.924999999813735 ], [ 43083.30000000000291, 5952512.924999999813735 ], [ 43083.30000000000291, 5952512.775000000372529 ], [ 43083.375, 5952512.775000000372529 ], [ 43083.375, 5952512.625 ], [ 43083.44999999999709, 5952512.625 ], [ 43083.44999999999709, 5952512.474999999627471 ], [ 43083.525000000001455, 5952512.474999999627471 ], [ 43083.525000000001455, 5952512.400000000372529 ], [ 43083.599999999998545, 5952512.400000000372529 ], [ 43083.599999999998545, 5952512.25 ], [ 43083.67500000000291, 5952512.25 ], [ 43083.67500000000291, 5952512.174999999813735 ], [ 43083.75, 5952512.174999999813735 ], [ 43083.75, 5952512.099999999627471 ], [ 43083.82499999999709, 5952512.099999999627471 ], [ 43083.82499999999709, 5952512.025000000372529 ], [ 43083.900000000001455, 5952512.025000000372529 ], [ 43083.900000000001455, 5952511.950000000186265 ], [ 43083.974999999998545, 5952511.950000000186265 ], [ 43083.974999999998545, 5952511.875 ], [ 43084.05000000000291, 5952511.875 ], [ 43084.05000000000291, 5952511.799999999813735 ], [ 43084.125, 5952511.799999999813735 ], [ 43084.125, 5952511.724999999627471 ], [ 43084.275000000001455, 5952511.724999999627471 ], [ 43084.275000000001455, 5952511.650000000372529 ], [ 43084.42500000000291, 5952511.650000000372529 ], [ 43084.42500000000291, 5952511.349999999627471 ], [ 43084.5, 5952511.349999999627471 ], [ 43084.5, 5952511.125 ], [ 43084.57499999999709, 5952511.125 ], [ 43084.57499999999709, 5952510.974999999627471 ], [ 43084.650000000001455, 5952510.974999999627471 ], [ 43084.650000000001455, 5952510.825000000186265 ], [ 43084.724999999998545, 5952510.825000000186265 ], [ 43084.724999999998545, 5952510.674999999813735 ], [ 43084.80000000000291, 5952510.674999999813735 ], [ 43084.80000000000291, 5952510.599999999627471 ], [ 43084.875, 5952510.599999999627471 ], [ 43084.875, 5952510.525000000372529 ], [ 43084.94999999999709, 5952510.525000000372529 ], [ 43084.94999999999709, 5952510.450000000186265 ], [ 43085.025000000001455, 5952510.450000000186265 ], [ 43085.025000000001455, 5952510.375 ], [ 43085.099999999998545, 5952510.375 ], [ 43085.099999999998545, 5952510.299999999813735 ], [ 43085.17500000000291, 5952510.299999999813735 ], [ 43085.17500000000291, 5952510.224999999627471 ], [ 43085.32499999999709, 5952510.224999999627471 ], [ 43085.32499999999709, 5952510.150000000372529 ], [ 43085.400000000001455, 5952510.150000000372529 ], [ 43085.400000000001455, 5952510.075000000186265 ], [ 43085.55000000000291, 5952510.075000000186265 ], [ 43085.55000000000291, 5952510.0 ], [ 43085.775000000001455, 5952510.0 ], [ 43085.775000000001455, 5952509.924999999813735 ], [ 43085.92500000000291, 5952509.924999999813735 ], [ 43085.92500000000291, 5952509.849999999627471 ], [ 43086.44999999999709, 5952509.849999999627471 ], [ 43086.44999999999709, 5952509.775000000372529 ], [ 43086.82499999999709, 5952509.775000000372529 ], [ 43086.82499999999709, 5952509.700000000186265 ], [ 43087.125, 5952509.700000000186265 ], [ 43087.125, 5952509.625 ], [ 43087.19999999999709, 5952509.625 ], [ 43087.19999999999709, 5952509.549999999813735 ], [ 43087.275000000001455, 5952509.549999999813735 ], [ 43087.275000000001455, 5952509.474999999627471 ], [ 43087.42500000000291, 5952509.474999999627471 ], [ 43087.42500000000291, 5952509.400000000372529 ], [ 43087.57499999999709, 5952509.400000000372529 ], [ 43087.57499999999709, 5952509.325000000186265 ], [ 43087.724999999998545, 5952509.325000000186265 ], [ 43087.724999999998545, 5952509.25 ], [ 43087.875, 5952509.25 ], [ 43087.875, 5952509.174999999813735 ], [ 43088.025000000001455, 5952509.174999999813735 ], [ 43088.025000000001455, 5952509.099999999627471 ], [ 43088.17500000000291, 5952509.099999999627471 ], [ 43088.17500000000291, 5952509.025000000372529 ], [ 43088.32499999999709, 5952509.025000000372529 ], [ 43088.32499999999709, 5952508.950000000186265 ], [ 43088.400000000001455, 5952508.950000000186265 ], [ 43088.400000000001455, 5952508.875 ], [ 43088.55000000000291, 5952508.875 ], [ 43088.55000000000291, 5952508.799999999813735 ], [ 43088.625, 5952508.799999999813735 ], [ 43088.625, 5952508.724999999627471 ], [ 43088.775000000001455, 5952508.724999999627471 ], [ 43088.775000000001455, 5952508.650000000372529 ], [ 43088.92500000000291, 5952508.650000000372529 ], [ 43088.92500000000291, 5952508.575000000186265 ], [ 43089.07499999999709, 5952508.575000000186265 ], [ 43089.07499999999709, 5952508.5 ], [ 43089.224999999998545, 5952508.5 ], [ 43089.224999999998545, 5952508.424999999813735 ], [ 43089.44999999999709, 5952508.424999999813735 ], [ 43089.44999999999709, 5952508.349999999627471 ], [ 43089.67500000000291, 5952508.349999999627471 ], [ 43089.67500000000291, 5952508.275000000372529 ], [ 43089.900000000001455, 5952508.275000000372529 ], [ 43089.900000000001455, 5952508.200000000186265 ], [ 43090.275000000001455, 5952508.200000000186265 ], [ 43090.275000000001455, 5952508.125 ], [ 43090.724999999998545, 5952508.125 ], [ 43090.724999999998545, 5952508.049999999813735 ], [ 43091.32499999999709, 5952508.049999999813735 ], [ 43091.32499999999709, 5952507.974999999627471 ], [ 43092.07499999999709, 5952507.974999999627471 ], [ 43092.07499999999709, 5952507.900000000372529 ], [ 43093.349999999998545, 5952507.900000000372529 ], [ 43093.349999999998545, 5952507.825000000186265 ], [ 43094.32499999999709, 5952507.825000000186265 ], [ 43094.32499999999709, 5952507.75 ], [ 43094.69999999999709, 5952507.75 ], [ 43094.69999999999709, 5952507.674999999813735 ], [ 43094.92500000000291, 5952507.674999999813735 ], [ 43094.92500000000291, 5952507.599999999627471 ], [ 43095.150000000001455, 5952507.599999999627471 ], [ 43095.150000000001455, 5952507.525000000372529 ], [ 43095.44999999999709, 5952507.525000000372529 ], [ 43095.44999999999709, 5952507.450000000186265 ], [ 43095.67500000000291, 5952507.450000000186265 ], [ 43095.67500000000291, 5952507.375 ], [ 43095.974999999998545, 5952507.375 ], [ 43095.974999999998545, 5952507.299999999813735 ], [ 43096.125, 5952507.299999999813735 ], [ 43096.125, 5952507.224999999627471 ], [ 43096.275000000001455, 5952507.224999999627471 ], [ 43096.275000000001455, 5952507.150000000372529 ], [ 43096.349999999998545, 5952507.150000000372529 ], [ 43096.349999999998545, 5952507.075000000186265 ], [ 43096.5, 5952507.075000000186265 ], [ 43096.5, 5952507.0 ], [ 43096.650000000001455, 5952507.0 ], [ 43096.650000000001455, 5952506.924999999813735 ], [ 43096.80000000000291, 5952506.924999999813735 ], [ 43096.80000000000291, 5952506.849999999627471 ], [ 43096.94999999999709, 5952506.849999999627471 ], [ 43096.94999999999709, 5952506.775000000372529 ], [ 43097.17500000000291, 5952506.775000000372529 ], [ 43097.17500000000291, 5952506.700000000186265 ], [ 43097.400000000001455, 5952506.700000000186265 ], [ 43097.400000000001455, 5952506.625 ], [ 43097.625, 5952506.625 ], [ 43097.625, 5952506.549999999813735 ], [ 43097.92500000000291, 5952506.549999999813735 ], [ 43097.92500000000291, 5952506.474999999627471 ], [ 43098.599999999998545, 5952506.474999999627471 ], [ 43098.599999999998545, 5952506.400000000372529 ], [ 43099.57499999999709, 5952506.400000000372529 ], [ 43099.57499999999709, 5952506.325000000186265 ], [ 43100.474999999998545, 5952506.325000000186265 ], [ 43100.474999999998545, 5952506.400000000372529 ], [ 43101.75, 5952506.400000000372529 ], [ 43101.75, 5952506.474999999627471 ], [ 43102.125, 5952506.474999999627471 ], [ 43102.125, 5952506.549999999813735 ], [ 43102.275000000001455, 5952506.549999999813735 ], [ 43102.275000000001455, 5952506.625 ], [ 43102.42500000000291, 5952506.625 ], [ 43102.42500000000291, 5952506.700000000186265 ], [ 43102.57499999999709, 5952506.700000000186265 ], [ 43102.57499999999709, 5952506.775000000372529 ], [ 43102.724999999998545, 5952506.775000000372529 ], [ 43102.724999999998545, 5952506.849999999627471 ], [ 43102.80000000000291, 5952506.849999999627471 ], [ 43102.80000000000291, 5952506.924999999813735 ], [ 43102.94999999999709, 5952506.924999999813735 ], [ 43102.94999999999709, 5952507.0 ], [ 43103.025000000001455, 5952507.0 ], [ 43103.025000000001455, 5952507.075000000186265 ], [ 43103.099999999998545, 5952507.075000000186265 ], [ 43103.099999999998545, 5952507.150000000372529 ], [ 43103.25, 5952507.150000000372529 ], [ 43103.25, 5952507.224999999627471 ], [ 43103.32499999999709, 5952507.224999999627471 ], [ 43103.32499999999709, 5952507.299999999813735 ], [ 43103.400000000001455, 5952507.299999999813735 ], [ 43103.400000000001455, 5952507.375 ], [ 43103.474999999998545, 5952507.375 ], [ 43103.474999999998545, 5952507.525000000372529 ], [ 43103.55000000000291, 5952507.525000000372529 ], [ 43103.55000000000291, 5952507.599999999627471 ], [ 43103.625, 5952507.599999999627471 ], [ 43103.625, 5952507.674999999813735 ], [ 43103.69999999999709, 5952507.674999999813735 ], [ 43103.69999999999709, 5952507.75 ], [ 43103.775000000001455, 5952507.75 ], [ 43103.775000000001455, 5952507.825000000186265 ], [ 43103.849999999998545, 5952507.825000000186265 ], [ 43103.849999999998545, 5952507.900000000372529 ], [ 43103.92500000000291, 5952507.900000000372529 ], [ 43103.92500000000291, 5952507.974999999627471 ], [ 43104.07499999999709, 5952507.974999999627471 ], [ 43104.07499999999709, 5952508.049999999813735 ], [ 43104.150000000001455, 5952508.049999999813735 ], [ 43104.150000000001455, 5952508.125 ], [ 43104.30000000000291, 5952508.125 ], [ 43104.30000000000291, 5952508.200000000186265 ], [ 43104.375, 5952508.200000000186265 ], [ 43104.375, 5952508.275000000372529 ], [ 43104.44999999999709, 5952508.275000000372529 ], [ 43104.44999999999709, 5952508.349999999627471 ], [ 43104.525000000001455, 5952508.349999999627471 ], [ 43104.525000000001455, 5952508.424999999813735 ], [ 43104.599999999998545, 5952508.424999999813735 ], [ 43104.599999999998545, 5952508.5 ], [ 43104.67500000000291, 5952508.5 ], [ 43104.67500000000291, 5952508.575000000186265 ], [ 43104.75, 5952508.575000000186265 ], [ 43104.75, 5952508.650000000372529 ], [ 43104.82499999999709, 5952508.650000000372529 ], [ 43104.82499999999709, 5952508.724999999627471 ], [ 43104.900000000001455, 5952508.724999999627471 ], [ 43104.900000000001455, 5952508.799999999813735 ], [ 43104.974999999998545, 5952508.799999999813735 ], [ 43104.974999999998545, 5952508.875 ], [ 43105.05000000000291, 5952508.875 ], [ 43105.05000000000291, 5952509.025000000372529 ], [ 43105.125, 5952509.025000000372529 ], [ 43105.125, 5952509.099999999627471 ], [ 43105.19999999999709, 5952509.099999999627471 ], [ 43105.19999999999709, 5952509.25 ], [ 43105.275000000001455, 5952509.25 ], [ 43105.275000000001455, 5952509.325000000186265 ], [ 43105.349999999998545, 5952509.325000000186265 ], [ 43105.349999999998545, 5952509.474999999627471 ], [ 43105.42500000000291, 5952509.474999999627471 ], [ 43105.42500000000291, 5952509.625 ], [ 43105.5, 5952509.625 ], [ 43105.5, 5952509.775000000372529 ], [ 43105.57499999999709, 5952509.775000000372529 ], [ 43105.57499999999709, 5952509.849999999627471 ], [ 43105.650000000001455, 5952509.849999999627471 ], [ 43105.650000000001455, 5952509.924999999813735 ], [ 43105.724999999998545, 5952509.924999999813735 ], [ 43105.724999999998545, 5952510.0 ], [ 43105.80000000000291, 5952510.0 ], [ 43105.80000000000291, 5952510.075000000186265 ], [ 43105.875, 5952510.075000000186265 ], [ 43105.875, 5952510.150000000372529 ], [ 43105.94999999999709, 5952510.150000000372529 ], [ 43105.94999999999709, 5952510.224999999627471 ], [ 43106.025000000001455, 5952510.224999999627471 ], [ 43106.025000000001455, 5952510.299999999813735 ], [ 43106.099999999998545, 5952510.299999999813735 ], [ 43106.099999999998545, 5952510.375 ], [ 43106.17500000000291, 5952510.375 ], [ 43106.17500000000291, 5952510.450000000186265 ], [ 43106.25, 5952510.450000000186265 ], [ 43106.25, 5952510.525000000372529 ], [ 43106.32499999999709, 5952510.525000000372529 ], [ 43106.32499999999709, 5952510.599999999627471 ], [ 43106.400000000001455, 5952510.599999999627471 ], [ 43106.400000000001455, 5952510.75 ], [ 43106.474999999998545, 5952510.75 ], [ 43106.474999999998545, 5952510.900000000372529 ], [ 43106.55000000000291, 5952510.900000000372529 ], [ 43106.55000000000291, 5952510.974999999627471 ], [ 43106.625, 5952510.974999999627471 ], [ 43106.625, 5952511.125 ], [ 43106.69999999999709, 5952511.125 ], [ 43106.69999999999709, 5952511.349999999627471 ], [ 43106.775000000001455, 5952511.349999999627471 ], [ 43106.775000000001455, 5952511.5 ], [ 43106.849999999998545, 5952511.5 ], [ 43106.849999999998545, 5952512.474999999627471 ], [ 43106.92500000000291, 5952512.474999999627471 ], [ 43106.92500000000291, 5952516.0 ], [ 43106.849999999998545, 5952516.0 ], [ 43106.849999999998545, 5952518.775000000372529 ], [ 43106.775000000001455, 5952518.775000000372529 ], [ 43106.775000000001455, 5952522.224999999627471 ], [ 43106.849999999998545, 5952522.224999999627471 ], [ 43106.849999999998545, 5952524.325000000186265 ], [ 43106.92500000000291, 5952524.325000000186265 ], [ 43106.92500000000291, 5952526.575000000186265 ], [ 43107.0, 5952526.575000000186265 ], [ 43107.0, 5952529.5 ], [ 43106.92500000000291, 5952529.5 ], [ 43106.92500000000291, 5952531.0 ], [ 43106.849999999998545, 5952531.0 ], [ 43106.849999999998545, 5952532.049999999813735 ], [ 43106.775000000001455, 5952532.049999999813735 ], [ 43106.775000000001455, 5952533.025000000372529 ], [ 43106.69999999999709, 5952533.025000000372529 ], [ 43106.69999999999709, 5952533.700000000186265 ], [ 43106.625, 5952533.700000000186265 ], [ 43106.625, 5952534.299999999813735 ], [ 43106.55000000000291, 5952534.299999999813735 ], [ 43106.55000000000291, 5952534.825000000186265 ], [ 43106.474999999998545, 5952534.825000000186265 ], [ 43106.474999999998545, 5952535.125 ], [ 43106.400000000001455, 5952535.125 ], [ 43106.400000000001455, 5952535.275000000372529 ], [ 43106.32499999999709, 5952535.275000000372529 ], [ 43106.32499999999709, 5952535.349999999627471 ], [ 43106.25, 5952535.349999999627471 ], [ 43106.25, 5952535.424999999813735 ], [ 43106.17500000000291, 5952535.424999999813735 ], [ 43106.17500000000291, 5952535.575000000186265 ], [ 43106.099999999998545, 5952535.575000000186265 ], [ 43106.099999999998545, 5952535.650000000372529 ], [ 43106.025000000001455, 5952535.650000000372529 ], [ 43106.025000000001455, 5952535.724999999627471 ], [ 43105.94999999999709, 5952535.724999999627471 ], [ 43105.94999999999709, 5952535.799999999813735 ], [ 43105.80000000000291, 5952535.799999999813735 ], [ 43105.80000000000291, 5952535.875 ], [ 43105.724999999998545, 5952535.875 ], [ 43105.724999999998545, 5952535.950000000186265 ], [ 43105.650000000001455, 5952535.950000000186265 ], [ 43105.650000000001455, 5952536.025000000372529 ], [ 43105.5, 5952536.025000000372529 ], [ 43105.5, 5952536.099999999627471 ], [ 43105.42500000000291, 5952536.099999999627471 ], [ 43105.42500000000291, 5952536.174999999813735 ], [ 43105.349999999998545, 5952536.174999999813735 ], [ 43105.349999999998545, 5952536.25 ], [ 43105.275000000001455, 5952536.25 ], [ 43105.275000000001455, 5952536.325000000186265 ], [ 43105.19999999999709, 5952536.325000000186265 ], [ 43105.19999999999709, 5952536.400000000372529 ], [ 43105.125, 5952536.400000000372529 ], [ 43105.125, 5952536.549999999813735 ], [ 43105.05000000000291, 5952536.549999999813735 ], [ 43105.05000000000291, 5952536.625 ], [ 43104.974999999998545, 5952536.625 ], [ 43104.974999999998545, 5952536.700000000186265 ], [ 43104.900000000001455, 5952536.700000000186265 ], [ 43104.900000000001455, 5952536.849999999627471 ], [ 43104.82499999999709, 5952536.849999999627471 ], [ 43104.82499999999709, 5952536.924999999813735 ], [ 43104.75, 5952536.924999999813735 ], [ 43104.75, 5952537.075000000186265 ], [ 43104.67500000000291, 5952537.075000000186265 ], [ 43104.67500000000291, 5952537.150000000372529 ], [ 43104.599999999998545, 5952537.150000000372529 ], [ 43104.599999999998545, 5952537.299999999813735 ], [ 43104.525000000001455, 5952537.299999999813735 ], [ 43104.525000000001455, 5952537.375 ], [ 43104.44999999999709, 5952537.375 ], [ 43104.44999999999709, 5952537.450000000186265 ], [ 43104.375, 5952537.450000000186265 ], [ 43104.375, 5952537.525000000372529 ], [ 43104.30000000000291, 5952537.525000000372529 ], [ 43104.30000000000291, 5952537.599999999627471 ], [ 43104.224999999998545, 5952537.599999999627471 ], [ 43104.224999999998545, 5952537.674999999813735 ], [ 43104.150000000001455, 5952537.674999999813735 ], [ 43104.150000000001455, 5952537.75 ], [ 43104.0, 5952537.75 ], [ 43104.0, 5952537.825000000186265 ], [ 43103.92500000000291, 5952537.825000000186265 ], [ 43103.92500000000291, 5952537.900000000372529 ], [ 43103.625, 5952537.900000000372529 ], [ 43103.625, 5952537.974999999627471 ], [ 43103.32499999999709, 5952537.974999999627471 ], [ 43103.32499999999709, 5952538.049999999813735 ], [ 43103.025000000001455, 5952538.049999999813735 ], [ 43103.025000000001455, 5952538.125 ], [ 43102.724999999998545, 5952538.125 ], [ 43102.724999999998545, 5952538.200000000186265 ], [ 43102.349999999998545, 5952538.200000000186265 ], [ 43102.349999999998545, 5952538.275000000372529 ], [ 43101.974999999998545, 5952538.275000000372529 ], [ 43101.974999999998545, 5952538.349999999627471 ], [ 43099.94999999999709, 5952538.349999999627471 ] ] ] } }
]
}
