{
"type": "FeatureCollection",
"name": "44433E593982N_buildings",
"crs": { "type": "name", "properties": { "name": "urn:ogc:def:crs:EPSG::3776" } },
"features": [
{ "type": "Feature", "properties": { "value": 1.0, "building_id": 0, "area": 24.193124999939531 }, "geometry": { "type": "Polygon", "coordinates": [ [ [ 44680.05000000000291, 5940464.549999999813735 ], [ 44680.05000000000291, 5940464.474999999627471 ], [ 44679.974999999998545, 5940464.474999999627471 ], [ 44679.974999999998545, 5940464.400000000372529 ], [ 44679.82499999999709, 5940464.400000000372529 ], [ 44679.82499999999709, 5940464.325000000186265 ], [ 44679.75, 5940464.325000000186265 ], [ 44679.75, 5940464.25 ], [ 44679.67500000000291, 5940464.25 ], [ 44679.67500000000291, 5940464.174999999813735 ], [ 44679.599999999998545, 5940464.174999999813735 ], [ 44679.599999999998545, 5940464.099999999627471 ], [ 44679.44999999999709, 5940464.099999999627471 ], [ 44679.44999999999709, 5940464.025000000372529 ], [ 44679.375, 5940464.025000000372529 ], [ 44679.375, 5940463.950000000186265 ], [ 44679.30000000000291, 5940463.950000000186265 ], [ 44679.30000000000291, 5940463.875 ], [ 44679.150000000001455, 5940463.875 ], [ 44679.150000000001455, 5940463.799999999813735 ], [ 44679.07499999999709, 5940463.799999999813735 ], [ 44679.07499999999709, 5940463.724999999627471 ], [ 44679.0, 5940463.724999999627471 ], [ 44679.0, 5940463.650000000372529 ], [ 44678.849999999998545, 5940463.650000000372529 ], [ 44678.849999999998545, 5940463.575000000186265 ], [ 44678.775000000001455, 5940463.575000000186265 ], [ 44678.775000000001455, 5940463.5 ], [ 44678.625, 5940463.5 ], [ 44678.625, 5940463.424999999813735 ], [ 44678.55000000000291, 5940463.424999999813735 ], [ 44678.55000000000291, 5940463.349999999627471 ], [ 44678.400000000001455, 5940463.349999999627471 ], [ 44678.400000000001455, 5940463.275000000372529 ], [ 44678.25, 5940463.275000000372529 ], [ 44678.25, 5940463.200000000186265 ], [ 44678.17500000000291, 5940463.200000000186265 ], [ 44678.17500000000291, 5940463.125 ], [ 44678.099999999998545, 5940463.125 ], [ 44678.099999999998545, 5940463.049999999813735 ], [ 44678.025000000001455, 5940463.049999999813735 ], [ 44678.025000000001455, 5940462.974999999627471 ], [ 44677.94999999999709, 5940462.974999999627471 ], [ 44677.94999999999709, 5940462.825000000186265 ], [ 44677.875, 5940462.825000000186265 ], [ 44677.875, 5940462.674999999813735 ], [ 44677.80000000000291, 5940462.674999999813735 ], [ 44677.80000000000291, 5940462.525000000372529 ], [ 44677.724999999998545, 5940462.525000000372529 ], [ 44677.724999999998545, 5940462.299999999813735 ], [ 44677.650000000001455, 5940462.299999999813735 ], [ 44677.650000000001455, 5940462.150000000372529 ], [ 44677.57499999999709, 5940462.150000000372529 ], [ 44677.57499999999709, 5940461.924999999813735 ], [ 44677.5, 5940461.924999999813735 ], [ 44677.5, 5940461.700000000186265 ], [ 44677.42500000000291, 5940461.700000000186265 ], [ 44677.42500000000291, 5940461.474999999627471 ], [ 44677.349999999998545, 5940461.474999999627471 ], [ 44677.349999999998545, 5940461.174999999813735 ], [ 44677.275000000001455, 5940461.174999999813735 ], [ 44677.275000000001455, 5940460.875 ], [ 44677.19999999999709, 5940460.875 ], [ 44677.19999999999709, 5940460.575000000186265 ], [ 44677.125, 5940460.575000000186265 ], [ 44677.125, 5940460.349999999627471 ], [ 44677.05000000000291, 5940460.349999999627471 ], [ 44677.05000000000291, 5940460.125 ], [ 44676.974999999998545, 5940460.125 ], [ 44676.974999999998545, 5940459.974999999627471 ], [ 44676.900000000001455, 5940459.974999999627471 ], [ 44676.900000000001455, 5940459.75 ], [ 44676.82499999999709, 5940459.75 ], [ 44676.82499999999709, 5940459.599999999627471 ], [ 44676.75, 5940459.599999999627471 ], [ 44676.75, 5940459.450000000186265 ], [ 44676.67500000000291, 5940459.450000000186265 ], [ 44676.67500000000291, 5940459.375 ], [ 44676.599999999998545, 5940459.375 ], [ 44676.599999999998545, 5940459.224999999627471 ], [ 44676.525000000001455, 5940459.224999999627471 ], [ 44676.525000000001455, 5940459.150000000372529 ], [ 44676.44999999999709, 5940459.150000000372529 ], [ 44676.44999999999709, 5940459.0 ], [ 44676.375, 5940459.0 ], [ 44676.375, 5940458.924999999813735 ], [ 44676.30000000000291, 5940458.924999999813735 ], [ 44676.30000000000291, 5940458.849999999627471 ], [ 44676.375, 5940458.849999999627471 ], [ 44676.375, 5940458.775000000372529 ], [ 44676.44999999999709, 5940458.775000000372529 ], [ 44676.44999999999709, 5940458.700000000186265 ], [ 44676.525000000001455, 5940458.700000000186265 ], [ 44676.525000000001455, 5940458.549999999813735 ], [ 44676.599999999998545, 5940458.549999999813735 ], [ 44676.599999999998545, 5940458.474999999627471 ], [ 44676.67500000000291, 5940458.474999999627471 ], [ 44676.67500000000291, 5940458.400000000372529 ], [ 44676.75, 5940458.400000000372529 ], [ 44676.75, 5940458.325000000186265 ], [ 44676.82499999999709, 5940458.325000000186265 ], [ 44676.82499999999709, 5940458.174999999813735 ], [ 44676.900000000001455, 5940458.174999999813735 ], [ 44676.900000000001455, 5940458.099999999627471 ], [ 44676.974999999998545, 5940458.099999999627471 ], [ 44676.974999999998545, 5940457.950000000186265 ], [ 44677.05000000000291, 5940457.950000000186265 ], [ 44677.05000000000291, 5940457.799999999813735 ], [ 44677.125, 5940457.799999999813735 ], [ 44677.125, 5940457.724999999627471 ], [ 44677.19999999999709, 5940457.724999999627471 ], [ 44677.19999999999709, 5940457.575000000186265 ], [ 44677.275000000001455, 5940457.575000000186265 ], [ 44677.275000000001455, 5940457.424999999813735 ], [ 44677.349999999998545, 5940457.424999999813735 ], [ 44677.349999999998545, 5940457.275000000372529 ], [ 44677.42500000000291, 5940457.275000000372529 ], [ 44677.42500000000291, 5940457.125 ], [ 44677.5, 5940457.125 ], [ 44677.5, 5940456.900000000372529 ], [ 44677.650000000001455, 5940456.900000000372529 ], [ 44677.650000000001455, 5940456.825000000186265 ], [ 44677.724999999998545, 5940456.825000000186265 ], [ 44677.724999999998545, 5940456.75 ], [ 44677.80000000000291, 5940456.75 ], [ 44677.80000000000291, 5940456.674999999813735 ], [ 44677.94999999999709, 5940456.674999999813735 ], [ 44677.94999999999709, 5940456.599999999627471 ], [ 44678.025000000001455, 5940456.599999999627471 ], [ 44678.025000000001455, 5940456.525000000372529 ], [ 44678.25, 5940456.525000000372529 ], [ 44678.25, 5940456.599999999627471 ], [ 44678.55000000000291, 5940456.599999999627471 ], [ 44678.55000000000291, 5940456.674999999813735 ], [ 44678.775000000001455, 5940456.674999999813735 ], [ 44678.775000000001455, 5940456.75 ], [ 44679.0, 5940456.75 ], [ 44679.0, 5940456.825000000186265 ], [ 44679.224999999998545, 5940456.825000000186265 ], [ 44679.224999999998545, 5940456.900000000372529 ], [ 44679.375, 5940456.900000000372529 ], [ 44679.375, 5940456.974999999627471 ], [ 44679.525000000001455, 5940456.974999999627471 ], [ 44679.525000000001455, 5940457.049999999813735 ], [ 44679.599999999998545, 5940457.049999999813735 ], [ 44679.599999999998545, 5940457.125 ], [ 44679.75, 5940457.125 ], [ 44679.75, 5940457.200000000186265 ], [ 44679.900000000001455, 5940457.200000000186265 ], [ 44679.900000000001455, 5940457.275000000372529 ], [ 44680.05000000000291, 5940457.275000000372529 ], [ 44680.05000000000291, 5940457.349999999627471 ], [ 44680.125, 5940457.349999999627471 ], [ 44680.125, 5940457.5 ], [ 44680.19999999999709, 5940457.5 ], [ 44680.19999999999709, 5940457.575000000186265 ], [ 44680.275000000001455, 5940457.575000000186265 ], [ 44680.275000000001455, 5940457.724999999627471 ], [ 44680.349999999998545, 5940457.724999999627471 ], [ 44680.349999999998545, 5940457.875 ], [ 44680.42500000000291, 5940457.875 ], [ 44680.42500000000291, 5940457.950000000186265 ], [ 44680.5, 5940457.950000000186265 ], [ 44680.5, 5940458.099999999627471 ], [ 44680.57499999999709, 5940458.099999999627471 ], [ 44680.57499999999709, 5940458.25 ], [ 44680.650000000001455, 5940458.25 ], [ 44680.650000000001455, 5940458.400000000372529 ], [ 44680.724999999998545, 5940458.400000000372529 ], [ 44680.724999999998545, 5940458.549999999813735 ], [ 44680.80000000000291, 5940458.549999999813735 ], [ 44680.80000000000291, 5940458.700000000186265 ], [ 44680.875, 5940458.700000000186265 ], [ 44680.875, 5940458.849999999627471 ], [ 44680.94999999999709, 5940458.849999999627471 ], [ 44680.94999999999709, 5940461.099999999627471 ], [ 44680.875, 5940461.099999999627471 ], [ 44680.875, 5940462.150000000372529 ], [ 44680.80000000000291, 5940462.150000000372529 ], [ 44680.80000000000291, 5940462.825000000186265 ], [ 44680.724999999998545, 5940462.825000000186265 ], [ 44680.724999999998545, 5940463.125 ], [ 44680.650000000001455, 5940463.125 ], [ 44680.650000000001455, 5940463.349999999627471 ], [ 44680.57499999999709, 5940463.349999999627471 ], [ 44680.57499999999709, 5940463.575000000186265 ], [ 44680.5, 5940463.575000000186265 ], [ 44680.5, 5940463.799999999813735 ], [ 44680.42500000000291, 5940463.799999999813735 ], [ 44680.42500000000291, 5940463.950000000186265 ], [ 44680.349999999998545, 5940463.950000000186265 ], [ 44680.349999999998545, 5940464.099999999627471 ], [ 44680.275000000001455, 5940464.099999999627471 ], [ 44680.275000000001455, 5940464.25 ], [ 44680.19999999999709, 5940464.25 ], [ 44680.19999999999709, 5940464.400000000372529 ], [ 44680.125, 5940464.400000000372529 ], [ 44680.125, 5940464.549999999813735 ], [ 44680.05000000000291, 5940464.549999999813735 ] ] ] } },
{ "type": "Feature", "properties": { "value": 1.0, "building_id": 1, "area": 347.97937500157559 }, "geometry": { "type": "Polygon", "coordinates": [ [ [ 44662.42500000000291, 5940463.349999999627471 ], [ 44662.42500000000291, 5940463.275000000372529 ], [ 44662.275000000001455, 5940463.275000000372529 ], [ 44662.275000000001455, 5940463.200000000186265 ], [ 44662.05000000000291, 5940463.200000000186265 ], [ 44662.05000000000291, 5940463.125 ], [ 44661.900000000001455, 5940463.125 ], [ 44661.900000000001455, 5940463.049999999813735 ], [ 44661.75, 5940463.049999999813735 ], [ 44661.75, 5940462.974999999627471 ], [ 44661.599999999998545, 5940462.974999999627471 ], [ 44661.599999999998545, 5940462.900000000372529 ], [ 44661.44999999999709, 5940462.900000000372529 ], [ 44661.44999999999709, 5940462.825000000186265 ], [ 44661.375, 5940462.825000000186265 ], [ 44661.375, 5940462.75 ], [ 44661.30000000000291, 5940462.75 ], [ 44661.30000000000291, 5940462.674999999813735 ], [ 44661.224999999998545, 5940462.674999999813735 ], [ 44661.224999999998545, 5940462.599999999627471 ], [ 44661.150000000001455, 5940462.599999999627471 ], [ 44661.150000000001455, 5940462.525000000372529 ], [ 44661.07499999999709, 5940462.525000000372529 ], [ 44661.07499999999709, 5940462.450000000186265 ], [ 44660.92500000000291, 5940462.450000000186265 ], [ 44660.92500000000291, 5940462.375 ], [ 44660.849999999998545, 5940462.375 ], [ 44660.849999999998545, 5940462.299999999813735 ], [ 44660.69999999999709, 5940462.299999999813735 ], [ 44660.69999999999709, 5940462.224999999627471 ], [ 44660.625, 5940462.224999999627471 ], [ 44660.625, 5940462.150000000372529 ], [ 44660.474999999998545, 5940462.150000000372529 ], [ 44660.474999999998545, 5940462.075000000186265 ], [ 44660.32499999999709, 5940462.075000000186265 ], [ 44660.32499999999709, 5940462.0 ], [ 44660.099999999998545, 5940462.0 ], [ 44660.099999999998545, 5940461.924999999813735 ], [ 44659.94999999999709, 5940461.924999999813735 ], [ 44659.94999999999709, 5940461.849999999627471 ], [ 44659.80000000000291, 5940461.849999999627471 ], [ 44659.80000000000291, 5940461.775000000372529 ], [ 44659.57499999999709, 5940461.775000000372529 ], [ 44659.57499999999709, 5940461.700000000186265 ], [ 44659.42500000000291, 5940461.700000000186265 ], [ 44659.42500000000291, 5940461.625 ], [ 44659.275000000001455, 5940461.625 ], [ 44659.275000000001455, 5940461.549999999813735 ], [ 44659.05000000000291, 5940461.549999999813735 ], [ 44659.05000000000291, 5940461.474999999627471 ], [ 44658.900000000001455, 5940461.474999999627471 ], [ 44658.900000000001455, 5940461.400000000372529 ], [ 44658.67500000000291, 5940461.400000000372529 ], [ 44658.67500000000291, 5940461.325000000186265 ], [ 44658.525000000001455, 5940461.325000000186265 ], [ 44658.525000000001455, 5940461.25 ], [ 44658.44999999999709, 5940461.25 ], [ 44658.44999999999709, 5940461.099999999627471 ], [ 44658.375, 5940461.099999999627471 ], [ 44658.375, 5940461.025000000372529 ], [ 44658.30000000000291, 5940461.025000000372529 ], [ 44658.30000000000291, 5940460.950000000186265 ], [ 44658.224999999998545, 5940460.950000000186265 ], [ 44658.224999999998545, 5940460.875 ], [ 44658.150000000001455, 5940460.875 ], [ 44658.150000000001455, 5940460.650000000372529 ], [ 44658.07499999999709, 5940460.650000000372529 ], [ 44658.07499999999709, 5940460.424999999813735 ], [ 44658.0, 5940460.424999999813735 ], [ 44658.0, 5940460.275000000372529 ], [ 44657.92500000000291, 5940460.275000000372529 ], [ 44657.92500000000291, 5940460.049999999813735 ], [ 44657.849999999998545, 5940460.049999999813735 ], [ 44657.849999999998545, 5940459.900000000372529 ], [ 44657.775000000001455, 5940459.900000000372529 ], [ 44657.775000000001455, 5940459.75 ], [ 44657.69999999999709, 5940459.75 ], [ 44657.69999999999709, 5940459.599999999627471 ], [ 44657.625, 5940459.599999999627471 ], [ 44657.625, 5940459.525000000372529 ], [ 44657.55000000000291, 5940459.525000000372529 ], [ 44657.55000000000291, 5940459.375 ], [ 44657.474999999998545, 5940459.375 ], [ 44657.474999999998545, 5940459.299999999813735 ], [ 44657.400000000001455, 5940459.299999999813735 ], [ 44657.400000000001455, 5940459.150000000372529 ], [ 44657.32499999999709, 5940459.150000000372529 ], [ 44657.32499999999709, 5940459.075000000186265 ], [ 44657.25, 5940459.075000000186265 ], [ 44657.25, 5940459.0 ], [ 44657.17500000000291, 5940459.0 ], [ 44657.17500000000291, 5940458.849999999627471 ], [ 44657.099999999998545, 5940458.849999999627471 ], [ 44657.099999999998545, 5940458.549999999813735 ], [ 44657.025000000001455, 5940458.549999999813735 ], [ 44657.025000000001455, 5940458.25 ], [ 44656.94999999999709, 5940458.25 ], [ 44656.94999999999709, 5940457.875 ], [ 44656.875, 5940457.875 ], [ 44656.875, 5940457.575000000186265 ], [ 44656.80000000000291, 5940457.575000000186265 ], [ 44656.80000000000291, 5940457.275000000372529 ], [ 44656.724999999998545, 5940457.275000000372529 ], [ 44656.724999999998545, 5940457.049999999813735 ], [ 44656.650000000001455, 5940457.049999999813735 ], [ 44656.650000000001455, 5940456.525000000372529 ], [ 44656.57499999999709, 5940456.525000000372529 ], [ 44656.57499999999709, 5940455.775000000372529 ], [ 44656.5, 5940455.775000000372529 ], [ 44656.5, 5940454.799999999813735 ], [ 44656.42500000000291, 5940454.799999999813735 ], [ 44656.42500000000291, 5940453.599999999627471 ], [ 44656.349999999998545, 5940453.599999999627471 ], [ 44656.349999999998545, 5940452.174999999813735 ], [ 44656.275000000001455, 5940452.174999999813735 ], [ 44656.275000000001455, 5940450.525000000372529 ], [ 44656.19999999999709, 5940450.525000000372529 ], [ 44656.19999999999709, 5940449.099999999627471 ], [ 44656.125, 5940449.099999999627471 ], [ 44656.125, 5940447.900000000372529 ], [ 44656.05000000000291, 5940447.900000000372529 ], [ 44656.05000000000291, 5940446.625 ], [ 44655.974999999998545, 5940446.625 ], [ 44655.974999999998545, 5940445.349999999627471 ], [ 44655.900000000001455, 5940445.349999999627471 ], [ 44655.900000000001455, 5940444.0 ], [ 44655.82499999999709, 5940444.0 ], [ 44655.82499999999709, 5940441.375 ], [ 44655.900000000001455, 5940441.375 ], [ 44655.900000000001455, 5940441.0 ], [ 44655.974999999998545, 5940441.0 ], [ 44655.974999999998545, 5940440.700000000186265 ], [ 44656.05000000000291, 5940440.700000000186265 ], [ 44656.05000000000291, 5940440.400000000372529 ], [ 44656.125, 5940440.400000000372529 ], [ 44656.125, 5940440.099999999627471 ], [ 44656.19999999999709, 5940440.099999999627471 ], [ 44656.19999999999709, 5940439.799999999813735 ], [ 44656.275000000001455, 5940439.799999999813735 ], [ 44656.275000000001455, 5940439.575000000186265 ], [ 44656.349999999998545, 5940439.575000000186265 ], [ 44656.349999999998545, 5940439.349999999627471 ], [ 44656.42500000000291, 5940439.349999999627471 ], [ 44656.42500000000291, 5940439.200000000186265 ], [ 44656.5, 5940439.200000000186265 ], [ 44656.5, 5940439.125 ], [ 44656.57499999999709, 5940439.125 ], [ 44656.57499999999709, 5940439.049999999813735 ], [ 44656.650000000001455, 5940439.049999999813735 ], [ 44656.650000000001455, 5940438.974999999627471 ], [ 44656.724999999998545, 5940438.974999999627471 ], [ 44656.724999999998545, 5940438.900000000372529 ], [ 44656.80000000000291, 5940438.900000000372529 ], [ 44656.80000000000291, 5940438.825000000186265 ], [ 44656.875, 5940438.825000000186265 ], [ 44656.875, 5940438.75 ], [ 44656.94999999999709, 5940438.75 ], [ 44656.94999999999709, 5940438.674999999813735 ], [ 44657.025000000001455, 5940438.674999999813735 ], [ 44657.025000000001455, 5940438.599999999627471 ], [ 44657.099999999998545, 5940438.599999999627471 ], [ 44657.099999999998545, 5940438.525000000372529 ], [ 44657.17500000000291, 5940438.525000000372529 ], [ 44657.17500000000291, 5940438.450000000186265 ], [ 44657.25, 5940438.450000000186265 ], [ 44657.25, 5940438.299999999813735 ], [ 44657.32499999999709, 5940438.299999999813735 ], [ 44657.32499999999709, 5940438.224999999627471 ], [ 44657.400000000001455, 5940438.224999999627471 ], [ 44657.400000000001455, 5940438.075000000186265 ], [ 44657.474999999998545, 5940438.075000000186265 ], [ 44657.474999999998545, 5940437.924999999813735 ], [ 44657.55000000000291, 5940437.924999999813735 ], [ 44657.55000000000291, 5940437.775000000372529 ], [ 44657.625, 5940437.775000000372529 ], [ 44657.625, 5940437.625 ], [ 44657.69999999999709, 5940437.625 ], [ 44657.69999999999709, 5940437.400000000372529 ], [ 44657.775000000001455, 5940437.400000000372529 ], [ 44657.775000000001455, 5940437.325000000186265 ], [ 44657.849999999998545, 5940437.325000000186265 ], [ 44657.849999999998545, 5940437.174999999813735 ], [ 44657.92500000000291, 5940437.174999999813735 ], [ 44657.92500000000291, 5940437.099999999627471 ], [ 44658.0, 5940437.099999999627471 ], [ 44658.0, 5940437.025000000372529 ], [ 44658.07499999999709, 5940437.025000000372529 ], [ 44658.07499999999709, 5940436.950000000186265 ], [ 44658.150000000001455, 5940436.950000000186265 ], [ 44658.150000000001455, 5940436.875 ], [ 44658.224999999998545, 5940436.875 ], [ 44658.224999999998545, 5940436.799999999813735 ], [ 44658.30000000000291, 5940436.799999999813735 ], [ 44658.30000000000291, 5940436.724999999627471 ], [ 44658.375, 5940436.724999999627471 ], [ 44658.375, 5940436.650000000372529 ], [ 44658.44999999999709, 5940436.650000000372529 ], [ 44658.44999999999709, 5940436.575000000186265 ], [ 44658.525000000001455, 5940436.575000000186265 ], [ 44658.525000000001455, 5940436.5 ], [ 44658.67500000000291, 5940436.5 ], [ 44658.67500000000291, 5940436.424999999813735 ], [ 44658.900000000001455, 5940436.424999999813735 ], [ 44658.900000000001455, 5940436.349999999627471 ], [ 44659.05000000000291, 5940436.349999999627471 ], [ 44659.05000000000291, 5940436.275000000372529 ], [ 44659.125, 5940436.275000000372529 ], [ 44659.125, 5940436.200000000186265 ], [ 44659.275000000001455, 5940436.200000000186265 ], [ 44659.275000000001455, 5940436.125 ], [ 44659.349999999998545, 5940436.125 ], [ 44659.349999999998545, 5940436.049999999813735 ], [ 44659.5, 5940436.049999999813735 ], [ 44659.5, 5940435.974999999627471 ], [ 44659.57499999999709, 5940435.974999999627471 ], [ 44659.57499999999709, 5940435.900000000372529 ], [ 44659.650000000001455, 5940435.900000000372529 ], [ 44659.650000000001455, 5940435.825000000186265 ], [ 44659.724999999998545, 5940435.825000000186265 ], [ 44659.724999999998545, 5940435.75 ], [ 44659.80000000000291, 5940435.75 ], [ 44659.80000000000291, 5940435.674999999813735 ], [ 44659.875, 5940435.674999999813735 ], [ 44659.875, 5940435.599999999627471 ], [ 44659.94999999999709, 5940435.599999999627471 ], [ 44659.94999999999709, 5940435.525000000372529 ], [ 44660.025000000001455, 5940435.525000000372529 ], [ 44660.025000000001455, 5940435.450000000186265 ], [ 44660.099999999998545, 5940435.450000000186265 ], [ 44660.099999999998545, 5940435.375 ], [ 44660.17500000000291, 5940435.375 ], [ 44660.17500000000291, 5940435.299999999813735 ], [ 44660.25, 5940435.299999999813735 ], [ 44660.25, 5940435.224999999627471 ], [ 44660.32499999999709, 5940435.224999999627471 ], [ 44660.32499999999709, 5940435.150000000372529 ], [ 44660.474999999998545, 5940435.150000000372529 ], [ 44660.474999999998545, 5940435.075000000186265 ], [ 44660.55000000000291, 5940435.075000000186265 ], [ 44660.55000000000291, 5940435.0 ], [ 44660.775000000001455, 5940435.0 ], [ 44660.775000000001455, 5940434.924999999813735 ], [ 44661.0, 5940434.924999999813735 ], [ 44661.0, 5940434.849999999627471 ], [ 44661.224999999998545, 5940434.849999999627471 ], [ 44661.224999999998545, 5940434.775000000372529 ], [ 44661.525000000001455, 5940434.775000000372529 ], [ 44661.525000000001455, 5940434.700000000186265 ], [ 44661.75, 5940434.700000000186265 ], [ 44661.75, 5940434.625 ], [ 44662.05000000000291, 5940434.625 ], [ 44662.05000000000291, 5940434.549999999813735 ], [ 44662.275000000001455, 5940434.549999999813735 ], [ 44662.275000000001455, 5940434.474999999627471 ], [ 44664.525000000001455, 5940434.474999999627471 ], [ 44664.525000000001455, 5940434.549999999813735 ], [ 44664.75, 5940434.549999999813735 ], [ 44664.75, 5940434.625 ], [ 44664.900000000001455, 5940434.625 ], [ 44664.900000000001455, 5940434.700000000186265 ], [ 44665.05000000000291, 5940434.700000000186265 ], [ 44665.05000000000291, 5940434.775000000372529 ], [ 44665.19999999999709, 5940434.775000000372529 ], [ 44665.19999999999709, 5940434.849999999627471 ], [ 44665.349999999998545, 5940434.849999999627471 ], [ 44665.349999999998545, 5940434.924999999813735 ], [ 44665.42500000000291, 5940434.924999999813735 ], [ 44665.42500000000291, 5940435.0 ], [ 44665.57499999999709, 5940435.0 ], [ 44665.57499999999709, 5940435.075000000186265 ], [ 44665.724999999998545, 5940435.075000000186265 ], [ 44665.724999999998545, 5940435.150000000372529 ], [ 44665.80000000000291, 5940435.150000000372529 ], [ 44665.80000000000291, 5940435.224999999627471 ], [ 44665.875, 5940435.224999999627471 ], [ 44665.875, 5940435.299999999813735 ], [ 44666.025000000001455, 5940435.299999999813735 ], [ 44666.025000000001455, 5940435.375 ], [ 44666.099999999998545, 5940435.375 ], [ 44666.099999999998545, 5940435.450000000186265 ], [ 44666.17500000000291, 5940435.450000000186265 ], [ 44666.17500000000291, 5940435.525000000372529 ], [ 44666.25, 5940435.525000000372529 ], [ 44666.25, 5940435.599999999627471 ], [ 44666.32499999999709, 5940435.599999999627471 ], [ 44666.32499999999709, 5940435.674999999813735 ], [ 44666.400000000001455, 5940435.674999999813735 ], [ 44666.400000000001455, 5940435.75 ], [ 44666.55000000000291, 5940435.75 ], [ 44666.55000000000291, 5940435.825000000186265 ], [ 44666.625, 5940435.825000000186265 ], [ 44666.625, 5940435.900000000372529 ], [ 44666.69999999999709, 5940435.900000000372529 ], [ 44666.69999999999709, 5940435.974999999627471 ], [ 44666.849999999998545, 5940435.974999999627471 ], [ 44666.849999999998545, 5940436.049999999813735 ], [ 44666.92500000000291, 5940436.049999999813735 ], [ 44666.92500000000291, 5940436.125 ], [ 44667.07499999999709, 5940436.125 ], [ 44667.07499999999709, 5940436.200000000186265 ], [ 44667.224999999998545, 5940436.200000000186265 ], [ 44667.224999999998545, 5940436.275000000372529 ], [ 44667.30000000000291, 5940436.275000000372529 ], [ 44667.30000000000291, 5940436.349999999627471 ], [ 44667.44999999999709, 5940436.349999999627471 ], [ 44667.44999999999709, 5940436.424999999813735 ], [ 44667.599999999998545, 5940436.424999999813735 ], [ 44667.599999999998545, 5940436.5 ], [ 44667.75, 5940436.5 ], [ 44667.75, 5940436.575000000186265 ], [ 44667.900000000001455, 5940436.575000000186265 ], [ 44667.900000000001455, 5940436.650000000372529 ], [ 44668.05000000000291, 5940436.650000000372529 ], [ 44668.05000000000291, 5940436.724999999627471 ], [ 44668.275000000001455, 5940436.724999999627471 ], [ 44668.275000000001455, 5940436.799999999813735 ], [ 44668.349999999998545, 5940436.799999999813735 ], [ 44668.349999999998545, 5940436.875 ], [ 44668.42500000000291, 5940436.875 ], [ 44668.42500000000291, 5940436.950000000186265 ], [ 44668.5, 5940436.950000000186265 ], [ 44668.5, 5940437.025000000372529 ], [ 44668.57499999999709, 5940437.025000000372529 ], [ 44668.57499999999709, 5940437.099999999627471 ], [ 44668.650000000001455, 5940437.099999999627471 ], [ 44668.650000000001455, 5940437.174999999813735 ], [ 44668.724999999998545, 5940437.174999999813735 ], [ 44668.724999999998545, 5940437.25 ], [ 44668.80000000000291, 5940437.25 ], [ 44668.80000000000291, 5940437.400000000372529 ], [ 44668.875, 5940437.400000000372529 ], [ 44668.875, 5940437.549999999813735 ], [ 44668.94999999999709, 5940437.549999999813735 ], [ 44668.94999999999709, 5940437.849999999627471 ], [ 44669.025000000001455, 5940437.849999999627471 ], [ 44669.025000000001455, 5940438.075000000186265 ], [ 44669.099999999998545, 5940438.075000000186265 ], [ 44669.099999999998545, 5940438.299999999813735 ], [ 44669.17500000000291, 5940438.299999999813735 ], [ 44669.17500000000291, 5940438.525000000372529 ], [ 44669.25, 5940438.525000000372529 ], [ 44669.25, 5940438.825000000186265 ], [ 44669.32499999999709, 5940438.825000000186265 ], [ 44669.32499999999709, 5940439.049999999813735 ], [ 44669.400000000001455, 5940439.049999999813735 ], [ 44669.400000000001455, 5940439.275000000372529 ], [ 44669.474999999998545, 5940439.275000000372529 ], [ 44669.474999999998545, 5940439.424999999813735 ], [ 44669.55000000000291, 5940439.424999999813735 ], [ 44669.55000000000291, 5940439.575000000186265 ], [ 44669.625, 5940439.575000000186265 ], [ 44669.625, 5940439.724999999627471 ], [ 44669.69999999999709, 5940439.724999999627471 ], [ 44669.69999999999709, 5940439.875 ], [ 44669.775000000001455, 5940439.875 ], [ 44669.775000000001455, 5940439.950000000186265 ], [ 44669.849999999998545, 5940439.950000000186265 ], [ 44669.849999999998545, 5940440.099999999627471 ], [ 44669.92500000000291, 5940440.099999999627471 ], [ 44669.92500000000291, 5940440.174999999813735 ], [ 44670.0, 5940440.174999999813735 ], [ 44670.0, 5940440.25 ], [ 44670.07499999999709, 5940440.25 ], [ 44670.07499999999709, 5940440.325000000186265 ], [ 44670.150000000001455, 5940440.325000000186265 ], [ 44670.150000000001455, 5940440.400000000372529 ], [ 44670.224999999998545, 5940440.400000000372529 ], [ 44670.224999999998545, 5940440.474999999627471 ], [ 44670.30000000000291, 5940440.474999999627471 ], [ 44670.30000000000291, 5940440.549999999813735 ], [ 44670.375, 5940440.549999999813735 ], [ 44670.375, 5940440.625 ], [ 44670.44999999999709, 5940440.625 ], [ 44670.44999999999709, 5940440.775000000372529 ], [ 44670.525000000001455, 5940440.775000000372529 ], [ 44670.525000000001455, 5940440.924999999813735 ], [ 44670.599999999998545, 5940440.924999999813735 ], [ 44670.599999999998545, 5940441.0 ], [ 44670.67500000000291, 5940441.0 ], [ 44670.67500000000291, 5940441.150000000372529 ], [ 44670.75, 5940441.150000000372529 ], [ 44670.75, 5940441.674999999813735 ], [ 44670.82499999999709, 5940441.674999999813735 ], [ 44670.82499999999709, 5940443.174999999813735 ], [ 44670.900000000001455, 5940443.174999999813735 ], [ 44670.900000000001455, 5940443.325000000186265 ], [ 44670.82499999999709, 5940443.325000000186265 ], [ 44670.82499999999709, 5940444.900000000372529 ], [ 44670.75, 5940444.900000000372529 ], [ 44670.75, 5940445.875 ], [ 44670.67500000000291, 5940445.875 ], [ 44670.67500000000291, 5940446.700000000186265 ], [ 44670.599999999998545, 5940446.700000000186265 ], [ 44670.599999999998545, 5940447.375 ], [ 44670.525000000001455, 5940447.375 ], [ 44670.525000000001455, 5940447.75 ], [ 44670.44999999999709, 5940447.75 ], [ 44670.44999999999709, 5940448.125 ], [ 44670.375, 5940448.125 ], [ 44670.375, 5940448.5 ], [ 44670.30000000000291, 5940448.5 ], [ 44670.30000000000291, 5940448.799999999813735 ], [ 44670.224999999998545, 5940448.799999999813735 ], [ 44670.224999999998545, 5940448.950000000186265 ], [ 44670.150000000001455, 5940448.950000000186265 ], [ 44670.150000000001455, 5940449.174999999813735 ], [ 44670.07499999999709, 5940449.174999999813735 ], [ 44670.07499999999709, 5940449.474999999627471 ], [ 44670.0, 5940449.474999999627471 ], [ 44670.0, 5940449.775000000372529 ], [ 44669.92500000000291, 5940449.775000000372529 ], [ 44669.92500000000291, 5940450.075000000186265 ], [ 44669.849999999998545, 5940450.075000000186265 ], [ 44669.849999999998545, 5940450.375 ], [ 44669.775000000001455, 5940450.375 ], [ 44669.775000000001455, 5940450.75 ], [ 44669.69999999999709, 5940450.75 ], [ 44669.69999999999709, 5940451.200000000186265 ], [ 44669.625, 5940451.200000000186265 ], [ 44669.625, 5940451.799999999813735 ], [ 44669.55000000000291, 5940451.799999999813735 ], [ 44669.55000000000291, 5940452.400000000372529 ], [ 44669.474999999998545, 5940452.400000000372529 ], [ 44669.474999999998545, 5940453.075000000186265 ], [ 44669.400000000001455, 5940453.075000000186265 ], [ 44669.400000000001455, 5940453.75 ], [ 44669.32499999999709, 5940453.75 ], [ 44669.32499999999709, 5940454.424999999813735 ], [ 44669.25, 5940454.424999999813735 ], [ 44669.25, 5940455.174999999813735 ], [ 44669.17500000000291, 5940455.174999999813735 ], [ 44669.17500000000291, 5940455.775000000372529 ], [ 44669.099999999998545, 5940455.775000000372529 ], [ 44669.099999999998545, 5940456.450000000186265 ], [ 44669.025000000001455, 5940456.450000000186265 ], [ 44669.025000000001455, 5940457.049999999813735 ], [ 44668.94999999999709, 5940457.049999999813735 ], [ 44668.94999999999709, 5940457.650000000372529 ], [ 44668.875, 5940457.650000000372529 ], [ 44668.875, 5940458.25 ], [ 44668.80000000000291, 5940458.25 ], [ 44668.80000000000291, 5940458.924999999813735 ], [ 44668.724999999998545, 5940458.924999999813735 ], [ 44668.724999999998545, 5940459.075000000186265 ], [ 44668.650000000001455, 5940459.075000000186265 ], [ 44668.650000000001455, 5940459.224999999627471 ], [ 44668.57499999999709, 5940459.224999999627471 ], [ 44668.57499999999709, 5940459.375 ], [ 44668.5, 5940459.375 ], [ 44668.5, 5940459.525000000372529 ], [ 44668.42500000000291, 5940459.525000000372529 ], [ 44668.42500000000291, 5940459.674999999813735 ], [ 44668.349999999998545, 5940459.674999999813735 ], [ 44668.349999999998545, 5940459.75 ], [ 44668.275000000001455, 5940459.75 ], [ 44668.275000000001455, 5940459.825000000186265 ], [ 44668.19999999999709, 5940459.825000000186265 ], [ 44668.19999999999709, 5940459.900000000372529 ], [ 44668.125, 5940459.900000000372529 ], [ 44668.125, 5940459.974999999627471 ], [ 44668.05000000000291, 5940459.974999999627471 ], [ 44668.05000000000291, 5940460.049999999813735 ], [ 44667.974999999998545, 5940460.049999999813735 ], [ 44667.974999999998545, 5940460.125 ], [ 44667.900000000001455, 5940460.125 ], [ 44667.900000000001455, 5940460.200000000186265 ], [ 44667.82499999999709, 5940460.200000000186265 ], [ 44667.82499999999709, 5940460.275000000372529 ], [ 44667.75, 5940460.275000000372529 ], [ 44667.75, 5940460.424999999813735 ], [ 44667.67500000000291, 5940460.424999999813735 ], [ 44667.67500000000291, 5940460.5 ], [ 44667.599999999998545, 5940460.5 ], [ 44667.599999999998545, 5940460.650000000372529 ], [ 44667.525000000001455, 5940460.650000000372529 ], [ 44667.525000000001455, 5940460.799999999813735 ], [ 44667.44999999999709, 5940460.799999999813735 ], [ 44667.44999999999709, 5940460.950000000186265 ], [ 44667.375, 5940460.950000000186265 ], [ 44667.375, 5940461.099999999627471 ], [ 44667.30000000000291, 5940461.099999999627471 ], [ 44667.30000000000291, 5940461.174999999813735 ], [ 44667.224999999998545, 5940461.174999999813735 ], [ 44667.224999999998545, 5940461.25 ], [ 44667.150000000001455, 5940461.25 ], [ 44667.150000000001455, 5940461.325000000186265 ], [ 44667.07499999999709, 5940461.325000000186265 ], [ 44667.07499999999709, 5940461.474999999627471 ], [ 44667.0, 5940461.474999999627471 ], [ 44667.0, 5940461.549999999813735 ], [ 44666.92500000000291, 5940461.549999999813735 ], [ 44666.92500000000291, 5940461.625 ], [ 44666.775000000001455, 5940461.625 ], [ 44666.775000000001455, 5940461.700000000186265 ], [ 44666.69999999999709, 5940461.700000000186265 ], [ 44666.69999999999709, 5940461.775000000372529 ], [ 44666.625, 5940461.775000000372529 ], [ 44666.625, 5940461.849999999627471 ], [ 44666.474999999998545, 5940461.849999999627471 ], [ 44666.474999999998545, 5940461.924999999813735 ], [ 44666.400000000001455, 5940461.924999999813735 ], [ 44666.400000000001455, 5940462.0 ], [ 44666.25, 5940462.0 ], [ 44666.25, 5940462.075000000186265 ], [ 44666.099999999998545, 5940462.075000000186265 ], [ 44666.099999999998545, 5940462.150000000372529 ], [ 44665.94999999999709, 5940462.150000000372529 ], [ 44665.94999999999709, 5940462.224999999627471 ], [ 44665.875, 5940462.224999999627471 ], [ 44665.875, 5940462.299999999813735 ], [ 44665.80000000000291, 5940462.299999999813735 ], [ 44665.80000000000291, 5940462.375 ], [ 44665.650000000001455, 5940462.375 ], [ 44665.650000000001455, 5940462.450000000186265 ], [ 44665.57499999999709, 5940462.450000000186265 ], [ 44665.57499999999709, 5940462.525000000372529 ], [ 44665.5, 5940462.525000000372529 ], [ 44665.5, 5940462.599999999627471 ], [ 44665.42500000000291, 5940462.599999999627471 ], [ 44665.42500000000291, 5940462.674999999813735 ], [ 44665.349999999998545, 5940462.674999999813735 ], [ 44665.349999999998545, 5940462.75 ], [ 44665.275000000001455, 5940462.75 ], [ 44665.275000000001455, 5940462.825000000186265 ], [ 44665.19999999999709, 5940462.825000000186265 ], [ 44665.19999999999709, 5940462.900000000372529 ], [ 44665.125, 5940462.900000000372529 ], [ 44665.125, 5940462.974999999627471 ], [ 44664.974999999998545, 5940462.974999999627471 ], [ 44664.974999999998545, 5940463.049999999813735 ], [ 44664.82499999999709, 5940463.049999999813735 ], [ 44664.82499999999709, 5940463.125 ], [ 44664.67500000000291, 5940463.125 ], [ 44664.67500000000291, 5940463.200000000186265 ], [ 44664.525000000001455, 5940463.200000000186265 ], [ 44664.525000000001455, 5940463.275000000372529 ], [ 44663.099999999998545, 5940463.275000000372529 ], [ 44663.099999999998545, 5940463.349999999627471 ], [ 44662.42500000000291, 5940463.349999999627471 ] ] ] } },
{ "type": "Feature", "properties": { "value": 1.0, "building_id": 2, "area": 107.92125000022594 }, "geometry": { "type": "Polygon", "coordinates": [ [ [ 45097.5, 5940396.825000000186265 ], [ 45097.5, 5940396.75 ], [ 45096.150000000001455, 5940396.75 ], [ 45096.150000000001455, 5940396.674999999813735 ], [ 45095.17500000000291, 5940396.674999999813735 ], [ 45095.17500000000291, 5940396.599999999627471 ], [ 45094.125, 5940396.599999999627471 ], [ 45094.125, 5940396.525000000372529 ], [ 45093.67500000000291, 5940396.525000000372529 ], [ 45093.67500000000291, 5940396.450000000186265 ], [ 45093.224999999998545, 5940396.450000000186265 ], [ 45093.224999999998545, 5940396.375 ], [ 45093.0, 5940396.375 ], [ 45093.0, 5940396.299999999813735 ], [ 45092.92500000000291, 5940396.299999999813735 ], [ 45092.92500000000291, 5940396.224999999627471 ], [ 45092.849999999998545, 5940396.224999999627471 ], [ 45092.849999999998545, 5940396.150000000372529 ], [ 45092.775000000001455, 5940396.150000000372529 ], [ 45092.775000000001455, 5940396.075000000186265 ], [ 45092.625, 5940396.075000000186265 ], [ 45092.625, 5940396.0 ], [ 45092.55000000000291, 5940396.0 ], [ 45092.55000000000291, 5940395.924999999813735 ], [ 45092.474999999998545, 5940395.924999999813735 ], [ 45092.474999999998545, 5940395.849999999627471 ], [ 45092.32499999999709, 5940395.849999999627471 ], [ 45092.32499999999709, 5940395.775000000372529 ], [ 45092.25, 5940395.775000000372529 ], [ 45092.25, 5940395.700000000186265 ], [ 45092.17500000000291, 5940395.700000000186265 ], [ 45092.17500000000291, 5940395.549999999813735 ], [ 45092.099999999998545, 5940395.549999999813735 ], [ 45092.099999999998545, 5940395.325000000186265 ], [ 45092.025000000001455, 5940395.325000000186265 ], [ 45092.025000000001455, 5940395.099999999627471 ], [ 45091.94999999999709, 5940395.099999999627471 ], [ 45091.94999999999709, 5940394.875 ], [ 45091.875, 5940394.875 ], [ 45091.875, 5940394.650000000372529 ], [ 45091.80000000000291, 5940394.650000000372529 ], [ 45091.80000000000291, 5940394.424999999813735 ], [ 45091.724999999998545, 5940394.424999999813735 ], [ 45091.724999999998545, 5940393.825000000186265 ], [ 45091.650000000001455, 5940393.825000000186265 ], [ 45091.650000000001455, 5940393.224999999627471 ], [ 45091.57499999999709, 5940393.224999999627471 ], [ 45091.57499999999709, 5940392.625 ], [ 45091.5, 5940392.625 ], [ 45091.5, 5940392.174999999813735 ], [ 45091.42500000000291, 5940392.174999999813735 ], [ 45091.42500000000291, 5940391.724999999627471 ], [ 45091.349999999998545, 5940391.724999999627471 ], [ 45091.349999999998545, 5940391.349999999627471 ], [ 45091.275000000001455, 5940391.349999999627471 ], [ 45091.275000000001455, 5940391.049999999813735 ], [ 45091.19999999999709, 5940391.049999999813735 ], [ 45091.19999999999709, 5940390.674999999813735 ], [ 45091.125, 5940390.674999999813735 ], [ 45091.125, 5940390.299999999813735 ], [ 45091.05000000000291, 5940390.299999999813735 ], [ 45091.05000000000291, 5940389.700000000186265 ], [ 45090.974999999998545, 5940389.700000000186265 ], [ 45090.974999999998545, 5940389.25 ], [ 45090.900000000001455, 5940389.25 ], [ 45090.900000000001455, 5940388.875 ], [ 45090.82499999999709, 5940388.875 ], [ 45090.82499999999709, 5940387.599999999627471 ], [ 45090.900000000001455, 5940387.599999999627471 ], [ 45090.900000000001455, 5940386.775000000372529 ], [ 45090.974999999998545, 5940386.775000000372529 ], [ 45090.974999999998545, 5940386.474999999627471 ], [ 45091.05000000000291, 5940386.474999999627471 ], [ 45091.05000000000291, 5940386.25 ], [ 45091.125, 5940386.25 ], [ 45091.125, 5940386.099999999627471 ], [ 45091.19999999999709, 5940386.099999999627471 ], [ 45091.19999999999709, 5940385.950000000186265 ], [ 45091.275000000001455, 5940385.950000000186265 ], [ 45091.275000000001455, 5940385.875 ], [ 45091.349999999998545, 5940385.875 ], [ 45091.349999999998545, 5940385.724999999627471 ], [ 45091.42500000000291, 5940385.724999999627471 ], [ 45091.42500000000291, 5940385.650000000372529 ], [ 45091.5, 5940385.650000000372529 ], [ 45091.5, 5940385.575000000186265 ], [ 45091.57499999999709, 5940385.575000000186265 ], [ 45091.57499999999709, 5940385.5 ], [ 45091.650000000001455, 5940385.5 ], [ 45091.650000000001455, 5940385.424999999813735 ], [ 45091.724999999998545, 5940385.424999999813735 ], [ 45091.724999999998545, 5940385.349999999627471 ], [ 45091.80000000000291, 5940385.349999999627471 ], [ 45091.80000000000291, 5940385.275000000372529 ], [ 45091.94999999999709, 5940385.275000000372529 ], [ 45091.94999999999709, 5940385.200000000186265 ], [ 45092.025000000001455, 5940385.200000000186265 ], [ 45092.025000000001455, 5940385.125 ], [ 45092.25, 5940385.125 ], [ 45092.25, 5940385.049999999813735 ], [ 45093.44999999999709, 5940385.049999999813735 ], [ 45093.44999999999709, 5940384.974999999627471 ], [ 45094.19999999999709, 5940384.974999999627471 ], [ 45094.19999999999709, 5940384.900000000372529 ], [ 45094.5, 5940384.900000000372529 ], [ 45094.5, 5940384.825000000186265 ], [ 45094.80000000000291, 5940384.825000000186265 ], [ 45094.80000000000291, 5940384.75 ], [ 45095.099999999998545, 5940384.75 ], [ 45095.099999999998545, 5940384.674999999813735 ], [ 45095.400000000001455, 5940384.674999999813735 ], [ 45095.400000000001455, 5940384.599999999627471 ], [ 45095.92500000000291, 5940384.599999999627471 ], [ 45095.92500000000291, 5940384.525000000372529 ], [ 45096.150000000001455, 5940384.525000000372529 ], [ 45096.150000000001455, 5940384.599999999627471 ], [ 45096.30000000000291, 5940384.599999999627471 ], [ 45096.30000000000291, 5940384.674999999813735 ], [ 45096.375, 5940384.674999999813735 ], [ 45096.375, 5940384.75 ], [ 45096.525000000001455, 5940384.75 ], [ 45096.525000000001455, 5940384.825000000186265 ], [ 45096.67500000000291, 5940384.825000000186265 ], [ 45096.67500000000291, 5940384.900000000372529 ], [ 45096.75, 5940384.900000000372529 ], [ 45096.75, 5940384.974999999627471 ], [ 45096.900000000001455, 5940384.974999999627471 ], [ 45096.900000000001455, 5940385.049999999813735 ], [ 45097.05000000000291, 5940385.049999999813735 ], [ 45097.05000000000291, 5940385.125 ], [ 45097.275000000001455, 5940385.125 ], [ 45097.275000000001455, 5940385.200000000186265 ], [ 45097.42500000000291, 5940385.200000000186265 ], [ 45097.42500000000291, 5940385.275000000372529 ], [ 45097.650000000001455, 5940385.275000000372529 ], [ 45097.650000000001455, 5940385.349999999627471 ], [ 45097.875, 5940385.349999999627471 ], [ 45097.875, 5940385.424999999813735 ], [ 45098.099999999998545, 5940385.424999999813735 ], [ 45098.099999999998545, 5940385.5 ], [ 45098.25, 5940385.5 ], [ 45098.25, 5940385.575000000186265 ], [ 45098.32499999999709, 5940385.575000000186265 ], [ 45098.32499999999709, 5940385.650000000372529 ], [ 45098.474999999998545, 5940385.650000000372529 ], [ 45098.474999999998545, 5940385.724999999627471 ], [ 45098.625, 5940385.724999999627471 ], [ 45098.625, 5940385.799999999813735 ], [ 45098.775000000001455, 5940385.799999999813735 ], [ 45098.775000000001455, 5940385.875 ], [ 45098.92500000000291, 5940385.875 ], [ 45098.92500000000291, 5940385.950000000186265 ], [ 45099.07499999999709, 5940385.950000000186265 ], [ 45099.07499999999709, 5940386.025000000372529 ], [ 45099.30000000000291, 5940386.025000000372529 ], [ 45099.30000000000291, 5940386.099999999627471 ], [ 45099.44999999999709, 5940386.099999999627471 ], [ 45099.44999999999709, 5940386.174999999813735 ], [ 45099.67500000000291, 5940386.174999999813735 ], [ 45099.67500000000291, 5940386.25 ], [ 45099.900000000001455, 5940386.25 ], [ 45099.900000000001455, 5940386.325000000186265 ], [ 45100.125, 5940386.325000000186265 ], [ 45100.125, 5940386.400000000372529 ], [ 45100.349999999998545, 5940386.400000000372529 ], [ 45100.349999999998545, 5940386.474999999627471 ], [ 45100.5, 5940386.474999999627471 ], [ 45100.5, 5940386.549999999813735 ], [ 45100.650000000001455, 5940386.549999999813735 ], [ 45100.650000000001455, 5940386.700000000186265 ], [ 45100.724999999998545, 5940386.700000000186265 ], [ 45100.724999999998545, 5940387.150000000372529 ], [ 45100.80000000000291, 5940387.150000000372529 ], [ 45100.80000000000291, 5940387.674999999813735 ], [ 45100.875, 5940387.674999999813735 ], [ 45100.875, 5940388.275000000372529 ], [ 45100.94999999999709, 5940388.275000000372529 ], [ 45100.94999999999709, 5940390.0 ], [ 45101.025000000001455, 5940390.0 ], [ 45101.025000000001455, 5940393.375 ], [ 45101.099999999998545, 5940393.375 ], [ 45101.099999999998545, 5940394.575000000186265 ], [ 45101.025000000001455, 5940394.575000000186265 ], [ 45101.025000000001455, 5940394.950000000186265 ], [ 45100.94999999999709, 5940394.950000000186265 ], [ 45100.94999999999709, 5940395.400000000372529 ], [ 45100.875, 5940395.400000000372529 ], [ 45100.875, 5940395.700000000186265 ], [ 45100.80000000000291, 5940395.700000000186265 ], [ 45100.80000000000291, 5940396.075000000186265 ], [ 45100.724999999998545, 5940396.075000000186265 ], [ 45100.724999999998545, 5940396.299999999813735 ], [ 45100.650000000001455, 5940396.299999999813735 ], [ 45100.650000000001455, 5940396.375 ], [ 45100.5, 5940396.375 ], [ 45100.5, 5940396.450000000186265 ], [ 45100.349999999998545, 5940396.450000000186265 ], [ 45100.349999999998545, 5940396.525000000372529 ], [ 45100.125, 5940396.525000000372529 ], [ 45100.125, 5940396.599999999627471 ], [ 45099.82499999999709, 5940396.599999999627471 ], [ 45099.82499999999709, 5940396.674999999813735 ], [ 45099.30000000000291, 5940396.674999999813735 ], [ 45099.30000000000291, 5940396.75 ], [ 45098.55000000000291, 5940396.75 ], [ 45098.55000000000291, 5940396.825000000186265 ], [ 45097.5, 5940396.825000000186265 ] ] ] } }
]
}
