{
"type": "FeatureCollection",
"name": "44433E595257N_buildings",
"crs": { "type": "name", "properties": { "name": "urn:ogc:def:crs:EPSG::3776" } },
"features": [
{ "type": "Feature", "properties": { "value": 1.0, "building_id": 0, "area": 1138.7925000003775 }, "geometry": { "type": "Polygon", "coordinates": [ [ [ 45060.67500000000291, 5953310.924999999813735 ], [ 45060.67500000000291, 5953310.849999999627471 ], [ 45060.44999999999709, 5953310.849999999627471 ], [ 45060.44999999999709, 5953310.775000000372529 ], [ 45060.30000000000291, 5953310.775000000372529 ], [ 45060.30000000000291, 5953310.700000000186265 ], [ 45060.07499999999709, 5953310.700000000186265 ], [ 45060.07499999999709, 5953310.625 ], [ 45059.92500000000291, 5953310.625 ], [ 45059.92500000000291, 5953310.549999999813735 ], [ 45059.775000000001455, 5953310.549999999813735 ], [ 45059.775000000001455, 5953310.474999999627471 ], [ 45059.55000000000291, 5953310.474999999627471 ], [ 45059.55000000000291, 5953310.400000000372529 ], [ 45059.25, 5953310.400000000372529 ], [ 45059.25, 5953310.325000000186265 ], [ 45058.875, 5953310.325000000186265 ], [ 45058.875, 5953310.25 ], [ 45058.19999999999709, 5953310.25 ], [ 45058.19999999999709, 5953310.174999999813735 ], [ 45057.44999999999709, 5953310.174999999813735 ], [ 45057.44999999999709, 5953310.099999999627471 ], [ 45056.55000000000291, 5953310.099999999627471 ], [ 45056.55000000000291, 5953310.025000000372529 ], [ 45055.42500000000291, 5953310.025000000372529 ], [ 45055.42500000000291, 5953309.950000000186265 ], [ 45051.67500000000291, 5953309.950000000186265 ], [ 45051.67500000000291, 5953310.025000000372529 ], [ 45050.099999999998545, 5953310.025000000372529 ], [ 45050.099999999998545, 5953310.099999999627471 ], [ 45048.375, 5953310.099999999627471 ], [ 45048.375, 5953310.174999999813735 ], [ 45040.19999999999709, 5953310.174999999813735 ], [ 45040.19999999999709, 5953310.099999999627471 ], [ 45038.775000000001455, 5953310.099999999627471 ], [ 45038.775000000001455, 5953310.174999999813735 ], [ 45032.25, 5953310.174999999813735 ], [ 45032.25, 5953310.25 ], [ 45031.57499999999709, 5953310.25 ], [ 45031.57499999999709, 5953310.174999999813735 ], [ 45031.19999999999709, 5953310.174999999813735 ], [ 45031.19999999999709, 5953310.099999999627471 ], [ 45030.900000000001455, 5953310.099999999627471 ], [ 45030.900000000001455, 5953310.025000000372529 ], [ 45030.525000000001455, 5953310.025000000372529 ], [ 45030.525000000001455, 5953309.950000000186265 ], [ 45030.150000000001455, 5953309.950000000186265 ], [ 45030.150000000001455, 5953309.875 ], [ 45029.69999999999709, 5953309.875 ], [ 45029.69999999999709, 5953309.799999999813735 ], [ 45029.474999999998545, 5953309.799999999813735 ], [ 45029.474999999998545, 5953309.724999999627471 ], [ 45029.32499999999709, 5953309.724999999627471 ], [ 45029.32499999999709, 5953309.650000000372529 ], [ 45029.17500000000291, 5953309.650000000372529 ], [ 45029.17500000000291, 5953309.575000000186265 ], [ 45029.025000000001455, 5953309.575000000186265 ], [ 45029.025000000001455, 5953309.5 ], [ 45028.875, 5953309.5 ], [ 45028.875, 5953309.424999999813735 ], [ 45028.80000000000291, 5953309.424999999813735 ], [ 45028.80000000000291, 5953309.349999999627471 ], [ 45028.650000000001455, 5953309.349999999627471 ], [ 45028.650000000001455, 5953309.275000000372529 ], [ 45028.5, 5953309.275000000372529 ], [ 45028.5, 5953309.200000000186265 ], [ 45028.42500000000291, 5953309.200000000186265 ], [ 45028.42500000000291, 5953309.125 ], [ 45028.275000000001455, 5953309.125 ], [ 45028.275000000001455, 5953309.049999999813735 ], [ 45028.19999999999709, 5953309.049999999813735 ], [ 45028.19999999999709, 5953308.974999999627471 ], [ 45028.125, 5953308.974999999627471 ], [ 45028.125, 5953308.900000000372529 ], [ 45028.05000000000291, 5953308.900000000372529 ], [ 45028.05000000000291, 5953308.825000000186265 ], [ 45027.974999999998545, 5953308.825000000186265 ], [ 45027.974999999998545, 5953308.75 ], [ 45027.82499999999709, 5953308.75 ], [ 45027.82499999999709, 5953308.674999999813735 ], [ 45027.75, 5953308.674999999813735 ], [ 45027.75, 5953308.599999999627471 ], [ 45027.67500000000291, 5953308.599999999627471 ], [ 45027.67500000000291, 5953308.450000000186265 ], [ 45027.525000000001455, 5953308.450000000186265 ], [ 45027.525000000001455, 5953308.375 ], [ 45027.44999999999709, 5953308.375 ], [ 45027.44999999999709, 5953308.299999999813735 ], [ 45027.375, 5953308.299999999813735 ], [ 45027.375, 5953308.224999999627471 ], [ 45027.30000000000291, 5953308.224999999627471 ], [ 45027.30000000000291, 5953308.075000000186265 ], [ 45027.224999999998545, 5953308.075000000186265 ], [ 45027.224999999998545, 5953308.0 ], [ 45027.150000000001455, 5953308.0 ], [ 45027.150000000001455, 5953307.924999999813735 ], [ 45027.07499999999709, 5953307.924999999813735 ], [ 45027.07499999999709, 5953307.849999999627471 ], [ 45027.0, 5953307.849999999627471 ], [ 45027.0, 5953307.775000000372529 ], [ 45026.92500000000291, 5953307.775000000372529 ], [ 45026.92500000000291, 5953307.700000000186265 ], [ 45026.849999999998545, 5953307.700000000186265 ], [ 45026.849999999998545, 5953307.625 ], [ 45026.775000000001455, 5953307.625 ], [ 45026.775000000001455, 5953307.549999999813735 ], [ 45026.69999999999709, 5953307.549999999813735 ], [ 45026.69999999999709, 5953307.400000000372529 ], [ 45026.625, 5953307.400000000372529 ], [ 45026.625, 5953307.325000000186265 ], [ 45026.55000000000291, 5953307.325000000186265 ], [ 45026.55000000000291, 5953307.25 ], [ 45026.474999999998545, 5953307.25 ], [ 45026.474999999998545, 5953307.174999999813735 ], [ 45026.400000000001455, 5953307.174999999813735 ], [ 45026.400000000001455, 5953307.025000000372529 ], [ 45026.32499999999709, 5953307.025000000372529 ], [ 45026.32499999999709, 5953306.950000000186265 ], [ 45026.25, 5953306.950000000186265 ], [ 45026.25, 5953306.799999999813735 ], [ 45026.17500000000291, 5953306.799999999813735 ], [ 45026.17500000000291, 5953306.724999999627471 ], [ 45026.099999999998545, 5953306.724999999627471 ], [ 45026.099999999998545, 5953306.650000000372529 ], [ 45026.025000000001455, 5953306.650000000372529 ], [ 45026.025000000001455, 5953306.5 ], [ 45025.94999999999709, 5953306.5 ], [ 45025.94999999999709, 5953306.424999999813735 ], [ 45025.875, 5953306.424999999813735 ], [ 45025.875, 5953306.349999999627471 ], [ 45025.80000000000291, 5953306.349999999627471 ], [ 45025.80000000000291, 5953306.200000000186265 ], [ 45025.724999999998545, 5953306.200000000186265 ], [ 45025.724999999998545, 5953306.125 ], [ 45025.650000000001455, 5953306.125 ], [ 45025.650000000001455, 5953306.049999999813735 ], [ 45025.57499999999709, 5953306.049999999813735 ], [ 45025.57499999999709, 5953305.974999999627471 ], [ 45025.5, 5953305.974999999627471 ], [ 45025.5, 5953305.825000000186265 ], [ 45025.42500000000291, 5953305.825000000186265 ], [ 45025.42500000000291, 5953305.674999999813735 ], [ 45025.349999999998545, 5953305.674999999813735 ], [ 45025.349999999998545, 5953305.599999999627471 ], [ 45025.275000000001455, 5953305.599999999627471 ], [ 45025.275000000001455, 5953305.450000000186265 ], [ 45025.19999999999709, 5953305.450000000186265 ], [ 45025.19999999999709, 5953305.299999999813735 ], [ 45025.125, 5953305.299999999813735 ], [ 45025.125, 5953305.075000000186265 ], [ 45025.05000000000291, 5953305.075000000186265 ], [ 45025.05000000000291, 5953304.849999999627471 ], [ 45024.974999999998545, 5953304.849999999627471 ], [ 45024.974999999998545, 5953304.700000000186265 ], [ 45024.900000000001455, 5953304.700000000186265 ], [ 45024.900000000001455, 5953304.099999999627471 ], [ 45024.82499999999709, 5953304.099999999627471 ], [ 45024.82499999999709, 5953303.424999999813735 ], [ 45024.75, 5953303.424999999813735 ], [ 45024.75, 5953302.674999999813735 ], [ 45024.67500000000291, 5953302.674999999813735 ], [ 45024.67500000000291, 5953301.625 ], [ 45024.599999999998545, 5953301.625 ], [ 45024.599999999998545, 5953300.575000000186265 ], [ 45024.525000000001455, 5953300.575000000186265 ], [ 45024.525000000001455, 5953299.299999999813735 ], [ 45024.44999999999709, 5953299.299999999813735 ], [ 45024.44999999999709, 5953298.25 ], [ 45024.375, 5953298.25 ], [ 45024.375, 5953297.424999999813735 ], [ 45024.30000000000291, 5953297.424999999813735 ], [ 45024.30000000000291, 5953296.599999999627471 ], [ 45024.224999999998545, 5953296.599999999627471 ], [ 45024.224999999998545, 5953296.0 ], [ 45024.150000000001455, 5953296.0 ], [ 45024.150000000001455, 5953295.400000000372529 ], [ 45024.07499999999709, 5953295.400000000372529 ], [ 45024.07499999999709, 5953294.875 ], [ 45024.0, 5953294.875 ], [ 45024.0, 5953293.375 ], [ 45023.92500000000291, 5953293.375 ], [ 45023.92500000000291, 5953292.474999999627471 ], [ 45024.0, 5953292.474999999627471 ], [ 45024.0, 5953291.200000000186265 ], [ 45024.07499999999709, 5953291.200000000186265 ], [ 45024.07499999999709, 5953289.775000000372529 ], [ 45024.150000000001455, 5953289.775000000372529 ], [ 45024.150000000001455, 5953288.424999999813735 ], [ 45024.224999999998545, 5953288.424999999813735 ], [ 45024.224999999998545, 5953287.299999999813735 ], [ 45024.30000000000291, 5953287.299999999813735 ], [ 45024.30000000000291, 5953286.924999999813735 ], [ 45024.375, 5953286.924999999813735 ], [ 45024.375, 5953286.849999999627471 ], [ 45024.44999999999709, 5953286.849999999627471 ], [ 45024.44999999999709, 5953286.700000000186265 ], [ 45024.525000000001455, 5953286.700000000186265 ], [ 45024.525000000001455, 5953286.625 ], [ 45024.599999999998545, 5953286.625 ], [ 45024.599999999998545, 5953286.474999999627471 ], [ 45024.67500000000291, 5953286.474999999627471 ], [ 45024.67500000000291, 5953286.400000000372529 ], [ 45024.75, 5953286.400000000372529 ], [ 45024.75, 5953286.325000000186265 ], [ 45024.82499999999709, 5953286.325000000186265 ], [ 45024.82499999999709, 5953286.174999999813735 ], [ 45024.900000000001455, 5953286.174999999813735 ], [ 45024.900000000001455, 5953286.099999999627471 ], [ 45024.974999999998545, 5953286.099999999627471 ], [ 45024.974999999998545, 5953286.025000000372529 ], [ 45025.05000000000291, 5953286.025000000372529 ], [ 45025.05000000000291, 5953285.950000000186265 ], [ 45025.125, 5953285.950000000186265 ], [ 45025.125, 5953285.799999999813735 ], [ 45025.19999999999709, 5953285.799999999813735 ], [ 45025.19999999999709, 5953285.724999999627471 ], [ 45025.275000000001455, 5953285.724999999627471 ], [ 45025.275000000001455, 5953285.650000000372529 ], [ 45025.349999999998545, 5953285.650000000372529 ], [ 45025.349999999998545, 5953285.575000000186265 ], [ 45025.42500000000291, 5953285.575000000186265 ], [ 45025.42500000000291, 5953285.5 ], [ 45025.5, 5953285.5 ], [ 45025.5, 5953285.424999999813735 ], [ 45025.57499999999709, 5953285.424999999813735 ], [ 45025.57499999999709, 5953285.275000000372529 ], [ 45025.650000000001455, 5953285.275000000372529 ], [ 45025.650000000001455, 5953285.200000000186265 ], [ 45025.724999999998545, 5953285.200000000186265 ], [ 45025.724999999998545, 5953285.125 ], [ 45025.80000000000291, 5953285.125 ], [ 45025.80000000000291, 5953285.049999999813735 ], [ 45025.875, 5953285.049999999813735 ], [ 45025.875, 5953284.974999999627471 ], [ 45026.025000000001455, 5953284.974999999627471 ], [ 45026.025000000001455, 5953284.900000000372529 ], [ 45026.099999999998545, 5953284.900000000372529 ], [ 45026.099999999998545, 5953284.825000000186265 ], [ 45026.25, 5953284.825000000186265 ], [ 45026.25, 5953284.75 ], [ 45026.32499999999709, 5953284.75 ], [ 45026.32499999999709, 5953284.674999999813735 ], [ 45026.474999999998545, 5953284.674999999813735 ], [ 45026.474999999998545, 5953284.599999999627471 ], [ 45026.625, 5953284.599999999627471 ], [ 45026.625, 5953284.525000000372529 ], [ 45026.775000000001455, 5953284.525000000372529 ], [ 45026.775000000001455, 5953284.450000000186265 ], [ 45026.92500000000291, 5953284.450000000186265 ], [ 45026.92500000000291, 5953284.375 ], [ 45027.150000000001455, 5953284.375 ], [ 45027.150000000001455, 5953284.299999999813735 ], [ 45027.375, 5953284.299999999813735 ], [ 45027.375, 5953284.224999999627471 ], [ 45027.599999999998545, 5953284.224999999627471 ], [ 45027.599999999998545, 5953284.150000000372529 ], [ 45028.05000000000291, 5953284.150000000372529 ], [ 45028.05000000000291, 5953284.075000000186265 ], [ 45028.724999999998545, 5953284.075000000186265 ], [ 45028.724999999998545, 5953284.0 ], [ 45029.400000000001455, 5953284.0 ], [ 45029.400000000001455, 5953283.924999999813735 ], [ 45030.67500000000291, 5953283.924999999813735 ], [ 45030.67500000000291, 5953283.849999999627471 ], [ 45033.82499999999709, 5953283.849999999627471 ], [ 45033.82499999999709, 5953283.924999999813735 ], [ 45039.224999999998545, 5953283.924999999813735 ], [ 45039.224999999998545, 5953284.0 ], [ 45047.625, 5953284.0 ], [ 45047.625, 5953283.924999999813735 ], [ 45050.775000000001455, 5953283.924999999813735 ], [ 45050.775000000001455, 5953283.849999999627471 ], [ 45053.25, 5953283.849999999627471 ], [ 45053.25, 5953283.775000000372529 ], [ 45054.44999999999709, 5953283.775000000372529 ], [ 45054.44999999999709, 5953283.700000000186265 ], [ 45055.5, 5953283.700000000186265 ], [ 45055.5, 5953283.625 ], [ 45056.32499999999709, 5953283.625 ], [ 45056.32499999999709, 5953283.549999999813735 ], [ 45057.0, 5953283.549999999813735 ], [ 45057.0, 5953283.474999999627471 ], [ 45057.82499999999709, 5953283.474999999627471 ], [ 45057.82499999999709, 5953283.400000000372529 ], [ 45058.57499999999709, 5953283.400000000372529 ], [ 45058.57499999999709, 5953283.325000000186265 ], [ 45059.25, 5953283.325000000186265 ], [ 45059.25, 5953283.25 ], [ 45059.69999999999709, 5953283.25 ], [ 45059.69999999999709, 5953283.174999999813735 ], [ 45060.150000000001455, 5953283.174999999813735 ], [ 45060.150000000001455, 5953283.099999999627471 ], [ 45060.525000000001455, 5953283.099999999627471 ], [ 45060.525000000001455, 5953283.025000000372529 ], [ 45060.82499999999709, 5953283.025000000372529 ], [ 45060.82499999999709, 5953282.950000000186265 ], [ 45061.125, 5953282.950000000186265 ], [ 45061.125, 5953283.025000000372529 ], [ 45061.650000000001455, 5953283.025000000372529 ], [ 45061.650000000001455, 5953283.099999999627471 ], [ 45062.25, 5953283.099999999627471 ], [ 45062.25, 5953283.174999999813735 ], [ 45063.0, 5953283.174999999813735 ], [ 45063.0, 5953283.25 ], [ 45063.525000000001455, 5953283.25 ], [ 45063.525000000001455, 5953283.325000000186265 ], [ 45064.125, 5953283.325000000186265 ], [ 45064.125, 5953283.400000000372529 ], [ 45064.724999999998545, 5953283.400000000372529 ], [ 45064.724999999998545, 5953283.474999999627471 ], [ 45065.025000000001455, 5953283.474999999627471 ], [ 45065.025000000001455, 5953283.549999999813735 ], [ 45065.25, 5953283.549999999813735 ], [ 45065.25, 5953283.625 ], [ 45065.400000000001455, 5953283.625 ], [ 45065.400000000001455, 5953283.700000000186265 ], [ 45065.55000000000291, 5953283.700000000186265 ], [ 45065.55000000000291, 5953283.775000000372529 ], [ 45065.625, 5953283.775000000372529 ], [ 45065.625, 5953283.849999999627471 ], [ 45065.775000000001455, 5953283.849999999627471 ], [ 45065.775000000001455, 5953283.924999999813735 ], [ 45065.849999999998545, 5953283.924999999813735 ], [ 45065.849999999998545, 5953284.0 ], [ 45065.92500000000291, 5953284.0 ], [ 45065.92500000000291, 5953284.075000000186265 ], [ 45066.0, 5953284.075000000186265 ], [ 45066.0, 5953284.150000000372529 ], [ 45066.07499999999709, 5953284.150000000372529 ], [ 45066.07499999999709, 5953284.224999999627471 ], [ 45066.150000000001455, 5953284.224999999627471 ], [ 45066.150000000001455, 5953284.375 ], [ 45066.224999999998545, 5953284.375 ], [ 45066.224999999998545, 5953284.450000000186265 ], [ 45066.30000000000291, 5953284.450000000186265 ], [ 45066.30000000000291, 5953284.599999999627471 ], [ 45066.375, 5953284.599999999627471 ], [ 45066.375, 5953284.75 ], [ 45066.44999999999709, 5953284.75 ], [ 45066.44999999999709, 5953284.900000000372529 ], [ 45066.525000000001455, 5953284.900000000372529 ], [ 45066.525000000001455, 5953285.049999999813735 ], [ 45066.599999999998545, 5953285.049999999813735 ], [ 45066.599999999998545, 5953285.125 ], [ 45066.67500000000291, 5953285.125 ], [ 45066.67500000000291, 5953285.200000000186265 ], [ 45066.75, 5953285.200000000186265 ], [ 45066.75, 5953285.275000000372529 ], [ 45066.82499999999709, 5953285.275000000372529 ], [ 45066.82499999999709, 5953285.349999999627471 ], [ 45066.900000000001455, 5953285.349999999627471 ], [ 45066.900000000001455, 5953285.424999999813735 ], [ 45067.05000000000291, 5953285.424999999813735 ], [ 45067.05000000000291, 5953285.5 ], [ 45067.125, 5953285.5 ], [ 45067.125, 5953285.575000000186265 ], [ 45067.19999999999709, 5953285.575000000186265 ], [ 45067.19999999999709, 5953285.650000000372529 ], [ 45067.275000000001455, 5953285.650000000372529 ], [ 45067.275000000001455, 5953285.724999999627471 ], [ 45067.349999999998545, 5953285.724999999627471 ], [ 45067.349999999998545, 5953285.799999999813735 ], [ 45067.42500000000291, 5953285.799999999813735 ], [ 45067.42500000000291, 5953285.875 ], [ 45067.5, 5953285.875 ], [ 45067.5, 5953286.025000000372529 ], [ 45067.57499999999709, 5953286.025000000372529 ], [ 45067.57499999999709, 5953286.099999999627471 ], [ 45067.650000000001455, 5953286.099999999627471 ], [ 45067.650000000001455, 5953286.25 ], [ 45067.724999999998545, 5953286.25 ], [ 45067.724999999998545, 5953286.400000000372529 ], [ 45067.80000000000291, 5953286.400000000372529 ], [ 45067.80000000000291, 5953286.549999999813735 ], [ 45067.875, 5953286.549999999813735 ], [ 45067.875, 5953286.775000000372529 ], [ 45067.94999999999709, 5953286.775000000372529 ], [ 45067.94999999999709, 5953287.0 ], [ 45068.025000000001455, 5953287.0 ], [ 45068.025000000001455, 5953288.275000000372529 ], [ 45068.099999999998545, 5953288.275000000372529 ], [ 45068.099999999998545, 5953289.625 ], [ 45068.17500000000291, 5953289.625 ], [ 45068.17500000000291, 5953290.825000000186265 ], [ 45068.25, 5953290.825000000186265 ], [ 45068.25, 5953291.5 ], [ 45068.32499999999709, 5953291.5 ], [ 45068.32499999999709, 5953292.099999999627471 ], [ 45068.400000000001455, 5953292.099999999627471 ], [ 45068.400000000001455, 5953292.625 ], [ 45068.474999999998545, 5953292.625 ], [ 45068.474999999998545, 5953293.075000000186265 ], [ 45068.55000000000291, 5953293.075000000186265 ], [ 45068.55000000000291, 5953293.525000000372529 ], [ 45068.625, 5953293.525000000372529 ], [ 45068.625, 5953293.974999999627471 ], [ 45068.69999999999709, 5953293.974999999627471 ], [ 45068.69999999999709, 5953294.349999999627471 ], [ 45068.775000000001455, 5953294.349999999627471 ], [ 45068.775000000001455, 5953294.724999999627471 ], [ 45068.849999999998545, 5953294.724999999627471 ], [ 45068.849999999998545, 5953295.549999999813735 ], [ 45068.92500000000291, 5953295.549999999813735 ], [ 45068.92500000000291, 5953296.525000000372529 ], [ 45069.0, 5953296.525000000372529 ], [ 45069.0, 5953297.575000000186265 ], [ 45069.07499999999709, 5953297.575000000186265 ], [ 45069.07499999999709, 5953298.700000000186265 ], [ 45069.150000000001455, 5953298.700000000186265 ], [ 45069.150000000001455, 5953299.974999999627471 ], [ 45069.224999999998545, 5953299.974999999627471 ], [ 45069.224999999998545, 5953300.950000000186265 ], [ 45069.150000000001455, 5953300.950000000186265 ], [ 45069.150000000001455, 5953301.474999999627471 ], [ 45069.07499999999709, 5953301.474999999627471 ], [ 45069.07499999999709, 5953301.924999999813735 ], [ 45069.0, 5953301.924999999813735 ], [ 45069.0, 5953302.299999999813735 ], [ 45068.92500000000291, 5953302.299999999813735 ], [ 45068.92500000000291, 5953302.674999999813735 ], [ 45068.849999999998545, 5953302.674999999813735 ], [ 45068.849999999998545, 5953302.900000000372529 ], [ 45068.775000000001455, 5953302.900000000372529 ], [ 45068.775000000001455, 5953303.125 ], [ 45068.69999999999709, 5953303.125 ], [ 45068.69999999999709, 5953303.349999999627471 ], [ 45068.625, 5953303.349999999627471 ], [ 45068.625, 5953303.650000000372529 ], [ 45068.55000000000291, 5953303.650000000372529 ], [ 45068.55000000000291, 5953303.875 ], [ 45068.474999999998545, 5953303.875 ], [ 45068.474999999998545, 5953304.174999999813735 ], [ 45068.400000000001455, 5953304.174999999813735 ], [ 45068.400000000001455, 5953304.549999999813735 ], [ 45068.32499999999709, 5953304.549999999813735 ], [ 45068.32499999999709, 5953305.150000000372529 ], [ 45068.25, 5953305.150000000372529 ], [ 45068.25, 5953305.900000000372529 ], [ 45068.17500000000291, 5953305.900000000372529 ], [ 45068.17500000000291, 5953306.575000000186265 ], [ 45068.099999999998545, 5953306.575000000186265 ], [ 45068.099999999998545, 5953306.799999999813735 ], [ 45068.025000000001455, 5953306.799999999813735 ], [ 45068.025000000001455, 5953307.025000000372529 ], [ 45067.94999999999709, 5953307.025000000372529 ], [ 45067.94999999999709, 5953307.174999999813735 ], [ 45067.875, 5953307.174999999813735 ], [ 45067.875, 5953307.25 ], [ 45067.80000000000291, 5953307.25 ], [ 45067.80000000000291, 5953307.400000000372529 ], [ 45067.724999999998545, 5953307.400000000372529 ], [ 45067.724999999998545, 5953307.474999999627471 ], [ 45067.650000000001455, 5953307.474999999627471 ], [ 45067.650000000001455, 5953307.549999999813735 ], [ 45067.57499999999709, 5953307.549999999813735 ], [ 45067.57499999999709, 5953307.625 ], [ 45067.5, 5953307.625 ], [ 45067.5, 5953307.700000000186265 ], [ 45067.42500000000291, 5953307.700000000186265 ], [ 45067.42500000000291, 5953307.775000000372529 ], [ 45067.349999999998545, 5953307.775000000372529 ], [ 45067.349999999998545, 5953307.849999999627471 ], [ 45067.275000000001455, 5953307.849999999627471 ], [ 45067.275000000001455, 5953307.924999999813735 ], [ 45067.125, 5953307.924999999813735 ], [ 45067.125, 5953308.0 ], [ 45067.05000000000291, 5953308.0 ], [ 45067.05000000000291, 5953308.075000000186265 ], [ 45066.900000000001455, 5953308.075000000186265 ], [ 45066.900000000001455, 5953308.150000000372529 ], [ 45066.75, 5953308.150000000372529 ], [ 45066.75, 5953308.224999999627471 ], [ 45066.67500000000291, 5953308.224999999627471 ], [ 45066.67500000000291, 5953308.299999999813735 ], [ 45066.599999999998545, 5953308.299999999813735 ], [ 45066.599999999998545, 5953308.375 ], [ 45066.525000000001455, 5953308.375 ], [ 45066.525000000001455, 5953308.450000000186265 ], [ 45066.44999999999709, 5953308.450000000186265 ], [ 45066.44999999999709, 5953308.599999999627471 ], [ 45066.375, 5953308.599999999627471 ], [ 45066.375, 5953308.75 ], [ 45066.30000000000291, 5953308.75 ], [ 45066.30000000000291, 5953308.825000000186265 ], [ 45066.224999999998545, 5953308.825000000186265 ], [ 45066.224999999998545, 5953308.974999999627471 ], [ 45066.150000000001455, 5953308.974999999627471 ], [ 45066.150000000001455, 5953309.049999999813735 ], [ 45066.07499999999709, 5953309.049999999813735 ], [ 45066.07499999999709, 5953309.125 ], [ 45066.0, 5953309.125 ], [ 45066.0, 5953309.200000000186265 ], [ 45065.92500000000291, 5953309.200000000186265 ], [ 45065.92500000000291, 5953309.275000000372529 ], [ 45065.849999999998545, 5953309.275000000372529 ], [ 45065.849999999998545, 5953309.349999999627471 ], [ 45065.775000000001455, 5953309.349999999627471 ], [ 45065.775000000001455, 5953309.424999999813735 ], [ 45065.625, 5953309.424999999813735 ], [ 45065.625, 5953309.5 ], [ 45065.55000000000291, 5953309.5 ], [ 45065.55000000000291, 5953309.575000000186265 ], [ 45065.400000000001455, 5953309.575000000186265 ], [ 45065.400000000001455, 5953309.650000000372529 ], [ 45065.25, 5953309.650000000372529 ], [ 45065.25, 5953309.724999999627471 ], [ 45065.099999999998545, 5953309.724999999627471 ], [ 45065.099999999998545, 5953309.799999999813735 ], [ 45064.94999999999709, 5953309.799999999813735 ], [ 45064.94999999999709, 5953309.875 ], [ 45064.650000000001455, 5953309.875 ], [ 45064.650000000001455, 5953309.950000000186265 ], [ 45064.42500000000291, 5953309.950000000186265 ], [ 45064.42500000000291, 5953310.025000000372529 ], [ 45064.125, 5953310.025000000372529 ], [ 45064.125, 5953310.099999999627471 ], [ 45063.82499999999709, 5953310.099999999627471 ], [ 45063.82499999999709, 5953310.174999999813735 ], [ 45063.599999999998545, 5953310.174999999813735 ], [ 45063.599999999998545, 5953310.25 ], [ 45063.375, 5953310.25 ], [ 45063.375, 5953310.325000000186265 ], [ 45063.150000000001455, 5953310.325000000186265 ], [ 45063.150000000001455, 5953310.400000000372529 ], [ 45062.849999999998545, 5953310.400000000372529 ], [ 45062.849999999998545, 5953310.474999999627471 ], [ 45062.625, 5953310.474999999627471 ], [ 45062.625, 5953310.549999999813735 ], [ 45062.400000000001455, 5953310.549999999813735 ], [ 45062.400000000001455, 5953310.625 ], [ 45062.17500000000291, 5953310.625 ], [ 45062.17500000000291, 5953310.700000000186265 ], [ 45061.875, 5953310.700000000186265 ], [ 45061.875, 5953310.775000000372529 ], [ 45061.57499999999709, 5953310.775000000372529 ], [ 45061.57499999999709, 5953310.849999999627471 ], [ 45061.275000000001455, 5953310.849999999627471 ], [ 45061.275000000001455, 5953310.924999999813735 ], [ 45060.67500000000291, 5953310.924999999813735 ] ] ] } },
{ "type": "Feature", "properties": { "value": 1.0, "building_id": 1, "area": 54.061875000157229 }, "geometry": { "type": "Polygon", "coordinates": [ [ [ 44974.94999999999709, 5953212.75 ], [ 44974.94999999999709, 5953212.674999999813735 ], [ 44974.875, 5953212.674999999813735 ], [ 44974.875, 5953212.599999999627471 ], [ 44974.80000000000291, 5953212.599999999627471 ], [ 44974.80000000000291, 5953212.525000000372529 ], [ 44974.724999999998545, 5953212.525000000372529 ], [ 44974.724999999998545, 5953212.450000000186265 ], [ 44974.650000000001455, 5953212.450000000186265 ], [ 44974.650000000001455, 5953212.375 ], [ 44974.57499999999709, 5953212.375 ], [ 44974.57499999999709, 5953212.299999999813735 ], [ 44974.5, 5953212.299999999813735 ], [ 44974.5, 5953212.224999999627471 ], [ 44974.42500000000291, 5953212.224999999627471 ], [ 44974.42500000000291, 5953212.150000000372529 ], [ 44974.349999999998545, 5953212.150000000372529 ], [ 44974.349999999998545, 5953212.075000000186265 ], [ 44974.275000000001455, 5953212.075000000186265 ], [ 44974.275000000001455, 5953211.924999999813735 ], [ 44974.19999999999709, 5953211.924999999813735 ], [ 44974.19999999999709, 5953211.849999999627471 ], [ 44974.125, 5953211.849999999627471 ], [ 44974.125, 5953211.700000000186265 ], [ 44974.05000000000291, 5953211.700000000186265 ], [ 44974.05000000000291, 5953211.549999999813735 ], [ 44973.974999999998545, 5953211.549999999813735 ], [ 44973.974999999998545, 5953211.474999999627471 ], [ 44973.900000000001455, 5953211.474999999627471 ], [ 44973.900000000001455, 5953211.325000000186265 ], [ 44973.82499999999709, 5953211.325000000186265 ], [ 44973.82499999999709, 5953211.174999999813735 ], [ 44973.75, 5953211.174999999813735 ], [ 44973.75, 5953210.950000000186265 ], [ 44973.67500000000291, 5953210.950000000186265 ], [ 44973.67500000000291, 5953210.799999999813735 ], [ 44973.599999999998545, 5953210.799999999813735 ], [ 44973.599999999998545, 5953210.650000000372529 ], [ 44973.525000000001455, 5953210.650000000372529 ], [ 44973.525000000001455, 5953210.424999999813735 ], [ 44973.44999999999709, 5953210.424999999813735 ], [ 44973.44999999999709, 5953210.275000000372529 ], [ 44973.375, 5953210.275000000372529 ], [ 44973.375, 5953210.125 ], [ 44973.30000000000291, 5953210.125 ], [ 44973.30000000000291, 5953209.974999999627471 ], [ 44973.224999999998545, 5953209.974999999627471 ], [ 44973.224999999998545, 5953209.75 ], [ 44973.150000000001455, 5953209.75 ], [ 44973.150000000001455, 5953209.599999999627471 ], [ 44973.07499999999709, 5953209.599999999627471 ], [ 44973.07499999999709, 5953209.450000000186265 ], [ 44973.0, 5953209.450000000186265 ], [ 44973.0, 5953209.375 ], [ 44972.92500000000291, 5953209.375 ], [ 44972.92500000000291, 5953209.224999999627471 ], [ 44972.849999999998545, 5953209.224999999627471 ], [ 44972.849999999998545, 5953209.150000000372529 ], [ 44972.775000000001455, 5953209.150000000372529 ], [ 44972.775000000001455, 5953209.0 ], [ 44972.69999999999709, 5953209.0 ], [ 44972.69999999999709, 5953208.849999999627471 ], [ 44972.625, 5953208.849999999627471 ], [ 44972.625, 5953208.625 ], [ 44972.55000000000291, 5953208.625 ], [ 44972.55000000000291, 5953208.325000000186265 ], [ 44972.474999999998545, 5953208.325000000186265 ], [ 44972.474999999998545, 5953207.950000000186265 ], [ 44972.400000000001455, 5953207.950000000186265 ], [ 44972.400000000001455, 5953207.650000000372529 ], [ 44972.32499999999709, 5953207.650000000372529 ], [ 44972.32499999999709, 5953207.275000000372529 ], [ 44972.25, 5953207.275000000372529 ], [ 44972.25, 5953206.375 ], [ 44972.32499999999709, 5953206.375 ], [ 44972.32499999999709, 5953205.700000000186265 ], [ 44972.400000000001455, 5953205.700000000186265 ], [ 44972.400000000001455, 5953205.099999999627471 ], [ 44972.474999999998545, 5953205.099999999627471 ], [ 44972.474999999998545, 5953204.575000000186265 ], [ 44972.55000000000291, 5953204.575000000186265 ], [ 44972.55000000000291, 5953204.125 ], [ 44972.625, 5953204.125 ], [ 44972.625, 5953203.674999999813735 ], [ 44972.69999999999709, 5953203.674999999813735 ], [ 44972.69999999999709, 5953203.224999999627471 ], [ 44972.775000000001455, 5953203.224999999627471 ], [ 44972.775000000001455, 5953202.924999999813735 ], [ 44972.849999999998545, 5953202.924999999813735 ], [ 44972.849999999998545, 5953202.549999999813735 ], [ 44972.92500000000291, 5953202.549999999813735 ], [ 44972.92500000000291, 5953202.25 ], [ 44973.0, 5953202.25 ], [ 44973.0, 5953202.025000000372529 ], [ 44973.07499999999709, 5953202.025000000372529 ], [ 44973.07499999999709, 5953201.724999999627471 ], [ 44973.150000000001455, 5953201.724999999627471 ], [ 44973.150000000001455, 5953201.5 ], [ 44973.224999999998545, 5953201.5 ], [ 44973.224999999998545, 5953201.349999999627471 ], [ 44973.30000000000291, 5953201.349999999627471 ], [ 44973.30000000000291, 5953201.125 ], [ 44973.375, 5953201.125 ], [ 44973.375, 5953201.049999999813735 ], [ 44973.44999999999709, 5953201.049999999813735 ], [ 44973.44999999999709, 5953200.974999999627471 ], [ 44973.599999999998545, 5953200.974999999627471 ], [ 44973.599999999998545, 5953200.900000000372529 ], [ 44973.75, 5953200.900000000372529 ], [ 44973.75, 5953200.825000000186265 ], [ 44973.900000000001455, 5953200.825000000186265 ], [ 44973.900000000001455, 5953200.75 ], [ 44974.125, 5953200.75 ], [ 44974.125, 5953200.674999999813735 ], [ 44974.275000000001455, 5953200.674999999813735 ], [ 44974.275000000001455, 5953200.599999999627471 ], [ 44974.5, 5953200.599999999627471 ], [ 44974.5, 5953200.525000000372529 ], [ 44974.724999999998545, 5953200.525000000372529 ], [ 44974.724999999998545, 5953200.450000000186265 ], [ 44974.94999999999709, 5953200.450000000186265 ], [ 44974.94999999999709, 5953200.375 ], [ 44975.025000000001455, 5953200.375 ], [ 44975.025000000001455, 5953200.450000000186265 ], [ 44975.25, 5953200.450000000186265 ], [ 44975.25, 5953200.525000000372529 ], [ 44975.400000000001455, 5953200.525000000372529 ], [ 44975.400000000001455, 5953200.599999999627471 ], [ 44975.625, 5953200.599999999627471 ], [ 44975.625, 5953200.674999999813735 ], [ 44975.775000000001455, 5953200.674999999813735 ], [ 44975.775000000001455, 5953200.75 ], [ 44975.92500000000291, 5953200.75 ], [ 44975.92500000000291, 5953200.825000000186265 ], [ 44976.07499999999709, 5953200.825000000186265 ], [ 44976.07499999999709, 5953200.900000000372529 ], [ 44976.224999999998545, 5953200.900000000372529 ], [ 44976.224999999998545, 5953200.974999999627471 ], [ 44976.375, 5953200.974999999627471 ], [ 44976.375, 5953201.049999999813735 ], [ 44976.44999999999709, 5953201.049999999813735 ], [ 44976.44999999999709, 5953201.125 ], [ 44976.525000000001455, 5953201.125 ], [ 44976.525000000001455, 5953201.200000000186265 ], [ 44976.599999999998545, 5953201.200000000186265 ], [ 44976.599999999998545, 5953201.275000000372529 ], [ 44976.67500000000291, 5953201.275000000372529 ], [ 44976.67500000000291, 5953201.424999999813735 ], [ 44976.75, 5953201.424999999813735 ], [ 44976.75, 5953201.5 ], [ 44976.82499999999709, 5953201.5 ], [ 44976.82499999999709, 5953201.575000000186265 ], [ 44976.900000000001455, 5953201.575000000186265 ], [ 44976.900000000001455, 5953201.650000000372529 ], [ 44976.974999999998545, 5953201.650000000372529 ], [ 44976.974999999998545, 5953201.799999999813735 ], [ 44977.05000000000291, 5953201.799999999813735 ], [ 44977.05000000000291, 5953202.025000000372529 ], [ 44977.125, 5953202.025000000372529 ], [ 44977.125, 5953202.174999999813735 ], [ 44977.19999999999709, 5953202.174999999813735 ], [ 44977.19999999999709, 5953202.400000000372529 ], [ 44977.275000000001455, 5953202.400000000372529 ], [ 44977.275000000001455, 5953202.549999999813735 ], [ 44977.349999999998545, 5953202.549999999813735 ], [ 44977.349999999998545, 5953202.849999999627471 ], [ 44977.42500000000291, 5953202.849999999627471 ], [ 44977.42500000000291, 5953203.075000000186265 ], [ 44977.5, 5953203.075000000186265 ], [ 44977.5, 5953203.375 ], [ 44977.57499999999709, 5953203.375 ], [ 44977.57499999999709, 5953203.674999999813735 ], [ 44977.650000000001455, 5953203.674999999813735 ], [ 44977.650000000001455, 5953204.049999999813735 ], [ 44977.724999999998545, 5953204.049999999813735 ], [ 44977.724999999998545, 5953204.424999999813735 ], [ 44977.80000000000291, 5953204.424999999813735 ], [ 44977.80000000000291, 5953204.875 ], [ 44977.875, 5953204.875 ], [ 44977.875, 5953205.474999999627471 ], [ 44977.94999999999709, 5953205.474999999627471 ], [ 44977.94999999999709, 5953206.224999999627471 ], [ 44978.025000000001455, 5953206.224999999627471 ], [ 44978.025000000001455, 5953208.924999999813735 ], [ 44977.94999999999709, 5953208.924999999813735 ], [ 44977.94999999999709, 5953209.224999999627471 ], [ 44977.875, 5953209.224999999627471 ], [ 44977.875, 5953209.525000000372529 ], [ 44977.80000000000291, 5953209.525000000372529 ], [ 44977.80000000000291, 5953209.825000000186265 ], [ 44977.724999999998545, 5953209.825000000186265 ], [ 44977.724999999998545, 5953210.049999999813735 ], [ 44977.650000000001455, 5953210.049999999813735 ], [ 44977.650000000001455, 5953210.275000000372529 ], [ 44977.57499999999709, 5953210.275000000372529 ], [ 44977.57499999999709, 5953210.5 ], [ 44977.5, 5953210.5 ], [ 44977.5, 5953210.650000000372529 ], [ 44977.42500000000291, 5953210.650000000372529 ], [ 44977.42500000000291, 5953210.799999999813735 ], [ 44977.349999999998545, 5953210.799999999813735 ], [ 44977.349999999998545, 5953210.950000000186265 ], [ 44977.275000000001455, 5953210.950000000186265 ], [ 44977.275000000001455, 5953211.099999999627471 ], [ 44977.19999999999709, 5953211.099999999627471 ], [ 44977.19999999999709, 5953211.25 ], [ 44977.125, 5953211.25 ], [ 44977.125, 5953211.400000000372529 ], [ 44977.05000000000291, 5953211.400000000372529 ], [ 44977.05000000000291, 5953211.549999999813735 ], [ 44976.974999999998545, 5953211.549999999813735 ], [ 44976.974999999998545, 5953211.625 ], [ 44976.900000000001455, 5953211.625 ], [ 44976.900000000001455, 5953211.700000000186265 ], [ 44976.82499999999709, 5953211.700000000186265 ], [ 44976.82499999999709, 5953211.775000000372529 ], [ 44976.67500000000291, 5953211.775000000372529 ], [ 44976.67500000000291, 5953211.849999999627471 ], [ 44976.599999999998545, 5953211.849999999627471 ], [ 44976.599999999998545, 5953211.924999999813735 ], [ 44976.44999999999709, 5953211.924999999813735 ], [ 44976.44999999999709, 5953212.0 ], [ 44976.375, 5953212.0 ], [ 44976.375, 5953212.075000000186265 ], [ 44976.224999999998545, 5953212.075000000186265 ], [ 44976.224999999998545, 5953212.150000000372529 ], [ 44976.07499999999709, 5953212.150000000372529 ], [ 44976.07499999999709, 5953212.224999999627471 ], [ 44976.0, 5953212.224999999627471 ], [ 44976.0, 5953212.299999999813735 ], [ 44975.849999999998545, 5953212.299999999813735 ], [ 44975.849999999998545, 5953212.375 ], [ 44975.69999999999709, 5953212.375 ], [ 44975.69999999999709, 5953212.450000000186265 ], [ 44975.55000000000291, 5953212.450000000186265 ], [ 44975.55000000000291, 5953212.525000000372529 ], [ 44975.400000000001455, 5953212.525000000372529 ], [ 44975.400000000001455, 5953212.599999999627471 ], [ 44975.25, 5953212.599999999627471 ], [ 44975.25, 5953212.674999999813735 ], [ 44975.099999999998545, 5953212.674999999813735 ], [ 44975.099999999998545, 5953212.75 ], [ 44974.94999999999709, 5953212.75 ] ] ] } },
{ "type": "Feature", "properties": { "value": 1.0, "building_id": 2, "area": 294.53062500084843 }, "geometry": { "type": "Polygon", "coordinates": [ [ [ 45005.474999999998545, 5953102.875 ], [ 45005.474999999998545, 5953102.799999999813735 ], [ 45004.5, 5953102.799999999813735 ], [ 45004.5, 5953102.724999999627471 ], [ 45003.974999999998545, 5953102.724999999627471 ], [ 45003.974999999998545, 5953102.650000000372529 ], [ 45003.599999999998545, 5953102.650000000372529 ], [ 45003.599999999998545, 5953102.575000000186265 ], [ 45003.30000000000291, 5953102.575000000186265 ], [ 45003.30000000000291, 5953102.5 ], [ 45003.0, 5953102.5 ], [ 45003.0, 5953102.424999999813735 ], [ 45002.775000000001455, 5953102.424999999813735 ], [ 45002.775000000001455, 5953102.349999999627471 ], [ 45002.625, 5953102.349999999627471 ], [ 45002.625, 5953102.275000000372529 ], [ 45002.474999999998545, 5953102.275000000372529 ], [ 45002.474999999998545, 5953102.200000000186265 ], [ 45002.25, 5953102.200000000186265 ], [ 45002.25, 5953102.125 ], [ 45002.099999999998545, 5953102.125 ], [ 45002.099999999998545, 5953102.049999999813735 ], [ 45001.94999999999709, 5953102.049999999813735 ], [ 45001.94999999999709, 5953101.974999999627471 ], [ 45001.80000000000291, 5953101.974999999627471 ], [ 45001.80000000000291, 5953101.900000000372529 ], [ 45001.650000000001455, 5953101.900000000372529 ], [ 45001.650000000001455, 5953101.825000000186265 ], [ 45001.5, 5953101.825000000186265 ], [ 45001.5, 5953101.75 ], [ 45001.349999999998545, 5953101.75 ], [ 45001.349999999998545, 5953101.674999999813735 ], [ 45001.275000000001455, 5953101.674999999813735 ], [ 45001.275000000001455, 5953101.599999999627471 ], [ 45001.19999999999709, 5953101.599999999627471 ], [ 45001.19999999999709, 5953101.525000000372529 ], [ 45001.125, 5953101.525000000372529 ], [ 45001.125, 5953101.450000000186265 ], [ 45000.900000000001455, 5953101.450000000186265 ], [ 45000.900000000001455, 5953101.375 ], [ 45000.599999999998545, 5953101.375 ], [ 45000.599999999998545, 5953101.299999999813735 ], [ 45000.375, 5953101.299999999813735 ], [ 45000.375, 5953101.224999999627471 ], [ 45000.07499999999709, 5953101.224999999627471 ], [ 45000.07499999999709, 5953101.150000000372529 ], [ 44999.775000000001455, 5953101.150000000372529 ], [ 44999.775000000001455, 5953101.075000000186265 ], [ 44999.474999999998545, 5953101.075000000186265 ], [ 44999.474999999998545, 5953101.0 ], [ 44999.17500000000291, 5953101.0 ], [ 44999.17500000000291, 5953100.924999999813735 ], [ 44998.875, 5953100.924999999813735 ], [ 44998.875, 5953100.849999999627471 ], [ 44998.57499999999709, 5953100.849999999627471 ], [ 44998.57499999999709, 5953100.775000000372529 ], [ 44998.349999999998545, 5953100.775000000372529 ], [ 44998.349999999998545, 5953100.700000000186265 ], [ 44998.275000000001455, 5953100.700000000186265 ], [ 44998.275000000001455, 5953100.625 ], [ 44998.19999999999709, 5953100.625 ], [ 44998.19999999999709, 5953100.549999999813735 ], [ 44998.125, 5953100.549999999813735 ], [ 44998.125, 5953100.474999999627471 ], [ 44998.05000000000291, 5953100.474999999627471 ], [ 44998.05000000000291, 5953100.400000000372529 ], [ 44997.974999999998545, 5953100.400000000372529 ], [ 44997.974999999998545, 5953100.325000000186265 ], [ 44997.900000000001455, 5953100.325000000186265 ], [ 44997.900000000001455, 5953100.174999999813735 ], [ 44997.82499999999709, 5953100.174999999813735 ], [ 44997.82499999999709, 5953100.099999999627471 ], [ 44997.75, 5953100.099999999627471 ], [ 44997.75, 5953099.950000000186265 ], [ 44997.67500000000291, 5953099.950000000186265 ], [ 44997.67500000000291, 5953099.799999999813735 ], [ 44997.599999999998545, 5953099.799999999813735 ], [ 44997.599999999998545, 5953099.650000000372529 ], [ 44997.525000000001455, 5953099.650000000372529 ], [ 44997.525000000001455, 5953098.224999999627471 ], [ 44997.44999999999709, 5953098.224999999627471 ], [ 44997.44999999999709, 5953096.200000000186265 ], [ 44997.525000000001455, 5953096.200000000186265 ], [ 44997.525000000001455, 5953091.099999999627471 ], [ 44997.599999999998545, 5953091.099999999627471 ], [ 44997.599999999998545, 5953089.974999999627471 ], [ 44997.67500000000291, 5953089.974999999627471 ], [ 44997.67500000000291, 5953089.674999999813735 ], [ 44997.75, 5953089.674999999813735 ], [ 44997.75, 5953089.525000000372529 ], [ 44997.82499999999709, 5953089.525000000372529 ], [ 44997.82499999999709, 5953089.375 ], [ 44997.900000000001455, 5953089.375 ], [ 44997.900000000001455, 5953089.299999999813735 ], [ 44997.974999999998545, 5953089.299999999813735 ], [ 44997.974999999998545, 5953089.224999999627471 ], [ 44998.05000000000291, 5953089.224999999627471 ], [ 44998.05000000000291, 5953089.150000000372529 ], [ 44998.125, 5953089.150000000372529 ], [ 44998.125, 5953089.075000000186265 ], [ 44998.19999999999709, 5953089.075000000186265 ], [ 44998.19999999999709, 5953089.0 ], [ 44998.275000000001455, 5953089.0 ], [ 44998.275000000001455, 5953088.924999999813735 ], [ 44998.349999999998545, 5953088.924999999813735 ], [ 44998.349999999998545, 5953088.849999999627471 ], [ 44998.5, 5953088.849999999627471 ], [ 44998.5, 5953088.775000000372529 ], [ 44998.650000000001455, 5953088.775000000372529 ], [ 44998.650000000001455, 5953088.700000000186265 ], [ 44998.724999999998545, 5953088.700000000186265 ], [ 44998.724999999998545, 5953088.625 ], [ 44998.875, 5953088.625 ], [ 44998.875, 5953088.549999999813735 ], [ 44998.94999999999709, 5953088.549999999813735 ], [ 44998.94999999999709, 5953088.474999999627471 ], [ 44999.099999999998545, 5953088.474999999627471 ], [ 44999.099999999998545, 5953088.400000000372529 ], [ 44999.17500000000291, 5953088.400000000372529 ], [ 44999.17500000000291, 5953088.325000000186265 ], [ 44999.25, 5953088.325000000186265 ], [ 44999.25, 5953088.25 ], [ 44999.32499999999709, 5953088.25 ], [ 44999.32499999999709, 5953088.174999999813735 ], [ 44999.400000000001455, 5953088.174999999813735 ], [ 44999.400000000001455, 5953088.099999999627471 ], [ 44999.474999999998545, 5953088.099999999627471 ], [ 44999.474999999998545, 5953088.025000000372529 ], [ 44999.55000000000291, 5953088.025000000372529 ], [ 44999.55000000000291, 5953087.950000000186265 ], [ 44999.625, 5953087.950000000186265 ], [ 44999.625, 5953087.799999999813735 ], [ 44999.69999999999709, 5953087.799999999813735 ], [ 44999.69999999999709, 5953087.724999999627471 ], [ 44999.775000000001455, 5953087.724999999627471 ], [ 44999.775000000001455, 5953087.650000000372529 ], [ 44999.849999999998545, 5953087.650000000372529 ], [ 44999.849999999998545, 5953087.575000000186265 ], [ 44999.92500000000291, 5953087.575000000186265 ], [ 44999.92500000000291, 5953087.5 ], [ 45000.0, 5953087.5 ], [ 45000.0, 5953087.424999999813735 ], [ 45000.07499999999709, 5953087.424999999813735 ], [ 45000.07499999999709, 5953087.349999999627471 ], [ 45000.150000000001455, 5953087.349999999627471 ], [ 45000.150000000001455, 5953087.275000000372529 ], [ 45000.224999999998545, 5953087.275000000372529 ], [ 45000.224999999998545, 5953087.200000000186265 ], [ 45000.375, 5953087.200000000186265 ], [ 45000.375, 5953087.125 ], [ 45000.525000000001455, 5953087.125 ], [ 45000.525000000001455, 5953087.049999999813735 ], [ 45000.82499999999709, 5953087.049999999813735 ], [ 45000.82499999999709, 5953086.974999999627471 ], [ 45001.05000000000291, 5953086.974999999627471 ], [ 45001.05000000000291, 5953086.900000000372529 ], [ 45001.349999999998545, 5953086.900000000372529 ], [ 45001.349999999998545, 5953086.825000000186265 ], [ 45001.650000000001455, 5953086.825000000186265 ], [ 45001.650000000001455, 5953086.75 ], [ 45002.025000000001455, 5953086.75 ], [ 45002.025000000001455, 5953086.674999999813735 ], [ 45002.474999999998545, 5953086.674999999813735 ], [ 45002.474999999998545, 5953086.599999999627471 ], [ 45003.224999999998545, 5953086.599999999627471 ], [ 45003.224999999998545, 5953086.525000000372529 ], [ 45003.974999999998545, 5953086.525000000372529 ], [ 45003.974999999998545, 5953086.450000000186265 ], [ 45004.724999999998545, 5953086.450000000186265 ], [ 45004.724999999998545, 5953086.375 ], [ 45005.55000000000291, 5953086.375 ], [ 45005.55000000000291, 5953086.299999999813735 ], [ 45006.525000000001455, 5953086.299999999813735 ], [ 45006.525000000001455, 5953086.224999999627471 ], [ 45009.44999999999709, 5953086.224999999627471 ], [ 45009.44999999999709, 5953086.299999999813735 ], [ 45011.025000000001455, 5953086.299999999813735 ], [ 45011.025000000001455, 5953086.375 ], [ 45012.44999999999709, 5953086.375 ], [ 45012.44999999999709, 5953086.450000000186265 ], [ 45013.724999999998545, 5953086.450000000186265 ], [ 45013.724999999998545, 5953086.525000000372529 ], [ 45014.32499999999709, 5953086.525000000372529 ], [ 45014.32499999999709, 5953086.599999999627471 ], [ 45014.69999999999709, 5953086.599999999627471 ], [ 45014.69999999999709, 5953086.674999999813735 ], [ 45015.07499999999709, 5953086.674999999813735 ], [ 45015.07499999999709, 5953086.75 ], [ 45015.44999999999709, 5953086.75 ], [ 45015.44999999999709, 5953086.825000000186265 ], [ 45015.75, 5953086.825000000186265 ], [ 45015.75, 5953086.900000000372529 ], [ 45016.05000000000291, 5953086.900000000372529 ], [ 45016.05000000000291, 5953086.974999999627471 ], [ 45016.125, 5953086.974999999627471 ], [ 45016.125, 5953087.049999999813735 ], [ 45016.19999999999709, 5953087.049999999813735 ], [ 45016.19999999999709, 5953087.125 ], [ 45016.349999999998545, 5953087.125 ], [ 45016.349999999998545, 5953087.200000000186265 ], [ 45016.42500000000291, 5953087.200000000186265 ], [ 45016.42500000000291, 5953087.275000000372529 ], [ 45016.5, 5953087.275000000372529 ], [ 45016.5, 5953087.349999999627471 ], [ 45016.57499999999709, 5953087.349999999627471 ], [ 45016.57499999999709, 5953087.5 ], [ 45016.650000000001455, 5953087.5 ], [ 45016.650000000001455, 5953087.575000000186265 ], [ 45016.724999999998545, 5953087.575000000186265 ], [ 45016.724999999998545, 5953087.650000000372529 ], [ 45016.80000000000291, 5953087.650000000372529 ], [ 45016.80000000000291, 5953087.799999999813735 ], [ 45016.875, 5953087.799999999813735 ], [ 45016.875, 5953088.099999999627471 ], [ 45016.94999999999709, 5953088.099999999627471 ], [ 45016.94999999999709, 5953088.400000000372529 ], [ 45017.025000000001455, 5953088.400000000372529 ], [ 45017.025000000001455, 5953088.775000000372529 ], [ 45017.099999999998545, 5953088.775000000372529 ], [ 45017.099999999998545, 5953089.150000000372529 ], [ 45017.17500000000291, 5953089.150000000372529 ], [ 45017.17500000000291, 5953089.525000000372529 ], [ 45017.25, 5953089.525000000372529 ], [ 45017.25, 5953090.049999999813735 ], [ 45017.32499999999709, 5953090.049999999813735 ], [ 45017.32499999999709, 5953090.799999999813735 ], [ 45017.400000000001455, 5953090.799999999813735 ], [ 45017.400000000001455, 5953091.400000000372529 ], [ 45017.474999999998545, 5953091.400000000372529 ], [ 45017.474999999998545, 5953095.599999999627471 ], [ 45017.55000000000291, 5953095.599999999627471 ], [ 45017.55000000000291, 5953097.700000000186265 ], [ 45017.474999999998545, 5953097.700000000186265 ], [ 45017.474999999998545, 5953097.849999999627471 ], [ 45017.400000000001455, 5953097.849999999627471 ], [ 45017.400000000001455, 5953098.075000000186265 ], [ 45017.32499999999709, 5953098.075000000186265 ], [ 45017.32499999999709, 5953098.299999999813735 ], [ 45017.25, 5953098.299999999813735 ], [ 45017.25, 5953098.525000000372529 ], [ 45017.17500000000291, 5953098.525000000372529 ], [ 45017.17500000000291, 5953098.825000000186265 ], [ 45017.099999999998545, 5953098.825000000186265 ], [ 45017.099999999998545, 5953099.049999999813735 ], [ 45017.025000000001455, 5953099.049999999813735 ], [ 45017.025000000001455, 5953099.349999999627471 ], [ 45016.94999999999709, 5953099.349999999627471 ], [ 45016.94999999999709, 5953099.575000000186265 ], [ 45016.875, 5953099.575000000186265 ], [ 45016.875, 5953099.724999999627471 ], [ 45016.80000000000291, 5953099.724999999627471 ], [ 45016.80000000000291, 5953099.875 ], [ 45016.724999999998545, 5953099.875 ], [ 45016.724999999998545, 5953099.950000000186265 ], [ 45016.650000000001455, 5953099.950000000186265 ], [ 45016.650000000001455, 5953100.025000000372529 ], [ 45016.57499999999709, 5953100.025000000372529 ], [ 45016.57499999999709, 5953100.174999999813735 ], [ 45016.5, 5953100.174999999813735 ], [ 45016.5, 5953100.25 ], [ 45016.42500000000291, 5953100.25 ], [ 45016.42500000000291, 5953100.325000000186265 ], [ 45016.275000000001455, 5953100.325000000186265 ], [ 45016.275000000001455, 5953100.400000000372529 ], [ 45016.19999999999709, 5953100.400000000372529 ], [ 45016.19999999999709, 5953100.474999999627471 ], [ 45016.125, 5953100.474999999627471 ], [ 45016.125, 5953100.549999999813735 ], [ 45015.974999999998545, 5953100.549999999813735 ], [ 45015.974999999998545, 5953100.625 ], [ 45015.599999999998545, 5953100.625 ], [ 45015.599999999998545, 5953100.700000000186265 ], [ 45015.150000000001455, 5953100.700000000186265 ], [ 45015.150000000001455, 5953100.775000000372529 ], [ 45014.69999999999709, 5953100.775000000372529 ], [ 45014.69999999999709, 5953100.849999999627471 ], [ 45014.32499999999709, 5953100.849999999627471 ], [ 45014.32499999999709, 5953100.924999999813735 ], [ 45013.80000000000291, 5953100.924999999813735 ], [ 45013.80000000000291, 5953101.0 ], [ 45013.125, 5953101.0 ], [ 45013.125, 5953101.075000000186265 ], [ 45012.44999999999709, 5953101.075000000186265 ], [ 45012.44999999999709, 5953101.150000000372529 ], [ 45012.0, 5953101.150000000372529 ], [ 45012.0, 5953101.224999999627471 ], [ 45011.775000000001455, 5953101.224999999627471 ], [ 45011.775000000001455, 5953101.299999999813735 ], [ 45011.625, 5953101.299999999813735 ], [ 45011.625, 5953101.375 ], [ 45011.400000000001455, 5953101.375 ], [ 45011.400000000001455, 5953101.450000000186265 ], [ 45011.32499999999709, 5953101.450000000186265 ], [ 45011.32499999999709, 5953101.525000000372529 ], [ 45011.17500000000291, 5953101.525000000372529 ], [ 45011.17500000000291, 5953101.599999999627471 ], [ 45011.099999999998545, 5953101.599999999627471 ], [ 45011.099999999998545, 5953101.674999999813735 ], [ 45011.025000000001455, 5953101.674999999813735 ], [ 45011.025000000001455, 5953101.75 ], [ 45010.875, 5953101.75 ], [ 45010.875, 5953101.825000000186265 ], [ 45010.80000000000291, 5953101.825000000186265 ], [ 45010.80000000000291, 5953101.900000000372529 ], [ 45010.650000000001455, 5953101.900000000372529 ], [ 45010.650000000001455, 5953101.974999999627471 ], [ 45010.5, 5953101.974999999627471 ], [ 45010.5, 5953102.049999999813735 ], [ 45010.349999999998545, 5953102.049999999813735 ], [ 45010.349999999998545, 5953102.125 ], [ 45010.19999999999709, 5953102.125 ], [ 45010.19999999999709, 5953102.200000000186265 ], [ 45010.05000000000291, 5953102.200000000186265 ], [ 45010.05000000000291, 5953102.275000000372529 ], [ 45009.900000000001455, 5953102.275000000372529 ], [ 45009.900000000001455, 5953102.349999999627471 ], [ 45009.67500000000291, 5953102.349999999627471 ], [ 45009.67500000000291, 5953102.424999999813735 ], [ 45009.525000000001455, 5953102.424999999813735 ], [ 45009.525000000001455, 5953102.5 ], [ 45009.30000000000291, 5953102.5 ], [ 45009.30000000000291, 5953102.575000000186265 ], [ 45009.07499999999709, 5953102.575000000186265 ], [ 45009.07499999999709, 5953102.650000000372529 ], [ 45008.775000000001455, 5953102.650000000372529 ], [ 45008.775000000001455, 5953102.724999999627471 ], [ 45008.474999999998545, 5953102.724999999627471 ], [ 45008.474999999998545, 5953102.799999999813735 ], [ 45007.57499999999709, 5953102.799999999813735 ], [ 45007.57499999999709, 5953102.875 ], [ 45005.474999999998545, 5953102.875 ] ] ] } },
{ "type": "Feature", "properties": { "value": 1.0, "building_id": 3, "area": 31.095000001926635 }, "geometry": { "type": "Polygon", "coordinates": [ [ [ 44984.775000000001455, 5953069.275000000372529 ], [ 44984.775000000001455, 5953069.200000000186265 ], [ 44984.625, 5953069.200000000186265 ], [ 44984.625, 5953069.125 ], [ 44984.474999999998545, 5953069.125 ], [ 44984.474999999998545, 5953069.049999999813735 ], [ 44984.32499999999709, 5953069.049999999813735 ], [ 44984.32499999999709, 5953068.974999999627471 ], [ 44984.25, 5953068.974999999627471 ], [ 44984.25, 5953068.900000000372529 ], [ 44984.099999999998545, 5953068.900000000372529 ], [ 44984.099999999998545, 5953068.825000000186265 ], [ 44984.025000000001455, 5953068.825000000186265 ], [ 44984.025000000001455, 5953068.75 ], [ 44983.94999999999709, 5953068.75 ], [ 44983.94999999999709, 5953068.674999999813735 ], [ 44983.80000000000291, 5953068.674999999813735 ], [ 44983.80000000000291, 5953068.599999999627471 ], [ 44983.724999999998545, 5953068.599999999627471 ], [ 44983.724999999998545, 5953068.525000000372529 ], [ 44983.650000000001455, 5953068.525000000372529 ], [ 44983.650000000001455, 5953068.450000000186265 ], [ 44983.57499999999709, 5953068.450000000186265 ], [ 44983.57499999999709, 5953068.299999999813735 ], [ 44983.5, 5953068.299999999813735 ], [ 44983.5, 5953068.075000000186265 ], [ 44983.57499999999709, 5953068.075000000186265 ], [ 44983.57499999999709, 5953067.849999999627471 ], [ 44983.650000000001455, 5953067.849999999627471 ], [ 44983.650000000001455, 5953067.700000000186265 ], [ 44983.724999999998545, 5953067.700000000186265 ], [ 44983.724999999998545, 5953067.474999999627471 ], [ 44983.80000000000291, 5953067.474999999627471 ], [ 44983.80000000000291, 5953067.325000000186265 ], [ 44983.875, 5953067.325000000186265 ], [ 44983.875, 5953067.099999999627471 ], [ 44983.94999999999709, 5953067.099999999627471 ], [ 44983.94999999999709, 5953066.950000000186265 ], [ 44984.025000000001455, 5953066.950000000186265 ], [ 44984.025000000001455, 5953066.799999999813735 ], [ 44984.099999999998545, 5953066.799999999813735 ], [ 44984.099999999998545, 5953066.650000000372529 ], [ 44984.17500000000291, 5953066.650000000372529 ], [ 44984.17500000000291, 5953066.5 ], [ 44984.25, 5953066.5 ], [ 44984.25, 5953066.424999999813735 ], [ 44984.32499999999709, 5953066.424999999813735 ], [ 44984.32499999999709, 5953066.275000000372529 ], [ 44984.400000000001455, 5953066.275000000372529 ], [ 44984.400000000001455, 5953066.200000000186265 ], [ 44984.55000000000291, 5953066.200000000186265 ], [ 44984.55000000000291, 5953066.125 ], [ 44984.625, 5953066.125 ], [ 44984.625, 5953066.049999999813735 ], [ 44984.69999999999709, 5953066.049999999813735 ], [ 44984.69999999999709, 5953065.974999999627471 ], [ 44985.150000000001455, 5953065.974999999627471 ], [ 44985.150000000001455, 5953065.900000000372529 ], [ 44985.82499999999709, 5953065.900000000372529 ], [ 44985.82499999999709, 5953065.825000000186265 ], [ 44986.5, 5953065.825000000186265 ], [ 44986.5, 5953065.75 ], [ 44987.25, 5953065.75 ], [ 44987.25, 5953065.674999999813735 ], [ 44988.07499999999709, 5953065.674999999813735 ], [ 44988.07499999999709, 5953065.599999999627471 ], [ 44988.974999999998545, 5953065.599999999627471 ], [ 44988.974999999998545, 5953065.525000000372529 ], [ 44989.875, 5953065.525000000372529 ], [ 44989.875, 5953065.450000000186265 ], [ 44991.0, 5953065.450000000186265 ], [ 44991.0, 5953065.525000000372529 ], [ 44991.375, 5953065.525000000372529 ], [ 44991.375, 5953065.599999999627471 ], [ 44991.67500000000291, 5953065.599999999627471 ], [ 44991.67500000000291, 5953065.674999999813735 ], [ 44991.974999999998545, 5953065.674999999813735 ], [ 44991.974999999998545, 5953065.75 ], [ 44992.19999999999709, 5953065.75 ], [ 44992.19999999999709, 5953065.825000000186265 ], [ 44992.5, 5953065.825000000186265 ], [ 44992.5, 5953065.900000000372529 ], [ 44992.650000000001455, 5953065.900000000372529 ], [ 44992.650000000001455, 5953065.974999999627471 ], [ 44992.724999999998545, 5953065.974999999627471 ], [ 44992.724999999998545, 5953066.049999999813735 ], [ 44992.80000000000291, 5953066.049999999813735 ], [ 44992.80000000000291, 5953066.125 ], [ 44992.875, 5953066.125 ], [ 44992.875, 5953066.200000000186265 ], [ 44992.94999999999709, 5953066.200000000186265 ], [ 44992.94999999999709, 5953066.275000000372529 ], [ 44993.025000000001455, 5953066.275000000372529 ], [ 44993.025000000001455, 5953067.025000000372529 ], [ 44992.94999999999709, 5953067.025000000372529 ], [ 44992.94999999999709, 5953068.299999999813735 ], [ 44992.875, 5953068.299999999813735 ], [ 44992.875, 5953068.375 ], [ 44992.80000000000291, 5953068.375 ], [ 44992.80000000000291, 5953068.450000000186265 ], [ 44992.724999999998545, 5953068.450000000186265 ], [ 44992.724999999998545, 5953068.525000000372529 ], [ 44992.650000000001455, 5953068.525000000372529 ], [ 44992.650000000001455, 5953068.599999999627471 ], [ 44992.57499999999709, 5953068.599999999627471 ], [ 44992.57499999999709, 5953068.674999999813735 ], [ 44992.349999999998545, 5953068.674999999813735 ], [ 44992.349999999998545, 5953068.75 ], [ 44992.19999999999709, 5953068.75 ], [ 44992.19999999999709, 5953068.825000000186265 ], [ 44991.974999999998545, 5953068.825000000186265 ], [ 44991.974999999998545, 5953068.900000000372529 ], [ 44991.75, 5953068.900000000372529 ], [ 44991.75, 5953068.974999999627471 ], [ 44991.525000000001455, 5953068.974999999627471 ], [ 44991.525000000001455, 5953069.049999999813735 ], [ 44991.30000000000291, 5953069.049999999813735 ], [ 44991.30000000000291, 5953069.125 ], [ 44991.07499999999709, 5953069.125 ], [ 44991.07499999999709, 5953069.200000000186265 ], [ 44990.775000000001455, 5953069.200000000186265 ], [ 44990.775000000001455, 5953069.275000000372529 ], [ 44984.775000000001455, 5953069.275000000372529 ] ] ] } }
]
}
