{
"type": "FeatureCollection",
"name": "44433E595332N_buildings",
"crs": { "type": "name", "properties": { "name": "urn:ogc:def:crs:EPSG::3776" } },
"features": [
{ "type": "Feature", "properties": { "value": 1.0, "building_id": 0, "area": 172.13062499960441 }, "geometry": { "type": "Polygon", "coordinates": [ [ [ 45006.44999999999709, 5954079.0 ], [ 45006.44999999999709, 5954076.0 ], [ 45006.375, 5954076.0 ], [ 45006.375, 5954075.849999999627471 ], [ 45006.30000000000291, 5954075.849999999627471 ], [ 45006.30000000000291, 5954075.700000000186265 ], [ 45006.224999999998545, 5954075.700000000186265 ], [ 45006.224999999998545, 5954075.549999999813735 ], [ 45006.150000000001455, 5954075.549999999813735 ], [ 45006.150000000001455, 5954075.400000000372529 ], [ 45006.07499999999709, 5954075.400000000372529 ], [ 45006.07499999999709, 5954075.25 ], [ 45006.0, 5954075.25 ], [ 45006.0, 5954075.099999999627471 ], [ 45005.92500000000291, 5954075.099999999627471 ], [ 45005.92500000000291, 5954074.875 ], [ 45005.849999999998545, 5954074.875 ], [ 45005.849999999998545, 5954074.650000000372529 ], [ 45005.775000000001455, 5954074.650000000372529 ], [ 45005.775000000001455, 5954074.424999999813735 ], [ 45005.69999999999709, 5954074.424999999813735 ], [ 45005.69999999999709, 5954074.125 ], [ 45005.625, 5954074.125 ], [ 45005.625, 5954073.825000000186265 ], [ 45005.55000000000291, 5954073.825000000186265 ], [ 45005.55000000000291, 5954073.375 ], [ 45005.474999999998545, 5954073.375 ], [ 45005.474999999998545, 5954073.0 ], [ 45005.400000000001455, 5954073.0 ], [ 45005.400000000001455, 5954072.474999999627471 ], [ 45005.32499999999709, 5954072.474999999627471 ], [ 45005.32499999999709, 5954070.674999999813735 ], [ 45005.25, 5954070.674999999813735 ], [ 45005.25, 5954067.599999999627471 ], [ 45005.32499999999709, 5954067.599999999627471 ], [ 45005.32499999999709, 5954066.325000000186265 ], [ 45005.400000000001455, 5954066.325000000186265 ], [ 45005.400000000001455, 5954066.174999999813735 ], [ 45005.474999999998545, 5954066.174999999813735 ], [ 45005.474999999998545, 5954066.025000000372529 ], [ 45005.55000000000291, 5954066.025000000372529 ], [ 45005.55000000000291, 5954065.950000000186265 ], [ 45005.625, 5954065.950000000186265 ], [ 45005.625, 5954065.799999999813735 ], [ 45005.69999999999709, 5954065.799999999813735 ], [ 45005.69999999999709, 5954065.724999999627471 ], [ 45005.775000000001455, 5954065.724999999627471 ], [ 45005.775000000001455, 5954065.650000000372529 ], [ 45005.849999999998545, 5954065.650000000372529 ], [ 45005.849999999998545, 5954065.575000000186265 ], [ 45005.92500000000291, 5954065.575000000186265 ], [ 45005.92500000000291, 5954065.5 ], [ 45006.0, 5954065.5 ], [ 45006.0, 5954065.424999999813735 ], [ 45006.07499999999709, 5954065.424999999813735 ], [ 45006.07499999999709, 5954065.349999999627471 ], [ 45006.150000000001455, 5954065.349999999627471 ], [ 45006.150000000001455, 5954065.275000000372529 ], [ 45006.30000000000291, 5954065.275000000372529 ], [ 45006.30000000000291, 5954065.200000000186265 ], [ 45006.44999999999709, 5954065.200000000186265 ], [ 45006.44999999999709, 5954065.125 ], [ 45006.67500000000291, 5954065.125 ], [ 45006.67500000000291, 5954065.049999999813735 ], [ 45006.82499999999709, 5954065.049999999813735 ], [ 45006.82499999999709, 5954064.974999999627471 ], [ 45006.974999999998545, 5954064.974999999627471 ], [ 45006.974999999998545, 5954064.900000000372529 ], [ 45007.125, 5954064.900000000372529 ], [ 45007.125, 5954064.825000000186265 ], [ 45007.275000000001455, 5954064.825000000186265 ], [ 45007.275000000001455, 5954064.75 ], [ 45007.42500000000291, 5954064.75 ], [ 45007.42500000000291, 5954064.674999999813735 ], [ 45007.57499999999709, 5954064.674999999813735 ], [ 45007.57499999999709, 5954064.599999999627471 ], [ 45007.650000000001455, 5954064.599999999627471 ], [ 45007.650000000001455, 5954064.525000000372529 ], [ 45007.724999999998545, 5954064.525000000372529 ], [ 45007.724999999998545, 5954064.450000000186265 ], [ 45007.875, 5954064.450000000186265 ], [ 45007.875, 5954064.375 ], [ 45007.94999999999709, 5954064.375 ], [ 45007.94999999999709, 5954064.299999999813735 ], [ 45008.025000000001455, 5954064.299999999813735 ], [ 45008.025000000001455, 5954064.224999999627471 ], [ 45008.17500000000291, 5954064.224999999627471 ], [ 45008.17500000000291, 5954064.150000000372529 ], [ 45008.32499999999709, 5954064.150000000372529 ], [ 45008.32499999999709, 5954064.224999999627471 ], [ 45008.474999999998545, 5954064.224999999627471 ], [ 45008.474999999998545, 5954064.299999999813735 ], [ 45008.69999999999709, 5954064.299999999813735 ], [ 45008.69999999999709, 5954064.375 ], [ 45008.92500000000291, 5954064.375 ], [ 45008.92500000000291, 5954064.450000000186265 ], [ 45009.150000000001455, 5954064.450000000186265 ], [ 45009.150000000001455, 5954064.525000000372529 ], [ 45009.375, 5954064.525000000372529 ], [ 45009.375, 5954064.599999999627471 ], [ 45009.599999999998545, 5954064.599999999627471 ], [ 45009.599999999998545, 5954064.674999999813735 ], [ 45009.900000000001455, 5954064.674999999813735 ], [ 45009.900000000001455, 5954064.75 ], [ 45010.275000000001455, 5954064.75 ], [ 45010.275000000001455, 5954064.825000000186265 ], [ 45010.724999999998545, 5954064.825000000186265 ], [ 45010.724999999998545, 5954064.900000000372529 ], [ 45011.17500000000291, 5954064.900000000372529 ], [ 45011.17500000000291, 5954064.974999999627471 ], [ 45011.69999999999709, 5954064.974999999627471 ], [ 45011.69999999999709, 5954065.049999999813735 ], [ 45012.44999999999709, 5954065.049999999813735 ], [ 45012.44999999999709, 5954065.125 ], [ 45013.42500000000291, 5954065.125 ], [ 45013.42500000000291, 5954065.200000000186265 ], [ 45014.474999999998545, 5954065.200000000186265 ], [ 45014.474999999998545, 5954065.275000000372529 ], [ 45015.599999999998545, 5954065.275000000372529 ], [ 45015.599999999998545, 5954065.349999999627471 ], [ 45016.19999999999709, 5954065.349999999627471 ], [ 45016.19999999999709, 5954065.424999999813735 ], [ 45016.42500000000291, 5954065.424999999813735 ], [ 45016.42500000000291, 5954065.5 ], [ 45016.724999999998545, 5954065.5 ], [ 45016.724999999998545, 5954065.575000000186265 ], [ 45016.875, 5954065.575000000186265 ], [ 45016.875, 5954065.650000000372529 ], [ 45017.099999999998545, 5954065.650000000372529 ], [ 45017.099999999998545, 5954065.724999999627471 ], [ 45017.25, 5954065.724999999627471 ], [ 45017.25, 5954065.799999999813735 ], [ 45017.400000000001455, 5954065.799999999813735 ], [ 45017.400000000001455, 5954065.875 ], [ 45017.55000000000291, 5954065.875 ], [ 45017.55000000000291, 5954065.950000000186265 ], [ 45017.69999999999709, 5954065.950000000186265 ], [ 45017.69999999999709, 5954066.025000000372529 ], [ 45017.775000000001455, 5954066.025000000372529 ], [ 45017.775000000001455, 5954066.099999999627471 ], [ 45017.92500000000291, 5954066.099999999627471 ], [ 45017.92500000000291, 5954066.174999999813735 ], [ 45018.0, 5954066.174999999813735 ], [ 45018.0, 5954066.25 ], [ 45018.07499999999709, 5954066.25 ], [ 45018.07499999999709, 5954066.325000000186265 ], [ 45018.150000000001455, 5954066.325000000186265 ], [ 45018.150000000001455, 5954066.400000000372529 ], [ 45018.224999999998545, 5954066.400000000372529 ], [ 45018.224999999998545, 5954066.474999999627471 ], [ 45018.30000000000291, 5954066.474999999627471 ], [ 45018.30000000000291, 5954066.625 ], [ 45018.375, 5954066.625 ], [ 45018.375, 5954066.700000000186265 ], [ 45018.44999999999709, 5954066.700000000186265 ], [ 45018.44999999999709, 5954066.849999999627471 ], [ 45018.525000000001455, 5954066.849999999627471 ], [ 45018.525000000001455, 5954067.0 ], [ 45018.599999999998545, 5954067.0 ], [ 45018.599999999998545, 5954067.150000000372529 ], [ 45018.67500000000291, 5954067.150000000372529 ], [ 45018.67500000000291, 5954067.299999999813735 ], [ 45018.75, 5954067.299999999813735 ], [ 45018.75, 5954067.450000000186265 ], [ 45018.82499999999709, 5954067.450000000186265 ], [ 45018.82499999999709, 5954067.674999999813735 ], [ 45018.900000000001455, 5954067.674999999813735 ], [ 45018.900000000001455, 5954067.900000000372529 ], [ 45018.974999999998545, 5954067.900000000372529 ], [ 45018.974999999998545, 5954068.125 ], [ 45019.05000000000291, 5954068.125 ], [ 45019.05000000000291, 5954068.724999999627471 ], [ 45018.974999999998545, 5954068.724999999627471 ], [ 45018.974999999998545, 5954069.549999999813735 ], [ 45018.900000000001455, 5954069.549999999813735 ], [ 45018.900000000001455, 5954070.224999999627471 ], [ 45018.82499999999709, 5954070.224999999627471 ], [ 45018.82499999999709, 5954070.450000000186265 ], [ 45018.75, 5954070.450000000186265 ], [ 45018.75, 5954070.674999999813735 ], [ 45018.67500000000291, 5954070.674999999813735 ], [ 45018.67500000000291, 5954070.825000000186265 ], [ 45018.599999999998545, 5954070.825000000186265 ], [ 45018.599999999998545, 5954070.974999999627471 ], [ 45018.525000000001455, 5954070.974999999627471 ], [ 45018.525000000001455, 5954071.125 ], [ 45018.44999999999709, 5954071.125 ], [ 45018.44999999999709, 5954071.275000000372529 ], [ 45018.375, 5954071.275000000372529 ], [ 45018.375, 5954071.349999999627471 ], [ 45018.30000000000291, 5954071.349999999627471 ], [ 45018.30000000000291, 5954071.424999999813735 ], [ 45018.224999999998545, 5954071.424999999813735 ], [ 45018.224999999998545, 5954071.575000000186265 ], [ 45018.150000000001455, 5954071.575000000186265 ], [ 45018.150000000001455, 5954071.650000000372529 ], [ 45018.07499999999709, 5954071.650000000372529 ], [ 45018.07499999999709, 5954071.724999999627471 ], [ 45018.0, 5954071.724999999627471 ], [ 45018.0, 5954071.799999999813735 ], [ 45017.92500000000291, 5954071.799999999813735 ], [ 45017.92500000000291, 5954071.875 ], [ 45017.849999999998545, 5954071.875 ], [ 45017.849999999998545, 5954072.025000000372529 ], [ 45017.775000000001455, 5954072.025000000372529 ], [ 45017.775000000001455, 5954072.174999999813735 ], [ 45017.69999999999709, 5954072.174999999813735 ], [ 45017.69999999999709, 5954072.700000000186265 ], [ 45017.625, 5954072.700000000186265 ], [ 45017.625, 5954073.299999999813735 ], [ 45017.55000000000291, 5954073.299999999813735 ], [ 45017.55000000000291, 5954073.974999999627471 ], [ 45017.474999999998545, 5954073.974999999627471 ], [ 45017.474999999998545, 5954079.0 ], [ 45006.44999999999709, 5954079.0 ] ] ] } },
{ "type": "Feature", "properties": { "value": 1.0, "building_id": 1, "area": 12.689999999876775 }, "geometry": { "type": "Polygon", "coordinates": [ [ [ 44935.875, 5954061.75 ], [ 44935.875, 5954061.674999999813735 ], [ 44935.80000000000291, 5954061.674999999813735 ], [ 44935.80000000000291, 5954061.599999999627471 ], [ 44935.724999999998545, 5954061.599999999627471 ], [ 44935.724999999998545, 5954061.525000000372529 ], [ 44935.650000000001455, 5954061.525000000372529 ], [ 44935.650000000001455, 5954061.450000000186265 ], [ 44935.57499999999709, 5954061.450000000186265 ], [ 44935.57499999999709, 5954061.375 ], [ 44935.5, 5954061.375 ], [ 44935.5, 5954061.299999999813735 ], [ 44935.42500000000291, 5954061.299999999813735 ], [ 44935.42500000000291, 5954061.224999999627471 ], [ 44935.349999999998545, 5954061.224999999627471 ], [ 44935.349999999998545, 5954061.075000000186265 ], [ 44935.275000000001455, 5954061.075000000186265 ], [ 44935.275000000001455, 5954061.0 ], [ 44935.19999999999709, 5954061.0 ], [ 44935.19999999999709, 5954060.849999999627471 ], [ 44935.125, 5954060.849999999627471 ], [ 44935.125, 5954060.775000000372529 ], [ 44935.05000000000291, 5954060.775000000372529 ], [ 44935.05000000000291, 5954060.625 ], [ 44934.974999999998545, 5954060.625 ], [ 44934.974999999998545, 5954060.474999999627471 ], [ 44934.900000000001455, 5954060.474999999627471 ], [ 44934.900000000001455, 5954059.575000000186265 ], [ 44934.82499999999709, 5954059.575000000186265 ], [ 44934.82499999999709, 5954058.375 ], [ 44934.900000000001455, 5954058.375 ], [ 44934.900000000001455, 5954058.224999999627471 ], [ 44934.974999999998545, 5954058.224999999627471 ], [ 44934.974999999998545, 5954058.150000000372529 ], [ 44935.05000000000291, 5954058.150000000372529 ], [ 44935.05000000000291, 5954058.0 ], [ 44935.125, 5954058.0 ], [ 44935.125, 5954057.924999999813735 ], [ 44935.19999999999709, 5954057.924999999813735 ], [ 44935.19999999999709, 5954057.849999999627471 ], [ 44935.275000000001455, 5954057.849999999627471 ], [ 44935.275000000001455, 5954057.775000000372529 ], [ 44935.349999999998545, 5954057.775000000372529 ], [ 44935.349999999998545, 5954057.700000000186265 ], [ 44935.42500000000291, 5954057.700000000186265 ], [ 44935.42500000000291, 5954057.625 ], [ 44935.5, 5954057.625 ], [ 44935.5, 5954057.549999999813735 ], [ 44935.57499999999709, 5954057.549999999813735 ], [ 44935.57499999999709, 5954057.474999999627471 ], [ 44935.650000000001455, 5954057.474999999627471 ], [ 44935.650000000001455, 5954057.400000000372529 ], [ 44935.724999999998545, 5954057.400000000372529 ], [ 44935.724999999998545, 5954057.325000000186265 ], [ 44935.875, 5954057.325000000186265 ], [ 44935.875, 5954057.25 ], [ 44936.099999999998545, 5954057.25 ], [ 44936.099999999998545, 5954057.325000000186265 ], [ 44936.25, 5954057.325000000186265 ], [ 44936.25, 5954057.400000000372529 ], [ 44936.474999999998545, 5954057.400000000372529 ], [ 44936.474999999998545, 5954057.474999999627471 ], [ 44936.69999999999709, 5954057.474999999627471 ], [ 44936.69999999999709, 5954057.549999999813735 ], [ 44936.849999999998545, 5954057.549999999813735 ], [ 44936.849999999998545, 5954057.625 ], [ 44937.0, 5954057.625 ], [ 44937.0, 5954057.700000000186265 ], [ 44937.150000000001455, 5954057.700000000186265 ], [ 44937.150000000001455, 5954057.775000000372529 ], [ 44937.30000000000291, 5954057.775000000372529 ], [ 44937.30000000000291, 5954057.849999999627471 ], [ 44937.44999999999709, 5954057.849999999627471 ], [ 44937.44999999999709, 5954057.924999999813735 ], [ 44937.599999999998545, 5954057.924999999813735 ], [ 44937.599999999998545, 5954058.0 ], [ 44937.75, 5954058.0 ], [ 44937.75, 5954058.075000000186265 ], [ 44937.82499999999709, 5954058.075000000186265 ], [ 44937.82499999999709, 5954058.150000000372529 ], [ 44937.900000000001455, 5954058.150000000372529 ], [ 44937.900000000001455, 5954058.224999999627471 ], [ 44937.974999999998545, 5954058.224999999627471 ], [ 44937.974999999998545, 5954058.299999999813735 ], [ 44938.05000000000291, 5954058.299999999813735 ], [ 44938.05000000000291, 5954058.450000000186265 ], [ 44938.125, 5954058.450000000186265 ], [ 44938.125, 5954058.674999999813735 ], [ 44938.19999999999709, 5954058.674999999813735 ], [ 44938.19999999999709, 5954059.049999999813735 ], [ 44938.275000000001455, 5954059.049999999813735 ], [ 44938.275000000001455, 5954059.5 ], [ 44938.349999999998545, 5954059.5 ], [ 44938.349999999998545, 5954059.950000000186265 ], [ 44938.42500000000291, 5954059.950000000186265 ], [ 44938.42500000000291, 5954060.625 ], [ 44938.349999999998545, 5954060.625 ], [ 44938.349999999998545, 5954060.775000000372529 ], [ 44938.275000000001455, 5954060.775000000372529 ], [ 44938.275000000001455, 5954060.924999999813735 ], [ 44938.19999999999709, 5954060.924999999813735 ], [ 44938.19999999999709, 5954061.0 ], [ 44938.125, 5954061.0 ], [ 44938.125, 5954061.150000000372529 ], [ 44938.05000000000291, 5954061.150000000372529 ], [ 44938.05000000000291, 5954061.299999999813735 ], [ 44937.974999999998545, 5954061.299999999813735 ], [ 44937.974999999998545, 5954061.375 ], [ 44937.900000000001455, 5954061.375 ], [ 44937.900000000001455, 5954061.450000000186265 ], [ 44937.82499999999709, 5954061.450000000186265 ], [ 44937.82499999999709, 5954061.525000000372529 ], [ 44937.44999999999709, 5954061.525000000372529 ], [ 44937.44999999999709, 5954061.599999999627471 ], [ 44937.0, 5954061.599999999627471 ], [ 44937.0, 5954061.674999999813735 ], [ 44936.55000000000291, 5954061.674999999813735 ], [ 44936.55000000000291, 5954061.75 ], [ 44935.875, 5954061.75 ] ] ] } },
{ "type": "Feature", "properties": { "value": 1.0, "building_id": 2, "area": 7.6106250001094695 }, "geometry": { "type": "Polygon", "coordinates": [ [ [ 45029.625, 5954036.099999999627471 ], [ 45029.625, 5954036.025000000372529 ], [ 45029.55000000000291, 5954036.025000000372529 ], [ 45029.55000000000291, 5954035.950000000186265 ], [ 45029.400000000001455, 5954035.950000000186265 ], [ 45029.400000000001455, 5954035.875 ], [ 45029.32499999999709, 5954035.875 ], [ 45029.32499999999709, 5954035.799999999813735 ], [ 45029.25, 5954035.799999999813735 ], [ 45029.25, 5954035.724999999627471 ], [ 45029.17500000000291, 5954035.724999999627471 ], [ 45029.17500000000291, 5954035.575000000186265 ], [ 45029.099999999998545, 5954035.575000000186265 ], [ 45029.099999999998545, 5954035.5 ], [ 45029.025000000001455, 5954035.5 ], [ 45029.025000000001455, 5954035.424999999813735 ], [ 45028.94999999999709, 5954035.424999999813735 ], [ 45028.94999999999709, 5954035.275000000372529 ], [ 45028.875, 5954035.275000000372529 ], [ 45028.875, 5954035.200000000186265 ], [ 45028.80000000000291, 5954035.200000000186265 ], [ 45028.80000000000291, 5954034.525000000372529 ], [ 45028.875, 5954034.525000000372529 ], [ 45028.875, 5954034.075000000186265 ], [ 45028.94999999999709, 5954034.075000000186265 ], [ 45028.94999999999709, 5954033.625 ], [ 45029.025000000001455, 5954033.625 ], [ 45029.025000000001455, 5954033.174999999813735 ], [ 45029.099999999998545, 5954033.174999999813735 ], [ 45029.099999999998545, 5954032.875 ], [ 45029.17500000000291, 5954032.875 ], [ 45029.17500000000291, 5954032.650000000372529 ], [ 45029.25, 5954032.650000000372529 ], [ 45029.25, 5954032.424999999813735 ], [ 45029.32499999999709, 5954032.424999999813735 ], [ 45029.32499999999709, 5954032.200000000186265 ], [ 45029.400000000001455, 5954032.200000000186265 ], [ 45029.400000000001455, 5954031.974999999627471 ], [ 45029.474999999998545, 5954031.974999999627471 ], [ 45029.474999999998545, 5954031.825000000186265 ], [ 45029.55000000000291, 5954031.825000000186265 ], [ 45029.55000000000291, 5954031.599999999627471 ], [ 45029.625, 5954031.599999999627471 ], [ 45029.625, 5954031.450000000186265 ], [ 45029.69999999999709, 5954031.450000000186265 ], [ 45029.69999999999709, 5954031.525000000372529 ], [ 45029.775000000001455, 5954031.525000000372529 ], [ 45029.775000000001455, 5954031.674999999813735 ], [ 45029.849999999998545, 5954031.674999999813735 ], [ 45029.849999999998545, 5954031.825000000186265 ], [ 45029.92500000000291, 5954031.825000000186265 ], [ 45029.92500000000291, 5954031.974999999627471 ], [ 45030.0, 5954031.974999999627471 ], [ 45030.0, 5954032.125 ], [ 45030.07499999999709, 5954032.125 ], [ 45030.07499999999709, 5954032.275000000372529 ], [ 45030.150000000001455, 5954032.275000000372529 ], [ 45030.150000000001455, 5954032.424999999813735 ], [ 45030.224999999998545, 5954032.424999999813735 ], [ 45030.224999999998545, 5954032.575000000186265 ], [ 45030.30000000000291, 5954032.575000000186265 ], [ 45030.30000000000291, 5954032.724999999627471 ], [ 45030.375, 5954032.724999999627471 ], [ 45030.375, 5954032.875 ], [ 45030.44999999999709, 5954032.875 ], [ 45030.44999999999709, 5954033.025000000372529 ], [ 45030.525000000001455, 5954033.025000000372529 ], [ 45030.525000000001455, 5954033.174999999813735 ], [ 45030.599999999998545, 5954033.174999999813735 ], [ 45030.599999999998545, 5954033.325000000186265 ], [ 45030.67500000000291, 5954033.325000000186265 ], [ 45030.67500000000291, 5954033.474999999627471 ], [ 45030.75, 5954033.474999999627471 ], [ 45030.75, 5954033.625 ], [ 45030.82499999999709, 5954033.625 ], [ 45030.82499999999709, 5954033.700000000186265 ], [ 45030.900000000001455, 5954033.700000000186265 ], [ 45030.900000000001455, 5954033.849999999627471 ], [ 45030.974999999998545, 5954033.849999999627471 ], [ 45030.974999999998545, 5954033.924999999813735 ], [ 45031.05000000000291, 5954033.924999999813735 ], [ 45031.05000000000291, 5954034.0 ], [ 45031.125, 5954034.0 ], [ 45031.125, 5954034.150000000372529 ], [ 45031.19999999999709, 5954034.150000000372529 ], [ 45031.19999999999709, 5954034.224999999627471 ], [ 45031.275000000001455, 5954034.224999999627471 ], [ 45031.275000000001455, 5954034.299999999813735 ], [ 45031.349999999998545, 5954034.299999999813735 ], [ 45031.349999999998545, 5954034.375 ], [ 45031.42500000000291, 5954034.375 ], [ 45031.42500000000291, 5954034.450000000186265 ], [ 45031.5, 5954034.450000000186265 ], [ 45031.5, 5954034.525000000372529 ], [ 45031.57499999999709, 5954034.525000000372529 ], [ 45031.57499999999709, 5954034.599999999627471 ], [ 45031.650000000001455, 5954034.599999999627471 ], [ 45031.650000000001455, 5954034.674999999813735 ], [ 45031.724999999998545, 5954034.674999999813735 ], [ 45031.724999999998545, 5954034.825000000186265 ], [ 45031.80000000000291, 5954034.825000000186265 ], [ 45031.80000000000291, 5954034.974999999627471 ], [ 45031.875, 5954034.974999999627471 ], [ 45031.875, 5954035.125 ], [ 45031.80000000000291, 5954035.125 ], [ 45031.80000000000291, 5954035.200000000186265 ], [ 45031.724999999998545, 5954035.200000000186265 ], [ 45031.724999999998545, 5954035.275000000372529 ], [ 45031.650000000001455, 5954035.275000000372529 ], [ 45031.650000000001455, 5954035.349999999627471 ], [ 45031.57499999999709, 5954035.349999999627471 ], [ 45031.57499999999709, 5954035.424999999813735 ], [ 45031.349999999998545, 5954035.424999999813735 ], [ 45031.349999999998545, 5954035.5 ], [ 45031.19999999999709, 5954035.5 ], [ 45031.19999999999709, 5954035.575000000186265 ], [ 45030.974999999998545, 5954035.575000000186265 ], [ 45030.974999999998545, 5954035.650000000372529 ], [ 45030.82499999999709, 5954035.650000000372529 ], [ 45030.82499999999709, 5954035.724999999627471 ], [ 45030.599999999998545, 5954035.724999999627471 ], [ 45030.599999999998545, 5954035.799999999813735 ], [ 45030.44999999999709, 5954035.799999999813735 ], [ 45030.44999999999709, 5954035.875 ], [ 45030.224999999998545, 5954035.875 ], [ 45030.224999999998545, 5954035.950000000186265 ], [ 45030.0, 5954035.950000000186265 ], [ 45030.0, 5954036.025000000372529 ], [ 45029.775000000001455, 5954036.025000000372529 ], [ 45029.775000000001455, 5954036.099999999627471 ], [ 45029.625, 5954036.099999999627471 ] ] ] } },
{ "type": "Feature", "properties": { "value": 1.0, "building_id": 3, "area": 57.808124999959269 }, "geometry": { "type": "Polygon", "coordinates": [ [ [ 44992.5, 5954010.974999999627471 ], [ 44992.5, 5954010.900000000372529 ], [ 44992.275000000001455, 5954010.900000000372529 ], [ 44992.275000000001455, 5954010.825000000186265 ], [ 44992.05000000000291, 5954010.825000000186265 ], [ 44992.05000000000291, 5954010.75 ], [ 44991.900000000001455, 5954010.75 ], [ 44991.900000000001455, 5954010.674999999813735 ], [ 44991.67500000000291, 5954010.674999999813735 ], [ 44991.67500000000291, 5954010.599999999627471 ], [ 44991.44999999999709, 5954010.599999999627471 ], [ 44991.44999999999709, 5954010.525000000372529 ], [ 44991.30000000000291, 5954010.525000000372529 ], [ 44991.30000000000291, 5954010.450000000186265 ], [ 44991.07499999999709, 5954010.450000000186265 ], [ 44991.07499999999709, 5954010.375 ], [ 44990.92500000000291, 5954010.375 ], [ 44990.92500000000291, 5954010.299999999813735 ], [ 44990.775000000001455, 5954010.299999999813735 ], [ 44990.775000000001455, 5954010.224999999627471 ], [ 44990.625, 5954010.224999999627471 ], [ 44990.625, 5954010.150000000372529 ], [ 44990.55000000000291, 5954010.150000000372529 ], [ 44990.55000000000291, 5954010.075000000186265 ], [ 44990.474999999998545, 5954010.075000000186265 ], [ 44990.474999999998545, 5954010.0 ], [ 44990.400000000001455, 5954010.0 ], [ 44990.400000000001455, 5954009.924999999813735 ], [ 44990.32499999999709, 5954009.924999999813735 ], [ 44990.32499999999709, 5954009.849999999627471 ], [ 44990.25, 5954009.849999999627471 ], [ 44990.25, 5954009.700000000186265 ], [ 44990.17500000000291, 5954009.700000000186265 ], [ 44990.17500000000291, 5954009.549999999813735 ], [ 44990.099999999998545, 5954009.549999999813735 ], [ 44990.099999999998545, 5954009.325000000186265 ], [ 44990.025000000001455, 5954009.325000000186265 ], [ 44990.025000000001455, 5954009.099999999627471 ], [ 44989.94999999999709, 5954009.099999999627471 ], [ 44989.94999999999709, 5954008.875 ], [ 44989.875, 5954008.875 ], [ 44989.875, 5954008.650000000372529 ], [ 44989.80000000000291, 5954008.650000000372529 ], [ 44989.80000000000291, 5954008.349999999627471 ], [ 44989.724999999998545, 5954008.349999999627471 ], [ 44989.724999999998545, 5954008.049999999813735 ], [ 44989.650000000001455, 5954008.049999999813735 ], [ 44989.650000000001455, 5954007.599999999627471 ], [ 44989.57499999999709, 5954007.599999999627471 ], [ 44989.57499999999709, 5954006.700000000186265 ], [ 44989.5, 5954006.700000000186265 ], [ 44989.5, 5954005.799999999813735 ], [ 44989.42500000000291, 5954005.799999999813735 ], [ 44989.42500000000291, 5954005.275000000372529 ], [ 44989.5, 5954005.275000000372529 ], [ 44989.5, 5954003.025000000372529 ], [ 44989.57499999999709, 5954003.025000000372529 ], [ 44989.57499999999709, 5954002.200000000186265 ], [ 44989.650000000001455, 5954002.200000000186265 ], [ 44989.650000000001455, 5954001.674999999813735 ], [ 44989.724999999998545, 5954001.674999999813735 ], [ 44989.724999999998545, 5954001.450000000186265 ], [ 44989.80000000000291, 5954001.450000000186265 ], [ 44989.80000000000291, 5954001.224999999627471 ], [ 44989.875, 5954001.224999999627471 ], [ 44989.875, 5954001.0 ], [ 44989.94999999999709, 5954001.0 ], [ 44989.94999999999709, 5954000.775000000372529 ], [ 44990.025000000001455, 5954000.775000000372529 ], [ 44990.025000000001455, 5954000.625 ], [ 44990.099999999998545, 5954000.625 ], [ 44990.099999999998545, 5954000.474999999627471 ], [ 44990.17500000000291, 5954000.474999999627471 ], [ 44990.17500000000291, 5954000.325000000186265 ], [ 44990.25, 5954000.325000000186265 ], [ 44990.25, 5954000.174999999813735 ], [ 44990.32499999999709, 5954000.174999999813735 ], [ 44990.32499999999709, 5954000.099999999627471 ], [ 44990.400000000001455, 5954000.099999999627471 ], [ 44990.400000000001455, 5953999.950000000186265 ], [ 44990.474999999998545, 5953999.950000000186265 ], [ 44990.474999999998545, 5953999.875 ], [ 44990.55000000000291, 5953999.875 ], [ 44990.55000000000291, 5953999.724999999627471 ], [ 44990.625, 5953999.724999999627471 ], [ 44990.625, 5953999.650000000372529 ], [ 44990.775000000001455, 5953999.650000000372529 ], [ 44990.775000000001455, 5953999.575000000186265 ], [ 44990.849999999998545, 5953999.575000000186265 ], [ 44990.849999999998545, 5953999.5 ], [ 44990.92500000000291, 5953999.5 ], [ 44990.92500000000291, 5953999.424999999813735 ], [ 44991.0, 5953999.424999999813735 ], [ 44991.0, 5953999.349999999627471 ], [ 44991.07499999999709, 5953999.349999999627471 ], [ 44991.07499999999709, 5953999.275000000372529 ], [ 44991.150000000001455, 5953999.275000000372529 ], [ 44991.150000000001455, 5953999.200000000186265 ], [ 44991.30000000000291, 5953999.200000000186265 ], [ 44991.30000000000291, 5953999.125 ], [ 44991.375, 5953999.125 ], [ 44991.375, 5953999.049999999813735 ], [ 44991.44999999999709, 5953999.049999999813735 ], [ 44991.44999999999709, 5953998.974999999627471 ], [ 44991.599999999998545, 5953998.974999999627471 ], [ 44991.599999999998545, 5953998.900000000372529 ], [ 44991.67500000000291, 5953998.900000000372529 ], [ 44991.67500000000291, 5953998.825000000186265 ], [ 44991.75, 5953998.825000000186265 ], [ 44991.75, 5953998.75 ], [ 44991.900000000001455, 5953998.75 ], [ 44991.900000000001455, 5953998.674999999813735 ], [ 44991.974999999998545, 5953998.674999999813735 ], [ 44991.974999999998545, 5953998.599999999627471 ], [ 44992.05000000000291, 5953998.599999999627471 ], [ 44992.05000000000291, 5953998.525000000372529 ], [ 44992.19999999999709, 5953998.525000000372529 ], [ 44992.19999999999709, 5953998.450000000186265 ], [ 44992.275000000001455, 5953998.450000000186265 ], [ 44992.275000000001455, 5953998.375 ], [ 44992.42500000000291, 5953998.375 ], [ 44992.42500000000291, 5953998.299999999813735 ], [ 44992.5, 5953998.299999999813735 ], [ 44992.5, 5953998.224999999627471 ], [ 44992.650000000001455, 5953998.224999999627471 ], [ 44992.650000000001455, 5953998.299999999813735 ], [ 44992.80000000000291, 5953998.299999999813735 ], [ 44992.80000000000291, 5953998.375 ], [ 44992.94999999999709, 5953998.375 ], [ 44992.94999999999709, 5953998.450000000186265 ], [ 44993.025000000001455, 5953998.450000000186265 ], [ 44993.025000000001455, 5953998.525000000372529 ], [ 44993.17500000000291, 5953998.525000000372529 ], [ 44993.17500000000291, 5953998.599999999627471 ], [ 44993.25, 5953998.599999999627471 ], [ 44993.25, 5953998.674999999813735 ], [ 44993.32499999999709, 5953998.674999999813735 ], [ 44993.32499999999709, 5953998.75 ], [ 44993.400000000001455, 5953998.75 ], [ 44993.400000000001455, 5953998.825000000186265 ], [ 44993.474999999998545, 5953998.825000000186265 ], [ 44993.474999999998545, 5953998.900000000372529 ], [ 44993.55000000000291, 5953998.900000000372529 ], [ 44993.55000000000291, 5953998.974999999627471 ], [ 44993.625, 5953998.974999999627471 ], [ 44993.625, 5953999.049999999813735 ], [ 44993.69999999999709, 5953999.049999999813735 ], [ 44993.69999999999709, 5953999.125 ], [ 44993.775000000001455, 5953999.125 ], [ 44993.775000000001455, 5953999.200000000186265 ], [ 44993.849999999998545, 5953999.200000000186265 ], [ 44993.849999999998545, 5953999.349999999627471 ], [ 44993.92500000000291, 5953999.349999999627471 ], [ 44993.92500000000291, 5953999.5 ], [ 44994.0, 5953999.5 ], [ 44994.0, 5953999.650000000372529 ], [ 44994.07499999999709, 5953999.650000000372529 ], [ 44994.07499999999709, 5953999.799999999813735 ], [ 44994.150000000001455, 5953999.799999999813735 ], [ 44994.150000000001455, 5953999.950000000186265 ], [ 44994.224999999998545, 5953999.950000000186265 ], [ 44994.224999999998545, 5954000.099999999627471 ], [ 44994.30000000000291, 5954000.099999999627471 ], [ 44994.30000000000291, 5954000.25 ], [ 44994.375, 5954000.25 ], [ 44994.375, 5954000.325000000186265 ], [ 44994.44999999999709, 5954000.325000000186265 ], [ 44994.44999999999709, 5954000.474999999627471 ], [ 44994.525000000001455, 5954000.474999999627471 ], [ 44994.525000000001455, 5954000.625 ], [ 44994.599999999998545, 5954000.625 ], [ 44994.599999999998545, 5954000.775000000372529 ], [ 44994.67500000000291, 5954000.775000000372529 ], [ 44994.67500000000291, 5954000.924999999813735 ], [ 44994.75, 5954000.924999999813735 ], [ 44994.75, 5954001.075000000186265 ], [ 44994.82499999999709, 5954001.075000000186265 ], [ 44994.82499999999709, 5954001.224999999627471 ], [ 44994.900000000001455, 5954001.224999999627471 ], [ 44994.900000000001455, 5954001.375 ], [ 44994.974999999998545, 5954001.375 ], [ 44994.974999999998545, 5954001.599999999627471 ], [ 44995.05000000000291, 5954001.599999999627471 ], [ 44995.05000000000291, 5954001.825000000186265 ], [ 44995.125, 5954001.825000000186265 ], [ 44995.125, 5954002.049999999813735 ], [ 44995.19999999999709, 5954002.049999999813735 ], [ 44995.19999999999709, 5954002.349999999627471 ], [ 44995.275000000001455, 5954002.349999999627471 ], [ 44995.275000000001455, 5954002.650000000372529 ], [ 44995.349999999998545, 5954002.650000000372529 ], [ 44995.349999999998545, 5954002.950000000186265 ], [ 44995.42500000000291, 5954002.950000000186265 ], [ 44995.42500000000291, 5954003.325000000186265 ], [ 44995.5, 5954003.325000000186265 ], [ 44995.5, 5954003.775000000372529 ], [ 44995.57499999999709, 5954003.775000000372529 ], [ 44995.57499999999709, 5954003.849999999627471 ], [ 44995.5, 5954003.849999999627471 ], [ 44995.5, 5954005.575000000186265 ], [ 44995.42500000000291, 5954005.575000000186265 ], [ 44995.42500000000291, 5954005.950000000186265 ], [ 44995.349999999998545, 5954005.950000000186265 ], [ 44995.349999999998545, 5954006.174999999813735 ], [ 44995.275000000001455, 5954006.174999999813735 ], [ 44995.275000000001455, 5954006.325000000186265 ], [ 44995.19999999999709, 5954006.325000000186265 ], [ 44995.19999999999709, 5954006.474999999627471 ], [ 44995.125, 5954006.474999999627471 ], [ 44995.125, 5954006.625 ], [ 44995.05000000000291, 5954006.625 ], [ 44995.05000000000291, 5954006.775000000372529 ], [ 44994.974999999998545, 5954006.775000000372529 ], [ 44994.974999999998545, 5954006.924999999813735 ], [ 44994.900000000001455, 5954006.924999999813735 ], [ 44994.900000000001455, 5954007.0 ], [ 44994.82499999999709, 5954007.0 ], [ 44994.82499999999709, 5954007.150000000372529 ], [ 44994.75, 5954007.150000000372529 ], [ 44994.75, 5954007.224999999627471 ], [ 44994.67500000000291, 5954007.224999999627471 ], [ 44994.67500000000291, 5954007.299999999813735 ], [ 44994.599999999998545, 5954007.299999999813735 ], [ 44994.599999999998545, 5954007.375 ], [ 44994.525000000001455, 5954007.375 ], [ 44994.525000000001455, 5954007.450000000186265 ], [ 44994.44999999999709, 5954007.450000000186265 ], [ 44994.44999999999709, 5954007.599999999627471 ], [ 44994.375, 5954007.599999999627471 ], [ 44994.375, 5954007.674999999813735 ], [ 44994.30000000000291, 5954007.674999999813735 ], [ 44994.30000000000291, 5954007.900000000372529 ], [ 44994.224999999998545, 5954007.900000000372529 ], [ 44994.224999999998545, 5954008.200000000186265 ], [ 44994.150000000001455, 5954008.200000000186265 ], [ 44994.150000000001455, 5954008.5 ], [ 44994.07499999999709, 5954008.5 ], [ 44994.07499999999709, 5954008.875 ], [ 44994.0, 5954008.875 ], [ 44994.0, 5954009.25 ], [ 44993.92500000000291, 5954009.25 ], [ 44993.92500000000291, 5954009.625 ], [ 44993.849999999998545, 5954009.625 ], [ 44993.849999999998545, 5954009.849999999627471 ], [ 44993.775000000001455, 5954009.849999999627471 ], [ 44993.775000000001455, 5954010.075000000186265 ], [ 44993.69999999999709, 5954010.075000000186265 ], [ 44993.69999999999709, 5954010.299999999813735 ], [ 44993.625, 5954010.299999999813735 ], [ 44993.625, 5954010.450000000186265 ], [ 44993.55000000000291, 5954010.450000000186265 ], [ 44993.55000000000291, 5954010.525000000372529 ], [ 44993.474999999998545, 5954010.525000000372529 ], [ 44993.474999999998545, 5954010.599999999627471 ], [ 44993.400000000001455, 5954010.599999999627471 ], [ 44993.400000000001455, 5954010.674999999813735 ], [ 44993.25, 5954010.674999999813735 ], [ 44993.25, 5954010.75 ], [ 44993.099999999998545, 5954010.75 ], [ 44993.099999999998545, 5954010.825000000186265 ], [ 44992.875, 5954010.825000000186265 ], [ 44992.875, 5954010.900000000372529 ], [ 44992.650000000001455, 5954010.900000000372529 ], [ 44992.650000000001455, 5954010.974999999627471 ], [ 44992.5, 5954010.974999999627471 ] ] ] } },
{ "type": "Feature", "properties": { "value": 1.0, "building_id": 4, "area": 4.7699999999719562 }, "geometry": { "type": "Polygon", "coordinates": [ [ [ 44992.349999999998545, 5953965.674999999813735 ], [ 44992.349999999998545, 5953965.599999999627471 ], [ 44992.05000000000291, 5953965.599999999627471 ], [ 44992.05000000000291, 5953965.525000000372529 ], [ 44991.82499999999709, 5953965.525000000372529 ], [ 44991.82499999999709, 5953965.450000000186265 ], [ 44991.599999999998545, 5953965.450000000186265 ], [ 44991.599999999998545, 5953965.375 ], [ 44991.30000000000291, 5953965.375 ], [ 44991.30000000000291, 5953965.299999999813735 ], [ 44991.07499999999709, 5953965.299999999813735 ], [ 44991.07499999999709, 5953965.224999999627471 ], [ 44990.849999999998545, 5953965.224999999627471 ], [ 44990.849999999998545, 5953965.150000000372529 ], [ 44990.625, 5953965.150000000372529 ], [ 44990.625, 5953965.075000000186265 ], [ 44990.55000000000291, 5953965.075000000186265 ], [ 44990.55000000000291, 5953965.0 ], [ 44990.474999999998545, 5953965.0 ], [ 44990.474999999998545, 5953964.924999999813735 ], [ 44990.400000000001455, 5953964.924999999813735 ], [ 44990.400000000001455, 5953964.849999999627471 ], [ 44990.32499999999709, 5953964.849999999627471 ], [ 44990.32499999999709, 5953964.775000000372529 ], [ 44990.25, 5953964.775000000372529 ], [ 44990.25, 5953964.700000000186265 ], [ 44990.32499999999709, 5953964.700000000186265 ], [ 44990.32499999999709, 5953964.625 ], [ 44990.400000000001455, 5953964.625 ], [ 44990.400000000001455, 5953964.474999999627471 ], [ 44990.474999999998545, 5953964.474999999627471 ], [ 44990.474999999998545, 5953964.400000000372529 ], [ 44990.55000000000291, 5953964.400000000372529 ], [ 44990.55000000000291, 5953964.325000000186265 ], [ 44990.69999999999709, 5953964.325000000186265 ], [ 44990.69999999999709, 5953964.25 ], [ 44990.92500000000291, 5953964.25 ], [ 44990.92500000000291, 5953964.174999999813735 ], [ 44991.150000000001455, 5953964.174999999813735 ], [ 44991.150000000001455, 5953964.099999999627471 ], [ 44991.375, 5953964.099999999627471 ], [ 44991.375, 5953964.025000000372529 ], [ 44991.599999999998545, 5953964.025000000372529 ], [ 44991.599999999998545, 5953963.950000000186265 ], [ 44991.82499999999709, 5953963.950000000186265 ], [ 44991.82499999999709, 5953963.875 ], [ 44992.05000000000291, 5953963.875 ], [ 44992.05000000000291, 5953963.799999999813735 ], [ 44992.275000000001455, 5953963.799999999813735 ], [ 44992.275000000001455, 5953963.724999999627471 ], [ 44992.5, 5953963.724999999627471 ], [ 44992.5, 5953963.650000000372529 ], [ 44992.57499999999709, 5953963.650000000372529 ], [ 44992.57499999999709, 5953963.724999999627471 ], [ 44992.80000000000291, 5953963.724999999627471 ], [ 44992.80000000000291, 5953963.799999999813735 ], [ 44992.94999999999709, 5953963.799999999813735 ], [ 44992.94999999999709, 5953963.875 ], [ 44993.099999999998545, 5953963.875 ], [ 44993.099999999998545, 5953963.950000000186265 ], [ 44993.25, 5953963.950000000186265 ], [ 44993.25, 5953964.025000000372529 ], [ 44993.400000000001455, 5953964.025000000372529 ], [ 44993.400000000001455, 5953964.099999999627471 ], [ 44993.474999999998545, 5953964.099999999627471 ], [ 44993.474999999998545, 5953964.174999999813735 ], [ 44993.55000000000291, 5953964.174999999813735 ], [ 44993.55000000000291, 5953964.25 ], [ 44993.625, 5953964.25 ], [ 44993.625, 5953964.325000000186265 ], [ 44993.69999999999709, 5953964.325000000186265 ], [ 44993.69999999999709, 5953964.400000000372529 ], [ 44993.775000000001455, 5953964.400000000372529 ], [ 44993.775000000001455, 5953964.474999999627471 ], [ 44993.849999999998545, 5953964.474999999627471 ], [ 44993.849999999998545, 5953964.549999999813735 ], [ 44993.92500000000291, 5953964.549999999813735 ], [ 44993.92500000000291, 5953964.625 ], [ 44994.0, 5953964.625 ], [ 44994.0, 5953964.849999999627471 ], [ 44993.92500000000291, 5953964.849999999627471 ], [ 44993.92500000000291, 5953964.924999999813735 ], [ 44993.849999999998545, 5953964.924999999813735 ], [ 44993.849999999998545, 5953965.0 ], [ 44993.775000000001455, 5953965.0 ], [ 44993.775000000001455, 5953965.075000000186265 ], [ 44993.69999999999709, 5953965.075000000186265 ], [ 44993.69999999999709, 5953965.150000000372529 ], [ 44993.625, 5953965.150000000372529 ], [ 44993.625, 5953965.224999999627471 ], [ 44993.474999999998545, 5953965.224999999627471 ], [ 44993.474999999998545, 5953965.299999999813735 ], [ 44993.400000000001455, 5953965.299999999813735 ], [ 44993.400000000001455, 5953965.375 ], [ 44993.25, 5953965.375 ], [ 44993.25, 5953965.450000000186265 ], [ 44993.099999999998545, 5953965.450000000186265 ], [ 44993.099999999998545, 5953965.525000000372529 ], [ 44992.94999999999709, 5953965.525000000372529 ], [ 44992.94999999999709, 5953965.599999999627471 ], [ 44992.80000000000291, 5953965.599999999627471 ], [ 44992.80000000000291, 5953965.674999999813735 ], [ 44992.349999999998545, 5953965.674999999813735 ] ] ] } },
{ "type": "Feature", "properties": { "value": 1.0, "building_id": 5, "area": 27.388125000120496 }, "geometry": { "type": "Polygon", "coordinates": [ [ [ 44974.875, 5953959.900000000372529 ], [ 44974.875, 5953959.825000000186265 ], [ 44974.650000000001455, 5953959.825000000186265 ], [ 44974.650000000001455, 5953959.75 ], [ 44974.42500000000291, 5953959.75 ], [ 44974.42500000000291, 5953959.674999999813735 ], [ 44974.125, 5953959.674999999813735 ], [ 44974.125, 5953959.599999999627471 ], [ 44973.82499999999709, 5953959.599999999627471 ], [ 44973.82499999999709, 5953959.525000000372529 ], [ 44973.525000000001455, 5953959.525000000372529 ], [ 44973.525000000001455, 5953959.450000000186265 ], [ 44973.224999999998545, 5953959.450000000186265 ], [ 44973.224999999998545, 5953959.375 ], [ 44973.0, 5953959.375 ], [ 44973.0, 5953959.299999999813735 ], [ 44972.849999999998545, 5953959.299999999813735 ], [ 44972.849999999998545, 5953959.224999999627471 ], [ 44972.69999999999709, 5953959.224999999627471 ], [ 44972.69999999999709, 5953959.150000000372529 ], [ 44972.625, 5953959.150000000372529 ], [ 44972.625, 5953959.075000000186265 ], [ 44972.474999999998545, 5953959.075000000186265 ], [ 44972.474999999998545, 5953959.0 ], [ 44972.400000000001455, 5953959.0 ], [ 44972.400000000001455, 5953958.924999999813735 ], [ 44972.32499999999709, 5953958.924999999813735 ], [ 44972.32499999999709, 5953958.775000000372529 ], [ 44972.25, 5953958.775000000372529 ], [ 44972.25, 5953958.625 ], [ 44972.17500000000291, 5953958.625 ], [ 44972.17500000000291, 5953958.400000000372529 ], [ 44972.099999999998545, 5953958.400000000372529 ], [ 44972.099999999998545, 5953958.25 ], [ 44972.025000000001455, 5953958.25 ], [ 44972.025000000001455, 5953958.099999999627471 ], [ 44971.94999999999709, 5953958.099999999627471 ], [ 44971.94999999999709, 5953958.025000000372529 ], [ 44971.875, 5953958.025000000372529 ], [ 44971.875, 5953957.875 ], [ 44971.80000000000291, 5953957.875 ], [ 44971.80000000000291, 5953957.724999999627471 ], [ 44971.724999999998545, 5953957.724999999627471 ], [ 44971.724999999998545, 5953957.650000000372529 ], [ 44971.650000000001455, 5953957.650000000372529 ], [ 44971.650000000001455, 5953957.575000000186265 ], [ 44971.57499999999709, 5953957.575000000186265 ], [ 44971.57499999999709, 5953957.5 ], [ 44971.5, 5953957.5 ], [ 44971.5, 5953957.424999999813735 ], [ 44971.42500000000291, 5953957.424999999813735 ], [ 44971.42500000000291, 5953957.349999999627471 ], [ 44971.349999999998545, 5953957.349999999627471 ], [ 44971.349999999998545, 5953957.275000000372529 ], [ 44971.275000000001455, 5953957.275000000372529 ], [ 44971.275000000001455, 5953957.200000000186265 ], [ 44971.19999999999709, 5953957.200000000186265 ], [ 44971.19999999999709, 5953957.125 ], [ 44971.125, 5953957.125 ], [ 44971.125, 5953957.049999999813735 ], [ 44971.05000000000291, 5953957.049999999813735 ], [ 44971.05000000000291, 5953956.974999999627471 ], [ 44970.974999999998545, 5953956.974999999627471 ], [ 44970.974999999998545, 5953956.900000000372529 ], [ 44971.05000000000291, 5953956.900000000372529 ], [ 44971.05000000000291, 5953956.825000000186265 ], [ 44971.125, 5953956.825000000186265 ], [ 44971.125, 5953956.75 ], [ 44971.275000000001455, 5953956.75 ], [ 44971.275000000001455, 5953956.674999999813735 ], [ 44971.349999999998545, 5953956.674999999813735 ], [ 44971.349999999998545, 5953956.599999999627471 ], [ 44971.5, 5953956.599999999627471 ], [ 44971.5, 5953956.525000000372529 ], [ 44971.57499999999709, 5953956.525000000372529 ], [ 44971.57499999999709, 5953956.450000000186265 ], [ 44971.650000000001455, 5953956.450000000186265 ], [ 44971.650000000001455, 5953956.375 ], [ 44971.80000000000291, 5953956.375 ], [ 44971.80000000000291, 5953956.299999999813735 ], [ 44971.875, 5953956.299999999813735 ], [ 44971.875, 5953956.224999999627471 ], [ 44971.94999999999709, 5953956.224999999627471 ], [ 44971.94999999999709, 5953956.150000000372529 ], [ 44972.025000000001455, 5953956.150000000372529 ], [ 44972.025000000001455, 5953956.075000000186265 ], [ 44972.099999999998545, 5953956.075000000186265 ], [ 44972.099999999998545, 5953956.0 ], [ 44972.17500000000291, 5953956.0 ], [ 44972.17500000000291, 5953955.924999999813735 ], [ 44972.25, 5953955.924999999813735 ], [ 44972.25, 5953955.849999999627471 ], [ 44972.32499999999709, 5953955.849999999627471 ], [ 44972.32499999999709, 5953955.775000000372529 ], [ 44972.400000000001455, 5953955.775000000372529 ], [ 44972.400000000001455, 5953955.625 ], [ 44972.474999999998545, 5953955.625 ], [ 44972.474999999998545, 5953955.549999999813735 ], [ 44972.55000000000291, 5953955.549999999813735 ], [ 44972.55000000000291, 5953955.474999999627471 ], [ 44972.625, 5953955.474999999627471 ], [ 44972.625, 5953955.325000000186265 ], [ 44972.69999999999709, 5953955.325000000186265 ], [ 44972.69999999999709, 5953955.174999999813735 ], [ 44972.775000000001455, 5953955.174999999813735 ], [ 44972.775000000001455, 5953955.099999999627471 ], [ 44972.849999999998545, 5953955.099999999627471 ], [ 44972.849999999998545, 5953954.950000000186265 ], [ 44972.92500000000291, 5953954.950000000186265 ], [ 44972.92500000000291, 5953954.875 ], [ 44973.0, 5953954.875 ], [ 44973.0, 5953954.799999999813735 ], [ 44973.224999999998545, 5953954.799999999813735 ], [ 44973.224999999998545, 5953954.724999999627471 ], [ 44973.44999999999709, 5953954.724999999627471 ], [ 44973.44999999999709, 5953954.650000000372529 ], [ 44973.599999999998545, 5953954.650000000372529 ], [ 44973.599999999998545, 5953954.575000000186265 ], [ 44973.82499999999709, 5953954.575000000186265 ], [ 44973.82499999999709, 5953954.5 ], [ 44973.974999999998545, 5953954.5 ], [ 44973.974999999998545, 5953954.424999999813735 ], [ 44974.125, 5953954.424999999813735 ], [ 44974.125, 5953954.349999999627471 ], [ 44974.349999999998545, 5953954.349999999627471 ], [ 44974.349999999998545, 5953954.275000000372529 ], [ 44974.5, 5953954.275000000372529 ], [ 44974.5, 5953954.200000000186265 ], [ 44974.650000000001455, 5953954.200000000186265 ], [ 44974.650000000001455, 5953954.125 ], [ 44974.80000000000291, 5953954.125 ], [ 44974.80000000000291, 5953954.049999999813735 ], [ 44974.94999999999709, 5953954.049999999813735 ], [ 44974.94999999999709, 5953953.974999999627471 ], [ 44975.025000000001455, 5953953.974999999627471 ], [ 44975.025000000001455, 5953954.049999999813735 ], [ 44975.17500000000291, 5953954.049999999813735 ], [ 44975.17500000000291, 5953954.125 ], [ 44975.32499999999709, 5953954.125 ], [ 44975.32499999999709, 5953954.200000000186265 ], [ 44975.55000000000291, 5953954.200000000186265 ], [ 44975.55000000000291, 5953954.275000000372529 ], [ 44975.69999999999709, 5953954.275000000372529 ], [ 44975.69999999999709, 5953954.349999999627471 ], [ 44975.92500000000291, 5953954.349999999627471 ], [ 44975.92500000000291, 5953954.424999999813735 ], [ 44976.07499999999709, 5953954.424999999813735 ], [ 44976.07499999999709, 5953954.5 ], [ 44976.30000000000291, 5953954.5 ], [ 44976.30000000000291, 5953954.575000000186265 ], [ 44976.525000000001455, 5953954.575000000186265 ], [ 44976.525000000001455, 5953954.650000000372529 ], [ 44976.82499999999709, 5953954.650000000372529 ], [ 44976.82499999999709, 5953954.724999999627471 ], [ 44976.974999999998545, 5953954.724999999627471 ], [ 44976.974999999998545, 5953954.799999999813735 ], [ 44977.05000000000291, 5953954.799999999813735 ], [ 44977.05000000000291, 5953954.875 ], [ 44977.125, 5953954.875 ], [ 44977.125, 5953955.025000000372529 ], [ 44977.19999999999709, 5953955.025000000372529 ], [ 44977.19999999999709, 5953955.25 ], [ 44977.275000000001455, 5953955.25 ], [ 44977.275000000001455, 5953955.549999999813735 ], [ 44977.349999999998545, 5953955.549999999813735 ], [ 44977.349999999998545, 5953955.924999999813735 ], [ 44977.42500000000291, 5953955.924999999813735 ], [ 44977.42500000000291, 5953956.224999999627471 ], [ 44977.5, 5953956.224999999627471 ], [ 44977.5, 5953956.599999999627471 ], [ 44977.57499999999709, 5953956.599999999627471 ], [ 44977.57499999999709, 5953958.924999999813735 ], [ 44977.5, 5953958.924999999813735 ], [ 44977.5, 5953959.0 ], [ 44977.42500000000291, 5953959.0 ], [ 44977.42500000000291, 5953959.150000000372529 ], [ 44977.349999999998545, 5953959.150000000372529 ], [ 44977.349999999998545, 5953959.224999999627471 ], [ 44977.275000000001455, 5953959.224999999627471 ], [ 44977.275000000001455, 5953959.299999999813735 ], [ 44977.19999999999709, 5953959.299999999813735 ], [ 44977.19999999999709, 5953959.375 ], [ 44977.125, 5953959.375 ], [ 44977.125, 5953959.450000000186265 ], [ 44977.05000000000291, 5953959.450000000186265 ], [ 44977.05000000000291, 5953959.525000000372529 ], [ 44976.900000000001455, 5953959.525000000372529 ], [ 44976.900000000001455, 5953959.599999999627471 ], [ 44976.375, 5953959.599999999627471 ], [ 44976.375, 5953959.674999999813735 ], [ 44975.92500000000291, 5953959.674999999813735 ], [ 44975.92500000000291, 5953959.75 ], [ 44975.474999999998545, 5953959.75 ], [ 44975.474999999998545, 5953959.825000000186265 ], [ 44975.099999999998545, 5953959.825000000186265 ], [ 44975.099999999998545, 5953959.900000000372529 ], [ 44974.875, 5953959.900000000372529 ] ] ] } },
{ "type": "Feature", "properties": { "value": 1.0, "building_id": 6, "area": 1.169999999972497 }, "geometry": { "type": "Polygon", "coordinates": [ [ [ 45146.775000000001455, 5953340.325000000186265 ], [ 45146.775000000001455, 5953340.25 ], [ 45146.69999999999709, 5953340.25 ], [ 45146.69999999999709, 5953340.099999999627471 ], [ 45146.625, 5953340.099999999627471 ], [ 45146.625, 5953340.025000000372529 ], [ 45146.55000000000291, 5953340.025000000372529 ], [ 45146.55000000000291, 5953339.950000000186265 ], [ 45146.474999999998545, 5953339.950000000186265 ], [ 45146.474999999998545, 5953339.799999999813735 ], [ 45146.400000000001455, 5953339.799999999813735 ], [ 45146.400000000001455, 5953339.650000000372529 ], [ 45146.474999999998545, 5953339.650000000372529 ], [ 45146.474999999998545, 5953339.575000000186265 ], [ 45146.55000000000291, 5953339.575000000186265 ], [ 45146.55000000000291, 5953339.424999999813735 ], [ 45146.625, 5953339.424999999813735 ], [ 45146.625, 5953339.349999999627471 ], [ 45146.69999999999709, 5953339.349999999627471 ], [ 45146.69999999999709, 5953339.200000000186265 ], [ 45146.775000000001455, 5953339.200000000186265 ], [ 45146.775000000001455, 5953339.125 ], [ 45146.849999999998545, 5953339.125 ], [ 45146.849999999998545, 5953339.049999999813735 ], [ 45146.92500000000291, 5953339.049999999813735 ], [ 45146.92500000000291, 5953339.125 ], [ 45147.07499999999709, 5953339.125 ], [ 45147.07499999999709, 5953339.200000000186265 ], [ 45147.224999999998545, 5953339.200000000186265 ], [ 45147.224999999998545, 5953339.275000000372529 ], [ 45147.375, 5953339.275000000372529 ], [ 45147.375, 5953339.349999999627471 ], [ 45147.525000000001455, 5953339.349999999627471 ], [ 45147.525000000001455, 5953339.424999999813735 ], [ 45147.67500000000291, 5953339.424999999813735 ], [ 45147.67500000000291, 5953339.5 ], [ 45147.75, 5953339.5 ], [ 45147.75, 5953339.575000000186265 ], [ 45147.900000000001455, 5953339.575000000186265 ], [ 45147.900000000001455, 5953339.650000000372529 ], [ 45147.974999999998545, 5953339.650000000372529 ], [ 45147.974999999998545, 5953339.799999999813735 ], [ 45147.900000000001455, 5953339.799999999813735 ], [ 45147.900000000001455, 5953339.875 ], [ 45147.82499999999709, 5953339.875 ], [ 45147.82499999999709, 5953339.950000000186265 ], [ 45147.67500000000291, 5953339.950000000186265 ], [ 45147.67500000000291, 5953340.025000000372529 ], [ 45147.525000000001455, 5953340.025000000372529 ], [ 45147.525000000001455, 5953340.099999999627471 ], [ 45147.375, 5953340.099999999627471 ], [ 45147.375, 5953340.174999999813735 ], [ 45147.224999999998545, 5953340.174999999813735 ], [ 45147.224999999998545, 5953340.25 ], [ 45147.0, 5953340.25 ], [ 45147.0, 5953340.325000000186265 ], [ 45146.775000000001455, 5953340.325000000186265 ] ] ] } }
]
}
