{
"type": "FeatureCollection",
"name": "44433E593907N_buildings",
"crs": { "type": "name", "properties": { "name": "urn:ogc:def:crs:EPSG::3776" } },
"features": [
{ "type": "Feature", "properties": { "value": 1.0, "building_id": 0, "area": 32.833125000238127 }, "geometry": { "type": "Polygon", "coordinates": [ [ [ 44820.599999999998545, 5939311.575000000186265 ], [ 44820.599999999998545, 5939311.5 ], [ 44820.30000000000291, 5939311.5 ], [ 44820.30000000000291, 5939311.424999999813735 ], [ 44820.0, 5939311.424999999813735 ], [ 44820.0, 5939311.349999999627471 ], [ 44819.775000000001455, 5939311.349999999627471 ], [ 44819.775000000001455, 5939311.275000000372529 ], [ 44819.474999999998545, 5939311.275000000372529 ], [ 44819.474999999998545, 5939311.200000000186265 ], [ 44819.25, 5939311.200000000186265 ], [ 44819.25, 5939311.125 ], [ 44818.94999999999709, 5939311.125 ], [ 44818.94999999999709, 5939311.049999999813735 ], [ 44818.724999999998545, 5939311.049999999813735 ], [ 44818.724999999998545, 5939310.900000000372529 ], [ 44818.650000000001455, 5939310.900000000372529 ], [ 44818.650000000001455, 5939310.825000000186265 ], [ 44818.57499999999709, 5939310.825000000186265 ], [ 44818.57499999999709, 5939310.674999999813735 ], [ 44818.5, 5939310.674999999813735 ], [ 44818.5, 5939310.599999999627471 ], [ 44818.42500000000291, 5939310.599999999627471 ], [ 44818.42500000000291, 5939310.525000000372529 ], [ 44818.349999999998545, 5939310.525000000372529 ], [ 44818.349999999998545, 5939310.450000000186265 ], [ 44818.275000000001455, 5939310.450000000186265 ], [ 44818.275000000001455, 5939310.150000000372529 ], [ 44818.19999999999709, 5939310.150000000372529 ], [ 44818.19999999999709, 5939309.775000000372529 ], [ 44818.125, 5939309.775000000372529 ], [ 44818.125, 5939309.400000000372529 ], [ 44818.05000000000291, 5939309.400000000372529 ], [ 44818.05000000000291, 5939309.025000000372529 ], [ 44817.974999999998545, 5939309.025000000372529 ], [ 44817.974999999998545, 5939308.724999999627471 ], [ 44817.900000000001455, 5939308.724999999627471 ], [ 44817.900000000001455, 5939308.349999999627471 ], [ 44817.974999999998545, 5939308.349999999627471 ], [ 44817.974999999998545, 5939308.125 ], [ 44818.05000000000291, 5939308.125 ], [ 44818.05000000000291, 5939307.900000000372529 ], [ 44818.125, 5939307.900000000372529 ], [ 44818.125, 5939307.674999999813735 ], [ 44818.19999999999709, 5939307.674999999813735 ], [ 44818.19999999999709, 5939307.375 ], [ 44818.275000000001455, 5939307.375 ], [ 44818.275000000001455, 5939307.075000000186265 ], [ 44818.349999999998545, 5939307.075000000186265 ], [ 44818.349999999998545, 5939306.700000000186265 ], [ 44818.42500000000291, 5939306.700000000186265 ], [ 44818.42500000000291, 5939306.400000000372529 ], [ 44818.5, 5939306.400000000372529 ], [ 44818.5, 5939306.099999999627471 ], [ 44818.57499999999709, 5939306.099999999627471 ], [ 44818.57499999999709, 5939305.799999999813735 ], [ 44818.650000000001455, 5939305.799999999813735 ], [ 44818.650000000001455, 5939305.424999999813735 ], [ 44818.724999999998545, 5939305.424999999813735 ], [ 44818.724999999998545, 5939305.049999999813735 ], [ 44818.80000000000291, 5939305.049999999813735 ], [ 44818.80000000000291, 5939304.974999999627471 ], [ 44818.875, 5939304.974999999627471 ], [ 44818.875, 5939304.900000000372529 ], [ 44818.94999999999709, 5939304.900000000372529 ], [ 44818.94999999999709, 5939304.75 ], [ 44819.025000000001455, 5939304.75 ], [ 44819.025000000001455, 5939304.674999999813735 ], [ 44819.099999999998545, 5939304.674999999813735 ], [ 44819.099999999998545, 5939304.599999999627471 ], [ 44819.17500000000291, 5939304.599999999627471 ], [ 44819.17500000000291, 5939304.525000000372529 ], [ 44819.25, 5939304.525000000372529 ], [ 44819.25, 5939304.450000000186265 ], [ 44819.32499999999709, 5939304.450000000186265 ], [ 44819.32499999999709, 5939304.375 ], [ 44819.474999999998545, 5939304.375 ], [ 44819.474999999998545, 5939304.299999999813735 ], [ 44819.55000000000291, 5939304.299999999813735 ], [ 44819.55000000000291, 5939304.224999999627471 ], [ 44819.625, 5939304.224999999627471 ], [ 44819.625, 5939304.150000000372529 ], [ 44819.69999999999709, 5939304.150000000372529 ], [ 44819.69999999999709, 5939304.075000000186265 ], [ 44819.775000000001455, 5939304.075000000186265 ], [ 44819.775000000001455, 5939304.0 ], [ 44819.849999999998545, 5939304.0 ], [ 44819.849999999998545, 5939303.924999999813735 ], [ 44819.92500000000291, 5939303.924999999813735 ], [ 44819.92500000000291, 5939303.849999999627471 ], [ 44820.0, 5939303.849999999627471 ], [ 44820.0, 5939303.775000000372529 ], [ 44820.07499999999709, 5939303.775000000372529 ], [ 44820.07499999999709, 5939303.700000000186265 ], [ 44820.150000000001455, 5939303.700000000186265 ], [ 44820.150000000001455, 5939303.625 ], [ 44820.224999999998545, 5939303.625 ], [ 44820.224999999998545, 5939303.549999999813735 ], [ 44820.30000000000291, 5939303.549999999813735 ], [ 44820.30000000000291, 5939303.474999999627471 ], [ 44820.375, 5939303.474999999627471 ], [ 44820.375, 5939303.400000000372529 ], [ 44820.44999999999709, 5939303.400000000372529 ], [ 44820.44999999999709, 5939303.25 ], [ 44820.525000000001455, 5939303.25 ], [ 44820.525000000001455, 5939303.174999999813735 ], [ 44820.599999999998545, 5939303.174999999813735 ], [ 44820.599999999998545, 5939303.099999999627471 ], [ 44820.67500000000291, 5939303.099999999627471 ], [ 44820.67500000000291, 5939303.025000000372529 ], [ 44820.75, 5939303.025000000372529 ], [ 44820.75, 5939303.099999999627471 ], [ 44820.82499999999709, 5939303.099999999627471 ], [ 44820.82499999999709, 5939303.174999999813735 ], [ 44820.900000000001455, 5939303.174999999813735 ], [ 44820.900000000001455, 5939303.25 ], [ 44820.974999999998545, 5939303.25 ], [ 44820.974999999998545, 5939303.325000000186265 ], [ 44821.05000000000291, 5939303.325000000186265 ], [ 44821.05000000000291, 5939303.400000000372529 ], [ 44821.125, 5939303.400000000372529 ], [ 44821.125, 5939303.474999999627471 ], [ 44821.19999999999709, 5939303.474999999627471 ], [ 44821.19999999999709, 5939303.549999999813735 ], [ 44821.275000000001455, 5939303.549999999813735 ], [ 44821.275000000001455, 5939303.625 ], [ 44821.349999999998545, 5939303.625 ], [ 44821.349999999998545, 5939303.700000000186265 ], [ 44821.42500000000291, 5939303.700000000186265 ], [ 44821.42500000000291, 5939303.775000000372529 ], [ 44821.5, 5939303.775000000372529 ], [ 44821.5, 5939303.849999999627471 ], [ 44821.57499999999709, 5939303.849999999627471 ], [ 44821.57499999999709, 5939303.924999999813735 ], [ 44821.650000000001455, 5939303.924999999813735 ], [ 44821.650000000001455, 5939304.0 ], [ 44821.724999999998545, 5939304.0 ], [ 44821.724999999998545, 5939304.075000000186265 ], [ 44821.80000000000291, 5939304.075000000186265 ], [ 44821.80000000000291, 5939304.150000000372529 ], [ 44821.875, 5939304.150000000372529 ], [ 44821.875, 5939304.224999999627471 ], [ 44821.94999999999709, 5939304.224999999627471 ], [ 44821.94999999999709, 5939304.299999999813735 ], [ 44822.025000000001455, 5939304.299999999813735 ], [ 44822.025000000001455, 5939304.375 ], [ 44822.099999999998545, 5939304.375 ], [ 44822.099999999998545, 5939304.450000000186265 ], [ 44822.17500000000291, 5939304.450000000186265 ], [ 44822.17500000000291, 5939304.525000000372529 ], [ 44822.25, 5939304.525000000372529 ], [ 44822.25, 5939304.599999999627471 ], [ 44822.32499999999709, 5939304.599999999627471 ], [ 44822.32499999999709, 5939304.75 ], [ 44822.400000000001455, 5939304.75 ], [ 44822.400000000001455, 5939304.825000000186265 ], [ 44822.474999999998545, 5939304.825000000186265 ], [ 44822.474999999998545, 5939304.974999999627471 ], [ 44822.55000000000291, 5939304.974999999627471 ], [ 44822.55000000000291, 5939305.049999999813735 ], [ 44822.625, 5939305.049999999813735 ], [ 44822.625, 5939305.200000000186265 ], [ 44822.69999999999709, 5939305.200000000186265 ], [ 44822.69999999999709, 5939305.424999999813735 ], [ 44822.775000000001455, 5939305.424999999813735 ], [ 44822.775000000001455, 5939305.650000000372529 ], [ 44822.849999999998545, 5939305.650000000372529 ], [ 44822.849999999998545, 5939305.875 ], [ 44822.92500000000291, 5939305.875 ], [ 44822.92500000000291, 5939306.099999999627471 ], [ 44823.0, 5939306.099999999627471 ], [ 44823.0, 5939306.325000000186265 ], [ 44823.07499999999709, 5939306.325000000186265 ], [ 44823.07499999999709, 5939306.549999999813735 ], [ 44823.150000000001455, 5939306.549999999813735 ], [ 44823.150000000001455, 5939306.849999999627471 ], [ 44823.224999999998545, 5939306.849999999627471 ], [ 44823.224999999998545, 5939307.224999999627471 ], [ 44823.30000000000291, 5939307.224999999627471 ], [ 44823.30000000000291, 5939307.525000000372529 ], [ 44823.375, 5939307.525000000372529 ], [ 44823.375, 5939307.825000000186265 ], [ 44823.44999999999709, 5939307.825000000186265 ], [ 44823.44999999999709, 5939308.200000000186265 ], [ 44823.525000000001455, 5939308.200000000186265 ], [ 44823.525000000001455, 5939308.575000000186265 ], [ 44823.44999999999709, 5939308.575000000186265 ], [ 44823.44999999999709, 5939308.724999999627471 ], [ 44823.375, 5939308.724999999627471 ], [ 44823.375, 5939308.875 ], [ 44823.30000000000291, 5939308.875 ], [ 44823.30000000000291, 5939309.025000000372529 ], [ 44823.224999999998545, 5939309.025000000372529 ], [ 44823.224999999998545, 5939309.174999999813735 ], [ 44823.150000000001455, 5939309.174999999813735 ], [ 44823.150000000001455, 5939309.400000000372529 ], [ 44823.07499999999709, 5939309.400000000372529 ], [ 44823.07499999999709, 5939309.549999999813735 ], [ 44823.0, 5939309.549999999813735 ], [ 44823.0, 5939309.775000000372529 ], [ 44822.92500000000291, 5939309.775000000372529 ], [ 44822.92500000000291, 5939310.0 ], [ 44822.849999999998545, 5939310.0 ], [ 44822.849999999998545, 5939310.224999999627471 ], [ 44822.775000000001455, 5939310.224999999627471 ], [ 44822.775000000001455, 5939310.450000000186265 ], [ 44822.69999999999709, 5939310.450000000186265 ], [ 44822.69999999999709, 5939310.525000000372529 ], [ 44822.474999999998545, 5939310.525000000372529 ], [ 44822.474999999998545, 5939310.599999999627471 ], [ 44822.25, 5939310.599999999627471 ], [ 44822.25, 5939310.674999999813735 ], [ 44822.025000000001455, 5939310.674999999813735 ], [ 44822.025000000001455, 5939310.75 ], [ 44821.80000000000291, 5939310.75 ], [ 44821.80000000000291, 5939310.825000000186265 ], [ 44821.650000000001455, 5939310.825000000186265 ], [ 44821.650000000001455, 5939310.900000000372529 ], [ 44821.5, 5939310.900000000372529 ], [ 44821.5, 5939310.974999999627471 ], [ 44821.349999999998545, 5939310.974999999627471 ], [ 44821.349999999998545, 5939311.049999999813735 ], [ 44821.275000000001455, 5939311.049999999813735 ], [ 44821.275000000001455, 5939311.125 ], [ 44821.125, 5939311.125 ], [ 44821.125, 5939311.200000000186265 ], [ 44821.05000000000291, 5939311.200000000186265 ], [ 44821.05000000000291, 5939311.275000000372529 ], [ 44820.974999999998545, 5939311.275000000372529 ], [ 44820.974999999998545, 5939311.349999999627471 ], [ 44820.900000000001455, 5939311.349999999627471 ], [ 44820.900000000001455, 5939311.424999999813735 ], [ 44820.82499999999709, 5939311.424999999813735 ], [ 44820.82499999999709, 5939311.5 ], [ 44820.75, 5939311.5 ], [ 44820.75, 5939311.575000000186265 ], [ 44820.599999999998545, 5939311.575000000186265 ] ] ] } }
]
}
