{
"type": "FeatureCollection",
"name": "44433E594582N_buildings",
"crs": { "type": "name", "properties": { "name": "urn:ogc:def:crs:EPSG::3776" } },
"features": [
{ "type": "Feature", "properties": { "value": 1.0, "building_id": 0, "area": 67.668749999862456 }, "geometry": { "type": "Polygon", "coordinates": [ [ [ 44820.599999999998545, 5946222.0 ], [ 44820.599999999998545, 5946221.924999999813735 ], [ 44820.525000000001455, 5946221.924999999813735 ], [ 44820.525000000001455, 5946221.849999999627471 ], [ 44820.375, 5946221.849999999627471 ], [ 44820.375, 5946221.775000000372529 ], [ 44820.30000000000291, 5946221.775000000372529 ], [ 44820.30000000000291, 5946221.700000000186265 ], [ 44820.150000000001455, 5946221.700000000186265 ], [ 44820.150000000001455, 5946221.625 ], [ 44820.07499999999709, 5946221.625 ], [ 44820.07499999999709, 5946221.474999999627471 ], [ 44820.150000000001455, 5946221.474999999627471 ], [ 44820.150000000001455, 5946221.400000000372529 ], [ 44820.224999999998545, 5946221.400000000372529 ], [ 44820.224999999998545, 5946221.325000000186265 ], [ 44820.30000000000291, 5946221.325000000186265 ], [ 44820.30000000000291, 5946221.174999999813735 ], [ 44820.375, 5946221.174999999813735 ], [ 44820.375, 5946221.099999999627471 ], [ 44820.44999999999709, 5946221.099999999627471 ], [ 44820.44999999999709, 5946220.950000000186265 ], [ 44820.525000000001455, 5946220.950000000186265 ], [ 44820.525000000001455, 5946220.799999999813735 ], [ 44820.599999999998545, 5946220.799999999813735 ], [ 44820.599999999998545, 5946220.650000000372529 ], [ 44820.67500000000291, 5946220.650000000372529 ], [ 44820.67500000000291, 5946220.5 ], [ 44820.75, 5946220.5 ], [ 44820.75, 5946220.424999999813735 ], [ 44820.82499999999709, 5946220.424999999813735 ], [ 44820.82499999999709, 5946220.349999999627471 ], [ 44820.900000000001455, 5946220.349999999627471 ], [ 44820.900000000001455, 5946220.275000000372529 ], [ 44820.974999999998545, 5946220.275000000372529 ], [ 44820.974999999998545, 5946220.200000000186265 ], [ 44821.05000000000291, 5946220.200000000186265 ], [ 44821.05000000000291, 5946220.125 ], [ 44821.125, 5946220.125 ], [ 44821.125, 5946220.049999999813735 ], [ 44821.19999999999709, 5946220.049999999813735 ], [ 44821.19999999999709, 5946219.974999999627471 ], [ 44821.275000000001455, 5946219.974999999627471 ], [ 44821.275000000001455, 5946219.900000000372529 ], [ 44821.349999999998545, 5946219.900000000372529 ], [ 44821.349999999998545, 5946219.825000000186265 ], [ 44821.42500000000291, 5946219.825000000186265 ], [ 44821.42500000000291, 5946219.75 ], [ 44821.5, 5946219.75 ], [ 44821.5, 5946219.599999999627471 ], [ 44821.57499999999709, 5946219.599999999627471 ], [ 44821.57499999999709, 5946219.525000000372529 ], [ 44821.650000000001455, 5946219.525000000372529 ], [ 44821.650000000001455, 5946219.450000000186265 ], [ 44821.724999999998545, 5946219.450000000186265 ], [ 44821.724999999998545, 5946219.299999999813735 ], [ 44821.80000000000291, 5946219.299999999813735 ], [ 44821.80000000000291, 5946219.224999999627471 ], [ 44821.875, 5946219.224999999627471 ], [ 44821.875, 5946219.075000000186265 ], [ 44821.94999999999709, 5946219.075000000186265 ], [ 44821.94999999999709, 5946218.924999999813735 ], [ 44822.025000000001455, 5946218.924999999813735 ], [ 44822.025000000001455, 5946218.849999999627471 ], [ 44822.099999999998545, 5946218.849999999627471 ], [ 44822.099999999998545, 5946218.700000000186265 ], [ 44822.17500000000291, 5946218.700000000186265 ], [ 44822.17500000000291, 5946218.625 ], [ 44822.25, 5946218.625 ], [ 44822.25, 5946218.549999999813735 ], [ 44822.32499999999709, 5946218.549999999813735 ], [ 44822.32499999999709, 5946218.474999999627471 ], [ 44822.474999999998545, 5946218.474999999627471 ], [ 44822.474999999998545, 5946218.400000000372529 ], [ 44822.55000000000291, 5946218.400000000372529 ], [ 44822.55000000000291, 5946218.325000000186265 ], [ 44822.69999999999709, 5946218.325000000186265 ], [ 44822.69999999999709, 5946218.25 ], [ 44822.849999999998545, 5946218.25 ], [ 44822.849999999998545, 5946218.174999999813735 ], [ 44823.0, 5946218.174999999813735 ], [ 44823.0, 5946218.099999999627471 ], [ 44823.150000000001455, 5946218.099999999627471 ], [ 44823.150000000001455, 5946218.025000000372529 ], [ 44823.30000000000291, 5946218.025000000372529 ], [ 44823.30000000000291, 5946217.950000000186265 ], [ 44823.44999999999709, 5946217.950000000186265 ], [ 44823.44999999999709, 5946217.875 ], [ 44823.599999999998545, 5946217.875 ], [ 44823.599999999998545, 5946217.799999999813735 ], [ 44823.75, 5946217.799999999813735 ], [ 44823.75, 5946217.724999999627471 ], [ 44823.900000000001455, 5946217.724999999627471 ], [ 44823.900000000001455, 5946217.650000000372529 ], [ 44823.974999999998545, 5946217.650000000372529 ], [ 44823.974999999998545, 5946217.575000000186265 ], [ 44824.125, 5946217.575000000186265 ], [ 44824.125, 5946217.5 ], [ 44824.19999999999709, 5946217.5 ], [ 44824.19999999999709, 5946217.424999999813735 ], [ 44824.349999999998545, 5946217.424999999813735 ], [ 44824.349999999998545, 5946217.349999999627471 ], [ 44824.42500000000291, 5946217.349999999627471 ], [ 44824.42500000000291, 5946217.275000000372529 ], [ 44824.5, 5946217.275000000372529 ], [ 44824.5, 5946217.200000000186265 ], [ 44824.57499999999709, 5946217.200000000186265 ], [ 44824.57499999999709, 5946217.125 ], [ 44824.724999999998545, 5946217.125 ], [ 44824.724999999998545, 5946217.049999999813735 ], [ 44824.80000000000291, 5946217.049999999813735 ], [ 44824.80000000000291, 5946216.974999999627471 ], [ 44824.94999999999709, 5946216.974999999627471 ], [ 44824.94999999999709, 5946216.900000000372529 ], [ 44825.025000000001455, 5946216.900000000372529 ], [ 44825.025000000001455, 5946216.825000000186265 ], [ 44825.099999999998545, 5946216.825000000186265 ], [ 44825.099999999998545, 5946216.75 ], [ 44825.17500000000291, 5946216.75 ], [ 44825.17500000000291, 5946216.599999999627471 ], [ 44825.099999999998545, 5946216.599999999627471 ], [ 44825.099999999998545, 5946216.525000000372529 ], [ 44825.025000000001455, 5946216.525000000372529 ], [ 44825.025000000001455, 5946216.450000000186265 ], [ 44824.94999999999709, 5946216.450000000186265 ], [ 44824.94999999999709, 5946216.375 ], [ 44824.875, 5946216.375 ], [ 44824.875, 5946216.299999999813735 ], [ 44824.80000000000291, 5946216.299999999813735 ], [ 44824.80000000000291, 5946216.224999999627471 ], [ 44824.724999999998545, 5946216.224999999627471 ], [ 44824.724999999998545, 5946216.150000000372529 ], [ 44824.650000000001455, 5946216.150000000372529 ], [ 44824.650000000001455, 5946216.075000000186265 ], [ 44824.57499999999709, 5946216.075000000186265 ], [ 44824.57499999999709, 5946215.924999999813735 ], [ 44824.5, 5946215.924999999813735 ], [ 44824.5, 5946215.775000000372529 ], [ 44824.42500000000291, 5946215.775000000372529 ], [ 44824.42500000000291, 5946215.625 ], [ 44824.349999999998545, 5946215.625 ], [ 44824.349999999998545, 5946215.474999999627471 ], [ 44824.275000000001455, 5946215.474999999627471 ], [ 44824.275000000001455, 5946215.325000000186265 ], [ 44824.19999999999709, 5946215.325000000186265 ], [ 44824.19999999999709, 5946215.174999999813735 ], [ 44824.125, 5946215.174999999813735 ], [ 44824.125, 5946214.950000000186265 ], [ 44824.05000000000291, 5946214.950000000186265 ], [ 44824.05000000000291, 5946214.200000000186265 ], [ 44824.125, 5946214.200000000186265 ], [ 44824.125, 5946213.825000000186265 ], [ 44824.19999999999709, 5946213.825000000186265 ], [ 44824.19999999999709, 5946213.599999999627471 ], [ 44824.275000000001455, 5946213.599999999627471 ], [ 44824.275000000001455, 5946213.375 ], [ 44824.349999999998545, 5946213.375 ], [ 44824.349999999998545, 5946213.224999999627471 ], [ 44824.42500000000291, 5946213.224999999627471 ], [ 44824.42500000000291, 5946213.075000000186265 ], [ 44824.5, 5946213.075000000186265 ], [ 44824.5, 5946212.924999999813735 ], [ 44824.57499999999709, 5946212.924999999813735 ], [ 44824.57499999999709, 5946212.849999999627471 ], [ 44824.650000000001455, 5946212.849999999627471 ], [ 44824.650000000001455, 5946212.400000000372529 ], [ 44824.724999999998545, 5946212.400000000372529 ], [ 44824.724999999998545, 5946212.025000000372529 ], [ 44824.80000000000291, 5946212.025000000372529 ], [ 44824.80000000000291, 5946211.875 ], [ 44824.94999999999709, 5946211.875 ], [ 44824.94999999999709, 5946211.950000000186265 ], [ 44825.775000000001455, 5946211.950000000186265 ], [ 44825.775000000001455, 5946212.025000000372529 ], [ 44826.599999999998545, 5946212.025000000372529 ], [ 44826.599999999998545, 5946212.099999999627471 ], [ 44826.75, 5946212.099999999627471 ], [ 44826.75, 5946212.174999999813735 ], [ 44826.900000000001455, 5946212.174999999813735 ], [ 44826.900000000001455, 5946212.25 ], [ 44826.974999999998545, 5946212.25 ], [ 44826.974999999998545, 5946212.325000000186265 ], [ 44827.125, 5946212.325000000186265 ], [ 44827.125, 5946212.400000000372529 ], [ 44827.275000000001455, 5946212.400000000372529 ], [ 44827.275000000001455, 5946212.474999999627471 ], [ 44827.349999999998545, 5946212.474999999627471 ], [ 44827.349999999998545, 5946212.549999999813735 ], [ 44827.42500000000291, 5946212.549999999813735 ], [ 44827.42500000000291, 5946212.625 ], [ 44827.57499999999709, 5946212.625 ], [ 44827.57499999999709, 5946212.700000000186265 ], [ 44827.650000000001455, 5946212.700000000186265 ], [ 44827.650000000001455, 5946212.775000000372529 ], [ 44827.724999999998545, 5946212.775000000372529 ], [ 44827.724999999998545, 5946212.849999999627471 ], [ 44827.875, 5946212.849999999627471 ], [ 44827.875, 5946212.924999999813735 ], [ 44828.025000000001455, 5946212.924999999813735 ], [ 44828.025000000001455, 5946213.0 ], [ 44828.17500000000291, 5946213.0 ], [ 44828.17500000000291, 5946213.075000000186265 ], [ 44828.32499999999709, 5946213.075000000186265 ], [ 44828.32499999999709, 5946213.150000000372529 ], [ 44828.55000000000291, 5946213.150000000372529 ], [ 44828.55000000000291, 5946213.224999999627471 ], [ 44828.775000000001455, 5946213.224999999627471 ], [ 44828.775000000001455, 5946213.299999999813735 ], [ 44829.0, 5946213.299999999813735 ], [ 44829.0, 5946213.375 ], [ 44829.30000000000291, 5946213.375 ], [ 44829.30000000000291, 5946213.450000000186265 ], [ 44829.525000000001455, 5946213.450000000186265 ], [ 44829.525000000001455, 5946213.525000000372529 ], [ 44829.82499999999709, 5946213.525000000372529 ], [ 44829.82499999999709, 5946213.599999999627471 ], [ 44830.125, 5946213.599999999627471 ], [ 44830.125, 5946213.674999999813735 ], [ 44830.42500000000291, 5946213.674999999813735 ], [ 44830.42500000000291, 5946213.75 ], [ 44830.57499999999709, 5946213.75 ], [ 44830.57499999999709, 5946213.825000000186265 ], [ 44830.650000000001455, 5946213.825000000186265 ], [ 44830.650000000001455, 5946213.900000000372529 ], [ 44830.80000000000291, 5946213.900000000372529 ], [ 44830.80000000000291, 5946213.974999999627471 ], [ 44830.875, 5946213.974999999627471 ], [ 44830.875, 5946214.049999999813735 ], [ 44830.94999999999709, 5946214.049999999813735 ], [ 44830.94999999999709, 5946214.125 ], [ 44831.025000000001455, 5946214.125 ], [ 44831.025000000001455, 5946214.200000000186265 ], [ 44831.099999999998545, 5946214.200000000186265 ], [ 44831.099999999998545, 5946214.275000000372529 ], [ 44831.17500000000291, 5946214.275000000372529 ], [ 44831.17500000000291, 5946215.474999999627471 ], [ 44831.099999999998545, 5946215.474999999627471 ], [ 44831.099999999998545, 5946216.150000000372529 ], [ 44831.025000000001455, 5946216.150000000372529 ], [ 44831.025000000001455, 5946217.049999999813735 ], [ 44831.099999999998545, 5946217.049999999813735 ], [ 44831.099999999998545, 5946217.424999999813735 ], [ 44831.17500000000291, 5946217.424999999813735 ], [ 44831.17500000000291, 5946217.799999999813735 ], [ 44831.25, 5946217.799999999813735 ], [ 44831.25, 5946218.174999999813735 ], [ 44831.32499999999709, 5946218.174999999813735 ], [ 44831.32499999999709, 5946218.549999999813735 ], [ 44831.400000000001455, 5946218.549999999813735 ], [ 44831.400000000001455, 5946219.525000000372529 ], [ 44831.474999999998545, 5946219.525000000372529 ], [ 44831.474999999998545, 5946219.974999999627471 ], [ 44831.32499999999709, 5946219.974999999627471 ], [ 44831.32499999999709, 5946220.049999999813735 ], [ 44831.17500000000291, 5946220.049999999813735 ], [ 44831.17500000000291, 5946220.125 ], [ 44830.94999999999709, 5946220.125 ], [ 44830.94999999999709, 5946220.200000000186265 ], [ 44830.650000000001455, 5946220.200000000186265 ], [ 44830.650000000001455, 5946220.275000000372529 ], [ 44830.42500000000291, 5946220.275000000372529 ], [ 44830.42500000000291, 5946220.349999999627471 ], [ 44830.275000000001455, 5946220.349999999627471 ], [ 44830.275000000001455, 5946220.424999999813735 ], [ 44830.125, 5946220.424999999813735 ], [ 44830.125, 5946220.5 ], [ 44830.05000000000291, 5946220.5 ], [ 44830.05000000000291, 5946220.575000000186265 ], [ 44829.900000000001455, 5946220.575000000186265 ], [ 44829.900000000001455, 5946220.650000000372529 ], [ 44829.82499999999709, 5946220.650000000372529 ], [ 44829.82499999999709, 5946220.724999999627471 ], [ 44829.67500000000291, 5946220.724999999627471 ], [ 44829.67500000000291, 5946220.799999999813735 ], [ 44829.525000000001455, 5946220.799999999813735 ], [ 44829.525000000001455, 5946220.875 ], [ 44829.375, 5946220.875 ], [ 44829.375, 5946220.950000000186265 ], [ 44829.224999999998545, 5946220.950000000186265 ], [ 44829.224999999998545, 5946221.025000000372529 ], [ 44829.07499999999709, 5946221.025000000372529 ], [ 44829.07499999999709, 5946221.099999999627471 ], [ 44828.849999999998545, 5946221.099999999627471 ], [ 44828.849999999998545, 5946221.174999999813735 ], [ 44828.625, 5946221.174999999813735 ], [ 44828.625, 5946221.25 ], [ 44828.025000000001455, 5946221.25 ], [ 44828.025000000001455, 5946221.325000000186265 ], [ 44826.82499999999709, 5946221.325000000186265 ], [ 44826.82499999999709, 5946221.400000000372529 ], [ 44825.32499999999709, 5946221.400000000372529 ], [ 44825.32499999999709, 5946221.474999999627471 ], [ 44824.125, 5946221.474999999627471 ], [ 44824.125, 5946221.549999999813735 ], [ 44823.224999999998545, 5946221.549999999813735 ], [ 44823.224999999998545, 5946221.625 ], [ 44822.474999999998545, 5946221.625 ], [ 44822.474999999998545, 5946221.700000000186265 ], [ 44821.94999999999709, 5946221.700000000186265 ], [ 44821.94999999999709, 5946221.775000000372529 ], [ 44821.57499999999709, 5946221.775000000372529 ], [ 44821.57499999999709, 5946221.849999999627471 ], [ 44821.19999999999709, 5946221.849999999627471 ], [ 44821.19999999999709, 5946221.924999999813735 ], [ 44820.900000000001455, 5946221.924999999813735 ], [ 44820.900000000001455, 5946222.0 ], [ 44820.599999999998545, 5946222.0 ] ] ] } },
{ "type": "Feature", "properties": { "value": 1.0, "building_id": 1, "area": 270.13500000047651 }, "geometry": { "type": "Polygon", "coordinates": [ [ [ 44856.75, 5946209.700000000186265 ], [ 44856.75, 5946209.625 ], [ 44855.625, 5946209.625 ], [ 44855.625, 5946209.549999999813735 ], [ 44854.5, 5946209.549999999813735 ], [ 44854.5, 5946209.474999999627471 ], [ 44853.375, 5946209.474999999627471 ], [ 44853.375, 5946209.400000000372529 ], [ 44852.32499999999709, 5946209.400000000372529 ], [ 44852.32499999999709, 5946209.325000000186265 ], [ 44851.80000000000291, 5946209.325000000186265 ], [ 44851.80000000000291, 5946209.25 ], [ 44851.650000000001455, 5946209.25 ], [ 44851.650000000001455, 5946209.174999999813735 ], [ 44851.42500000000291, 5946209.174999999813735 ], [ 44851.42500000000291, 5946209.099999999627471 ], [ 44851.275000000001455, 5946209.099999999627471 ], [ 44851.275000000001455, 5946209.025000000372529 ], [ 44851.125, 5946209.025000000372529 ], [ 44851.125, 5946208.950000000186265 ], [ 44850.974999999998545, 5946208.950000000186265 ], [ 44850.974999999998545, 5946208.875 ], [ 44850.900000000001455, 5946208.875 ], [ 44850.900000000001455, 5946208.799999999813735 ], [ 44850.75, 5946208.799999999813735 ], [ 44850.75, 5946208.724999999627471 ], [ 44850.67500000000291, 5946208.724999999627471 ], [ 44850.67500000000291, 5946208.650000000372529 ], [ 44850.525000000001455, 5946208.650000000372529 ], [ 44850.525000000001455, 5946208.575000000186265 ], [ 44850.44999999999709, 5946208.575000000186265 ], [ 44850.44999999999709, 5946208.5 ], [ 44850.30000000000291, 5946208.5 ], [ 44850.30000000000291, 5946208.424999999813735 ], [ 44850.150000000001455, 5946208.424999999813735 ], [ 44850.150000000001455, 5946208.349999999627471 ], [ 44850.07499999999709, 5946208.349999999627471 ], [ 44850.07499999999709, 5946208.275000000372529 ], [ 44849.92500000000291, 5946208.275000000372529 ], [ 44849.92500000000291, 5946208.125 ], [ 44849.849999999998545, 5946208.125 ], [ 44849.849999999998545, 5946208.049999999813735 ], [ 44849.775000000001455, 5946208.049999999813735 ], [ 44849.775000000001455, 5946207.974999999627471 ], [ 44849.69999999999709, 5946207.974999999627471 ], [ 44849.69999999999709, 5946207.825000000186265 ], [ 44849.625, 5946207.825000000186265 ], [ 44849.625, 5946207.75 ], [ 44849.55000000000291, 5946207.75 ], [ 44849.55000000000291, 5946207.599999999627471 ], [ 44849.474999999998545, 5946207.599999999627471 ], [ 44849.474999999998545, 5946207.450000000186265 ], [ 44849.400000000001455, 5946207.450000000186265 ], [ 44849.400000000001455, 5946207.299999999813735 ], [ 44849.32499999999709, 5946207.299999999813735 ], [ 44849.32499999999709, 5946207.150000000372529 ], [ 44849.25, 5946207.150000000372529 ], [ 44849.25, 5946207.0 ], [ 44849.17500000000291, 5946207.0 ], [ 44849.17500000000291, 5946206.849999999627471 ], [ 44849.099999999998545, 5946206.849999999627471 ], [ 44849.099999999998545, 5946206.700000000186265 ], [ 44849.025000000001455, 5946206.700000000186265 ], [ 44849.025000000001455, 5946206.625 ], [ 44848.94999999999709, 5946206.625 ], [ 44848.94999999999709, 5946206.549999999813735 ], [ 44848.875, 5946206.549999999813735 ], [ 44848.875, 5946206.474999999627471 ], [ 44848.80000000000291, 5946206.474999999627471 ], [ 44848.80000000000291, 5946206.325000000186265 ], [ 44848.650000000001455, 5946206.325000000186265 ], [ 44848.650000000001455, 5946206.25 ], [ 44848.57499999999709, 5946206.25 ], [ 44848.57499999999709, 5946206.174999999813735 ], [ 44848.5, 5946206.174999999813735 ], [ 44848.5, 5946206.099999999627471 ], [ 44848.42500000000291, 5946206.099999999627471 ], [ 44848.42500000000291, 5946206.025000000372529 ], [ 44848.275000000001455, 5946206.025000000372529 ], [ 44848.275000000001455, 5946205.950000000186265 ], [ 44848.125, 5946205.950000000186265 ], [ 44848.125, 5946205.875 ], [ 44848.05000000000291, 5946205.875 ], [ 44848.05000000000291, 5946205.799999999813735 ], [ 44847.900000000001455, 5946205.799999999813735 ], [ 44847.900000000001455, 5946205.724999999627471 ], [ 44847.82499999999709, 5946205.724999999627471 ], [ 44847.82499999999709, 5946205.650000000372529 ], [ 44847.67500000000291, 5946205.650000000372529 ], [ 44847.67500000000291, 5946205.575000000186265 ], [ 44847.599999999998545, 5946205.575000000186265 ], [ 44847.599999999998545, 5946205.5 ], [ 44847.525000000001455, 5946205.5 ], [ 44847.525000000001455, 5946205.424999999813735 ], [ 44847.44999999999709, 5946205.424999999813735 ], [ 44847.44999999999709, 5946205.349999999627471 ], [ 44847.375, 5946205.349999999627471 ], [ 44847.375, 5946205.200000000186265 ], [ 44847.30000000000291, 5946205.200000000186265 ], [ 44847.30000000000291, 5946205.125 ], [ 44847.224999999998545, 5946205.125 ], [ 44847.224999999998545, 5946204.974999999627471 ], [ 44847.150000000001455, 5946204.974999999627471 ], [ 44847.150000000001455, 5946204.900000000372529 ], [ 44847.07499999999709, 5946204.900000000372529 ], [ 44847.07499999999709, 5946204.75 ], [ 44847.0, 5946204.75 ], [ 44847.0, 5946204.674999999813735 ], [ 44846.92500000000291, 5946204.674999999813735 ], [ 44846.92500000000291, 5946204.525000000372529 ], [ 44846.849999999998545, 5946204.525000000372529 ], [ 44846.849999999998545, 5946204.450000000186265 ], [ 44846.775000000001455, 5946204.450000000186265 ], [ 44846.775000000001455, 5946204.375 ], [ 44846.69999999999709, 5946204.375 ], [ 44846.69999999999709, 5946204.299999999813735 ], [ 44846.625, 5946204.299999999813735 ], [ 44846.625, 5946204.224999999627471 ], [ 44846.55000000000291, 5946204.224999999627471 ], [ 44846.55000000000291, 5946204.150000000372529 ], [ 44846.474999999998545, 5946204.150000000372529 ], [ 44846.474999999998545, 5946204.075000000186265 ], [ 44846.32499999999709, 5946204.075000000186265 ], [ 44846.32499999999709, 5946204.0 ], [ 44846.25, 5946204.0 ], [ 44846.25, 5946203.924999999813735 ], [ 44846.099999999998545, 5946203.924999999813735 ], [ 44846.099999999998545, 5946203.849999999627471 ], [ 44846.025000000001455, 5946203.849999999627471 ], [ 44846.025000000001455, 5946203.775000000372529 ], [ 44845.875, 5946203.775000000372529 ], [ 44845.875, 5946203.700000000186265 ], [ 44845.80000000000291, 5946203.700000000186265 ], [ 44845.80000000000291, 5946203.625 ], [ 44845.724999999998545, 5946203.625 ], [ 44845.724999999998545, 5946203.549999999813735 ], [ 44845.650000000001455, 5946203.549999999813735 ], [ 44845.650000000001455, 5946203.474999999627471 ], [ 44845.57499999999709, 5946203.474999999627471 ], [ 44845.57499999999709, 5946203.400000000372529 ], [ 44845.5, 5946203.400000000372529 ], [ 44845.5, 5946203.325000000186265 ], [ 44845.42500000000291, 5946203.325000000186265 ], [ 44845.42500000000291, 5946203.25 ], [ 44845.349999999998545, 5946203.25 ], [ 44845.349999999998545, 5946203.099999999627471 ], [ 44845.275000000001455, 5946203.099999999627471 ], [ 44845.275000000001455, 5946202.950000000186265 ], [ 44845.19999999999709, 5946202.950000000186265 ], [ 44845.19999999999709, 5946202.799999999813735 ], [ 44845.125, 5946202.799999999813735 ], [ 44845.125, 5946202.724999999627471 ], [ 44845.05000000000291, 5946202.724999999627471 ], [ 44845.05000000000291, 5946202.575000000186265 ], [ 44844.974999999998545, 5946202.575000000186265 ], [ 44844.974999999998545, 5946202.5 ], [ 44844.900000000001455, 5946202.5 ], [ 44844.900000000001455, 5946202.349999999627471 ], [ 44844.82499999999709, 5946202.349999999627471 ], [ 44844.82499999999709, 5946202.275000000372529 ], [ 44844.75, 5946202.275000000372529 ], [ 44844.75, 5946202.200000000186265 ], [ 44844.67500000000291, 5946202.200000000186265 ], [ 44844.67500000000291, 5946202.125 ], [ 44844.599999999998545, 5946202.125 ], [ 44844.599999999998545, 5946202.049999999813735 ], [ 44844.525000000001455, 5946202.049999999813735 ], [ 44844.525000000001455, 5946201.974999999627471 ], [ 44844.44999999999709, 5946201.974999999627471 ], [ 44844.44999999999709, 5946201.900000000372529 ], [ 44844.30000000000291, 5946201.900000000372529 ], [ 44844.30000000000291, 5946201.825000000186265 ], [ 44844.224999999998545, 5946201.825000000186265 ], [ 44844.224999999998545, 5946201.75 ], [ 44844.07499999999709, 5946201.75 ], [ 44844.07499999999709, 5946201.674999999813735 ], [ 44844.0, 5946201.674999999813735 ], [ 44844.0, 5946201.599999999627471 ], [ 44843.92500000000291, 5946201.599999999627471 ], [ 44843.92500000000291, 5946201.525000000372529 ], [ 44843.775000000001455, 5946201.525000000372529 ], [ 44843.775000000001455, 5946201.450000000186265 ], [ 44843.69999999999709, 5946201.450000000186265 ], [ 44843.69999999999709, 5946201.299999999813735 ], [ 44843.625, 5946201.299999999813735 ], [ 44843.625, 5946201.224999999627471 ], [ 44843.55000000000291, 5946201.224999999627471 ], [ 44843.55000000000291, 5946201.150000000372529 ], [ 44843.474999999998545, 5946201.150000000372529 ], [ 44843.474999999998545, 5946201.0 ], [ 44843.400000000001455, 5946201.0 ], [ 44843.400000000001455, 5946200.924999999813735 ], [ 44843.32499999999709, 5946200.924999999813735 ], [ 44843.32499999999709, 5946200.775000000372529 ], [ 44843.25, 5946200.775000000372529 ], [ 44843.25, 5946200.625 ], [ 44843.17500000000291, 5946200.625 ], [ 44843.17500000000291, 5946200.549999999813735 ], [ 44843.099999999998545, 5946200.549999999813735 ], [ 44843.099999999998545, 5946200.474999999627471 ], [ 44843.025000000001455, 5946200.474999999627471 ], [ 44843.025000000001455, 5946200.325000000186265 ], [ 44842.94999999999709, 5946200.325000000186265 ], [ 44842.94999999999709, 5946200.25 ], [ 44842.875, 5946200.25 ], [ 44842.875, 5946200.174999999813735 ], [ 44842.80000000000291, 5946200.174999999813735 ], [ 44842.80000000000291, 5946200.099999999627471 ], [ 44842.724999999998545, 5946200.099999999627471 ], [ 44842.724999999998545, 5946200.025000000372529 ], [ 44842.650000000001455, 5946200.025000000372529 ], [ 44842.650000000001455, 5946199.950000000186265 ], [ 44842.5, 5946199.950000000186265 ], [ 44842.5, 5946199.875 ], [ 44842.42500000000291, 5946199.875 ], [ 44842.42500000000291, 5946199.799999999813735 ], [ 44842.275000000001455, 5946199.799999999813735 ], [ 44842.275000000001455, 5946199.724999999627471 ], [ 44842.19999999999709, 5946199.724999999627471 ], [ 44842.19999999999709, 5946199.650000000372529 ], [ 44842.05000000000291, 5946199.650000000372529 ], [ 44842.05000000000291, 5946199.575000000186265 ], [ 44841.974999999998545, 5946199.575000000186265 ], [ 44841.974999999998545, 5946199.5 ], [ 44841.900000000001455, 5946199.5 ], [ 44841.900000000001455, 5946199.424999999813735 ], [ 44841.82499999999709, 5946199.424999999813735 ], [ 44841.82499999999709, 5946199.349999999627471 ], [ 44841.75, 5946199.349999999627471 ], [ 44841.75, 5946199.275000000372529 ], [ 44841.67500000000291, 5946199.275000000372529 ], [ 44841.67500000000291, 5946199.200000000186265 ], [ 44841.599999999998545, 5946199.200000000186265 ], [ 44841.599999999998545, 5946199.049999999813735 ], [ 44841.525000000001455, 5946199.049999999813735 ], [ 44841.525000000001455, 5946198.825000000186265 ], [ 44841.44999999999709, 5946198.825000000186265 ], [ 44841.44999999999709, 5946198.674999999813735 ], [ 44841.375, 5946198.674999999813735 ], [ 44841.375, 5946198.525000000372529 ], [ 44841.30000000000291, 5946198.525000000372529 ], [ 44841.30000000000291, 5946198.375 ], [ 44841.224999999998545, 5946198.375 ], [ 44841.224999999998545, 5946198.224999999627471 ], [ 44841.150000000001455, 5946198.224999999627471 ], [ 44841.150000000001455, 5946198.150000000372529 ], [ 44841.07499999999709, 5946198.150000000372529 ], [ 44841.07499999999709, 5946198.0 ], [ 44841.0, 5946198.0 ], [ 44841.0, 5946197.849999999627471 ], [ 44840.92500000000291, 5946197.849999999627471 ], [ 44840.92500000000291, 5946197.775000000372529 ], [ 44840.849999999998545, 5946197.775000000372529 ], [ 44840.849999999998545, 5946197.625 ], [ 44840.775000000001455, 5946197.625 ], [ 44840.775000000001455, 5946197.474999999627471 ], [ 44840.69999999999709, 5946197.474999999627471 ], [ 44840.69999999999709, 5946197.400000000372529 ], [ 44840.625, 5946197.400000000372529 ], [ 44840.625, 5946197.325000000186265 ], [ 44840.55000000000291, 5946197.325000000186265 ], [ 44840.55000000000291, 5946197.174999999813735 ], [ 44840.474999999998545, 5946197.174999999813735 ], [ 44840.474999999998545, 5946197.099999999627471 ], [ 44840.400000000001455, 5946197.099999999627471 ], [ 44840.400000000001455, 5946197.025000000372529 ], [ 44840.32499999999709, 5946197.025000000372529 ], [ 44840.32499999999709, 5946196.950000000186265 ], [ 44840.25, 5946196.950000000186265 ], [ 44840.25, 5946196.875 ], [ 44840.17500000000291, 5946196.875 ], [ 44840.17500000000291, 5946196.799999999813735 ], [ 44840.099999999998545, 5946196.799999999813735 ], [ 44840.099999999998545, 5946196.724999999627471 ], [ 44840.025000000001455, 5946196.724999999627471 ], [ 44840.025000000001455, 5946196.650000000372529 ], [ 44839.94999999999709, 5946196.650000000372529 ], [ 44839.94999999999709, 5946196.5 ], [ 44839.875, 5946196.5 ], [ 44839.875, 5946196.424999999813735 ], [ 44839.80000000000291, 5946196.424999999813735 ], [ 44839.80000000000291, 5946196.349999999627471 ], [ 44839.724999999998545, 5946196.349999999627471 ], [ 44839.724999999998545, 5946196.200000000186265 ], [ 44839.650000000001455, 5946196.200000000186265 ], [ 44839.650000000001455, 5946196.049999999813735 ], [ 44839.57499999999709, 5946196.049999999813735 ], [ 44839.57499999999709, 5946195.900000000372529 ], [ 44839.5, 5946195.900000000372529 ], [ 44839.5, 5946195.75 ], [ 44839.42500000000291, 5946195.75 ], [ 44839.42500000000291, 5946195.599999999627471 ], [ 44839.349999999998545, 5946195.599999999627471 ], [ 44839.349999999998545, 5946195.450000000186265 ], [ 44839.275000000001455, 5946195.450000000186265 ], [ 44839.275000000001455, 5946195.224999999627471 ], [ 44839.19999999999709, 5946195.224999999627471 ], [ 44839.19999999999709, 5946195.075000000186265 ], [ 44839.125, 5946195.075000000186265 ], [ 44839.125, 5946194.924999999813735 ], [ 44839.05000000000291, 5946194.924999999813735 ], [ 44839.05000000000291, 5946194.849999999627471 ], [ 44838.974999999998545, 5946194.849999999627471 ], [ 44838.974999999998545, 5946194.700000000186265 ], [ 44838.900000000001455, 5946194.700000000186265 ], [ 44838.900000000001455, 5946194.625 ], [ 44838.82499999999709, 5946194.625 ], [ 44838.82499999999709, 5946194.549999999813735 ], [ 44838.75, 5946194.549999999813735 ], [ 44838.75, 5946194.474999999627471 ], [ 44838.67500000000291, 5946194.474999999627471 ], [ 44838.67500000000291, 5946194.400000000372529 ], [ 44838.599999999998545, 5946194.400000000372529 ], [ 44838.599999999998545, 5946194.325000000186265 ], [ 44838.525000000001455, 5946194.325000000186265 ], [ 44838.525000000001455, 5946194.25 ], [ 44838.44999999999709, 5946194.25 ], [ 44838.44999999999709, 5946194.174999999813735 ], [ 44838.375, 5946194.174999999813735 ], [ 44838.375, 5946194.099999999627471 ], [ 44838.224999999998545, 5946194.099999999627471 ], [ 44838.224999999998545, 5946194.025000000372529 ], [ 44838.150000000001455, 5946194.025000000372529 ], [ 44838.150000000001455, 5946193.950000000186265 ], [ 44838.07499999999709, 5946193.950000000186265 ], [ 44838.07499999999709, 5946193.875 ], [ 44838.0, 5946193.875 ], [ 44838.0, 5946193.799999999813735 ], [ 44837.92500000000291, 5946193.799999999813735 ], [ 44837.92500000000291, 5946193.724999999627471 ], [ 44837.849999999998545, 5946193.724999999627471 ], [ 44837.849999999998545, 5946193.650000000372529 ], [ 44837.775000000001455, 5946193.650000000372529 ], [ 44837.775000000001455, 5946193.575000000186265 ], [ 44837.69999999999709, 5946193.575000000186265 ], [ 44837.69999999999709, 5946193.424999999813735 ], [ 44837.625, 5946193.424999999813735 ], [ 44837.625, 5946193.275000000372529 ], [ 44837.55000000000291, 5946193.275000000372529 ], [ 44837.55000000000291, 5946192.75 ], [ 44837.625, 5946192.75 ], [ 44837.625, 5946191.625 ], [ 44837.69999999999709, 5946191.625 ], [ 44837.69999999999709, 5946191.25 ], [ 44837.775000000001455, 5946191.25 ], [ 44837.775000000001455, 5946191.099999999627471 ], [ 44837.849999999998545, 5946191.099999999627471 ], [ 44837.849999999998545, 5946191.025000000372529 ], [ 44837.92500000000291, 5946191.025000000372529 ], [ 44837.92500000000291, 5946190.950000000186265 ], [ 44838.0, 5946190.950000000186265 ], [ 44838.0, 5946190.875 ], [ 44838.07499999999709, 5946190.875 ], [ 44838.07499999999709, 5946190.799999999813735 ], [ 44838.150000000001455, 5946190.799999999813735 ], [ 44838.150000000001455, 5946190.724999999627471 ], [ 44838.30000000000291, 5946190.724999999627471 ], [ 44838.30000000000291, 5946190.650000000372529 ], [ 44838.44999999999709, 5946190.650000000372529 ], [ 44838.44999999999709, 5946190.575000000186265 ], [ 44838.599999999998545, 5946190.575000000186265 ], [ 44838.599999999998545, 5946190.5 ], [ 44838.67500000000291, 5946190.5 ], [ 44838.67500000000291, 5946190.424999999813735 ], [ 44838.82499999999709, 5946190.424999999813735 ], [ 44838.82499999999709, 5946190.349999999627471 ], [ 44838.900000000001455, 5946190.349999999627471 ], [ 44838.900000000001455, 5946190.275000000372529 ], [ 44839.05000000000291, 5946190.275000000372529 ], [ 44839.05000000000291, 5946190.200000000186265 ], [ 44839.125, 5946190.200000000186265 ], [ 44839.125, 5946190.125 ], [ 44839.275000000001455, 5946190.125 ], [ 44839.275000000001455, 5946190.049999999813735 ], [ 44839.349999999998545, 5946190.049999999813735 ], [ 44839.349999999998545, 5946189.974999999627471 ], [ 44839.42500000000291, 5946189.974999999627471 ], [ 44839.42500000000291, 5946189.900000000372529 ], [ 44839.5, 5946189.900000000372529 ], [ 44839.5, 5946189.825000000186265 ], [ 44839.57499999999709, 5946189.825000000186265 ], [ 44839.57499999999709, 5946189.75 ], [ 44839.650000000001455, 5946189.75 ], [ 44839.650000000001455, 5946189.674999999813735 ], [ 44839.724999999998545, 5946189.674999999813735 ], [ 44839.724999999998545, 5946189.599999999627471 ], [ 44839.80000000000291, 5946189.599999999627471 ], [ 44839.80000000000291, 5946189.525000000372529 ], [ 44839.875, 5946189.525000000372529 ], [ 44839.875, 5946189.450000000186265 ], [ 44839.94999999999709, 5946189.450000000186265 ], [ 44839.94999999999709, 5946189.375 ], [ 44840.025000000001455, 5946189.375 ], [ 44840.025000000001455, 5946189.299999999813735 ], [ 44840.099999999998545, 5946189.299999999813735 ], [ 44840.099999999998545, 5946189.224999999627471 ], [ 44840.17500000000291, 5946189.224999999627471 ], [ 44840.17500000000291, 5946189.150000000372529 ], [ 44840.25, 5946189.150000000372529 ], [ 44840.25, 5946189.075000000186265 ], [ 44840.400000000001455, 5946189.075000000186265 ], [ 44840.400000000001455, 5946189.0 ], [ 44840.474999999998545, 5946189.0 ], [ 44840.474999999998545, 5946188.924999999813735 ], [ 44840.625, 5946188.924999999813735 ], [ 44840.625, 5946188.849999999627471 ], [ 44840.69999999999709, 5946188.849999999627471 ], [ 44840.69999999999709, 5946188.775000000372529 ], [ 44840.849999999998545, 5946188.775000000372529 ], [ 44840.849999999998545, 5946188.700000000186265 ], [ 44841.0, 5946188.700000000186265 ], [ 44841.0, 5946188.625 ], [ 44841.150000000001455, 5946188.625 ], [ 44841.150000000001455, 5946188.549999999813735 ], [ 44841.30000000000291, 5946188.549999999813735 ], [ 44841.30000000000291, 5946188.474999999627471 ], [ 44841.44999999999709, 5946188.474999999627471 ], [ 44841.44999999999709, 5946188.400000000372529 ], [ 44841.599999999998545, 5946188.400000000372529 ], [ 44841.599999999998545, 5946188.325000000186265 ], [ 44841.82499999999709, 5946188.325000000186265 ], [ 44841.82499999999709, 5946188.25 ], [ 44841.974999999998545, 5946188.25 ], [ 44841.974999999998545, 5946188.174999999813735 ], [ 44842.349999999998545, 5946188.174999999813735 ], [ 44842.349999999998545, 5946188.099999999627471 ], [ 44843.775000000001455, 5946188.099999999627471 ], [ 44843.775000000001455, 5946188.025000000372529 ], [ 44844.224999999998545, 5946188.025000000372529 ], [ 44844.224999999998545, 5946188.099999999627471 ], [ 44844.599999999998545, 5946188.099999999627471 ], [ 44844.599999999998545, 5946188.174999999813735 ], [ 44845.05000000000291, 5946188.174999999813735 ], [ 44845.05000000000291, 5946188.25 ], [ 44845.42500000000291, 5946188.25 ], [ 44845.42500000000291, 5946188.325000000186265 ], [ 44845.80000000000291, 5946188.325000000186265 ], [ 44845.80000000000291, 5946188.400000000372529 ], [ 44846.17500000000291, 5946188.400000000372529 ], [ 44846.17500000000291, 5946188.474999999627471 ], [ 44846.32499999999709, 5946188.474999999627471 ], [ 44846.32499999999709, 5946188.549999999813735 ], [ 44846.474999999998545, 5946188.549999999813735 ], [ 44846.474999999998545, 5946188.625 ], [ 44846.625, 5946188.625 ], [ 44846.625, 5946188.700000000186265 ], [ 44846.69999999999709, 5946188.700000000186265 ], [ 44846.69999999999709, 5946188.775000000372529 ], [ 44846.849999999998545, 5946188.775000000372529 ], [ 44846.849999999998545, 5946188.849999999627471 ], [ 44846.92500000000291, 5946188.849999999627471 ], [ 44846.92500000000291, 5946188.924999999813735 ], [ 44847.07499999999709, 5946188.924999999813735 ], [ 44847.07499999999709, 5946189.0 ], [ 44847.150000000001455, 5946189.0 ], [ 44847.150000000001455, 5946189.075000000186265 ], [ 44847.224999999998545, 5946189.075000000186265 ], [ 44847.224999999998545, 5946189.150000000372529 ], [ 44847.30000000000291, 5946189.150000000372529 ], [ 44847.30000000000291, 5946189.224999999627471 ], [ 44847.375, 5946189.224999999627471 ], [ 44847.375, 5946189.299999999813735 ], [ 44847.44999999999709, 5946189.299999999813735 ], [ 44847.44999999999709, 5946189.375 ], [ 44847.525000000001455, 5946189.375 ], [ 44847.525000000001455, 5946189.525000000372529 ], [ 44847.599999999998545, 5946189.525000000372529 ], [ 44847.599999999998545, 5946189.599999999627471 ], [ 44847.67500000000291, 5946189.599999999627471 ], [ 44847.67500000000291, 5946189.674999999813735 ], [ 44847.75, 5946189.674999999813735 ], [ 44847.75, 5946189.75 ], [ 44847.82499999999709, 5946189.75 ], [ 44847.82499999999709, 5946189.825000000186265 ], [ 44847.900000000001455, 5946189.825000000186265 ], [ 44847.900000000001455, 5946189.900000000372529 ], [ 44847.974999999998545, 5946189.900000000372529 ], [ 44847.974999999998545, 5946189.974999999627471 ], [ 44848.05000000000291, 5946189.974999999627471 ], [ 44848.05000000000291, 5946190.049999999813735 ], [ 44848.125, 5946190.049999999813735 ], [ 44848.125, 5946190.125 ], [ 44848.275000000001455, 5946190.125 ], [ 44848.275000000001455, 5946190.200000000186265 ], [ 44848.349999999998545, 5946190.200000000186265 ], [ 44848.349999999998545, 5946190.275000000372529 ], [ 44848.42500000000291, 5946190.275000000372529 ], [ 44848.42500000000291, 5946190.349999999627471 ], [ 44848.5, 5946190.349999999627471 ], [ 44848.5, 5946190.424999999813735 ], [ 44848.650000000001455, 5946190.424999999813735 ], [ 44848.650000000001455, 5946190.5 ], [ 44848.724999999998545, 5946190.5 ], [ 44848.724999999998545, 5946190.575000000186265 ], [ 44848.80000000000291, 5946190.575000000186265 ], [ 44848.80000000000291, 5946190.650000000372529 ], [ 44848.94999999999709, 5946190.650000000372529 ], [ 44848.94999999999709, 5946190.724999999627471 ], [ 44849.025000000001455, 5946190.724999999627471 ], [ 44849.025000000001455, 5946190.799999999813735 ], [ 44849.099999999998545, 5946190.799999999813735 ], [ 44849.099999999998545, 5946190.875 ], [ 44849.25, 5946190.875 ], [ 44849.25, 5946190.950000000186265 ], [ 44849.32499999999709, 5946190.950000000186265 ], [ 44849.32499999999709, 5946191.025000000372529 ], [ 44849.400000000001455, 5946191.025000000372529 ], [ 44849.400000000001455, 5946191.099999999627471 ], [ 44849.55000000000291, 5946191.099999999627471 ], [ 44849.55000000000291, 5946191.174999999813735 ], [ 44849.625, 5946191.174999999813735 ], [ 44849.625, 5946191.25 ], [ 44849.69999999999709, 5946191.25 ], [ 44849.69999999999709, 5946191.325000000186265 ], [ 44849.775000000001455, 5946191.325000000186265 ], [ 44849.775000000001455, 5946191.400000000372529 ], [ 44849.849999999998545, 5946191.400000000372529 ], [ 44849.849999999998545, 5946191.474999999627471 ], [ 44849.92500000000291, 5946191.474999999627471 ], [ 44849.92500000000291, 5946191.549999999813735 ], [ 44850.0, 5946191.549999999813735 ], [ 44850.0, 5946191.625 ], [ 44850.07499999999709, 5946191.625 ], [ 44850.07499999999709, 5946191.775000000372529 ], [ 44850.150000000001455, 5946191.775000000372529 ], [ 44850.150000000001455, 5946191.924999999813735 ], [ 44850.224999999998545, 5946191.924999999813735 ], [ 44850.224999999998545, 5946192.075000000186265 ], [ 44850.30000000000291, 5946192.075000000186265 ], [ 44850.30000000000291, 5946192.150000000372529 ], [ 44850.375, 5946192.150000000372529 ], [ 44850.375, 5946192.299999999813735 ], [ 44850.44999999999709, 5946192.299999999813735 ], [ 44850.44999999999709, 5946192.450000000186265 ], [ 44850.525000000001455, 5946192.450000000186265 ], [ 44850.525000000001455, 5946192.599999999627471 ], [ 44850.599999999998545, 5946192.599999999627471 ], [ 44850.599999999998545, 5946192.75 ], [ 44850.67500000000291, 5946192.75 ], [ 44850.67500000000291, 5946192.825000000186265 ], [ 44850.75, 5946192.825000000186265 ], [ 44850.75, 5946192.974999999627471 ], [ 44850.82499999999709, 5946192.974999999627471 ], [ 44850.82499999999709, 5946193.125 ], [ 44850.900000000001455, 5946193.125 ], [ 44850.900000000001455, 5946193.275000000372529 ], [ 44850.974999999998545, 5946193.275000000372529 ], [ 44850.974999999998545, 5946193.349999999627471 ], [ 44851.05000000000291, 5946193.349999999627471 ], [ 44851.05000000000291, 5946193.424999999813735 ], [ 44851.125, 5946193.424999999813735 ], [ 44851.125, 5946193.5 ], [ 44851.19999999999709, 5946193.5 ], [ 44851.19999999999709, 5946193.575000000186265 ], [ 44851.349999999998545, 5946193.575000000186265 ], [ 44851.349999999998545, 5946193.650000000372529 ], [ 44851.42500000000291, 5946193.650000000372529 ], [ 44851.42500000000291, 5946193.724999999627471 ], [ 44851.57499999999709, 5946193.724999999627471 ], [ 44851.57499999999709, 5946193.799999999813735 ], [ 44851.650000000001455, 5946193.799999999813735 ], [ 44851.650000000001455, 5946193.875 ], [ 44851.80000000000291, 5946193.875 ], [ 44851.80000000000291, 5946193.950000000186265 ], [ 44851.94999999999709, 5946193.950000000186265 ], [ 44851.94999999999709, 5946194.025000000372529 ], [ 44852.099999999998545, 5946194.025000000372529 ], [ 44852.099999999998545, 5946194.099999999627471 ], [ 44852.17500000000291, 5946194.099999999627471 ], [ 44852.17500000000291, 5946194.174999999813735 ], [ 44852.25, 5946194.174999999813735 ], [ 44852.25, 5946194.25 ], [ 44852.400000000001455, 5946194.25 ], [ 44852.400000000001455, 5946194.325000000186265 ], [ 44852.474999999998545, 5946194.325000000186265 ], [ 44852.474999999998545, 5946194.400000000372529 ], [ 44852.55000000000291, 5946194.400000000372529 ], [ 44852.55000000000291, 5946194.474999999627471 ], [ 44852.625, 5946194.474999999627471 ], [ 44852.625, 5946194.549999999813735 ], [ 44852.69999999999709, 5946194.549999999813735 ], [ 44852.69999999999709, 5946194.625 ], [ 44852.775000000001455, 5946194.625 ], [ 44852.775000000001455, 5946194.775000000372529 ], [ 44852.849999999998545, 5946194.775000000372529 ], [ 44852.849999999998545, 5946194.849999999627471 ], [ 44852.92500000000291, 5946194.849999999627471 ], [ 44852.92500000000291, 5946194.924999999813735 ], [ 44853.0, 5946194.924999999813735 ], [ 44853.0, 5946195.075000000186265 ], [ 44853.07499999999709, 5946195.075000000186265 ], [ 44853.07499999999709, 5946195.224999999627471 ], [ 44853.150000000001455, 5946195.224999999627471 ], [ 44853.150000000001455, 5946195.299999999813735 ], [ 44853.224999999998545, 5946195.299999999813735 ], [ 44853.224999999998545, 5946195.375 ], [ 44853.30000000000291, 5946195.375 ], [ 44853.30000000000291, 5946195.525000000372529 ], [ 44853.375, 5946195.525000000372529 ], [ 44853.375, 5946195.599999999627471 ], [ 44853.44999999999709, 5946195.599999999627471 ], [ 44853.44999999999709, 5946195.674999999813735 ], [ 44853.525000000001455, 5946195.674999999813735 ], [ 44853.525000000001455, 5946195.75 ], [ 44853.67500000000291, 5946195.75 ], [ 44853.67500000000291, 5946195.825000000186265 ], [ 44853.75, 5946195.825000000186265 ], [ 44853.75, 5946195.900000000372529 ], [ 44853.82499999999709, 5946195.900000000372529 ], [ 44853.82499999999709, 5946195.974999999627471 ], [ 44853.974999999998545, 5946195.974999999627471 ], [ 44853.974999999998545, 5946196.049999999813735 ], [ 44854.125, 5946196.049999999813735 ], [ 44854.125, 5946196.125 ], [ 44854.19999999999709, 5946196.125 ], [ 44854.19999999999709, 5946196.200000000186265 ], [ 44854.349999999998545, 5946196.200000000186265 ], [ 44854.349999999998545, 5946196.275000000372529 ], [ 44854.42500000000291, 5946196.275000000372529 ], [ 44854.42500000000291, 5946196.349999999627471 ], [ 44854.5, 5946196.349999999627471 ], [ 44854.5, 5946196.424999999813735 ], [ 44854.57499999999709, 5946196.424999999813735 ], [ 44854.57499999999709, 5946196.5 ], [ 44854.650000000001455, 5946196.5 ], [ 44854.650000000001455, 5946196.575000000186265 ], [ 44854.724999999998545, 5946196.575000000186265 ], [ 44854.724999999998545, 5946196.650000000372529 ], [ 44854.80000000000291, 5946196.650000000372529 ], [ 44854.80000000000291, 5946196.724999999627471 ], [ 44854.875, 5946196.724999999627471 ], [ 44854.875, 5946196.799999999813735 ], [ 44854.94999999999709, 5946196.799999999813735 ], [ 44854.94999999999709, 5946196.875 ], [ 44855.025000000001455, 5946196.875 ], [ 44855.025000000001455, 5946197.025000000372529 ], [ 44855.099999999998545, 5946197.025000000372529 ], [ 44855.099999999998545, 5946197.099999999627471 ], [ 44855.17500000000291, 5946197.099999999627471 ], [ 44855.17500000000291, 5946197.25 ], [ 44855.25, 5946197.25 ], [ 44855.25, 5946197.325000000186265 ], [ 44855.32499999999709, 5946197.325000000186265 ], [ 44855.32499999999709, 5946197.474999999627471 ], [ 44855.400000000001455, 5946197.474999999627471 ], [ 44855.400000000001455, 5946197.549999999813735 ], [ 44855.474999999998545, 5946197.549999999813735 ], [ 44855.474999999998545, 5946197.625 ], [ 44855.55000000000291, 5946197.625 ], [ 44855.55000000000291, 5946197.700000000186265 ], [ 44855.69999999999709, 5946197.700000000186265 ], [ 44855.69999999999709, 5946197.775000000372529 ], [ 44855.775000000001455, 5946197.775000000372529 ], [ 44855.775000000001455, 5946197.849999999627471 ], [ 44855.849999999998545, 5946197.849999999627471 ], [ 44855.849999999998545, 5946197.924999999813735 ], [ 44856.0, 5946197.924999999813735 ], [ 44856.0, 5946198.0 ], [ 44856.150000000001455, 5946198.0 ], [ 44856.150000000001455, 5946198.075000000186265 ], [ 44856.30000000000291, 5946198.075000000186265 ], [ 44856.30000000000291, 5946198.150000000372529 ], [ 44856.375, 5946198.150000000372529 ], [ 44856.375, 5946198.224999999627471 ], [ 44856.525000000001455, 5946198.224999999627471 ], [ 44856.525000000001455, 5946198.299999999813735 ], [ 44856.599999999998545, 5946198.299999999813735 ], [ 44856.599999999998545, 5946198.375 ], [ 44856.67500000000291, 5946198.375 ], [ 44856.67500000000291, 5946198.450000000186265 ], [ 44856.82499999999709, 5946198.450000000186265 ], [ 44856.82499999999709, 5946198.525000000372529 ], [ 44856.900000000001455, 5946198.525000000372529 ], [ 44856.900000000001455, 5946198.599999999627471 ], [ 44856.974999999998545, 5946198.599999999627471 ], [ 44856.974999999998545, 5946198.674999999813735 ], [ 44857.05000000000291, 5946198.674999999813735 ], [ 44857.05000000000291, 5946198.75 ], [ 44857.125, 5946198.75 ], [ 44857.125, 5946198.825000000186265 ], [ 44857.19999999999709, 5946198.825000000186265 ], [ 44857.19999999999709, 5946198.900000000372529 ], [ 44857.275000000001455, 5946198.900000000372529 ], [ 44857.275000000001455, 5946198.974999999627471 ], [ 44857.349999999998545, 5946198.974999999627471 ], [ 44857.349999999998545, 5946199.049999999813735 ], [ 44857.42500000000291, 5946199.049999999813735 ], [ 44857.42500000000291, 5946199.200000000186265 ], [ 44857.5, 5946199.200000000186265 ], [ 44857.5, 5946199.349999999627471 ], [ 44857.57499999999709, 5946199.349999999627471 ], [ 44857.57499999999709, 5946199.5 ], [ 44857.650000000001455, 5946199.5 ], [ 44857.650000000001455, 5946199.650000000372529 ], [ 44857.724999999998545, 5946199.650000000372529 ], [ 44857.724999999998545, 5946199.799999999813735 ], [ 44857.80000000000291, 5946199.799999999813735 ], [ 44857.80000000000291, 5946199.875 ], [ 44857.875, 5946199.875 ], [ 44857.875, 5946200.025000000372529 ], [ 44857.94999999999709, 5946200.025000000372529 ], [ 44857.94999999999709, 5946200.174999999813735 ], [ 44858.025000000001455, 5946200.174999999813735 ], [ 44858.025000000001455, 5946200.325000000186265 ], [ 44858.099999999998545, 5946200.325000000186265 ], [ 44858.099999999998545, 5946200.474999999627471 ], [ 44858.17500000000291, 5946200.474999999627471 ], [ 44858.17500000000291, 5946200.625 ], [ 44858.25, 5946200.625 ], [ 44858.25, 5946200.849999999627471 ], [ 44858.32499999999709, 5946200.849999999627471 ], [ 44858.32499999999709, 5946201.0 ], [ 44858.400000000001455, 5946201.0 ], [ 44858.400000000001455, 5946201.224999999627471 ], [ 44858.474999999998545, 5946201.224999999627471 ], [ 44858.474999999998545, 5946201.450000000186265 ], [ 44858.55000000000291, 5946201.450000000186265 ], [ 44858.55000000000291, 5946201.599999999627471 ], [ 44858.625, 5946201.599999999627471 ], [ 44858.625, 5946201.75 ], [ 44858.69999999999709, 5946201.75 ], [ 44858.69999999999709, 5946201.900000000372529 ], [ 44858.775000000001455, 5946201.900000000372529 ], [ 44858.775000000001455, 5946202.049999999813735 ], [ 44858.849999999998545, 5946202.049999999813735 ], [ 44858.849999999998545, 5946202.125 ], [ 44858.92500000000291, 5946202.125 ], [ 44858.92500000000291, 5946202.275000000372529 ], [ 44859.0, 5946202.275000000372529 ], [ 44859.0, 5946202.349999999627471 ], [ 44859.07499999999709, 5946202.349999999627471 ], [ 44859.07499999999709, 5946202.424999999813735 ], [ 44859.150000000001455, 5946202.424999999813735 ], [ 44859.150000000001455, 5946202.5 ], [ 44859.224999999998545, 5946202.5 ], [ 44859.224999999998545, 5946202.575000000186265 ], [ 44859.30000000000291, 5946202.575000000186265 ], [ 44859.30000000000291, 5946202.650000000372529 ], [ 44859.375, 5946202.650000000372529 ], [ 44859.375, 5946202.724999999627471 ], [ 44859.44999999999709, 5946202.724999999627471 ], [ 44859.44999999999709, 5946202.799999999813735 ], [ 44859.525000000001455, 5946202.799999999813735 ], [ 44859.525000000001455, 5946202.875 ], [ 44859.67500000000291, 5946202.875 ], [ 44859.67500000000291, 5946202.950000000186265 ], [ 44859.75, 5946202.950000000186265 ], [ 44859.75, 5946203.025000000372529 ], [ 44859.82499999999709, 5946203.025000000372529 ], [ 44859.82499999999709, 5946203.325000000186265 ], [ 44859.900000000001455, 5946203.325000000186265 ], [ 44859.900000000001455, 5946203.775000000372529 ], [ 44859.974999999998545, 5946203.775000000372529 ], [ 44859.974999999998545, 5946204.150000000372529 ], [ 44860.05000000000291, 5946204.150000000372529 ], [ 44860.05000000000291, 5946204.599999999627471 ], [ 44860.125, 5946204.599999999627471 ], [ 44860.125, 5946205.125 ], [ 44860.19999999999709, 5946205.125 ], [ 44860.19999999999709, 5946205.5 ], [ 44860.275000000001455, 5946205.5 ], [ 44860.275000000001455, 5946206.025000000372529 ], [ 44860.349999999998545, 5946206.025000000372529 ], [ 44860.349999999998545, 5946206.549999999813735 ], [ 44860.42500000000291, 5946206.549999999813735 ], [ 44860.42500000000291, 5946207.674999999813735 ], [ 44860.349999999998545, 5946207.674999999813735 ], [ 44860.349999999998545, 5946208.575000000186265 ], [ 44860.275000000001455, 5946208.575000000186265 ], [ 44860.275000000001455, 5946208.950000000186265 ], [ 44860.19999999999709, 5946208.950000000186265 ], [ 44860.19999999999709, 5946209.025000000372529 ], [ 44860.125, 5946209.025000000372529 ], [ 44860.125, 5946209.099999999627471 ], [ 44860.05000000000291, 5946209.099999999627471 ], [ 44860.05000000000291, 5946209.174999999813735 ], [ 44859.974999999998545, 5946209.174999999813735 ], [ 44859.974999999998545, 5946209.25 ], [ 44859.900000000001455, 5946209.25 ], [ 44859.900000000001455, 5946209.325000000186265 ], [ 44859.82499999999709, 5946209.325000000186265 ], [ 44859.82499999999709, 5946209.400000000372529 ], [ 44859.599999999998545, 5946209.400000000372529 ], [ 44859.599999999998545, 5946209.474999999627471 ], [ 44859.150000000001455, 5946209.474999999627471 ], [ 44859.150000000001455, 5946209.549999999813735 ], [ 44858.69999999999709, 5946209.549999999813735 ], [ 44858.69999999999709, 5946209.625 ], [ 44858.25, 5946209.625 ], [ 44858.25, 5946209.700000000186265 ], [ 44856.75, 5946209.700000000186265 ] ] ] } }
]
}
