{
"type": "FeatureCollection",
"name": "45183E594357N_buildings",
"crs": { "type": "name", "properties": { "name": "urn:ogc:def:crs:EPSG::3776" } },
"features": [
{ "type": "Feature", "properties": { "value": 1.0, "building_id": 0, "area": 148.95562499904034 }, "geometry": { "type": "Polygon", "coordinates": [ [ [ 45717.150000000001455, 5944155.75 ], [ 45717.150000000001455, 5944155.674999999813735 ], [ 45716.099999999998545, 5944155.674999999813735 ], [ 45716.099999999998545, 5944155.599999999627471 ], [ 45715.5, 5944155.599999999627471 ], [ 45715.5, 5944155.525000000372529 ], [ 45715.125, 5944155.525000000372529 ], [ 45715.125, 5944155.450000000186265 ], [ 45714.900000000001455, 5944155.450000000186265 ], [ 45714.900000000001455, 5944155.375 ], [ 45714.75, 5944155.375 ], [ 45714.75, 5944155.299999999813735 ], [ 45714.599999999998545, 5944155.299999999813735 ], [ 45714.599999999998545, 5944155.224999999627471 ], [ 45714.44999999999709, 5944155.224999999627471 ], [ 45714.44999999999709, 5944155.150000000372529 ], [ 45714.375, 5944155.150000000372529 ], [ 45714.375, 5944155.075000000186265 ], [ 45714.224999999998545, 5944155.075000000186265 ], [ 45714.224999999998545, 5944155.0 ], [ 45714.150000000001455, 5944155.0 ], [ 45714.150000000001455, 5944154.924999999813735 ], [ 45714.07499999999709, 5944154.924999999813735 ], [ 45714.07499999999709, 5944154.849999999627471 ], [ 45714.0, 5944154.849999999627471 ], [ 45714.0, 5944154.775000000372529 ], [ 45713.92500000000291, 5944154.775000000372529 ], [ 45713.92500000000291, 5944154.700000000186265 ], [ 45713.849999999998545, 5944154.700000000186265 ], [ 45713.849999999998545, 5944154.625 ], [ 45713.775000000001455, 5944154.625 ], [ 45713.775000000001455, 5944154.474999999627471 ], [ 45713.69999999999709, 5944154.474999999627471 ], [ 45713.69999999999709, 5944154.400000000372529 ], [ 45713.625, 5944154.400000000372529 ], [ 45713.625, 5944154.25 ], [ 45713.55000000000291, 5944154.25 ], [ 45713.55000000000291, 5944154.174999999813735 ], [ 45713.474999999998545, 5944154.174999999813735 ], [ 45713.474999999998545, 5944154.025000000372529 ], [ 45713.400000000001455, 5944154.025000000372529 ], [ 45713.400000000001455, 5944153.950000000186265 ], [ 45713.32499999999709, 5944153.950000000186265 ], [ 45713.32499999999709, 5944153.799999999813735 ], [ 45713.25, 5944153.799999999813735 ], [ 45713.25, 5944153.724999999627471 ], [ 45713.17500000000291, 5944153.724999999627471 ], [ 45713.17500000000291, 5944153.650000000372529 ], [ 45713.099999999998545, 5944153.650000000372529 ], [ 45713.099999999998545, 5944153.575000000186265 ], [ 45713.025000000001455, 5944153.575000000186265 ], [ 45713.025000000001455, 5944153.5 ], [ 45712.94999999999709, 5944153.5 ], [ 45712.94999999999709, 5944153.424999999813735 ], [ 45712.875, 5944153.424999999813735 ], [ 45712.875, 5944153.349999999627471 ], [ 45712.80000000000291, 5944153.349999999627471 ], [ 45712.80000000000291, 5944153.275000000372529 ], [ 45712.724999999998545, 5944153.275000000372529 ], [ 45712.724999999998545, 5944153.200000000186265 ], [ 45712.650000000001455, 5944153.200000000186265 ], [ 45712.650000000001455, 5944153.125 ], [ 45712.57499999999709, 5944153.125 ], [ 45712.57499999999709, 5944153.049999999813735 ], [ 45712.42500000000291, 5944153.049999999813735 ], [ 45712.42500000000291, 5944152.974999999627471 ], [ 45712.349999999998545, 5944152.974999999627471 ], [ 45712.349999999998545, 5944152.900000000372529 ], [ 45712.275000000001455, 5944152.900000000372529 ], [ 45712.275000000001455, 5944152.825000000186265 ], [ 45712.19999999999709, 5944152.825000000186265 ], [ 45712.19999999999709, 5944152.75 ], [ 45712.125, 5944152.75 ], [ 45712.125, 5944152.674999999813735 ], [ 45712.05000000000291, 5944152.674999999813735 ], [ 45712.05000000000291, 5944152.599999999627471 ], [ 45711.974999999998545, 5944152.599999999627471 ], [ 45711.974999999998545, 5944152.525000000372529 ], [ 45711.82499999999709, 5944152.525000000372529 ], [ 45711.82499999999709, 5944152.450000000186265 ], [ 45711.75, 5944152.450000000186265 ], [ 45711.75, 5944152.375 ], [ 45711.67500000000291, 5944152.375 ], [ 45711.67500000000291, 5944152.299999999813735 ], [ 45711.599999999998545, 5944152.299999999813735 ], [ 45711.599999999998545, 5944152.224999999627471 ], [ 45711.67500000000291, 5944152.224999999627471 ], [ 45711.67500000000291, 5944152.150000000372529 ], [ 45711.75, 5944152.150000000372529 ], [ 45711.75, 5944152.075000000186265 ], [ 45711.900000000001455, 5944152.075000000186265 ], [ 45711.900000000001455, 5944152.0 ], [ 45711.974999999998545, 5944152.0 ], [ 45711.974999999998545, 5944151.924999999813735 ], [ 45712.05000000000291, 5944151.924999999813735 ], [ 45712.05000000000291, 5944151.849999999627471 ], [ 45712.19999999999709, 5944151.849999999627471 ], [ 45712.19999999999709, 5944151.775000000372529 ], [ 45712.275000000001455, 5944151.775000000372529 ], [ 45712.275000000001455, 5944151.700000000186265 ], [ 45712.349999999998545, 5944151.700000000186265 ], [ 45712.349999999998545, 5944151.625 ], [ 45712.42500000000291, 5944151.625 ], [ 45712.42500000000291, 5944151.549999999813735 ], [ 45712.5, 5944151.549999999813735 ], [ 45712.5, 5944151.474999999627471 ], [ 45712.57499999999709, 5944151.474999999627471 ], [ 45712.57499999999709, 5944151.400000000372529 ], [ 45712.650000000001455, 5944151.400000000372529 ], [ 45712.650000000001455, 5944151.325000000186265 ], [ 45712.724999999998545, 5944151.325000000186265 ], [ 45712.724999999998545, 5944151.174999999813735 ], [ 45712.80000000000291, 5944151.174999999813735 ], [ 45712.80000000000291, 5944151.099999999627471 ], [ 45712.875, 5944151.099999999627471 ], [ 45712.875, 5944151.025000000372529 ], [ 45712.94999999999709, 5944151.025000000372529 ], [ 45712.94999999999709, 5944150.875 ], [ 45713.025000000001455, 5944150.875 ], [ 45713.025000000001455, 5944150.799999999813735 ], [ 45713.099999999998545, 5944150.799999999813735 ], [ 45713.099999999998545, 5944150.650000000372529 ], [ 45713.17500000000291, 5944150.650000000372529 ], [ 45713.17500000000291, 5944150.5 ], [ 45713.25, 5944150.5 ], [ 45713.25, 5944150.349999999627471 ], [ 45713.32499999999709, 5944150.349999999627471 ], [ 45713.32499999999709, 5944150.275000000372529 ], [ 45713.400000000001455, 5944150.275000000372529 ], [ 45713.400000000001455, 5944150.200000000186265 ], [ 45713.474999999998545, 5944150.200000000186265 ], [ 45713.474999999998545, 5944150.125 ], [ 45713.55000000000291, 5944150.125 ], [ 45713.55000000000291, 5944150.049999999813735 ], [ 45713.625, 5944150.049999999813735 ], [ 45713.625, 5944149.974999999627471 ], [ 45713.69999999999709, 5944149.974999999627471 ], [ 45713.69999999999709, 5944149.900000000372529 ], [ 45713.775000000001455, 5944149.900000000372529 ], [ 45713.775000000001455, 5944149.825000000186265 ], [ 45713.849999999998545, 5944149.825000000186265 ], [ 45713.849999999998545, 5944149.674999999813735 ], [ 45713.92500000000291, 5944149.674999999813735 ], [ 45713.92500000000291, 5944149.599999999627471 ], [ 45714.0, 5944149.599999999627471 ], [ 45714.0, 5944149.450000000186265 ], [ 45714.07499999999709, 5944149.450000000186265 ], [ 45714.07499999999709, 5944149.299999999813735 ], [ 45714.150000000001455, 5944149.299999999813735 ], [ 45714.150000000001455, 5944149.150000000372529 ], [ 45714.224999999998545, 5944149.150000000372529 ], [ 45714.224999999998545, 5944149.0 ], [ 45714.30000000000291, 5944149.0 ], [ 45714.30000000000291, 5944148.775000000372529 ], [ 45714.375, 5944148.775000000372529 ], [ 45714.375, 5944148.549999999813735 ], [ 45714.44999999999709, 5944148.549999999813735 ], [ 45714.44999999999709, 5944148.099999999627471 ], [ 45714.525000000001455, 5944148.099999999627471 ], [ 45714.525000000001455, 5944147.275000000372529 ], [ 45714.599999999998545, 5944147.275000000372529 ], [ 45714.599999999998545, 5944146.375 ], [ 45714.67500000000291, 5944146.375 ], [ 45714.67500000000291, 5944146.224999999627471 ], [ 45714.75, 5944146.224999999627471 ], [ 45714.75, 5944146.150000000372529 ], [ 45714.82499999999709, 5944146.150000000372529 ], [ 45714.82499999999709, 5944146.0 ], [ 45714.900000000001455, 5944146.0 ], [ 45714.900000000001455, 5944145.924999999813735 ], [ 45714.974999999998545, 5944145.924999999813735 ], [ 45714.974999999998545, 5944145.775000000372529 ], [ 45715.05000000000291, 5944145.775000000372529 ], [ 45715.05000000000291, 5944145.700000000186265 ], [ 45715.125, 5944145.700000000186265 ], [ 45715.125, 5944145.625 ], [ 45715.19999999999709, 5944145.625 ], [ 45715.19999999999709, 5944145.549999999813735 ], [ 45715.275000000001455, 5944145.549999999813735 ], [ 45715.275000000001455, 5944145.474999999627471 ], [ 45715.349999999998545, 5944145.474999999627471 ], [ 45715.349999999998545, 5944145.400000000372529 ], [ 45715.42500000000291, 5944145.400000000372529 ], [ 45715.42500000000291, 5944145.325000000186265 ], [ 45715.5, 5944145.325000000186265 ], [ 45715.5, 5944145.25 ], [ 45715.57499999999709, 5944145.25 ], [ 45715.57499999999709, 5944145.099999999627471 ], [ 45715.650000000001455, 5944145.099999999627471 ], [ 45715.650000000001455, 5944145.025000000372529 ], [ 45715.724999999998545, 5944145.025000000372529 ], [ 45715.724999999998545, 5944144.875 ], [ 45715.80000000000291, 5944144.875 ], [ 45715.80000000000291, 5944144.799999999813735 ], [ 45715.875, 5944144.799999999813735 ], [ 45715.875, 5944144.650000000372529 ], [ 45715.94999999999709, 5944144.650000000372529 ], [ 45715.94999999999709, 5944144.424999999813735 ], [ 45716.025000000001455, 5944144.424999999813735 ], [ 45716.025000000001455, 5944144.200000000186265 ], [ 45716.099999999998545, 5944144.200000000186265 ], [ 45716.099999999998545, 5944143.974999999627471 ], [ 45716.17500000000291, 5944143.974999999627471 ], [ 45716.17500000000291, 5944143.825000000186265 ], [ 45716.25, 5944143.825000000186265 ], [ 45716.25, 5944143.674999999813735 ], [ 45716.32499999999709, 5944143.674999999813735 ], [ 45716.32499999999709, 5944143.599999999627471 ], [ 45716.400000000001455, 5944143.599999999627471 ], [ 45716.400000000001455, 5944143.450000000186265 ], [ 45716.474999999998545, 5944143.450000000186265 ], [ 45716.474999999998545, 5944143.375 ], [ 45716.55000000000291, 5944143.375 ], [ 45716.55000000000291, 5944143.299999999813735 ], [ 45716.625, 5944143.299999999813735 ], [ 45716.625, 5944143.224999999627471 ], [ 45716.69999999999709, 5944143.224999999627471 ], [ 45716.69999999999709, 5944143.150000000372529 ], [ 45716.775000000001455, 5944143.150000000372529 ], [ 45716.775000000001455, 5944143.075000000186265 ], [ 45716.92500000000291, 5944143.075000000186265 ], [ 45716.92500000000291, 5944143.0 ], [ 45717.0, 5944143.0 ], [ 45717.0, 5944142.924999999813735 ], [ 45717.150000000001455, 5944142.924999999813735 ], [ 45717.150000000001455, 5944142.849999999627471 ], [ 45718.19999999999709, 5944142.849999999627471 ], [ 45718.19999999999709, 5944142.775000000372529 ], [ 45721.125, 5944142.775000000372529 ], [ 45721.125, 5944142.849999999627471 ], [ 45721.724999999998545, 5944142.849999999627471 ], [ 45721.724999999998545, 5944142.924999999813735 ], [ 45722.25, 5944142.924999999813735 ], [ 45722.25, 5944143.0 ], [ 45722.625, 5944143.0 ], [ 45722.625, 5944143.075000000186265 ], [ 45723.0, 5944143.075000000186265 ], [ 45723.0, 5944143.150000000372529 ], [ 45723.224999999998545, 5944143.150000000372529 ], [ 45723.224999999998545, 5944143.224999999627471 ], [ 45723.375, 5944143.224999999627471 ], [ 45723.375, 5944143.299999999813735 ], [ 45723.525000000001455, 5944143.299999999813735 ], [ 45723.525000000001455, 5944143.375 ], [ 45723.67500000000291, 5944143.375 ], [ 45723.67500000000291, 5944143.450000000186265 ], [ 45723.75, 5944143.450000000186265 ], [ 45723.75, 5944143.525000000372529 ], [ 45723.82499999999709, 5944143.525000000372529 ], [ 45723.82499999999709, 5944143.599999999627471 ], [ 45723.974999999998545, 5944143.599999999627471 ], [ 45723.974999999998545, 5944143.674999999813735 ], [ 45724.05000000000291, 5944143.674999999813735 ], [ 45724.05000000000291, 5944143.75 ], [ 45724.125, 5944143.75 ], [ 45724.125, 5944143.900000000372529 ], [ 45724.19999999999709, 5944143.900000000372529 ], [ 45724.19999999999709, 5944143.974999999627471 ], [ 45724.275000000001455, 5944143.974999999627471 ], [ 45724.275000000001455, 5944144.125 ], [ 45724.349999999998545, 5944144.125 ], [ 45724.349999999998545, 5944144.200000000186265 ], [ 45724.42500000000291, 5944144.200000000186265 ], [ 45724.42500000000291, 5944144.349999999627471 ], [ 45724.5, 5944144.349999999627471 ], [ 45724.5, 5944144.5 ], [ 45724.650000000001455, 5944144.5 ], [ 45724.650000000001455, 5944144.575000000186265 ], [ 45724.724999999998545, 5944144.575000000186265 ], [ 45724.724999999998545, 5944144.650000000372529 ], [ 45724.875, 5944144.650000000372529 ], [ 45724.875, 5944144.724999999627471 ], [ 45725.099999999998545, 5944144.724999999627471 ], [ 45725.099999999998545, 5944144.799999999813735 ], [ 45725.400000000001455, 5944144.799999999813735 ], [ 45725.400000000001455, 5944144.875 ], [ 45725.69999999999709, 5944144.875 ], [ 45725.69999999999709, 5944144.950000000186265 ], [ 45725.849999999998545, 5944144.950000000186265 ], [ 45725.849999999998545, 5944145.025000000372529 ], [ 45726.0, 5944145.025000000372529 ], [ 45726.0, 5944145.099999999627471 ], [ 45726.150000000001455, 5944145.099999999627471 ], [ 45726.150000000001455, 5944145.174999999813735 ], [ 45726.224999999998545, 5944145.174999999813735 ], [ 45726.224999999998545, 5944145.25 ], [ 45726.30000000000291, 5944145.25 ], [ 45726.30000000000291, 5944145.325000000186265 ], [ 45726.375, 5944145.325000000186265 ], [ 45726.375, 5944145.400000000372529 ], [ 45726.44999999999709, 5944145.400000000372529 ], [ 45726.44999999999709, 5944145.474999999627471 ], [ 45726.525000000001455, 5944145.474999999627471 ], [ 45726.525000000001455, 5944145.549999999813735 ], [ 45726.599999999998545, 5944145.549999999813735 ], [ 45726.599999999998545, 5944145.700000000186265 ], [ 45726.67500000000291, 5944145.700000000186265 ], [ 45726.67500000000291, 5944145.849999999627471 ], [ 45726.75, 5944145.849999999627471 ], [ 45726.75, 5944146.075000000186265 ], [ 45726.82499999999709, 5944146.075000000186265 ], [ 45726.82499999999709, 5944146.299999999813735 ], [ 45726.900000000001455, 5944146.299999999813735 ], [ 45726.900000000001455, 5944148.775000000372529 ], [ 45726.82499999999709, 5944148.775000000372529 ], [ 45726.82499999999709, 5944150.049999999813735 ], [ 45726.75, 5944150.049999999813735 ], [ 45726.75, 5944151.099999999627471 ], [ 45726.67500000000291, 5944151.099999999627471 ], [ 45726.67500000000291, 5944152.150000000372529 ], [ 45726.599999999998545, 5944152.150000000372529 ], [ 45726.599999999998545, 5944152.375 ], [ 45726.525000000001455, 5944152.375 ], [ 45726.525000000001455, 5944152.525000000372529 ], [ 45726.44999999999709, 5944152.525000000372529 ], [ 45726.44999999999709, 5944152.674999999813735 ], [ 45726.375, 5944152.674999999813735 ], [ 45726.375, 5944152.75 ], [ 45726.30000000000291, 5944152.75 ], [ 45726.30000000000291, 5944152.900000000372529 ], [ 45726.224999999998545, 5944152.900000000372529 ], [ 45726.224999999998545, 5944152.974999999627471 ], [ 45726.150000000001455, 5944152.974999999627471 ], [ 45726.150000000001455, 5944153.125 ], [ 45726.07499999999709, 5944153.125 ], [ 45726.07499999999709, 5944153.200000000186265 ], [ 45726.0, 5944153.200000000186265 ], [ 45726.0, 5944153.349999999627471 ], [ 45725.92500000000291, 5944153.349999999627471 ], [ 45725.92500000000291, 5944153.424999999813735 ], [ 45725.849999999998545, 5944153.424999999813735 ], [ 45725.849999999998545, 5944153.5 ], [ 45725.775000000001455, 5944153.5 ], [ 45725.775000000001455, 5944153.575000000186265 ], [ 45725.69999999999709, 5944153.575000000186265 ], [ 45725.69999999999709, 5944153.650000000372529 ], [ 45725.625, 5944153.650000000372529 ], [ 45725.625, 5944153.799999999813735 ], [ 45725.55000000000291, 5944153.799999999813735 ], [ 45725.55000000000291, 5944153.875 ], [ 45725.474999999998545, 5944153.875 ], [ 45725.474999999998545, 5944153.950000000186265 ], [ 45725.400000000001455, 5944153.950000000186265 ], [ 45725.400000000001455, 5944154.025000000372529 ], [ 45725.32499999999709, 5944154.025000000372529 ], [ 45725.32499999999709, 5944154.099999999627471 ], [ 45725.25, 5944154.099999999627471 ], [ 45725.25, 5944154.174999999813735 ], [ 45725.099999999998545, 5944154.174999999813735 ], [ 45725.099999999998545, 5944154.25 ], [ 45725.025000000001455, 5944154.25 ], [ 45725.025000000001455, 5944154.325000000186265 ], [ 45724.94999999999709, 5944154.325000000186265 ], [ 45724.94999999999709, 5944154.400000000372529 ], [ 45724.875, 5944154.400000000372529 ], [ 45724.875, 5944154.474999999627471 ], [ 45724.724999999998545, 5944154.474999999627471 ], [ 45724.724999999998545, 5944154.549999999813735 ], [ 45724.650000000001455, 5944154.549999999813735 ], [ 45724.650000000001455, 5944154.625 ], [ 45724.5, 5944154.625 ], [ 45724.5, 5944154.700000000186265 ], [ 45724.349999999998545, 5944154.700000000186265 ], [ 45724.349999999998545, 5944154.775000000372529 ], [ 45724.19999999999709, 5944154.775000000372529 ], [ 45724.19999999999709, 5944154.849999999627471 ], [ 45724.05000000000291, 5944154.849999999627471 ], [ 45724.05000000000291, 5944154.924999999813735 ], [ 45723.900000000001455, 5944154.924999999813735 ], [ 45723.900000000001455, 5944155.0 ], [ 45723.75, 5944155.0 ], [ 45723.75, 5944155.075000000186265 ], [ 45723.525000000001455, 5944155.075000000186265 ], [ 45723.525000000001455, 5944155.150000000372529 ], [ 45723.30000000000291, 5944155.150000000372529 ], [ 45723.30000000000291, 5944155.224999999627471 ], [ 45723.07499999999709, 5944155.224999999627471 ], [ 45723.07499999999709, 5944155.299999999813735 ], [ 45722.474999999998545, 5944155.299999999813735 ], [ 45722.474999999998545, 5944155.375 ], [ 45721.875, 5944155.375 ], [ 45721.875, 5944155.450000000186265 ], [ 45721.275000000001455, 5944155.450000000186265 ], [ 45721.275000000001455, 5944155.525000000372529 ], [ 45720.375, 5944155.525000000372529 ], [ 45720.375, 5944155.599999999627471 ], [ 45719.474999999998545, 5944155.599999999627471 ], [ 45719.474999999998545, 5944155.674999999813735 ], [ 45717.224999999998545, 5944155.674999999813735 ], [ 45717.224999999998545, 5944155.75 ], [ 45717.150000000001455, 5944155.75 ] ] ] } }
]
}
