{
"type": "FeatureCollection",
"name": "45183E594657N_buildings",
"crs": { "type": "name", "properties": { "name": "urn:ogc:def:crs:EPSG::3776" } },
"features": [
{ "type": "Feature", "properties": { "value": 1.0, "building_id": 0, "area": 18.275624999776696 }, "geometry": { "type": "Polygon", "coordinates": [ [ [ 45797.099999999998545, 5947274.25 ], [ 45797.099999999998545, 5947274.174999999813735 ], [ 45797.025000000001455, 5947274.174999999813735 ], [ 45797.025000000001455, 5947274.099999999627471 ], [ 45796.875, 5947274.099999999627471 ], [ 45796.875, 5947274.025000000372529 ], [ 45796.80000000000291, 5947274.025000000372529 ], [ 45796.80000000000291, 5947273.950000000186265 ], [ 45796.650000000001455, 5947273.950000000186265 ], [ 45796.650000000001455, 5947273.875 ], [ 45796.57499999999709, 5947273.875 ], [ 45796.57499999999709, 5947273.799999999813735 ], [ 45796.5, 5947273.799999999813735 ], [ 45796.5, 5947273.724999999627471 ], [ 45796.42500000000291, 5947273.724999999627471 ], [ 45796.42500000000291, 5947273.650000000372529 ], [ 45796.275000000001455, 5947273.650000000372529 ], [ 45796.275000000001455, 5947273.575000000186265 ], [ 45796.19999999999709, 5947273.575000000186265 ], [ 45796.19999999999709, 5947273.5 ], [ 45796.125, 5947273.5 ], [ 45796.125, 5947273.424999999813735 ], [ 45796.05000000000291, 5947273.424999999813735 ], [ 45796.05000000000291, 5947273.349999999627471 ], [ 45795.974999999998545, 5947273.349999999627471 ], [ 45795.974999999998545, 5947273.275000000372529 ], [ 45795.900000000001455, 5947273.275000000372529 ], [ 45795.900000000001455, 5947273.200000000186265 ], [ 45795.82499999999709, 5947273.200000000186265 ], [ 45795.82499999999709, 5947273.125 ], [ 45795.75, 5947273.125 ], [ 45795.75, 5947273.049999999813735 ], [ 45795.67500000000291, 5947273.049999999813735 ], [ 45795.67500000000291, 5947272.974999999627471 ], [ 45795.599999999998545, 5947272.974999999627471 ], [ 45795.599999999998545, 5947272.900000000372529 ], [ 45795.525000000001455, 5947272.900000000372529 ], [ 45795.525000000001455, 5947272.825000000186265 ], [ 45795.44999999999709, 5947272.825000000186265 ], [ 45795.44999999999709, 5947272.75 ], [ 45795.375, 5947272.75 ], [ 45795.375, 5947272.674999999813735 ], [ 45795.30000000000291, 5947272.674999999813735 ], [ 45795.30000000000291, 5947272.599999999627471 ], [ 45795.224999999998545, 5947272.599999999627471 ], [ 45795.224999999998545, 5947272.450000000186265 ], [ 45795.150000000001455, 5947272.450000000186265 ], [ 45795.150000000001455, 5947272.224999999627471 ], [ 45795.07499999999709, 5947272.224999999627471 ], [ 45795.07499999999709, 5947272.0 ], [ 45795.0, 5947272.0 ], [ 45795.0, 5947271.849999999627471 ], [ 45794.92500000000291, 5947271.849999999627471 ], [ 45794.92500000000291, 5947271.625 ], [ 45794.849999999998545, 5947271.625 ], [ 45794.849999999998545, 5947270.875 ], [ 45794.92500000000291, 5947270.875 ], [ 45794.92500000000291, 5947270.349999999627471 ], [ 45795.0, 5947270.349999999627471 ], [ 45795.0, 5947269.900000000372529 ], [ 45795.07499999999709, 5947269.900000000372529 ], [ 45795.07499999999709, 5947269.450000000186265 ], [ 45795.150000000001455, 5947269.450000000186265 ], [ 45795.150000000001455, 5947269.299999999813735 ], [ 45795.224999999998545, 5947269.299999999813735 ], [ 45795.224999999998545, 5947269.224999999627471 ], [ 45795.30000000000291, 5947269.224999999627471 ], [ 45795.30000000000291, 5947269.150000000372529 ], [ 45795.375, 5947269.150000000372529 ], [ 45795.375, 5947269.075000000186265 ], [ 45795.44999999999709, 5947269.075000000186265 ], [ 45795.44999999999709, 5947269.0 ], [ 45795.525000000001455, 5947269.0 ], [ 45795.525000000001455, 5947268.924999999813735 ], [ 45795.599999999998545, 5947268.924999999813735 ], [ 45795.599999999998545, 5947268.849999999627471 ], [ 45795.67500000000291, 5947268.849999999627471 ], [ 45795.67500000000291, 5947268.775000000372529 ], [ 45795.75, 5947268.775000000372529 ], [ 45795.75, 5947268.700000000186265 ], [ 45795.82499999999709, 5947268.700000000186265 ], [ 45795.82499999999709, 5947268.625 ], [ 45795.900000000001455, 5947268.625 ], [ 45795.900000000001455, 5947268.549999999813735 ], [ 45795.974999999998545, 5947268.549999999813735 ], [ 45795.974999999998545, 5947268.474999999627471 ], [ 45796.05000000000291, 5947268.474999999627471 ], [ 45796.05000000000291, 5947268.400000000372529 ], [ 45796.125, 5947268.400000000372529 ], [ 45796.125, 5947268.325000000186265 ], [ 45796.19999999999709, 5947268.325000000186265 ], [ 45796.19999999999709, 5947268.174999999813735 ], [ 45796.275000000001455, 5947268.174999999813735 ], [ 45796.275000000001455, 5947268.099999999627471 ], [ 45796.349999999998545, 5947268.099999999627471 ], [ 45796.349999999998545, 5947267.950000000186265 ], [ 45796.42500000000291, 5947267.950000000186265 ], [ 45796.42500000000291, 5947267.799999999813735 ], [ 45796.5, 5947267.799999999813735 ], [ 45796.5, 5947267.650000000372529 ], [ 45796.57499999999709, 5947267.650000000372529 ], [ 45796.57499999999709, 5947267.5 ], [ 45796.650000000001455, 5947267.5 ], [ 45796.650000000001455, 5947267.424999999813735 ], [ 45796.724999999998545, 5947267.424999999813735 ], [ 45796.724999999998545, 5947267.275000000372529 ], [ 45796.80000000000291, 5947267.275000000372529 ], [ 45796.80000000000291, 5947267.200000000186265 ], [ 45796.875, 5947267.200000000186265 ], [ 45796.875, 5947267.125 ], [ 45796.94999999999709, 5947267.125 ], [ 45796.94999999999709, 5947266.974999999627471 ], [ 45797.025000000001455, 5947266.974999999627471 ], [ 45797.025000000001455, 5947266.900000000372529 ], [ 45797.099999999998545, 5947266.900000000372529 ], [ 45797.099999999998545, 5947266.825000000186265 ], [ 45797.17500000000291, 5947266.825000000186265 ], [ 45797.17500000000291, 5947266.75 ], [ 45797.32499999999709, 5947266.75 ], [ 45797.32499999999709, 5947266.825000000186265 ], [ 45797.400000000001455, 5947266.825000000186265 ], [ 45797.400000000001455, 5947266.900000000372529 ], [ 45797.474999999998545, 5947266.900000000372529 ], [ 45797.474999999998545, 5947267.049999999813735 ], [ 45797.55000000000291, 5947267.049999999813735 ], [ 45797.55000000000291, 5947267.125 ], [ 45797.625, 5947267.125 ], [ 45797.625, 5947267.200000000186265 ], [ 45797.69999999999709, 5947267.200000000186265 ], [ 45797.69999999999709, 5947267.349999999627471 ], [ 45797.775000000001455, 5947267.349999999627471 ], [ 45797.775000000001455, 5947267.424999999813735 ], [ 45797.849999999998545, 5947267.424999999813735 ], [ 45797.849999999998545, 5947267.650000000372529 ], [ 45797.92500000000291, 5947267.650000000372529 ], [ 45797.92500000000291, 5947267.875 ], [ 45798.0, 5947267.875 ], [ 45798.0, 5947268.025000000372529 ], [ 45798.07499999999709, 5947268.025000000372529 ], [ 45798.07499999999709, 5947268.174999999813735 ], [ 45798.150000000001455, 5947268.174999999813735 ], [ 45798.150000000001455, 5947268.400000000372529 ], [ 45798.224999999998545, 5947268.400000000372529 ], [ 45798.224999999998545, 5947268.549999999813735 ], [ 45798.30000000000291, 5947268.549999999813735 ], [ 45798.30000000000291, 5947268.625 ], [ 45798.375, 5947268.625 ], [ 45798.375, 5947268.775000000372529 ], [ 45798.44999999999709, 5947268.775000000372529 ], [ 45798.44999999999709, 5947268.924999999813735 ], [ 45798.525000000001455, 5947268.924999999813735 ], [ 45798.525000000001455, 5947269.075000000186265 ], [ 45798.599999999998545, 5947269.075000000186265 ], [ 45798.599999999998545, 5947269.150000000372529 ], [ 45798.67500000000291, 5947269.150000000372529 ], [ 45798.67500000000291, 5947269.299999999813735 ], [ 45798.75, 5947269.299999999813735 ], [ 45798.75, 5947269.375 ], [ 45798.82499999999709, 5947269.375 ], [ 45798.82499999999709, 5947269.525000000372529 ], [ 45798.75, 5947269.525000000372529 ], [ 45798.75, 5947269.825000000186265 ], [ 45798.67500000000291, 5947269.825000000186265 ], [ 45798.67500000000291, 5947270.125 ], [ 45798.599999999998545, 5947270.125 ], [ 45798.599999999998545, 5947270.424999999813735 ], [ 45798.525000000001455, 5947270.424999999813735 ], [ 45798.525000000001455, 5947270.799999999813735 ], [ 45798.44999999999709, 5947270.799999999813735 ], [ 45798.44999999999709, 5947271.174999999813735 ], [ 45798.375, 5947271.174999999813735 ], [ 45798.375, 5947271.474999999627471 ], [ 45798.30000000000291, 5947271.474999999627471 ], [ 45798.30000000000291, 5947271.625 ], [ 45798.224999999998545, 5947271.625 ], [ 45798.224999999998545, 5947271.775000000372529 ], [ 45798.150000000001455, 5947271.775000000372529 ], [ 45798.150000000001455, 5947272.0 ], [ 45798.07499999999709, 5947272.0 ], [ 45798.07499999999709, 5947272.150000000372529 ], [ 45798.0, 5947272.150000000372529 ], [ 45798.0, 5947272.375 ], [ 45797.92500000000291, 5947272.375 ], [ 45797.92500000000291, 5947272.599999999627471 ], [ 45797.849999999998545, 5947272.599999999627471 ], [ 45797.849999999998545, 5947272.825000000186265 ], [ 45797.775000000001455, 5947272.825000000186265 ], [ 45797.775000000001455, 5947273.125 ], [ 45797.69999999999709, 5947273.125 ], [ 45797.69999999999709, 5947273.424999999813735 ], [ 45797.625, 5947273.424999999813735 ], [ 45797.625, 5947273.575000000186265 ], [ 45797.55000000000291, 5947273.575000000186265 ], [ 45797.55000000000291, 5947273.799999999813735 ], [ 45797.474999999998545, 5947273.799999999813735 ], [ 45797.474999999998545, 5947273.950000000186265 ], [ 45797.400000000001455, 5947273.950000000186265 ], [ 45797.400000000001455, 5947274.099999999627471 ], [ 45797.32499999999709, 5947274.099999999627471 ], [ 45797.32499999999709, 5947274.25 ], [ 45797.099999999998545, 5947274.25 ] ] ] } }
]
}
