{
"type": "FeatureCollection",
"name": "45933E594207N_buildings",
"crs": { "type": "name", "properties": { "name": "urn:ogc:def:crs:EPSG::3776" } },
"features": [
{ "type": "Feature", "properties": { "value": 1.0, "building_id": 0, "area": 103.29749999886543 }, "geometry": { "type": "Polygon", "coordinates": [ [ [ 46680.07499999999709, 5942632.424999999813735 ], [ 46680.07499999999709, 5942632.349999999627471 ], [ 46679.849999999998545, 5942632.349999999627471 ], [ 46679.849999999998545, 5942632.275000000372529 ], [ 46679.625, 5942632.275000000372529 ], [ 46679.625, 5942632.200000000186265 ], [ 46679.474999999998545, 5942632.200000000186265 ], [ 46679.474999999998545, 5942632.125 ], [ 46679.25, 5942632.125 ], [ 46679.25, 5942632.049999999813735 ], [ 46679.025000000001455, 5942632.049999999813735 ], [ 46679.025000000001455, 5942631.974999999627471 ], [ 46678.80000000000291, 5942631.974999999627471 ], [ 46678.80000000000291, 5942631.900000000372529 ], [ 46678.57499999999709, 5942631.900000000372529 ], [ 46678.57499999999709, 5942631.825000000186265 ], [ 46678.349999999998545, 5942631.825000000186265 ], [ 46678.349999999998545, 5942631.75 ], [ 46678.125, 5942631.75 ], [ 46678.125, 5942631.674999999813735 ], [ 46678.05000000000291, 5942631.674999999813735 ], [ 46678.05000000000291, 5942631.599999999627471 ], [ 46677.900000000001455, 5942631.599999999627471 ], [ 46677.900000000001455, 5942631.525000000372529 ], [ 46677.82499999999709, 5942631.525000000372529 ], [ 46677.82499999999709, 5942631.450000000186265 ], [ 46677.75, 5942631.450000000186265 ], [ 46677.75, 5942631.375 ], [ 46677.67500000000291, 5942631.375 ], [ 46677.67500000000291, 5942631.299999999813735 ], [ 46677.599999999998545, 5942631.299999999813735 ], [ 46677.599999999998545, 5942631.224999999627471 ], [ 46677.525000000001455, 5942631.224999999627471 ], [ 46677.525000000001455, 5942631.075000000186265 ], [ 46677.44999999999709, 5942631.075000000186265 ], [ 46677.44999999999709, 5942631.0 ], [ 46677.375, 5942631.0 ], [ 46677.375, 5942630.849999999627471 ], [ 46677.30000000000291, 5942630.849999999627471 ], [ 46677.30000000000291, 5942630.625 ], [ 46677.224999999998545, 5942630.625 ], [ 46677.224999999998545, 5942630.325000000186265 ], [ 46677.150000000001455, 5942630.325000000186265 ], [ 46677.150000000001455, 5942629.950000000186265 ], [ 46677.07499999999709, 5942629.950000000186265 ], [ 46677.07499999999709, 5942629.575000000186265 ], [ 46677.0, 5942629.575000000186265 ], [ 46677.0, 5942629.200000000186265 ], [ 46676.92500000000291, 5942629.200000000186265 ], [ 46676.92500000000291, 5942628.75 ], [ 46676.849999999998545, 5942628.75 ], [ 46676.849999999998545, 5942628.599999999627471 ], [ 46676.775000000001455, 5942628.599999999627471 ], [ 46676.775000000001455, 5942628.450000000186265 ], [ 46676.69999999999709, 5942628.450000000186265 ], [ 46676.69999999999709, 5942628.299999999813735 ], [ 46676.625, 5942628.299999999813735 ], [ 46676.625, 5942628.150000000372529 ], [ 46676.55000000000291, 5942628.150000000372529 ], [ 46676.55000000000291, 5942628.0 ], [ 46676.474999999998545, 5942628.0 ], [ 46676.474999999998545, 5942627.924999999813735 ], [ 46676.400000000001455, 5942627.924999999813735 ], [ 46676.400000000001455, 5942627.775000000372529 ], [ 46676.32499999999709, 5942627.775000000372529 ], [ 46676.32499999999709, 5942627.700000000186265 ], [ 46676.25, 5942627.700000000186265 ], [ 46676.25, 5942627.625 ], [ 46676.17500000000291, 5942627.625 ], [ 46676.17500000000291, 5942627.549999999813735 ], [ 46676.099999999998545, 5942627.549999999813735 ], [ 46676.099999999998545, 5942627.474999999627471 ], [ 46676.025000000001455, 5942627.474999999627471 ], [ 46676.025000000001455, 5942627.400000000372529 ], [ 46675.94999999999709, 5942627.400000000372529 ], [ 46675.94999999999709, 5942627.325000000186265 ], [ 46675.875, 5942627.325000000186265 ], [ 46675.875, 5942627.25 ], [ 46675.80000000000291, 5942627.25 ], [ 46675.80000000000291, 5942627.174999999813735 ], [ 46675.724999999998545, 5942627.174999999813735 ], [ 46675.724999999998545, 5942627.099999999627471 ], [ 46675.650000000001455, 5942627.099999999627471 ], [ 46675.650000000001455, 5942627.025000000372529 ], [ 46675.57499999999709, 5942627.025000000372529 ], [ 46675.57499999999709, 5942626.875 ], [ 46675.5, 5942626.875 ], [ 46675.5, 5942626.799999999813735 ], [ 46675.42500000000291, 5942626.799999999813735 ], [ 46675.42500000000291, 5942626.650000000372529 ], [ 46675.349999999998545, 5942626.650000000372529 ], [ 46675.349999999998545, 5942626.5 ], [ 46675.275000000001455, 5942626.5 ], [ 46675.275000000001455, 5942626.349999999627471 ], [ 46675.19999999999709, 5942626.349999999627471 ], [ 46675.19999999999709, 5942626.200000000186265 ], [ 46675.125, 5942626.200000000186265 ], [ 46675.125, 5942626.049999999813735 ], [ 46675.05000000000291, 5942626.049999999813735 ], [ 46675.05000000000291, 5942625.825000000186265 ], [ 46674.974999999998545, 5942625.825000000186265 ], [ 46674.974999999998545, 5942625.599999999627471 ], [ 46674.900000000001455, 5942625.599999999627471 ], [ 46674.900000000001455, 5942625.299999999813735 ], [ 46674.82499999999709, 5942625.299999999813735 ], [ 46674.82499999999709, 5942625.0 ], [ 46674.75, 5942625.0 ], [ 46674.75, 5942623.575000000186265 ], [ 46674.67500000000291, 5942623.575000000186265 ], [ 46674.67500000000291, 5942622.450000000186265 ], [ 46674.75, 5942622.450000000186265 ], [ 46674.75, 5942620.650000000372529 ], [ 46674.82499999999709, 5942620.650000000372529 ], [ 46674.82499999999709, 5942620.5 ], [ 46674.900000000001455, 5942620.5 ], [ 46674.900000000001455, 5942620.349999999627471 ], [ 46674.974999999998545, 5942620.349999999627471 ], [ 46674.974999999998545, 5942620.200000000186265 ], [ 46675.05000000000291, 5942620.200000000186265 ], [ 46675.05000000000291, 5942620.125 ], [ 46675.125, 5942620.125 ], [ 46675.125, 5942620.049999999813735 ], [ 46675.19999999999709, 5942620.049999999813735 ], [ 46675.19999999999709, 5942619.900000000372529 ], [ 46675.275000000001455, 5942619.900000000372529 ], [ 46675.275000000001455, 5942619.825000000186265 ], [ 46675.349999999998545, 5942619.825000000186265 ], [ 46675.349999999998545, 5942619.75 ], [ 46675.5, 5942619.75 ], [ 46675.5, 5942619.674999999813735 ], [ 46675.57499999999709, 5942619.674999999813735 ], [ 46675.57499999999709, 5942619.599999999627471 ], [ 46675.650000000001455, 5942619.599999999627471 ], [ 46675.650000000001455, 5942619.525000000372529 ], [ 46675.80000000000291, 5942619.525000000372529 ], [ 46675.80000000000291, 5942619.450000000186265 ], [ 46675.94999999999709, 5942619.450000000186265 ], [ 46675.94999999999709, 5942619.375 ], [ 46676.099999999998545, 5942619.375 ], [ 46676.099999999998545, 5942619.299999999813735 ], [ 46676.25, 5942619.299999999813735 ], [ 46676.25, 5942619.224999999627471 ], [ 46676.32499999999709, 5942619.224999999627471 ], [ 46676.32499999999709, 5942619.150000000372529 ], [ 46676.400000000001455, 5942619.150000000372529 ], [ 46676.400000000001455, 5942619.075000000186265 ], [ 46676.474999999998545, 5942619.075000000186265 ], [ 46676.474999999998545, 5942618.924999999813735 ], [ 46676.55000000000291, 5942618.924999999813735 ], [ 46676.55000000000291, 5942618.849999999627471 ], [ 46676.625, 5942618.849999999627471 ], [ 46676.625, 5942618.775000000372529 ], [ 46676.69999999999709, 5942618.775000000372529 ], [ 46676.69999999999709, 5942618.700000000186265 ], [ 46676.775000000001455, 5942618.700000000186265 ], [ 46676.775000000001455, 5942618.625 ], [ 46676.849999999998545, 5942618.625 ], [ 46676.849999999998545, 5942618.549999999813735 ], [ 46676.92500000000291, 5942618.549999999813735 ], [ 46676.92500000000291, 5942618.474999999627471 ], [ 46677.0, 5942618.474999999627471 ], [ 46677.0, 5942618.400000000372529 ], [ 46677.150000000001455, 5942618.400000000372529 ], [ 46677.150000000001455, 5942618.325000000186265 ], [ 46677.224999999998545, 5942618.325000000186265 ], [ 46677.224999999998545, 5942618.25 ], [ 46677.375, 5942618.25 ], [ 46677.375, 5942618.174999999813735 ], [ 46677.525000000001455, 5942618.174999999813735 ], [ 46677.525000000001455, 5942618.099999999627471 ], [ 46677.67500000000291, 5942618.099999999627471 ], [ 46677.67500000000291, 5942618.025000000372529 ], [ 46677.82499999999709, 5942618.025000000372529 ], [ 46677.82499999999709, 5942617.950000000186265 ], [ 46678.05000000000291, 5942617.950000000186265 ], [ 46678.05000000000291, 5942617.875 ], [ 46678.42500000000291, 5942617.875 ], [ 46678.42500000000291, 5942617.799999999813735 ], [ 46678.94999999999709, 5942617.799999999813735 ], [ 46678.94999999999709, 5942617.724999999627471 ], [ 46679.474999999998545, 5942617.724999999627471 ], [ 46679.474999999998545, 5942617.650000000372529 ], [ 46679.92500000000291, 5942617.650000000372529 ], [ 46679.92500000000291, 5942617.575000000186265 ], [ 46683.0, 5942617.575000000186265 ], [ 46683.0, 5942632.424999999813735 ], [ 46680.07499999999709, 5942632.424999999813735 ] ] ] } }
]
}
