{
"type": "FeatureCollection",
"name": "45933E594282N_buildings",
"crs": { "type": "name", "properties": { "name": "urn:ogc:def:crs:EPSG::3776" } },
"features": [
{ "type": "Feature", "properties": { "value": 1.0, "building_id": 0, "area": 152.55562500043433 }, "geometry": { "type": "Polygon", "coordinates": [ [ [ 46553.474999999998545, 5943448.650000000372529 ], [ 46553.474999999998545, 5943448.575000000186265 ], [ 46552.94999999999709, 5943448.575000000186265 ], [ 46552.94999999999709, 5943448.5 ], [ 46552.80000000000291, 5943448.5 ], [ 46552.80000000000291, 5943448.424999999813735 ], [ 46552.650000000001455, 5943448.424999999813735 ], [ 46552.650000000001455, 5943448.349999999627471 ], [ 46552.5, 5943448.349999999627471 ], [ 46552.5, 5943448.275000000372529 ], [ 46552.349999999998545, 5943448.275000000372529 ], [ 46552.349999999998545, 5943448.200000000186265 ], [ 46552.275000000001455, 5943448.200000000186265 ], [ 46552.275000000001455, 5943448.125 ], [ 46552.125, 5943448.125 ], [ 46552.125, 5943448.049999999813735 ], [ 46552.05000000000291, 5943448.049999999813735 ], [ 46552.05000000000291, 5943447.974999999627471 ], [ 46551.974999999998545, 5943447.974999999627471 ], [ 46551.974999999998545, 5943447.900000000372529 ], [ 46551.900000000001455, 5943447.900000000372529 ], [ 46551.900000000001455, 5943447.825000000186265 ], [ 46551.82499999999709, 5943447.825000000186265 ], [ 46551.82499999999709, 5943447.75 ], [ 46551.75, 5943447.75 ], [ 46551.75, 5943447.674999999813735 ], [ 46551.67500000000291, 5943447.674999999813735 ], [ 46551.67500000000291, 5943447.599999999627471 ], [ 46551.599999999998545, 5943447.599999999627471 ], [ 46551.599999999998545, 5943447.450000000186265 ], [ 46551.525000000001455, 5943447.450000000186265 ], [ 46551.525000000001455, 5943447.299999999813735 ], [ 46551.44999999999709, 5943447.299999999813735 ], [ 46551.44999999999709, 5943447.150000000372529 ], [ 46551.375, 5943447.150000000372529 ], [ 46551.375, 5943447.0 ], [ 46551.30000000000291, 5943447.0 ], [ 46551.30000000000291, 5943446.924999999813735 ], [ 46551.224999999998545, 5943446.924999999813735 ], [ 46551.224999999998545, 5943446.849999999627471 ], [ 46551.07499999999709, 5943446.849999999627471 ], [ 46551.07499999999709, 5943446.775000000372529 ], [ 46550.92500000000291, 5943446.775000000372529 ], [ 46550.92500000000291, 5943446.700000000186265 ], [ 46550.849999999998545, 5943446.700000000186265 ], [ 46550.849999999998545, 5943446.625 ], [ 46550.69999999999709, 5943446.625 ], [ 46550.69999999999709, 5943446.549999999813735 ], [ 46550.625, 5943446.549999999813735 ], [ 46550.625, 5943446.474999999627471 ], [ 46550.55000000000291, 5943446.474999999627471 ], [ 46550.55000000000291, 5943446.400000000372529 ], [ 46550.400000000001455, 5943446.400000000372529 ], [ 46550.400000000001455, 5943446.325000000186265 ], [ 46550.32499999999709, 5943446.325000000186265 ], [ 46550.32499999999709, 5943446.174999999813735 ], [ 46550.25, 5943446.174999999813735 ], [ 46550.25, 5943446.099999999627471 ], [ 46550.17500000000291, 5943446.099999999627471 ], [ 46550.17500000000291, 5943446.025000000372529 ], [ 46550.099999999998545, 5943446.025000000372529 ], [ 46550.099999999998545, 5943445.875 ], [ 46550.025000000001455, 5943445.875 ], [ 46550.025000000001455, 5943445.724999999627471 ], [ 46549.94999999999709, 5943445.724999999627471 ], [ 46549.94999999999709, 5943445.575000000186265 ], [ 46549.875, 5943445.575000000186265 ], [ 46549.875, 5943445.424999999813735 ], [ 46549.80000000000291, 5943445.424999999813735 ], [ 46549.80000000000291, 5943445.200000000186265 ], [ 46549.724999999998545, 5943445.200000000186265 ], [ 46549.724999999998545, 5943445.049999999813735 ], [ 46549.650000000001455, 5943445.049999999813735 ], [ 46549.650000000001455, 5943444.974999999627471 ], [ 46549.57499999999709, 5943444.974999999627471 ], [ 46549.57499999999709, 5943444.825000000186265 ], [ 46549.5, 5943444.825000000186265 ], [ 46549.5, 5943444.674999999813735 ], [ 46549.42500000000291, 5943444.674999999813735 ], [ 46549.42500000000291, 5943444.599999999627471 ], [ 46549.349999999998545, 5943444.599999999627471 ], [ 46549.349999999998545, 5943444.450000000186265 ], [ 46549.275000000001455, 5943444.450000000186265 ], [ 46549.275000000001455, 5943444.375 ], [ 46549.19999999999709, 5943444.375 ], [ 46549.19999999999709, 5943444.299999999813735 ], [ 46549.125, 5943444.299999999813735 ], [ 46549.125, 5943444.224999999627471 ], [ 46548.974999999998545, 5943444.224999999627471 ], [ 46548.974999999998545, 5943444.150000000372529 ], [ 46548.900000000001455, 5943444.150000000372529 ], [ 46548.900000000001455, 5943444.075000000186265 ], [ 46548.82499999999709, 5943444.075000000186265 ], [ 46548.82499999999709, 5943444.0 ], [ 46548.75, 5943444.0 ], [ 46548.75, 5943443.924999999813735 ], [ 46548.67500000000291, 5943443.924999999813735 ], [ 46548.67500000000291, 5943443.849999999627471 ], [ 46548.599999999998545, 5943443.849999999627471 ], [ 46548.599999999998545, 5943443.775000000372529 ], [ 46548.525000000001455, 5943443.775000000372529 ], [ 46548.525000000001455, 5943443.700000000186265 ], [ 46548.44999999999709, 5943443.700000000186265 ], [ 46548.44999999999709, 5943443.549999999813735 ], [ 46548.375, 5943443.549999999813735 ], [ 46548.375, 5943443.474999999627471 ], [ 46548.30000000000291, 5943443.474999999627471 ], [ 46548.30000000000291, 5943443.325000000186265 ], [ 46548.224999999998545, 5943443.325000000186265 ], [ 46548.224999999998545, 5943443.099999999627471 ], [ 46548.150000000001455, 5943443.099999999627471 ], [ 46548.150000000001455, 5943442.799999999813735 ], [ 46548.07499999999709, 5943442.799999999813735 ], [ 46548.07499999999709, 5943442.5 ], [ 46548.0, 5943442.5 ], [ 46548.0, 5943442.125 ], [ 46547.92500000000291, 5943442.125 ], [ 46547.92500000000291, 5943441.75 ], [ 46547.849999999998545, 5943441.75 ], [ 46547.849999999998545, 5943440.400000000372529 ], [ 46547.92500000000291, 5943440.400000000372529 ], [ 46547.92500000000291, 5943439.424999999813735 ], [ 46548.0, 5943439.424999999813735 ], [ 46548.0, 5943438.674999999813735 ], [ 46548.07499999999709, 5943438.674999999813735 ], [ 46548.07499999999709, 5943438.0 ], [ 46548.150000000001455, 5943438.0 ], [ 46548.150000000001455, 5943437.400000000372529 ], [ 46548.224999999998545, 5943437.400000000372529 ], [ 46548.224999999998545, 5943436.875 ], [ 46548.30000000000291, 5943436.875 ], [ 46548.30000000000291, 5943436.349999999627471 ], [ 46548.375, 5943436.349999999627471 ], [ 46548.375, 5943435.900000000372529 ], [ 46548.44999999999709, 5943435.900000000372529 ], [ 46548.44999999999709, 5943435.450000000186265 ], [ 46548.525000000001455, 5943435.450000000186265 ], [ 46548.525000000001455, 5943435.150000000372529 ], [ 46548.599999999998545, 5943435.150000000372529 ], [ 46548.599999999998545, 5943435.075000000186265 ], [ 46548.67500000000291, 5943435.075000000186265 ], [ 46548.67500000000291, 5943435.0 ], [ 46548.82499999999709, 5943435.0 ], [ 46548.82499999999709, 5943434.924999999813735 ], [ 46548.900000000001455, 5943434.924999999813735 ], [ 46548.900000000001455, 5943434.849999999627471 ], [ 46549.05000000000291, 5943434.849999999627471 ], [ 46549.05000000000291, 5943434.775000000372529 ], [ 46549.125, 5943434.775000000372529 ], [ 46549.125, 5943434.700000000186265 ], [ 46549.275000000001455, 5943434.700000000186265 ], [ 46549.275000000001455, 5943434.625 ], [ 46549.42500000000291, 5943434.625 ], [ 46549.42500000000291, 5943434.549999999813735 ], [ 46549.650000000001455, 5943434.549999999813735 ], [ 46549.650000000001455, 5943434.474999999627471 ], [ 46549.80000000000291, 5943434.474999999627471 ], [ 46549.80000000000291, 5943434.400000000372529 ], [ 46550.025000000001455, 5943434.400000000372529 ], [ 46550.025000000001455, 5943434.325000000186265 ], [ 46550.25, 5943434.325000000186265 ], [ 46550.25, 5943434.25 ], [ 46550.55000000000291, 5943434.25 ], [ 46550.55000000000291, 5943434.174999999813735 ], [ 46550.849999999998545, 5943434.174999999813735 ], [ 46550.849999999998545, 5943434.099999999627471 ], [ 46551.224999999998545, 5943434.099999999627471 ], [ 46551.224999999998545, 5943434.025000000372529 ], [ 46551.900000000001455, 5943434.025000000372529 ], [ 46551.900000000001455, 5943433.950000000186265 ], [ 46552.57499999999709, 5943433.950000000186265 ], [ 46552.57499999999709, 5943433.875 ], [ 46555.19999999999709, 5943433.875 ], [ 46555.19999999999709, 5943433.950000000186265 ], [ 46555.650000000001455, 5943433.950000000186265 ], [ 46555.650000000001455, 5943434.025000000372529 ], [ 46556.17500000000291, 5943434.025000000372529 ], [ 46556.17500000000291, 5943434.099999999627471 ], [ 46556.625, 5943434.099999999627471 ], [ 46556.625, 5943434.174999999813735 ], [ 46557.150000000001455, 5943434.174999999813735 ], [ 46557.150000000001455, 5943434.25 ], [ 46557.44999999999709, 5943434.25 ], [ 46557.44999999999709, 5943434.325000000186265 ], [ 46557.82499999999709, 5943434.325000000186265 ], [ 46557.82499999999709, 5943434.400000000372529 ], [ 46558.125, 5943434.400000000372529 ], [ 46558.125, 5943434.474999999627471 ], [ 46558.42500000000291, 5943434.474999999627471 ], [ 46558.42500000000291, 5943434.549999999813735 ], [ 46558.724999999998545, 5943434.549999999813735 ], [ 46558.724999999998545, 5943434.625 ], [ 46558.94999999999709, 5943434.625 ], [ 46558.94999999999709, 5943434.700000000186265 ], [ 46559.099999999998545, 5943434.700000000186265 ], [ 46559.099999999998545, 5943434.775000000372529 ], [ 46559.25, 5943434.775000000372529 ], [ 46559.25, 5943434.849999999627471 ], [ 46559.400000000001455, 5943434.849999999627471 ], [ 46559.400000000001455, 5943434.924999999813735 ], [ 46559.474999999998545, 5943434.924999999813735 ], [ 46559.474999999998545, 5943435.0 ], [ 46559.625, 5943435.0 ], [ 46559.625, 5943435.075000000186265 ], [ 46559.69999999999709, 5943435.075000000186265 ], [ 46559.69999999999709, 5943435.150000000372529 ], [ 46559.775000000001455, 5943435.150000000372529 ], [ 46559.775000000001455, 5943435.224999999627471 ], [ 46559.92500000000291, 5943435.224999999627471 ], [ 46559.92500000000291, 5943435.299999999813735 ], [ 46560.0, 5943435.299999999813735 ], [ 46560.0, 5943435.375 ], [ 46560.07499999999709, 5943435.375 ], [ 46560.07499999999709, 5943435.525000000372529 ], [ 46560.150000000001455, 5943435.525000000372529 ], [ 46560.150000000001455, 5943435.599999999627471 ], [ 46560.224999999998545, 5943435.599999999627471 ], [ 46560.224999999998545, 5943435.75 ], [ 46560.30000000000291, 5943435.75 ], [ 46560.30000000000291, 5943435.825000000186265 ], [ 46560.375, 5943435.825000000186265 ], [ 46560.375, 5943435.974999999627471 ], [ 46560.44999999999709, 5943435.974999999627471 ], [ 46560.44999999999709, 5943436.049999999813735 ], [ 46560.525000000001455, 5943436.049999999813735 ], [ 46560.525000000001455, 5943436.125 ], [ 46560.599999999998545, 5943436.125 ], [ 46560.599999999998545, 5943436.275000000372529 ], [ 46560.67500000000291, 5943436.275000000372529 ], [ 46560.67500000000291, 5943436.349999999627471 ], [ 46560.75, 5943436.349999999627471 ], [ 46560.75, 5943436.424999999813735 ], [ 46560.82499999999709, 5943436.424999999813735 ], [ 46560.82499999999709, 5943436.575000000186265 ], [ 46560.900000000001455, 5943436.575000000186265 ], [ 46560.900000000001455, 5943436.650000000372529 ], [ 46560.974999999998545, 5943436.650000000372529 ], [ 46560.974999999998545, 5943436.724999999627471 ], [ 46561.05000000000291, 5943436.724999999627471 ], [ 46561.05000000000291, 5943436.950000000186265 ], [ 46561.125, 5943436.950000000186265 ], [ 46561.125, 5943437.625 ], [ 46561.19999999999709, 5943437.625 ], [ 46561.19999999999709, 5943438.450000000186265 ], [ 46561.275000000001455, 5943438.450000000186265 ], [ 46561.275000000001455, 5943441.375 ], [ 46561.19999999999709, 5943441.375 ], [ 46561.19999999999709, 5943441.525000000372529 ], [ 46561.125, 5943441.525000000372529 ], [ 46561.125, 5943441.674999999813735 ], [ 46561.05000000000291, 5943441.674999999813735 ], [ 46561.05000000000291, 5943441.75 ], [ 46560.974999999998545, 5943441.75 ], [ 46560.974999999998545, 5943441.900000000372529 ], [ 46560.900000000001455, 5943441.900000000372529 ], [ 46560.900000000001455, 5943441.974999999627471 ], [ 46560.82499999999709, 5943441.974999999627471 ], [ 46560.82499999999709, 5943442.049999999813735 ], [ 46560.75, 5943442.049999999813735 ], [ 46560.75, 5943442.125 ], [ 46560.67500000000291, 5943442.125 ], [ 46560.67500000000291, 5943442.200000000186265 ], [ 46560.599999999998545, 5943442.200000000186265 ], [ 46560.599999999998545, 5943442.275000000372529 ], [ 46560.525000000001455, 5943442.275000000372529 ], [ 46560.525000000001455, 5943442.424999999813735 ], [ 46560.44999999999709, 5943442.424999999813735 ], [ 46560.44999999999709, 5943442.5 ], [ 46560.375, 5943442.5 ], [ 46560.375, 5943442.650000000372529 ], [ 46560.30000000000291, 5943442.650000000372529 ], [ 46560.30000000000291, 5943442.724999999627471 ], [ 46560.224999999998545, 5943442.724999999627471 ], [ 46560.224999999998545, 5943442.875 ], [ 46560.150000000001455, 5943442.875 ], [ 46560.150000000001455, 5943443.025000000372529 ], [ 46560.07499999999709, 5943443.025000000372529 ], [ 46560.07499999999709, 5943443.174999999813735 ], [ 46560.0, 5943443.174999999813735 ], [ 46560.0, 5943443.25 ], [ 46559.92500000000291, 5943443.25 ], [ 46559.92500000000291, 5943443.325000000186265 ], [ 46559.849999999998545, 5943443.325000000186265 ], [ 46559.849999999998545, 5943443.400000000372529 ], [ 46559.775000000001455, 5943443.400000000372529 ], [ 46559.775000000001455, 5943443.474999999627471 ], [ 46559.69999999999709, 5943443.474999999627471 ], [ 46559.69999999999709, 5943443.549999999813735 ], [ 46559.55000000000291, 5943443.549999999813735 ], [ 46559.55000000000291, 5943443.625 ], [ 46559.474999999998545, 5943443.625 ], [ 46559.474999999998545, 5943443.700000000186265 ], [ 46559.400000000001455, 5943443.700000000186265 ], [ 46559.400000000001455, 5943443.775000000372529 ], [ 46559.25, 5943443.775000000372529 ], [ 46559.25, 5943443.849999999627471 ], [ 46559.17500000000291, 5943443.849999999627471 ], [ 46559.17500000000291, 5943443.924999999813735 ], [ 46559.099999999998545, 5943443.924999999813735 ], [ 46559.099999999998545, 5943444.0 ], [ 46558.94999999999709, 5943444.0 ], [ 46558.94999999999709, 5943444.075000000186265 ], [ 46558.875, 5943444.075000000186265 ], [ 46558.875, 5943444.150000000372529 ], [ 46558.80000000000291, 5943444.150000000372529 ], [ 46558.80000000000291, 5943444.224999999627471 ], [ 46558.650000000001455, 5943444.224999999627471 ], [ 46558.650000000001455, 5943444.299999999813735 ], [ 46558.57499999999709, 5943444.299999999813735 ], [ 46558.57499999999709, 5943444.375 ], [ 46558.5, 5943444.375 ], [ 46558.5, 5943444.525000000372529 ], [ 46558.42500000000291, 5943444.525000000372529 ], [ 46558.42500000000291, 5943444.599999999627471 ], [ 46558.349999999998545, 5943444.599999999627471 ], [ 46558.349999999998545, 5943444.674999999813735 ], [ 46558.275000000001455, 5943444.674999999813735 ], [ 46558.275000000001455, 5943444.825000000186265 ], [ 46558.19999999999709, 5943444.825000000186265 ], [ 46558.19999999999709, 5943444.900000000372529 ], [ 46558.125, 5943444.900000000372529 ], [ 46558.125, 5943445.049999999813735 ], [ 46558.05000000000291, 5943445.049999999813735 ], [ 46558.05000000000291, 5943445.200000000186265 ], [ 46557.974999999998545, 5943445.200000000186265 ], [ 46557.974999999998545, 5943445.349999999627471 ], [ 46557.900000000001455, 5943445.349999999627471 ], [ 46557.900000000001455, 5943445.424999999813735 ], [ 46557.82499999999709, 5943445.424999999813735 ], [ 46557.82499999999709, 5943445.575000000186265 ], [ 46557.75, 5943445.575000000186265 ], [ 46557.75, 5943445.650000000372529 ], [ 46557.67500000000291, 5943445.650000000372529 ], [ 46557.67500000000291, 5943445.724999999627471 ], [ 46557.599999999998545, 5943445.724999999627471 ], [ 46557.599999999998545, 5943445.875 ], [ 46557.525000000001455, 5943445.875 ], [ 46557.525000000001455, 5943445.950000000186265 ], [ 46557.44999999999709, 5943445.950000000186265 ], [ 46557.44999999999709, 5943446.025000000372529 ], [ 46557.375, 5943446.025000000372529 ], [ 46557.375, 5943446.099999999627471 ], [ 46557.30000000000291, 5943446.099999999627471 ], [ 46557.30000000000291, 5943446.174999999813735 ], [ 46557.224999999998545, 5943446.174999999813735 ], [ 46557.224999999998545, 5943446.25 ], [ 46557.150000000001455, 5943446.25 ], [ 46557.150000000001455, 5943446.325000000186265 ], [ 46557.0, 5943446.325000000186265 ], [ 46557.0, 5943446.400000000372529 ], [ 46556.92500000000291, 5943446.400000000372529 ], [ 46556.92500000000291, 5943446.474999999627471 ], [ 46556.849999999998545, 5943446.474999999627471 ], [ 46556.849999999998545, 5943446.549999999813735 ], [ 46556.775000000001455, 5943446.549999999813735 ], [ 46556.775000000001455, 5943446.625 ], [ 46556.69999999999709, 5943446.625 ], [ 46556.69999999999709, 5943446.700000000186265 ], [ 46556.625, 5943446.700000000186265 ], [ 46556.625, 5943446.775000000372529 ], [ 46556.55000000000291, 5943446.775000000372529 ], [ 46556.55000000000291, 5943446.924999999813735 ], [ 46556.474999999998545, 5943446.924999999813735 ], [ 46556.474999999998545, 5943447.0 ], [ 46556.400000000001455, 5943447.0 ], [ 46556.400000000001455, 5943447.150000000372529 ], [ 46556.32499999999709, 5943447.150000000372529 ], [ 46556.32499999999709, 5943447.299999999813735 ], [ 46556.25, 5943447.299999999813735 ], [ 46556.25, 5943447.525000000372529 ], [ 46556.17500000000291, 5943447.525000000372529 ], [ 46556.17500000000291, 5943447.674999999813735 ], [ 46556.099999999998545, 5943447.674999999813735 ], [ 46556.099999999998545, 5943447.825000000186265 ], [ 46556.025000000001455, 5943447.825000000186265 ], [ 46556.025000000001455, 5943447.974999999627471 ], [ 46555.94999999999709, 5943447.974999999627471 ], [ 46555.94999999999709, 5943448.049999999813735 ], [ 46555.875, 5943448.049999999813735 ], [ 46555.875, 5943448.200000000186265 ], [ 46555.80000000000291, 5943448.200000000186265 ], [ 46555.80000000000291, 5943448.275000000372529 ], [ 46555.724999999998545, 5943448.275000000372529 ], [ 46555.724999999998545, 5943448.349999999627471 ], [ 46555.650000000001455, 5943448.349999999627471 ], [ 46555.650000000001455, 5943448.424999999813735 ], [ 46555.57499999999709, 5943448.424999999813735 ], [ 46555.57499999999709, 5943448.5 ], [ 46555.5, 5943448.5 ], [ 46555.5, 5943448.575000000186265 ], [ 46555.42500000000291, 5943448.575000000186265 ], [ 46555.42500000000291, 5943448.650000000372529 ], [ 46553.474999999998545, 5943448.650000000372529 ] ] ] } },
{ "type": "Feature", "properties": { "value": 1.0, "building_id": 1, "area": 937.46250000153361 }, "geometry": { "type": "Polygon", "coordinates": [ [ [ 46560.82499999999709, 5943287.549999999813735 ], [ 46560.82499999999709, 5943287.474999999627471 ], [ 46560.67500000000291, 5943287.474999999627471 ], [ 46560.67500000000291, 5943287.400000000372529 ], [ 46560.525000000001455, 5943287.400000000372529 ], [ 46560.525000000001455, 5943287.325000000186265 ], [ 46560.375, 5943287.325000000186265 ], [ 46560.375, 5943287.25 ], [ 46560.30000000000291, 5943287.25 ], [ 46560.30000000000291, 5943287.174999999813735 ], [ 46560.224999999998545, 5943287.174999999813735 ], [ 46560.224999999998545, 5943287.099999999627471 ], [ 46560.07499999999709, 5943287.099999999627471 ], [ 46560.07499999999709, 5943287.025000000372529 ], [ 46560.0, 5943287.025000000372529 ], [ 46560.0, 5943286.950000000186265 ], [ 46559.849999999998545, 5943286.950000000186265 ], [ 46559.849999999998545, 5943286.875 ], [ 46559.69999999999709, 5943286.875 ], [ 46559.69999999999709, 5943286.799999999813735 ], [ 46559.55000000000291, 5943286.799999999813735 ], [ 46559.55000000000291, 5943286.724999999627471 ], [ 46559.400000000001455, 5943286.724999999627471 ], [ 46559.400000000001455, 5943286.650000000372529 ], [ 46559.17500000000291, 5943286.650000000372529 ], [ 46559.17500000000291, 5943286.575000000186265 ], [ 46558.94999999999709, 5943286.575000000186265 ], [ 46558.94999999999709, 5943286.5 ], [ 46558.42500000000291, 5943286.5 ], [ 46558.42500000000291, 5943286.424999999813735 ], [ 46558.19999999999709, 5943286.424999999813735 ], [ 46558.19999999999709, 5943286.349999999627471 ], [ 46557.974999999998545, 5943286.349999999627471 ], [ 46557.974999999998545, 5943286.275000000372529 ], [ 46557.75, 5943286.275000000372529 ], [ 46557.75, 5943286.200000000186265 ], [ 46557.44999999999709, 5943286.200000000186265 ], [ 46557.44999999999709, 5943286.125 ], [ 46557.224999999998545, 5943286.125 ], [ 46557.224999999998545, 5943286.049999999813735 ], [ 46557.0, 5943286.049999999813735 ], [ 46557.0, 5943285.974999999627471 ], [ 46556.849999999998545, 5943285.974999999627471 ], [ 46556.849999999998545, 5943285.900000000372529 ], [ 46556.69999999999709, 5943285.900000000372529 ], [ 46556.69999999999709, 5943285.825000000186265 ], [ 46556.55000000000291, 5943285.825000000186265 ], [ 46556.55000000000291, 5943285.75 ], [ 46556.474999999998545, 5943285.75 ], [ 46556.474999999998545, 5943285.674999999813735 ], [ 46556.32499999999709, 5943285.674999999813735 ], [ 46556.32499999999709, 5943285.599999999627471 ], [ 46556.25, 5943285.599999999627471 ], [ 46556.25, 5943285.525000000372529 ], [ 46556.099999999998545, 5943285.525000000372529 ], [ 46556.099999999998545, 5943285.450000000186265 ], [ 46556.025000000001455, 5943285.450000000186265 ], [ 46556.025000000001455, 5943285.375 ], [ 46555.94999999999709, 5943285.375 ], [ 46555.94999999999709, 5943285.299999999813735 ], [ 46555.875, 5943285.299999999813735 ], [ 46555.875, 5943285.224999999627471 ], [ 46555.80000000000291, 5943285.224999999627471 ], [ 46555.80000000000291, 5943285.150000000372529 ], [ 46555.724999999998545, 5943285.150000000372529 ], [ 46555.724999999998545, 5943285.075000000186265 ], [ 46555.650000000001455, 5943285.075000000186265 ], [ 46555.650000000001455, 5943285.0 ], [ 46555.57499999999709, 5943285.0 ], [ 46555.57499999999709, 5943284.924999999813735 ], [ 46555.5, 5943284.924999999813735 ], [ 46555.5, 5943284.849999999627471 ], [ 46555.349999999998545, 5943284.849999999627471 ], [ 46555.349999999998545, 5943284.775000000372529 ], [ 46555.275000000001455, 5943284.775000000372529 ], [ 46555.275000000001455, 5943284.700000000186265 ], [ 46555.125, 5943284.700000000186265 ], [ 46555.125, 5943284.625 ], [ 46554.900000000001455, 5943284.625 ], [ 46554.900000000001455, 5943284.549999999813735 ], [ 46554.44999999999709, 5943284.549999999813735 ], [ 46554.44999999999709, 5943284.474999999627471 ], [ 46554.0, 5943284.474999999627471 ], [ 46554.0, 5943284.400000000372529 ], [ 46553.474999999998545, 5943284.400000000372529 ], [ 46553.474999999998545, 5943284.325000000186265 ], [ 46552.650000000001455, 5943284.325000000186265 ], [ 46552.650000000001455, 5943284.25 ], [ 46551.07499999999709, 5943284.25 ], [ 46551.07499999999709, 5943284.174999999813735 ], [ 46550.625, 5943284.174999999813735 ], [ 46550.625, 5943284.099999999627471 ], [ 46550.17500000000291, 5943284.099999999627471 ], [ 46550.17500000000291, 5943284.025000000372529 ], [ 46549.875, 5943284.025000000372529 ], [ 46549.875, 5943283.950000000186265 ], [ 46549.57499999999709, 5943283.950000000186265 ], [ 46549.57499999999709, 5943283.875 ], [ 46549.275000000001455, 5943283.875 ], [ 46549.275000000001455, 5943283.799999999813735 ], [ 46549.125, 5943283.799999999813735 ], [ 46549.125, 5943283.724999999627471 ], [ 46548.974999999998545, 5943283.724999999627471 ], [ 46548.974999999998545, 5943283.650000000372529 ], [ 46548.900000000001455, 5943283.650000000372529 ], [ 46548.900000000001455, 5943283.575000000186265 ], [ 46548.75, 5943283.575000000186265 ], [ 46548.75, 5943283.5 ], [ 46548.67500000000291, 5943283.5 ], [ 46548.67500000000291, 5943283.424999999813735 ], [ 46548.599999999998545, 5943283.424999999813735 ], [ 46548.599999999998545, 5943283.349999999627471 ], [ 46548.525000000001455, 5943283.349999999627471 ], [ 46548.525000000001455, 5943283.275000000372529 ], [ 46548.44999999999709, 5943283.275000000372529 ], [ 46548.44999999999709, 5943283.200000000186265 ], [ 46548.375, 5943283.200000000186265 ], [ 46548.375, 5943283.125 ], [ 46548.30000000000291, 5943283.125 ], [ 46548.30000000000291, 5943282.974999999627471 ], [ 46548.224999999998545, 5943282.974999999627471 ], [ 46548.224999999998545, 5943282.825000000186265 ], [ 46548.150000000001455, 5943282.825000000186265 ], [ 46548.150000000001455, 5943282.674999999813735 ], [ 46548.07499999999709, 5943282.674999999813735 ], [ 46548.07499999999709, 5943282.525000000372529 ], [ 46548.0, 5943282.525000000372529 ], [ 46548.0, 5943282.450000000186265 ], [ 46547.92500000000291, 5943282.450000000186265 ], [ 46547.92500000000291, 5943282.299999999813735 ], [ 46547.849999999998545, 5943282.299999999813735 ], [ 46547.849999999998545, 5943282.150000000372529 ], [ 46547.775000000001455, 5943282.150000000372529 ], [ 46547.775000000001455, 5943282.0 ], [ 46547.69999999999709, 5943282.0 ], [ 46547.69999999999709, 5943281.775000000372529 ], [ 46547.625, 5943281.775000000372529 ], [ 46547.625, 5943281.625 ], [ 46547.55000000000291, 5943281.625 ], [ 46547.55000000000291, 5943281.474999999627471 ], [ 46547.474999999998545, 5943281.474999999627471 ], [ 46547.474999999998545, 5943281.325000000186265 ], [ 46547.400000000001455, 5943281.325000000186265 ], [ 46547.400000000001455, 5943281.174999999813735 ], [ 46547.32499999999709, 5943281.174999999813735 ], [ 46547.32499999999709, 5943280.950000000186265 ], [ 46547.25, 5943280.950000000186265 ], [ 46547.25, 5943280.875 ], [ 46547.17500000000291, 5943280.875 ], [ 46547.17500000000291, 5943280.724999999627471 ], [ 46547.099999999998545, 5943280.724999999627471 ], [ 46547.099999999998545, 5943280.575000000186265 ], [ 46547.025000000001455, 5943280.575000000186265 ], [ 46547.025000000001455, 5943280.424999999813735 ], [ 46546.94999999999709, 5943280.424999999813735 ], [ 46546.94999999999709, 5943280.275000000372529 ], [ 46546.875, 5943280.275000000372529 ], [ 46546.875, 5943280.125 ], [ 46546.80000000000291, 5943280.125 ], [ 46546.80000000000291, 5943279.900000000372529 ], [ 46546.724999999998545, 5943279.900000000372529 ], [ 46546.724999999998545, 5943279.75 ], [ 46546.650000000001455, 5943279.75 ], [ 46546.650000000001455, 5943279.525000000372529 ], [ 46546.57499999999709, 5943279.525000000372529 ], [ 46546.57499999999709, 5943279.299999999813735 ], [ 46546.5, 5943279.299999999813735 ], [ 46546.5, 5943278.474999999627471 ], [ 46546.57499999999709, 5943278.474999999627471 ], [ 46546.57499999999709, 5943277.125 ], [ 46546.650000000001455, 5943277.125 ], [ 46546.650000000001455, 5943276.974999999627471 ], [ 46546.724999999998545, 5943276.974999999627471 ], [ 46546.724999999998545, 5943276.75 ], [ 46546.80000000000291, 5943276.75 ], [ 46546.80000000000291, 5943276.599999999627471 ], [ 46546.875, 5943276.599999999627471 ], [ 46546.875, 5943276.375 ], [ 46546.94999999999709, 5943276.375 ], [ 46546.94999999999709, 5943276.224999999627471 ], [ 46547.025000000001455, 5943276.224999999627471 ], [ 46547.025000000001455, 5943276.075000000186265 ], [ 46547.099999999998545, 5943276.075000000186265 ], [ 46547.099999999998545, 5943275.924999999813735 ], [ 46547.17500000000291, 5943275.924999999813735 ], [ 46547.17500000000291, 5943275.849999999627471 ], [ 46547.25, 5943275.849999999627471 ], [ 46547.25, 5943275.700000000186265 ], [ 46547.32499999999709, 5943275.700000000186265 ], [ 46547.32499999999709, 5943275.549999999813735 ], [ 46547.400000000001455, 5943275.549999999813735 ], [ 46547.400000000001455, 5943275.325000000186265 ], [ 46547.474999999998545, 5943275.325000000186265 ], [ 46547.474999999998545, 5943275.099999999627471 ], [ 46547.55000000000291, 5943275.099999999627471 ], [ 46547.55000000000291, 5943274.799999999813735 ], [ 46547.625, 5943274.799999999813735 ], [ 46547.625, 5943274.424999999813735 ], [ 46547.69999999999709, 5943274.424999999813735 ], [ 46547.69999999999709, 5943274.049999999813735 ], [ 46547.775000000001455, 5943274.049999999813735 ], [ 46547.775000000001455, 5943273.674999999813735 ], [ 46547.849999999998545, 5943273.674999999813735 ], [ 46547.849999999998545, 5943273.0 ], [ 46547.92500000000291, 5943273.0 ], [ 46547.92500000000291, 5943271.799999999813735 ], [ 46548.0, 5943271.799999999813735 ], [ 46548.0, 5943271.049999999813735 ], [ 46547.92500000000291, 5943271.049999999813735 ], [ 46547.92500000000291, 5943270.075000000186265 ], [ 46547.849999999998545, 5943270.075000000186265 ], [ 46547.849999999998545, 5943269.400000000372529 ], [ 46547.775000000001455, 5943269.400000000372529 ], [ 46547.775000000001455, 5943269.174999999813735 ], [ 46547.69999999999709, 5943269.174999999813735 ], [ 46547.69999999999709, 5943269.025000000372529 ], [ 46547.625, 5943269.025000000372529 ], [ 46547.625, 5943268.875 ], [ 46547.55000000000291, 5943268.875 ], [ 46547.55000000000291, 5943268.799999999813735 ], [ 46547.474999999998545, 5943268.799999999813735 ], [ 46547.474999999998545, 5943268.650000000372529 ], [ 46547.400000000001455, 5943268.650000000372529 ], [ 46547.400000000001455, 5943268.5 ], [ 46547.32499999999709, 5943268.5 ], [ 46547.32499999999709, 5943268.424999999813735 ], [ 46547.25, 5943268.424999999813735 ], [ 46547.25, 5943268.349999999627471 ], [ 46547.17500000000291, 5943268.349999999627471 ], [ 46547.17500000000291, 5943268.275000000372529 ], [ 46547.099999999998545, 5943268.275000000372529 ], [ 46547.099999999998545, 5943268.200000000186265 ], [ 46547.025000000001455, 5943268.200000000186265 ], [ 46547.025000000001455, 5943268.125 ], [ 46546.94999999999709, 5943268.125 ], [ 46546.94999999999709, 5943268.049999999813735 ], [ 46546.875, 5943268.049999999813735 ], [ 46546.875, 5943267.974999999627471 ], [ 46546.80000000000291, 5943267.974999999627471 ], [ 46546.80000000000291, 5943267.900000000372529 ], [ 46546.724999999998545, 5943267.900000000372529 ], [ 46546.724999999998545, 5943267.75 ], [ 46546.650000000001455, 5943267.75 ], [ 46546.650000000001455, 5943267.674999999813735 ], [ 46546.57499999999709, 5943267.674999999813735 ], [ 46546.57499999999709, 5943267.599999999627471 ], [ 46546.5, 5943267.599999999627471 ], [ 46546.5, 5943267.450000000186265 ], [ 46546.42500000000291, 5943267.450000000186265 ], [ 46546.42500000000291, 5943267.375 ], [ 46546.349999999998545, 5943267.375 ], [ 46546.349999999998545, 5943267.299999999813735 ], [ 46546.275000000001455, 5943267.299999999813735 ], [ 46546.275000000001455, 5943267.224999999627471 ], [ 46546.19999999999709, 5943267.224999999627471 ], [ 46546.19999999999709, 5943267.150000000372529 ], [ 46546.125, 5943267.150000000372529 ], [ 46546.125, 5943267.075000000186265 ], [ 46546.05000000000291, 5943267.075000000186265 ], [ 46546.05000000000291, 5943267.0 ], [ 46545.974999999998545, 5943267.0 ], [ 46545.974999999998545, 5943266.924999999813735 ], [ 46545.900000000001455, 5943266.924999999813735 ], [ 46545.900000000001455, 5943266.849999999627471 ], [ 46545.82499999999709, 5943266.849999999627471 ], [ 46545.82499999999709, 5943266.775000000372529 ], [ 46545.67500000000291, 5943266.775000000372529 ], [ 46545.67500000000291, 5943266.700000000186265 ], [ 46545.599999999998545, 5943266.700000000186265 ], [ 46545.599999999998545, 5943266.625 ], [ 46545.525000000001455, 5943266.625 ], [ 46545.525000000001455, 5943266.549999999813735 ], [ 46545.44999999999709, 5943266.549999999813735 ], [ 46545.44999999999709, 5943266.474999999627471 ], [ 46545.30000000000291, 5943266.474999999627471 ], [ 46545.30000000000291, 5943266.400000000372529 ], [ 46545.0, 5943266.400000000372529 ], [ 46545.0, 5943266.325000000186265 ], [ 46544.775000000001455, 5943266.325000000186265 ], [ 46544.775000000001455, 5943266.25 ], [ 46544.474999999998545, 5943266.25 ], [ 46544.474999999998545, 5943266.174999999813735 ], [ 46544.25, 5943266.174999999813735 ], [ 46544.25, 5943266.099999999627471 ], [ 46544.025000000001455, 5943266.099999999627471 ], [ 46544.025000000001455, 5943266.025000000372529 ], [ 46543.80000000000291, 5943266.025000000372529 ], [ 46543.80000000000291, 5943265.950000000186265 ], [ 46543.57499999999709, 5943265.950000000186265 ], [ 46543.57499999999709, 5943265.875 ], [ 46543.42500000000291, 5943265.875 ], [ 46543.42500000000291, 5943265.799999999813735 ], [ 46543.19999999999709, 5943265.799999999813735 ], [ 46543.19999999999709, 5943265.724999999627471 ], [ 46542.974999999998545, 5943265.724999999627471 ], [ 46542.974999999998545, 5943265.650000000372529 ], [ 46542.75, 5943265.650000000372529 ], [ 46542.75, 5943265.575000000186265 ], [ 46542.525000000001455, 5943265.575000000186265 ], [ 46542.525000000001455, 5943265.5 ], [ 46542.224999999998545, 5943265.5 ], [ 46542.224999999998545, 5943265.424999999813735 ], [ 46541.849999999998545, 5943265.424999999813735 ], [ 46541.849999999998545, 5943265.349999999627471 ], [ 46541.474999999998545, 5943265.349999999627471 ], [ 46541.474999999998545, 5943265.275000000372529 ], [ 46540.80000000000291, 5943265.275000000372529 ], [ 46540.80000000000291, 5943265.200000000186265 ], [ 46540.05000000000291, 5943265.200000000186265 ], [ 46540.05000000000291, 5943265.125 ], [ 46539.224999999998545, 5943265.125 ], [ 46539.224999999998545, 5943265.049999999813735 ], [ 46538.474999999998545, 5943265.049999999813735 ], [ 46538.474999999998545, 5943264.974999999627471 ], [ 46537.724999999998545, 5943264.974999999627471 ], [ 46537.724999999998545, 5943264.900000000372529 ], [ 46537.19999999999709, 5943264.900000000372529 ], [ 46537.19999999999709, 5943264.825000000186265 ], [ 46536.82499999999709, 5943264.825000000186265 ], [ 46536.82499999999709, 5943264.75 ], [ 46536.44999999999709, 5943264.75 ], [ 46536.44999999999709, 5943264.674999999813735 ], [ 46536.07499999999709, 5943264.674999999813735 ], [ 46536.07499999999709, 5943264.599999999627471 ], [ 46535.69999999999709, 5943264.599999999627471 ], [ 46535.69999999999709, 5943264.525000000372529 ], [ 46535.474999999998545, 5943264.525000000372529 ], [ 46535.474999999998545, 5943264.450000000186265 ], [ 46535.25, 5943264.450000000186265 ], [ 46535.25, 5943264.375 ], [ 46535.099999999998545, 5943264.375 ], [ 46535.099999999998545, 5943264.299999999813735 ], [ 46534.94999999999709, 5943264.299999999813735 ], [ 46534.94999999999709, 5943264.224999999627471 ], [ 46534.875, 5943264.224999999627471 ], [ 46534.875, 5943264.150000000372529 ], [ 46534.724999999998545, 5943264.150000000372529 ], [ 46534.724999999998545, 5943264.075000000186265 ], [ 46534.57499999999709, 5943264.075000000186265 ], [ 46534.57499999999709, 5943264.0 ], [ 46534.5, 5943264.0 ], [ 46534.5, 5943263.924999999813735 ], [ 46534.42500000000291, 5943263.924999999813735 ], [ 46534.42500000000291, 5943263.849999999627471 ], [ 46534.275000000001455, 5943263.849999999627471 ], [ 46534.275000000001455, 5943263.775000000372529 ], [ 46534.19999999999709, 5943263.775000000372529 ], [ 46534.19999999999709, 5943263.700000000186265 ], [ 46534.125, 5943263.700000000186265 ], [ 46534.125, 5943263.625 ], [ 46534.05000000000291, 5943263.625 ], [ 46534.05000000000291, 5943263.549999999813735 ], [ 46533.974999999998545, 5943263.549999999813735 ], [ 46533.974999999998545, 5943263.474999999627471 ], [ 46533.900000000001455, 5943263.474999999627471 ], [ 46533.900000000001455, 5943263.400000000372529 ], [ 46533.82499999999709, 5943263.400000000372529 ], [ 46533.82499999999709, 5943263.325000000186265 ], [ 46533.75, 5943263.325000000186265 ], [ 46533.75, 5943263.25 ], [ 46533.67500000000291, 5943263.25 ], [ 46533.67500000000291, 5943263.174999999813735 ], [ 46533.525000000001455, 5943263.174999999813735 ], [ 46533.525000000001455, 5943263.099999999627471 ], [ 46533.44999999999709, 5943263.099999999627471 ], [ 46533.44999999999709, 5943263.025000000372529 ], [ 46533.30000000000291, 5943263.025000000372529 ], [ 46533.30000000000291, 5943262.950000000186265 ], [ 46533.150000000001455, 5943262.950000000186265 ], [ 46533.150000000001455, 5943262.875 ], [ 46533.07499999999709, 5943262.875 ], [ 46533.07499999999709, 5943262.799999999813735 ], [ 46532.92500000000291, 5943262.799999999813735 ], [ 46532.92500000000291, 5943262.724999999627471 ], [ 46532.849999999998545, 5943262.724999999627471 ], [ 46532.849999999998545, 5943262.650000000372529 ], [ 46532.69999999999709, 5943262.650000000372529 ], [ 46532.69999999999709, 5943262.575000000186265 ], [ 46532.625, 5943262.575000000186265 ], [ 46532.625, 5943262.5 ], [ 46532.474999999998545, 5943262.5 ], [ 46532.474999999998545, 5943262.424999999813735 ], [ 46532.400000000001455, 5943262.424999999813735 ], [ 46532.400000000001455, 5943262.349999999627471 ], [ 46532.32499999999709, 5943262.349999999627471 ], [ 46532.32499999999709, 5943262.275000000372529 ], [ 46532.25, 5943262.275000000372529 ], [ 46532.25, 5943262.200000000186265 ], [ 46532.17500000000291, 5943262.200000000186265 ], [ 46532.17500000000291, 5943262.125 ], [ 46532.025000000001455, 5943262.125 ], [ 46532.025000000001455, 5943262.049999999813735 ], [ 46531.94999999999709, 5943262.049999999813735 ], [ 46531.94999999999709, 5943261.974999999627471 ], [ 46531.875, 5943261.974999999627471 ], [ 46531.875, 5943261.900000000372529 ], [ 46531.80000000000291, 5943261.900000000372529 ], [ 46531.80000000000291, 5943261.825000000186265 ], [ 46531.724999999998545, 5943261.825000000186265 ], [ 46531.724999999998545, 5943261.75 ], [ 46531.650000000001455, 5943261.75 ], [ 46531.650000000001455, 5943261.674999999813735 ], [ 46531.57499999999709, 5943261.674999999813735 ], [ 46531.57499999999709, 5943261.599999999627471 ], [ 46531.650000000001455, 5943261.599999999627471 ], [ 46531.650000000001455, 5943261.450000000186265 ], [ 46531.724999999998545, 5943261.450000000186265 ], [ 46531.724999999998545, 5943261.299999999813735 ], [ 46531.80000000000291, 5943261.299999999813735 ], [ 46531.80000000000291, 5943261.224999999627471 ], [ 46531.875, 5943261.224999999627471 ], [ 46531.875, 5943261.075000000186265 ], [ 46531.94999999999709, 5943261.075000000186265 ], [ 46531.94999999999709, 5943260.924999999813735 ], [ 46532.025000000001455, 5943260.924999999813735 ], [ 46532.025000000001455, 5943260.775000000372529 ], [ 46532.099999999998545, 5943260.775000000372529 ], [ 46532.099999999998545, 5943260.700000000186265 ], [ 46532.17500000000291, 5943260.700000000186265 ], [ 46532.17500000000291, 5943260.549999999813735 ], [ 46532.25, 5943260.549999999813735 ], [ 46532.25, 5943260.400000000372529 ], [ 46532.32499999999709, 5943260.400000000372529 ], [ 46532.32499999999709, 5943260.25 ], [ 46532.400000000001455, 5943260.25 ], [ 46532.400000000001455, 5943260.174999999813735 ], [ 46532.474999999998545, 5943260.174999999813735 ], [ 46532.474999999998545, 5943260.025000000372529 ], [ 46532.55000000000291, 5943260.025000000372529 ], [ 46532.55000000000291, 5943259.875 ], [ 46532.625, 5943259.875 ], [ 46532.625, 5943259.799999999813735 ], [ 46532.69999999999709, 5943259.799999999813735 ], [ 46532.69999999999709, 5943259.650000000372529 ], [ 46532.775000000001455, 5943259.650000000372529 ], [ 46532.775000000001455, 5943259.5 ], [ 46532.849999999998545, 5943259.5 ], [ 46532.849999999998545, 5943259.424999999813735 ], [ 46532.92500000000291, 5943259.424999999813735 ], [ 46532.92500000000291, 5943259.275000000372529 ], [ 46533.0, 5943259.275000000372529 ], [ 46533.0, 5943259.200000000186265 ], [ 46533.07499999999709, 5943259.200000000186265 ], [ 46533.07499999999709, 5943259.125 ], [ 46533.150000000001455, 5943259.125 ], [ 46533.150000000001455, 5943259.049999999813735 ], [ 46533.224999999998545, 5943259.049999999813735 ], [ 46533.224999999998545, 5943258.900000000372529 ], [ 46533.30000000000291, 5943258.900000000372529 ], [ 46533.30000000000291, 5943258.825000000186265 ], [ 46533.375, 5943258.825000000186265 ], [ 46533.375, 5943258.75 ], [ 46533.44999999999709, 5943258.75 ], [ 46533.44999999999709, 5943258.674999999813735 ], [ 46533.525000000001455, 5943258.674999999813735 ], [ 46533.525000000001455, 5943258.599999999627471 ], [ 46533.599999999998545, 5943258.599999999627471 ], [ 46533.599999999998545, 5943258.525000000372529 ], [ 46533.67500000000291, 5943258.525000000372529 ], [ 46533.67500000000291, 5943258.450000000186265 ], [ 46533.75, 5943258.450000000186265 ], [ 46533.75, 5943258.375 ], [ 46533.82499999999709, 5943258.375 ], [ 46533.82499999999709, 5943258.299999999813735 ], [ 46533.900000000001455, 5943258.299999999813735 ], [ 46533.900000000001455, 5943258.224999999627471 ], [ 46533.974999999998545, 5943258.224999999627471 ], [ 46533.974999999998545, 5943258.150000000372529 ], [ 46534.05000000000291, 5943258.150000000372529 ], [ 46534.05000000000291, 5943258.075000000186265 ], [ 46534.125, 5943258.075000000186265 ], [ 46534.125, 5943258.0 ], [ 46534.19999999999709, 5943258.0 ], [ 46534.19999999999709, 5943257.924999999813735 ], [ 46534.275000000001455, 5943257.924999999813735 ], [ 46534.275000000001455, 5943257.849999999627471 ], [ 46534.349999999998545, 5943257.849999999627471 ], [ 46534.349999999998545, 5943257.775000000372529 ], [ 46534.42500000000291, 5943257.775000000372529 ], [ 46534.42500000000291, 5943257.625 ], [ 46534.5, 5943257.625 ], [ 46534.5, 5943257.549999999813735 ], [ 46534.57499999999709, 5943257.549999999813735 ], [ 46534.57499999999709, 5943257.474999999627471 ], [ 46534.650000000001455, 5943257.474999999627471 ], [ 46534.650000000001455, 5943257.400000000372529 ], [ 46534.724999999998545, 5943257.400000000372529 ], [ 46534.724999999998545, 5943257.325000000186265 ], [ 46534.80000000000291, 5943257.325000000186265 ], [ 46534.80000000000291, 5943257.25 ], [ 46534.875, 5943257.25 ], [ 46534.875, 5943257.174999999813735 ], [ 46534.94999999999709, 5943257.174999999813735 ], [ 46534.94999999999709, 5943257.099999999627471 ], [ 46535.025000000001455, 5943257.099999999627471 ], [ 46535.025000000001455, 5943257.025000000372529 ], [ 46535.099999999998545, 5943257.025000000372529 ], [ 46535.099999999998545, 5943256.950000000186265 ], [ 46535.25, 5943256.950000000186265 ], [ 46535.25, 5943256.875 ], [ 46535.32499999999709, 5943256.875 ], [ 46535.32499999999709, 5943256.799999999813735 ], [ 46535.400000000001455, 5943256.799999999813735 ], [ 46535.400000000001455, 5943256.724999999627471 ], [ 46535.55000000000291, 5943256.724999999627471 ], [ 46535.55000000000291, 5943256.650000000372529 ], [ 46535.69999999999709, 5943256.650000000372529 ], [ 46535.69999999999709, 5943256.575000000186265 ], [ 46535.775000000001455, 5943256.575000000186265 ], [ 46535.775000000001455, 5943256.5 ], [ 46535.849999999998545, 5943256.5 ], [ 46535.849999999998545, 5943256.424999999813735 ], [ 46536.0, 5943256.424999999813735 ], [ 46536.0, 5943256.349999999627471 ], [ 46536.07499999999709, 5943256.349999999627471 ], [ 46536.07499999999709, 5943256.275000000372529 ], [ 46536.224999999998545, 5943256.275000000372529 ], [ 46536.224999999998545, 5943256.200000000186265 ], [ 46536.30000000000291, 5943256.200000000186265 ], [ 46536.30000000000291, 5943256.125 ], [ 46536.375, 5943256.125 ], [ 46536.375, 5943256.049999999813735 ], [ 46536.525000000001455, 5943256.049999999813735 ], [ 46536.525000000001455, 5943255.974999999627471 ], [ 46536.599999999998545, 5943255.974999999627471 ], [ 46536.599999999998545, 5943255.900000000372529 ], [ 46536.67500000000291, 5943255.900000000372529 ], [ 46536.67500000000291, 5943255.825000000186265 ], [ 46536.75, 5943255.825000000186265 ], [ 46536.75, 5943255.75 ], [ 46536.900000000001455, 5943255.75 ], [ 46536.900000000001455, 5943255.674999999813735 ], [ 46536.974999999998545, 5943255.674999999813735 ], [ 46536.974999999998545, 5943255.599999999627471 ], [ 46537.125, 5943255.599999999627471 ], [ 46537.125, 5943255.525000000372529 ], [ 46537.19999999999709, 5943255.525000000372529 ], [ 46537.19999999999709, 5943255.450000000186265 ], [ 46537.349999999998545, 5943255.450000000186265 ], [ 46537.349999999998545, 5943255.375 ], [ 46537.5, 5943255.375 ], [ 46537.5, 5943255.299999999813735 ], [ 46537.724999999998545, 5943255.299999999813735 ], [ 46537.724999999998545, 5943255.224999999627471 ], [ 46538.025000000001455, 5943255.224999999627471 ], [ 46538.025000000001455, 5943255.150000000372529 ], [ 46538.25, 5943255.150000000372529 ], [ 46538.25, 5943255.075000000186265 ], [ 46538.55000000000291, 5943255.075000000186265 ], [ 46538.55000000000291, 5943255.0 ], [ 46538.849999999998545, 5943255.0 ], [ 46538.849999999998545, 5943254.924999999813735 ], [ 46539.150000000001455, 5943254.924999999813735 ], [ 46539.150000000001455, 5943254.849999999627471 ], [ 46539.599999999998545, 5943254.849999999627471 ], [ 46539.599999999998545, 5943254.775000000372529 ], [ 46540.19999999999709, 5943254.775000000372529 ], [ 46540.19999999999709, 5943254.700000000186265 ], [ 46540.875, 5943254.700000000186265 ], [ 46540.875, 5943254.625 ], [ 46541.625, 5943254.625 ], [ 46541.625, 5943254.549999999813735 ], [ 46542.30000000000291, 5943254.549999999813735 ], [ 46542.30000000000291, 5943254.474999999627471 ], [ 46543.05000000000291, 5943254.474999999627471 ], [ 46543.05000000000291, 5943254.400000000372529 ], [ 46543.724999999998545, 5943254.400000000372529 ], [ 46543.724999999998545, 5943254.325000000186265 ], [ 46544.400000000001455, 5943254.325000000186265 ], [ 46544.400000000001455, 5943254.25 ], [ 46545.07499999999709, 5943254.25 ], [ 46545.07499999999709, 5943254.174999999813735 ], [ 46545.44999999999709, 5943254.174999999813735 ], [ 46545.44999999999709, 5943254.099999999627471 ], [ 46545.599999999998545, 5943254.099999999627471 ], [ 46545.599999999998545, 5943254.025000000372529 ], [ 46545.75, 5943254.025000000372529 ], [ 46545.75, 5943253.950000000186265 ], [ 46545.900000000001455, 5943253.950000000186265 ], [ 46545.900000000001455, 5943253.875 ], [ 46546.05000000000291, 5943253.875 ], [ 46546.05000000000291, 5943253.799999999813735 ], [ 46546.125, 5943253.799999999813735 ], [ 46546.125, 5943253.724999999627471 ], [ 46546.275000000001455, 5943253.724999999627471 ], [ 46546.275000000001455, 5943253.650000000372529 ], [ 46546.349999999998545, 5943253.650000000372529 ], [ 46546.349999999998545, 5943253.575000000186265 ], [ 46546.42500000000291, 5943253.575000000186265 ], [ 46546.42500000000291, 5943253.5 ], [ 46546.57499999999709, 5943253.5 ], [ 46546.57499999999709, 5943253.424999999813735 ], [ 46546.650000000001455, 5943253.424999999813735 ], [ 46546.650000000001455, 5943253.349999999627471 ], [ 46546.80000000000291, 5943253.349999999627471 ], [ 46546.80000000000291, 5943253.275000000372529 ], [ 46546.94999999999709, 5943253.275000000372529 ], [ 46546.94999999999709, 5943253.200000000186265 ], [ 46547.099999999998545, 5943253.200000000186265 ], [ 46547.099999999998545, 5943253.125 ], [ 46547.25, 5943253.125 ], [ 46547.25, 5943253.049999999813735 ], [ 46547.400000000001455, 5943253.049999999813735 ], [ 46547.400000000001455, 5943252.974999999627471 ], [ 46547.55000000000291, 5943252.974999999627471 ], [ 46547.55000000000291, 5943252.900000000372529 ], [ 46547.69999999999709, 5943252.900000000372529 ], [ 46547.69999999999709, 5943252.825000000186265 ], [ 46547.849999999998545, 5943252.825000000186265 ], [ 46547.849999999998545, 5943252.75 ], [ 46548.07499999999709, 5943252.75 ], [ 46548.07499999999709, 5943252.674999999813735 ], [ 46548.30000000000291, 5943252.674999999813735 ], [ 46548.30000000000291, 5943252.599999999627471 ], [ 46548.525000000001455, 5943252.599999999627471 ], [ 46548.525000000001455, 5943252.525000000372529 ], [ 46548.82499999999709, 5943252.525000000372529 ], [ 46548.82499999999709, 5943252.450000000186265 ], [ 46549.125, 5943252.450000000186265 ], [ 46549.125, 5943252.375 ], [ 46549.80000000000291, 5943252.375 ], [ 46549.80000000000291, 5943252.299999999813735 ], [ 46550.55000000000291, 5943252.299999999813735 ], [ 46550.55000000000291, 5943252.224999999627471 ], [ 46551.224999999998545, 5943252.224999999627471 ], [ 46551.224999999998545, 5943252.150000000372529 ], [ 46551.82499999999709, 5943252.150000000372529 ], [ 46551.82499999999709, 5943252.075000000186265 ], [ 46552.42500000000291, 5943252.075000000186265 ], [ 46552.42500000000291, 5943252.0 ], [ 46552.94999999999709, 5943252.0 ], [ 46552.94999999999709, 5943251.924999999813735 ], [ 46553.17500000000291, 5943251.924999999813735 ], [ 46553.17500000000291, 5943251.849999999627471 ], [ 46553.25, 5943251.849999999627471 ], [ 46553.25, 5943251.775000000372529 ], [ 46553.32499999999709, 5943251.775000000372529 ], [ 46553.32499999999709, 5943251.625 ], [ 46553.400000000001455, 5943251.625 ], [ 46553.400000000001455, 5943251.474999999627471 ], [ 46553.474999999998545, 5943251.474999999627471 ], [ 46553.474999999998545, 5943251.400000000372529 ], [ 46553.55000000000291, 5943251.400000000372529 ], [ 46553.55000000000291, 5943251.25 ], [ 46553.625, 5943251.25 ], [ 46553.625, 5943251.174999999813735 ], [ 46553.775000000001455, 5943251.174999999813735 ], [ 46553.775000000001455, 5943251.099999999627471 ], [ 46553.849999999998545, 5943251.099999999627471 ], [ 46553.849999999998545, 5943251.025000000372529 ], [ 46554.0, 5943251.025000000372529 ], [ 46554.0, 5943250.950000000186265 ], [ 46554.150000000001455, 5943250.950000000186265 ], [ 46554.150000000001455, 5943250.875 ], [ 46554.30000000000291, 5943250.875 ], [ 46554.30000000000291, 5943250.799999999813735 ], [ 46554.525000000001455, 5943250.799999999813735 ], [ 46554.525000000001455, 5943250.724999999627471 ], [ 46554.75, 5943250.724999999627471 ], [ 46554.75, 5943250.650000000372529 ], [ 46555.05000000000291, 5943250.650000000372529 ], [ 46555.05000000000291, 5943250.575000000186265 ], [ 46555.5, 5943250.575000000186265 ], [ 46555.5, 5943250.5 ], [ 46556.17500000000291, 5943250.5 ], [ 46556.17500000000291, 5943250.424999999813735 ], [ 46557.07499999999709, 5943250.424999999813735 ], [ 46557.07499999999709, 5943250.349999999627471 ], [ 46559.25, 5943250.349999999627471 ], [ 46559.25, 5943250.275000000372529 ], [ 46559.69999999999709, 5943250.275000000372529 ], [ 46559.69999999999709, 5943250.200000000186265 ], [ 46560.07499999999709, 5943250.200000000186265 ], [ 46560.07499999999709, 5943250.125 ], [ 46560.44999999999709, 5943250.125 ], [ 46560.44999999999709, 5943250.049999999813735 ], [ 46560.75, 5943250.049999999813735 ], [ 46560.75, 5943249.974999999627471 ], [ 46563.0, 5943249.974999999627471 ], [ 46563.0, 5943250.049999999813735 ], [ 46563.224999999998545, 5943250.049999999813735 ], [ 46563.224999999998545, 5943250.125 ], [ 46563.44999999999709, 5943250.125 ], [ 46563.44999999999709, 5943250.200000000186265 ], [ 46563.67500000000291, 5943250.200000000186265 ], [ 46563.67500000000291, 5943250.275000000372529 ], [ 46563.900000000001455, 5943250.275000000372529 ], [ 46563.900000000001455, 5943250.349999999627471 ], [ 46564.19999999999709, 5943250.349999999627471 ], [ 46564.19999999999709, 5943250.424999999813735 ], [ 46564.5, 5943250.424999999813735 ], [ 46564.5, 5943250.5 ], [ 46564.875, 5943250.5 ], [ 46564.875, 5943250.575000000186265 ], [ 46565.400000000001455, 5943250.575000000186265 ], [ 46565.400000000001455, 5943250.650000000372529 ], [ 46565.92500000000291, 5943250.650000000372529 ], [ 46565.92500000000291, 5943250.724999999627471 ], [ 46566.375, 5943250.724999999627471 ], [ 46566.375, 5943250.799999999813735 ], [ 46566.82499999999709, 5943250.799999999813735 ], [ 46566.82499999999709, 5943250.875 ], [ 46566.974999999998545, 5943250.875 ], [ 46566.974999999998545, 5943250.950000000186265 ], [ 46567.125, 5943250.950000000186265 ], [ 46567.125, 5943251.025000000372529 ], [ 46567.275000000001455, 5943251.025000000372529 ], [ 46567.275000000001455, 5943251.099999999627471 ], [ 46567.42500000000291, 5943251.099999999627471 ], [ 46567.42500000000291, 5943251.174999999813735 ], [ 46567.5, 5943251.174999999813735 ], [ 46567.5, 5943251.25 ], [ 46567.650000000001455, 5943251.25 ], [ 46567.650000000001455, 5943251.325000000186265 ], [ 46567.724999999998545, 5943251.325000000186265 ], [ 46567.724999999998545, 5943251.400000000372529 ], [ 46567.80000000000291, 5943251.400000000372529 ], [ 46567.80000000000291, 5943251.474999999627471 ], [ 46567.875, 5943251.474999999627471 ], [ 46567.875, 5943251.549999999813735 ], [ 46567.94999999999709, 5943251.549999999813735 ], [ 46567.94999999999709, 5943251.625 ], [ 46568.025000000001455, 5943251.625 ], [ 46568.025000000001455, 5943251.700000000186265 ], [ 46568.099999999998545, 5943251.700000000186265 ], [ 46568.099999999998545, 5943251.775000000372529 ], [ 46568.17500000000291, 5943251.775000000372529 ], [ 46568.17500000000291, 5943251.849999999627471 ], [ 46568.25, 5943251.849999999627471 ], [ 46568.25, 5943251.924999999813735 ], [ 46568.32499999999709, 5943251.924999999813735 ], [ 46568.32499999999709, 5943252.0 ], [ 46568.400000000001455, 5943252.0 ], [ 46568.400000000001455, 5943252.075000000186265 ], [ 46568.474999999998545, 5943252.075000000186265 ], [ 46568.474999999998545, 5943252.150000000372529 ], [ 46568.625, 5943252.150000000372529 ], [ 46568.625, 5943252.224999999627471 ], [ 46568.69999999999709, 5943252.224999999627471 ], [ 46568.69999999999709, 5943252.299999999813735 ], [ 46568.849999999998545, 5943252.299999999813735 ], [ 46568.849999999998545, 5943252.375 ], [ 46568.92500000000291, 5943252.375 ], [ 46568.92500000000291, 5943252.450000000186265 ], [ 46569.07499999999709, 5943252.450000000186265 ], [ 46569.07499999999709, 5943252.525000000372529 ], [ 46569.150000000001455, 5943252.525000000372529 ], [ 46569.150000000001455, 5943252.599999999627471 ], [ 46569.224999999998545, 5943252.599999999627471 ], [ 46569.224999999998545, 5943252.674999999813735 ], [ 46569.30000000000291, 5943252.674999999813735 ], [ 46569.30000000000291, 5943252.75 ], [ 46569.375, 5943252.75 ], [ 46569.375, 5943252.825000000186265 ], [ 46569.44999999999709, 5943252.825000000186265 ], [ 46569.44999999999709, 5943252.900000000372529 ], [ 46569.525000000001455, 5943252.900000000372529 ], [ 46569.525000000001455, 5943252.974999999627471 ], [ 46569.599999999998545, 5943252.974999999627471 ], [ 46569.599999999998545, 5943253.125 ], [ 46569.67500000000291, 5943253.125 ], [ 46569.67500000000291, 5943253.200000000186265 ], [ 46569.75, 5943253.200000000186265 ], [ 46569.75, 5943253.349999999627471 ], [ 46569.82499999999709, 5943253.349999999627471 ], [ 46569.82499999999709, 5943253.424999999813735 ], [ 46569.900000000001455, 5943253.424999999813735 ], [ 46569.900000000001455, 5943253.575000000186265 ], [ 46569.974999999998545, 5943253.575000000186265 ], [ 46569.974999999998545, 5943253.724999999627471 ], [ 46570.05000000000291, 5943253.724999999627471 ], [ 46570.05000000000291, 5943253.950000000186265 ], [ 46570.125, 5943253.950000000186265 ], [ 46570.125, 5943254.25 ], [ 46570.19999999999709, 5943254.25 ], [ 46570.19999999999709, 5943254.474999999627471 ], [ 46570.275000000001455, 5943254.474999999627471 ], [ 46570.275000000001455, 5943254.700000000186265 ], [ 46570.349999999998545, 5943254.700000000186265 ], [ 46570.349999999998545, 5943254.924999999813735 ], [ 46570.42500000000291, 5943254.924999999813735 ], [ 46570.42500000000291, 5943255.075000000186265 ], [ 46570.5, 5943255.075000000186265 ], [ 46570.5, 5943255.299999999813735 ], [ 46570.57499999999709, 5943255.299999999813735 ], [ 46570.57499999999709, 5943255.450000000186265 ], [ 46570.650000000001455, 5943255.450000000186265 ], [ 46570.650000000001455, 5943255.599999999627471 ], [ 46570.724999999998545, 5943255.599999999627471 ], [ 46570.724999999998545, 5943256.200000000186265 ], [ 46570.650000000001455, 5943256.200000000186265 ], [ 46570.650000000001455, 5943256.575000000186265 ], [ 46570.57499999999709, 5943256.575000000186265 ], [ 46570.57499999999709, 5943257.025000000372529 ], [ 46570.5, 5943257.025000000372529 ], [ 46570.5, 5943257.474999999627471 ], [ 46570.42500000000291, 5943257.474999999627471 ], [ 46570.42500000000291, 5943258.75 ], [ 46570.349999999998545, 5943258.75 ], [ 46570.349999999998545, 5943267.599999999627471 ], [ 46570.42500000000291, 5943267.599999999627471 ], [ 46570.42500000000291, 5943269.924999999813735 ], [ 46570.5, 5943269.924999999813735 ], [ 46570.5, 5943271.575000000186265 ], [ 46570.57499999999709, 5943271.575000000186265 ], [ 46570.57499999999709, 5943272.700000000186265 ], [ 46570.650000000001455, 5943272.700000000186265 ], [ 46570.650000000001455, 5943273.599999999627471 ], [ 46570.724999999998545, 5943273.599999999627471 ], [ 46570.724999999998545, 5943273.974999999627471 ], [ 46570.80000000000291, 5943273.974999999627471 ], [ 46570.80000000000291, 5943274.275000000372529 ], [ 46570.875, 5943274.275000000372529 ], [ 46570.875, 5943274.724999999627471 ], [ 46570.94999999999709, 5943274.724999999627471 ], [ 46570.94999999999709, 5943275.25 ], [ 46571.025000000001455, 5943275.25 ], [ 46571.025000000001455, 5943275.775000000372529 ], [ 46571.099999999998545, 5943275.775000000372529 ], [ 46571.099999999998545, 5943276.450000000186265 ], [ 46571.17500000000291, 5943276.450000000186265 ], [ 46571.17500000000291, 5943277.5 ], [ 46571.099999999998545, 5943277.5 ], [ 46571.099999999998545, 5943277.799999999813735 ], [ 46571.025000000001455, 5943277.799999999813735 ], [ 46571.025000000001455, 5943278.099999999627471 ], [ 46570.94999999999709, 5943278.099999999627471 ], [ 46570.94999999999709, 5943278.400000000372529 ], [ 46570.875, 5943278.400000000372529 ], [ 46570.875, 5943278.625 ], [ 46570.80000000000291, 5943278.625 ], [ 46570.80000000000291, 5943278.849999999627471 ], [ 46570.724999999998545, 5943278.849999999627471 ], [ 46570.724999999998545, 5943279.150000000372529 ], [ 46570.650000000001455, 5943279.150000000372529 ], [ 46570.650000000001455, 5943279.375 ], [ 46570.57499999999709, 5943279.375 ], [ 46570.57499999999709, 5943279.599999999627471 ], [ 46570.5, 5943279.599999999627471 ], [ 46570.5, 5943279.900000000372529 ], [ 46570.42500000000291, 5943279.900000000372529 ], [ 46570.42500000000291, 5943280.200000000186265 ], [ 46570.349999999998545, 5943280.200000000186265 ], [ 46570.349999999998545, 5943280.5 ], [ 46570.275000000001455, 5943280.5 ], [ 46570.275000000001455, 5943280.799999999813735 ], [ 46570.19999999999709, 5943280.799999999813735 ], [ 46570.19999999999709, 5943281.174999999813735 ], [ 46570.125, 5943281.174999999813735 ], [ 46570.125, 5943281.700000000186265 ], [ 46570.05000000000291, 5943281.700000000186265 ], [ 46570.05000000000291, 5943282.224999999627471 ], [ 46569.974999999998545, 5943282.224999999627471 ], [ 46569.974999999998545, 5943282.674999999813735 ], [ 46569.900000000001455, 5943282.674999999813735 ], [ 46569.900000000001455, 5943283.125 ], [ 46569.82499999999709, 5943283.125 ], [ 46569.82499999999709, 5943283.349999999627471 ], [ 46569.75, 5943283.349999999627471 ], [ 46569.75, 5943283.5 ], [ 46569.67500000000291, 5943283.5 ], [ 46569.67500000000291, 5943283.650000000372529 ], [ 46569.599999999998545, 5943283.650000000372529 ], [ 46569.599999999998545, 5943283.799999999813735 ], [ 46569.525000000001455, 5943283.799999999813735 ], [ 46569.525000000001455, 5943283.875 ], [ 46569.375, 5943283.875 ], [ 46569.375, 5943283.950000000186265 ], [ 46569.224999999998545, 5943283.950000000186265 ], [ 46569.224999999998545, 5943284.025000000372529 ], [ 46569.0, 5943284.025000000372529 ], [ 46569.0, 5943284.099999999627471 ], [ 46568.69999999999709, 5943284.099999999627471 ], [ 46568.69999999999709, 5943284.174999999813735 ], [ 46568.625, 5943284.174999999813735 ], [ 46568.625, 5943284.25 ], [ 46568.55000000000291, 5943284.25 ], [ 46568.55000000000291, 5943284.325000000186265 ], [ 46568.400000000001455, 5943284.325000000186265 ], [ 46568.400000000001455, 5943284.400000000372529 ], [ 46568.32499999999709, 5943284.400000000372529 ], [ 46568.32499999999709, 5943284.474999999627471 ], [ 46568.25, 5943284.474999999627471 ], [ 46568.25, 5943284.549999999813735 ], [ 46568.17500000000291, 5943284.549999999813735 ], [ 46568.17500000000291, 5943284.625 ], [ 46568.099999999998545, 5943284.625 ], [ 46568.099999999998545, 5943284.700000000186265 ], [ 46568.025000000001455, 5943284.700000000186265 ], [ 46568.025000000001455, 5943284.775000000372529 ], [ 46567.94999999999709, 5943284.775000000372529 ], [ 46567.94999999999709, 5943284.849999999627471 ], [ 46567.875, 5943284.849999999627471 ], [ 46567.875, 5943284.924999999813735 ], [ 46567.80000000000291, 5943284.924999999813735 ], [ 46567.80000000000291, 5943285.0 ], [ 46567.724999999998545, 5943285.0 ], [ 46567.724999999998545, 5943285.075000000186265 ], [ 46567.650000000001455, 5943285.075000000186265 ], [ 46567.650000000001455, 5943285.150000000372529 ], [ 46567.57499999999709, 5943285.150000000372529 ], [ 46567.57499999999709, 5943285.224999999627471 ], [ 46567.5, 5943285.224999999627471 ], [ 46567.5, 5943285.299999999813735 ], [ 46567.42500000000291, 5943285.299999999813735 ], [ 46567.42500000000291, 5943285.375 ], [ 46567.349999999998545, 5943285.375 ], [ 46567.349999999998545, 5943285.450000000186265 ], [ 46567.275000000001455, 5943285.450000000186265 ], [ 46567.275000000001455, 5943285.525000000372529 ], [ 46567.19999999999709, 5943285.525000000372529 ], [ 46567.19999999999709, 5943285.599999999627471 ], [ 46567.05000000000291, 5943285.599999999627471 ], [ 46567.05000000000291, 5943285.674999999813735 ], [ 46566.974999999998545, 5943285.674999999813735 ], [ 46566.974999999998545, 5943285.75 ], [ 46566.82499999999709, 5943285.75 ], [ 46566.82499999999709, 5943285.825000000186265 ], [ 46566.67500000000291, 5943285.825000000186265 ], [ 46566.67500000000291, 5943285.900000000372529 ], [ 46566.525000000001455, 5943285.900000000372529 ], [ 46566.525000000001455, 5943285.974999999627471 ], [ 46566.30000000000291, 5943285.974999999627471 ], [ 46566.30000000000291, 5943286.049999999813735 ], [ 46566.07499999999709, 5943286.049999999813735 ], [ 46566.07499999999709, 5943286.125 ], [ 46565.92500000000291, 5943286.125 ], [ 46565.92500000000291, 5943286.200000000186265 ], [ 46565.69999999999709, 5943286.200000000186265 ], [ 46565.69999999999709, 5943286.275000000372529 ], [ 46565.55000000000291, 5943286.275000000372529 ], [ 46565.55000000000291, 5943286.349999999627471 ], [ 46565.32499999999709, 5943286.349999999627471 ], [ 46565.32499999999709, 5943286.424999999813735 ], [ 46565.099999999998545, 5943286.424999999813735 ], [ 46565.099999999998545, 5943286.5 ], [ 46564.875, 5943286.5 ], [ 46564.875, 5943286.575000000186265 ], [ 46564.724999999998545, 5943286.575000000186265 ], [ 46564.724999999998545, 5943286.650000000372529 ], [ 46564.5, 5943286.650000000372529 ], [ 46564.5, 5943286.724999999627471 ], [ 46564.349999999998545, 5943286.724999999627471 ], [ 46564.349999999998545, 5943286.799999999813735 ], [ 46564.19999999999709, 5943286.799999999813735 ], [ 46564.19999999999709, 5943286.875 ], [ 46564.05000000000291, 5943286.875 ], [ 46564.05000000000291, 5943286.950000000186265 ], [ 46563.974999999998545, 5943286.950000000186265 ], [ 46563.974999999998545, 5943287.025000000372529 ], [ 46563.82499999999709, 5943287.025000000372529 ], [ 46563.82499999999709, 5943287.099999999627471 ], [ 46563.75, 5943287.099999999627471 ], [ 46563.75, 5943287.174999999813735 ], [ 46563.599999999998545, 5943287.174999999813735 ], [ 46563.599999999998545, 5943287.25 ], [ 46563.44999999999709, 5943287.25 ], [ 46563.44999999999709, 5943287.325000000186265 ], [ 46563.30000000000291, 5943287.325000000186265 ], [ 46563.30000000000291, 5943287.400000000372529 ], [ 46563.150000000001455, 5943287.400000000372529 ], [ 46563.150000000001455, 5943287.474999999627471 ], [ 46562.92500000000291, 5943287.474999999627471 ], [ 46562.92500000000291, 5943287.549999999813735 ], [ 46560.82499999999709, 5943287.549999999813735 ] ] ] } },
{ "type": "Feature", "properties": { "value": 1.0, "building_id": 2, "area": 182.93062499980209 }, "geometry": { "type": "Polygon", "coordinates": [ [ [ 46568.400000000001455, 5943224.400000000372529 ], [ 46568.400000000001455, 5943224.325000000186265 ], [ 46568.25, 5943224.325000000186265 ], [ 46568.25, 5943224.25 ], [ 46568.17500000000291, 5943224.25 ], [ 46568.17500000000291, 5943224.174999999813735 ], [ 46568.025000000001455, 5943224.174999999813735 ], [ 46568.025000000001455, 5943224.099999999627471 ], [ 46567.94999999999709, 5943224.099999999627471 ], [ 46567.94999999999709, 5943224.025000000372529 ], [ 46567.875, 5943224.025000000372529 ], [ 46567.875, 5943223.950000000186265 ], [ 46567.80000000000291, 5943223.950000000186265 ], [ 46567.80000000000291, 5943223.875 ], [ 46567.724999999998545, 5943223.875 ], [ 46567.724999999998545, 5943223.799999999813735 ], [ 46567.650000000001455, 5943223.799999999813735 ], [ 46567.650000000001455, 5943223.724999999627471 ], [ 46567.57499999999709, 5943223.724999999627471 ], [ 46567.57499999999709, 5943223.650000000372529 ], [ 46567.5, 5943223.650000000372529 ], [ 46567.5, 5943223.5 ], [ 46567.42500000000291, 5943223.5 ], [ 46567.42500000000291, 5943223.424999999813735 ], [ 46567.349999999998545, 5943223.424999999813735 ], [ 46567.349999999998545, 5943223.349999999627471 ], [ 46567.275000000001455, 5943223.349999999627471 ], [ 46567.275000000001455, 5943223.200000000186265 ], [ 46567.19999999999709, 5943223.200000000186265 ], [ 46567.19999999999709, 5943223.049999999813735 ], [ 46567.125, 5943223.049999999813735 ], [ 46567.125, 5943222.900000000372529 ], [ 46567.05000000000291, 5943222.900000000372529 ], [ 46567.05000000000291, 5943222.75 ], [ 46566.974999999998545, 5943222.75 ], [ 46566.974999999998545, 5943222.525000000372529 ], [ 46566.900000000001455, 5943222.525000000372529 ], [ 46566.900000000001455, 5943222.224999999627471 ], [ 46566.82499999999709, 5943222.224999999627471 ], [ 46566.82499999999709, 5943221.924999999813735 ], [ 46566.75, 5943221.924999999813735 ], [ 46566.75, 5943221.700000000186265 ], [ 46566.67500000000291, 5943221.700000000186265 ], [ 46566.67500000000291, 5943221.474999999627471 ], [ 46566.599999999998545, 5943221.474999999627471 ], [ 46566.599999999998545, 5943221.325000000186265 ], [ 46566.525000000001455, 5943221.325000000186265 ], [ 46566.525000000001455, 5943221.099999999627471 ], [ 46566.44999999999709, 5943221.099999999627471 ], [ 46566.44999999999709, 5943220.875 ], [ 46566.375, 5943220.875 ], [ 46566.375, 5943220.724999999627471 ], [ 46566.30000000000291, 5943220.724999999627471 ], [ 46566.30000000000291, 5943220.5 ], [ 46566.224999999998545, 5943220.5 ], [ 46566.224999999998545, 5943220.349999999627471 ], [ 46566.150000000001455, 5943220.349999999627471 ], [ 46566.150000000001455, 5943220.200000000186265 ], [ 46566.07499999999709, 5943220.200000000186265 ], [ 46566.07499999999709, 5943220.049999999813735 ], [ 46566.0, 5943220.049999999813735 ], [ 46566.0, 5943219.900000000372529 ], [ 46565.92500000000291, 5943219.900000000372529 ], [ 46565.92500000000291, 5943219.674999999813735 ], [ 46565.849999999998545, 5943219.674999999813735 ], [ 46565.849999999998545, 5943219.525000000372529 ], [ 46565.775000000001455, 5943219.525000000372529 ], [ 46565.775000000001455, 5943219.299999999813735 ], [ 46565.69999999999709, 5943219.299999999813735 ], [ 46565.69999999999709, 5943219.075000000186265 ], [ 46565.625, 5943219.075000000186265 ], [ 46565.625, 5943218.849999999627471 ], [ 46565.55000000000291, 5943218.849999999627471 ], [ 46565.55000000000291, 5943218.549999999813735 ], [ 46565.474999999998545, 5943218.549999999813735 ], [ 46565.474999999998545, 5943218.325000000186265 ], [ 46565.400000000001455, 5943218.325000000186265 ], [ 46565.400000000001455, 5943218.025000000372529 ], [ 46565.32499999999709, 5943218.025000000372529 ], [ 46565.32499999999709, 5943217.724999999627471 ], [ 46565.25, 5943217.724999999627471 ], [ 46565.25, 5943217.349999999627471 ], [ 46565.17500000000291, 5943217.349999999627471 ], [ 46565.17500000000291, 5943217.049999999813735 ], [ 46565.099999999998545, 5943217.049999999813735 ], [ 46565.099999999998545, 5943216.674999999813735 ], [ 46565.025000000001455, 5943216.674999999813735 ], [ 46565.025000000001455, 5943216.450000000186265 ], [ 46564.94999999999709, 5943216.450000000186265 ], [ 46564.94999999999709, 5943216.224999999627471 ], [ 46564.875, 5943216.224999999627471 ], [ 46564.875, 5943216.0 ], [ 46564.80000000000291, 5943216.0 ], [ 46564.80000000000291, 5943215.849999999627471 ], [ 46564.724999999998545, 5943215.849999999627471 ], [ 46564.724999999998545, 5943215.700000000186265 ], [ 46564.650000000001455, 5943215.700000000186265 ], [ 46564.650000000001455, 5943215.549999999813735 ], [ 46564.57499999999709, 5943215.549999999813735 ], [ 46564.57499999999709, 5943215.400000000372529 ], [ 46564.5, 5943215.400000000372529 ], [ 46564.5, 5943215.25 ], [ 46564.42500000000291, 5943215.25 ], [ 46564.42500000000291, 5943215.025000000372529 ], [ 46564.349999999998545, 5943215.025000000372529 ], [ 46564.349999999998545, 5943214.875 ], [ 46564.275000000001455, 5943214.875 ], [ 46564.275000000001455, 5943214.724999999627471 ], [ 46564.19999999999709, 5943214.724999999627471 ], [ 46564.19999999999709, 5943214.575000000186265 ], [ 46564.125, 5943214.575000000186265 ], [ 46564.125, 5943214.5 ], [ 46564.05000000000291, 5943214.5 ], [ 46564.05000000000291, 5943214.349999999627471 ], [ 46563.974999999998545, 5943214.349999999627471 ], [ 46563.974999999998545, 5943214.275000000372529 ], [ 46563.900000000001455, 5943214.275000000372529 ], [ 46563.900000000001455, 5943214.125 ], [ 46563.82499999999709, 5943214.125 ], [ 46563.82499999999709, 5943213.974999999627471 ], [ 46563.75, 5943213.974999999627471 ], [ 46563.75, 5943213.825000000186265 ], [ 46563.67500000000291, 5943213.825000000186265 ], [ 46563.67500000000291, 5943213.674999999813735 ], [ 46563.599999999998545, 5943213.674999999813735 ], [ 46563.599999999998545, 5943213.525000000372529 ], [ 46563.525000000001455, 5943213.525000000372529 ], [ 46563.525000000001455, 5943213.375 ], [ 46563.44999999999709, 5943213.375 ], [ 46563.44999999999709, 5943213.224999999627471 ], [ 46563.375, 5943213.224999999627471 ], [ 46563.375, 5943213.075000000186265 ], [ 46563.30000000000291, 5943213.075000000186265 ], [ 46563.30000000000291, 5943212.924999999813735 ], [ 46563.224999999998545, 5943212.924999999813735 ], [ 46563.224999999998545, 5943212.700000000186265 ], [ 46563.150000000001455, 5943212.700000000186265 ], [ 46563.150000000001455, 5943212.625 ], [ 46563.07499999999709, 5943212.625 ], [ 46563.07499999999709, 5943212.549999999813735 ], [ 46563.0, 5943212.549999999813735 ], [ 46563.0, 5943212.400000000372529 ], [ 46562.92500000000291, 5943212.400000000372529 ], [ 46562.92500000000291, 5943212.325000000186265 ], [ 46562.849999999998545, 5943212.325000000186265 ], [ 46562.849999999998545, 5943212.25 ], [ 46562.775000000001455, 5943212.25 ], [ 46562.775000000001455, 5943212.174999999813735 ], [ 46562.69999999999709, 5943212.174999999813735 ], [ 46562.69999999999709, 5943212.099999999627471 ], [ 46562.625, 5943212.099999999627471 ], [ 46562.625, 5943211.950000000186265 ], [ 46562.55000000000291, 5943211.950000000186265 ], [ 46562.55000000000291, 5943211.875 ], [ 46562.474999999998545, 5943211.875 ], [ 46562.474999999998545, 5943211.799999999813735 ], [ 46562.400000000001455, 5943211.799999999813735 ], [ 46562.400000000001455, 5943211.650000000372529 ], [ 46562.32499999999709, 5943211.650000000372529 ], [ 46562.32499999999709, 5943211.5 ], [ 46562.25, 5943211.5 ], [ 46562.25, 5943211.424999999813735 ], [ 46562.17500000000291, 5943211.424999999813735 ], [ 46562.17500000000291, 5943211.275000000372529 ], [ 46562.099999999998545, 5943211.275000000372529 ], [ 46562.099999999998545, 5943211.125 ], [ 46562.025000000001455, 5943211.125 ], [ 46562.025000000001455, 5943210.974999999627471 ], [ 46561.94999999999709, 5943210.974999999627471 ], [ 46561.94999999999709, 5943210.825000000186265 ], [ 46561.875, 5943210.825000000186265 ], [ 46561.875, 5943210.674999999813735 ], [ 46561.80000000000291, 5943210.674999999813735 ], [ 46561.80000000000291, 5943210.525000000372529 ], [ 46561.724999999998545, 5943210.525000000372529 ], [ 46561.724999999998545, 5943210.299999999813735 ], [ 46561.650000000001455, 5943210.299999999813735 ], [ 46561.650000000001455, 5943210.150000000372529 ], [ 46561.57499999999709, 5943210.150000000372529 ], [ 46561.57499999999709, 5943210.0 ], [ 46561.5, 5943210.0 ], [ 46561.5, 5943209.849999999627471 ], [ 46561.42500000000291, 5943209.849999999627471 ], [ 46561.42500000000291, 5943209.625 ], [ 46561.349999999998545, 5943209.625 ], [ 46561.349999999998545, 5943209.474999999627471 ], [ 46561.275000000001455, 5943209.474999999627471 ], [ 46561.275000000001455, 5943209.325000000186265 ], [ 46561.19999999999709, 5943209.325000000186265 ], [ 46561.19999999999709, 5943209.174999999813735 ], [ 46561.125, 5943209.174999999813735 ], [ 46561.125, 5943208.950000000186265 ], [ 46561.05000000000291, 5943208.950000000186265 ], [ 46561.05000000000291, 5943206.924999999813735 ], [ 46561.125, 5943206.924999999813735 ], [ 46561.125, 5943206.700000000186265 ], [ 46561.19999999999709, 5943206.700000000186265 ], [ 46561.19999999999709, 5943206.474999999627471 ], [ 46561.275000000001455, 5943206.474999999627471 ], [ 46561.275000000001455, 5943206.325000000186265 ], [ 46561.349999999998545, 5943206.325000000186265 ], [ 46561.349999999998545, 5943206.174999999813735 ], [ 46561.42500000000291, 5943206.174999999813735 ], [ 46561.42500000000291, 5943206.025000000372529 ], [ 46561.5, 5943206.025000000372529 ], [ 46561.5, 5943205.950000000186265 ], [ 46561.57499999999709, 5943205.950000000186265 ], [ 46561.57499999999709, 5943205.799999999813735 ], [ 46561.650000000001455, 5943205.799999999813735 ], [ 46561.650000000001455, 5943205.724999999627471 ], [ 46561.724999999998545, 5943205.724999999627471 ], [ 46561.724999999998545, 5943205.575000000186265 ], [ 46561.80000000000291, 5943205.575000000186265 ], [ 46561.80000000000291, 5943205.5 ], [ 46561.94999999999709, 5943205.5 ], [ 46561.94999999999709, 5943205.424999999813735 ], [ 46562.025000000001455, 5943205.424999999813735 ], [ 46562.025000000001455, 5943205.349999999627471 ], [ 46562.17500000000291, 5943205.349999999627471 ], [ 46562.17500000000291, 5943205.275000000372529 ], [ 46562.32499999999709, 5943205.275000000372529 ], [ 46562.32499999999709, 5943205.200000000186265 ], [ 46562.474999999998545, 5943205.200000000186265 ], [ 46562.474999999998545, 5943205.125 ], [ 46562.69999999999709, 5943205.125 ], [ 46562.69999999999709, 5943205.049999999813735 ], [ 46562.92500000000291, 5943205.049999999813735 ], [ 46562.92500000000291, 5943204.974999999627471 ], [ 46563.0, 5943204.974999999627471 ], [ 46563.0, 5943204.825000000186265 ], [ 46563.07499999999709, 5943204.825000000186265 ], [ 46563.07499999999709, 5943204.674999999813735 ], [ 46563.150000000001455, 5943204.674999999813735 ], [ 46563.150000000001455, 5943204.525000000372529 ], [ 46563.224999999998545, 5943204.525000000372529 ], [ 46563.224999999998545, 5943204.450000000186265 ], [ 46563.30000000000291, 5943204.450000000186265 ], [ 46563.30000000000291, 5943204.375 ], [ 46563.375, 5943204.375 ], [ 46563.375, 5943204.299999999813735 ], [ 46563.44999999999709, 5943204.299999999813735 ], [ 46563.44999999999709, 5943204.150000000372529 ], [ 46563.525000000001455, 5943204.150000000372529 ], [ 46563.525000000001455, 5943204.075000000186265 ], [ 46563.67500000000291, 5943204.075000000186265 ], [ 46563.67500000000291, 5943204.0 ], [ 46563.75, 5943204.0 ], [ 46563.75, 5943203.924999999813735 ], [ 46563.82499999999709, 5943203.924999999813735 ], [ 46563.82499999999709, 5943203.849999999627471 ], [ 46563.900000000001455, 5943203.849999999627471 ], [ 46563.900000000001455, 5943203.775000000372529 ], [ 46564.05000000000291, 5943203.775000000372529 ], [ 46564.05000000000291, 5943203.700000000186265 ], [ 46564.125, 5943203.700000000186265 ], [ 46564.125, 5943203.625 ], [ 46564.275000000001455, 5943203.625 ], [ 46564.275000000001455, 5943203.549999999813735 ], [ 46564.42500000000291, 5943203.549999999813735 ], [ 46564.42500000000291, 5943203.474999999627471 ], [ 46564.57499999999709, 5943203.474999999627471 ], [ 46564.57499999999709, 5943203.400000000372529 ], [ 46564.724999999998545, 5943203.400000000372529 ], [ 46564.724999999998545, 5943203.325000000186265 ], [ 46564.875, 5943203.325000000186265 ], [ 46564.875, 5943203.25 ], [ 46565.025000000001455, 5943203.25 ], [ 46565.025000000001455, 5943203.174999999813735 ], [ 46565.099999999998545, 5943203.174999999813735 ], [ 46565.099999999998545, 5943203.099999999627471 ], [ 46565.25, 5943203.099999999627471 ], [ 46565.25, 5943203.025000000372529 ], [ 46565.32499999999709, 5943203.025000000372529 ], [ 46565.32499999999709, 5943202.950000000186265 ], [ 46565.400000000001455, 5943202.950000000186265 ], [ 46565.400000000001455, 5943202.799999999813735 ], [ 46565.474999999998545, 5943202.799999999813735 ], [ 46565.474999999998545, 5943202.724999999627471 ], [ 46565.55000000000291, 5943202.724999999627471 ], [ 46565.55000000000291, 5943202.650000000372529 ], [ 46565.625, 5943202.650000000372529 ], [ 46565.625, 5943202.575000000186265 ], [ 46565.69999999999709, 5943202.575000000186265 ], [ 46565.69999999999709, 5943202.5 ], [ 46565.775000000001455, 5943202.5 ], [ 46565.775000000001455, 5943202.424999999813735 ], [ 46565.849999999998545, 5943202.424999999813735 ], [ 46565.849999999998545, 5943202.349999999627471 ], [ 46565.92500000000291, 5943202.349999999627471 ], [ 46565.92500000000291, 5943202.275000000372529 ], [ 46566.0, 5943202.275000000372529 ], [ 46566.0, 5943202.200000000186265 ], [ 46566.150000000001455, 5943202.200000000186265 ], [ 46566.150000000001455, 5943202.125 ], [ 46566.224999999998545, 5943202.125 ], [ 46566.224999999998545, 5943202.049999999813735 ], [ 46566.375, 5943202.049999999813735 ], [ 46566.375, 5943201.974999999627471 ], [ 46566.82499999999709, 5943201.974999999627471 ], [ 46566.82499999999709, 5943201.900000000372529 ], [ 46568.32499999999709, 5943201.900000000372529 ], [ 46568.32499999999709, 5943201.825000000186265 ], [ 46568.775000000001455, 5943201.825000000186265 ], [ 46568.775000000001455, 5943201.900000000372529 ], [ 46568.92500000000291, 5943201.900000000372529 ], [ 46568.92500000000291, 5943201.974999999627471 ], [ 46569.07499999999709, 5943201.974999999627471 ], [ 46569.07499999999709, 5943202.049999999813735 ], [ 46569.224999999998545, 5943202.049999999813735 ], [ 46569.224999999998545, 5943202.125 ], [ 46569.375, 5943202.125 ], [ 46569.375, 5943202.200000000186265 ], [ 46569.525000000001455, 5943202.200000000186265 ], [ 46569.525000000001455, 5943202.275000000372529 ], [ 46569.67500000000291, 5943202.275000000372529 ], [ 46569.67500000000291, 5943202.349999999627471 ], [ 46569.75, 5943202.349999999627471 ], [ 46569.75, 5943202.424999999813735 ], [ 46569.900000000001455, 5943202.424999999813735 ], [ 46569.900000000001455, 5943202.5 ], [ 46570.05000000000291, 5943202.5 ], [ 46570.05000000000291, 5943202.575000000186265 ], [ 46570.19999999999709, 5943202.575000000186265 ], [ 46570.19999999999709, 5943202.650000000372529 ], [ 46570.349999999998545, 5943202.650000000372529 ], [ 46570.349999999998545, 5943202.724999999627471 ], [ 46570.42500000000291, 5943202.724999999627471 ], [ 46570.42500000000291, 5943202.799999999813735 ], [ 46570.57499999999709, 5943202.799999999813735 ], [ 46570.57499999999709, 5943202.875 ], [ 46570.724999999998545, 5943202.875 ], [ 46570.724999999998545, 5943202.950000000186265 ], [ 46570.80000000000291, 5943202.950000000186265 ], [ 46570.80000000000291, 5943203.174999999813735 ], [ 46570.875, 5943203.174999999813735 ], [ 46570.875, 5943203.400000000372529 ], [ 46570.94999999999709, 5943203.400000000372529 ], [ 46570.94999999999709, 5943203.625 ], [ 46571.025000000001455, 5943203.625 ], [ 46571.025000000001455, 5943203.849999999627471 ], [ 46571.099999999998545, 5943203.849999999627471 ], [ 46571.099999999998545, 5943204.0 ], [ 46571.17500000000291, 5943204.0 ], [ 46571.17500000000291, 5943204.224999999627471 ], [ 46571.25, 5943204.224999999627471 ], [ 46571.25, 5943204.375 ], [ 46571.32499999999709, 5943204.375 ], [ 46571.32499999999709, 5943204.525000000372529 ], [ 46571.400000000001455, 5943204.525000000372529 ], [ 46571.400000000001455, 5943204.674999999813735 ], [ 46571.474999999998545, 5943204.674999999813735 ], [ 46571.474999999998545, 5943204.825000000186265 ], [ 46571.55000000000291, 5943204.825000000186265 ], [ 46571.55000000000291, 5943204.974999999627471 ], [ 46571.625, 5943204.974999999627471 ], [ 46571.625, 5943205.200000000186265 ], [ 46571.69999999999709, 5943205.200000000186265 ], [ 46571.69999999999709, 5943205.349999999627471 ], [ 46571.775000000001455, 5943205.349999999627471 ], [ 46571.775000000001455, 5943205.5 ], [ 46571.849999999998545, 5943205.5 ], [ 46571.849999999998545, 5943205.650000000372529 ], [ 46571.92500000000291, 5943205.650000000372529 ], [ 46571.92500000000291, 5943205.724999999627471 ], [ 46572.0, 5943205.724999999627471 ], [ 46572.0, 5943205.875 ], [ 46572.07499999999709, 5943205.875 ], [ 46572.07499999999709, 5943206.025000000372529 ], [ 46572.150000000001455, 5943206.025000000372529 ], [ 46572.150000000001455, 5943206.099999999627471 ], [ 46572.224999999998545, 5943206.099999999627471 ], [ 46572.224999999998545, 5943206.174999999813735 ], [ 46572.30000000000291, 5943206.174999999813735 ], [ 46572.30000000000291, 5943206.325000000186265 ], [ 46572.375, 5943206.325000000186265 ], [ 46572.375, 5943206.400000000372529 ], [ 46572.44999999999709, 5943206.400000000372529 ], [ 46572.44999999999709, 5943206.474999999627471 ], [ 46572.525000000001455, 5943206.474999999627471 ], [ 46572.525000000001455, 5943206.549999999813735 ], [ 46572.599999999998545, 5943206.549999999813735 ], [ 46572.599999999998545, 5943206.700000000186265 ], [ 46572.67500000000291, 5943206.700000000186265 ], [ 46572.67500000000291, 5943206.849999999627471 ], [ 46572.75, 5943206.849999999627471 ], [ 46572.75, 5943207.299999999813735 ], [ 46572.82499999999709, 5943207.299999999813735 ], [ 46572.82499999999709, 5943208.049999999813735 ], [ 46572.900000000001455, 5943208.049999999813735 ], [ 46572.900000000001455, 5943208.875 ], [ 46572.974999999998545, 5943208.875 ], [ 46572.974999999998545, 5943209.025000000372529 ], [ 46572.900000000001455, 5943209.025000000372529 ], [ 46572.900000000001455, 5943214.349999999627471 ], [ 46572.82499999999709, 5943214.349999999627471 ], [ 46572.82499999999709, 5943216.75 ], [ 46572.75, 5943216.75 ], [ 46572.75, 5943217.799999999813735 ], [ 46572.67500000000291, 5943217.799999999813735 ], [ 46572.67500000000291, 5943218.775000000372529 ], [ 46572.599999999998545, 5943218.775000000372529 ], [ 46572.599999999998545, 5943219.075000000186265 ], [ 46572.525000000001455, 5943219.075000000186265 ], [ 46572.525000000001455, 5943219.450000000186265 ], [ 46572.44999999999709, 5943219.450000000186265 ], [ 46572.44999999999709, 5943219.900000000372529 ], [ 46572.375, 5943219.900000000372529 ], [ 46572.375, 5943220.275000000372529 ], [ 46572.30000000000291, 5943220.275000000372529 ], [ 46572.30000000000291, 5943220.724999999627471 ], [ 46572.224999999998545, 5943220.724999999627471 ], [ 46572.224999999998545, 5943221.025000000372529 ], [ 46572.150000000001455, 5943221.025000000372529 ], [ 46572.150000000001455, 5943221.325000000186265 ], [ 46572.07499999999709, 5943221.325000000186265 ], [ 46572.07499999999709, 5943221.700000000186265 ], [ 46572.0, 5943221.700000000186265 ], [ 46572.0, 5943222.075000000186265 ], [ 46571.92500000000291, 5943222.075000000186265 ], [ 46571.92500000000291, 5943222.450000000186265 ], [ 46571.849999999998545, 5943222.450000000186265 ], [ 46571.849999999998545, 5943222.599999999627471 ], [ 46571.775000000001455, 5943222.599999999627471 ], [ 46571.775000000001455, 5943222.674999999813735 ], [ 46571.69999999999709, 5943222.674999999813735 ], [ 46571.69999999999709, 5943222.75 ], [ 46571.625, 5943222.75 ], [ 46571.625, 5943222.825000000186265 ], [ 46571.55000000000291, 5943222.825000000186265 ], [ 46571.55000000000291, 5943222.900000000372529 ], [ 46571.474999999998545, 5943222.900000000372529 ], [ 46571.474999999998545, 5943223.049999999813735 ], [ 46571.400000000001455, 5943223.049999999813735 ], [ 46571.400000000001455, 5943223.125 ], [ 46571.32499999999709, 5943223.125 ], [ 46571.32499999999709, 5943223.200000000186265 ], [ 46571.25, 5943223.200000000186265 ], [ 46571.25, 5943223.275000000372529 ], [ 46571.17500000000291, 5943223.275000000372529 ], [ 46571.17500000000291, 5943223.349999999627471 ], [ 46571.099999999998545, 5943223.349999999627471 ], [ 46571.099999999998545, 5943223.424999999813735 ], [ 46571.025000000001455, 5943223.424999999813735 ], [ 46571.025000000001455, 5943223.5 ], [ 46570.94999999999709, 5943223.5 ], [ 46570.94999999999709, 5943223.650000000372529 ], [ 46570.875, 5943223.650000000372529 ], [ 46570.875, 5943223.724999999627471 ], [ 46570.80000000000291, 5943223.724999999627471 ], [ 46570.80000000000291, 5943223.799999999813735 ], [ 46570.724999999998545, 5943223.799999999813735 ], [ 46570.724999999998545, 5943223.875 ], [ 46570.57499999999709, 5943223.875 ], [ 46570.57499999999709, 5943223.950000000186265 ], [ 46570.42500000000291, 5943223.950000000186265 ], [ 46570.42500000000291, 5943224.025000000372529 ], [ 46570.19999999999709, 5943224.025000000372529 ], [ 46570.19999999999709, 5943224.099999999627471 ], [ 46569.900000000001455, 5943224.099999999627471 ], [ 46569.900000000001455, 5943224.174999999813735 ], [ 46569.67500000000291, 5943224.174999999813735 ], [ 46569.67500000000291, 5943224.25 ], [ 46569.375, 5943224.25 ], [ 46569.375, 5943224.325000000186265 ], [ 46569.0, 5943224.325000000186265 ], [ 46569.0, 5943224.400000000372529 ], [ 46568.400000000001455, 5943224.400000000372529 ] ] ] } }
]
}
