{
"type": "FeatureCollection",
"name": "46683E594507N_buildings",
"crs": { "type": "name", "properties": { "name": "urn:ogc:def:crs:EPSG::3776" } },
"features": [
{ "type": "Feature", "properties": { "value": 1.0, "building_id": 0, "area": 31.7643749997481 }, "geometry": { "type": "Polygon", "coordinates": [ [ [ 47133.150000000001455, 5945256.825000000186265 ], [ 47133.150000000001455, 5945256.75 ], [ 47133.0, 5945256.75 ], [ 47133.0, 5945256.674999999813735 ], [ 47132.849999999998545, 5945256.674999999813735 ], [ 47132.849999999998545, 5945256.599999999627471 ], [ 47132.775000000001455, 5945256.599999999627471 ], [ 47132.775000000001455, 5945256.525000000372529 ], [ 47132.625, 5945256.525000000372529 ], [ 47132.625, 5945256.450000000186265 ], [ 47132.55000000000291, 5945256.450000000186265 ], [ 47132.55000000000291, 5945256.375 ], [ 47132.474999999998545, 5945256.375 ], [ 47132.474999999998545, 5945256.299999999813735 ], [ 47132.400000000001455, 5945256.299999999813735 ], [ 47132.400000000001455, 5945256.224999999627471 ], [ 47132.32499999999709, 5945256.224999999627471 ], [ 47132.32499999999709, 5945256.150000000372529 ], [ 47132.25, 5945256.150000000372529 ], [ 47132.25, 5945256.0 ], [ 47132.17500000000291, 5945256.0 ], [ 47132.17500000000291, 5945255.924999999813735 ], [ 47132.099999999998545, 5945255.924999999813735 ], [ 47132.099999999998545, 5945255.775000000372529 ], [ 47132.025000000001455, 5945255.775000000372529 ], [ 47132.025000000001455, 5945255.625 ], [ 47131.94999999999709, 5945255.625 ], [ 47131.94999999999709, 5945255.474999999627471 ], [ 47131.875, 5945255.474999999627471 ], [ 47131.875, 5945255.400000000372529 ], [ 47131.80000000000291, 5945255.400000000372529 ], [ 47131.80000000000291, 5945255.25 ], [ 47131.724999999998545, 5945255.25 ], [ 47131.724999999998545, 5945255.174999999813735 ], [ 47131.650000000001455, 5945255.174999999813735 ], [ 47131.650000000001455, 5945255.099999999627471 ], [ 47131.57499999999709, 5945255.099999999627471 ], [ 47131.57499999999709, 5945255.025000000372529 ], [ 47131.5, 5945255.025000000372529 ], [ 47131.5, 5945254.950000000186265 ], [ 47131.42500000000291, 5945254.950000000186265 ], [ 47131.42500000000291, 5945254.875 ], [ 47131.349999999998545, 5945254.875 ], [ 47131.349999999998545, 5945254.799999999813735 ], [ 47131.275000000001455, 5945254.799999999813735 ], [ 47131.275000000001455, 5945254.724999999627471 ], [ 47131.19999999999709, 5945254.724999999627471 ], [ 47131.19999999999709, 5945254.650000000372529 ], [ 47131.125, 5945254.650000000372529 ], [ 47131.125, 5945254.575000000186265 ], [ 47131.05000000000291, 5945254.575000000186265 ], [ 47131.05000000000291, 5945254.5 ], [ 47130.974999999998545, 5945254.5 ], [ 47130.974999999998545, 5945254.349999999627471 ], [ 47130.900000000001455, 5945254.349999999627471 ], [ 47130.900000000001455, 5945254.275000000372529 ], [ 47130.82499999999709, 5945254.275000000372529 ], [ 47130.82499999999709, 5945254.125 ], [ 47130.75, 5945254.125 ], [ 47130.75, 5945253.974999999627471 ], [ 47130.67500000000291, 5945253.974999999627471 ], [ 47130.67500000000291, 5945253.599999999627471 ], [ 47130.75, 5945253.599999999627471 ], [ 47130.75, 5945253.375 ], [ 47130.82499999999709, 5945253.375 ], [ 47130.82499999999709, 5945253.150000000372529 ], [ 47130.900000000001455, 5945253.150000000372529 ], [ 47130.900000000001455, 5945252.924999999813735 ], [ 47130.974999999998545, 5945252.924999999813735 ], [ 47130.974999999998545, 5945252.775000000372529 ], [ 47131.05000000000291, 5945252.775000000372529 ], [ 47131.05000000000291, 5945252.549999999813735 ], [ 47131.125, 5945252.549999999813735 ], [ 47131.125, 5945252.400000000372529 ], [ 47131.19999999999709, 5945252.400000000372529 ], [ 47131.19999999999709, 5945252.25 ], [ 47131.275000000001455, 5945252.25 ], [ 47131.275000000001455, 5945252.174999999813735 ], [ 47131.349999999998545, 5945252.174999999813735 ], [ 47131.349999999998545, 5945252.099999999627471 ], [ 47131.42500000000291, 5945252.099999999627471 ], [ 47131.42500000000291, 5945252.025000000372529 ], [ 47131.5, 5945252.025000000372529 ], [ 47131.5, 5945251.875 ], [ 47131.57499999999709, 5945251.875 ], [ 47131.57499999999709, 5945251.799999999813735 ], [ 47131.650000000001455, 5945251.799999999813735 ], [ 47131.650000000001455, 5945251.724999999627471 ], [ 47131.724999999998545, 5945251.724999999627471 ], [ 47131.724999999998545, 5945251.650000000372529 ], [ 47131.80000000000291, 5945251.650000000372529 ], [ 47131.80000000000291, 5945251.575000000186265 ], [ 47131.875, 5945251.575000000186265 ], [ 47131.875, 5945251.5 ], [ 47131.94999999999709, 5945251.5 ], [ 47131.94999999999709, 5945251.424999999813735 ], [ 47132.025000000001455, 5945251.424999999813735 ], [ 47132.025000000001455, 5945251.349999999627471 ], [ 47132.099999999998545, 5945251.349999999627471 ], [ 47132.099999999998545, 5945251.275000000372529 ], [ 47132.25, 5945251.275000000372529 ], [ 47132.25, 5945251.200000000186265 ], [ 47132.32499999999709, 5945251.200000000186265 ], [ 47132.32499999999709, 5945251.125 ], [ 47132.400000000001455, 5945251.125 ], [ 47132.400000000001455, 5945251.049999999813735 ], [ 47132.474999999998545, 5945251.049999999813735 ], [ 47132.474999999998545, 5945250.900000000372529 ], [ 47132.55000000000291, 5945250.900000000372529 ], [ 47132.55000000000291, 5945250.825000000186265 ], [ 47132.625, 5945250.825000000186265 ], [ 47132.625, 5945250.75 ], [ 47132.69999999999709, 5945250.75 ], [ 47132.69999999999709, 5945250.674999999813735 ], [ 47132.775000000001455, 5945250.674999999813735 ], [ 47132.775000000001455, 5945250.599999999627471 ], [ 47132.849999999998545, 5945250.599999999627471 ], [ 47132.849999999998545, 5945250.525000000372529 ], [ 47132.92500000000291, 5945250.525000000372529 ], [ 47132.92500000000291, 5945250.450000000186265 ], [ 47133.0, 5945250.450000000186265 ], [ 47133.0, 5945250.375 ], [ 47133.07499999999709, 5945250.375 ], [ 47133.07499999999709, 5945250.299999999813735 ], [ 47133.150000000001455, 5945250.299999999813735 ], [ 47133.150000000001455, 5945250.224999999627471 ], [ 47133.224999999998545, 5945250.224999999627471 ], [ 47133.224999999998545, 5945250.375 ], [ 47133.30000000000291, 5945250.375 ], [ 47133.30000000000291, 5945250.450000000186265 ], [ 47133.375, 5945250.450000000186265 ], [ 47133.375, 5945250.599999999627471 ], [ 47133.44999999999709, 5945250.599999999627471 ], [ 47133.44999999999709, 5945250.674999999813735 ], [ 47133.525000000001455, 5945250.674999999813735 ], [ 47133.525000000001455, 5945250.825000000186265 ], [ 47133.599999999998545, 5945250.825000000186265 ], [ 47133.599999999998545, 5945250.900000000372529 ], [ 47133.67500000000291, 5945250.900000000372529 ], [ 47133.67500000000291, 5945250.974999999627471 ], [ 47133.75, 5945250.974999999627471 ], [ 47133.75, 5945251.125 ], [ 47133.82499999999709, 5945251.125 ], [ 47133.82499999999709, 5945251.200000000186265 ], [ 47133.900000000001455, 5945251.200000000186265 ], [ 47133.900000000001455, 5945251.275000000372529 ], [ 47133.974999999998545, 5945251.275000000372529 ], [ 47133.974999999998545, 5945251.349999999627471 ], [ 47134.05000000000291, 5945251.349999999627471 ], [ 47134.05000000000291, 5945251.424999999813735 ], [ 47134.125, 5945251.424999999813735 ], [ 47134.125, 5945251.5 ], [ 47134.19999999999709, 5945251.5 ], [ 47134.19999999999709, 5945251.575000000186265 ], [ 47134.275000000001455, 5945251.575000000186265 ], [ 47134.275000000001455, 5945251.650000000372529 ], [ 47134.42500000000291, 5945251.650000000372529 ], [ 47134.42500000000291, 5945251.724999999627471 ], [ 47134.5, 5945251.724999999627471 ], [ 47134.5, 5945251.799999999813735 ], [ 47134.57499999999709, 5945251.799999999813735 ], [ 47134.57499999999709, 5945251.875 ], [ 47134.650000000001455, 5945251.875 ], [ 47134.650000000001455, 5945251.950000000186265 ], [ 47134.724999999998545, 5945251.950000000186265 ], [ 47134.724999999998545, 5945252.025000000372529 ], [ 47134.875, 5945252.025000000372529 ], [ 47134.875, 5945252.099999999627471 ], [ 47134.94999999999709, 5945252.099999999627471 ], [ 47134.94999999999709, 5945252.174999999813735 ], [ 47135.025000000001455, 5945252.174999999813735 ], [ 47135.025000000001455, 5945252.25 ], [ 47135.099999999998545, 5945252.25 ], [ 47135.099999999998545, 5945252.325000000186265 ], [ 47135.25, 5945252.325000000186265 ], [ 47135.25, 5945252.400000000372529 ], [ 47135.32499999999709, 5945252.400000000372529 ], [ 47135.32499999999709, 5945252.474999999627471 ], [ 47135.400000000001455, 5945252.474999999627471 ], [ 47135.400000000001455, 5945252.549999999813735 ], [ 47135.55000000000291, 5945252.549999999813735 ], [ 47135.55000000000291, 5945252.625 ], [ 47135.625, 5945252.625 ], [ 47135.625, 5945252.700000000186265 ], [ 47135.775000000001455, 5945252.700000000186265 ], [ 47135.775000000001455, 5945252.775000000372529 ], [ 47135.92500000000291, 5945252.775000000372529 ], [ 47135.92500000000291, 5945252.849999999627471 ], [ 47136.07499999999709, 5945252.849999999627471 ], [ 47136.07499999999709, 5945252.924999999813735 ], [ 47136.224999999998545, 5945252.924999999813735 ], [ 47136.224999999998545, 5945253.0 ], [ 47136.44999999999709, 5945253.0 ], [ 47136.44999999999709, 5945253.075000000186265 ], [ 47136.67500000000291, 5945253.075000000186265 ], [ 47136.67500000000291, 5945253.150000000372529 ], [ 47136.974999999998545, 5945253.150000000372529 ], [ 47136.974999999998545, 5945253.224999999627471 ], [ 47137.349999999998545, 5945253.224999999627471 ], [ 47137.349999999998545, 5945253.299999999813735 ], [ 47137.875, 5945253.299999999813735 ], [ 47137.875, 5945253.375 ], [ 47138.400000000001455, 5945253.375 ], [ 47138.400000000001455, 5945253.450000000186265 ], [ 47138.92500000000291, 5945253.450000000186265 ], [ 47138.92500000000291, 5945253.525000000372529 ], [ 47139.150000000001455, 5945253.525000000372529 ], [ 47139.150000000001455, 5945253.599999999627471 ], [ 47139.224999999998545, 5945253.599999999627471 ], [ 47139.224999999998545, 5945253.674999999813735 ], [ 47139.30000000000291, 5945253.674999999813735 ], [ 47139.30000000000291, 5945253.75 ], [ 47139.375, 5945253.75 ], [ 47139.375, 5945253.825000000186265 ], [ 47139.44999999999709, 5945253.825000000186265 ], [ 47139.44999999999709, 5945253.900000000372529 ], [ 47139.375, 5945253.900000000372529 ], [ 47139.375, 5945254.125 ], [ 47139.30000000000291, 5945254.125 ], [ 47139.30000000000291, 5945254.349999999627471 ], [ 47139.224999999998545, 5945254.349999999627471 ], [ 47139.224999999998545, 5945254.575000000186265 ], [ 47139.150000000001455, 5945254.575000000186265 ], [ 47139.150000000001455, 5945254.799999999813735 ], [ 47139.07499999999709, 5945254.799999999813735 ], [ 47139.07499999999709, 5945254.950000000186265 ], [ 47138.92500000000291, 5945254.950000000186265 ], [ 47138.92500000000291, 5945255.025000000372529 ], [ 47138.849999999998545, 5945255.025000000372529 ], [ 47138.849999999998545, 5945255.099999999627471 ], [ 47138.775000000001455, 5945255.099999999627471 ], [ 47138.775000000001455, 5945255.174999999813735 ], [ 47138.69999999999709, 5945255.174999999813735 ], [ 47138.69999999999709, 5945255.25 ], [ 47138.55000000000291, 5945255.25 ], [ 47138.55000000000291, 5945255.325000000186265 ], [ 47138.474999999998545, 5945255.325000000186265 ], [ 47138.474999999998545, 5945255.400000000372529 ], [ 47138.400000000001455, 5945255.400000000372529 ], [ 47138.400000000001455, 5945255.474999999627471 ], [ 47138.32499999999709, 5945255.474999999627471 ], [ 47138.32499999999709, 5945255.549999999813735 ], [ 47138.25, 5945255.549999999813735 ], [ 47138.25, 5945255.625 ], [ 47138.17500000000291, 5945255.625 ], [ 47138.17500000000291, 5945255.700000000186265 ], [ 47138.099999999998545, 5945255.700000000186265 ], [ 47138.099999999998545, 5945255.775000000372529 ], [ 47137.94999999999709, 5945255.775000000372529 ], [ 47137.94999999999709, 5945255.849999999627471 ], [ 47137.724999999998545, 5945255.849999999627471 ], [ 47137.724999999998545, 5945255.924999999813735 ], [ 47137.57499999999709, 5945255.924999999813735 ], [ 47137.57499999999709, 5945256.0 ], [ 47137.349999999998545, 5945256.0 ], [ 47137.349999999998545, 5945256.075000000186265 ], [ 47137.125, 5945256.075000000186265 ], [ 47137.125, 5945256.150000000372529 ], [ 47136.82499999999709, 5945256.150000000372529 ], [ 47136.82499999999709, 5945256.224999999627471 ], [ 47136.525000000001455, 5945256.224999999627471 ], [ 47136.525000000001455, 5945256.299999999813735 ], [ 47136.224999999998545, 5945256.299999999813735 ], [ 47136.224999999998545, 5945256.375 ], [ 47135.92500000000291, 5945256.375 ], [ 47135.92500000000291, 5945256.450000000186265 ], [ 47135.55000000000291, 5945256.450000000186265 ], [ 47135.55000000000291, 5945256.525000000372529 ], [ 47135.099999999998545, 5945256.525000000372529 ], [ 47135.099999999998545, 5945256.599999999627471 ], [ 47134.57499999999709, 5945256.599999999627471 ], [ 47134.57499999999709, 5945256.674999999813735 ], [ 47133.900000000001455, 5945256.674999999813735 ], [ 47133.900000000001455, 5945256.75 ], [ 47133.30000000000291, 5945256.75 ], [ 47133.30000000000291, 5945256.825000000186265 ], [ 47133.150000000001455, 5945256.825000000186265 ] ] ] } }
]
}
