{
"type": "FeatureCollection",
"name": "47433E594882N_buildings",
"crs": { "type": "name", "properties": { "name": "urn:ogc:def:crs:EPSG::3776" } },
"features": [
{ "type": "Feature", "properties": { "value": 1.0, "building_id": 0, "area": 193.53937499897967 }, "geometry": { "type": "Polygon", "coordinates": [ [ [ 48074.099999999998545, 5949579.0 ], [ 48074.099999999998545, 5949576.0 ], [ 48074.17500000000291, 5949576.0 ], [ 48074.17500000000291, 5949575.849999999627471 ], [ 48074.25, 5949575.849999999627471 ], [ 48074.25, 5949575.700000000186265 ], [ 48074.32499999999709, 5949575.700000000186265 ], [ 48074.32499999999709, 5949575.549999999813735 ], [ 48074.400000000001455, 5949575.549999999813735 ], [ 48074.400000000001455, 5949575.325000000186265 ], [ 48074.474999999998545, 5949575.325000000186265 ], [ 48074.474999999998545, 5949575.174999999813735 ], [ 48074.55000000000291, 5949575.174999999813735 ], [ 48074.55000000000291, 5949575.025000000372529 ], [ 48074.625, 5949575.025000000372529 ], [ 48074.625, 5949574.799999999813735 ], [ 48074.69999999999709, 5949574.799999999813735 ], [ 48074.69999999999709, 5949574.575000000186265 ], [ 48074.775000000001455, 5949574.575000000186265 ], [ 48074.775000000001455, 5949574.275000000372529 ], [ 48074.849999999998545, 5949574.275000000372529 ], [ 48074.849999999998545, 5949573.974999999627471 ], [ 48074.92500000000291, 5949573.974999999627471 ], [ 48074.92500000000291, 5949573.825000000186265 ], [ 48075.0, 5949573.825000000186265 ], [ 48075.0, 5949573.599999999627471 ], [ 48075.07499999999709, 5949573.599999999627471 ], [ 48075.07499999999709, 5949573.299999999813735 ], [ 48075.150000000001455, 5949573.299999999813735 ], [ 48075.150000000001455, 5949573.075000000186265 ], [ 48075.224999999998545, 5949573.075000000186265 ], [ 48075.224999999998545, 5949572.775000000372529 ], [ 48075.30000000000291, 5949572.775000000372529 ], [ 48075.30000000000291, 5949572.549999999813735 ], [ 48075.375, 5949572.549999999813735 ], [ 48075.375, 5949572.25 ], [ 48075.44999999999709, 5949572.25 ], [ 48075.44999999999709, 5949571.950000000186265 ], [ 48075.525000000001455, 5949571.950000000186265 ], [ 48075.525000000001455, 5949571.575000000186265 ], [ 48075.599999999998545, 5949571.575000000186265 ], [ 48075.599999999998545, 5949571.275000000372529 ], [ 48075.67500000000291, 5949571.275000000372529 ], [ 48075.67500000000291, 5949570.974999999627471 ], [ 48075.75, 5949570.974999999627471 ], [ 48075.75, 5949570.599999999627471 ], [ 48075.82499999999709, 5949570.599999999627471 ], [ 48075.82499999999709, 5949570.299999999813735 ], [ 48075.900000000001455, 5949570.299999999813735 ], [ 48075.900000000001455, 5949569.924999999813735 ], [ 48075.974999999998545, 5949569.924999999813735 ], [ 48075.974999999998545, 5949569.625 ], [ 48076.05000000000291, 5949569.625 ], [ 48076.05000000000291, 5949569.325000000186265 ], [ 48076.125, 5949569.325000000186265 ], [ 48076.125, 5949569.025000000372529 ], [ 48076.19999999999709, 5949569.025000000372529 ], [ 48076.19999999999709, 5949568.799999999813735 ], [ 48076.275000000001455, 5949568.799999999813735 ], [ 48076.275000000001455, 5949568.5 ], [ 48076.349999999998545, 5949568.5 ], [ 48076.349999999998545, 5949568.200000000186265 ], [ 48076.42500000000291, 5949568.200000000186265 ], [ 48076.42500000000291, 5949568.049999999813735 ], [ 48076.5, 5949568.049999999813735 ], [ 48076.5, 5949567.974999999627471 ], [ 48076.57499999999709, 5949567.974999999627471 ], [ 48076.57499999999709, 5949567.825000000186265 ], [ 48076.650000000001455, 5949567.825000000186265 ], [ 48076.650000000001455, 5949567.75 ], [ 48076.724999999998545, 5949567.75 ], [ 48076.724999999998545, 5949567.674999999813735 ], [ 48076.80000000000291, 5949567.674999999813735 ], [ 48076.80000000000291, 5949567.599999999627471 ], [ 48076.875, 5949567.599999999627471 ], [ 48076.875, 5949567.525000000372529 ], [ 48076.94999999999709, 5949567.525000000372529 ], [ 48076.94999999999709, 5949567.450000000186265 ], [ 48077.025000000001455, 5949567.450000000186265 ], [ 48077.025000000001455, 5949567.299999999813735 ], [ 48077.099999999998545, 5949567.299999999813735 ], [ 48077.099999999998545, 5949567.224999999627471 ], [ 48077.17500000000291, 5949567.224999999627471 ], [ 48077.17500000000291, 5949567.075000000186265 ], [ 48077.25, 5949567.075000000186265 ], [ 48077.25, 5949567.0 ], [ 48077.32499999999709, 5949567.0 ], [ 48077.32499999999709, 5949566.849999999627471 ], [ 48077.400000000001455, 5949566.849999999627471 ], [ 48077.400000000001455, 5949566.700000000186265 ], [ 48077.474999999998545, 5949566.700000000186265 ], [ 48077.474999999998545, 5949566.549999999813735 ], [ 48077.55000000000291, 5949566.549999999813735 ], [ 48077.55000000000291, 5949566.400000000372529 ], [ 48077.625, 5949566.400000000372529 ], [ 48077.625, 5949566.174999999813735 ], [ 48077.69999999999709, 5949566.174999999813735 ], [ 48077.69999999999709, 5949566.025000000372529 ], [ 48077.775000000001455, 5949566.025000000372529 ], [ 48077.775000000001455, 5949565.875 ], [ 48077.849999999998545, 5949565.875 ], [ 48077.849999999998545, 5949565.724999999627471 ], [ 48077.92500000000291, 5949565.724999999627471 ], [ 48077.92500000000291, 5949565.575000000186265 ], [ 48078.0, 5949565.575000000186265 ], [ 48078.0, 5949565.424999999813735 ], [ 48078.07499999999709, 5949565.424999999813735 ], [ 48078.07499999999709, 5949565.275000000372529 ], [ 48078.150000000001455, 5949565.275000000372529 ], [ 48078.150000000001455, 5949565.049999999813735 ], [ 48078.224999999998545, 5949565.049999999813735 ], [ 48078.224999999998545, 5949564.900000000372529 ], [ 48078.30000000000291, 5949564.900000000372529 ], [ 48078.30000000000291, 5949564.75 ], [ 48078.375, 5949564.75 ], [ 48078.375, 5949564.525000000372529 ], [ 48078.44999999999709, 5949564.525000000372529 ], [ 48078.44999999999709, 5949564.375 ], [ 48078.525000000001455, 5949564.375 ], [ 48078.525000000001455, 5949564.299999999813735 ], [ 48078.900000000001455, 5949564.299999999813735 ], [ 48078.900000000001455, 5949564.224999999627471 ], [ 48079.349999999998545, 5949564.224999999627471 ], [ 48079.349999999998545, 5949564.150000000372529 ], [ 48079.650000000001455, 5949564.150000000372529 ], [ 48079.650000000001455, 5949564.075000000186265 ], [ 48079.94999999999709, 5949564.075000000186265 ], [ 48079.94999999999709, 5949564.0 ], [ 48080.17500000000291, 5949564.0 ], [ 48080.17500000000291, 5949563.924999999813735 ], [ 48080.400000000001455, 5949563.924999999813735 ], [ 48080.400000000001455, 5949563.849999999627471 ], [ 48080.55000000000291, 5949563.849999999627471 ], [ 48080.55000000000291, 5949563.775000000372529 ], [ 48080.69999999999709, 5949563.775000000372529 ], [ 48080.69999999999709, 5949563.700000000186265 ], [ 48080.849999999998545, 5949563.700000000186265 ], [ 48080.849999999998545, 5949563.625 ], [ 48081.0, 5949563.625 ], [ 48081.0, 5949563.549999999813735 ], [ 48081.07499999999709, 5949563.549999999813735 ], [ 48081.07499999999709, 5949563.474999999627471 ], [ 48081.150000000001455, 5949563.474999999627471 ], [ 48081.150000000001455, 5949563.400000000372529 ], [ 48081.224999999998545, 5949563.400000000372529 ], [ 48081.224999999998545, 5949563.325000000186265 ], [ 48081.30000000000291, 5949563.325000000186265 ], [ 48081.30000000000291, 5949563.25 ], [ 48081.375, 5949563.25 ], [ 48081.375, 5949563.099999999627471 ], [ 48081.44999999999709, 5949563.099999999627471 ], [ 48081.44999999999709, 5949562.950000000186265 ], [ 48081.525000000001455, 5949562.950000000186265 ], [ 48081.525000000001455, 5949562.724999999627471 ], [ 48081.599999999998545, 5949562.724999999627471 ], [ 48081.599999999998545, 5949562.5 ], [ 48081.67500000000291, 5949562.5 ], [ 48081.67500000000291, 5949562.200000000186265 ], [ 48081.75, 5949562.200000000186265 ], [ 48081.75, 5949561.75 ], [ 48081.82499999999709, 5949561.75 ], [ 48081.82499999999709, 5949561.075000000186265 ], [ 48081.900000000001455, 5949561.075000000186265 ], [ 48081.900000000001455, 5949560.400000000372529 ], [ 48081.974999999998545, 5949560.400000000372529 ], [ 48081.974999999998545, 5949560.325000000186265 ], [ 48082.05000000000291, 5949560.325000000186265 ], [ 48082.05000000000291, 5949560.25 ], [ 48082.19999999999709, 5949560.25 ], [ 48082.19999999999709, 5949560.174999999813735 ], [ 48082.275000000001455, 5949560.174999999813735 ], [ 48082.275000000001455, 5949560.099999999627471 ], [ 48082.349999999998545, 5949560.099999999627471 ], [ 48082.349999999998545, 5949560.025000000372529 ], [ 48082.5, 5949560.025000000372529 ], [ 48082.5, 5949559.950000000186265 ], [ 48082.57499999999709, 5949559.950000000186265 ], [ 48082.57499999999709, 5949559.875 ], [ 48082.724999999998545, 5949559.875 ], [ 48082.724999999998545, 5949559.799999999813735 ], [ 48082.80000000000291, 5949559.799999999813735 ], [ 48082.80000000000291, 5949559.724999999627471 ], [ 48082.94999999999709, 5949559.724999999627471 ], [ 48082.94999999999709, 5949559.650000000372529 ], [ 48083.025000000001455, 5949559.650000000372529 ], [ 48083.025000000001455, 5949559.575000000186265 ], [ 48083.099999999998545, 5949559.575000000186265 ], [ 48083.099999999998545, 5949559.5 ], [ 48083.25, 5949559.5 ], [ 48083.25, 5949559.424999999813735 ], [ 48083.32499999999709, 5949559.424999999813735 ], [ 48083.32499999999709, 5949559.349999999627471 ], [ 48083.400000000001455, 5949559.349999999627471 ], [ 48083.400000000001455, 5949559.275000000372529 ], [ 48083.474999999998545, 5949559.275000000372529 ], [ 48083.474999999998545, 5949559.200000000186265 ], [ 48083.55000000000291, 5949559.200000000186265 ], [ 48083.55000000000291, 5949559.125 ], [ 48083.625, 5949559.125 ], [ 48083.625, 5949559.049999999813735 ], [ 48083.69999999999709, 5949559.049999999813735 ], [ 48083.69999999999709, 5949558.974999999627471 ], [ 48083.775000000001455, 5949558.974999999627471 ], [ 48083.775000000001455, 5949558.900000000372529 ], [ 48083.849999999998545, 5949558.900000000372529 ], [ 48083.849999999998545, 5949558.825000000186265 ], [ 48083.92500000000291, 5949558.825000000186265 ], [ 48083.92500000000291, 5949558.75 ], [ 48084.0, 5949558.75 ], [ 48084.0, 5949558.674999999813735 ], [ 48084.07499999999709, 5949558.674999999813735 ], [ 48084.07499999999709, 5949558.599999999627471 ], [ 48084.150000000001455, 5949558.599999999627471 ], [ 48084.150000000001455, 5949558.450000000186265 ], [ 48084.30000000000291, 5949558.450000000186265 ], [ 48084.30000000000291, 5949558.375 ], [ 48084.375, 5949558.375 ], [ 48084.375, 5949558.299999999813735 ], [ 48084.599999999998545, 5949558.299999999813735 ], [ 48084.599999999998545, 5949558.224999999627471 ], [ 48084.82499999999709, 5949558.224999999627471 ], [ 48084.82499999999709, 5949558.150000000372529 ], [ 48085.05000000000291, 5949558.150000000372529 ], [ 48085.05000000000291, 5949558.075000000186265 ], [ 48085.275000000001455, 5949558.075000000186265 ], [ 48085.275000000001455, 5949558.0 ], [ 48085.57499999999709, 5949558.0 ], [ 48085.57499999999709, 5949557.924999999813735 ], [ 48085.80000000000291, 5949557.924999999813735 ], [ 48085.80000000000291, 5949557.849999999627471 ], [ 48086.099999999998545, 5949557.849999999627471 ], [ 48086.099999999998545, 5949557.775000000372529 ], [ 48087.150000000001455, 5949557.775000000372529 ], [ 48087.150000000001455, 5949557.700000000186265 ], [ 48090.150000000001455, 5949557.700000000186265 ], [ 48090.150000000001455, 5949557.625 ], [ 48093.0, 5949557.625 ], [ 48093.0, 5949557.700000000186265 ], [ 48094.05000000000291, 5949557.700000000186265 ], [ 48094.05000000000291, 5949557.775000000372529 ], [ 48094.5, 5949557.775000000372529 ], [ 48094.5, 5949557.849999999627471 ], [ 48094.875, 5949557.849999999627471 ], [ 48094.875, 5949557.924999999813735 ], [ 48095.32499999999709, 5949557.924999999813735 ], [ 48095.32499999999709, 5949558.0 ], [ 48095.69999999999709, 5949558.0 ], [ 48095.69999999999709, 5949558.075000000186265 ], [ 48096.07499999999709, 5949558.075000000186265 ], [ 48096.07499999999709, 5949558.150000000372529 ], [ 48096.375, 5949558.150000000372529 ], [ 48096.375, 5949558.224999999627471 ], [ 48096.67500000000291, 5949558.224999999627471 ], [ 48096.67500000000291, 5949558.299999999813735 ], [ 48097.05000000000291, 5949558.299999999813735 ], [ 48097.05000000000291, 5949558.375 ], [ 48097.349999999998545, 5949558.375 ], [ 48097.349999999998545, 5949558.450000000186265 ], [ 48097.57499999999709, 5949558.450000000186265 ], [ 48097.57499999999709, 5949558.525000000372529 ], [ 48097.724999999998545, 5949558.525000000372529 ], [ 48097.724999999998545, 5949558.599999999627471 ], [ 48097.875, 5949558.599999999627471 ], [ 48097.875, 5949558.674999999813735 ], [ 48098.025000000001455, 5949558.674999999813735 ], [ 48098.025000000001455, 5949558.75 ], [ 48098.17500000000291, 5949558.75 ], [ 48098.17500000000291, 5949558.825000000186265 ], [ 48098.32499999999709, 5949558.825000000186265 ], [ 48098.32499999999709, 5949558.900000000372529 ], [ 48098.474999999998545, 5949558.900000000372529 ], [ 48098.474999999998545, 5949558.974999999627471 ], [ 48098.55000000000291, 5949558.974999999627471 ], [ 48098.55000000000291, 5949559.049999999813735 ], [ 48098.775000000001455, 5949559.049999999813735 ], [ 48098.775000000001455, 5949559.125 ], [ 48098.92500000000291, 5949559.125 ], [ 48098.92500000000291, 5949559.200000000186265 ], [ 48099.07499999999709, 5949559.200000000186265 ], [ 48099.07499999999709, 5949559.275000000372529 ], [ 48099.224999999998545, 5949559.275000000372529 ], [ 48099.224999999998545, 5949559.349999999627471 ], [ 48099.375, 5949559.349999999627471 ], [ 48099.375, 5949559.424999999813735 ], [ 48099.599999999998545, 5949559.424999999813735 ], [ 48099.599999999998545, 5949559.5 ], [ 48099.75, 5949559.5 ], [ 48099.75, 5949559.575000000186265 ], [ 48099.974999999998545, 5949559.575000000186265 ], [ 48099.974999999998545, 5949559.650000000372529 ], [ 48100.125, 5949559.650000000372529 ], [ 48100.125, 5949559.724999999627471 ], [ 48100.275000000001455, 5949559.724999999627471 ], [ 48100.275000000001455, 5949559.799999999813735 ], [ 48100.42500000000291, 5949559.799999999813735 ], [ 48100.42500000000291, 5949559.875 ], [ 48100.57499999999709, 5949559.875 ], [ 48100.57499999999709, 5949559.950000000186265 ], [ 48100.724999999998545, 5949559.950000000186265 ], [ 48100.724999999998545, 5949560.025000000372529 ], [ 48100.875, 5949560.025000000372529 ], [ 48100.875, 5949560.099999999627471 ], [ 48101.025000000001455, 5949560.099999999627471 ], [ 48101.025000000001455, 5949560.174999999813735 ], [ 48101.17500000000291, 5949560.174999999813735 ], [ 48101.17500000000291, 5949560.25 ], [ 48101.32499999999709, 5949560.25 ], [ 48101.32499999999709, 5949560.325000000186265 ], [ 48101.474999999998545, 5949560.325000000186265 ], [ 48101.474999999998545, 5949560.400000000372529 ], [ 48101.625, 5949560.400000000372529 ], [ 48101.625, 5949560.474999999627471 ], [ 48101.55000000000291, 5949560.474999999627471 ], [ 48101.55000000000291, 5949560.549999999813735 ], [ 48101.400000000001455, 5949560.549999999813735 ], [ 48101.400000000001455, 5949560.625 ], [ 48101.25, 5949560.625 ], [ 48101.25, 5949560.700000000186265 ], [ 48101.099999999998545, 5949560.700000000186265 ], [ 48101.099999999998545, 5949560.775000000372529 ], [ 48100.94999999999709, 5949560.775000000372529 ], [ 48100.94999999999709, 5949560.849999999627471 ], [ 48100.80000000000291, 5949560.849999999627471 ], [ 48100.80000000000291, 5949560.924999999813735 ], [ 48100.650000000001455, 5949560.924999999813735 ], [ 48100.650000000001455, 5949561.0 ], [ 48100.5, 5949561.0 ], [ 48100.5, 5949561.075000000186265 ], [ 48100.349999999998545, 5949561.075000000186265 ], [ 48100.349999999998545, 5949561.150000000372529 ], [ 48100.125, 5949561.150000000372529 ], [ 48100.125, 5949561.224999999627471 ], [ 48099.900000000001455, 5949561.224999999627471 ], [ 48099.900000000001455, 5949561.299999999813735 ], [ 48099.599999999998545, 5949561.299999999813735 ], [ 48099.599999999998545, 5949561.375 ], [ 48099.30000000000291, 5949561.375 ], [ 48099.30000000000291, 5949561.450000000186265 ], [ 48099.0, 5949561.450000000186265 ], [ 48099.0, 5949561.525000000372529 ], [ 48098.69999999999709, 5949561.525000000372529 ], [ 48098.69999999999709, 5949561.599999999627471 ], [ 48098.32499999999709, 5949561.599999999627471 ], [ 48098.32499999999709, 5949561.674999999813735 ], [ 48097.94999999999709, 5949561.674999999813735 ], [ 48097.94999999999709, 5949561.75 ], [ 48097.57499999999709, 5949561.75 ], [ 48097.57499999999709, 5949561.825000000186265 ], [ 48097.125, 5949561.825000000186265 ], [ 48097.125, 5949561.900000000372529 ], [ 48096.67500000000291, 5949561.900000000372529 ], [ 48096.67500000000291, 5949561.974999999627471 ], [ 48096.224999999998545, 5949561.974999999627471 ], [ 48096.224999999998545, 5949562.049999999813735 ], [ 48095.69999999999709, 5949562.049999999813735 ], [ 48095.69999999999709, 5949562.125 ], [ 48095.17500000000291, 5949562.125 ], [ 48095.17500000000291, 5949562.200000000186265 ], [ 48094.57499999999709, 5949562.200000000186265 ], [ 48094.57499999999709, 5949562.275000000372529 ], [ 48094.05000000000291, 5949562.275000000372529 ], [ 48094.05000000000291, 5949562.349999999627471 ], [ 48093.525000000001455, 5949562.349999999627471 ], [ 48093.525000000001455, 5949562.424999999813735 ], [ 48093.30000000000291, 5949562.424999999813735 ], [ 48093.30000000000291, 5949562.5 ], [ 48093.150000000001455, 5949562.5 ], [ 48093.150000000001455, 5949562.575000000186265 ], [ 48093.0, 5949562.575000000186265 ], [ 48093.0, 5949562.650000000372529 ], [ 48092.775000000001455, 5949562.650000000372529 ], [ 48092.775000000001455, 5949562.724999999627471 ], [ 48092.625, 5949562.724999999627471 ], [ 48092.625, 5949562.799999999813735 ], [ 48092.400000000001455, 5949562.799999999813735 ], [ 48092.400000000001455, 5949562.875 ], [ 48092.25, 5949562.875 ], [ 48092.25, 5949562.950000000186265 ], [ 48092.099999999998545, 5949562.950000000186265 ], [ 48092.099999999998545, 5949563.025000000372529 ], [ 48091.875, 5949563.025000000372529 ], [ 48091.875, 5949563.099999999627471 ], [ 48091.724999999998545, 5949563.099999999627471 ], [ 48091.724999999998545, 5949563.174999999813735 ], [ 48091.57499999999709, 5949563.174999999813735 ], [ 48091.57499999999709, 5949563.25 ], [ 48091.349999999998545, 5949563.25 ], [ 48091.349999999998545, 5949563.325000000186265 ], [ 48091.125, 5949563.325000000186265 ], [ 48091.125, 5949563.400000000372529 ], [ 48090.900000000001455, 5949563.400000000372529 ], [ 48090.900000000001455, 5949563.474999999627471 ], [ 48090.599999999998545, 5949563.474999999627471 ], [ 48090.599999999998545, 5949563.549999999813735 ], [ 48090.375, 5949563.549999999813735 ], [ 48090.375, 5949563.625 ], [ 48090.07499999999709, 5949563.625 ], [ 48090.07499999999709, 5949563.700000000186265 ], [ 48089.775000000001455, 5949563.700000000186265 ], [ 48089.775000000001455, 5949563.775000000372529 ], [ 48089.474999999998545, 5949563.775000000372529 ], [ 48089.474999999998545, 5949563.849999999627471 ], [ 48089.099999999998545, 5949563.849999999627471 ], [ 48089.099999999998545, 5949563.924999999813735 ], [ 48088.650000000001455, 5949563.924999999813735 ], [ 48088.650000000001455, 5949564.0 ], [ 48088.19999999999709, 5949564.0 ], [ 48088.19999999999709, 5949564.075000000186265 ], [ 48087.82499999999709, 5949564.075000000186265 ], [ 48087.82499999999709, 5949564.150000000372529 ], [ 48087.375, 5949564.150000000372529 ], [ 48087.375, 5949564.224999999627471 ], [ 48086.92500000000291, 5949564.224999999627471 ], [ 48086.92500000000291, 5949564.299999999813735 ], [ 48086.400000000001455, 5949564.299999999813735 ], [ 48086.400000000001455, 5949564.375 ], [ 48086.25, 5949564.375 ], [ 48086.25, 5949564.450000000186265 ], [ 48086.099999999998545, 5949564.450000000186265 ], [ 48086.099999999998545, 5949564.525000000372529 ], [ 48086.025000000001455, 5949564.525000000372529 ], [ 48086.025000000001455, 5949564.599999999627471 ], [ 48085.875, 5949564.599999999627471 ], [ 48085.875, 5949564.674999999813735 ], [ 48085.724999999998545, 5949564.674999999813735 ], [ 48085.724999999998545, 5949564.75 ], [ 48085.650000000001455, 5949564.75 ], [ 48085.650000000001455, 5949564.825000000186265 ], [ 48085.5, 5949564.825000000186265 ], [ 48085.5, 5949564.900000000372529 ], [ 48085.275000000001455, 5949564.900000000372529 ], [ 48085.275000000001455, 5949564.974999999627471 ], [ 48085.125, 5949564.974999999627471 ], [ 48085.125, 5949565.049999999813735 ], [ 48084.900000000001455, 5949565.049999999813735 ], [ 48084.900000000001455, 5949565.125 ], [ 48084.67500000000291, 5949565.125 ], [ 48084.67500000000291, 5949565.200000000186265 ], [ 48084.44999999999709, 5949565.200000000186265 ], [ 48084.44999999999709, 5949565.275000000372529 ], [ 48084.30000000000291, 5949565.275000000372529 ], [ 48084.30000000000291, 5949565.349999999627471 ], [ 48084.150000000001455, 5949565.349999999627471 ], [ 48084.150000000001455, 5949565.424999999813735 ], [ 48084.0, 5949565.424999999813735 ], [ 48084.0, 5949565.5 ], [ 48083.92500000000291, 5949565.5 ], [ 48083.92500000000291, 5949565.575000000186265 ], [ 48083.775000000001455, 5949565.575000000186265 ], [ 48083.775000000001455, 5949565.650000000372529 ], [ 48083.69999999999709, 5949565.650000000372529 ], [ 48083.69999999999709, 5949565.724999999627471 ], [ 48083.625, 5949565.724999999627471 ], [ 48083.625, 5949565.799999999813735 ], [ 48083.55000000000291, 5949565.799999999813735 ], [ 48083.55000000000291, 5949565.875 ], [ 48083.474999999998545, 5949565.875 ], [ 48083.474999999998545, 5949565.950000000186265 ], [ 48083.400000000001455, 5949565.950000000186265 ], [ 48083.400000000001455, 5949566.025000000372529 ], [ 48083.32499999999709, 5949566.025000000372529 ], [ 48083.32499999999709, 5949566.099999999627471 ], [ 48083.25, 5949566.099999999627471 ], [ 48083.25, 5949566.174999999813735 ], [ 48083.17500000000291, 5949566.174999999813735 ], [ 48083.17500000000291, 5949566.25 ], [ 48083.099999999998545, 5949566.25 ], [ 48083.099999999998545, 5949566.400000000372529 ], [ 48083.025000000001455, 5949566.400000000372529 ], [ 48083.025000000001455, 5949566.625 ], [ 48082.94999999999709, 5949566.625 ], [ 48082.94999999999709, 5949566.849999999627471 ], [ 48082.875, 5949566.849999999627471 ], [ 48082.875, 5949567.075000000186265 ], [ 48082.80000000000291, 5949567.075000000186265 ], [ 48082.80000000000291, 5949567.224999999627471 ], [ 48082.724999999998545, 5949567.224999999627471 ], [ 48082.724999999998545, 5949567.450000000186265 ], [ 48082.650000000001455, 5949567.450000000186265 ], [ 48082.650000000001455, 5949567.599999999627471 ], [ 48082.57499999999709, 5949567.599999999627471 ], [ 48082.57499999999709, 5949567.75 ], [ 48082.5, 5949567.75 ], [ 48082.5, 5949567.900000000372529 ], [ 48082.42500000000291, 5949567.900000000372529 ], [ 48082.42500000000291, 5949568.275000000372529 ], [ 48082.349999999998545, 5949568.275000000372529 ], [ 48082.349999999998545, 5949569.400000000372529 ], [ 48082.275000000001455, 5949569.400000000372529 ], [ 48082.275000000001455, 5949570.900000000372529 ], [ 48082.19999999999709, 5949570.900000000372529 ], [ 48082.19999999999709, 5949573.075000000186265 ], [ 48082.125, 5949573.075000000186265 ], [ 48082.125, 5949579.0 ], [ 48074.099999999998545, 5949579.0 ] ] ] } },
{ "type": "Feature", "properties": { "value": 1.0, "building_id": 1, "area": 643.9893750004494 }, "geometry": { "type": "Polygon", "coordinates": [ [ [ 48162.150000000001455, 5948853.900000000372529 ], [ 48162.150000000001455, 5948853.825000000186265 ], [ 48161.32499999999709, 5948853.825000000186265 ], [ 48161.32499999999709, 5948853.75 ], [ 48160.57499999999709, 5948853.75 ], [ 48160.57499999999709, 5948853.674999999813735 ], [ 48159.974999999998545, 5948853.674999999813735 ], [ 48159.974999999998545, 5948853.599999999627471 ], [ 48159.44999999999709, 5948853.599999999627471 ], [ 48159.44999999999709, 5948853.525000000372529 ], [ 48159.0, 5948853.525000000372529 ], [ 48159.0, 5948853.450000000186265 ], [ 48158.55000000000291, 5948853.450000000186265 ], [ 48158.55000000000291, 5948853.375 ], [ 48158.099999999998545, 5948853.375 ], [ 48158.099999999998545, 5948853.299999999813735 ], [ 48157.57499999999709, 5948853.299999999813735 ], [ 48157.57499999999709, 5948853.224999999627471 ], [ 48157.05000000000291, 5948853.224999999627471 ], [ 48157.05000000000291, 5948853.150000000372529 ], [ 48156.375, 5948853.150000000372529 ], [ 48156.375, 5948853.075000000186265 ], [ 48155.55000000000291, 5948853.075000000186265 ], [ 48155.55000000000291, 5948853.0 ], [ 48154.57499999999709, 5948853.0 ], [ 48154.57499999999709, 5948852.924999999813735 ], [ 48153.599999999998545, 5948852.924999999813735 ], [ 48153.599999999998545, 5948852.849999999627471 ], [ 48152.625, 5948852.849999999627471 ], [ 48152.625, 5948852.775000000372529 ], [ 48151.650000000001455, 5948852.775000000372529 ], [ 48151.650000000001455, 5948852.700000000186265 ], [ 48150.82499999999709, 5948852.700000000186265 ], [ 48150.82499999999709, 5948852.625 ], [ 48150.07499999999709, 5948852.625 ], [ 48150.07499999999709, 5948852.549999999813735 ], [ 48149.474999999998545, 5948852.549999999813735 ], [ 48149.474999999998545, 5948852.474999999627471 ], [ 48148.875, 5948852.474999999627471 ], [ 48148.875, 5948852.400000000372529 ], [ 48148.5, 5948852.400000000372529 ], [ 48148.5, 5948852.325000000186265 ], [ 48148.19999999999709, 5948852.325000000186265 ], [ 48148.19999999999709, 5948852.25 ], [ 48147.900000000001455, 5948852.25 ], [ 48147.900000000001455, 5948852.174999999813735 ], [ 48147.525000000001455, 5948852.174999999813735 ], [ 48147.525000000001455, 5948852.099999999627471 ], [ 48147.224999999998545, 5948852.099999999627471 ], [ 48147.224999999998545, 5948852.025000000372529 ], [ 48146.92500000000291, 5948852.025000000372529 ], [ 48146.92500000000291, 5948851.950000000186265 ], [ 48146.775000000001455, 5948851.950000000186265 ], [ 48146.775000000001455, 5948851.875 ], [ 48146.625, 5948851.875 ], [ 48146.625, 5948851.799999999813735 ], [ 48146.55000000000291, 5948851.799999999813735 ], [ 48146.55000000000291, 5948851.724999999627471 ], [ 48146.400000000001455, 5948851.724999999627471 ], [ 48146.400000000001455, 5948851.650000000372529 ], [ 48146.32499999999709, 5948851.650000000372529 ], [ 48146.32499999999709, 5948851.575000000186265 ], [ 48146.25, 5948851.575000000186265 ], [ 48146.25, 5948851.5 ], [ 48146.17500000000291, 5948851.5 ], [ 48146.17500000000291, 5948851.424999999813735 ], [ 48146.099999999998545, 5948851.424999999813735 ], [ 48146.099999999998545, 5948851.349999999627471 ], [ 48146.025000000001455, 5948851.349999999627471 ], [ 48146.025000000001455, 5948851.275000000372529 ], [ 48145.94999999999709, 5948851.275000000372529 ], [ 48145.94999999999709, 5948851.200000000186265 ], [ 48145.875, 5948851.200000000186265 ], [ 48145.875, 5948851.125 ], [ 48145.80000000000291, 5948851.125 ], [ 48145.80000000000291, 5948851.049999999813735 ], [ 48145.724999999998545, 5948851.049999999813735 ], [ 48145.724999999998545, 5948850.974999999627471 ], [ 48145.650000000001455, 5948850.974999999627471 ], [ 48145.650000000001455, 5948850.900000000372529 ], [ 48145.5, 5948850.900000000372529 ], [ 48145.5, 5948850.825000000186265 ], [ 48145.42500000000291, 5948850.825000000186265 ], [ 48145.42500000000291, 5948850.75 ], [ 48145.349999999998545, 5948850.75 ], [ 48145.349999999998545, 5948850.674999999813735 ], [ 48145.19999999999709, 5948850.674999999813735 ], [ 48145.19999999999709, 5948850.599999999627471 ], [ 48145.125, 5948850.599999999627471 ], [ 48145.125, 5948850.525000000372529 ], [ 48144.974999999998545, 5948850.525000000372529 ], [ 48144.974999999998545, 5948850.450000000186265 ], [ 48144.900000000001455, 5948850.450000000186265 ], [ 48144.900000000001455, 5948850.375 ], [ 48144.75, 5948850.375 ], [ 48144.75, 5948850.299999999813735 ], [ 48144.67500000000291, 5948850.299999999813735 ], [ 48144.67500000000291, 5948850.224999999627471 ], [ 48144.599999999998545, 5948850.224999999627471 ], [ 48144.599999999998545, 5948850.150000000372529 ], [ 48144.525000000001455, 5948850.150000000372529 ], [ 48144.525000000001455, 5948850.075000000186265 ], [ 48144.44999999999709, 5948850.075000000186265 ], [ 48144.44999999999709, 5948850.0 ], [ 48144.375, 5948850.0 ], [ 48144.375, 5948849.924999999813735 ], [ 48144.30000000000291, 5948849.924999999813735 ], [ 48144.30000000000291, 5948849.775000000372529 ], [ 48144.224999999998545, 5948849.775000000372529 ], [ 48144.224999999998545, 5948849.700000000186265 ], [ 48144.150000000001455, 5948849.700000000186265 ], [ 48144.150000000001455, 5948849.625 ], [ 48144.07499999999709, 5948849.625 ], [ 48144.07499999999709, 5948849.474999999627471 ], [ 48144.0, 5948849.474999999627471 ], [ 48144.0, 5948849.25 ], [ 48143.92500000000291, 5948849.25 ], [ 48143.92500000000291, 5948849.025000000372529 ], [ 48143.849999999998545, 5948849.025000000372529 ], [ 48143.849999999998545, 5948848.799999999813735 ], [ 48143.775000000001455, 5948848.799999999813735 ], [ 48143.775000000001455, 5948848.575000000186265 ], [ 48143.69999999999709, 5948848.575000000186265 ], [ 48143.69999999999709, 5948848.349999999627471 ], [ 48143.625, 5948848.349999999627471 ], [ 48143.625, 5948848.200000000186265 ], [ 48143.55000000000291, 5948848.200000000186265 ], [ 48143.55000000000291, 5948847.974999999627471 ], [ 48143.474999999998545, 5948847.974999999627471 ], [ 48143.474999999998545, 5948847.75 ], [ 48143.400000000001455, 5948847.75 ], [ 48143.400000000001455, 5948847.525000000372529 ], [ 48143.32499999999709, 5948847.525000000372529 ], [ 48143.32499999999709, 5948847.299999999813735 ], [ 48143.25, 5948847.299999999813735 ], [ 48143.25, 5948847.075000000186265 ], [ 48143.17500000000291, 5948847.075000000186265 ], [ 48143.17500000000291, 5948846.849999999627471 ], [ 48143.099999999998545, 5948846.849999999627471 ], [ 48143.099999999998545, 5948846.700000000186265 ], [ 48143.025000000001455, 5948846.700000000186265 ], [ 48143.025000000001455, 5948846.474999999627471 ], [ 48142.94999999999709, 5948846.474999999627471 ], [ 48142.94999999999709, 5948846.325000000186265 ], [ 48142.875, 5948846.325000000186265 ], [ 48142.875, 5948846.174999999813735 ], [ 48142.80000000000291, 5948846.174999999813735 ], [ 48142.80000000000291, 5948846.025000000372529 ], [ 48142.724999999998545, 5948846.025000000372529 ], [ 48142.724999999998545, 5948845.799999999813735 ], [ 48142.650000000001455, 5948845.799999999813735 ], [ 48142.650000000001455, 5948845.575000000186265 ], [ 48142.57499999999709, 5948845.575000000186265 ], [ 48142.57499999999709, 5948845.349999999627471 ], [ 48142.5, 5948845.349999999627471 ], [ 48142.5, 5948845.125 ], [ 48142.42500000000291, 5948845.125 ], [ 48142.42500000000291, 5948844.825000000186265 ], [ 48142.349999999998545, 5948844.825000000186265 ], [ 48142.349999999998545, 5948844.450000000186265 ], [ 48142.275000000001455, 5948844.450000000186265 ], [ 48142.275000000001455, 5948844.075000000186265 ], [ 48142.19999999999709, 5948844.075000000186265 ], [ 48142.19999999999709, 5948843.700000000186265 ], [ 48142.125, 5948843.700000000186265 ], [ 48142.125, 5948842.950000000186265 ], [ 48142.05000000000291, 5948842.950000000186265 ], [ 48142.05000000000291, 5948842.049999999813735 ], [ 48141.974999999998545, 5948842.049999999813735 ], [ 48141.974999999998545, 5948840.700000000186265 ], [ 48141.900000000001455, 5948840.700000000186265 ], [ 48141.900000000001455, 5948838.599999999627471 ], [ 48141.974999999998545, 5948838.599999999627471 ], [ 48141.974999999998545, 5948838.224999999627471 ], [ 48142.05000000000291, 5948838.224999999627471 ], [ 48142.05000000000291, 5948837.775000000372529 ], [ 48142.125, 5948837.775000000372529 ], [ 48142.125, 5948837.549999999813735 ], [ 48142.19999999999709, 5948837.549999999813735 ], [ 48142.19999999999709, 5948837.25 ], [ 48142.275000000001455, 5948837.25 ], [ 48142.275000000001455, 5948837.025000000372529 ], [ 48142.349999999998545, 5948837.025000000372529 ], [ 48142.349999999998545, 5948836.799999999813735 ], [ 48142.42500000000291, 5948836.799999999813735 ], [ 48142.42500000000291, 5948836.575000000186265 ], [ 48142.5, 5948836.575000000186265 ], [ 48142.5, 5948836.349999999627471 ], [ 48142.57499999999709, 5948836.349999999627471 ], [ 48142.57499999999709, 5948836.125 ], [ 48142.650000000001455, 5948836.125 ], [ 48142.650000000001455, 5948835.974999999627471 ], [ 48142.724999999998545, 5948835.974999999627471 ], [ 48142.724999999998545, 5948835.75 ], [ 48142.80000000000291, 5948835.75 ], [ 48142.80000000000291, 5948835.599999999627471 ], [ 48142.875, 5948835.599999999627471 ], [ 48142.875, 5948835.450000000186265 ], [ 48142.94999999999709, 5948835.450000000186265 ], [ 48142.94999999999709, 5948835.375 ], [ 48143.025000000001455, 5948835.375 ], [ 48143.025000000001455, 5948835.224999999627471 ], [ 48143.099999999998545, 5948835.224999999627471 ], [ 48143.099999999998545, 5948835.075000000186265 ], [ 48143.17500000000291, 5948835.075000000186265 ], [ 48143.17500000000291, 5948834.924999999813735 ], [ 48143.25, 5948834.924999999813735 ], [ 48143.25, 5948834.775000000372529 ], [ 48143.32499999999709, 5948834.775000000372529 ], [ 48143.32499999999709, 5948834.625 ], [ 48143.400000000001455, 5948834.625 ], [ 48143.400000000001455, 5948834.474999999627471 ], [ 48143.474999999998545, 5948834.474999999627471 ], [ 48143.474999999998545, 5948834.25 ], [ 48143.55000000000291, 5948834.25 ], [ 48143.55000000000291, 5948834.099999999627471 ], [ 48143.625, 5948834.099999999627471 ], [ 48143.625, 5948833.875 ], [ 48143.69999999999709, 5948833.875 ], [ 48143.69999999999709, 5948833.5 ], [ 48143.775000000001455, 5948833.5 ], [ 48143.775000000001455, 5948833.125 ], [ 48143.849999999998545, 5948833.125 ], [ 48143.849999999998545, 5948832.75 ], [ 48143.92500000000291, 5948832.75 ], [ 48143.92500000000291, 5948832.375 ], [ 48144.0, 5948832.375 ], [ 48144.0, 5948832.0 ], [ 48144.07499999999709, 5948832.0 ], [ 48144.07499999999709, 5948829.0 ], [ 48170.849999999998545, 5948829.0 ], [ 48170.849999999998545, 5948832.900000000372529 ], [ 48170.92500000000291, 5948832.900000000372529 ], [ 48170.92500000000291, 5948834.025000000372529 ], [ 48171.0, 5948834.025000000372529 ], [ 48171.0, 5948834.625 ], [ 48171.07499999999709, 5948834.625 ], [ 48171.07499999999709, 5948835.299999999813735 ], [ 48171.150000000001455, 5948835.299999999813735 ], [ 48171.150000000001455, 5948836.049999999813735 ], [ 48171.224999999998545, 5948836.049999999813735 ], [ 48171.224999999998545, 5948836.724999999627471 ], [ 48171.30000000000291, 5948836.724999999627471 ], [ 48171.30000000000291, 5948837.474999999627471 ], [ 48171.375, 5948837.474999999627471 ], [ 48171.375, 5948838.150000000372529 ], [ 48171.44999999999709, 5948838.150000000372529 ], [ 48171.44999999999709, 5948838.825000000186265 ], [ 48171.525000000001455, 5948838.825000000186265 ], [ 48171.525000000001455, 5948839.424999999813735 ], [ 48171.599999999998545, 5948839.424999999813735 ], [ 48171.599999999998545, 5948840.174999999813735 ], [ 48171.525000000001455, 5948840.174999999813735 ], [ 48171.525000000001455, 5948840.549999999813735 ], [ 48171.44999999999709, 5948840.549999999813735 ], [ 48171.44999999999709, 5948841.0 ], [ 48171.375, 5948841.0 ], [ 48171.375, 5948841.375 ], [ 48171.30000000000291, 5948841.375 ], [ 48171.30000000000291, 5948841.75 ], [ 48171.224999999998545, 5948841.75 ], [ 48171.224999999998545, 5948841.974999999627471 ], [ 48171.150000000001455, 5948841.974999999627471 ], [ 48171.150000000001455, 5948842.200000000186265 ], [ 48171.07499999999709, 5948842.200000000186265 ], [ 48171.07499999999709, 5948842.349999999627471 ], [ 48171.0, 5948842.349999999627471 ], [ 48171.0, 5948842.575000000186265 ], [ 48170.92500000000291, 5948842.575000000186265 ], [ 48170.92500000000291, 5948842.724999999627471 ], [ 48170.849999999998545, 5948842.724999999627471 ], [ 48170.849999999998545, 5948842.875 ], [ 48170.775000000001455, 5948842.875 ], [ 48170.775000000001455, 5948843.099999999627471 ], [ 48170.69999999999709, 5948843.099999999627471 ], [ 48170.69999999999709, 5948843.25 ], [ 48170.625, 5948843.25 ], [ 48170.625, 5948843.400000000372529 ], [ 48170.55000000000291, 5948843.400000000372529 ], [ 48170.55000000000291, 5948843.549999999813735 ], [ 48170.474999999998545, 5948843.549999999813735 ], [ 48170.474999999998545, 5948843.625 ], [ 48170.400000000001455, 5948843.625 ], [ 48170.400000000001455, 5948843.775000000372529 ], [ 48170.32499999999709, 5948843.775000000372529 ], [ 48170.32499999999709, 5948843.924999999813735 ], [ 48170.25, 5948843.924999999813735 ], [ 48170.25, 5948844.0 ], [ 48170.17500000000291, 5948844.0 ], [ 48170.17500000000291, 5948844.150000000372529 ], [ 48170.099999999998545, 5948844.150000000372529 ], [ 48170.099999999998545, 5948844.299999999813735 ], [ 48170.025000000001455, 5948844.299999999813735 ], [ 48170.025000000001455, 5948844.525000000372529 ], [ 48169.94999999999709, 5948844.525000000372529 ], [ 48169.94999999999709, 5948844.674999999813735 ], [ 48169.875, 5948844.674999999813735 ], [ 48169.875, 5948844.900000000372529 ], [ 48169.80000000000291, 5948844.900000000372529 ], [ 48169.80000000000291, 5948845.125 ], [ 48169.724999999998545, 5948845.125 ], [ 48169.724999999998545, 5948845.349999999627471 ], [ 48169.650000000001455, 5948845.349999999627471 ], [ 48169.650000000001455, 5948845.575000000186265 ], [ 48169.57499999999709, 5948845.575000000186265 ], [ 48169.57499999999709, 5948845.950000000186265 ], [ 48169.5, 5948845.950000000186265 ], [ 48169.5, 5948846.325000000186265 ], [ 48169.42500000000291, 5948846.325000000186265 ], [ 48169.42500000000291, 5948846.700000000186265 ], [ 48169.349999999998545, 5948846.700000000186265 ], [ 48169.349999999998545, 5948847.150000000372529 ], [ 48169.275000000001455, 5948847.150000000372529 ], [ 48169.275000000001455, 5948847.525000000372529 ], [ 48169.19999999999709, 5948847.525000000372529 ], [ 48169.19999999999709, 5948847.825000000186265 ], [ 48169.125, 5948847.825000000186265 ], [ 48169.125, 5948848.049999999813735 ], [ 48169.05000000000291, 5948848.049999999813735 ], [ 48169.05000000000291, 5948848.349999999627471 ], [ 48168.974999999998545, 5948848.349999999627471 ], [ 48168.974999999998545, 5948848.575000000186265 ], [ 48168.900000000001455, 5948848.575000000186265 ], [ 48168.900000000001455, 5948848.724999999627471 ], [ 48168.82499999999709, 5948848.724999999627471 ], [ 48168.82499999999709, 5948848.950000000186265 ], [ 48168.75, 5948848.950000000186265 ], [ 48168.75, 5948849.099999999627471 ], [ 48168.67500000000291, 5948849.099999999627471 ], [ 48168.67500000000291, 5948849.25 ], [ 48168.599999999998545, 5948849.25 ], [ 48168.599999999998545, 5948849.400000000372529 ], [ 48168.525000000001455, 5948849.400000000372529 ], [ 48168.525000000001455, 5948849.549999999813735 ], [ 48168.44999999999709, 5948849.549999999813735 ], [ 48168.44999999999709, 5948849.625 ], [ 48168.375, 5948849.625 ], [ 48168.375, 5948849.700000000186265 ], [ 48168.30000000000291, 5948849.700000000186265 ], [ 48168.30000000000291, 5948849.775000000372529 ], [ 48168.224999999998545, 5948849.775000000372529 ], [ 48168.224999999998545, 5948849.849999999627471 ], [ 48168.150000000001455, 5948849.849999999627471 ], [ 48168.150000000001455, 5948850.0 ], [ 48168.07499999999709, 5948850.0 ], [ 48168.07499999999709, 5948850.075000000186265 ], [ 48168.0, 5948850.075000000186265 ], [ 48168.0, 5948850.150000000372529 ], [ 48167.92500000000291, 5948850.150000000372529 ], [ 48167.92500000000291, 5948850.224999999627471 ], [ 48167.849999999998545, 5948850.224999999627471 ], [ 48167.849999999998545, 5948850.299999999813735 ], [ 48167.775000000001455, 5948850.299999999813735 ], [ 48167.775000000001455, 5948850.450000000186265 ], [ 48167.69999999999709, 5948850.450000000186265 ], [ 48167.69999999999709, 5948850.525000000372529 ], [ 48167.625, 5948850.525000000372529 ], [ 48167.625, 5948850.599999999627471 ], [ 48167.55000000000291, 5948850.599999999627471 ], [ 48167.55000000000291, 5948850.75 ], [ 48167.474999999998545, 5948850.75 ], [ 48167.474999999998545, 5948850.825000000186265 ], [ 48167.400000000001455, 5948850.825000000186265 ], [ 48167.400000000001455, 5948850.974999999627471 ], [ 48167.32499999999709, 5948850.974999999627471 ], [ 48167.32499999999709, 5948851.049999999813735 ], [ 48167.25, 5948851.049999999813735 ], [ 48167.25, 5948851.200000000186265 ], [ 48167.17500000000291, 5948851.200000000186265 ], [ 48167.17500000000291, 5948851.349999999627471 ], [ 48167.099999999998545, 5948851.349999999627471 ], [ 48167.099999999998545, 5948851.424999999813735 ], [ 48167.025000000001455, 5948851.424999999813735 ], [ 48167.025000000001455, 5948851.575000000186265 ], [ 48166.94999999999709, 5948851.575000000186265 ], [ 48166.94999999999709, 5948851.650000000372529 ], [ 48166.875, 5948851.650000000372529 ], [ 48166.875, 5948851.724999999627471 ], [ 48166.80000000000291, 5948851.724999999627471 ], [ 48166.80000000000291, 5948851.799999999813735 ], [ 48166.724999999998545, 5948851.799999999813735 ], [ 48166.724999999998545, 5948851.875 ], [ 48166.650000000001455, 5948851.875 ], [ 48166.650000000001455, 5948851.950000000186265 ], [ 48166.57499999999709, 5948851.950000000186265 ], [ 48166.57499999999709, 5948852.025000000372529 ], [ 48166.42500000000291, 5948852.025000000372529 ], [ 48166.42500000000291, 5948852.099999999627471 ], [ 48166.349999999998545, 5948852.099999999627471 ], [ 48166.349999999998545, 5948852.174999999813735 ], [ 48166.19999999999709, 5948852.174999999813735 ], [ 48166.19999999999709, 5948852.25 ], [ 48166.05000000000291, 5948852.25 ], [ 48166.05000000000291, 5948852.325000000186265 ], [ 48165.900000000001455, 5948852.325000000186265 ], [ 48165.900000000001455, 5948852.400000000372529 ], [ 48165.75, 5948852.400000000372529 ], [ 48165.75, 5948852.474999999627471 ], [ 48165.67500000000291, 5948852.474999999627471 ], [ 48165.67500000000291, 5948852.549999999813735 ], [ 48165.525000000001455, 5948852.549999999813735 ], [ 48165.525000000001455, 5948852.625 ], [ 48165.375, 5948852.625 ], [ 48165.375, 5948852.700000000186265 ], [ 48165.30000000000291, 5948852.700000000186265 ], [ 48165.30000000000291, 5948852.775000000372529 ], [ 48165.150000000001455, 5948852.775000000372529 ], [ 48165.150000000001455, 5948852.849999999627471 ], [ 48165.07499999999709, 5948852.849999999627471 ], [ 48165.07499999999709, 5948852.924999999813735 ], [ 48164.92500000000291, 5948852.924999999813735 ], [ 48164.92500000000291, 5948853.0 ], [ 48164.849999999998545, 5948853.0 ], [ 48164.849999999998545, 5948853.075000000186265 ], [ 48164.69999999999709, 5948853.075000000186265 ], [ 48164.69999999999709, 5948853.150000000372529 ], [ 48164.625, 5948853.150000000372529 ], [ 48164.625, 5948853.224999999627471 ], [ 48164.55000000000291, 5948853.224999999627471 ], [ 48164.55000000000291, 5948853.299999999813735 ], [ 48164.400000000001455, 5948853.299999999813735 ], [ 48164.400000000001455, 5948853.375 ], [ 48164.25, 5948853.375 ], [ 48164.25, 5948853.450000000186265 ], [ 48164.025000000001455, 5948853.450000000186265 ], [ 48164.025000000001455, 5948853.525000000372529 ], [ 48163.80000000000291, 5948853.525000000372529 ], [ 48163.80000000000291, 5948853.599999999627471 ], [ 48163.5, 5948853.599999999627471 ], [ 48163.5, 5948853.674999999813735 ], [ 48163.275000000001455, 5948853.674999999813735 ], [ 48163.275000000001455, 5948853.75 ], [ 48162.974999999998545, 5948853.75 ], [ 48162.974999999998545, 5948853.825000000186265 ], [ 48162.599999999998545, 5948853.825000000186265 ], [ 48162.599999999998545, 5948853.900000000372529 ], [ 48162.150000000001455, 5948853.900000000372529 ] ] ] } }
]
}
